{
"type": "FeatureCollection",
"name": "Abyei",
"crs": { "type": "name", "properties": { "name": "urn:ogc:def:crs:OGC:1.3:CRS84" } },
"features": [
{ "type": "Feature", "properties": { "id": "XU", "CNTR_ID": "XU", "CNTR_NAME": "Abyei Region (Disputed Territory)", "NAME_ENGL": "Abyei", "ISO3_CODE": "XU", "FID": "XU" }, "geometry": { "type": "MultiPolygon", "coordinates": [ [ [ [ 27.907221, 9.610159 ], [ 27.814533, 9.800795 ], [ 27.81506, 10.143391 ], [ 28.975286, 10.117693 ], [ 28.976673, 9.734082 ], [ 28.977011, 9.641156 ], [ 28.893282, 9.567415 ], [ 28.873781, 9.548395 ], [ 28.860401, 9.53596 ], [ 28.837452, 9.512086 ], [ 28.834553, 9.509615 ], [ 28.821603, 9.500365 ], [ 28.817183, 9.498775 ], [ 28.81519, 9.494967 ], [ 28.811945, 9.490802 ], [ 28.8057, 9.487767 ], [ 28.803814, 9.483056 ], [ 28.803293, 9.476475 ], [ 28.799554, 9.472074 ], [ 28.799933, 9.464432 ], [ 28.79758, 9.459262 ], [ 28.791962, 9.450817 ], [ 28.790088, 9.447526 ], [ 28.790905, 9.44353 ], [ 28.788095, 9.435562 ], [ 28.777189, 9.424119 ], [ 28.760754, 9.404871 ], [ 28.758653, 9.403098 ], [ 28.763622, 9.375714 ], [ 28.768026, 9.35104 ], [ 28.765502, 9.348609 ], [ 28.041603, 9.343599 ], [ 28.037858, 9.345822 ], [ 28.023561, 9.375714 ], [ 27.907221, 9.610159 ] ] ] ] } }
]
}
