{
"type": "FeatureCollection",
"name": "Afghanistan",
"crs": { "type": "name", "properties": { "name": "urn:ogc:def:crs:OGC:1.3:CRS84" } },
"features": [
{ "type": "Feature", "properties": { "id": "AF", "CNTR_ID": "AF", "CNTR_NAME": "افغانستان-افغانستان", "NAME_ENGL": "Afghanistan", "ISO3_CODE": "AFG", "FID": "AF" }, "geometry": { "type": "MultiPolygon", "coordinates": [ [ [ [ 66.553732, 37.354753 ], [ 66.560371, 37.362403 ], [ 66.574991, 37.369112 ], [ 66.583729, 37.369858 ], [ 66.593615, 37.368709 ], [ 66.598148, 37.365551 ], [ 66.604058, 37.363622 ], [ 66.608607, 37.358965 ], [ 66.610323, 37.355165 ], [ 66.610292, 37.349045 ], [ 66.619644, 37.340325 ], [ 66.622986, 37.332011 ], [ 66.630714, 37.328598 ], [ 66.646783, 37.327937 ], [ 66.65217, 37.323632 ], [ 66.655344, 37.323068 ], [ 66.667115, 37.328707 ], [ 66.671792, 37.336361 ], [ 66.671761, 37.341691 ], [ 66.692668, 37.356985 ], [ 66.710595, 37.356397 ], [ 66.732825, 37.36368 ], [ 66.736944, 37.361536 ], [ 66.742778, 37.355393 ], [ 66.751148, 37.353846 ], [ 66.769075, 37.360847 ], [ 66.800728, 37.363236 ], [ 66.823893, 37.355998 ], [ 66.840946, 37.356289 ], [ 66.846084, 37.353721 ], [ 66.851148, 37.353517 ], [ 66.872677, 37.366364 ], [ 66.897053, 37.372 ], [ 66.903949, 37.374866 ], [ 66.914321, 37.383361 ], [ 66.923293, 37.386275 ], [ 66.935293, 37.393926 ], [ 66.946586, 37.398338 ], [ 66.96258, 37.394052 ], [ 66.979373, 37.385964 ], [ 66.991227, 37.3844 ], [ 66.998934, 37.377583 ], [ 67.007161, 37.375746 ], [ 67.011093, 37.373447 ], [ 67.022767, 37.37467 ], [ 67.038959, 37.379732 ], [ 67.048096, 37.379389 ], [ 67.059043, 37.372606 ], [ 67.069197, 37.360156 ], [ 67.087544, 37.349404 ], [ 67.087406, 37.340879 ], [ 67.096487, 37.334907 ], [ 67.104676, 37.333145 ], [ 67.112358, 37.327085 ], [ 67.113611, 37.314906 ], [ 67.11051, 37.304139 ], [ 67.110021, 37.29005 ], [ 67.122093, 37.281945 ], [ 67.125291, 37.273241 ], [ 67.130286, 37.270819 ], [ 67.140503, 37.269027 ], [ 67.143183, 37.264631 ], [ 67.162491, 37.258666 ], [ 67.165927, 37.258699 ], [ 67.177329, 37.258809 ], [ 67.183243, 37.260302 ], [ 67.19356, 37.257688 ], [ 67.1979, 37.253019 ], [ 67.208541, 37.248991 ], [ 67.212275, 37.24196 ], [ 67.222144, 37.238812 ], [ 67.23037, 37.23404 ], [ 67.240755, 37.223687 ], [ 67.24812, 37.20971 ], [ 67.249385, 37.199081 ], [ 67.255259, 37.189001 ], [ 67.260216, 37.184361 ], [ 67.26673, 37.182323 ], [ 67.273477, 37.182204 ], [ 67.283128, 37.185895 ], [ 67.304558, 37.188472 ], [ 67.310867, 37.191488 ], [ 67.325795, 37.20298 ], [ 67.343078, 37.206366 ], [ 67.348528, 37.207434 ], [ 67.350809, 37.208206 ], [ 67.379995, 37.218087 ], [ 67.403109, 37.21928 ], [ 67.415836, 37.225631 ], [ 67.448982, 37.234654 ], [ 67.459009, 37.240287 ], [ 67.466471, 37.247185 ], [ 67.471795, 37.257957 ], [ 67.480894, 37.269219 ], [ 67.493281, 37.275272 ], [ 67.499147, 37.281367 ], [ 67.515297, 37.27821 ], [ 67.520601, 37.272966 ], [ 67.532353, 37.270099 ], [ 67.535142, 37.266849 ], [ 67.535556, 37.259272 ], [ 67.541231, 37.257194 ], [ 67.546467, 37.252299 ], [ 67.550611, 37.246339 ], [ 67.556439, 37.241554 ], [ 67.558165, 37.237107 ], [ 67.571088, 37.224238 ], [ 67.575807, 37.223069 ], [ 67.589753, 37.226007 ], [ 67.595913, 37.229124 ], [ 67.604455, 37.236529 ], [ 67.610612, 37.2385 ], [ 67.612772, 37.239191 ], [ 67.622279, 37.238897 ], [ 67.627188, 37.236924 ], [ 67.635352, 37.227994 ], [ 67.645152, 37.222902 ], [ 67.652017, 37.223617 ], [ 67.657874, 37.228171 ], [ 67.663771, 37.230274 ], [ 67.680689, 37.232563 ], [ 67.68695, 37.228042 ], [ 67.704094, 37.223936 ], [ 67.713469, 37.224107 ], [ 67.723235, 37.218855 ], [ 67.736871, 37.214558 ], [ 67.741017, 37.209513 ], [ 67.753612, 37.203089 ], [ 67.758779, 37.19341 ], [ 67.775685, 37.182376 ], [ 67.778658, 37.179633 ], [ 67.791154, 37.164714 ], [ 67.785359, 37.112628 ], [ 67.799199, 37.080249 ], [ 67.815004, 37.070211 ], [ 67.841328, 37.06387 ], [ 67.862177, 37.062509 ], [ 67.889177, 37.067859 ], [ 67.895537, 37.066279 ], [ 67.898803, 37.058976 ], [ 67.893471, 37.041513 ], [ 67.898755, 37.029978 ], [ 67.922274, 37.009621 ], [ 67.946559, 36.994187 ], [ 67.949388, 36.97941 ], [ 67.953815, 36.972266 ], [ 67.974049, 36.965586 ], [ 67.992597, 36.956023 ], [ 68.001052, 36.935965 ], [ 68.020288, 36.924674 ], [ 68.052196, 36.932447 ], [ 68.066236, 36.943858 ], [ 68.121293, 36.962462 ], [ 68.136532, 36.974567 ], [ 68.151433, 36.996293 ], [ 68.189608, 37.020818 ], [ 68.221934, 37.024737 ], [ 68.255066, 37.008077 ], [ 68.271449, 37.012442 ], [ 68.282556, 37.024737 ], [ 68.288598, 37.044191 ], [ 68.290353, 37.056025 ], [ 68.287432, 37.076837 ], [ 68.297979, 37.105534 ], [ 68.324517, 37.110213 ], [ 68.348594, 37.106568 ], [ 68.372682, 37.099509 ], [ 68.401053, 37.102321 ], [ 68.420239, 37.110737 ], [ 68.409012, 37.12838 ], [ 68.412735, 37.137246 ], [ 68.418954, 37.142201 ], [ 68.427368, 37.144229 ], [ 68.457912, 37.141428 ], [ 68.468421, 37.145808 ], [ 68.478889, 37.155518 ], [ 68.486752, 37.158746 ], [ 68.539394, 37.164495 ], [ 68.569597, 37.188599 ], [ 68.609931, 37.195177 ], [ 68.628696, 37.205945 ], [ 68.644243, 37.208348 ], [ 68.652474, 37.220627 ], [ 68.652335, 37.239133 ], [ 68.656021, 37.245895 ], [ 68.662692, 37.245912 ], [ 68.676604, 37.237553 ], [ 68.688314, 37.244379 ], [ 68.68736, 37.249702 ], [ 68.67526, 37.267615 ], [ 68.67642, 37.275023 ], [ 68.681046, 37.278973 ], [ 68.688521, 37.279088 ], [ 68.697425, 37.276595 ], [ 68.721825, 37.269764 ], [ 68.732416, 37.26897 ], [ 68.758075, 37.281727 ], [ 68.774543, 37.287382 ], [ 68.782676, 37.287249 ], [ 68.792033, 37.279262 ], [ 68.796184, 37.262498 ], [ 68.80475, 37.247849 ], [ 68.811569, 37.243623 ], [ 68.819692, 37.244094 ], [ 68.83199, 37.249736 ], [ 68.836012, 37.257151 ], [ 68.829541, 37.267678 ], [ 68.813379, 37.27839 ], [ 68.809794, 37.295572 ], [ 68.819513, 37.311704 ], [ 68.832847, 37.31664 ], [ 68.845881, 37.315115 ], [ 68.869201, 37.302679 ], [ 68.898623, 37.269359 ], [ 68.904635, 37.267628 ], [ 68.912804, 37.268707 ], [ 68.924919, 37.275333 ], [ 68.92719, 37.281387 ], [ 68.922857, 37.290178 ], [ 68.905728, 37.301207 ], [ 68.895697, 37.324488 ], [ 68.897591, 37.330819 ], [ 68.906567, 37.333682 ], [ 68.931026, 37.321521 ], [ 68.938551, 37.321667 ], [ 68.948476, 37.326121 ], [ 68.970592, 37.319567 ], [ 68.975767, 37.309991 ], [ 68.99329, 37.30161 ], [ 68.999904, 37.29219 ], [ 69.009831, 37.284691 ], [ 69.030222, 37.25773 ], [ 69.056023, 37.242223 ], [ 69.072238, 37.236238 ], [ 69.086366, 37.225304 ], [ 69.104717, 37.189669 ], [ 69.116868, 37.175593 ], [ 69.153887, 37.157171 ], [ 69.169065, 37.146461 ], [ 69.201147, 37.135259 ], [ 69.21698, 37.123644 ], [ 69.223668, 37.113112 ], [ 69.240199, 37.09967 ], [ 69.255355, 37.094429 ], [ 69.263002, 37.100643 ], [ 69.277497, 37.104825 ], [ 69.28742, 37.111516 ], [ 69.323141, 37.118629 ], [ 69.33569, 37.13732 ], [ 69.371521, 37.164682 ], [ 69.380477, 37.166955 ], [ 69.39347, 37.16421 ], [ 69.400443, 37.166341 ], [ 69.421715, 37.192421 ], [ 69.426201, 37.202624 ], [ 69.452025, 37.231813 ], [ 69.452265, 37.234766 ], [ 69.448945, 37.236898 ], [ 69.426082, 37.23488 ], [ 69.413845, 37.241481 ], [ 69.418927, 37.260128 ], [ 69.416215, 37.26831 ], [ 69.407339, 37.276224 ], [ 69.412297, 37.29037 ], [ 69.400423, 37.302813 ], [ 69.40521, 37.309457 ], [ 69.404944, 37.313506 ], [ 69.400207, 37.317116 ], [ 69.390249, 37.316668 ], [ 69.380504, 37.325053 ], [ 69.386592, 37.345191 ], [ 69.394412, 37.354817 ], [ 69.390287, 37.360158 ], [ 69.37957, 37.362826 ], [ 69.380954, 37.371828 ], [ 69.375494, 37.381232 ], [ 69.383269, 37.392455 ], [ 69.374732, 37.400824 ], [ 69.37407, 37.406768 ], [ 69.382037, 37.430864 ], [ 69.394796, 37.449631 ], [ 69.415219, 37.458892 ], [ 69.429368, 37.472645 ], [ 69.436615, 37.487401 ], [ 69.447769, 37.489192 ], [ 69.45576, 37.494709 ], [ 69.457453, 37.50918 ], [ 69.475743, 37.5206 ], [ 69.492388, 37.523658 ], [ 69.498794, 37.538244 ], [ 69.511242, 37.547441 ], [ 69.51169, 37.557955 ], [ 69.518268, 37.564435 ], [ 69.522799, 37.577595 ], [ 69.531697, 37.588773 ], [ 69.538774, 37.590052 ], [ 69.548079, 37.583877 ], [ 69.565451, 37.579791 ], [ 69.59085, 37.581617 ], [ 69.605034, 37.579953 ], [ 69.621218, 37.574264 ], [ 69.702832, 37.575951 ], [ 69.721843, 37.580124 ], [ 69.736656, 37.586218 ], [ 69.746632, 37.587265 ], [ 69.773781, 37.583907 ], [ 69.799827, 37.570516 ], [ 69.808361, 37.568942 ], [ 69.821705, 37.575483 ], [ 69.831184, 37.594342 ], [ 69.838906, 37.601375 ], [ 69.854326, 37.604795 ], [ 69.866368, 37.610758 ], [ 69.8853, 37.61115 ], [ 69.910478, 37.618908 ], [ 69.943391, 37.6028 ], [ 69.949902, 37.588638 ], [ 69.951681, 37.571248 ], [ 69.959696, 37.564721 ], [ 69.992803, 37.565226 ], [ 70.00224, 37.556036 ], [ 70.016864, 37.549658 ], [ 70.035725, 37.549498 ], [ 70.048426, 37.544579 ], [ 70.059317, 37.545094 ], [ 70.082238, 37.534074 ], [ 70.098557, 37.53145 ], [ 70.116102, 37.524475 ], [ 70.140527, 37.524317 ], [ 70.153985, 37.532288 ], [ 70.170006, 37.532064 ], [ 70.180671, 37.55572 ], [ 70.181691, 37.567081 ], [ 70.195456, 37.565128 ], [ 70.210279, 37.569777 ], [ 70.20599, 37.580801 ], [ 70.209084, 37.583599 ], [ 70.219478, 37.586018 ], [ 70.215992, 37.596533 ], [ 70.218032, 37.604065 ], [ 70.244242, 37.612631 ], [ 70.254806, 37.609551 ], [ 70.26442, 37.612173 ], [ 70.266709, 37.620772 ], [ 70.262716, 37.643857 ], [ 70.274454, 37.65427 ], [ 70.277946, 37.669537 ], [ 70.286096, 37.681081 ], [ 70.299385, 37.690324 ], [ 70.301932, 37.695409 ], [ 70.300441, 37.700301 ], [ 70.28963, 37.712207 ], [ 70.297908, 37.72953 ], [ 70.288846, 37.750617 ], [ 70.294376, 37.766304 ], [ 70.277605, 37.785907 ], [ 70.274999, 37.797987 ], [ 70.277716, 37.813143 ], [ 70.253059, 37.830575 ], [ 70.220134, 37.834798 ], [ 70.188115, 37.849202 ], [ 70.178263, 37.875799 ], [ 70.180464, 37.891199 ], [ 70.173771, 37.927165 ], [ 70.177, 37.936055 ], [ 70.186822, 37.943251 ], [ 70.201323, 37.929799 ], [ 70.20975, 37.9253 ], [ 70.219178, 37.933484 ], [ 70.239779, 37.942043 ], [ 70.269367, 37.940552 ], [ 70.272672, 37.945984 ], [ 70.262184, 37.967963 ], [ 70.263452, 37.975685 ], [ 70.284469, 37.972466 ], [ 70.29426, 37.986799 ], [ 70.312138, 37.996224 ], [ 70.328638, 38.00116 ], [ 70.338902, 38.014315 ], [ 70.361905, 38.031413 ], [ 70.366595, 38.041026 ], [ 70.367641, 38.053302 ], [ 70.414478, 38.077208 ], [ 70.421388, 38.088998 ], [ 70.431863, 38.09795 ], [ 70.46531, 38.104522 ], [ 70.486843, 38.11789 ], [ 70.502901, 38.123405 ], [ 70.50431, 38.129113 ], [ 70.500638, 38.145276 ], [ 70.503663, 38.162976 ], [ 70.518236, 38.192327 ], [ 70.535297, 38.209786 ], [ 70.538059, 38.224578 ], [ 70.545452, 38.241948 ], [ 70.568138, 38.267281 ], [ 70.605699, 38.287591 ], [ 70.606588, 38.309768 ], [ 70.613261, 38.32424 ], [ 70.613, 38.345014 ], [ 70.628259, 38.351585 ], [ 70.644581, 38.349276 ], [ 70.656277, 38.35052 ], [ 70.66708, 38.357637 ], [ 70.684102, 38.364908 ], [ 70.69093, 38.371701 ], [ 70.691032, 38.382676 ], [ 70.676565, 38.392124 ], [ 70.682326, 38.409852 ], [ 70.696714, 38.417098 ], [ 70.719678, 38.415181 ], [ 70.742966, 38.420886 ], [ 70.75669, 38.429857 ], [ 70.774284, 38.453452 ], [ 70.807248, 38.445606 ], [ 70.830365, 38.450572 ], [ 70.848265, 38.440689 ], [ 70.857278, 38.447556 ], [ 70.864276, 38.462008 ], [ 70.873271, 38.467179 ], [ 70.883188, 38.467538 ], [ 70.897317, 38.460389 ], [ 70.906518, 38.441106 ], [ 70.92827, 38.433342 ], [ 70.938115, 38.439452 ], [ 70.951378, 38.439742 ], [ 70.957848, 38.444857 ], [ 70.95934, 38.455315 ], [ 70.947602, 38.466103 ], [ 70.948462, 38.473861 ], [ 70.969546, 38.47746 ], [ 70.990678, 38.488099 ], [ 70.998542, 38.484603 ], [ 71.008101, 38.473381 ], [ 71.028358, 38.461244 ], [ 71.046148, 38.413601 ], [ 71.056473, 38.401195 ], [ 71.065342, 38.402095 ], [ 71.075591, 38.41566 ], [ 71.090596, 38.421343 ], [ 71.102191, 38.420545 ], [ 71.110508, 38.407382 ], [ 71.130737, 38.39941 ], [ 71.144036, 38.398981 ], [ 71.152275, 38.390169 ], [ 71.164155, 38.384024 ], [ 71.179417, 38.357637 ], [ 71.185249, 38.347126 ], [ 71.200948, 38.339785 ], [ 71.221004, 38.324348 ], [ 71.253708, 38.31145 ], [ 71.290557, 38.312917 ], [ 71.325498, 38.302662 ], [ 71.331103, 38.295841 ], [ 71.329559, 38.284908 ], [ 71.33465, 38.273615 ], [ 71.358969, 38.268475 ], [ 71.365904, 38.264132 ], [ 71.370833, 38.257217 ], [ 71.368235, 38.225542 ], [ 71.376497, 38.210867 ], [ 71.365434, 38.191544 ], [ 71.373119, 38.160546 ], [ 71.365556, 38.152398 ], [ 71.352811, 38.148903 ], [ 71.345621, 38.14279 ], [ 71.339373, 38.131098 ], [ 71.335449, 38.115458 ], [ 71.320371, 38.098105 ], [ 71.318757, 38.068247 ], [ 71.305327, 38.047803 ], [ 71.286028, 38.039649 ], [ 71.287039, 38.034992 ], [ 71.293943, 38.028811 ], [ 71.294279, 38.020999 ], [ 71.289998, 38.014377 ], [ 71.279274, 38.006383 ], [ 71.277365, 37.996365 ], [ 71.270194, 37.988532 ], [ 71.272966, 37.967271 ], [ 71.26488, 37.953194 ], [ 71.264199, 37.940158 ], [ 71.25549, 37.931668 ], [ 71.257897, 37.925379 ], [ 71.277997, 37.92114 ], [ 71.289632, 37.92988 ], [ 71.299105, 37.929403 ], [ 71.31307, 37.917876 ], [ 71.32643, 37.891634 ], [ 71.332403, 37.887776 ], [ 71.378081, 37.904787 ], [ 71.417465, 37.910147 ], [ 71.430083, 37.918667 ], [ 71.440979, 37.922213 ], [ 71.459924, 37.928379 ], [ 71.506643, 37.951746 ], [ 71.51665, 37.951497 ], [ 71.527816, 37.945471 ], [ 71.540686, 37.944317 ], [ 71.571639, 37.935515 ], [ 71.590088, 37.919124 ], [ 71.591216, 37.911736 ], [ 71.587757, 37.894579 ], [ 71.596174, 37.873556 ], [ 71.585992, 37.844589 ], [ 71.593732, 37.805467 ], [ 71.58716, 37.796235 ], [ 71.556917, 37.784003 ], [ 71.536236, 37.764001 ], [ 71.549288, 37.737603 ], [ 71.549908, 37.713984 ], [ 71.540534, 37.689536 ], [ 71.527843, 37.670273 ], [ 71.526496, 37.633914 ], [ 71.506419, 37.603283 ], [ 71.502452, 37.561683 ], [ 71.495756, 37.542021 ], [ 71.50635, 37.508541 ], [ 71.523652, 37.476871 ], [ 71.518964, 37.464767 ], [ 71.50355, 37.447387 ], [ 71.496803, 37.42473 ], [ 71.495674, 37.409791 ], [ 71.481175, 37.403268 ], [ 71.476966, 37.392593 ], [ 71.479088, 37.385418 ], [ 71.492297, 37.37244 ], [ 71.489454, 37.33459 ], [ 71.503403, 37.31092 ], [ 71.494388, 37.296635 ], [ 71.493167, 37.281953 ], [ 71.480796, 37.23536 ], [ 71.466242, 37.222947 ], [ 71.456299, 37.210062 ], [ 71.460442, 37.188325 ], [ 71.448181, 37.173522 ], [ 71.450081, 37.154162 ], [ 71.44268, 37.123736 ], [ 71.443493, 37.10232 ], [ 71.440979, 37.097653 ], [ 71.434566, 37.085747 ], [ 71.430643, 37.068032 ], [ 71.435667, 37.052857 ], [ 71.440979, 37.0466 ], [ 71.459819, 37.024404 ], [ 71.466591, 37.005094 ], [ 71.469959, 36.98667 ], [ 71.465811, 36.967405 ], [ 71.467867, 36.953224 ], [ 71.475742, 36.940356 ], [ 71.487047, 36.929276 ], [ 71.493576, 36.916484 ], [ 71.507128, 36.903144 ], [ 71.525122, 36.874479 ], [ 71.528923, 36.859075 ], [ 71.540477, 36.844686 ], [ 71.542466, 36.827114 ], [ 71.553173, 36.807366 ], [ 71.567839, 36.763867 ], [ 71.588015, 36.736676 ], [ 71.617359, 36.714107 ], [ 71.632694, 36.694704 ], [ 71.65411, 36.686513 ], [ 71.674719, 36.675171 ], [ 71.689979, 36.676088 ], [ 71.712491, 36.673719 ], [ 71.758906, 36.677768 ], [ 71.786941, 36.6763 ], [ 71.8156, 36.681228 ], [ 71.843037, 36.682653 ], [ 71.871691, 36.700158 ], [ 71.891539, 36.717226 ], [ 71.905518, 36.733278 ], [ 71.938945, 36.74604 ], [ 71.958144, 36.756648 ], [ 71.977483, 36.77491 ], [ 72.006314, 36.79485 ], [ 72.021442, 36.811371 ], [ 72.042248, 36.819648 ], [ 72.052515, 36.830103 ], [ 72.06621, 36.837724 ], [ 72.088662, 36.839841 ], [ 72.108495, 36.844939 ], [ 72.12657, 36.869924 ], [ 72.139289, 36.877837 ], [ 72.15321, 36.881929 ], [ 72.171322, 36.895118 ], [ 72.194025, 36.906674 ], [ 72.210657, 36.925177 ], [ 72.230155, 36.930761 ], [ 72.248946, 36.944603 ], [ 72.274924, 36.951675 ], [ 72.303082, 36.970201 ], [ 72.331329, 36.980588 ], [ 72.343369, 36.987523 ], [ 72.383082, 36.990763 ], [ 72.401794, 36.99576 ], [ 72.419702, 37.005494 ], [ 72.442948, 37.005731 ], [ 72.475635, 36.994615 ], [ 72.490376, 36.997925 ], [ 72.525651, 36.998847 ], [ 72.563486, 37.006107 ], [ 72.575093, 37.010777 ], [ 72.587967, 37.011486 ], [ 72.60912, 37.023892 ], [ 72.621109, 37.028018 ], [ 72.634693, 37.027327 ], [ 72.645358, 37.020763 ], [ 72.658726, 37.018525 ], [ 72.674856, 37.022779 ], [ 72.683614, 37.051753 ], [ 72.699319, 37.066624 ], [ 72.703659, 37.080717 ], [ 72.714917, 37.089869 ], [ 72.726876, 37.107478 ], [ 72.739807, 37.120557 ], [ 72.758929, 37.153808 ], [ 72.774368, 37.190908 ], [ 72.795186, 37.215368 ], [ 72.812992, 37.2288 ], [ 72.834746, 37.234699 ], [ 72.853228, 37.229702 ], [ 72.863638, 37.231084 ], [ 72.892178, 37.244071 ], [ 72.919672, 37.263198 ], [ 72.937413, 37.281148 ], [ 72.950799, 37.288267 ], [ 72.968227, 37.290947 ], [ 72.982233, 37.298017 ], [ 73.018225, 37.305234 ], [ 73.029672, 37.305851 ], [ 73.044299, 37.30664 ], [ 73.092118, 37.323983 ], [ 73.105933, 37.338008 ], [ 73.104003, 37.34743 ], [ 73.10771, 37.360262 ], [ 73.117631, 37.366945 ], [ 73.133486, 37.373154 ], [ 73.152071, 37.403202 ], [ 73.169219, 37.408295 ], [ 73.191935, 37.407817 ], [ 73.206181, 37.40452 ], [ 73.215963, 37.406135 ], [ 73.238757, 37.418324 ], [ 73.258323, 37.437458 ], [ 73.275053, 37.444704 ], [ 73.286902, 37.455248 ], [ 73.303228, 37.462154 ], [ 73.332167, 37.465579 ], [ 73.362975, 37.460275 ], [ 73.367283, 37.455855 ], [ 73.367652, 37.446666 ], [ 73.373911, 37.443534 ], [ 73.400274, 37.454413 ], [ 73.414936, 37.464806 ], [ 73.427121, 37.468674 ], [ 73.453336, 37.473503 ], [ 73.513204, 37.47301 ], [ 73.533842, 37.470768 ], [ 73.581094, 37.447503 ], [ 73.643625, 37.436545 ], [ 73.684815, 37.448203 ], [ 73.72918, 37.440416 ], [ 73.773317, 37.437488 ], [ 73.771672, 37.400095 ], [ 73.767912, 37.388213 ], [ 73.771884, 37.340081 ], [ 73.753688, 37.330847 ], [ 73.748728, 37.321441 ], [ 73.731071, 37.315719 ], [ 73.713371, 37.31452 ], [ 73.704457, 37.308739 ], [ 73.677112, 37.309026 ], [ 73.664147, 37.314249 ], [ 73.655535, 37.311953 ], [ 73.649728, 37.301267 ], [ 73.652398, 37.292291 ], [ 73.650096, 37.285625 ], [ 73.642324, 37.28156 ], [ 73.630226, 37.280457 ], [ 73.619246, 37.269327 ], [ 73.62853, 37.263688 ], [ 73.63303, 37.248864 ], [ 73.65274, 37.238415 ], [ 73.658469, 37.239627 ], [ 73.666074, 37.248324 ], [ 73.690039, 37.252157 ], [ 73.725543, 37.244911 ], [ 73.739337, 37.228625 ], [ 73.755292, 37.22368 ], [ 73.762082, 37.226193 ], [ 73.765789, 37.234174 ], [ 73.779265, 37.237351 ], [ 73.802582, 37.228097 ], [ 73.814822, 37.23079 ], [ 73.829706, 37.228384 ], [ 73.841976, 37.235374 ], [ 73.844159, 37.246922 ], [ 73.851424, 37.255528 ], [ 73.880912, 37.265485 ], [ 73.89127, 37.27595 ], [ 73.907606, 37.281833 ], [ 73.924692, 37.283958 ], [ 73.950644, 37.276779 ], [ 73.96616, 37.297172 ], [ 73.985495, 37.296676 ], [ 74.000305, 37.289889 ], [ 74.009573, 37.290508 ], [ 74.029079, 37.30702 ], [ 74.034811, 37.307379 ], [ 74.041951, 37.301023 ], [ 74.05949, 37.309469 ], [ 74.062481, 37.313802 ], [ 74.061891, 37.322508 ], [ 74.064983, 37.324674 ], [ 74.078841, 37.320202 ], [ 74.100793, 37.318438 ], [ 74.109766, 37.320616 ], [ 74.115952, 37.326793 ], [ 74.13238, 37.325859 ], [ 74.141774, 37.333563 ], [ 74.156344, 37.340529 ], [ 74.175829, 37.339564 ], [ 74.180198, 37.337664 ], [ 74.186538, 37.334908 ], [ 74.200374, 37.336948 ], [ 74.207518, 37.341126 ], [ 74.212876, 37.349194 ], [ 74.225402, 37.352237 ], [ 74.238526, 37.371775 ], [ 74.25044, 37.375294 ], [ 74.249115, 37.379266 ], [ 74.230756, 37.395819 ], [ 74.23303, 37.404882 ], [ 74.241567, 37.413693 ], [ 74.247608, 37.41326 ], [ 74.256483, 37.408773 ], [ 74.266823, 37.408875 ], [ 74.276822, 37.402688 ], [ 74.316333, 37.399425 ], [ 74.325193, 37.406268 ], [ 74.341658, 37.40748 ], [ 74.350162, 37.421496 ], [ 74.371239, 37.423596 ], [ 74.3881, 37.41257 ], [ 74.386565, 37.403789 ], [ 74.391134, 37.396856 ], [ 74.401288, 37.391983 ], [ 74.414642, 37.389504 ], [ 74.427271, 37.394578 ], [ 74.433033, 37.409422 ], [ 74.437956, 37.414182 ], [ 74.451526, 37.405676 ], [ 74.465649, 37.407251 ], [ 74.468943, 37.422573 ], [ 74.481871, 37.41178 ], [ 74.484891, 37.401997 ], [ 74.492934, 37.397439 ], [ 74.519976, 37.401247 ], [ 74.530956, 37.407366 ], [ 74.553685, 37.398298 ], [ 74.559367, 37.380591 ], [ 74.5666, 37.373785 ], [ 74.61531, 37.38228 ], [ 74.637068, 37.376914 ], [ 74.64508, 37.383069 ], [ 74.663276, 37.385451 ], [ 74.675599, 37.39022 ], [ 74.690753, 37.403933 ], [ 74.698226, 37.398812 ], [ 74.709589, 37.382989 ], [ 74.725441, 37.377526 ], [ 74.73772, 37.376931 ], [ 74.7709, 37.363737 ], [ 74.802435, 37.354805 ], [ 74.819472, 37.337881 ], [ 74.831862, 37.332576 ], [ 74.854273, 37.295831 ], [ 74.875234, 37.275708 ], [ 74.878119, 37.262895 ], [ 74.887875, 37.25494 ], [ 74.889862, 37.23409 ], [ 74.887978, 37.224038 ], [ 74.884285, 37.221664 ], [ 74.872384, 37.224245 ], [ 74.859544, 37.223969 ], [ 74.853693, 37.219284 ], [ 74.835248, 37.21843 ], [ 74.829008, 37.21553 ], [ 74.809621, 37.215168 ], [ 74.799972, 37.229632 ], [ 74.801269, 37.23659 ], [ 74.79704, 37.24553 ], [ 74.780054, 37.252315 ], [ 74.776771, 37.25997 ], [ 74.766713, 37.265557 ], [ 74.750107, 37.283465 ], [ 74.739433, 37.285752 ], [ 74.713974, 37.281499 ], [ 74.70019, 37.267194 ], [ 74.688083, 37.265453 ], [ 74.666761, 37.242728 ], [ 74.664299, 37.237152 ], [ 74.65997, 37.235139 ], [ 74.646039, 37.240001 ], [ 74.64536, 37.251686 ], [ 74.630886, 37.26356 ], [ 74.614702, 37.254934 ], [ 74.593356, 37.258124 ], [ 74.589677, 37.2525 ], [ 74.58887, 37.242964 ], [ 74.581166, 37.235818 ], [ 74.571857, 37.235966 ], [ 74.543125, 37.248404 ], [ 74.53419, 37.242755 ], [ 74.517811, 37.243848 ], [ 74.502291, 37.239381 ], [ 74.498035, 37.2288 ], [ 74.501072, 37.221887 ], [ 74.4951, 37.211799 ], [ 74.486945, 37.208755 ], [ 74.48107, 37.203122 ], [ 74.472342, 37.201641 ], [ 74.469335, 37.197367 ], [ 74.473825, 37.190107 ], [ 74.481608, 37.18706 ], [ 74.488746, 37.178069 ], [ 74.486358, 37.166673 ], [ 74.471148, 37.15992 ], [ 74.470954, 37.150447 ], [ 74.457994, 37.146272 ], [ 74.456629, 37.142402 ], [ 74.462679, 37.128296 ], [ 74.491096, 37.116031 ], [ 74.491587, 37.110068 ], [ 74.485236, 37.095549 ], [ 74.495374, 37.08886 ], [ 74.496514, 37.064306 ], [ 74.501445, 37.061511 ], [ 74.507658, 37.063528 ], [ 74.514712, 37.077997 ], [ 74.52963, 37.078665 ], [ 74.537047, 37.065073 ], [ 74.534045, 37.049593 ], [ 74.554773, 37.043979 ], [ 74.561726, 37.038193 ], [ 74.564626, 37.030852 ], [ 74.555122, 37.029793 ], [ 74.547394, 37.02506 ], [ 74.535804, 37.025038 ], [ 74.518648, 37.015774 ], [ 74.518099, 37.010447 ], [ 74.525047, 37.004187 ], [ 74.52771, 36.997068 ], [ 74.537798, 36.989367 ], [ 74.536329, 36.979751 ], [ 74.54349, 36.972163 ], [ 74.541882, 36.964377 ], [ 74.535074, 36.958046 ], [ 74.522582, 36.959455 ], [ 74.507787, 36.965542 ], [ 74.498871, 36.981538 ], [ 74.491992, 36.987208 ], [ 74.4736, 36.989965 ], [ 74.455878, 37.003614 ], [ 74.445317, 37.002596 ], [ 74.42567, 37.0103 ], [ 74.418097, 37.005524 ], [ 74.414611, 36.995975 ], [ 74.420413, 36.987297 ], [ 74.415316, 36.975496 ], [ 74.396525, 36.973148 ], [ 74.392864, 36.967602 ], [ 74.386195, 36.963879 ], [ 74.367983, 36.964672 ], [ 74.347272, 36.960649 ], [ 74.334124, 36.950651 ], [ 74.331733, 36.94493 ], [ 74.317051, 36.938378 ], [ 74.308221, 36.918926 ], [ 74.294174, 36.912828 ], [ 74.271703, 36.911918 ], [ 74.263062, 36.902975 ], [ 74.239259, 36.895042 ], [ 74.224736, 36.896931 ], [ 74.214782, 36.906533 ], [ 74.20496, 36.904657 ], [ 74.199962, 36.910552 ], [ 74.189861, 36.9103 ], [ 74.180198, 36.914571 ], [ 74.176606, 36.916159 ], [ 74.172898, 36.912319 ], [ 74.171587, 36.90362 ], [ 74.153636, 36.89739 ], [ 74.153137, 36.893486 ], [ 74.159029, 36.885843 ], [ 74.148664, 36.883054 ], [ 74.136427, 36.87271 ], [ 74.129442, 36.861745 ], [ 74.134081, 36.852125 ], [ 74.125214, 36.848645 ], [ 74.120748, 36.838935 ], [ 74.1094, 36.838166 ], [ 74.098175, 36.841937 ], [ 74.083347, 36.838029 ], [ 74.066055, 36.840593 ], [ 74.046299, 36.826462 ], [ 74.036938, 36.827073 ], [ 74.029079, 36.829515 ], [ 74.005706, 36.836779 ], [ 73.996061, 36.830895 ], [ 73.989842, 36.831068 ], [ 73.96999, 36.837582 ], [ 73.96551, 36.842156 ], [ 73.957822, 36.843006 ], [ 73.954565, 36.851192 ], [ 73.956482, 36.858449 ], [ 73.949099, 36.860846 ], [ 73.946759, 36.86596 ], [ 73.933224, 36.873766 ], [ 73.926614, 36.874013 ], [ 73.913698, 36.869801 ], [ 73.908083, 36.874217 ], [ 73.893295, 36.878472 ], [ 73.904341, 36.887696 ], [ 73.907009, 36.899237 ], [ 73.890701, 36.912167 ], [ 73.85417, 36.917458 ], [ 73.843508, 36.925631 ], [ 73.835459, 36.924821 ], [ 73.830519, 36.920364 ], [ 73.82586, 36.912151 ], [ 73.826225, 36.898982 ], [ 73.805448, 36.891202 ], [ 73.800362, 36.891409 ], [ 73.798243, 36.897252 ], [ 73.793064, 36.900133 ], [ 73.774159, 36.898676 ], [ 73.770431, 36.904989 ], [ 73.759199, 36.905555 ], [ 73.752845, 36.911396 ], [ 73.732239, 36.903316 ], [ 73.715714, 36.905226 ], [ 73.698831, 36.91385 ], [ 73.690313, 36.915509 ], [ 73.658334, 36.910584 ], [ 73.639326, 36.90344 ], [ 73.625095, 36.89806 ], [ 73.61706, 36.905805 ], [ 73.600664, 36.907753 ], [ 73.594979, 36.900826 ], [ 73.584147, 36.899691 ], [ 73.572604, 36.889474 ], [ 73.548994, 36.890727 ], [ 73.544983, 36.876416 ], [ 73.541685, 36.873216 ], [ 73.526659, 36.87827 ], [ 73.510537, 36.891811 ], [ 73.487166, 36.893393 ], [ 73.47994, 36.896637 ], [ 73.46693, 36.892068 ], [ 73.451882, 36.893442 ], [ 73.448039, 36.886288 ], [ 73.439103, 36.893808 ], [ 73.417778, 36.893619 ], [ 73.401993, 36.898815 ], [ 73.393201, 36.889508 ], [ 73.3768, 36.887544 ], [ 73.375994, 36.87988 ], [ 73.365246, 36.881105 ], [ 73.359395, 36.878561 ], [ 73.353404, 36.879683 ], [ 73.346556, 36.886936 ], [ 73.333905, 36.890135 ], [ 73.32524, 36.887303 ], [ 73.309798, 36.870808 ], [ 73.304194, 36.868983 ], [ 73.299211, 36.870863 ], [ 73.290533, 36.882399 ], [ 73.268104, 36.890415 ], [ 73.259737, 36.888831 ], [ 73.25096, 36.88342 ], [ 73.23875, 36.884702 ], [ 73.226729, 36.882786 ], [ 73.216124, 36.887601 ], [ 73.20345, 36.880397 ], [ 73.184577, 36.878314 ], [ 73.177732, 36.879371 ], [ 73.154913, 36.893271 ], [ 73.148775, 36.894419 ], [ 73.126506, 36.884969 ], [ 73.117961, 36.881343 ], [ 73.083522, 36.886722 ], [ 73.069189, 36.885153 ], [ 73.064157, 36.881137 ], [ 73.064343, 36.872123 ], [ 73.055678, 36.868312 ], [ 73.042502, 36.867888 ], [ 73.038703, 36.859642 ], [ 73.029672, 36.860353 ], [ 73.012604, 36.861697 ], [ 73.000318, 36.860637 ], [ 72.994253, 36.863454 ], [ 72.985905, 36.862855 ], [ 72.96904, 36.875244 ], [ 72.957554, 36.876445 ], [ 72.944615, 36.86817 ], [ 72.943635, 36.862325 ], [ 72.936254, 36.856457 ], [ 72.930589, 36.844601 ], [ 72.905351, 36.847818 ], [ 72.890444, 36.840059 ], [ 72.864689, 36.841122 ], [ 72.8521, 36.84493 ], [ 72.838483, 36.841775 ], [ 72.821181, 36.841655 ], [ 72.802585, 36.849504 ], [ 72.778532, 36.843832 ], [ 72.76764, 36.853158 ], [ 72.756756, 36.854709 ], [ 72.717503, 36.838373 ], [ 72.704919, 36.84314 ], [ 72.680188, 36.842396 ], [ 72.650767, 36.850706 ], [ 72.635596, 36.844328 ], [ 72.620272, 36.843287 ], [ 72.606894, 36.837258 ], [ 72.590302, 36.836655 ], [ 72.570285, 36.828189 ], [ 72.560555, 36.827157 ], [ 72.549684, 36.814924 ], [ 72.524621, 36.801034 ], [ 72.498478, 36.78032 ], [ 72.450555, 36.774748 ], [ 72.431506, 36.780023 ], [ 72.418454, 36.780265 ], [ 72.399651, 36.775757 ], [ 72.393133, 36.76422 ], [ 72.375281, 36.759212 ], [ 72.360394, 36.759754 ], [ 72.336525, 36.764844 ], [ 72.32921, 36.753999 ], [ 72.31316, 36.744663 ], [ 72.301967, 36.741523 ], [ 72.248471, 36.750795 ], [ 72.24248, 36.744626 ], [ 72.230709, 36.738411 ], [ 72.227896, 36.729505 ], [ 72.217809, 36.727321 ], [ 72.208919, 36.722016 ], [ 72.19794, 36.721206 ], [ 72.188039, 36.713336 ], [ 72.19308, 36.70403 ], [ 72.190067, 36.694452 ], [ 72.198154, 36.685767 ], [ 72.207147, 36.668533 ], [ 72.204976, 36.659577 ], [ 72.192597, 36.65559 ], [ 72.159984, 36.658421 ], [ 72.129754, 36.647407 ], [ 72.097987, 36.645594 ], [ 72.086745, 36.624749 ], [ 72.088527, 36.602348 ], [ 72.081771, 36.590461 ], [ 72.034009, 36.590698 ], [ 72.026795, 36.575335 ], [ 72.001554, 36.558072 ], [ 71.988903, 36.555553 ], [ 71.962042, 36.555386 ], [ 71.938955, 36.546406 ], [ 71.926138, 36.533289 ], [ 71.92197, 36.519877 ], [ 71.91233, 36.5087 ], [ 71.871691, 36.502204 ], [ 71.867226, 36.50149 ], [ 71.825705, 36.507895 ], [ 71.807505, 36.504659 ], [ 71.799463, 36.486845 ], [ 71.799114, 36.476357 ], [ 71.824196, 36.432582 ], [ 71.8181, 36.426359 ], [ 71.818858, 36.415266 ], [ 71.805672, 36.401379 ], [ 71.790081, 36.404389 ], [ 71.777922, 36.411358 ], [ 71.762396, 36.426604 ], [ 71.741992, 36.437521 ], [ 71.731124, 36.446408 ], [ 71.712643, 36.453104 ], [ 71.704629, 36.458495 ], [ 71.688952, 36.4601 ], [ 71.657779, 36.48092 ], [ 71.63951, 36.47577 ], [ 71.634646, 36.454916 ], [ 71.637473, 36.4435 ], [ 71.625632, 36.435214 ], [ 71.624761, 36.420561 ], [ 71.614091, 36.404502 ], [ 71.600871, 36.397463 ], [ 71.594643, 36.390008 ], [ 71.579776, 36.380317 ], [ 71.561104, 36.371806 ], [ 71.565852, 36.363124 ], [ 71.585187, 36.347739 ], [ 71.576514, 36.329894 ], [ 71.56502, 36.326929 ], [ 71.546495, 36.327486 ], [ 71.52885, 36.332839 ], [ 71.523535, 36.332188 ], [ 71.51761, 36.308993 ], [ 71.504953, 36.300285 ], [ 71.484887, 36.296613 ], [ 71.475649, 36.280869 ], [ 71.446056, 36.26782 ], [ 71.444356, 36.255757 ], [ 71.440979, 36.24879 ], [ 71.432476, 36.231245 ], [ 71.391438, 36.208718 ], [ 71.362715, 36.202367 ], [ 71.356074, 36.182643 ], [ 71.345186, 36.168515 ], [ 71.316447, 36.166783 ], [ 71.296198, 36.155541 ], [ 71.281404, 36.14216 ], [ 71.256559, 36.133385 ], [ 71.251988, 36.1279 ], [ 71.251181, 36.11945 ], [ 71.245012, 36.112202 ], [ 71.25113, 36.103445 ], [ 71.250481, 36.099026 ], [ 71.243793, 36.093979 ], [ 71.229325, 36.093756 ], [ 71.21867, 36.086859 ], [ 71.213952, 36.074682 ], [ 71.199151, 36.05262 ], [ 71.197645, 36.040901 ], [ 71.211422, 36.029579 ], [ 71.231791, 36.025531 ], [ 71.257089, 36.000646 ], [ 71.286874, 35.99659 ], [ 71.302106, 35.984521 ], [ 71.311292, 35.981562 ], [ 71.321244, 35.961004 ], [ 71.343347, 35.961627 ], [ 71.36681, 35.966729 ], [ 71.382097, 35.956403 ], [ 71.386739, 35.943552 ], [ 71.37902, 35.933362 ], [ 71.388087, 35.916851 ], [ 71.384059, 35.902915 ], [ 71.388434, 35.899316 ], [ 71.396815, 35.892421 ], [ 71.413168, 35.892824 ], [ 71.429423, 35.88694 ], [ 71.436447, 35.87441 ], [ 71.437864, 35.871422 ], [ 71.440979, 35.868476 ], [ 71.449444, 35.860469 ], [ 71.460975, 35.834487 ], [ 71.476367, 35.821948 ], [ 71.478502, 35.811248 ], [ 71.501025, 35.800835 ], [ 71.484744, 35.786772 ], [ 71.488775, 35.779905 ], [ 71.484935, 35.768632 ], [ 71.491477, 35.754563 ], [ 71.511074, 35.738346 ], [ 71.531586, 35.734835 ], [ 71.551523, 35.723997 ], [ 71.550457, 35.69511 ], [ 71.534234, 35.684011 ], [ 71.538346, 35.672343 ], [ 71.522516, 35.663185 ], [ 71.508648, 35.660042 ], [ 71.51062, 35.643342 ], [ 71.5026, 35.635391 ], [ 71.500914, 35.629142 ], [ 71.507379, 35.619924 ], [ 71.523577, 35.606259 ], [ 71.543856, 35.600608 ], [ 71.561505, 35.588307 ], [ 71.580688, 35.580379 ], [ 71.608259, 35.580723 ], [ 71.619714, 35.571029 ], [ 71.621097, 35.56363 ], [ 71.618859, 35.557284 ], [ 71.617325, 35.552935 ], [ 71.599121, 35.535612 ], [ 71.60152, 35.522478 ], [ 71.594434, 35.50067 ], [ 71.605776, 35.482827 ], [ 71.620785, 35.479278 ], [ 71.647434, 35.457994 ], [ 71.65675, 35.441954 ], [ 71.642154, 35.425594 ], [ 71.63708, 35.410996 ], [ 71.622543, 35.406933 ], [ 71.617906, 35.397908 ], [ 71.60808, 35.392002 ], [ 71.580067, 35.348392 ], [ 71.568533, 35.340255 ], [ 71.559716, 35.324655 ], [ 71.544157, 35.310437 ], [ 71.555147, 35.303833 ], [ 71.55376, 35.292513 ], [ 71.561586, 35.280573 ], [ 71.577646, 35.275244 ], [ 71.58237, 35.267233 ], [ 71.59227, 35.260481 ], [ 71.603155, 35.257289 ], [ 71.621367, 35.241102 ], [ 71.63234, 35.226647 ], [ 71.642506, 35.223021 ], [ 71.66045, 35.223745 ], [ 71.678528, 35.216421 ], [ 71.680739, 35.208735 ], [ 71.660041, 35.185291 ], [ 71.655647, 35.17645 ], [ 71.645128, 35.172537 ], [ 71.634867, 35.16305 ], [ 71.623869, 35.140108 ], [ 71.609031, 35.137861 ], [ 71.59706, 35.140091 ], [ 71.589867, 35.138188 ], [ 71.578232, 35.12038 ], [ 71.561971, 35.113444 ], [ 71.533186, 35.09157 ], [ 71.532793, 35.08132 ], [ 71.542293, 35.071818 ], [ 71.543482, 35.052388 ], [ 71.55714, 35.031157 ], [ 71.5536, 35.02458 ], [ 71.546741, 35.01995 ], [ 71.504757, 35.003979 ], [ 71.503374, 35.000005 ], [ 71.504817, 34.996959 ], [ 71.507608, 34.991071 ], [ 71.508859, 34.973971 ], [ 71.497624, 34.970491 ], [ 71.483624, 34.962111 ], [ 71.472818, 34.949792 ], [ 71.451845, 34.944111 ], [ 71.440979, 34.94438 ], [ 71.436032, 34.944502 ], [ 71.424931, 34.932098 ], [ 71.394126, 34.922614 ], [ 71.383076, 34.916983 ], [ 71.34816, 34.912053 ], [ 71.327658, 34.894209 ], [ 71.296645, 34.875652 ], [ 71.291697, 34.845358 ], [ 71.293072, 34.834297 ], [ 71.281028, 34.805614 ], [ 71.277089, 34.800954 ], [ 71.268308, 34.800143 ], [ 71.262869, 34.795422 ], [ 71.242043, 34.787807 ], [ 71.225613, 34.763076 ], [ 71.224097, 34.752978 ], [ 71.187072, 34.748571 ], [ 71.176655, 34.732432 ], [ 71.162454, 34.728419 ], [ 71.153686, 34.725942 ], [ 71.151379, 34.716884 ], [ 71.145902, 34.712684 ], [ 71.109975, 34.703758 ], [ 71.09356, 34.683477 ], [ 71.089319, 34.675452 ], [ 71.094187, 34.668696 ], [ 71.09291, 34.661344 ], [ 71.09933, 34.648798 ], [ 71.108032, 34.642685 ], [ 71.116153, 34.628118 ], [ 71.102337, 34.615583 ], [ 71.090116, 34.598117 ], [ 71.085403, 34.585254 ], [ 71.080748, 34.584214 ], [ 71.06974, 34.587117 ], [ 71.041338, 34.573885 ], [ 71.026732, 34.5608 ], [ 71.022422, 34.549294 ], [ 71.012225, 34.534991 ], [ 71.016522, 34.509494 ], [ 71.007653, 34.503898 ], [ 71.005027, 34.499437 ], [ 71.013395, 34.488462 ], [ 71.024196, 34.451823 ], [ 71.03804, 34.445069 ], [ 71.039831, 34.439327 ], [ 71.050643, 34.434607 ], [ 71.052202, 34.427986 ], [ 71.052695, 34.425894 ], [ 71.060461, 34.424531 ], [ 71.063918, 34.427986 ], [ 71.06967, 34.433736 ], [ 71.077957, 34.437226 ], [ 71.090597, 34.433925 ], [ 71.09709, 34.436316 ], [ 71.107929, 34.432382 ], [ 71.112581, 34.427986 ], [ 71.115552, 34.425179 ], [ 71.116192, 34.420098 ], [ 71.126135, 34.413861 ], [ 71.125905, 34.405143 ], [ 71.119403, 34.397215 ], [ 71.121499, 34.389927 ], [ 71.116976, 34.376594 ], [ 71.129517, 34.371507 ], [ 71.139081, 34.370549 ], [ 71.145519, 34.365107 ], [ 71.162454, 34.365317 ], [ 71.167961, 34.365386 ], [ 71.1754, 34.362792 ], [ 71.167477, 34.341903 ], [ 71.168773, 34.333224 ], [ 71.162454, 34.328854 ], [ 71.155975, 34.324374 ], [ 71.15779, 34.313764 ], [ 71.152184, 34.307402 ], [ 71.151097, 34.294953 ], [ 71.130465, 34.281847 ], [ 71.130325, 34.272405 ], [ 71.125251, 34.260871 ], [ 71.124869, 34.24663 ], [ 71.120145, 34.241188 ], [ 71.129612, 34.230572 ], [ 71.13782, 34.225486 ], [ 71.123473, 34.205045 ], [ 71.122558, 34.186282 ], [ 71.129367, 34.164584 ], [ 71.091742, 34.132429 ], [ 71.092817, 34.120074 ], [ 71.07836, 34.114651 ], [ 71.071357, 34.108897 ], [ 71.072204, 34.098296 ], [ 71.079189, 34.087776 ], [ 71.075832, 34.079496 ], [ 71.081408, 34.075412 ], [ 71.082612, 34.0713 ], [ 71.081822, 34.063017 ], [ 71.076172, 34.056172 ], [ 71.058719, 34.050217 ], [ 71.032235, 34.05452 ], [ 71.025953, 34.049681 ], [ 71.024435, 34.042695 ], [ 71.002217, 34.025657 ], [ 70.975648, 34.026582 ], [ 70.968408, 34.029553 ], [ 70.956183, 34.018336 ], [ 70.937961, 34.013467 ], [ 70.934712, 34.007612 ], [ 70.915285, 34.010488 ], [ 70.919462, 33.995736 ], [ 70.900785, 33.984749 ], [ 70.888933, 33.980209 ], [ 70.882143, 33.973817 ], [ 70.873098, 33.971738 ], [ 70.86654, 33.97314 ], [ 70.862636, 33.981267 ], [ 70.856964, 33.983272 ], [ 70.843042, 33.982476 ], [ 70.835191, 33.978747 ], [ 70.826024, 33.979304 ], [ 70.811339, 33.967725 ], [ 70.790104, 33.96672 ], [ 70.77843, 33.961416 ], [ 70.755589, 33.965799 ], [ 70.74288, 33.961478 ], [ 70.715845, 33.964254 ], [ 70.702142, 33.960602 ], [ 70.688062, 33.962964 ], [ 70.678066, 33.958658 ], [ 70.657347, 33.956895 ], [ 70.645111, 33.952467 ], [ 70.63265, 33.958678 ], [ 70.584073, 33.961819 ], [ 70.552793, 33.949825 ], [ 70.54618, 33.943559 ], [ 70.538746, 33.944988 ], [ 70.515378, 33.94948 ], [ 70.504827, 33.941989 ], [ 70.49637, 33.940146 ], [ 70.484325, 33.943901 ], [ 70.461096, 33.945017 ], [ 70.451417, 33.949312 ], [ 70.439102, 33.950257 ], [ 70.419278, 33.966469 ], [ 70.39513, 33.962403 ], [ 70.376625, 33.968713 ], [ 70.361575, 33.961483 ], [ 70.346767, 33.967782 ], [ 70.319168, 33.966578 ], [ 70.314872, 33.968501 ], [ 70.308833, 33.971206 ], [ 70.282063, 33.983193 ], [ 70.260031, 33.982409 ], [ 70.245133, 33.976222 ], [ 70.224028, 33.984749 ], [ 70.217927, 33.984749 ], [ 70.200564, 33.981532 ], [ 70.192068, 33.984749 ], [ 70.186598, 33.990792 ], [ 70.175241, 33.997842 ], [ 70.168965, 33.999103 ], [ 70.158636, 34.001606 ], [ 70.148617, 34.014325 ], [ 70.146195, 34.014752 ], [ 70.141569, 34.012723 ], [ 70.137829, 34.013008 ], [ 70.131341, 34.013504 ], [ 70.128618, 34.01124 ], [ 70.128203, 34.00916 ], [ 70.125248, 34.008666 ], [ 70.116949, 34.011262 ], [ 70.111526, 34.010863 ], [ 70.101498, 34.007621 ], [ 70.093505, 34.009647 ], [ 70.0877, 34.00861 ], [ 70.083006, 34.012744 ], [ 70.081646, 34.015827 ], [ 70.069218, 34.019387 ], [ 70.062763, 34.027362 ], [ 70.054799, 34.031773 ], [ 70.043791, 34.037212 ], [ 70.027011, 34.041594 ], [ 70.019134, 34.039751 ], [ 70.011311, 34.040057 ], [ 70.002576, 34.046738 ], [ 69.9997, 34.047545 ], [ 69.991558, 34.047229 ], [ 69.983102, 34.041153 ], [ 69.982003, 34.037848 ], [ 69.977782, 34.035142 ], [ 69.965382, 34.040123 ], [ 69.956901, 34.039782 ], [ 69.949149, 34.035865 ], [ 69.937093, 34.035085 ], [ 69.930282, 34.036547 ], [ 69.917656, 34.039408 ], [ 69.903346, 34.037775 ], [ 69.88932, 34.018208 ], [ 69.894514, 33.998974 ], [ 69.902218, 33.989731 ], [ 69.902361, 33.985666 ], [ 69.89652, 33.981242 ], [ 69.875509, 33.977575 ], [ 69.871988, 33.96926 ], [ 69.860532, 33.962943 ], [ 69.860488, 33.953048 ], [ 69.856845, 33.946715 ], [ 69.860273, 33.939738 ], [ 69.860007, 33.925443 ], [ 69.882675, 33.917835 ], [ 69.910571, 33.895475 ], [ 69.915541, 33.883353 ], [ 69.914749, 33.857913 ], [ 69.922684, 33.847541 ], [ 69.930282, 33.843421 ], [ 69.94976, 33.834398 ], [ 69.956753, 33.820313 ], [ 69.960898, 33.802507 ], [ 69.965791, 33.7954 ], [ 69.96195, 33.78055 ], [ 69.963588, 33.771284 ], [ 69.972452, 33.758238 ], [ 69.987854, 33.749299 ], [ 69.991133, 33.741916 ], [ 70.001914, 33.733347 ], [ 70.010882, 33.72967 ], [ 70.015295, 33.729948 ], [ 70.019437, 33.736758 ], [ 70.029836, 33.738187 ], [ 70.037201, 33.734774 ], [ 70.04651, 33.734273 ], [ 70.061602, 33.726589 ], [ 70.081286, 33.725331 ], [ 70.08799, 33.71792 ], [ 70.104796, 33.71777 ], [ 70.110485, 33.720878 ], [ 70.124334, 33.727828 ], [ 70.141794, 33.724234 ], [ 70.140289, 33.713484 ], [ 70.145747, 33.705953 ], [ 70.14417, 33.698701 ], [ 70.152164, 33.695057 ], [ 70.153356, 33.691198 ], [ 70.144976, 33.65768 ], [ 70.168539, 33.649254 ], [ 70.178801, 33.641392 ], [ 70.192212, 33.645617 ], [ 70.198878, 33.642394 ], [ 70.195433, 33.634696 ], [ 70.197795, 33.61738 ], [ 70.171174, 33.538656 ], [ 70.173634, 33.518013 ], [ 70.182798, 33.51258 ], [ 70.188768, 33.505237 ], [ 70.206626, 33.503199 ], [ 70.208117, 33.496322 ], [ 70.200557, 33.488025 ], [ 70.216644, 33.48188 ], [ 70.219457, 33.47404 ], [ 70.232044, 33.474807 ], [ 70.245492, 33.470113 ], [ 70.244853, 33.453293 ], [ 70.25379, 33.437063 ], [ 70.268734, 33.430047 ], [ 70.281742, 33.435841 ], [ 70.296234, 33.429929 ], [ 70.300656, 33.40722 ], [ 70.308833, 33.404118 ], [ 70.316885, 33.400565 ], [ 70.32271, 33.393874 ], [ 70.3219, 33.387769 ], [ 70.311668, 33.37765 ], [ 70.311537, 33.366299 ], [ 70.324459, 33.354834 ], [ 70.327926, 33.341807 ], [ 70.325362, 33.332526 ], [ 70.308833, 33.33673 ], [ 70.292019, 33.32642 ], [ 70.277147, 33.304266 ], [ 70.26234, 33.297126 ], [ 70.245606, 33.278282 ], [ 70.209142, 33.25079 ], [ 70.182081, 33.237053 ], [ 70.169132, 33.234727 ], [ 70.161029, 33.218326 ], [ 70.152094, 33.215912 ], [ 70.135259, 33.216537 ], [ 70.119234, 33.206766 ], [ 70.109523, 33.208132 ], [ 70.098591, 33.20608 ], [ 70.081213, 33.216599 ], [ 70.070593, 33.216799 ], [ 70.040564, 33.165801 ], [ 70.021342, 33.141336 ], [ 70.002548, 33.143676 ], [ 69.981442, 33.140316 ], [ 69.967679, 33.132732 ], [ 69.941639, 33.130898 ], [ 69.935144, 33.121513 ], [ 69.927581, 33.117207 ], [ 69.926598, 33.109682 ], [ 69.923009, 33.105458 ], [ 69.89061, 33.101797 ], [ 69.873179, 33.095595 ], [ 69.836852, 33.100482 ], [ 69.822353, 33.106339 ], [ 69.795659, 33.129777 ], [ 69.739019, 33.113311 ], [ 69.72869, 33.095793 ], [ 69.713192, 33.091381 ], [ 69.694795, 33.092722 ], [ 69.670817, 33.098788 ], [ 69.653307, 33.092464 ], [ 69.628612, 33.09957 ], [ 69.579689, 33.099798 ], [ 69.556739, 33.071035 ], [ 69.520211, 33.044513 ], [ 69.500669, 33.022948 ], [ 69.499492, 33.002998 ], [ 69.49578, 32.940012 ], [ 69.505271, 32.902224 ], [ 69.500952, 32.887501 ], [ 69.507321, 32.883108 ], [ 69.523691, 32.880726 ], [ 69.534555, 32.874417 ], [ 69.469512, 32.852643 ], [ 69.464469, 32.845509 ], [ 69.463384, 32.834774 ], [ 69.441309, 32.807547 ], [ 69.42873, 32.802112 ], [ 69.409704, 32.798891 ], [ 69.393119, 32.78053 ], [ 69.389965, 32.773588 ], [ 69.393992, 32.759594 ], [ 69.40866, 32.742471 ], [ 69.423451, 32.730794 ], [ 69.436625, 32.728655 ], [ 69.441143, 32.725081 ], [ 69.442953, 32.712798 ], [ 69.436754, 32.703861 ], [ 69.435673, 32.696498 ], [ 69.438855, 32.686846 ], [ 69.450488, 32.671103 ], [ 69.450374, 32.655725 ], [ 69.444411, 32.648956 ], [ 69.430774, 32.641241 ], [ 69.411923, 32.611128 ], [ 69.408491, 32.598489 ], [ 69.381049, 32.563392 ], [ 69.35181, 32.557169 ], [ 69.317088, 32.543553 ], [ 69.303066, 32.541966 ], [ 69.280145, 32.527543 ], [ 69.260681, 32.490199 ], [ 69.240174, 32.458995 ], [ 69.249085, 32.415792 ], [ 69.275221, 32.367525 ], [ 69.280953, 32.346871 ], [ 69.282241, 32.315557 ], [ 69.27822, 32.303458 ], [ 69.278476, 32.288918 ], [ 69.273155, 32.278207 ], [ 69.271438, 32.266175 ], [ 69.273685, 32.238405 ], [ 69.27164, 32.219784 ], [ 69.276202, 32.190168 ], [ 69.271837, 32.150874 ], [ 69.276924, 32.12797 ], [ 69.292321, 32.093923 ], [ 69.287841, 32.069534 ], [ 69.295346, 32.015611 ], [ 69.302383, 31.993061 ], [ 69.313939, 31.979074 ], [ 69.325785, 31.932275 ], [ 69.281993, 31.911316 ], [ 69.256026, 31.883725 ], [ 69.24256, 31.877249 ], [ 69.223795, 31.862625 ], [ 69.207539, 31.857818 ], [ 69.199444, 31.852739 ], [ 69.190953, 31.833004 ], [ 69.18241, 31.821449 ], [ 69.178122, 31.806218 ], [ 69.15572, 31.783931 ], [ 69.154882, 31.764011 ], [ 69.136727, 31.748858 ], [ 69.134518, 31.737044 ], [ 69.119866, 31.715468 ], [ 69.116029, 31.704936 ], [ 69.091027, 31.69134 ], [ 69.068274, 31.672571 ], [ 69.045231, 31.661873 ], [ 69.030222, 31.645824 ], [ 69.016702, 31.631363 ], [ 69.008163, 31.629432 ], [ 68.997549, 31.630599 ], [ 68.982118, 31.63609 ], [ 68.971381, 31.644004 ], [ 68.963032, 31.645357 ], [ 68.948113, 31.629875 ], [ 68.936603, 31.610396 ], [ 68.924089, 31.602618 ], [ 68.912293, 31.599263 ], [ 68.884551, 31.604707 ], [ 68.87453, 31.603513 ], [ 68.855878, 31.596656 ], [ 68.825007, 31.610916 ], [ 68.805256, 31.614322 ], [ 68.79168, 31.625523 ], [ 68.786468, 31.651024 ], [ 68.781233, 31.660643 ], [ 68.772372, 31.666554 ], [ 68.754807, 31.672768 ], [ 68.729119, 31.69681 ], [ 68.706479, 31.766775 ], [ 68.697425, 31.768718 ], [ 68.642045, 31.780602 ], [ 68.57627, 31.829725 ], [ 68.551374, 31.820694 ], [ 68.479396, 31.776755 ], [ 68.447825, 31.76295 ], [ 68.458109, 31.752634 ], [ 68.467282, 31.749372 ], [ 68.518021, 31.756283 ], [ 68.58314, 31.751509 ], [ 68.567871, 31.720958 ], [ 68.552976, 31.71566 ], [ 68.5173, 31.735364 ], [ 68.489603, 31.739234 ], [ 68.461773, 31.737229 ], [ 68.43869, 31.750665 ], [ 68.424811, 31.755244 ], [ 68.366259, 31.758365 ], [ 68.2832, 31.759091 ], [ 68.2591, 31.781935 ], [ 68.257874, 31.802518 ], [ 68.222546, 31.809679 ], [ 68.187138, 31.816357 ], [ 68.170072, 31.830063 ], [ 68.146082, 31.803067 ], [ 68.114475, 31.752826 ], [ 68.095393, 31.739829 ], [ 68.075803, 31.719951 ], [ 68.066922, 31.696462 ], [ 68.039546, 31.67924 ], [ 68.018971, 31.66991 ], [ 68.004971, 31.658825 ], [ 67.97825, 31.643333 ], [ 67.954898, 31.635597 ], [ 67.923864, 31.634707 ], [ 67.90509, 31.627327 ], [ 67.886423, 31.629711 ], [ 67.856184, 31.621772 ], [ 67.823851, 31.601606 ], [ 67.797969, 31.572302 ], [ 67.761437, 31.550141 ], [ 67.74573, 31.532232 ], [ 67.713761, 31.515354 ], [ 67.700766, 31.514782 ], [ 67.680546, 31.519211 ], [ 67.661223, 31.517218 ], [ 67.649045, 31.526561 ], [ 67.638916, 31.530627 ], [ 67.610612, 31.525047 ], [ 67.57358, 31.521777 ], [ 67.582446, 31.504371 ], [ 67.592746, 31.47344 ], [ 67.605444, 31.452081 ], [ 67.603495, 31.425303 ], [ 67.610612, 31.417141 ], [ 67.611956, 31.415821 ], [ 67.629714, 31.413409 ], [ 67.639875, 31.397178 ], [ 67.655781, 31.394172 ], [ 67.746548, 31.414724 ], [ 67.783076, 31.399187 ], [ 67.794845, 31.38042 ], [ 67.793116, 31.351888 ], [ 67.7855, 31.333157 ], [ 67.774798, 31.324453 ], [ 67.762189, 31.321991 ], [ 67.735145, 31.326248 ], [ 67.722747, 31.325498 ], [ 67.69152, 31.30756 ], [ 67.673117, 31.290826 ], [ 67.648771, 31.278857 ], [ 67.627773, 31.274899 ], [ 67.610612, 31.268536 ], [ 67.608097, 31.267604 ], [ 67.588487, 31.268417 ], [ 67.548817, 31.261655 ], [ 67.534294, 31.253747 ], [ 67.51886, 31.250015 ], [ 67.495211, 31.237429 ], [ 67.465145, 31.233152 ], [ 67.417738, 31.219973 ], [ 67.408462, 31.219757 ], [ 67.396137, 31.211539 ], [ 67.38024, 31.212099 ], [ 67.367435, 31.208294 ], [ 67.352811, 31.210214 ], [ 67.340731, 31.206251 ], [ 67.316293, 31.204511 ], [ 67.30063, 31.209538 ], [ 67.269006, 31.200722 ], [ 67.252169, 31.213348 ], [ 67.203904, 31.216892 ], [ 67.188674, 31.221329 ], [ 67.170127, 31.242292 ], [ 67.156376, 31.246738 ], [ 67.149745, 31.245252 ], [ 67.139444, 31.237048 ], [ 67.11286, 31.234397 ], [ 67.099312, 31.22486 ], [ 67.065399, 31.217018 ], [ 67.053903, 31.224076 ], [ 67.048411, 31.239072 ], [ 67.024824, 31.241326 ], [ 67.026305, 31.256529 ], [ 67.048232, 31.271335 ], [ 67.056466, 31.28467 ], [ 67.03613, 31.309974 ], [ 67.013433, 31.306507 ], [ 66.997007, 31.308764 ], [ 66.969952, 31.304672 ], [ 66.954148, 31.306335 ], [ 66.918299, 31.292389 ], [ 66.895771, 31.291172 ], [ 66.869331, 31.279258 ], [ 66.855698, 31.270157 ], [ 66.83316, 31.262417 ], [ 66.816176, 31.236646 ], [ 66.811064, 31.222562 ], [ 66.797274, 31.211396 ], [ 66.770119, 31.200986 ], [ 66.75286, 31.205987 ], [ 66.729924, 31.205877 ], [ 66.717138, 31.188097 ], [ 66.717914, 31.171157 ], [ 66.712413, 31.161211 ], [ 66.712703, 31.153355 ], [ 66.704269, 31.14234 ], [ 66.700328, 31.126939 ], [ 66.692257, 31.116424 ], [ 66.696325, 31.101289 ], [ 66.689108, 31.08925 ], [ 66.688701, 31.07378 ], [ 66.682529, 31.067759 ], [ 66.669342, 31.063918 ], [ 66.580846, 30.979646 ], [ 66.430904, 30.953523 ], [ 66.392601, 30.938129 ], [ 66.290555, 30.584832 ], [ 66.28063, 30.568791 ], [ 66.291366, 30.547877 ], [ 66.288078, 30.528173 ], [ 66.291516, 30.520705 ], [ 66.295788, 30.516246 ], [ 66.310643, 30.50074 ], [ 66.321945, 30.498368 ], [ 66.336776, 30.487322 ], [ 66.354795, 30.480847 ], [ 66.353205, 30.468913 ], [ 66.340995, 30.44461 ], [ 66.347397, 30.435592 ], [ 66.356995, 30.428923 ], [ 66.360553, 30.417764 ], [ 66.351197, 30.394711 ], [ 66.342959, 30.382898 ], [ 66.34409, 30.358448 ], [ 66.336414, 30.354585 ], [ 66.33951, 30.34568 ], [ 66.34009, 30.316783 ], [ 66.326173, 30.2889 ], [ 66.324613, 30.247567 ], [ 66.317193, 30.226061 ], [ 66.311456, 30.21362 ], [ 66.299893, 30.203663 ], [ 66.287433, 30.170726 ], [ 66.287227, 30.151775 ], [ 66.275126, 30.134587 ], [ 66.265617, 30.126254 ], [ 66.258069, 30.095494 ], [ 66.230855, 30.06952 ], [ 66.238063, 30.059322 ], [ 66.370337, 29.968909 ], [ 66.34975, 29.949261 ], [ 66.339187, 29.930129 ], [ 66.321015, 29.909558 ], [ 66.294521, 29.893761 ], [ 66.264831, 29.858053 ], [ 66.244234, 29.847575 ], [ 66.103765, 29.809702 ], [ 65.872923, 29.74743 ], [ 65.57224, 29.666542 ], [ 65.522521, 29.653161 ], [ 65.066769, 29.530417 ], [ 64.919565, 29.546921 ], [ 64.882239, 29.551106 ], [ 64.802803, 29.560011 ], [ 64.581625, 29.584802 ], [ 64.561837, 29.590153 ], [ 64.546704, 29.585257 ], [ 64.541388, 29.574114 ], [ 64.526539, 29.575358 ], [ 64.515605, 29.569472 ], [ 64.50068, 29.569404 ], [ 64.492974, 29.566166 ], [ 64.475362, 29.567264 ], [ 64.46835, 29.557978 ], [ 64.451179, 29.549946 ], [ 64.438048, 29.558177 ], [ 64.43329, 29.55202 ], [ 64.4246, 29.549616 ], [ 64.419069, 29.544855 ], [ 64.405858, 29.548036 ], [ 64.393097, 29.544317 ], [ 64.384305, 29.545862 ], [ 64.373062, 29.535764 ], [ 64.359202, 29.534247 ], [ 64.347587, 29.526477 ], [ 64.336785, 29.527057 ], [ 64.327728, 29.521035 ], [ 64.302853, 29.52575 ], [ 64.291766, 29.521522 ], [ 64.264299, 29.521663 ], [ 64.252794, 29.517548 ], [ 64.250939, 29.516781 ], [ 64.25014, 29.511646 ], [ 64.252794, 29.508734 ], [ 64.252794, 29.506722 ], [ 64.251335, 29.50248 ], [ 64.244294, 29.496423 ], [ 64.235067, 29.494728 ], [ 64.230644, 29.48548 ], [ 64.219825, 29.485612 ], [ 64.214098, 29.481513 ], [ 64.206347, 29.481921 ], [ 64.191842, 29.477025 ], [ 64.177406, 29.482078 ], [ 64.160427, 29.467787 ], [ 64.159726, 29.464195 ], [ 64.164268, 29.457587 ], [ 64.148495, 29.448498 ], [ 64.142432, 29.436255 ], [ 64.145454, 29.431432 ], [ 64.16054, 29.426265 ], [ 64.160414, 29.420867 ], [ 64.166925, 29.417109 ], [ 64.169025, 29.409069 ], [ 64.155936, 29.403144 ], [ 64.15895, 29.391538 ], [ 64.150131, 29.392839 ], [ 64.14079, 29.389651 ], [ 64.126779, 29.378727 ], [ 64.098444, 29.380159 ], [ 64.052343, 29.407406 ], [ 63.575994, 29.486903 ], [ 63.350743, 29.467728 ], [ 63.347987, 29.466227 ], [ 63.345848, 29.452509 ], [ 63.326489, 29.457917 ], [ 63.305397, 29.458539 ], [ 63.286965, 29.454397 ], [ 63.265757, 29.457071 ], [ 63.247645, 29.453958 ], [ 63.229915, 29.457253 ], [ 62.74228, 29.413435 ], [ 62.469828, 29.388945 ], [ 62.169166, 29.478438 ], [ 61.648784, 29.633146 ], [ 61.548763, 29.662224 ], [ 61.533908, 29.666542 ], [ 61.255513, 29.74743 ], [ 60.872972, 29.858472 ], [ 61.095865, 30.095757 ], [ 61.21361, 30.221105 ], [ 61.313723, 30.327681 ], [ 61.492986, 30.516246 ], [ 61.548763, 30.574844 ], [ 61.648784, 30.679833 ], [ 61.769437, 30.806304 ], [ 61.804436, 30.835608 ], [ 61.793185, 30.866025 ], [ 61.795463, 30.884088 ], [ 61.786673, 30.896141 ], [ 61.782994, 30.909059 ], [ 61.789534, 30.9207 ], [ 61.785536, 30.940445 ], [ 61.787623, 30.94262 ], [ 61.798649, 30.943508 ], [ 61.804311, 30.950475 ], [ 61.816312, 30.957956 ], [ 61.822314, 30.966674 ], [ 61.833475, 30.973654 ], [ 61.833981, 30.977651 ], [ 61.827311, 30.981867 ], [ 61.823901, 31.001932 ], [ 61.827687, 31.014892 ], [ 61.832655, 31.017946 ], [ 61.828643, 31.032098 ], [ 61.837935, 31.037044 ], [ 61.827994, 31.051696 ], [ 61.826969, 31.07284 ], [ 61.830271, 31.088991 ], [ 61.812616, 31.111084 ], [ 61.811833, 31.122087 ], [ 61.803071, 31.147087 ], [ 61.804666, 31.165205 ], [ 61.794103, 31.183162 ], [ 61.772518, 31.206476 ], [ 61.776185, 31.215713 ], [ 61.770206, 31.250569 ], [ 61.777634, 31.303495 ], [ 61.706999, 31.375497 ], [ 61.648784, 31.383718 ], [ 61.548763, 31.396708 ], [ 60.864925, 31.48548 ], [ 60.855757, 31.489764 ], [ 60.813605, 31.708654 ], [ 60.817793, 31.886244 ], [ 60.827002, 31.928708 ], [ 60.822973, 31.96299 ], [ 60.831161, 31.979611 ], [ 60.816921, 32.0244 ], [ 60.843156, 32.070921 ], [ 60.882098, 32.199448 ], [ 60.85934, 32.266085 ], [ 60.855657, 32.288918 ], [ 60.847204, 32.341308 ], [ 60.815021, 32.480235 ], [ 60.732717, 32.665495 ], [ 60.630192, 33.018925 ], [ 60.591414, 33.11296 ], [ 60.5843, 33.130197 ], [ 60.591414, 33.143811 ], [ 60.63653, 33.23011 ], [ 60.745991, 33.331625 ], [ 60.820726, 33.396506 ], [ 60.864937, 33.421741 ], [ 60.863096, 33.460312 ], [ 60.854297, 33.48417 ], [ 60.881814, 33.503808 ], [ 60.927457, 33.498012 ], [ 60.94524, 33.513313 ], [ 60.898322, 33.543 ], [ 60.760126, 33.531969 ], [ 60.683478, 33.5322 ], [ 60.659508, 33.537791 ], [ 60.634468, 33.570622 ], [ 60.593249, 33.651408 ], [ 60.591414, 33.654535 ], [ 60.548337, 33.727902 ], [ 60.581106, 33.806828 ], [ 60.477505, 34.08065 ], [ 60.498307, 34.101295 ], [ 60.505098, 34.114894 ], [ 60.528819, 34.136515 ], [ 60.538652, 34.152334 ], [ 60.553009, 34.166893 ], [ 60.559173, 34.183342 ], [ 60.565714, 34.192167 ], [ 60.578912, 34.202182 ], [ 60.587088, 34.213061 ], [ 60.591414, 34.217013 ], [ 60.623249, 34.246086 ], [ 60.668895, 34.273049 ], [ 60.67726, 34.303727 ], [ 60.684463, 34.309121 ], [ 60.695407, 34.31057 ], [ 60.739539, 34.307409 ], [ 60.831682, 34.310443 ], [ 60.881886, 34.303701 ], [ 60.915932, 34.305737 ], [ 60.886564, 34.335184 ], [ 60.880962, 34.346372 ], [ 60.871057, 34.349566 ], [ 60.862533, 34.363809 ], [ 60.849503, 34.370755 ], [ 60.848839, 34.383749 ], [ 60.839611, 34.400214 ], [ 60.841641, 34.408161 ], [ 60.831379, 34.415882 ], [ 60.827667, 34.426595 ], [ 60.822316, 34.431416 ], [ 60.820505, 34.44244 ], [ 60.808453, 34.461095 ], [ 60.807816, 34.470515 ], [ 60.79184, 34.476028 ], [ 60.774404, 34.488167 ], [ 60.75339, 34.505728 ], [ 60.743052, 34.511263 ], [ 60.740384, 34.519934 ], [ 60.74718, 34.527908 ], [ 60.815338, 34.543186 ], [ 60.821089, 34.543787 ], [ 60.826332, 34.541073 ], [ 60.832866, 34.544138 ], [ 60.853328, 34.544602 ], [ 60.896789, 34.568028 ], [ 60.922508, 34.621269 ], [ 60.983258, 34.620847 ], [ 60.999669, 34.641974 ], [ 61.000132, 34.683176 ], [ 61.004147, 34.710005 ], [ 61.01572, 34.732303 ], [ 61.033104, 34.748452 ], [ 61.047825, 34.77588 ], [ 61.055667, 34.784448 ], [ 61.067503, 34.812249 ], [ 61.068148, 34.828897 ], [ 61.064313, 34.837779 ], [ 61.073293, 34.844701 ], [ 61.069016, 34.852838 ], [ 61.068891, 34.864063 ], [ 61.079111, 34.876802 ], [ 61.067781, 34.884449 ], [ 61.066052, 34.894326 ], [ 61.058874, 34.900616 ], [ 61.057588, 34.904965 ], [ 61.061649, 34.908589 ], [ 61.071862, 34.909422 ], [ 61.064599, 34.917971 ], [ 61.069945, 34.921864 ], [ 61.073508, 34.931013 ], [ 61.08351, 34.941282 ], [ 61.085583, 34.950945 ], [ 61.097134, 34.954042 ], [ 61.100462, 34.969127 ], [ 61.096751, 34.976705 ], [ 61.105977, 34.981888 ], [ 61.102852, 34.990101 ], [ 61.104463, 34.996146 ], [ 61.119486, 35.00373 ], [ 61.101497, 35.024814 ], [ 61.115631, 35.038971 ], [ 61.112029, 35.058423 ], [ 61.125605, 35.061445 ], [ 61.11893, 35.072731 ], [ 61.125161, 35.075067 ], [ 61.139562, 35.07398 ], [ 61.144655, 35.080566 ], [ 61.141514, 35.08696 ], [ 61.128417, 35.095348 ], [ 61.139808, 35.10472 ], [ 61.131144, 35.109585 ], [ 61.130002, 35.132161 ], [ 61.11429, 35.146948 ], [ 61.10724, 35.162485 ], [ 61.099345, 35.164788 ], [ 61.093094, 35.160775 ], [ 61.088481, 35.164996 ], [ 61.097134, 35.17391 ], [ 61.095037, 35.184582 ], [ 61.106232, 35.192227 ], [ 61.116593, 35.208943 ], [ 61.099466, 35.219051 ], [ 61.101177, 35.232834 ], [ 61.097121, 35.23945 ], [ 61.097008, 35.255024 ], [ 61.093171, 35.264797 ], [ 61.100816, 35.276287 ], [ 61.108915, 35.281814 ], [ 61.124, 35.278508 ], [ 61.150929, 35.283774 ], [ 61.159104, 35.281502 ], [ 61.169673, 35.289451 ], [ 61.189266, 35.294564 ], [ 61.187114, 35.313695 ], [ 61.189536, 35.31998 ], [ 61.176048, 35.346581 ], [ 61.177285, 35.355576 ], [ 61.185505, 35.360854 ], [ 61.186149, 35.371121 ], [ 61.197555, 35.375949 ], [ 61.194669, 35.381341 ], [ 61.198526, 35.388184 ], [ 61.188914, 35.39959 ], [ 61.199303, 35.410453 ], [ 61.209295, 35.412972 ], [ 61.216042, 35.419928 ], [ 61.228002, 35.424163 ], [ 61.231362, 35.432609 ], [ 61.224143, 35.443567 ], [ 61.235182, 35.451145 ], [ 61.240388, 35.47047 ], [ 61.253504, 35.480916 ], [ 61.260624, 35.503359 ], [ 61.266726, 35.507247 ], [ 61.276485, 35.520736 ], [ 61.283282, 35.546285 ], [ 61.270834, 35.562736 ], [ 61.272584, 35.572714 ], [ 61.278695, 35.579741 ], [ 61.270914, 35.590577 ], [ 61.275849, 35.598238 ], [ 61.274126, 35.60515 ], [ 61.281087, 35.607302 ], [ 61.28827, 35.614601 ], [ 61.31071, 35.619608 ], [ 61.364176, 35.624994 ], [ 61.372019, 35.623384 ], [ 61.374354, 35.620043 ], [ 61.368795, 35.613983 ], [ 61.369167, 35.605362 ], [ 61.375663, 35.591087 ], [ 61.393243, 35.590916 ], [ 61.399846, 35.585236 ], [ 61.398326, 35.577985 ], [ 61.389267, 35.57291 ], [ 61.386485, 35.567939 ], [ 61.398762, 35.555299 ], [ 61.409772, 35.553065 ], [ 61.424466, 35.539828 ], [ 61.442342, 35.53329 ], [ 61.45262, 35.51897 ], [ 61.548763, 35.461085 ], [ 61.589117, 35.436776 ], [ 61.779047, 35.411437 ], [ 61.967734, 35.453668 ], [ 62.063409, 35.434328 ], [ 62.107867, 35.382504 ], [ 62.134752, 35.358227 ], [ 62.1532, 35.341565 ], [ 62.265425, 35.29491 ], [ 62.266938, 35.288251 ], [ 62.273287, 35.283671 ], [ 62.274671, 35.270183 ], [ 62.291124, 35.254552 ], [ 62.289586, 35.241431 ], [ 62.293785, 35.232603 ], [ 62.291727, 35.214609 ], [ 62.295003, 35.207742 ], [ 62.292368, 35.186049 ], [ 62.293839, 35.178394 ], [ 62.300754, 35.168954 ], [ 62.298254, 35.155572 ], [ 62.301102, 35.142361 ], [ 62.299511, 35.134876 ], [ 62.305042, 35.129698 ], [ 62.331226, 35.149465 ], [ 62.477226, 35.278052 ], [ 62.490509, 35.274078 ], [ 62.497345, 35.275873 ], [ 62.508549, 35.266182 ], [ 62.51359, 35.266283 ], [ 62.520159, 35.272703 ], [ 62.524506, 35.272907 ], [ 62.529196, 35.261982 ], [ 62.542599, 35.257386 ], [ 62.54304, 35.245694 ], [ 62.550335, 35.235702 ], [ 62.574066, 35.231179 ], [ 62.578086, 35.221723 ], [ 62.598644, 35.228501 ], [ 62.603513, 35.234986 ], [ 62.608573, 35.235837 ], [ 62.616475, 35.225921 ], [ 62.622344, 35.210709 ], [ 62.626402, 35.208592 ], [ 62.635963, 35.214098 ], [ 62.642062, 35.223356 ], [ 62.651429, 35.227533 ], [ 62.675985, 35.231486 ], [ 62.690974, 35.238785 ], [ 62.701109, 35.236363 ], [ 62.711212, 35.238999 ], [ 62.722114, 35.248704 ], [ 62.72463, 35.250944 ], [ 62.735987, 35.250401 ], [ 62.746146, 35.253787 ], [ 62.754696, 35.275915 ], [ 62.764013, 35.28709 ], [ 62.778927, 35.291274 ], [ 62.786505, 35.300546 ], [ 62.802117, 35.302999 ], [ 62.823051, 35.300069 ], [ 62.840992, 35.311885 ], [ 62.853334, 35.31565 ], [ 62.877549, 35.34596 ], [ 62.883979, 35.342376 ], [ 62.89135, 35.344431 ], [ 62.894921, 35.349738 ], [ 62.895048, 35.358655 ], [ 62.902617, 35.360641 ], [ 62.910898, 35.35934 ], [ 62.91561, 35.367337 ], [ 62.925311, 35.369504 ], [ 62.936482, 35.380632 ], [ 62.948382, 35.383419 ], [ 62.955425, 35.388109 ], [ 62.964078, 35.388072 ], [ 63.00478, 35.408148 ], [ 63.02262, 35.40217 ], [ 63.022756, 35.406084 ], [ 63.015206, 35.414018 ], [ 63.015164, 35.417532 ], [ 63.025084, 35.412729 ], [ 63.038314, 35.415997 ], [ 63.05023, 35.412713 ], [ 63.076086, 35.415199 ], [ 63.091949, 35.420625 ], [ 63.099492, 35.419705 ], [ 63.101431, 35.437075 ], [ 63.108764, 35.44786 ], [ 63.108603, 35.463698 ], [ 63.114621, 35.476767 ], [ 63.113044, 35.489328 ], [ 63.118867, 35.49189 ], [ 63.116136, 35.510697 ], [ 63.124359, 35.51704 ], [ 63.129522, 35.542449 ], [ 63.126473, 35.54537 ], [ 63.11341, 35.544225 ], [ 63.106868, 35.549393 ], [ 63.106738, 35.557727 ], [ 63.102931, 35.560559 ], [ 63.1039, 35.572993 ], [ 63.108861, 35.578625 ], [ 63.109166, 35.583249 ], [ 63.100868, 35.592483 ], [ 63.100079, 35.606441 ], [ 63.095655, 35.618366 ], [ 63.108054, 35.622803 ], [ 63.114531, 35.634532 ], [ 63.247615, 35.682245 ], [ 63.24205, 35.692622 ], [ 63.246992, 35.695376 ], [ 63.242144, 35.702197 ], [ 63.232934, 35.703812 ], [ 63.22043, 35.712245 ], [ 63.213276, 35.711735 ], [ 63.209758, 35.707942 ], [ 63.194666, 35.714257 ], [ 63.19053, 35.720568 ], [ 63.189887, 35.730635 ], [ 63.175236, 35.733492 ], [ 63.170541, 35.739483 ], [ 63.170326, 35.746715 ], [ 63.160383, 35.749617 ], [ 63.158917, 35.755408 ], [ 63.149033, 35.760075 ], [ 63.145407, 35.766669 ], [ 63.137374, 35.767474 ], [ 63.141624, 35.77242 ], [ 63.142205, 35.777957 ], [ 63.132133, 35.78632 ], [ 63.132406, 35.795353 ], [ 63.129099, 35.802454 ], [ 63.121197, 35.809546 ], [ 63.107319, 35.811135 ], [ 63.100849, 35.816469 ], [ 63.10097, 35.820657 ], [ 63.107533, 35.824049 ], [ 63.116465, 35.836574 ], [ 63.110558, 35.842266 ], [ 63.112308, 35.846333 ], [ 63.127242, 35.850663 ], [ 63.119924, 35.854972 ], [ 63.121574, 35.862629 ], [ 63.305987, 35.858135 ], [ 63.515272, 35.899316 ], [ 63.5306, 35.902331 ], [ 63.536527, 35.904945 ], [ 63.572286, 35.951468 ], [ 63.704776, 35.967982 ], [ 63.878831, 36.00774 ], [ 63.987201, 36.035686 ], [ 64.068669, 35.998207 ], [ 64.071475, 36.001607 ], [ 64.068436, 36.007942 ], [ 64.07104, 36.024967 ], [ 64.069493, 36.026459 ], [ 64.063694, 36.024725 ], [ 64.057016, 36.057019 ], [ 64.058478, 36.06498 ], [ 64.056142, 36.070332 ], [ 64.059576, 36.078105 ], [ 64.057824, 36.1004 ], [ 64.061592, 36.103874 ], [ 64.079524, 36.108817 ], [ 64.093307, 36.128675 ], [ 64.100322, 36.128911 ], [ 64.106698, 36.123411 ], [ 64.113347, 36.124103 ], [ 64.144174, 36.145377 ], [ 64.156922, 36.147581 ], [ 64.16048, 36.160071 ], [ 64.168306, 36.162438 ], [ 64.189292, 36.159391 ], [ 64.195711, 36.164178 ], [ 64.210471, 36.166423 ], [ 64.221224, 36.16235 ], [ 64.227861, 36.155786 ], [ 64.238354, 36.150853 ], [ 64.248662, 36.158027 ], [ 64.252794, 36.15903 ], [ 64.264435, 36.161856 ], [ 64.269607, 36.15479 ], [ 64.28326, 36.1521 ], [ 64.308566, 36.188407 ], [ 64.31547, 36.207279 ], [ 64.32481, 36.206836 ], [ 64.34033, 36.211836 ], [ 64.346218, 36.218379 ], [ 64.353953, 36.22024 ], [ 64.356686, 36.2243 ], [ 64.379096, 36.232139 ], [ 64.403563, 36.232095 ], [ 64.422676, 36.241004 ], [ 64.445372, 36.243125 ], [ 64.525459, 36.304081 ], [ 64.57784, 36.349822 ], [ 64.589545, 36.377935 ], [ 64.635963, 36.442979 ], [ 64.619472, 36.580905 ], [ 64.622154, 36.604315 ], [ 64.618937, 36.637191 ], [ 64.706447, 36.795111 ], [ 64.79765, 36.922694 ], [ 64.756508, 37.10952 ], [ 64.757962, 37.113793 ], [ 64.802803, 37.133998 ], [ 64.919565, 37.186587 ], [ 64.989399, 37.218023 ], [ 65.130088, 37.245541 ], [ 65.19099, 37.236604 ], [ 65.228646, 37.250339 ], [ 65.270577, 37.23289 ], [ 65.53126, 37.238652 ], [ 65.642289, 37.342731 ], [ 65.646652, 37.441897 ], [ 65.699593, 37.532352 ], [ 65.706418, 37.537987 ], [ 65.716106, 37.537584 ], [ 65.72587, 37.540718 ], [ 65.743971, 37.539807 ], [ 65.757641, 37.536298 ], [ 65.762183, 37.550276 ], [ 65.76732, 37.548346 ], [ 65.764385, 37.537723 ], [ 65.766451, 37.533725 ], [ 65.799094, 37.523512 ], [ 65.821991, 37.497557 ], [ 65.836403, 37.489319 ], [ 65.843161, 37.487918 ], [ 65.856855, 37.48991 ], [ 65.891389, 37.476995 ], [ 65.954399, 37.472248 ], [ 65.976253, 37.463402 ], [ 65.980383, 37.457649 ], [ 66.0005, 37.446491 ], [ 66.041763, 37.453473 ], [ 66.070591, 37.448809 ], [ 66.09066, 37.432258 ], [ 66.103765, 37.415794 ], [ 66.112434, 37.404901 ], [ 66.146042, 37.402001 ], [ 66.154514, 37.398862 ], [ 66.163186, 37.375583 ], [ 66.168998, 37.369201 ], [ 66.179263, 37.367379 ], [ 66.197302, 37.370163 ], [ 66.221192, 37.364746 ], [ 66.231278, 37.367328 ], [ 66.246042, 37.363748 ], [ 66.262043, 37.345088 ], [ 66.27089, 37.343733 ], [ 66.314888, 37.322023 ], [ 66.32282, 37.322826 ], [ 66.341837, 37.333106 ], [ 66.354404, 37.329763 ], [ 66.371474, 37.33258 ], [ 66.387687, 37.328829 ], [ 66.408529, 37.344035 ], [ 66.416469, 37.34685 ], [ 66.435271, 37.338577 ], [ 66.459374, 37.335176 ], [ 66.475562, 37.329254 ], [ 66.500037, 37.331803 ], [ 66.521036, 37.33733 ], [ 66.542276, 37.34612 ], [ 66.553732, 37.354753 ] ] ] ] } }
]
}
