{
"type": "FeatureCollection",
"name": "Aksai Chin",
"crs": { "type": "name", "properties": { "name": "urn:ogc:def:crs:OGC:1.3:CRS84" } },
"features": [
{ "type": "Feature", "properties": { "id": "XC", "CNTR_ID": "XC", "CNTR_NAME": "Aksai Chin (Disputed Territory)", "NAME_ENGL": "Aksai Chin", "ISO3_CODE": "XC", "FID": "XC" }, "geometry": { "type": "MultiPolygon", "coordinates": [ [ [ [ 78.94793, 33.37869 ], [ 78.927778, 33.388407 ], [ 78.894324, 33.414511 ], [ 78.859685, 33.419398 ], [ 78.846183, 33.423429 ], [ 78.839847, 33.427862 ], [ 78.831951, 33.448315 ], [ 78.816392, 33.464852 ], [ 78.813453, 33.484813 ], [ 78.770039, 33.521062 ], [ 78.738835, 33.558166 ], [ 78.737978, 33.580768 ], [ 78.754909, 33.622711 ], [ 78.723275, 33.622809 ], [ 78.711756, 33.62509 ], [ 78.693647, 33.642168 ], [ 78.683589, 33.65623 ], [ 78.683666, 33.669505 ], [ 78.690144, 33.678309 ], [ 78.761416, 33.724535 ], [ 78.778111, 33.738205 ], [ 78.764436, 33.76487 ], [ 78.756302, 33.79131 ], [ 78.765366, 33.840292 ], [ 78.754822, 33.879754 ], [ 78.763251, 33.894609 ], [ 78.763282, 33.906922 ], [ 78.759494, 33.911566 ], [ 78.738523, 33.918745 ], [ 78.732946, 33.923045 ], [ 78.743379, 33.984749 ], [ 78.735846, 34.000083 ], [ 78.700716, 34.020576 ], [ 78.674052, 34.02424 ], [ 78.653544, 34.033844 ], [ 78.650999, 34.038704 ], [ 78.651245, 34.051521 ], [ 78.663098, 34.067582 ], [ 78.657207, 34.07774 ], [ 78.66041, 34.088994 ], [ 78.665537, 34.09201 ], [ 78.671892, 34.091795 ], [ 78.684255, 34.084365 ], [ 78.700208, 34.091868 ], [ 78.73304, 34.091694 ], [ 78.747494, 34.094629 ], [ 78.756988, 34.100537 ], [ 78.789288, 34.132253 ], [ 78.798703, 34.138191 ], [ 78.805903, 34.137566 ], [ 78.826142, 34.128117 ], [ 78.832742, 34.128421 ], [ 78.841447, 34.141842 ], [ 78.85479, 34.144823 ], [ 78.863157, 34.161052 ], [ 78.86917, 34.1654 ], [ 78.876304, 34.164451 ], [ 78.885614, 34.153849 ], [ 78.90241, 34.146321 ], [ 78.908052, 34.145531 ], [ 78.914757, 34.148527 ], [ 78.923857, 34.158059 ], [ 78.927455, 34.182089 ], [ 78.939599, 34.214573 ], [ 78.956417, 34.234168 ], [ 78.974113, 34.288416 ], [ 78.975263, 34.315549 ], [ 78.982078, 34.320168 ], [ 79.026338, 34.315708 ], [ 79.041224, 34.323596 ], [ 79.042912, 34.328077 ], [ 79.036791, 34.336102 ], [ 79.014348, 34.342756 ], [ 78.973861, 34.363026 ], [ 78.963062, 34.382461 ], [ 78.955917, 34.38783 ], [ 78.941038, 34.382563 ], [ 78.908046, 34.360221 ], [ 78.897335, 34.357457 ], [ 78.888844, 34.359027 ], [ 78.880628, 34.363887 ], [ 78.875487, 34.371033 ], [ 78.873299, 34.377615 ], [ 78.875875, 34.393616 ], [ 78.867779, 34.406014 ], [ 78.85274, 34.413952 ], [ 78.826946, 34.419673 ], [ 78.809077, 34.433626 ], [ 78.797105, 34.439161 ], [ 78.782815, 34.442583 ], [ 78.77051, 34.441124 ], [ 78.761202, 34.442666 ], [ 78.743109, 34.454558 ], [ 78.742707, 34.458379 ], [ 78.755322, 34.471329 ], [ 78.756021, 34.483192 ], [ 78.749724, 34.488178 ], [ 78.729282, 34.49348 ], [ 78.716749, 34.500987 ], [ 78.706881, 34.523246 ], [ 78.64813, 34.539083 ], [ 78.635654, 34.53887 ], [ 78.620149, 34.538606 ], [ 78.610008, 34.535964 ], [ 78.599585, 34.529395 ], [ 78.581925, 34.508548 ], [ 78.571989, 34.509167 ], [ 78.561014, 34.516568 ], [ 78.558555, 34.529699 ], [ 78.559295, 34.552353 ], [ 78.554129, 34.56468 ], [ 78.540664, 34.576176 ], [ 78.508127, 34.579568 ], [ 78.489799, 34.579517 ], [ 78.461683, 34.56863 ], [ 78.456952, 34.564425 ], [ 78.450299, 34.550882 ], [ 78.442746, 34.545359 ], [ 78.436733, 34.544369 ], [ 78.431472, 34.551849 ], [ 78.429287, 34.587131 ], [ 78.423387, 34.596376 ], [ 78.414805, 34.599403 ], [ 78.393245, 34.607004 ], [ 78.34686, 34.605688 ], [ 78.336358, 34.60734 ], [ 78.283018, 34.622718 ], [ 78.267361, 34.635888 ], [ 78.263746, 34.65692 ], [ 78.27431, 34.680645 ], [ 78.273357, 34.691398 ], [ 78.265553, 34.70569 ], [ 78.256581, 34.711726 ], [ 78.213362, 34.718569 ], [ 78.205722, 34.729561 ], [ 78.207791, 34.753348 ], [ 78.211903, 34.761478 ], [ 78.224224, 34.772096 ], [ 78.229144, 34.779761 ], [ 78.235494, 34.880793 ], [ 78.228428, 34.887609 ], [ 78.205731, 34.892265 ], [ 78.199581, 34.915193 ], [ 78.180372, 34.928374 ], [ 78.180564, 34.938742 ], [ 78.195154, 34.949486 ], [ 78.200833, 34.957448 ], [ 78.199528, 34.974787 ], [ 78.188794, 34.983509 ], [ 78.157767, 34.992844 ], [ 78.121375, 35.037061 ], [ 78.12299, 35.045755 ], [ 78.137656, 35.055559 ], [ 78.147789, 35.070858 ], [ 78.14143, 35.091634 ], [ 78.129756, 35.105814 ], [ 78.120409, 35.108924 ], [ 78.078486, 35.101736 ], [ 78.076662, 35.101423 ], [ 78.062778, 35.110069 ], [ 78.060102, 35.116951 ], [ 78.056818, 35.182877 ], [ 78.048096, 35.196743 ], [ 78.016762, 35.226687 ], [ 78.012062, 35.238132 ], [ 78.018578, 35.316533 ], [ 78.015791, 35.350158 ], [ 78.01143, 35.366376 ], [ 78.042814, 35.384353 ], [ 78.052606, 35.399803 ], [ 78.075271, 35.420967 ], [ 78.078486, 35.422834 ], [ 78.103508, 35.437368 ], [ 78.111221, 35.466987 ], [ 78.134455, 35.495376 ], [ 78.097382, 35.497662 ], [ 78.078486, 35.494367 ], [ 78.064186, 35.491874 ], [ 78.047071, 35.491736 ], [ 78.038495, 35.474858 ], [ 78.032267, 35.46923 ], [ 78.024809, 35.4724 ], [ 78.00638, 35.492087 ], [ 77.990596, 35.488895 ], [ 77.972834, 35.488684 ], [ 77.962427, 35.48109 ], [ 77.952005, 35.479632 ], [ 77.939995, 35.483547 ], [ 77.92435, 35.49361 ], [ 77.951613, 35.50895 ], [ 77.956205, 35.518567 ], [ 77.950921, 35.543538 ], [ 77.950822, 35.554693 ], [ 77.957479, 35.567172 ], [ 77.967403, 35.575476 ], [ 77.981097, 35.581413 ], [ 78.003568, 35.586145 ], [ 78.0287, 35.585793 ], [ 78.04654, 35.581762 ], [ 78.101311, 35.554693 ], [ 78.105989, 35.552677 ], [ 78.126752, 35.550787 ], [ 78.136653, 35.5524 ], [ 78.13944, 35.554693 ], [ 78.147073, 35.560974 ], [ 78.153984, 35.578965 ], [ 78.153433, 35.582955 ], [ 78.167722, 35.63154 ], [ 78.170518, 35.638476 ], [ 78.186745, 35.660795 ], [ 78.196355, 35.665726 ], [ 78.214798, 35.66729 ], [ 78.219085, 35.670377 ], [ 78.245064, 35.680025 ], [ 78.309852, 35.709199 ], [ 78.338015, 35.720326 ], [ 78.377148, 35.741121 ], [ 78.384196, 35.742807 ], [ 78.414805, 35.758048 ], [ 78.439694, 35.777085 ], [ 78.459105, 35.783425 ], [ 78.481125, 35.784633 ], [ 78.515743, 35.792336 ], [ 78.558934, 35.810095 ], [ 78.611059, 35.838602 ], [ 78.645945, 35.862995 ], [ 78.674571, 35.896938 ], [ 78.677354, 35.899316 ], [ 78.696331, 35.91553 ], [ 78.799533, 35.943719 ], [ 78.826849, 35.946342 ], [ 78.843501, 35.945212 ], [ 78.859177, 35.94049 ], [ 78.887099, 35.926461 ], [ 78.948007, 35.914074 ], [ 78.965908, 35.914991 ], [ 79.008664, 35.922367 ], [ 79.062132, 35.934963 ], [ 79.113742, 35.943491 ], [ 79.168181, 35.944783 ], [ 79.238041, 35.93166 ], [ 79.25191, 35.937884 ], [ 79.265805, 35.949897 ], [ 79.279592, 35.971793 ], [ 79.296146, 35.984081 ], [ 79.325925, 35.985026 ], [ 79.385165, 35.978766 ], [ 79.417381, 35.983254 ], [ 79.425149, 35.980099 ], [ 79.431933, 35.970025 ], [ 79.439723, 35.943132 ], [ 79.443034, 35.899316 ], [ 79.443367, 35.894898 ], [ 79.447923, 35.884504 ], [ 79.456743, 35.876101 ], [ 79.475264, 35.870925 ], [ 79.488119, 35.872592 ], [ 79.512233, 35.883196 ], [ 79.529727, 35.881723 ], [ 79.558209, 35.861051 ], [ 79.610807, 35.815848 ], [ 79.635265, 35.787664 ], [ 79.643397, 35.773074 ], [ 79.654339, 35.742775 ], [ 79.663397, 35.703117 ], [ 79.669757, 35.690016 ], [ 79.683855, 35.672042 ], [ 79.710889, 35.658767 ], [ 79.779177, 35.651774 ], [ 79.782766, 35.650548 ], [ 79.788444, 35.648609 ], [ 79.804399, 35.635576 ], [ 79.826996, 35.594272 ], [ 79.836174, 35.587398 ], [ 79.848596, 35.582634 ], [ 79.86987, 35.582268 ], [ 79.88189, 35.58547 ], [ 79.918713, 35.595277 ], [ 79.927301, 35.593829 ], [ 79.934907, 35.588465 ], [ 79.952971, 35.558333 ], [ 79.965985, 35.516794 ], [ 79.989165, 35.468163 ], [ 80.015987, 35.426207 ], [ 80.033183, 35.412769 ], [ 80.054781, 35.412052 ], [ 80.102912, 35.42395 ], [ 80.12085, 35.43254 ], [ 80.125972, 35.442748 ], [ 80.128288, 35.465562 ], [ 80.13212, 35.475234 ], [ 80.178401, 35.498593 ], [ 80.186072, 35.542237 ], [ 80.199493, 35.554485 ], [ 80.264958, 35.532213 ], [ 80.282514, 35.522102 ], [ 80.313462, 35.496981 ], [ 80.329421, 35.479918 ], [ 80.338986, 35.465867 ], [ 80.342609, 35.455082 ], [ 80.342549, 35.439539 ], [ 80.334257, 35.418674 ], [ 80.32718, 35.405763 ], [ 80.295317, 35.364437 ], [ 80.281879, 35.340453 ], [ 80.276532, 35.324947 ], [ 80.272597, 35.287968 ], [ 80.27603, 35.240143 ], [ 80.27276, 35.211468 ], [ 80.262797, 35.189452 ], [ 80.20771, 35.104708 ], [ 80.192188, 35.066089 ], [ 80.184082, 35.008635 ], [ 80.185771, 34.892317 ], [ 80.181973, 34.872938 ], [ 80.172336, 34.850752 ], [ 80.118072, 34.800987 ], [ 80.091828, 34.771692 ], [ 80.059431, 34.711382 ], [ 80.056757, 34.700366 ], [ 80.060818, 34.680157 ], [ 80.0579, 34.673804 ], [ 80.048523, 34.664899 ], [ 80.039988, 34.661799 ], [ 79.888766, 34.645213 ], [ 79.88189, 34.639678 ], [ 79.875846, 34.634813 ], [ 79.868557, 34.609954 ], [ 79.860047, 34.594758 ], [ 79.840283, 34.574548 ], [ 79.824735, 34.566307 ], [ 79.782766, 34.554176 ], [ 79.757512, 34.546876 ], [ 79.746472, 34.540271 ], [ 79.744309, 34.534026 ], [ 79.75345, 34.504569 ], [ 79.749924, 34.498555 ], [ 79.734472, 34.48935 ], [ 79.728296, 34.481684 ], [ 79.729376, 34.471562 ], [ 79.741476, 34.449372 ], [ 79.737268, 34.441516 ], [ 79.729493, 34.436199 ], [ 79.690367, 34.424148 ], [ 79.673711, 34.422715 ], [ 79.644471, 34.42458 ], [ 79.541349, 34.465086 ], [ 79.526007, 34.465886 ], [ 79.517892, 34.46133 ], [ 79.514577, 34.45259 ], [ 79.517236, 34.442056 ], [ 79.549652, 34.394793 ], [ 79.560114, 34.364393 ], [ 79.577647, 34.328129 ], [ 79.580646, 34.314052 ], [ 79.577558, 34.297458 ], [ 79.560738, 34.252604 ], [ 79.553064, 34.241434 ], [ 79.529631, 34.219837 ], [ 79.512276, 34.169863 ], [ 79.508215, 34.138467 ], [ 79.45298, 34.093369 ], [ 79.437688, 34.064836 ], [ 79.425696, 34.027956 ], [ 79.419232, 34.017956 ], [ 79.406044, 34.00724 ], [ 79.389295, 34.002418 ], [ 79.261143, 34.016248 ], [ 79.236553, 34.012473 ], [ 79.194401, 34.015332 ], [ 79.172217, 34.011295 ], [ 79.123458, 33.992319 ], [ 79.106856, 33.991124 ], [ 79.055455, 34.000462 ], [ 79.002751, 34.025961 ], [ 78.974198, 34.030877 ], [ 78.917411, 34.010332 ], [ 78.905278, 33.997644 ], [ 78.898465, 33.973091 ], [ 78.904778, 33.952111 ], [ 78.9692, 33.855692 ], [ 78.998966, 33.800483 ], [ 79.030653, 33.714502 ], [ 79.045823, 33.692472 ], [ 79.076579, 33.663282 ], [ 79.084506, 33.649343 ], [ 79.086832, 33.638601 ], [ 79.082138, 33.625951 ], [ 79.070045, 33.618277 ], [ 79.056729, 33.615513 ], [ 79.022687, 33.616204 ], [ 78.967113, 33.602285 ], [ 78.924156, 33.603847 ], [ 78.909351, 33.600151 ], [ 78.898854, 33.591542 ], [ 78.897466, 33.578153 ], [ 78.923195, 33.557152 ], [ 78.93028, 33.535116 ], [ 78.946714, 33.512699 ], [ 78.946944, 33.504365 ], [ 78.936126, 33.488936 ], [ 78.933102, 33.477846 ], [ 78.935979, 33.421944 ], [ 78.94793, 33.37869 ] ] ] ] } }
]
}
