{
"type": "FeatureCollection",
"name": "Albania",
"crs": { "type": "name", "properties": { "name": "urn:ogc:def:crs:OGC:1.3:CRS84" } },
"features": [
{ "type": "Feature", "properties": { "id": "AL", "CNTR_ID": "AL", "CNTR_NAME": "Shqipëria", "NAME_ENGL": "Albania", "ISO3_CODE": "ALB", "FID": "AL" }, "geometry": { "type": "MultiPolygon", "coordinates": [ [ [ [ 20.0763, 42.555823 ], [ 20.085303, 42.551979 ], [ 20.087111, 42.551208 ], [ 20.100239, 42.533025 ], [ 20.120653, 42.525672 ], [ 20.124828, 42.521791 ], [ 20.149895, 42.513916 ], [ 20.164954, 42.505928 ], [ 20.165969, 42.499218 ], [ 20.170769, 42.491544 ], [ 20.179449, 42.48656 ], [ 20.181442, 42.478282 ], [ 20.194985, 42.463301 ], [ 20.19389, 42.452727 ], [ 20.218476, 42.435436 ], [ 20.225891, 42.423444 ], [ 20.225078, 42.414951 ], [ 20.214417, 42.408994 ], [ 20.209582, 42.400879 ], [ 20.240839, 42.377242 ], [ 20.245412, 42.35952 ], [ 20.243801, 42.353529 ], [ 20.237819, 42.347025 ], [ 20.246358, 42.335207 ], [ 20.245314, 42.325684 ], [ 20.260327, 42.319158 ], [ 20.291324, 42.322828 ], [ 20.306501, 42.315938 ], [ 20.324787, 42.325968 ], [ 20.336422, 42.327094 ], [ 20.344771, 42.323981 ], [ 20.355906, 42.310041 ], [ 20.364355, 42.306595 ], [ 20.375304, 42.305172 ], [ 20.394658, 42.298003 ], [ 20.404596, 42.285167 ], [ 20.456701, 42.271866 ], [ 20.474371, 42.259136 ], [ 20.476681, 42.254157 ], [ 20.480169, 42.251328 ], [ 20.49649, 42.240577 ], [ 20.502953, 42.227977 ], [ 20.515701, 42.221956 ], [ 20.524063, 42.210211 ], [ 20.533868, 42.181898 ], [ 20.545951, 42.164316 ], [ 20.543066, 42.160665 ], [ 20.557994, 42.146688 ], [ 20.556251, 42.139563 ], [ 20.567034, 42.123962 ], [ 20.567646, 42.119259 ], [ 20.561531, 42.108623 ], [ 20.56752, 42.097851 ], [ 20.555553, 42.084036 ], [ 20.558481, 42.074979 ], [ 20.570394, 42.059578 ], [ 20.576518, 42.057185 ], [ 20.594237, 42.042376 ], [ 20.597471, 42.020442 ], [ 20.602199, 42.015215 ], [ 20.612357, 41.98536 ], [ 20.623443, 41.975499 ], [ 20.626034, 41.963327 ], [ 20.618821, 41.939288 ], [ 20.604993, 41.931013 ], [ 20.591833, 41.927139 ], [ 20.585528, 41.918033 ], [ 20.577734, 41.915931 ], [ 20.593504, 41.883938 ], [ 20.594286, 41.877327 ], [ 20.573113, 41.874767 ], [ 20.560131, 41.868777 ], [ 20.562872, 41.846136 ], [ 20.559834, 41.824268 ], [ 20.56456, 41.817198 ], [ 20.566915, 41.802388 ], [ 20.573576, 41.798248 ], [ 20.572394, 41.787884 ], [ 20.564729, 41.786216 ], [ 20.548319, 41.789442 ], [ 20.545883, 41.780016 ], [ 20.533807, 41.777151 ], [ 20.534674, 41.768331 ], [ 20.527801, 41.756346 ], [ 20.519511, 41.74887 ], [ 20.519116, 41.739268 ], [ 20.514667, 41.730521 ], [ 20.514464, 41.721845 ], [ 20.526461, 41.705634 ], [ 20.527274, 41.699799 ], [ 20.529215, 41.686351 ], [ 20.516612, 41.662429 ], [ 20.526623, 41.651919 ], [ 20.525098, 41.637273 ], [ 20.526014, 41.635462 ], [ 20.532685, 41.632996 ], [ 20.533868, 41.631752 ], [ 20.543517, 41.622676 ], [ 20.545851, 41.61556 ], [ 20.547483, 41.608243 ], [ 20.555247, 41.600639 ], [ 20.55321, 41.595853 ], [ 20.557774, 41.58187 ], [ 20.542578, 41.577496 ], [ 20.533868, 41.572422 ], [ 20.519222, 41.563756 ], [ 20.508186, 41.56413 ], [ 20.493767, 41.561229 ], [ 20.48684, 41.558907 ], [ 20.468584, 41.55853 ], [ 20.456285, 41.554024 ], [ 20.456603, 41.552509 ], [ 20.45821, 41.549927 ], [ 20.462037, 41.548692 ], [ 20.46329, 41.545302 ], [ 20.465429, 41.543626 ], [ 20.466993, 41.541532 ], [ 20.469751, 41.540239 ], [ 20.469616, 41.536944 ], [ 20.472036, 41.535014 ], [ 20.472986, 41.533201 ], [ 20.472263, 41.531745 ], [ 20.468949, 41.529087 ], [ 20.465196, 41.529257 ], [ 20.461011, 41.52878 ], [ 20.460416, 41.525401 ], [ 20.454895, 41.523446 ], [ 20.453762, 41.521886 ], [ 20.453261, 41.519774 ], [ 20.453539, 41.51638 ], [ 20.454538, 41.514193 ], [ 20.456666, 41.512383 ], [ 20.463152, 41.508897 ], [ 20.466838, 41.508042 ], [ 20.47088, 41.509212 ], [ 20.47659, 41.507608 ], [ 20.476505, 41.506122 ], [ 20.471346, 41.502267 ], [ 20.469107, 41.499833 ], [ 20.468962, 41.497897 ], [ 20.470223, 41.49665 ], [ 20.471986, 41.496213 ], [ 20.474583, 41.496381 ], [ 20.477639, 41.497897 ], [ 20.479321, 41.497897 ], [ 20.483434, 41.494259 ], [ 20.494585, 41.491685 ], [ 20.502711, 41.475899 ], [ 20.502678, 41.466277 ], [ 20.511739, 41.450972 ], [ 20.508445, 41.443566 ], [ 20.513995, 41.438092 ], [ 20.52371, 41.438291 ], [ 20.533868, 41.435977 ], [ 20.539408, 41.435197 ], [ 20.539393, 41.427038 ], [ 20.556517, 41.417002 ], [ 20.560363, 41.408458 ], [ 20.560026, 41.403672 ], [ 20.553877, 41.399026 ], [ 20.546773, 41.384261 ], [ 20.551218, 41.379933 ], [ 20.550443, 41.375832 ], [ 20.533868, 41.357287 ], [ 20.527497, 41.353579 ], [ 20.526625, 41.344727 ], [ 20.516568, 41.33753 ], [ 20.506153, 41.34479 ], [ 20.498635, 41.346049 ], [ 20.497795, 41.337683 ], [ 20.49233, 41.332176 ], [ 20.498724, 41.32662 ], [ 20.498455, 41.321935 ], [ 20.50166, 41.317154 ], [ 20.509054, 41.30157 ], [ 20.50888, 41.291161 ], [ 20.513869, 41.287053 ], [ 20.510869, 41.274809 ], [ 20.515434, 41.26013 ], [ 20.515236, 41.254929 ], [ 20.521973, 41.246326 ], [ 20.516512, 41.237873 ], [ 20.516402, 41.230533 ], [ 20.531178, 41.211658 ], [ 20.533868, 41.199129 ], [ 20.539647, 41.195334 ], [ 20.543607, 41.196842 ], [ 20.552851, 41.191508 ], [ 20.558934, 41.192672 ], [ 20.559629, 41.182513 ], [ 20.567216, 41.173222 ], [ 20.582018, 41.157129 ], [ 20.582997, 41.150357 ], [ 20.586266, 41.14711 ], [ 20.596762, 41.129841 ], [ 20.59605, 41.126713 ], [ 20.588965, 41.123705 ], [ 20.582903, 41.112965 ], [ 20.59409, 41.095812 ], [ 20.597745, 41.092033 ], [ 20.632866, 41.086513 ], [ 20.670626, 41.087351 ], [ 20.704749, 40.990194 ], [ 20.730865, 40.917013 ], [ 20.732269, 40.911732 ], [ 20.75879, 40.902635 ], [ 20.774259, 40.904303 ], [ 20.801969, 40.898247 ], [ 20.817619, 40.900675 ], [ 20.82577, 40.905831 ], [ 20.829173, 40.914124 ], [ 20.837823, 40.927683 ], [ 20.847524, 40.937051 ], [ 20.859987, 40.933549 ], [ 20.889168, 40.924353 ], [ 20.899151, 40.919116 ], [ 20.911267, 40.920499 ], [ 20.917986, 40.923606 ], [ 20.92806, 40.921773 ], [ 20.93896, 40.924075 ], [ 20.956845, 40.916407 ], [ 20.959231, 40.914267 ], [ 20.961873, 40.911898 ], [ 20.968065, 40.910468 ], [ 20.976929, 40.900644 ], [ 20.977664, 40.889661 ], [ 20.980205, 40.855665 ], [ 20.984515, 40.803044 ], [ 20.98475, 40.801056 ], [ 20.983958, 40.792064 ], [ 20.978804, 40.784446 ], [ 20.960262, 40.770872 ], [ 20.973129, 40.763365 ], [ 20.983416, 40.761569 ], [ 20.98597, 40.749385 ], [ 20.983863, 40.74053 ], [ 20.988622, 40.733924 ], [ 21.009174, 40.723517 ], [ 21.028303, 40.705656 ], [ 21.056726, 40.667496 ], [ 21.052394, 40.635095 ], [ 21.056069, 40.616695 ], [ 21.045496, 40.613301 ], [ 21.047754, 40.600821 ], [ 21.045206, 40.597162 ], [ 21.040683, 40.590667 ], [ 21.046345, 40.576542 ], [ 21.042389, 40.563371 ], [ 21.041581, 40.558235 ], [ 21.033635, 40.555061 ], [ 21.021733, 40.555877 ], [ 21.005685, 40.551334 ], [ 20.99908, 40.541943 ], [ 20.998535, 40.534311 ], [ 20.976116, 40.520279 ], [ 20.968634, 40.51887 ], [ 20.964636, 40.507846 ], [ 20.96906, 40.498422 ], [ 20.968023, 40.489118 ], [ 20.959231, 40.480739 ], [ 20.954698, 40.476384 ], [ 20.954141, 40.474897 ], [ 20.95378, 40.468971 ], [ 20.928532, 40.463017 ], [ 20.908884, 40.474897 ], [ 20.907223, 40.475447 ], [ 20.889739, 40.475263 ], [ 20.887624, 40.474897 ], [ 20.870793, 40.471074 ], [ 20.862924, 40.474897 ], [ 20.856166, 40.47818 ], [ 20.844955, 40.479378 ], [ 20.84081, 40.474897 ], [ 20.832988, 40.466441 ], [ 20.830954, 40.455499 ], [ 20.822399, 40.445558 ], [ 20.821684, 40.440397 ], [ 20.817492, 40.438747 ], [ 20.811517, 40.439983 ], [ 20.795661, 40.43379 ], [ 20.792499, 40.430854 ], [ 20.78584, 40.424671 ], [ 20.792035, 40.412771 ], [ 20.78723, 40.400017 ], [ 20.791976, 40.384222 ], [ 20.790294, 40.363477 ], [ 20.785411, 40.358692 ], [ 20.776761, 40.3558 ], [ 20.778501, 40.348789 ], [ 20.773779, 40.346717 ], [ 20.765701, 40.343171 ], [ 20.759523, 40.334964 ], [ 20.758184, 40.330745 ], [ 20.76311, 40.321473 ], [ 20.754235, 40.314806 ], [ 20.735308, 40.308645 ], [ 20.730001, 40.295551 ], [ 20.71414, 40.28276 ], [ 20.710187, 40.274711 ], [ 20.709525, 40.262706 ], [ 20.721151, 40.252082 ], [ 20.720852, 40.235742 ], [ 20.72411, 40.223548 ], [ 20.706988, 40.199758 ], [ 20.678605, 40.188796 ], [ 20.680347, 40.183119 ], [ 20.677853, 40.173806 ], [ 20.675591, 40.165359 ], [ 20.693391, 40.151805 ], [ 20.68365, 40.140496 ], [ 20.676384, 40.126243 ], [ 20.679124, 40.110468 ], [ 20.677801, 40.097047 ], [ 20.666627, 40.09645 ], [ 20.651352, 40.090903 ], [ 20.624591, 40.089559 ], [ 20.612877, 40.079653 ], [ 20.599812, 40.071314 ], [ 20.550917, 40.063832 ], [ 20.533868, 40.072244 ], [ 20.511185, 40.082184 ], [ 20.496102, 40.066675 ], [ 20.485837, 40.063777 ], [ 20.474544, 40.066425 ], [ 20.462877, 40.074461 ], [ 20.449013, 40.072882 ], [ 20.420355, 40.060651 ], [ 20.410573, 40.049258 ], [ 20.413933, 40.039324 ], [ 20.411336, 40.030689 ], [ 20.398251, 40.015295 ], [ 20.398443, 40.006028 ], [ 20.392459, 39.995931 ], [ 20.381166, 39.993682 ], [ 20.372879, 39.989102 ], [ 20.328845, 39.991823 ], [ 20.324787, 39.991413 ], [ 20.312997, 39.990221 ], [ 20.319161, 39.975815 ], [ 20.324787, 39.972461 ], [ 20.344155, 39.947303 ], [ 20.339515, 39.923272 ], [ 20.352815, 39.915174 ], [ 20.363639, 39.909031 ], [ 20.373134, 39.893128 ], [ 20.383909, 39.889247 ], [ 20.383664, 39.881177 ], [ 20.389341, 39.869264 ], [ 20.416346, 39.840712 ], [ 20.412907, 39.833291 ], [ 20.415164, 39.827471 ], [ 20.413607, 39.813818 ], [ 20.391308, 39.788483 ], [ 20.381546, 39.785248 ], [ 20.374062, 39.785829 ], [ 20.347699, 39.803779 ], [ 20.324787, 39.808302 ], [ 20.317283, 39.809784 ], [ 20.305611, 39.815581 ], [ 20.302345, 39.812743 ], [ 20.290092, 39.803329 ], [ 20.304543, 39.786366 ], [ 20.306668, 39.78043 ], [ 20.302967, 39.774301 ], [ 20.293358, 39.767526 ], [ 20.292439, 39.763797 ], [ 20.29707, 39.756417 ], [ 20.304662, 39.750876 ], [ 20.307032, 39.744117 ], [ 20.319655, 39.736561 ], [ 20.321964, 39.732168 ], [ 20.320448, 39.72848 ], [ 20.31123, 39.724838 ], [ 20.303285, 39.71683 ], [ 20.284624, 39.711668 ], [ 20.276616, 39.700068 ], [ 20.266536, 39.694245 ], [ 20.263701, 39.672229 ], [ 20.253686, 39.675955 ], [ 20.245069, 39.682883 ], [ 20.231331, 39.683958 ], [ 20.229826, 39.676803 ], [ 20.218849, 39.665138 ], [ 20.227306, 39.652071 ], [ 20.225317, 39.647967 ], [ 20.207993, 39.646317 ], [ 20.193618, 39.644949 ], [ 20.180123, 39.648979 ], [ 20.172488, 39.648844 ], [ 20.151435, 39.655314 ], [ 20.137894, 39.654557 ], [ 20.125258, 39.657161 ], [ 20.099368, 39.670967 ], [ 20.089323, 39.681932 ], [ 20.085303, 39.681584 ], [ 20.077969, 39.680951 ], [ 20.071697, 39.685118 ], [ 20.066238, 39.688745 ], [ 20.047285, 39.693133 ], [ 20.037427, 39.691938 ], [ 20.031468, 39.700129 ], [ 20.008813, 39.691292 ], [ 20.004804, 39.693184 ], [ 20.000636, 39.689557 ], [ 19.987162, 39.688843 ], [ 19.982175, 39.694617 ], [ 19.982468, 39.708456 ], [ 19.98701, 39.719389 ], [ 19.993243, 39.726335 ], [ 19.997438, 39.738303 ], [ 19.995867, 39.743285 ], [ 19.996746, 39.750797 ], [ 19.981312, 39.745437 ], [ 19.974959, 39.753558 ], [ 19.983797, 39.766373 ], [ 19.996173, 39.76929 ], [ 20.005403, 39.780894 ], [ 20.003083, 39.79004 ], [ 19.994893, 39.795877 ], [ 20.003374, 39.803648 ], [ 20.01144, 39.817966 ], [ 20.010248, 39.835237 ], [ 20.019168, 39.845097 ], [ 20.018969, 39.855922 ], [ 20.010597, 39.871702 ], [ 19.997095, 39.869393 ], [ 19.984392, 39.871417 ], [ 19.977432, 39.876799 ], [ 19.959705, 39.884233 ], [ 19.953306, 39.894652 ], [ 19.93914, 39.89579 ], [ 19.932923, 39.902162 ], [ 19.929164, 39.899824 ], [ 19.915494, 39.900769 ], [ 19.909032, 39.907847 ], [ 19.910874, 39.911299 ], [ 19.918225, 39.911344 ], [ 19.916744, 39.914605 ], [ 19.926753, 39.925137 ], [ 19.937531, 39.926726 ], [ 19.936395, 39.941877 ], [ 19.91473, 39.96544 ], [ 19.911999, 39.975584 ], [ 19.894558, 39.995016 ], [ 19.890685, 40.005367 ], [ 19.880928, 40.016063 ], [ 19.856772, 40.042539 ], [ 19.845289, 40.047534 ], [ 19.837598, 40.050879 ], [ 19.823615, 40.052777 ], [ 19.813957, 40.051331 ], [ 19.809788, 40.046792 ], [ 19.803976, 40.048722 ], [ 19.801242, 40.046486 ], [ 19.797017, 40.04698 ], [ 19.793367, 40.052651 ], [ 19.801784, 40.053884 ], [ 19.801873, 40.056879 ], [ 19.791459, 40.0619 ], [ 19.79324, 40.064049 ], [ 19.790452, 40.068089 ], [ 19.780147, 40.071709 ], [ 19.777522, 40.070825 ], [ 19.777009, 40.058948 ], [ 19.77273, 40.059591 ], [ 19.766876, 40.079549 ], [ 19.751659, 40.080705 ], [ 19.749961, 40.087994 ], [ 19.754293, 40.092857 ], [ 19.751679, 40.098274 ], [ 19.744426, 40.100774 ], [ 19.740556, 40.09957 ], [ 19.733254, 40.101291 ], [ 19.722672, 40.108471 ], [ 19.702831, 40.113767 ], [ 19.69658, 40.121278 ], [ 19.655035, 40.127899 ], [ 19.638949, 40.141159 ], [ 19.623685, 40.146192 ], [ 19.605879, 40.156959 ], [ 19.592324, 40.161671 ], [ 19.578822, 40.172898 ], [ 19.57515, 40.173806 ], [ 19.548639, 40.180359 ], [ 19.508981, 40.196048 ], [ 19.47075, 40.216522 ], [ 19.445133, 40.235083 ], [ 19.410292, 40.269271 ], [ 19.397725, 40.284806 ], [ 19.378676, 40.300561 ], [ 19.372645, 40.309869 ], [ 19.375481, 40.318705 ], [ 19.367418, 40.342967 ], [ 19.355619, 40.356128 ], [ 19.346232, 40.371894 ], [ 19.325254, 40.394668 ], [ 19.292698, 40.419932 ], [ 19.292, 40.423045 ], [ 19.29962, 40.425926 ], [ 19.309403, 40.433772 ], [ 19.319126, 40.436881 ], [ 19.33127, 40.431928 ], [ 19.342865, 40.431319 ], [ 19.353803, 40.424357 ], [ 19.379891, 40.403927 ], [ 19.398071, 40.385855 ], [ 19.406859, 40.368442 ], [ 19.408219, 40.342103 ], [ 19.41754, 40.331078 ], [ 19.41944, 40.324663 ], [ 19.426296, 40.321775 ], [ 19.436948, 40.322085 ], [ 19.437115, 40.322112 ], [ 19.458003, 40.328839 ], [ 19.47075, 40.339687 ], [ 19.476856, 40.341775 ], [ 19.485203, 40.349988 ], [ 19.480282, 40.361472 ], [ 19.481848, 40.369821 ], [ 19.478856, 40.376872 ], [ 19.48391, 40.385385 ], [ 19.47809, 40.398574 ], [ 19.481127, 40.414141 ], [ 19.49297, 40.43055 ], [ 19.495047, 40.440382 ], [ 19.491077, 40.449108 ], [ 19.476856, 40.454148 ], [ 19.47075, 40.457191 ], [ 19.461533, 40.461786 ], [ 19.43629, 40.485923 ], [ 19.431769, 40.487416 ], [ 19.425011, 40.497165 ], [ 19.414091, 40.501518 ], [ 19.405201, 40.499525 ], [ 19.401658, 40.502904 ], [ 19.38823, 40.520134 ], [ 19.387702, 40.527095 ], [ 19.378605, 40.533604 ], [ 19.380392, 40.546776 ], [ 19.376782, 40.557767 ], [ 19.356302, 40.597162 ], [ 19.350428, 40.608456 ], [ 19.336206, 40.627393 ], [ 19.319622, 40.640857 ], [ 19.318752, 40.644981 ], [ 19.314219, 40.647232 ], [ 19.317442, 40.667918 ], [ 19.336056, 40.677694 ], [ 19.359309, 40.705656 ], [ 19.368242, 40.728938 ], [ 19.37013, 40.761967 ], [ 19.376686, 40.796959 ], [ 19.376187, 40.808681 ], [ 19.366793, 40.820904 ], [ 19.36809, 40.823355 ], [ 19.365368, 40.828081 ], [ 19.37517, 40.83017 ], [ 19.382183, 40.833397 ], [ 19.388554, 40.839943 ], [ 19.393408, 40.847812 ], [ 19.398693, 40.863036 ], [ 19.403143, 40.886137 ], [ 19.412931, 40.911908 ], [ 19.414828, 40.9169 ], [ 19.438956, 40.934297 ], [ 19.440875, 40.935451 ], [ 19.447849, 40.941645 ], [ 19.464607, 40.953429 ], [ 19.47075, 40.960587 ], [ 19.473303, 40.96356 ], [ 19.475702, 40.969217 ], [ 19.476248, 40.975495 ], [ 19.474709, 40.980015 ], [ 19.47089, 40.983586 ], [ 19.469702, 40.982696 ], [ 19.461105, 40.983668 ], [ 19.453124, 40.987069 ], [ 19.447923, 40.991873 ], [ 19.442483, 41.000525 ], [ 19.442802, 41.042197 ], [ 19.452106, 41.054824 ], [ 19.457254, 41.078377 ], [ 19.456549, 41.107677 ], [ 19.448708, 41.127078 ], [ 19.437788, 41.146199 ], [ 19.458748, 41.148983 ], [ 19.468838, 41.156373 ], [ 19.47075, 41.159662 ], [ 19.473363, 41.164155 ], [ 19.474931, 41.17884 ], [ 19.485881, 41.200518 ], [ 19.503194, 41.216087 ], [ 19.512088, 41.230322 ], [ 19.518871, 41.249428 ], [ 19.517798, 41.268656 ], [ 19.504362, 41.290033 ], [ 19.485395, 41.307408 ], [ 19.47075, 41.31339 ], [ 19.45492, 41.312865 ], [ 19.444679, 41.307926 ], [ 19.435697, 41.312109 ], [ 19.422447, 41.326101 ], [ 19.419373, 41.338745 ], [ 19.419076, 41.367512 ], [ 19.420636, 41.3765 ], [ 19.421753, 41.382938 ], [ 19.417344, 41.38864 ], [ 19.405102, 41.396434 ], [ 19.396662, 41.408346 ], [ 19.401681, 41.408035 ], [ 19.409513, 41.400843 ], [ 19.416297, 41.398344 ], [ 19.429353, 41.398101 ], [ 19.441687, 41.402372 ], [ 19.445223, 41.406882 ], [ 19.439122, 41.41095 ], [ 19.45092, 41.430476 ], [ 19.47075, 41.444766 ], [ 19.487097, 41.456543 ], [ 19.497966, 41.468892 ], [ 19.50881, 41.487823 ], [ 19.513581, 41.518535 ], [ 19.510205, 41.533472 ], [ 19.505122, 41.538789 ], [ 19.474097, 41.54933 ], [ 19.47075, 41.551355 ], [ 19.463929, 41.555483 ], [ 19.451988, 41.583127 ], [ 19.458264, 41.583526 ], [ 19.47075, 41.579006 ], [ 19.485697, 41.573596 ], [ 19.508296, 41.569354 ], [ 19.535665, 41.57123 ], [ 19.557328, 41.577674 ], [ 19.572601, 41.591983 ], [ 19.587282, 41.616 ], [ 19.577902, 41.625197 ], [ 19.570721, 41.631742 ], [ 19.572911, 41.637321 ], [ 19.569718, 41.653513 ], [ 19.582476, 41.705393 ], [ 19.580728, 41.724088 ], [ 19.572603, 41.749266 ], [ 19.573272, 41.760827 ], [ 19.579407, 41.768195 ], [ 19.589182, 41.768142 ], [ 19.591685, 41.765066 ], [ 19.599095, 41.769095 ], [ 19.602555, 41.783894 ], [ 19.600256, 41.800741 ], [ 19.591637, 41.812526 ], [ 19.586588, 41.813289 ], [ 19.580897, 41.809094 ], [ 19.543463, 41.830385 ], [ 19.520068, 41.840311 ], [ 19.514068, 41.842436 ], [ 19.507728, 41.844576 ], [ 19.500589, 41.846767 ], [ 19.485881, 41.850777 ], [ 19.47075, 41.854098 ], [ 19.448492, 41.858984 ], [ 19.447893, 41.859202 ], [ 19.41536, 41.8616 ], [ 19.402782, 41.853775 ], [ 19.384419, 41.850071 ], [ 19.378697, 41.844106 ], [ 19.372528, 41.844148 ], [ 19.374638, 41.874389 ], [ 19.381087, 41.88448 ], [ 19.369242, 41.88876 ], [ 19.364774, 41.897866 ], [ 19.350715, 41.901186 ], [ 19.343077, 41.90567 ], [ 19.345683, 41.912698 ], [ 19.364031, 41.917727 ], [ 19.371117, 41.923144 ], [ 19.368756, 41.928805 ], [ 19.353632, 41.938132 ], [ 19.349979, 41.94405 ], [ 19.351652, 41.955874 ], [ 19.354667, 41.958902 ], [ 19.381586, 41.96155 ], [ 19.387833, 41.96549 ], [ 19.376954, 41.974607 ], [ 19.381934, 41.995118 ], [ 19.37909, 42.001672 ], [ 19.373859, 42.00592 ], [ 19.369673, 42.026558 ], [ 19.37122, 42.038789 ], [ 19.378679, 42.051631 ], [ 19.378645, 42.071909 ], [ 19.38461, 42.078906 ], [ 19.401169, 42.104094 ], [ 19.281839, 42.180506 ], [ 19.348856, 42.240144 ], [ 19.359348, 42.256525 ], [ 19.383687, 42.282245 ], [ 19.384428, 42.293055 ], [ 19.388973, 42.2997 ], [ 19.420209, 42.325868 ], [ 19.420087, 42.329745 ], [ 19.414152, 42.349862 ], [ 19.423298, 42.358121 ], [ 19.422467, 42.366145 ], [ 19.425155, 42.371408 ], [ 19.43885, 42.381706 ], [ 19.446714, 42.38477 ], [ 19.455136, 42.385173 ], [ 19.47075, 42.391917 ], [ 19.47285, 42.392823 ], [ 19.479143, 42.403663 ], [ 19.487148, 42.411281 ], [ 19.492211, 42.422951 ], [ 19.497691, 42.425394 ], [ 19.498967, 42.431527 ], [ 19.504649, 42.437508 ], [ 19.518581, 42.442722 ], [ 19.519602, 42.449563 ], [ 19.531034, 42.459019 ], [ 19.547872, 42.485704 ], [ 19.558139, 42.494415 ], [ 19.56253, 42.501581 ], [ 19.562755, 42.513968 ], [ 19.600291, 42.530012 ], [ 19.606708, 42.537938 ], [ 19.616131, 42.542112 ], [ 19.610301, 42.562586 ], [ 19.612094, 42.577595 ], [ 19.662854, 42.628634 ], [ 19.667446, 42.630765 ], [ 19.680184, 42.628957 ], [ 19.687085, 42.638063 ], [ 19.698552, 42.643699 ], [ 19.699565, 42.649697 ], [ 19.704293, 42.654869 ], [ 19.722864, 42.660543 ], [ 19.732635, 42.656834 ], [ 19.738478, 42.64348 ], [ 19.740556, 42.642714 ], [ 19.755363, 42.637251 ], [ 19.756278, 42.633839 ], [ 19.75005, 42.627666 ], [ 19.752375, 42.614053 ], [ 19.759962, 42.610134 ], [ 19.765581, 42.60064 ], [ 19.774864, 42.591995 ], [ 19.773989, 42.581177 ], [ 19.763788, 42.583788 ], [ 19.758646, 42.580968 ], [ 19.752371, 42.581004 ], [ 19.748439, 42.573864 ], [ 19.752825, 42.568538 ], [ 19.75315, 42.562928 ], [ 19.748859, 42.55062 ], [ 19.743917, 42.545036 ], [ 19.758848, 42.521845 ], [ 19.764793, 42.503947 ], [ 19.780349, 42.496545 ], [ 19.78771, 42.487552 ], [ 19.792818, 42.48167 ], [ 19.808159, 42.473253 ], [ 19.830998, 42.466445 ], [ 19.835677, 42.471029 ], [ 19.838093, 42.478992 ], [ 19.845289, 42.479083 ], [ 19.848765, 42.479126 ], [ 19.855696, 42.483922 ], [ 19.864582, 42.481738 ], [ 19.870044, 42.483856 ], [ 19.87797, 42.495419 ], [ 19.884338, 42.494173 ], [ 19.897806, 42.485459 ], [ 19.904869, 42.496303 ], [ 19.906347, 42.506694 ], [ 19.916479, 42.507967 ], [ 19.940448, 42.5179 ], [ 19.953903, 42.511497 ], [ 19.96611, 42.510575 ], [ 19.981375, 42.512945 ], [ 20.003626, 42.509787 ], [ 20.014523, 42.528674 ], [ 20.016547, 42.542809 ], [ 20.048885, 42.550488 ], [ 20.057058, 42.558794 ], [ 20.0763, 42.555823 ] ] ], [ [ [ 19.288773, 40.476136 ], [ 19.286191, 40.473695 ], [ 19.280829, 40.474363 ], [ 19.27851, 40.47674 ], [ 19.279143, 40.479136 ], [ 19.276546, 40.482585 ], [ 19.274543, 40.490884 ], [ 19.268435, 40.492691 ], [ 19.263729, 40.505669 ], [ 19.265277, 40.507403 ], [ 19.265804, 40.512655 ], [ 19.269762, 40.514523 ], [ 19.276258, 40.509703 ], [ 19.275749, 40.50743 ], [ 19.277523, 40.504989 ], [ 19.283453, 40.500962 ], [ 19.289637, 40.500755 ], [ 19.292413, 40.49645 ], [ 19.293653, 40.491438 ], [ 19.286789, 40.480228 ], [ 19.288773, 40.476136 ] ] ], [ [ [ 19.991723, 39.745139 ], [ 19.990142, 39.741067 ], [ 19.984804, 39.743181 ], [ 19.989499, 39.745369 ], [ 19.991723, 39.745139 ] ] ] ] } }
]
}
