{
"type": "FeatureCollection",
"name": "Angola",
"crs": { "type": "name", "properties": { "name": "urn:ogc:def:crs:OGC:1.3:CRS84" } },
"features": [
{ "type": "Feature", "properties": { "id": "AO", "CNTR_ID": "AO", "CNTR_NAME": "Angola", "NAME_ENGL": "Angola", "ISO3_CODE": "AGO", "FID": "AO" }, "geometry": { "type": "MultiPolygon", "coordinates": [ [ [ [ 23.42989, -17.634459 ], [ 22.857783, -17.745633 ], [ 22.075102, -17.897616 ], [ 22.057858, -17.900961 ], [ 21.426508, -18.023397 ], [ 21.415954, -18.016146 ], [ 21.400299, -18.010543 ], [ 21.374163, -18.009065 ], [ 21.371859, -18.004994 ], [ 21.372293, -17.993501 ], [ 21.362634, -17.984764 ], [ 21.320779, -17.988108 ], [ 21.306948, -17.976418 ], [ 21.276942, -17.965865 ], [ 21.255836, -17.962335 ], [ 21.234688, -17.94949 ], [ 21.223116, -17.933864 ], [ 21.213029, -17.929236 ], [ 21.19009, -17.935592 ], [ 21.159868, -17.932946 ], [ 21.131625, -17.936931 ], [ 21.116016, -17.934024 ], [ 21.098345, -17.948588 ], [ 21.081661, -17.948385 ], [ 21.067045, -17.944058 ], [ 21.053795, -17.951976 ], [ 21.013401, -17.95397 ], [ 21.000794, -17.962713 ], [ 20.977917, -17.958234 ], [ 20.968512, -17.963955 ], [ 20.956277, -17.965789 ], [ 20.93677, -17.97446 ], [ 20.924786, -17.985366 ], [ 20.905784, -17.994502 ], [ 20.895273, -17.99353 ], [ 20.887085, -17.999987 ], [ 20.871641, -18.000503 ], [ 20.861609, -18.017511 ], [ 20.868537, -18.024898 ], [ 20.865807, -18.029344 ], [ 20.83771, -18.037851 ], [ 20.805487, -18.03748 ], [ 20.789351, -18.024925 ], [ 20.774727, -18.021794 ], [ 20.763784, -18.016174 ], [ 20.749084, -18.019644 ], [ 20.749133, -18.004897 ], [ 20.746576, -18.00189 ], [ 20.720625, -18.012005 ], [ 20.713294, -18.007704 ], [ 20.698237, -18.009785 ], [ 20.683967, -18.001427 ], [ 20.677561, -17.991233 ], [ 20.659477, -17.985659 ], [ 20.644167, -17.977134 ], [ 20.630856, -17.979153 ], [ 20.618584, -17.976262 ], [ 20.612703, -17.983807 ], [ 20.605591, -17.975494 ], [ 20.597136, -17.976827 ], [ 20.590503, -17.974636 ], [ 20.584516, -17.985948 ], [ 20.58134, -17.984867 ], [ 20.57819, -17.976835 ], [ 20.563045, -17.98413 ], [ 20.541198, -17.982178 ], [ 20.515075, -17.968517 ], [ 20.50092, -17.95212 ], [ 20.475284, -17.950164 ], [ 20.464556, -17.935985 ], [ 20.463283, -17.921216 ], [ 20.455671, -17.914293 ], [ 20.438539, -17.906373 ], [ 20.41866, -17.908132 ], [ 20.403081, -17.898844 ], [ 20.383477, -17.894344 ], [ 20.370535, -17.896862 ], [ 20.349621, -17.878456 ], [ 20.324787, -17.863589 ], [ 20.322021, -17.861933 ], [ 20.311321, -17.861609 ], [ 20.303643, -17.86455 ], [ 20.294129, -17.876296 ], [ 20.276606, -17.865955 ], [ 20.263922, -17.867991 ], [ 20.255323, -17.87559 ], [ 20.249802, -17.890157 ], [ 20.245393, -17.89218 ], [ 20.231759, -17.8842 ], [ 20.22011, -17.885219 ], [ 20.172624, -17.8768 ], [ 20.162168, -17.889586 ], [ 20.109651, -17.910477 ], [ 20.098254, -17.904966 ], [ 20.088296, -17.893062 ], [ 20.085303, -17.891891 ], [ 20.080661, -17.890074 ], [ 20.067213, -17.890351 ], [ 20.058377, -17.885369 ], [ 20.038001, -17.901932 ], [ 20.026224, -17.904792 ], [ 19.999097, -17.887557 ], [ 19.968523, -17.887726 ], [ 19.951332, -17.872431 ], [ 19.926044, -17.862405 ], [ 19.910837, -17.862649 ], [ 19.904549, -17.872559 ], [ 19.898432, -17.876765 ], [ 19.865013, -17.882847 ], [ 19.84402, -17.878704 ], [ 19.822412, -17.868409 ], [ 19.811509, -17.86777 ], [ 19.788793, -17.877949 ], [ 19.772052, -17.893409 ], [ 19.763145, -17.906741 ], [ 19.753229, -17.909515 ], [ 19.741692, -17.904406 ], [ 19.72594, -17.877811 ], [ 19.710746, -17.874589 ], [ 19.710591, -17.882545 ], [ 19.706004, -17.883138 ], [ 19.694798, -17.873127 ], [ 19.684864, -17.856363 ], [ 19.671002, -17.849053 ], [ 19.632899, -17.851212 ], [ 19.622122, -17.86277 ], [ 19.614071, -17.866055 ], [ 19.58268, -17.858448 ], [ 19.572023, -17.871611 ], [ 19.550287, -17.87466 ], [ 19.516834, -17.866265 ], [ 19.504686, -17.869874 ], [ 19.494673, -17.86581 ], [ 19.484723, -17.868154 ], [ 19.459166, -17.863584 ], [ 19.43053, -17.869262 ], [ 19.412718, -17.867527 ], [ 19.390675, -17.860402 ], [ 19.378927, -17.850097 ], [ 19.368845, -17.846933 ], [ 19.361013, -17.848715 ], [ 19.354979, -17.855349 ], [ 19.342808, -17.85185 ], [ 19.329276, -17.852861 ], [ 19.326146, -17.84817 ], [ 19.333618, -17.845676 ], [ 19.336061, -17.841129 ], [ 19.328746, -17.834207 ], [ 19.313697, -17.835954 ], [ 19.305375, -17.831967 ], [ 19.295915, -17.836155 ], [ 19.27824, -17.823137 ], [ 19.269822, -17.820405 ], [ 19.254558, -17.821205 ], [ 19.24652, -17.815547 ], [ 19.227011, -17.826271 ], [ 19.190281, -17.816005 ], [ 19.1759, -17.807447 ], [ 19.167636, -17.816192 ], [ 19.146229, -17.808411 ], [ 19.13629, -17.808878 ], [ 19.121607, -17.818017 ], [ 19.123134, -17.827388 ], [ 19.119955, -17.833758 ], [ 19.104561, -17.836608 ], [ 19.033942, -17.834523 ], [ 19.013234, -17.831596 ], [ 18.996677, -17.825323 ], [ 18.982903, -17.828291 ], [ 18.968027, -17.82733 ], [ 18.948357, -17.817675 ], [ 18.92847, -17.82059 ], [ 18.900601, -17.817595 ], [ 18.880382, -17.802007 ], [ 18.868212, -17.804172 ], [ 18.859062, -17.800349 ], [ 18.843848, -17.788497 ], [ 18.840979, -17.777803 ], [ 18.836881, -17.773264 ], [ 18.803823, -17.769195 ], [ 18.790924, -17.765037 ], [ 18.774615, -17.736323 ], [ 18.756186, -17.73901 ], [ 18.744253, -17.736262 ], [ 18.735096, -17.717113 ], [ 18.687474, -17.684505 ], [ 18.639274, -17.642572 ], [ 18.623881, -17.633951 ], [ 18.617737, -17.623212 ], [ 18.619846, -17.607501 ], [ 18.617981, -17.601294 ], [ 18.606943, -17.596636 ], [ 18.596091, -17.583573 ], [ 18.573609, -17.583954 ], [ 18.563877, -17.580414 ], [ 18.559142, -17.569621 ], [ 18.546625, -17.557479 ], [ 18.536985, -17.541735 ], [ 18.535077, -17.522521 ], [ 18.521799, -17.514208 ], [ 18.514858, -17.500636 ], [ 18.501617, -17.493254 ], [ 18.496818, -17.487138 ], [ 18.480313, -17.482369 ], [ 18.473656, -17.448959 ], [ 18.462419, -17.44099 ], [ 18.450795, -17.420125 ], [ 18.441832, -17.411828 ], [ 18.416449, -17.388331 ], [ 14.602151, -17.388477 ], [ 14.220155, -17.388492 ], [ 14.216378, -17.38916 ], [ 14.218697, -17.397861 ], [ 14.2122, -17.409557 ], [ 14.162941, -17.417158 ], [ 14.151005, -17.427383 ], [ 14.133503, -17.431715 ], [ 14.122171, -17.431277 ], [ 14.115843, -17.423637 ], [ 14.108946, -17.42879 ], [ 14.104438, -17.437165 ], [ 14.10157, -17.43863 ], [ 14.082466, -17.433683 ], [ 14.07075, -17.433158 ], [ 14.060774, -17.428726 ], [ 14.053722, -17.429436 ], [ 14.051237, -17.428346 ], [ 14.048928, -17.424493 ], [ 14.042546, -17.419435 ], [ 14.039176, -17.422715 ], [ 14.036462, -17.422861 ], [ 14.028649, -17.418325 ], [ 14.024968, -17.417149 ], [ 14.016677, -17.4145 ], [ 14.01161, -17.415245 ], [ 14.003845, -17.421067 ], [ 13.998673, -17.430453 ], [ 13.994492, -17.432858 ], [ 13.986445, -17.433201 ], [ 13.981353, -17.428568 ], [ 13.977848, -17.427673 ], [ 13.963816, -17.432917 ], [ 13.955389, -17.432606 ], [ 13.938784, -17.418855 ], [ 13.930357, -17.415371 ], [ 13.926993, -17.408266 ], [ 13.929759, -17.404407 ], [ 13.92955, -17.39885 ], [ 13.927829, -17.39624 ], [ 13.921476, -17.388872 ], [ 13.915029, -17.385569 ], [ 13.91662, -17.3784 ], [ 13.901341, -17.369568 ], [ 13.899072, -17.361695 ], [ 13.890642, -17.360226 ], [ 13.869511, -17.343112 ], [ 13.861714, -17.342937 ], [ 13.852599, -17.3393 ], [ 13.83398, -17.327838 ], [ 13.824701, -17.326121 ], [ 13.820964, -17.324655 ], [ 13.815343, -17.322451 ], [ 13.799492, -17.309809 ], [ 13.784317, -17.304368 ], [ 13.77982, -17.296147 ], [ 13.774464, -17.292497 ], [ 13.763459, -17.288977 ], [ 13.742304, -17.272403 ], [ 13.731257, -17.267593 ], [ 13.725894, -17.269506 ], [ 13.718262, -17.265573 ], [ 13.709625, -17.259808 ], [ 13.696625, -17.246772 ], [ 13.692698, -17.245596 ], [ 13.689476, -17.247328 ], [ 13.680692, -17.246462 ], [ 13.67653, -17.242212 ], [ 13.661769, -17.232945 ], [ 13.65563, -17.227087 ], [ 13.650032, -17.224521 ], [ 13.636648, -17.207673 ], [ 13.616563, -17.19835 ], [ 13.60833, -17.189977 ], [ 13.599685, -17.185784 ], [ 13.594757, -17.181817 ], [ 13.543324, -17.147618 ], [ 13.516138, -17.137208 ], [ 13.510878, -17.132813 ], [ 13.508732, -17.125043 ], [ 13.518508, -17.118859 ], [ 13.522957, -17.106589 ], [ 13.521474, -17.091373 ], [ 13.49978, -17.06833 ], [ 13.478846, -17.026807 ], [ 13.461578, -17.010597 ], [ 13.444523, -17.009387 ], [ 13.42378, -16.999448 ], [ 13.397239, -16.996015 ], [ 13.380896, -16.983995 ], [ 13.353822, -16.974751 ], [ 13.327431, -16.983309 ], [ 13.296375, -16.989481 ], [ 13.275542, -16.997757 ], [ 13.257912, -16.993077 ], [ 13.245432, -16.998866 ], [ 13.232045, -16.986115 ], [ 13.221418, -16.985079 ], [ 13.201859, -16.988101 ], [ 13.198598, -16.983898 ], [ 13.198123, -16.973877 ], [ 13.187832, -16.969816 ], [ 13.178249, -16.972117 ], [ 13.167053, -16.963501 ], [ 13.128375, -16.967141 ], [ 13.105423, -16.973614 ], [ 13.094266, -16.97953 ], [ 13.06525, -16.973154 ], [ 13.047998, -16.98028 ], [ 13.038511, -16.980352 ], [ 13.029594, -16.976959 ], [ 13.017696, -16.981567 ], [ 12.983824, -16.982531 ], [ 12.977551, -16.986086 ], [ 12.967405, -16.991836 ], [ 12.962235, -17.008949 ], [ 12.946293, -17.010936 ], [ 12.946667, -17.0172 ], [ 12.9435, -17.019186 ], [ 12.915186, -17.021938 ], [ 12.892388, -17.043673 ], [ 12.873415, -17.047884 ], [ 12.870642, -17.066747 ], [ 12.846464, -17.076963 ], [ 12.837071, -17.085634 ], [ 12.822981, -17.086417 ], [ 12.81266, -17.098153 ], [ 12.804947, -17.114856 ], [ 12.779461, -17.122798 ], [ 12.758534, -17.139546 ], [ 12.738272, -17.145469 ], [ 12.733044, -17.152971 ], [ 12.71631, -17.159702 ], [ 12.712825, -17.171096 ], [ 12.698579, -17.169221 ], [ 12.682012, -17.175186 ], [ 12.674382, -17.173819 ], [ 12.649217, -17.189463 ], [ 12.644072, -17.196623 ], [ 12.634013, -17.1992 ], [ 12.626544, -17.205421 ], [ 12.612942, -17.208654 ], [ 12.606769, -17.21599 ], [ 12.60808, -17.225738 ], [ 12.604877, -17.231107 ], [ 12.596187, -17.234017 ], [ 12.579143, -17.228762 ], [ 12.563899, -17.242199 ], [ 12.546282, -17.239276 ], [ 12.545072, -17.240899 ], [ 12.540954, -17.246423 ], [ 12.532546, -17.243206 ], [ 12.523605, -17.247444 ], [ 12.506673, -17.245257 ], [ 12.495146, -17.247372 ], [ 12.479802, -17.242413 ], [ 12.472892, -17.253511 ], [ 12.461406, -17.256017 ], [ 12.45114, -17.254835 ], [ 12.445193, -17.263157 ], [ 12.437034, -17.257474 ], [ 12.438887, -17.246955 ], [ 12.433197, -17.238759 ], [ 12.435769, -17.222217 ], [ 12.423399, -17.208136 ], [ 12.397449, -17.207815 ], [ 12.391447, -17.216329 ], [ 12.373698, -17.227086 ], [ 12.36938, -17.23254 ], [ 12.363115, -17.230253 ], [ 12.351046, -17.219449 ], [ 12.328521, -17.228387 ], [ 12.318204, -17.228499 ], [ 12.308825, -17.234178 ], [ 12.296022, -17.233838 ], [ 12.284495, -17.240654 ], [ 12.26473, -17.232068 ], [ 12.251239, -17.239258 ], [ 12.235136, -17.234585 ], [ 12.228836, -17.223637 ], [ 12.20947, -17.21631 ], [ 12.2009, -17.209326 ], [ 12.194291, -17.197475 ], [ 12.184092, -17.195663 ], [ 12.179131, -17.1871 ], [ 12.178995, -17.181454 ], [ 12.176725, -17.176422 ], [ 12.172991, -17.174905 ], [ 12.161581, -17.161669 ], [ 12.156926, -17.160331 ], [ 12.132667, -17.165944 ], [ 12.11481, -17.157915 ], [ 12.103426, -17.160396 ], [ 12.079992, -17.142524 ], [ 12.069003, -17.151742 ], [ 12.058392, -17.155391 ], [ 12.034391, -17.151425 ], [ 12.022186, -17.160388 ], [ 11.996578, -17.170403 ], [ 11.974357, -17.176018 ], [ 11.963313, -17.175211 ], [ 11.956235, -17.181098 ], [ 11.942056, -17.182169 ], [ 11.927073, -17.193446 ], [ 11.894241, -17.209183 ], [ 11.882972, -17.225636 ], [ 11.869781, -17.232962 ], [ 11.860823, -17.234788 ], [ 11.856571, -17.240638 ], [ 11.850522, -17.241048 ], [ 11.844653, -17.23565 ], [ 11.837884, -17.236092 ], [ 11.83047, -17.243279 ], [ 11.818846, -17.26255 ], [ 11.809787, -17.267693 ], [ 11.799398, -17.268149 ], [ 11.792712, -17.272876 ], [ 11.769581, -17.254964 ], [ 11.750858, -17.252455 ], [ 11.753823, -17.210226 ], [ 11.752102, -17.080334 ], [ 11.754888, -17.026014 ], [ 11.760543, -16.997918 ], [ 11.765031, -16.942545 ], [ 11.77278, -16.924004 ], [ 11.783064, -16.877494 ], [ 11.776617, -16.831248 ], [ 11.799434, -16.814768 ], [ 11.81889, -16.748087 ], [ 11.822172, -16.712117 ], [ 11.815577, -16.680098 ], [ 11.814374, -16.652034 ], [ 11.816599, -16.647254 ], [ 11.820007, -16.650998 ], [ 11.821541, -16.682455 ], [ 11.824164, -16.689256 ], [ 11.826346, -16.686041 ], [ 11.822833, -16.639168 ], [ 11.818325, -16.622635 ], [ 11.821985, -16.594201 ], [ 11.825912, -16.453589 ], [ 11.81661, -16.332121 ], [ 11.797729, -16.19476 ], [ 11.791309, -16.126592 ], [ 11.792185, -16.090375 ], [ 11.804771, -16.034124 ], [ 11.805441, -16.018664 ], [ 11.78345, -15.973407 ], [ 11.734934, -15.899386 ], [ 11.732367, -15.88707 ], [ 11.734591, -15.871122 ], [ 11.752405, -15.822225 ], [ 11.764872, -15.798604 ], [ 11.774971, -15.788172 ], [ 11.784501, -15.784354 ], [ 11.790625, -15.791374 ], [ 11.806985, -15.792695 ], [ 11.819374, -15.801235 ], [ 11.844385, -15.801595 ], [ 11.870055, -15.792421 ], [ 11.883485, -15.781925 ], [ 11.897982, -15.75433 ], [ 11.908419, -15.745459 ], [ 11.911525, -15.723344 ], [ 11.926449, -15.680248 ], [ 11.952748, -15.667234 ], [ 11.971683, -15.654091 ], [ 11.994583, -15.62986 ], [ 12.003783, -15.597718 ], [ 12.019143, -15.564651 ], [ 12.022899, -15.521546 ], [ 12.030766, -15.485428 ], [ 12.030689, -15.399451 ], [ 12.04268, -15.355956 ], [ 12.052882, -15.33867 ], [ 12.051562, -15.286748 ], [ 12.056079, -15.2653 ], [ 12.056791, -15.234289 ], [ 12.070445, -15.218412 ], [ 12.092543, -15.202649 ], [ 12.104047, -15.200951 ], [ 12.124694, -15.188774 ], [ 12.139187, -15.195733 ], [ 12.15157, -15.183835 ], [ 12.154564, -15.159878 ], [ 12.146182, -15.136471 ], [ 12.137779, -15.127155 ], [ 12.126423, -15.135207 ], [ 12.116706, -15.134824 ], [ 12.11933, -15.108475 ], [ 12.126403, -15.087646 ], [ 12.137243, -15.074026 ], [ 12.142503, -15.052772 ], [ 12.169327, -15.017506 ], [ 12.165689, -14.987475 ], [ 12.170512, -14.966052 ], [ 12.175463, -14.95705 ], [ 12.185768, -14.953295 ], [ 12.192826, -14.947179 ], [ 12.200072, -14.932032 ], [ 12.205012, -14.905933 ], [ 12.213529, -14.894641 ], [ 12.211158, -14.87001 ], [ 12.214168, -14.848916 ], [ 12.223861, -14.837425 ], [ 12.239852, -14.83341 ], [ 12.248743, -14.826846 ], [ 12.260914, -14.803661 ], [ 12.267184, -14.78319 ], [ 12.286588, -14.754073 ], [ 12.284929, -14.726546 ], [ 12.27533, -14.695226 ], [ 12.279422, -14.685692 ], [ 12.294675, -14.6659 ], [ 12.293949, -14.632478 ], [ 12.299874, -14.616161 ], [ 12.301213, -14.594227 ], [ 12.313406, -14.550003 ], [ 12.315213, -14.531015 ], [ 12.335041, -14.476439 ], [ 12.338437, -14.453579 ], [ 12.345857, -14.44262 ], [ 12.354071, -14.412954 ], [ 12.358655, -14.365033 ], [ 12.355615, -14.33684 ], [ 12.359046, -14.325194 ], [ 12.36756, -14.311427 ], [ 12.367397, -14.288093 ], [ 12.356177, -14.266593 ], [ 12.35257, -14.241416 ], [ 12.337019, -14.215377 ], [ 12.333963, -14.193095 ], [ 12.360164, -14.17811 ], [ 12.368228, -14.159208 ], [ 12.365863, -14.133911 ], [ 12.355589, -14.106148 ], [ 12.360924, -14.065441 ], [ 12.376585, -14.051008 ], [ 12.391502, -14.030699 ], [ 12.397567, -14.011292 ], [ 12.404076, -13.971762 ], [ 12.423638, -13.943459 ], [ 12.419505, -13.901455 ], [ 12.423513, -13.880707 ], [ 12.482863, -13.869497 ], [ 12.489936, -13.871633 ], [ 12.49388, -13.879815 ], [ 12.510284, -13.879492 ], [ 12.519381, -13.870016 ], [ 12.525908, -13.851986 ], [ 12.52167, -13.838781 ], [ 12.525831, -13.813968 ], [ 12.524062, -13.767594 ], [ 12.530084, -13.747027 ], [ 12.528595, -13.735682 ], [ 12.534167, -13.695932 ], [ 12.532758, -13.675078 ], [ 12.539206, -13.645557 ], [ 12.538138, -13.635815 ], [ 12.531895, -13.625318 ], [ 12.537424, -13.599719 ], [ 12.545072, -13.592233 ], [ 12.549723, -13.587681 ], [ 12.550664, -13.574488 ], [ 12.547979, -13.566676 ], [ 12.55227, -13.559256 ], [ 12.545072, -13.547228 ], [ 12.542357, -13.542692 ], [ 12.545072, -13.527929 ], [ 12.54873, -13.508032 ], [ 12.545072, -13.503072 ], [ 12.537462, -13.492753 ], [ 12.537551, -13.461458 ], [ 12.530599, -13.448391 ], [ 12.533652, -13.422974 ], [ 12.545072, -13.419617 ], [ 12.554757, -13.4055 ], [ 12.567609, -13.407822 ], [ 12.589291, -13.395653 ], [ 12.60021, -13.384914 ], [ 12.616716, -13.360055 ], [ 12.63607, -13.351147 ], [ 12.646403, -13.342524 ], [ 12.65182, -13.316558 ], [ 12.643354, -13.294835 ], [ 12.656097, -13.289838 ], [ 12.656565, -13.27392 ], [ 12.661682, -13.26238 ], [ 12.703352, -13.237388 ], [ 12.712243, -13.216593 ], [ 12.71645, -13.218417 ], [ 12.72199, -13.228351 ], [ 12.731433, -13.229495 ], [ 12.744046, -13.221935 ], [ 12.755692, -13.204576 ], [ 12.782852, -13.192838 ], [ 12.80252, -13.153905 ], [ 12.815368, -13.142588 ], [ 12.83176, -13.134394 ], [ 12.844303, -13.116275 ], [ 12.876063, -13.101705 ], [ 12.892747, -13.067673 ], [ 12.912268, -13.045624 ], [ 12.921086, -13.03046 ], [ 12.940404, -13.015889 ], [ 12.948073, -13.004169 ], [ 12.955798, -12.9964 ], [ 12.976177, -12.979603 ], [ 12.977551, -12.974602 ], [ 12.97855, -12.970965 ], [ 12.977551, -12.965694 ], [ 12.976385, -12.959541 ], [ 12.958334, -12.918836 ], [ 12.940801, -12.865475 ], [ 12.939851, -12.845159 ], [ 12.944753, -12.834138 ], [ 12.971462, -12.817695 ], [ 12.977551, -12.811078 ], [ 13.013831, -12.771648 ], [ 13.0382, -12.750923 ], [ 13.059752, -12.737245 ], [ 13.078897, -12.716396 ], [ 13.099072, -12.703942 ], [ 13.118743, -12.682761 ], [ 13.134954, -12.671866 ], [ 13.154485, -12.635281 ], [ 13.194784, -12.601423 ], [ 13.200983, -12.601136 ], [ 13.204184, -12.609385 ], [ 13.209365, -12.613891 ], [ 13.236699, -12.619719 ], [ 13.248317, -12.615487 ], [ 13.25928, -12.606489 ], [ 13.270131, -12.587733 ], [ 13.297382, -12.58645 ], [ 13.321221, -12.607345 ], [ 13.335828, -12.611967 ], [ 13.34855, -12.609249 ], [ 13.383273, -12.588594 ], [ 13.408543, -12.559016 ], [ 13.454465, -12.527285 ], [ 13.474967, -12.506932 ], [ 13.483642, -12.481521 ], [ 13.482452, -12.446083 ], [ 13.492334, -12.420366 ], [ 13.518458, -12.371709 ], [ 13.536189, -12.351139 ], [ 13.556071, -12.336316 ], [ 13.55806, -12.337152 ], [ 13.552811, -12.346215 ], [ 13.556235, -12.350484 ], [ 13.564266, -12.350098 ], [ 13.578025, -12.342015 ], [ 13.651239, -12.243204 ], [ 13.656391, -12.209169 ], [ 13.673055, -12.151747 ], [ 13.695692, -12.126251 ], [ 13.707577, -12.103999 ], [ 13.711594, -12.066205 ], [ 13.721959, -12.033818 ], [ 13.728487, -11.993981 ], [ 13.762416, -11.95189 ], [ 13.770039, -11.911603 ], [ 13.778125, -11.885252 ], [ 13.78208, -11.844441 ], [ 13.793525, -11.811167 ], [ 13.798097, -11.763348 ], [ 13.790077, -11.715932 ], [ 13.789724, -11.687818 ], [ 13.782948, -11.647319 ], [ 13.784095, -11.613374 ], [ 13.773747, -11.579302 ], [ 13.783443, -11.556179 ], [ 13.782643, -11.510676 ], [ 13.793811, -11.466738 ], [ 13.795084, -11.461728 ], [ 13.795007, -11.433043 ], [ 13.80419, -11.397233 ], [ 13.798466, -11.34368 ], [ 13.805864, -11.325887 ], [ 13.822124, -11.313135 ], [ 13.826416, -11.305619 ], [ 13.826565, -11.247576 ], [ 13.833384, -11.223289 ], [ 13.840597, -11.143712 ], [ 13.856393, -11.067112 ], [ 13.857734, -11.038974 ], [ 13.864078, -11.017638 ], [ 13.853879, -10.96099 ], [ 13.833908, -10.915695 ], [ 13.72568, -10.761329 ], [ 13.728169, -10.752826 ], [ 13.742943, -10.743198 ], [ 13.754066, -10.727226 ], [ 13.77182, -10.711508 ], [ 13.778195, -10.701644 ], [ 13.779184, -10.683089 ], [ 13.769778, -10.663477 ], [ 13.621839, -10.482103 ], [ 13.563008, -10.4242 ], [ 13.538437, -10.396106 ], [ 13.536172, -10.378954 ], [ 13.543868, -10.364507 ], [ 13.545726, -10.35121 ], [ 13.54169, -10.328602 ], [ 13.526653, -10.280199 ], [ 13.511493, -10.258303 ], [ 13.470499, -10.209898 ], [ 13.458919, -10.184687 ], [ 13.454533, -10.160994 ], [ 13.434809, -10.118231 ], [ 13.369892, -10.053835 ], [ 13.35466, -10.027178 ], [ 13.317799, -9.983925 ], [ 13.319167, -9.975337 ], [ 13.334166, -9.966541 ], [ 13.339818, -9.950706 ], [ 13.330872, -9.923298 ], [ 13.315007, -9.892911 ], [ 13.309276, -9.861657 ], [ 13.291226, -9.825715 ], [ 13.210941, -9.711809 ], [ 13.199364, -9.68923 ], [ 13.201057, -9.678081 ], [ 13.218775, -9.666354 ], [ 13.229079, -9.65417 ], [ 13.234149, -9.634432 ], [ 13.223684, -9.603723 ], [ 13.198208, -9.56176 ], [ 13.201955, -9.523923 ], [ 13.172432, -9.464036 ], [ 13.172296, -9.453527 ], [ 13.177362, -9.435368 ], [ 13.176919, -9.417707 ], [ 13.156497, -9.368573 ], [ 13.15193, -9.343652 ], [ 13.098177, -9.261912 ], [ 13.076204, -9.221235 ], [ 13.049369, -9.182072 ], [ 13.027525, -9.139327 ], [ 12.998659, -9.099408 ], [ 12.994397, -9.087181 ], [ 12.995964, -9.043523 ], [ 13.000691, -9.033185 ], [ 13.007093, -9.035341 ], [ 13.005304, -9.067026 ], [ 13.009766, -9.092642 ], [ 13.012647, -9.096256 ], [ 13.028541, -9.071496 ], [ 13.053389, -9.047644 ], [ 13.07173, -9.00982 ], [ 13.089078, -8.990332 ], [ 13.104264, -8.963586 ], [ 13.116279, -8.957518 ], [ 13.136485, -8.956935 ], [ 13.148882, -8.950452 ], [ 13.156421, -8.932526 ], [ 13.162243, -8.906014 ], [ 13.176575, -8.884936 ], [ 13.198588, -8.86164 ], [ 13.199712, -8.858253 ], [ 13.211652, -8.822425 ], [ 13.219558, -8.808673 ], [ 13.236648, -8.805498 ], [ 13.265165, -8.7918 ], [ 13.298325, -8.761823 ], [ 13.315832, -8.760619 ], [ 13.340463, -8.769597 ], [ 13.362423, -8.771202 ], [ 13.395036, -8.7435 ], [ 13.412558, -8.684461 ], [ 13.411729, -8.645471 ], [ 13.407441, -8.633892 ], [ 13.390587, -8.61394 ], [ 13.376508, -8.587867 ], [ 13.37086, -8.548058 ], [ 13.351036, -8.478008 ], [ 13.357534, -8.469103 ], [ 13.37658, -8.466228 ], [ 13.388443, -8.450946 ], [ 13.38944, -8.421048 ], [ 13.393604, -8.402667 ], [ 13.386156, -8.372843 ], [ 13.370219, -8.337076 ], [ 13.345485, -8.295102 ], [ 13.305574, -8.238125 ], [ 13.290471, -8.208513 ], [ 13.270789, -8.179504 ], [ 13.259551, -8.134173 ], [ 13.215229, -8.072323 ], [ 13.184592, -8.006005 ], [ 13.178012, -7.983281 ], [ 13.153085, -7.944934 ], [ 13.14395, -7.913063 ], [ 13.125163, -7.887042 ], [ 13.10346, -7.849474 ], [ 13.099011, -7.819759 ], [ 13.067757, -7.768532 ], [ 13.052955, -7.710597 ], [ 13.028956, -7.658834 ], [ 13.018687, -7.625983 ], [ 13.001281, -7.598418 ], [ 12.999879, -7.573166 ], [ 12.979773, -7.536083 ], [ 12.977551, -7.529595 ], [ 12.961874, -7.483814 ], [ 12.938636, -7.436273 ], [ 12.912012, -7.335188 ], [ 12.900741, -7.318455 ], [ 12.867625, -7.284965 ], [ 12.855573, -7.266615 ], [ 12.852382, -7.245556 ], [ 12.854531, -7.217773 ], [ 12.8448, -7.15135 ], [ 12.848216, -7.108179 ], [ 12.833348, -7.052496 ], [ 12.829905, -7.028383 ], [ 12.830597, -7.00587 ], [ 12.825175, -6.98832 ], [ 12.812363, -6.966856 ], [ 12.762123, -6.898751 ], [ 12.742899, -6.863846 ], [ 12.628199, -6.736036 ], [ 12.584099, -6.691528 ], [ 12.56863, -6.670366 ], [ 12.548173, -6.620261 ], [ 12.497618, -6.540831 ], [ 12.397452, -6.3292 ], [ 12.361452, -6.271548 ], [ 12.287539, -6.166019 ], [ 12.27594, -6.135597 ], [ 12.285152, -6.104658 ], [ 12.300816, -6.093821 ], [ 12.326752, -6.084787 ], [ 12.326717, -6.090932 ], [ 12.318169, -6.102985 ], [ 12.29889, -6.110081 ], [ 12.313427, -6.12139 ], [ 12.310483, -6.139358 ], [ 12.299768, -6.149951 ], [ 12.306962, -6.152056 ], [ 12.325624, -6.137152 ], [ 12.32599, -6.125552 ], [ 12.330706, -6.120077 ], [ 12.364232, -6.123483 ], [ 12.378328, -6.131034 ], [ 12.384669, -6.144302 ], [ 12.384544, -6.152392 ], [ 12.378819, -6.162221 ], [ 12.383969, -6.171476 ], [ 12.382231, -6.185457 ], [ 12.396801, -6.191723 ], [ 12.398561, -6.18784 ], [ 12.394583, -6.174386 ], [ 12.399198, -6.154176 ], [ 12.418291, -6.13995 ], [ 12.435222, -6.14276 ], [ 12.444605, -6.147934 ], [ 12.499785, -6.132034 ], [ 12.523623, -6.130075 ], [ 12.54504, -6.132337 ], [ 12.573384, -6.139748 ], [ 12.644894, -6.144387 ], [ 12.650476, -6.136956 ], [ 12.647826, -6.127531 ], [ 12.655808, -6.119059 ], [ 12.654743, -6.104007 ], [ 12.644759, -6.094858 ], [ 12.617486, -6.079979 ], [ 12.597913, -6.063106 ], [ 12.603369, -6.04932 ], [ 12.617863, -6.037991 ], [ 12.638114, -6.030836 ], [ 12.66319, -6.029624 ], [ 12.678355, -6.032901 ], [ 12.701345, -6.042871 ], [ 12.740583, -6.047162 ], [ 12.797847, -6.038407 ], [ 12.817532, -6.031437 ], [ 12.8341, -6.030727 ], [ 12.842204, -6.023486 ], [ 12.850808, -6.026574 ], [ 12.884079, -6.001736 ], [ 12.914353, -5.992973 ], [ 12.948917, -5.965734 ], [ 12.954855, -5.958398 ], [ 12.956426, -5.950246 ], [ 12.96119, -5.947609 ], [ 12.965418, -5.921508 ], [ 12.977551, -5.911375 ], [ 12.979011, -5.910155 ], [ 13.009588, -5.900078 ], [ 13.030348, -5.905045 ], [ 13.042246, -5.904783 ], [ 13.064596, -5.898144 ], [ 13.087711, -5.895407 ], [ 13.099293, -5.886293 ], [ 13.110666, -5.901042 ], [ 13.118811, -5.90445 ], [ 13.138319, -5.894199 ], [ 13.149668, -5.883205 ], [ 13.221178, -5.862084 ], [ 13.25668, -5.86849 ], [ 13.288929, -5.879367 ], [ 13.302666, -5.888773 ], [ 13.339557, -5.900315 ], [ 13.357298, -5.9098 ], [ 13.362127, -5.906054 ], [ 13.377466, -5.872941 ], [ 13.385322, -5.870771 ], [ 13.40299, -5.872667 ], [ 13.421505, -5.867924 ], [ 13.426657, -5.863637 ], [ 13.429635, -5.852015 ], [ 13.456736, -5.848712 ], [ 13.512696, -5.854217 ], [ 13.542488, -5.864696 ], [ 13.657028, -5.863576 ], [ 13.759722, -5.862501 ], [ 13.808486, -5.85654 ], [ 13.82878, -5.854059 ], [ 13.832647, -5.853587 ], [ 13.973275, -5.836423 ], [ 13.997643, -5.848637 ], [ 14.024968, -5.854506 ], [ 14.081186, -5.866454 ], [ 14.110665, -5.869932 ], [ 14.242944, -5.885539 ], [ 14.485224, -5.900953 ], [ 14.594343, -5.907895 ], [ 14.602151, -5.906098 ], [ 14.715029, -5.880381 ], [ 15.081108, -5.862757 ], [ 15.679358, -5.857182 ], [ 15.759569, -5.864393 ], [ 15.814728, -5.869353 ], [ 15.928235, -5.861524 ], [ 16.0983, -5.859329 ], [ 16.218482, -5.852608 ], [ 16.359815, -5.853152 ], [ 16.381131, -5.855862 ], [ 16.397761, -5.86611 ], [ 16.420669, -5.870107 ], [ 16.444318, -5.867049 ], [ 16.460549, -5.850274 ], [ 16.470045, -5.852651 ], [ 16.491291, -5.845459 ], [ 16.527345, -5.857104 ], [ 16.545058, -5.869037 ], [ 16.569957, -5.871746 ], [ 16.577983, -5.875379 ], [ 16.584336, -5.890242 ], [ 16.579289, -5.939582 ], [ 16.584371, -5.943716 ], [ 16.596566, -5.944667 ], [ 16.600756, -5.950435 ], [ 16.589529, -5.965695 ], [ 16.601336, -5.986058 ], [ 16.596808, -6.001242 ], [ 16.596335, -6.017798 ], [ 16.591236, -6.030342 ], [ 16.595824, -6.032065 ], [ 16.614774, -6.027589 ], [ 16.621457, -6.033821 ], [ 16.615706, -6.046216 ], [ 16.601747, -6.050787 ], [ 16.601018, -6.057666 ], [ 16.606066, -6.060957 ], [ 16.622141, -6.061409 ], [ 16.641667, -6.065959 ], [ 16.646634, -6.0781 ], [ 16.639174, -6.093527 ], [ 16.658775, -6.093191 ], [ 16.667118, -6.105832 ], [ 16.691981, -6.113268 ], [ 16.712078, -6.130921 ], [ 16.717021, -6.153941 ], [ 16.727489, -6.16463 ], [ 16.721129, -6.18952 ], [ 16.705443, -6.206262 ], [ 16.714905, -6.227608 ], [ 16.705582, -6.267337 ], [ 16.71509, -6.294098 ], [ 16.718541, -6.327712 ], [ 16.709495, -6.337563 ], [ 16.689866, -6.331411 ], [ 16.679918, -6.334871 ], [ 16.680747, -6.338496 ], [ 16.689738, -6.344834 ], [ 16.692301, -6.351883 ], [ 16.680536, -6.384444 ], [ 16.686344, -6.390192 ], [ 16.709323, -6.390161 ], [ 16.720627, -6.402484 ], [ 16.718043, -6.41156 ], [ 16.702891, -6.418016 ], [ 16.698597, -6.424777 ], [ 16.713397, -6.444589 ], [ 16.718443, -6.456564 ], [ 16.717704, -6.464575 ], [ 16.709355, -6.473318 ], [ 16.70955, -6.479992 ], [ 16.723512, -6.497703 ], [ 16.742163, -6.51048 ], [ 16.749218, -6.521994 ], [ 16.747334, -6.534657 ], [ 16.737177, -6.550563 ], [ 16.732739, -6.577448 ], [ 16.736966, -6.58702 ], [ 16.751031, -6.595498 ], [ 16.755437, -6.605028 ], [ 16.75369, -6.641141 ], [ 16.761167, -6.669866 ], [ 16.76013, -6.689975 ], [ 16.763562, -6.705577 ], [ 16.77576, -6.719974 ], [ 16.796866, -6.729849 ], [ 16.800365, -6.747085 ], [ 16.800185, -6.779143 ], [ 16.808622, -6.801979 ], [ 16.815636, -6.812129 ], [ 16.831924, -6.817272 ], [ 16.840427, -6.825192 ], [ 16.842933, -6.854641 ], [ 16.840173, -6.876846 ], [ 16.852182, -6.883696 ], [ 16.867797, -6.878643 ], [ 16.877584, -6.880369 ], [ 16.898728, -6.895858 ], [ 16.908467, -6.909252 ], [ 16.909656, -6.928036 ], [ 16.904242, -6.945403 ], [ 16.911156, -6.970354 ], [ 16.899715, -6.992662 ], [ 16.904569, -7.01935 ], [ 16.913006, -7.024984 ], [ 16.931398, -7.023137 ], [ 16.943941, -7.04384 ], [ 16.959834, -7.050118 ], [ 16.966314, -7.057472 ], [ 16.96561, -7.066626 ], [ 16.956563, -7.08396 ], [ 16.955439, -7.101636 ], [ 16.950358, -7.114637 ], [ 16.938804, -7.115997 ], [ 16.924524, -7.102372 ], [ 16.918103, -7.107035 ], [ 16.922724, -7.133756 ], [ 16.937436, -7.164239 ], [ 16.938647, -7.18119 ], [ 16.953456, -7.203199 ], [ 16.952345, -7.213533 ], [ 16.942914, -7.227044 ], [ 16.942878, -7.236218 ], [ 16.951393, -7.247507 ], [ 16.974841, -7.264631 ], [ 16.977316, -7.284342 ], [ 16.981767, -7.291656 ], [ 16.997691, -7.296207 ], [ 17.021846, -7.295421 ], [ 17.03618, -7.315177 ], [ 17.056784, -7.327123 ], [ 17.068478, -7.338056 ], [ 17.089389, -7.341957 ], [ 17.104723, -7.349486 ], [ 17.108057, -7.358109 ], [ 17.105297, -7.377971 ], [ 17.108522, -7.395372 ], [ 17.103119, -7.413342 ], [ 17.106732, -7.420955 ], [ 17.114927, -7.423835 ], [ 17.127764, -7.42241 ], [ 17.135209, -7.40949 ], [ 17.139257, -7.407347 ], [ 17.153324, -7.41866 ], [ 17.16873, -7.423065 ], [ 17.178254, -7.429931 ], [ 17.179842, -7.440773 ], [ 17.156281, -7.453909 ], [ 17.150877, -7.463632 ], [ 17.151938, -7.472108 ], [ 17.16394, -7.485127 ], [ 17.184529, -7.490623 ], [ 17.196564, -7.501007 ], [ 17.199632, -7.51221 ], [ 17.195452, -7.533993 ], [ 17.217501, -7.576954 ], [ 17.243831, -7.601113 ], [ 17.290291, -7.621958 ], [ 17.298463, -7.630335 ], [ 17.300874, -7.639941 ], [ 17.297141, -7.65723 ], [ 17.298743, -7.675459 ], [ 17.29384, -7.690306 ], [ 17.301697, -7.697433 ], [ 17.312076, -7.701359 ], [ 17.318297, -7.712417 ], [ 17.328705, -7.71925 ], [ 17.320559, -7.756147 ], [ 17.330426, -7.766218 ], [ 17.336789, -7.778752 ], [ 17.379712, -7.781499 ], [ 17.382664, -7.789944 ], [ 17.377954, -7.809425 ], [ 17.379508, -7.818255 ], [ 17.397046, -7.820705 ], [ 17.39423, -7.832992 ], [ 17.396476, -7.838169 ], [ 17.410593, -7.833817 ], [ 17.418967, -7.835637 ], [ 17.422923, -7.842553 ], [ 17.423581, -7.864019 ], [ 17.428952, -7.86687 ], [ 17.440709, -7.867133 ], [ 17.445834, -7.87077 ], [ 17.448511, -7.887328 ], [ 17.438732, -7.906608 ], [ 17.441847, -7.919682 ], [ 17.450173, -7.929573 ], [ 17.454302, -7.939604 ], [ 17.46384, -7.943478 ], [ 17.470602, -7.952737 ], [ 17.480488, -7.956284 ], [ 17.483571, -7.998174 ], [ 17.497771, -8.004808 ], [ 17.513902, -8.018921 ], [ 17.527516, -8.040341 ], [ 17.526875, -8.044936 ], [ 17.517503, -8.048348 ], [ 17.507446, -8.062972 ], [ 17.505595, -8.07703 ], [ 17.51155, -8.083392 ], [ 17.527716, -8.092193 ], [ 17.546842, -8.116316 ], [ 17.573077, -8.125989 ], [ 17.616567, -8.128792 ], [ 17.682996, -8.10213 ], [ 17.748736, -8.09838 ], [ 17.797197, -8.110591 ], [ 17.811549, -8.104909 ], [ 17.827589, -8.091803 ], [ 17.866328, -8.079688 ], [ 17.929486, -8.085489 ], [ 17.966247, -8.095946 ], [ 18.097886, -8.095692 ], [ 18.103103, -8.085232 ], [ 18.094325, -8.05861 ], [ 18.105525, -8.033191 ], [ 18.114877, -8.032633 ], [ 18.122924, -8.039422 ], [ 18.137849, -8.036253 ], [ 18.151567, -8.015437 ], [ 18.172127, -8.007801 ], [ 18.187384, -7.997726 ], [ 18.441832, -7.998092 ], [ 18.527674, -7.998216 ], [ 18.534078, -7.956342 ], [ 18.531344, -7.930616 ], [ 18.533151, -7.919026 ], [ 18.538206, -7.916181 ], [ 18.769784, -7.916892 ], [ 18.778755, -7.934 ], [ 18.77617, -7.958291 ], [ 18.783002, -7.967833 ], [ 18.787799, -7.982918 ], [ 18.796911, -7.996491 ], [ 18.802537, -7.998956 ], [ 19.379456, -7.996943 ], [ 19.380281, -7.991218 ], [ 19.372514, -7.982681 ], [ 19.359881, -7.953636 ], [ 19.35531, -7.930851 ], [ 19.358383, -7.921761 ], [ 19.3564, -7.910228 ], [ 19.343537, -7.900242 ], [ 19.349895, -7.887201 ], [ 19.356723, -7.880989 ], [ 19.365504, -7.859748 ], [ 19.366915, -7.845079 ], [ 19.363758, -7.830051 ], [ 19.363915, -7.811168 ], [ 19.374184, -7.79462 ], [ 19.386306, -7.782799 ], [ 19.389652, -7.767799 ], [ 19.389439, -7.751911 ], [ 19.409312, -7.694274 ], [ 19.399367, -7.677126 ], [ 19.386227, -7.632402 ], [ 19.371271, -7.612579 ], [ 19.36944, -7.590341 ], [ 19.388542, -7.572721 ], [ 19.477731, -7.568908 ], [ 19.483435, -7.56092 ], [ 19.484974, -7.540903 ], [ 19.49182, -7.522018 ], [ 19.48729, -7.503472 ], [ 19.51432, -7.486506 ], [ 19.528884, -7.465648 ], [ 19.543916, -7.456745 ], [ 19.540821, -7.447898 ], [ 19.53214, -7.442756 ], [ 19.528191, -7.429124 ], [ 19.51841, -7.420123 ], [ 19.521086, -7.396276 ], [ 19.509138, -7.389318 ], [ 19.502515, -7.380356 ], [ 19.497046, -7.364218 ], [ 19.504258, -7.34742 ], [ 19.486601, -7.311472 ], [ 19.494343, -7.284824 ], [ 19.494175, -7.268971 ], [ 19.502296, -7.252038 ], [ 19.500375, -7.240553 ], [ 19.503937, -7.22879 ], [ 19.501608, -7.218749 ], [ 19.504516, -7.185641 ], [ 19.500857, -7.164905 ], [ 19.511585, -7.148692 ], [ 19.523656, -7.110794 ], [ 19.541246, -7.078652 ], [ 19.561798, -7.05274 ], [ 19.560819, -7.044726 ], [ 19.55113, -7.027125 ], [ 19.551195, -7.002321 ], [ 20.298479, -6.999819 ], [ 20.301496, -6.998253 ], [ 20.300897, -6.99318 ], [ 20.306295, -6.982901 ], [ 20.305818, -6.973079 ], [ 20.311069, -6.962619 ], [ 20.310027, -6.948675 ], [ 20.315934, -6.924448 ], [ 20.324787, -6.916748 ], [ 20.625421, -6.916569 ], [ 20.630929, -6.922409 ], [ 20.62267, -6.932308 ], [ 20.625388, -6.950307 ], [ 20.623824, -6.962642 ], [ 20.619033, -6.981377 ], [ 20.612341, -6.991321 ], [ 20.610564, -7.008537 ], [ 20.601152, -7.013179 ], [ 20.603053, -7.023484 ], [ 20.592888, -7.034799 ], [ 20.594843, -7.061697 ], [ 20.583114, -7.088477 ], [ 20.574556, -7.10242 ], [ 20.564404, -7.112088 ], [ 20.558724, -7.133947 ], [ 20.546482, -7.14747 ], [ 20.547225, -7.152131 ], [ 20.557547, -7.158718 ], [ 20.561858, -7.166878 ], [ 20.555968, -7.183338 ], [ 20.560412, -7.194527 ], [ 20.554797, -7.206478 ], [ 20.558292, -7.218142 ], [ 20.548552, -7.227073 ], [ 20.554183, -7.240167 ], [ 20.551903, -7.249752 ], [ 20.557488, -7.261003 ], [ 20.551668, -7.274116 ], [ 20.557155, -7.282105 ], [ 21.786067, -7.282886 ], [ 21.788907, -7.30584 ], [ 21.792072, -7.312092 ], [ 21.80645, -7.317262 ], [ 21.82716, -7.338026 ], [ 21.833157, -7.348238 ], [ 21.835942, -7.364139 ], [ 21.843142, -7.374779 ], [ 21.84413, -7.390496 ], [ 21.834294, -7.398442 ], [ 21.834064, -7.40558 ], [ 21.844985, -7.422126 ], [ 21.855789, -7.425087 ], [ 21.858362, -7.428222 ], [ 21.854622, -7.436616 ], [ 21.859821, -7.448437 ], [ 21.848701, -7.456703 ], [ 21.846881, -7.46117 ], [ 21.849373, -7.466777 ], [ 21.858774, -7.470509 ], [ 21.861096, -7.47727 ], [ 21.856982, -7.493636 ], [ 21.844604, -7.508352 ], [ 21.842051, -7.523467 ], [ 21.844091, -7.534451 ], [ 21.858461, -7.560501 ], [ 21.854596, -7.572853 ], [ 21.847035, -7.581236 ], [ 21.846777, -7.587589 ], [ 21.852161, -7.601093 ], [ 21.850684, -7.60849 ], [ 21.833241, -7.627111 ], [ 21.834882, -7.641903 ], [ 21.829864, -7.65594 ], [ 21.825748, -7.657109 ], [ 21.819124, -7.658991 ], [ 21.814081, -7.663504 ], [ 21.816207, -7.680304 ], [ 21.806498, -7.708966 ], [ 21.798951, -7.72227 ], [ 21.800978, -7.733698 ], [ 21.78941, -7.748452 ], [ 21.789455, -7.758547 ], [ 21.776229, -7.77337 ], [ 21.773857, -7.802822 ], [ 21.77997, -7.811448 ], [ 21.777344, -7.828916 ], [ 21.770213, -7.835406 ], [ 21.768958, -7.851863 ], [ 21.777826, -7.880822 ], [ 21.773071, -7.899364 ], [ 21.776401, -7.907901 ], [ 21.771423, -7.914945 ], [ 21.75591, -7.926652 ], [ 21.751728, -7.940439 ], [ 21.768526, -7.968055 ], [ 21.763604, -7.998577 ], [ 21.775791, -8.014553 ], [ 21.775952, -8.027436 ], [ 21.780905, -8.032085 ], [ 21.788559, -8.033968 ], [ 21.793688, -8.04261 ], [ 21.80279, -8.045826 ], [ 21.80614, -8.053718 ], [ 21.823734, -8.071109 ], [ 21.827058, -8.089978 ], [ 21.838203, -8.10762 ], [ 21.839365, -8.117362 ], [ 21.844474, -8.124106 ], [ 21.849095, -8.142133 ], [ 21.859486, -8.147608 ], [ 21.867537, -8.163596 ], [ 21.883451, -8.177041 ], [ 21.883458, -8.18364 ], [ 21.874321, -8.188676 ], [ 21.872479, -8.194399 ], [ 21.880758, -8.217745 ], [ 21.881098, -8.229719 ], [ 21.891024, -8.251171 ], [ 21.889237, -8.274634 ], [ 21.890939, -8.283545 ], [ 21.893312, -8.292015 ], [ 21.899808, -8.300278 ], [ 21.907729, -8.305418 ], [ 21.924946, -8.308567 ], [ 21.930908, -8.32306 ], [ 21.929739, -8.334377 ], [ 21.926615, -8.337451 ], [ 21.914979, -8.348897 ], [ 21.922795, -8.374466 ], [ 21.919314, -8.392226 ], [ 21.93465, -8.412138 ], [ 21.947661, -8.439416 ], [ 21.948439, -8.449343 ], [ 21.944228, -8.460206 ], [ 21.943686, -8.476133 ], [ 21.951904, -8.503077 ], [ 21.931241, -8.526481 ], [ 21.942371, -8.541807 ], [ 21.935306, -8.560462 ], [ 21.926167, -8.567988 ], [ 21.927976, -8.581996 ], [ 21.921328, -8.589288 ], [ 21.93347, -8.593198 ], [ 21.935357, -8.598377 ], [ 21.922811, -8.615422 ], [ 21.911919, -8.623469 ], [ 21.907789, -8.631906 ], [ 21.912222, -8.662867 ], [ 21.906658, -8.668653 ], [ 21.899866, -8.694713 ], [ 21.892612, -8.704506 ], [ 21.892434, -8.740269 ], [ 21.897542, -8.764519 ], [ 21.893278, -8.776505 ], [ 21.89408, -8.7868 ], [ 21.886327, -8.804009 ], [ 21.884751, -8.814258 ], [ 21.873504, -8.824045 ], [ 21.876813, -8.83576 ], [ 21.86679, -8.843391 ], [ 21.861702, -8.853215 ], [ 21.867224, -8.875145 ], [ 21.855509, -8.902115 ], [ 21.859581, -8.919589 ], [ 21.847148, -8.992394 ], [ 21.848489, -9.002787 ], [ 21.849787, -9.012842 ], [ 21.846095, -9.024751 ], [ 21.848582, -9.030255 ], [ 21.85433, -9.042977 ], [ 21.836021, -9.063 ], [ 21.839184, -9.074642 ], [ 21.835982, -9.088806 ], [ 21.842217, -9.140848 ], [ 21.851826, -9.150945 ], [ 21.856362, -9.164332 ], [ 21.855787, -9.175299 ], [ 21.860506, -9.18729 ], [ 21.860656, -9.195447 ], [ 21.855157, -9.208923 ], [ 21.857841, -9.227408 ], [ 21.841542, -9.250898 ], [ 21.838208, -9.274641 ], [ 21.825421, -9.28916 ], [ 21.821692, -9.315222 ], [ 21.809244, -9.331503 ], [ 21.806131, -9.35038 ], [ 21.809229, -9.357873 ], [ 21.805561, -9.365887 ], [ 21.808365, -9.372082 ], [ 21.803631, -9.377867 ], [ 21.798419, -9.396588 ], [ 21.792063, -9.406427 ], [ 21.791426, -9.415054 ], [ 21.80583, -9.433442 ], [ 21.816562, -9.439213 ], [ 21.829806, -9.457933 ], [ 21.827192, -9.480196 ], [ 21.831539, -9.505745 ], [ 21.839935, -9.516163 ], [ 21.843637, -9.529537 ], [ 21.855405, -9.540071 ], [ 21.86463, -9.561155 ], [ 21.861464, -9.594375 ], [ 21.869449, -9.607788 ], [ 21.865946, -9.622127 ], [ 21.873724, -9.629523 ], [ 21.875134, -9.648358 ], [ 21.892747, -9.653238 ], [ 21.8961, -9.659034 ], [ 21.896259, -9.667306 ], [ 21.908032, -9.66946 ], [ 21.917821, -9.679375 ], [ 21.933652, -9.685267 ], [ 21.936014, -9.705484 ], [ 21.948557, -9.711159 ], [ 21.966498, -9.726889 ], [ 21.97691, -9.758309 ], [ 21.98432, -9.758382 ], [ 21.993981, -9.750307 ], [ 21.997773, -9.751724 ], [ 22.00075, -9.760961 ], [ 21.998803, -9.780033 ], [ 22.008998, -9.790822 ], [ 22.015139, -9.821389 ], [ 22.02426, -9.830938 ], [ 22.032824, -9.827966 ], [ 22.039088, -9.830622 ], [ 22.049858, -9.850769 ], [ 22.063802, -9.862666 ], [ 22.070066, -9.873724 ], [ 22.091602, -9.879649 ], [ 22.112318, -9.873446 ], [ 22.120359, -9.876781 ], [ 22.129056, -9.888056 ], [ 22.148925, -9.887681 ], [ 22.177816, -9.91312 ], [ 22.186908, -9.924762 ], [ 22.190226, -9.934736 ], [ 22.189165, -9.946193 ], [ 22.196808, -9.959376 ], [ 22.201209, -9.974638 ], [ 22.197651, -9.99996 ], [ 22.212455, -10.015318 ], [ 22.206636, -10.03416 ], [ 22.217093, -10.067173 ], [ 22.212037, -10.091817 ], [ 22.218753, -10.131887 ], [ 22.216411, -10.158406 ], [ 22.228566, -10.173143 ], [ 22.232423, -10.198727 ], [ 22.239045, -10.219434 ], [ 22.255394, -10.230288 ], [ 22.256525, -10.247523 ], [ 22.276623, -10.261715 ], [ 22.283595, -10.284731 ], [ 22.280282, -10.295718 ], [ 22.281351, -10.30193 ], [ 22.290581, -10.30935 ], [ 22.294152, -10.318161 ], [ 22.300822, -10.321048 ], [ 22.302643, -10.331133 ], [ 22.308074, -10.340569 ], [ 22.304903, -10.348881 ], [ 22.313763, -10.356607 ], [ 22.31574, -10.369007 ], [ 22.322987, -10.375403 ], [ 22.326958, -10.385754 ], [ 22.325084, -10.394585 ], [ 22.318142, -10.402091 ], [ 22.317209, -10.412801 ], [ 22.307569, -10.424555 ], [ 22.302042, -10.448221 ], [ 22.291323, -10.459567 ], [ 22.291011, -10.47165 ], [ 22.283934, -10.486455 ], [ 22.282677, -10.497364 ], [ 22.27306, -10.507387 ], [ 22.276144, -10.512975 ], [ 22.28773, -10.517183 ], [ 22.306582, -10.531679 ], [ 22.30778, -10.547693 ], [ 22.314693, -10.563851 ], [ 22.309831, -10.585015 ], [ 22.313721, -10.601332 ], [ 22.309938, -10.616463 ], [ 22.314134, -10.648478 ], [ 22.307774, -10.668381 ], [ 22.309705, -10.675492 ], [ 22.316402, -10.679536 ], [ 22.321625, -10.689258 ], [ 22.323891, -10.707317 ], [ 22.321272, -10.722712 ], [ 22.333082, -10.737247 ], [ 22.32952, -10.751297 ], [ 22.305963, -10.780503 ], [ 22.273067, -10.785263 ], [ 22.26175, -10.793727 ], [ 22.239436, -10.802067 ], [ 22.232008, -10.809292 ], [ 22.215287, -10.816962 ], [ 22.195684, -10.831442 ], [ 22.181137, -10.849272 ], [ 22.171844, -10.853894 ], [ 22.167977, -10.86469 ], [ 22.169629, -10.875457 ], [ 22.180521, -10.887468 ], [ 22.18083, -10.901133 ], [ 22.187437, -10.905945 ], [ 22.189927, -10.916983 ], [ 22.20453, -10.93592 ], [ 22.205157, -10.98463 ], [ 22.210018, -11.010034 ], [ 22.217771, -11.027022 ], [ 22.212336, -11.079561 ], [ 22.217826, -11.109572 ], [ 22.225376, -11.121346 ], [ 22.249292, -11.136582 ], [ 22.262789, -11.159729 ], [ 22.268336, -11.179506 ], [ 22.268746, -11.192162 ], [ 22.25562, -11.212902 ], [ 22.254848, -11.236308 ], [ 22.248815, -11.25396 ], [ 22.251012, -11.266465 ], [ 22.276452, -11.26119 ], [ 22.299188, -11.244055 ], [ 22.334532, -11.206544 ], [ 22.35005, -11.177965 ], [ 22.371281, -11.176115 ], [ 22.423299, -11.178455 ], [ 22.439739, -11.172093 ], [ 22.467046, -11.144101 ], [ 22.473127, -11.140219 ], [ 22.487035, -11.131338 ], [ 22.493997, -11.121155 ], [ 22.497354, -11.099883 ], [ 22.490431, -11.0819 ], [ 22.489605, -11.069128 ], [ 22.497249, -11.052707 ], [ 22.510615, -11.043117 ], [ 22.534313, -11.040591 ], [ 22.561379, -11.031248 ], [ 22.573795, -11.031511 ], [ 22.585264, -11.036421 ], [ 22.611453, -11.056942 ], [ 22.65484, -11.083039 ], [ 22.69808, -11.101844 ], [ 22.725521, -11.110226 ], [ 22.747983, -11.113643 ], [ 22.792586, -11.110938 ], [ 22.800894, -11.104463 ], [ 22.811562, -11.084404 ], [ 22.835747, -11.079427 ], [ 22.857783, -11.063027 ], [ 22.864214, -11.061827 ], [ 22.879417, -11.066721 ], [ 22.90455, -11.08148 ], [ 22.958184, -11.097944 ], [ 22.975923, -11.100493 ], [ 23.012938, -11.100146 ], [ 23.035563, -11.110611 ], [ 23.071977, -11.122326 ], [ 23.084388, -11.12363 ], [ 23.10275, -11.11853 ], [ 23.140257, -11.096533 ], [ 23.149951, -11.093787 ], [ 23.190875, -11.103572 ], [ 23.203456, -11.101817 ], [ 23.225098, -11.087122 ], [ 23.251488, -11.059881 ], [ 23.289149, -11.031102 ], [ 23.337812, -11.003378 ], [ 23.361302, -10.98248 ], [ 23.415344, -10.946545 ], [ 23.436368, -10.938377 ], [ 23.460272, -10.938775 ], [ 23.466922, -10.939964 ], [ 23.508528, -10.947403 ], [ 23.540801, -10.959922 ], [ 23.575487, -10.988632 ], [ 23.585779, -10.993055 ], [ 23.629149, -10.990992 ], [ 23.651444, -11.003075 ], [ 23.672347, -11.007879 ], [ 23.692432, -11.005067 ], [ 23.709426, -11.007235 ], [ 23.736931, -10.993455 ], [ 23.745713, -10.992582 ], [ 23.767284, -10.999345 ], [ 23.815446, -11.027583 ], [ 23.830785, -11.02977 ], [ 23.852171, -11.027456 ], [ 23.872973, -11.01642 ], [ 23.893759, -10.985119 ], [ 23.925816, -10.965769 ], [ 23.945633, -10.953807 ], [ 23.961904, -10.93586 ], [ 23.97783, -10.899222 ], [ 23.999528, -10.887249 ], [ 23.982032, -10.910775 ], [ 23.995125, -10.918424 ], [ 24.000267, -10.927929 ], [ 24.018422, -10.942073 ], [ 24.02087, -10.948305 ], [ 24.01701, -10.962923 ], [ 24.023593, -10.969513 ], [ 24.022134, -10.998137 ], [ 24.007102, -11.021027 ], [ 24.013025, -11.039862 ], [ 24.010163, -11.055661 ], [ 24.021035, -11.098965 ], [ 24.017383, -11.105136 ], [ 24.005392, -11.110728 ], [ 24.002181, -11.118229 ], [ 24.006855, -11.129729 ], [ 24.016933, -11.129822 ], [ 24.033083, -11.135898 ], [ 24.035552, -11.13938 ], [ 24.033554, -11.264781 ], [ 24.050481, -11.300332 ], [ 24.085057, -11.403897 ], [ 24.0638, -11.421012 ], [ 24.044531, -11.424525 ], [ 24.034681, -11.438268 ], [ 24.023485, -11.448101 ], [ 24.021793, -11.453924 ], [ 24.025928, -11.464338 ], [ 24.022117, -11.475832 ], [ 24.022645, -11.485687 ], [ 24.028839, -11.495857 ], [ 24.032928, -11.515325 ], [ 24.038221, -11.525344 ], [ 24.033097, -11.538414 ], [ 24.026668, -11.543485 ], [ 24.023563, -11.553892 ], [ 24.017962, -11.560883 ], [ 24.010922, -11.583222 ], [ 24.001513, -11.59008 ], [ 24.00006, -11.603802 ], [ 23.993993, -11.609852 ], [ 23.990581, -11.613257 ], [ 23.980461, -11.642782 ], [ 23.961203, -11.659865 ], [ 23.974173, -11.677262 ], [ 23.974942, -11.691141 ], [ 23.984967, -11.69961 ], [ 23.985343, -11.705887 ], [ 23.991814, -11.718077 ], [ 24.000433, -11.727075 ], [ 23.992792, -11.731779 ], [ 23.992756, -11.741985 ], [ 23.999888, -11.757113 ], [ 24.012686, -11.811867 ], [ 24.021977, -11.829778 ], [ 24.017149, -11.842418 ], [ 23.999648, -11.850547 ], [ 23.983573, -11.906903 ], [ 23.983314, -12.072658 ], [ 23.980158, -12.135808 ], [ 23.984188, -12.170635 ], [ 23.996948, -12.184319 ], [ 24.0013, -12.209335 ], [ 24.013094, -12.22214 ], [ 24.026072, -12.223089 ], [ 24.03092, -12.230321 ], [ 24.040539, -12.235912 ], [ 24.050047, -12.254134 ], [ 24.059555, -12.264405 ], [ 24.061663, -12.27759 ], [ 24.05897, -12.290368 ], [ 24.065929, -12.304293 ], [ 24.06648, -12.314023 ], [ 24.04612, -12.334655 ], [ 24.058286, -12.341498 ], [ 24.075741, -12.359597 ], [ 24.076464, -12.382346 ], [ 24.070272, -12.39727 ], [ 24.071183, -12.408007 ], [ 24.065218, -12.423733 ], [ 24.03338, -12.440032 ], [ 24.031901, -12.446896 ], [ 24.007281, -12.468775 ], [ 24.002291, -12.482384 ], [ 23.981581, -12.501548 ], [ 23.981599, -12.509502 ], [ 23.957189, -12.52018 ], [ 23.955853, -12.530412 ], [ 23.948721, -12.536678 ], [ 23.946629, -12.556671 ], [ 23.959564, -12.593256 ], [ 23.954855, -12.600093 ], [ 23.947034, -12.63056 ], [ 23.929068, -12.658453 ], [ 23.925816, -12.666142 ], [ 23.921151, -12.677174 ], [ 23.92095, -12.682685 ], [ 23.925816, -12.689754 ], [ 23.929904, -12.700757 ], [ 23.925816, -12.714048 ], [ 23.913271, -12.728699 ], [ 23.905941, -12.755958 ], [ 23.899411, -12.763544 ], [ 23.898307, -12.77027 ], [ 23.901724, -12.777553 ], [ 23.897265, -12.791774 ], [ 23.896749, -12.809165 ], [ 23.899737, -12.820689 ], [ 23.893934, -12.840731 ], [ 23.896014, -12.843992 ], [ 23.90598, -12.846794 ], [ 23.908082, -12.854893 ], [ 23.921127, -12.863242 ], [ 23.925816, -12.875581 ], [ 23.927974, -12.881258 ], [ 23.937545, -12.889856 ], [ 23.95028, -12.897304 ], [ 23.968041, -12.897456 ], [ 23.978509, -12.901471 ], [ 23.991404, -12.919996 ], [ 24.006509, -12.933958 ], [ 24.026491, -12.943908 ], [ 24.029841, -12.955361 ], [ 24.02847, -12.966596 ], [ 24.045493, -12.989451 ], [ 24.045208, -12.9964 ], [ 23.925816, -12.996698 ], [ 22.009998, -13.001481 ], [ 22.004172, -13.00401 ], [ 22.000281, -13.473797 ], [ 21.999901, -16.184063 ], [ 22.001775, -16.205679 ], [ 22.024665, -16.215884 ], [ 22.032008, -16.232222 ], [ 22.046627, -16.23891 ], [ 22.061848, -16.262915 ], [ 22.078893, -16.278823 ], [ 22.078974, -16.282854 ], [ 22.073254, -16.29045 ], [ 22.089959, -16.305763 ], [ 22.097875, -16.327215 ], [ 22.11048, -16.335261 ], [ 22.11935, -16.350131 ], [ 22.124728, -16.372417 ], [ 22.120811, -16.38373 ], [ 22.126932, -16.390714 ], [ 22.134945, -16.415898 ], [ 22.131211, -16.430685 ], [ 22.134447, -16.439239 ], [ 22.128229, -16.448475 ], [ 22.136006, -16.458693 ], [ 22.141145, -16.478593 ], [ 22.138158, -16.483588 ], [ 22.127732, -16.487242 ], [ 22.125226, -16.491228 ], [ 22.151458, -16.49521 ], [ 22.164245, -16.510307 ], [ 22.162909, -16.520959 ], [ 22.173882, -16.525547 ], [ 22.179537, -16.53277 ], [ 22.179984, -16.544518 ], [ 22.205633, -16.552955 ], [ 22.222228, -16.5742 ], [ 22.242988, -16.576024 ], [ 22.258461, -16.590193 ], [ 22.265137, -16.600858 ], [ 22.280984, -16.612061 ], [ 22.286967, -16.619738 ], [ 22.30346, -16.627554 ], [ 22.308472, -16.636422 ], [ 22.325738, -16.645073 ], [ 22.329594, -16.651317 ], [ 22.330376, -16.666358 ], [ 22.34523, -16.674125 ], [ 22.350833, -16.679958 ], [ 22.352907, -16.69775 ], [ 22.372065, -16.702801 ], [ 22.37632, -16.722778 ], [ 22.385912, -16.721637 ], [ 22.392541, -16.72387 ], [ 22.415361, -16.74427 ], [ 22.417764, -16.75581 ], [ 22.445852, -16.792844 ], [ 22.463135, -16.798596 ], [ 22.490663, -16.815515 ], [ 22.484308, -16.833202 ], [ 22.48765, -16.846737 ], [ 22.540862, -16.892876 ], [ 22.550273, -16.910326 ], [ 22.556079, -16.91235 ], [ 22.573742, -16.90897 ], [ 22.587561, -16.92452 ], [ 22.609236, -16.939773 ], [ 22.636652, -16.969323 ], [ 22.650523, -16.989336 ], [ 22.685996, -17.019749 ], [ 22.691556, -17.031966 ], [ 22.711549, -17.044359 ], [ 22.719796, -17.055462 ], [ 22.733369, -17.066603 ], [ 22.744158, -17.084907 ], [ 22.784718, -17.116079 ], [ 22.800837, -17.142037 ], [ 22.80069, -17.161909 ], [ 22.856303, -17.213013 ], [ 22.864862, -17.228415 ], [ 22.883224, -17.239003 ], [ 22.907557, -17.25989 ], [ 22.918944, -17.266056 ], [ 22.961676, -17.270721 ], [ 22.969956, -17.276809 ], [ 22.981069, -17.26614 ], [ 22.992759, -17.270503 ], [ 22.994464, -17.284301 ], [ 23.000431, -17.294755 ], [ 23.027854, -17.318589 ], [ 23.039596, -17.334371 ], [ 23.067004, -17.355361 ], [ 23.072242, -17.366734 ], [ 23.070481, -17.387557 ], [ 23.083154, -17.406104 ], [ 23.107593, -17.427847 ], [ 23.119847, -17.429709 ], [ 23.127465, -17.444082 ], [ 23.13948, -17.449247 ], [ 23.141785, -17.467463 ], [ 23.159836, -17.477141 ], [ 23.172555, -17.475374 ], [ 23.182068, -17.477997 ], [ 23.206177, -17.503798 ], [ 23.213967, -17.518989 ], [ 23.226206, -17.525877 ], [ 23.276753, -17.524629 ], [ 23.330085, -17.537758 ], [ 23.362499, -17.552457 ], [ 23.42345, -17.604688 ], [ 23.42709, -17.612372 ], [ 23.42989, -17.634459 ] ] ], [ [ [ 13.101758, -4.685052 ], [ 13.096051, -4.691166 ], [ 13.086668, -4.686755 ], [ 13.07774, -4.689222 ], [ 13.050927, -4.676092 ], [ 13.035454, -4.698843 ], [ 13.030185, -4.714464 ], [ 13.007912, -4.70657 ], [ 12.98229, -4.705575 ], [ 12.977551, -4.710468 ], [ 12.970551, -4.717696 ], [ 12.955533, -4.723097 ], [ 12.943293, -4.723799 ], [ 12.936062, -4.730475 ], [ 12.921908, -4.747489 ], [ 12.9136, -4.745491 ], [ 12.909951, -4.738086 ], [ 12.903029, -4.735582 ], [ 12.895434, -4.735935 ], [ 12.879407, -4.743958 ], [ 12.871227, -4.750266 ], [ 12.874404, -4.760788 ], [ 12.871279, -4.763728 ], [ 12.865455, -4.76222 ], [ 12.857618, -4.752495 ], [ 12.85295, -4.75158 ], [ 12.853395, -4.757529 ], [ 12.846719, -4.770754 ], [ 12.836579, -4.774023 ], [ 12.828687, -4.782941 ], [ 12.831161, -4.792673 ], [ 12.820087, -4.817624 ], [ 12.80863, -4.827004 ], [ 12.806506, -4.836109 ], [ 12.812763, -4.83514 ], [ 12.814462, -4.841005 ], [ 12.805668, -4.849628 ], [ 12.795638, -4.851538 ], [ 12.792942, -4.863492 ], [ 12.786743, -4.873988 ], [ 12.777558, -4.871838 ], [ 12.768047, -4.876029 ], [ 12.759617, -4.875432 ], [ 12.743952, -4.890735 ], [ 12.739961, -4.894633 ], [ 12.72907, -4.911241 ], [ 12.728699, -4.932536 ], [ 12.720517, -4.950012 ], [ 12.711696, -4.955702 ], [ 12.702617, -4.950628 ], [ 12.687888, -4.953338 ], [ 12.680826, -4.959153 ], [ 12.66986, -4.959542 ], [ 12.660583, -4.949088 ], [ 12.652257, -4.946103 ], [ 12.644712, -4.946091 ], [ 12.63504, -4.952101 ], [ 12.627437, -4.950015 ], [ 12.623628, -4.959267 ], [ 12.627655, -4.971177 ], [ 12.62644, -4.982897 ], [ 12.616972, -5.001958 ], [ 12.607484, -5.01207 ], [ 12.605373, -5.018767 ], [ 12.607182, -5.024467 ], [ 12.601751, -5.026143 ], [ 12.587274, -5.023079 ], [ 12.582017, -5.02774 ], [ 12.567405, -5.036573 ], [ 12.564435, -5.046509 ], [ 12.556864, -5.038131 ], [ 12.545072, -5.051191 ], [ 12.542886, -5.053611 ], [ 12.52363, -5.047236 ], [ 12.503381, -5.048364 ], [ 12.497265, -5.063945 ], [ 12.464809, -5.081061 ], [ 12.470493, -5.088851 ], [ 12.463639, -5.093585 ], [ 12.462088, -5.100037 ], [ 12.475775, -5.108519 ], [ 12.471863, -5.120664 ], [ 12.479436, -5.119931 ], [ 12.497961, -5.141378 ], [ 12.501596, -5.141756 ], [ 12.517575, -5.131627 ], [ 12.524948, -5.139694 ], [ 12.532157, -5.142344 ], [ 12.531731, -5.16236 ], [ 12.527697, -5.171621 ], [ 12.5322, -5.181342 ], [ 12.536665, -5.187869 ], [ 12.536182, -5.736476 ], [ 12.288119, -5.737696 ], [ 12.263383, -5.745302 ], [ 12.248649, -5.752942 ], [ 12.217954, -5.752328 ], [ 12.212556, -5.755651 ], [ 12.205732, -5.754622 ], [ 12.195455, -5.763877 ], [ 12.172953, -5.733841 ], [ 12.156926, -5.696975 ], [ 12.155641, -5.694017 ], [ 12.152359, -5.666467 ], [ 12.146048, -5.651855 ], [ 12.14528, -5.640649 ], [ 12.156926, -5.6175 ], [ 12.160895, -5.609612 ], [ 12.16233, -5.593136 ], [ 12.170012, -5.570248 ], [ 12.181967, -5.551004 ], [ 12.195325, -5.549885 ], [ 12.207044, -5.557384 ], [ 12.217954, -5.557551 ], [ 12.229474, -5.544046 ], [ 12.232911, -5.523671 ], [ 12.228085, -5.488868 ], [ 12.217954, -5.453155 ], [ 12.205306, -5.413409 ], [ 12.168798, -5.332027 ], [ 12.175226, -5.329197 ], [ 12.178917, -5.323501 ], [ 12.172852, -5.302261 ], [ 12.156926, -5.27835 ], [ 12.132995, -5.242417 ], [ 12.140656, -5.220257 ], [ 12.139352, -5.214764 ], [ 12.016016, -5.041056 ], [ 11.989245, -4.999317 ], [ 12.133923, -4.890735 ], [ 12.156926, -4.873469 ], [ 12.161802, -4.86981 ], [ 12.214077, -4.757953 ], [ 12.215763, -4.755991 ], [ 12.217954, -4.757638 ], [ 12.223641, -4.771608 ], [ 12.221424, -4.778733 ], [ 12.228118, -4.783199 ], [ 12.237806, -4.808131 ], [ 12.242323, -4.813027 ], [ 12.261173, -4.79821 ], [ 12.270713, -4.795764 ], [ 12.279045, -4.804279 ], [ 12.2963, -4.795214 ], [ 12.300413, -4.796422 ], [ 12.305706, -4.803546 ], [ 12.315694, -4.801298 ], [ 12.323237, -4.79657 ], [ 12.337046, -4.780855 ], [ 12.339368, -4.767649 ], [ 12.349499, -4.760481 ], [ 12.361603, -4.740939 ], [ 12.371661, -4.733443 ], [ 12.373287, -4.706469 ], [ 12.386068, -4.697362 ], [ 12.383472, -4.689568 ], [ 12.384656, -4.681453 ], [ 12.397114, -4.667237 ], [ 12.397401, -4.646063 ], [ 12.391399, -4.641612 ], [ 12.388405, -4.634123 ], [ 12.38817, -4.623438 ], [ 12.392621, -4.610155 ], [ 12.415079, -4.605954 ], [ 12.42684, -4.606546 ], [ 12.437621, -4.598483 ], [ 12.450129, -4.601617 ], [ 12.450881, -4.593494 ], [ 12.456971, -4.588239 ], [ 12.470447, -4.595411 ], [ 12.478418, -4.590905 ], [ 12.48595, -4.591474 ], [ 12.499252, -4.60451 ], [ 12.510623, -4.605598 ], [ 12.521307, -4.612319 ], [ 12.525047, -4.606596 ], [ 12.537507, -4.600833 ], [ 12.545072, -4.599857 ], [ 12.552039, -4.598958 ], [ 12.558785, -4.594516 ], [ 12.557798, -4.576964 ], [ 12.56315, -4.563739 ], [ 12.582017, -4.563104 ], [ 12.643082, -4.562098 ], [ 12.643103, -4.556115 ], [ 12.648727, -4.551018 ], [ 12.647936, -4.543806 ], [ 12.657001, -4.544105 ], [ 12.659214, -4.535925 ], [ 12.673366, -4.528706 ], [ 12.673716, -4.501638 ], [ 12.688064, -4.497052 ], [ 12.694785, -4.483974 ], [ 12.701432, -4.478408 ], [ 12.71063, -4.478115 ], [ 12.732292, -4.490949 ], [ 12.739955, -4.491542 ], [ 12.766489, -4.506006 ], [ 12.769538, -4.496128 ], [ 12.779932, -4.492086 ], [ 12.780653, -4.488445 ], [ 12.73208, -4.427548 ], [ 12.72064, -4.406381 ], [ 12.721661, -4.400233 ], [ 12.724564, -4.399226 ], [ 12.734121, -4.411422 ], [ 12.746239, -4.416652 ], [ 12.759964, -4.416771 ], [ 12.762755, -4.412052 ], [ 12.757134, -4.394895 ], [ 12.763765, -4.389422 ], [ 12.771289, -4.390553 ], [ 12.795931, -4.413929 ], [ 12.813569, -4.435418 ], [ 12.832838, -4.443347 ], [ 12.834572, -4.419065 ], [ 12.84355, -4.415771 ], [ 12.853441, -4.430151 ], [ 12.886611, -4.45553 ], [ 12.893801, -4.465393 ], [ 12.913836, -4.480986 ], [ 12.925083, -4.495251 ], [ 12.936062, -4.500409 ], [ 12.93882, -4.502316 ], [ 12.961906, -4.529915 ], [ 12.970328, -4.535014 ], [ 12.972266, -4.54026 ], [ 12.977551, -4.547315 ], [ 12.980003, -4.550588 ], [ 12.980581, -4.553659 ], [ 12.992279, -4.568494 ], [ 12.989462, -4.571815 ], [ 12.981359, -4.570006 ], [ 12.977551, -4.573919 ], [ 12.971416, -4.579816 ], [ 12.977551, -4.584298 ], [ 12.984014, -4.585192 ], [ 12.991997, -4.592759 ], [ 13.002289, -4.605643 ], [ 13.00579, -4.606174 ], [ 13.008738, -4.612211 ], [ 13.018211, -4.619007 ], [ 13.033793, -4.633597 ], [ 13.045884, -4.642494 ], [ 13.053496, -4.644788 ], [ 13.058031, -4.648847 ], [ 13.063943, -4.651285 ], [ 13.066985, -4.655164 ], [ 13.084147, -4.665512 ], [ 13.087363, -4.67146 ], [ 13.091602, -4.671813 ], [ 13.093436, -4.673212 ], [ 13.094057, -4.677205 ], [ 13.101758, -4.685052 ] ] ], [ [ [ 11.670398, -16.54732 ], [ 11.671628, -16.539844 ], [ 11.674884, -16.534143 ], [ 11.676413, -16.528978 ], [ 11.679032, -16.525471 ], [ 11.683004, -16.523491 ], [ 11.685073, -16.518834 ], [ 11.693769, -16.511263 ], [ 11.700656, -16.507958 ], [ 11.708949, -16.509907 ], [ 11.714281, -16.509838 ], [ 11.719374, -16.511702 ], [ 11.718775, -16.516597 ], [ 11.720962, -16.520427 ], [ 11.719215, -16.528939 ], [ 11.723599, -16.537371 ], [ 11.723116, -16.540979 ], [ 11.720515, -16.545643 ], [ 11.722685, -16.548187 ], [ 11.720883, -16.552841 ], [ 11.72093, -16.556185 ], [ 11.726247, -16.564346 ], [ 11.723536, -16.570813 ], [ 11.717677, -16.580922 ], [ 11.71785, -16.58375 ], [ 11.721094, -16.586794 ], [ 11.724165, -16.596529 ], [ 11.72476, -16.600894 ], [ 11.726926, -16.603181 ], [ 11.728489, -16.608051 ], [ 11.726765, -16.610643 ], [ 11.730331, -16.617542 ], [ 11.728814, -16.623478 ], [ 11.727633, -16.632572 ], [ 11.729617, -16.632985 ], [ 11.728835, -16.643799 ], [ 11.730765, -16.648147 ], [ 11.730344, -16.656127 ], [ 11.729123, -16.664117 ], [ 11.730931, -16.669238 ], [ 11.736988, -16.673017 ], [ 11.738603, -16.683285 ], [ 11.736563, -16.69 ], [ 11.739803, -16.692529 ], [ 11.739609, -16.697677 ], [ 11.736735, -16.702088 ], [ 11.735766, -16.707665 ], [ 11.730104, -16.705005 ], [ 11.724279, -16.698908 ], [ 11.717202, -16.689226 ], [ 11.709804, -16.675689 ], [ 11.706476, -16.666729 ], [ 11.699856, -16.651382 ], [ 11.695699, -16.640374 ], [ 11.690671, -16.624233 ], [ 11.682879, -16.601181 ], [ 11.676773, -16.584024 ], [ 11.672864, -16.57147 ], [ 11.670533, -16.557093 ], [ 11.670398, -16.54732 ] ] ], [ [ [ 13.034253, -8.986126 ], [ 13.047398, -8.961444 ], [ 13.093135, -8.919628 ], [ 13.102144, -8.905181 ], [ 13.116647, -8.894909 ], [ 13.139637, -8.86958 ], [ 13.145716, -8.863802 ], [ 13.153465, -8.863449 ], [ 13.154197, -8.86736 ], [ 13.150085, -8.86958 ], [ 13.142278, -8.875611 ], [ 13.141303, -8.888604 ], [ 13.125907, -8.893657 ], [ 13.116647, -8.902346 ], [ 13.111889, -8.910287 ], [ 13.105205, -8.914518 ], [ 13.102849, -8.924641 ], [ 13.095253, -8.926521 ], [ 13.085667, -8.939704 ], [ 13.06685, -8.953179 ], [ 13.04716, -8.979719 ], [ 13.038473, -8.983373 ], [ 13.035858, -8.986796 ], [ 13.034253, -8.986126 ] ] ], [ [ [ 12.854407, -5.985298 ], [ 12.862222, -5.977046 ], [ 12.86728, -5.959924 ], [ 12.871563, -5.960414 ], [ 12.870125, -5.964527 ], [ 12.889846, -5.962878 ], [ 12.920553, -5.936011 ], [ 12.925403, -5.934627 ], [ 12.926385, -5.936004 ], [ 12.914106, -5.953221 ], [ 12.910421, -5.964529 ], [ 12.899794, -5.977046 ], [ 12.885255, -5.984868 ], [ 12.862516, -5.989792 ], [ 12.854407, -5.985298 ] ] ], [ [ [ 12.580537, -6.08983 ], [ 12.590329, -6.090762 ], [ 12.600403, -6.099688 ], [ 12.602745, -6.10529 ], [ 12.616874, -6.11013 ], [ 12.620263, -6.116792 ], [ 12.628695, -6.119537 ], [ 12.646144, -6.109229 ], [ 12.649099, -6.112267 ], [ 12.648479, -6.117517 ], [ 12.640829, -6.120769 ], [ 12.625777, -6.125721 ], [ 12.616874, -6.124974 ], [ 12.610578, -6.125642 ], [ 12.607403, -6.12859 ], [ 12.606316, -6.124695 ], [ 12.597411, -6.122662 ], [ 12.598223, -6.115697 ], [ 12.592048, -6.113444 ], [ 12.594232, -6.110283 ], [ 12.586494, -6.105226 ], [ 12.580537, -6.08983 ] ] ], [ [ [ 12.736668, -6.006892 ], [ 12.737283, -6.00604 ], [ 12.752552, -6.000989 ], [ 12.774138, -5.991065 ], [ 12.796523, -5.987435 ], [ 12.799006, -5.989456 ], [ 12.796523, -5.993479 ], [ 12.78926, -6.002491 ], [ 12.779282, -6.008952 ], [ 12.762614, -6.015611 ], [ 12.759713, -6.015066 ], [ 12.760972, -6.011938 ], [ 12.752552, -6.012647 ], [ 12.73729, -6.007739 ], [ 12.736668, -6.006892 ] ] ], [ [ [ 13.023185, -5.883453 ], [ 13.028037, -5.878689 ], [ 13.045297, -5.869141 ], [ 13.052784, -5.867974 ], [ 13.068555, -5.874249 ], [ 13.071263, -5.883819 ], [ 13.056617, -5.889311 ], [ 13.042043, -5.882319 ], [ 13.028781, -5.884196 ], [ 13.023185, -5.883453 ] ] ], [ [ [ 12.803504, -6.002884 ], [ 12.80677, -6.001054 ], [ 12.822028, -6.004139 ], [ 12.841753, -6.000697 ], [ 12.84849, -6.001752 ], [ 12.849857, -6.003113 ], [ 12.847738, -6.006895 ], [ 12.841753, -6.012471 ], [ 12.823896, -6.018857 ], [ 12.812498, -6.012649 ], [ 12.803504, -6.002884 ] ] ], [ [ [ 12.83003, -5.966265 ], [ 12.8393, -5.950933 ], [ 12.844586, -5.951544 ], [ 12.844586, -5.949126 ], [ 12.844586, -5.946514 ], [ 12.851441, -5.946051 ], [ 12.857876, -5.94993 ], [ 12.852326, -5.971595 ], [ 12.844586, -5.975035 ], [ 12.840313, -5.972736 ], [ 12.841664, -5.969758 ], [ 12.844586, -5.96864 ], [ 12.844586, -5.966378 ], [ 12.832047, -5.968561 ], [ 12.83003, -5.966265 ] ] ], [ [ [ 11.772707, -16.777951 ], [ 11.777131, -16.769272 ], [ 11.781761, -16.768231 ], [ 11.785773, -16.764901 ], [ 11.786091, -16.771853 ], [ 11.781975, -16.773898 ], [ 11.783205, -16.775183 ], [ 11.787882, -16.774921 ], [ 11.784149, -16.781904 ], [ 11.782989, -16.787699 ], [ 11.786248, -16.787515 ], [ 11.783946, -16.794913 ], [ 11.784169, -16.80322 ], [ 11.781764, -16.803177 ], [ 11.781625, -16.805855 ], [ 11.778619, -16.814356 ], [ 11.777215, -16.813653 ], [ 11.775702, -16.800775 ], [ 11.775255, -16.79196 ], [ 11.773651, -16.788302 ], [ 11.772707, -16.777951 ] ] ], [ [ [ 13.102026, -8.938884 ], [ 13.110955, -8.925657 ], [ 13.116634, -8.921962 ], [ 13.122921, -8.907567 ], [ 13.127183, -8.906097 ], [ 13.128642, -8.917949 ], [ 13.123773, -8.93023 ], [ 13.116634, -8.93606 ], [ 13.107062, -8.940405 ], [ 13.102026, -8.938884 ] ] ], [ [ [ 12.556679, -6.106183 ], [ 12.567458, -6.103785 ], [ 12.566588, -6.097472 ], [ 12.571786, -6.096548 ], [ 12.583012, -6.106069 ], [ 12.584134, -6.119112 ], [ 12.583679, -6.12137 ], [ 12.587488, -6.120476 ], [ 12.587469, -6.12461 ], [ 12.583198, -6.125199 ], [ 12.581432, -6.120316 ], [ 12.575434, -6.116969 ], [ 12.571786, -6.109045 ], [ 12.562306, -6.112376 ], [ 12.558322, -6.110672 ], [ 12.556679, -6.106183 ] ] ], [ [ [ 12.872618, -5.951857 ], [ 12.873096, -5.950925 ], [ 12.889848, -5.942386 ], [ 12.899672, -5.934144 ], [ 12.915097, -5.928164 ], [ 12.917142, -5.930347 ], [ 12.898692, -5.940632 ], [ 12.889848, -5.957139 ], [ 12.886159, -5.956748 ], [ 12.886585, -5.953493 ], [ 12.883725, -5.95434 ], [ 12.873356, -5.952602 ], [ 12.872618, -5.951857 ] ] ], [ [ [ 12.391156, -6.124122 ], [ 12.392789, -6.119516 ], [ 12.398136, -6.122673 ], [ 12.414785, -6.120047 ], [ 12.412511, -6.124653 ], [ 12.416822, -6.128473 ], [ 12.416326, -6.13004 ], [ 12.405837, -6.131284 ], [ 12.398136, -6.129109 ], [ 12.396486, -6.131769 ], [ 12.391156, -6.124122 ] ] ], [ [ [ 13.22367, -8.794895 ], [ 13.225693, -8.790425 ], [ 13.231736, -8.784255 ], [ 13.23714, -8.781127 ], [ 13.246484, -8.774305 ], [ 13.255273, -8.76707 ], [ 13.26254, -8.759677 ], [ 13.264415, -8.761215 ], [ 13.254015, -8.770724 ], [ 13.248988, -8.777986 ], [ 13.245123, -8.781275 ], [ 13.241035, -8.781703 ], [ 13.234467, -8.784725 ], [ 13.232913, -8.78874 ], [ 13.227898, -8.790661 ], [ 13.226925, -8.794823 ], [ 13.22367, -8.794895 ] ] ], [ [ [ 12.742851, -6.029302 ], [ 12.752554, -6.03065 ], [ 12.762978, -6.035612 ], [ 12.753999, -6.042399 ], [ 12.747589, -6.038565 ], [ 12.742851, -6.029302 ] ] ], [ [ [ 13.075569, -5.880898 ], [ 13.084439, -5.879827 ], [ 13.093713, -5.881021 ], [ 13.095249, -5.884123 ], [ 13.094721, -5.887993 ], [ 13.09189, -5.889116 ], [ 13.083379, -5.888341 ], [ 13.078619, -5.885614 ], [ 13.075569, -5.880898 ] ] ], [ [ [ 12.807471, -5.993852 ], [ 12.811064, -5.990156 ], [ 12.818222, -5.989929 ], [ 12.823583, -5.991614 ], [ 12.831751, -5.996509 ], [ 12.830463, -5.99868 ], [ 12.823299, -5.998908 ], [ 12.814366, -5.995288 ], [ 12.807471, -5.993852 ] ] ], [ [ [ 12.576779, -6.061956 ], [ 12.577992, -6.055635 ], [ 12.584058, -6.053421 ], [ 12.586954, -6.053567 ], [ 12.589965, -6.057534 ], [ 12.588503, -6.060691 ], [ 12.582682, -6.06699 ], [ 12.57978, -6.068032 ], [ 12.579791, -6.06566 ], [ 12.576779, -6.061956 ] ] ], [ [ [ 12.855733, -5.93381 ], [ 12.856926, -5.931781 ], [ 12.870817, -5.928296 ], [ 12.871059, -5.933278 ], [ 12.868429, -5.936152 ], [ 12.861342, -5.940843 ], [ 12.857016, -5.940334 ], [ 12.857248, -5.935414 ], [ 12.855733, -5.93381 ] ] ], [ [ [ 12.782864, -6.021004 ], [ 12.787116, -6.019819 ], [ 12.796519, -6.022342 ], [ 12.80273, -6.020003 ], [ 12.804797, -6.021157 ], [ 12.803532, -6.022889 ], [ 12.796519, -6.025784 ], [ 12.787465, -6.027238 ], [ 12.782864, -6.021004 ] ] ], [ [ [ 11.836629, -15.781961 ], [ 11.837397, -15.780972 ], [ 11.851058, -15.779015 ], [ 11.855037, -15.780167 ], [ 11.855913, -15.784787 ], [ 11.853254, -15.786951 ], [ 11.848577, -15.785166 ], [ 11.837343, -15.78272 ], [ 11.836629, -15.781961 ] ] ], [ [ [ 13.016002, -9.021981 ], [ 13.022354, -9.008148 ], [ 13.024068, -9.008408 ], [ 13.026009, -9.017824 ], [ 13.02109, -9.024161 ], [ 13.016002, -9.021981 ] ] ], [ [ [ 12.54127, -6.096592 ], [ 12.545035, -6.094518 ], [ 12.558165, -6.099494 ], [ 12.558004, -6.101222 ], [ 12.551411, -6.102413 ], [ 12.54127, -6.096592 ] ] ], [ [ [ 12.377397, -6.119258 ], [ 12.382953, -6.117118 ], [ 12.385129, -6.114692 ], [ 12.390007, -6.113091 ], [ 12.389707, -6.119046 ], [ 12.385912, -6.120788 ], [ 12.382399, -6.119688 ], [ 12.379142, -6.121973 ], [ 12.377397, -6.119258 ] ] ], [ [ [ 12.623659, -6.111675 ], [ 12.634154, -6.110375 ], [ 12.636438, -6.111571 ], [ 12.633565, -6.114653 ], [ 12.630002, -6.114352 ], [ 12.627856, -6.116482 ], [ 12.623659, -6.111675 ] ] ], [ [ [ 12.622731, -6.137837 ], [ 12.624023, -6.132704 ], [ 12.634352, -6.129309 ], [ 12.634477, -6.131564 ], [ 12.629089, -6.133156 ], [ 12.62478, -6.138442 ], [ 12.622731, -6.137837 ] ] ], [ [ [ 12.868847, -5.943536 ], [ 12.869575, -5.941838 ], [ 12.877583, -5.936904 ], [ 12.880055, -5.938845 ], [ 12.876185, -5.942415 ], [ 12.870035, -5.944476 ], [ 12.868847, -5.943536 ] ] ], [ [ [ 12.90166, -5.947165 ], [ 12.902597, -5.942955 ], [ 12.906161, -5.939545 ], [ 12.910252, -5.938619 ], [ 12.910628, -5.940615 ], [ 12.904821, -5.946254 ], [ 12.90166, -5.947165 ] ] ], [ [ [ 12.733274, -6.042124 ], [ 12.736902, -6.038248 ], [ 12.74308, -6.040562 ], [ 12.743067, -6.043391 ], [ 12.734149, -6.043136 ], [ 12.733274, -6.042124 ] ] ], [ [ [ 12.548886, -6.11952 ], [ 12.552077, -6.11612 ], [ 12.555882, -6.114557 ], [ 12.557052, -6.116143 ], [ 12.553886, -6.12137 ], [ 12.548886, -6.11952 ] ] ], [ [ [ 12.634268, -6.09948 ], [ 12.63734, -6.096028 ], [ 12.641088, -6.095519 ], [ 12.643393, -6.097264 ], [ 12.635888, -6.101271 ], [ 12.634268, -6.09948 ] ] ], [ [ [ 12.859201, -6.012754 ], [ 12.866439, -6.008539 ], [ 12.867168, -6.011646 ], [ 12.861849, -6.014815 ], [ 12.859201, -6.012754 ] ] ], [ [ [ 12.937041, -5.956224 ], [ 12.939556, -5.951019 ], [ 12.942444, -5.95103 ], [ 12.94243, -5.954709 ], [ 12.939272, -5.957062 ], [ 12.937041, -5.956224 ] ] ], [ [ [ 12.596106, -6.134605 ], [ 12.597401, -6.133328 ], [ 12.602638, -6.134594 ], [ 12.603156, -6.13817 ], [ 12.598074, -6.137059 ], [ 12.596106, -6.134605 ] ] ], [ [ [ 12.833401, -5.97182 ], [ 12.837103, -5.971012 ], [ 12.839139, -5.975958 ], [ 12.8342, -5.975912 ], [ 12.833401, -5.97182 ] ] ], [ [ [ 12.918202, -5.97979 ], [ 12.920679, -5.976476 ], [ 12.924418, -5.976476 ], [ 12.922928, -5.980212 ], [ 12.918682, -5.981832 ], [ 12.918202, -5.97979 ] ] ], [ [ [ 12.909679, -5.985188 ], [ 12.913162, -5.980663 ], [ 12.916546, -5.984638 ], [ 12.913651, -5.986467 ], [ 12.909679, -5.985188 ] ] ], [ [ [ 12.5894, -6.119951 ], [ 12.592517, -6.117499 ], [ 12.594756, -6.119761 ], [ 12.594619, -6.123252 ], [ 12.589926, -6.121991 ], [ 12.5894, -6.119951 ] ] ], [ [ [ 12.535362, -6.124104 ], [ 12.540588, -6.122679 ], [ 12.541358, -6.12628 ], [ 12.537082, -6.128098 ], [ 12.535362, -6.124104 ] ] ], [ [ [ 12.609683, -6.133053 ], [ 12.611268, -6.131241 ], [ 12.61749, -6.131616 ], [ 12.61749, -6.134102 ], [ 12.61221, -6.134526 ], [ 12.609683, -6.133053 ] ] ], [ [ [ 12.448181, -6.132578 ], [ 12.449292, -6.131102 ], [ 12.45464, -6.132216 ], [ 12.453118, -6.135199 ], [ 12.44874, -6.13536 ], [ 12.448181, -6.132578 ] ] ], [ [ [ 13.156978, -8.870735 ], [ 13.156996, -8.867118 ], [ 13.161624, -8.866294 ], [ 13.162564, -8.870375 ], [ 13.156978, -8.870735 ] ] ], [ [ [ 13.147442, -8.902927 ], [ 13.14843, -8.901629 ], [ 13.153797, -8.903806 ], [ 13.153434, -8.905979 ], [ 13.149301, -8.906647 ], [ 13.147442, -8.902927 ] ] ], [ [ [ 13.130774, -8.936486 ], [ 13.136008, -8.934939 ], [ 13.135463, -8.94075 ], [ 13.133226, -8.940909 ], [ 13.130774, -8.936486 ] ] ], [ [ [ 13.110232, -8.942718 ], [ 13.111837, -8.941197 ], [ 13.117174, -8.942176 ], [ 13.116952, -8.944619 ], [ 13.110799, -8.944862 ], [ 13.110232, -8.942718 ] ] ], [ [ [ 13.052756, -8.987775 ], [ 13.053822, -8.984436 ], [ 13.057698, -8.984304 ], [ 13.058022, -8.989551 ], [ 13.052756, -8.987775 ] ] ], [ [ [ 13.01008, -9.033135 ], [ 13.013302, -9.029978 ], [ 13.016124, -9.031059 ], [ 13.017147, -9.03525 ], [ 13.01008, -9.033135 ] ] ], [ [ [ 11.812969, -16.591656 ], [ 11.817322, -16.588871 ], [ 11.819015, -16.590716 ], [ 11.815998, -16.595473 ], [ 11.812969, -16.591656 ] ] ] ] } }
]
}
