{
"type": "FeatureCollection",
"name": "Anguilla",
"crs": { "type": "name", "properties": { "name": "urn:ogc:def:crs:OGC:1.3:CRS84" } },
"features": [
{ "type": "Feature", "properties": { "id": "AI", "CNTR_ID": "AI", "CNTR_NAME": "Anguilla", "NAME_ENGL": "Anguilla", "ISO3_CODE": "AIA", "FID": "AI" }, "geometry": { "type": "MultiPolygon", "coordinates": [ [ [ [ -63.16735, 18.163283 ], [ -63.161478, 18.170288 ], [ -63.140527, 18.181188 ], [ -63.130604, 18.190648 ], [ -63.094296, 18.196317 ], [ -63.090568, 18.206754 ], [ -63.069813, 18.217843 ], [ -63.069782, 18.23405 ], [ -63.059426, 18.241654 ], [ -63.02627, 18.256237 ], [ -63.021168, 18.255302 ], [ -63.007922, 18.259914 ], [ -62.998114, 18.257894 ], [ -62.982432, 18.263365 ], [ -62.970129, 18.272943 ], [ -62.96793, 18.271881 ], [ -62.968798, 18.26569 ], [ -62.984906, 18.250022 ], [ -62.982216, 18.240015 ], [ -62.990744, 18.225277 ], [ -62.999099, 18.221452 ], [ -63.007964, 18.221675 ], [ -63.014883, 18.210867 ], [ -63.02627, 18.206224 ], [ -63.053554, 18.190969 ], [ -63.068422, 18.187396 ], [ -63.082605, 18.174207 ], [ -63.101423, 18.169152 ], [ -63.10679, 18.174973 ], [ -63.113497, 18.176076 ], [ -63.148878, 18.162522 ], [ -63.166445, 18.162392 ], [ -63.16735, 18.163283 ] ] ], [ [ [ -62.960674, 18.27698 ], [ -62.955817, 18.27969 ], [ -62.956158, 18.284383 ], [ -62.958203, 18.287619 ], [ -62.954497, 18.290976 ], [ -62.94981, 18.291097 ], [ -62.94866, 18.29405 ], [ -62.945593, 18.296477 ], [ -62.939398, 18.293953 ], [ -62.933792, 18.295628 ], [ -62.930639, 18.293646 ], [ -62.928276, 18.289278 ], [ -62.931108, 18.288751 ], [ -62.93392, 18.285879 ], [ -62.938691, 18.286567 ], [ -62.943164, 18.283776 ], [ -62.946956, 18.284302 ], [ -62.947297, 18.280985 ], [ -62.955945, 18.274876 ], [ -62.960674, 18.27698 ] ] ], [ [ [ -63.261562, 18.278556 ], [ -63.256473, 18.283942 ], [ -63.24786, 18.283007 ], [ -63.244656, 18.280618 ], [ -63.240687, 18.281277 ], [ -63.240059, 18.279704 ], [ -63.24786, 18.275141 ], [ -63.254028, 18.272861 ], [ -63.261562, 18.278556 ] ] ], [ [ [ -63.175414, 18.262599 ], [ -63.170678, 18.266451 ], [ -63.167915, 18.261521 ], [ -63.171198, 18.260756 ], [ -63.175414, 18.262599 ] ] ], [ [ [ -63.189694, 18.267644 ], [ -63.187342, 18.269417 ], [ -63.18177, 18.266695 ], [ -63.181907, 18.265281 ], [ -63.18678, 18.265172 ], [ -63.189694, 18.267644 ] ] ], [ [ [ -63.42745, 18.585615 ], [ -63.427281, 18.589651 ], [ -63.423502, 18.592282 ], [ -63.422289, 18.590854 ], [ -63.426284, 18.584916 ], [ -63.42745, 18.585615 ] ] ] ] } }
]
}
