{
"type": "FeatureCollection",
"name": "Antigua and Barbuda",
"crs": { "type": "name", "properties": { "name": "urn:ogc:def:crs:OGC:1.3:CRS84" } },
"features": [
{ "type": "Feature", "properties": { "id": "AG", "CNTR_ID": "AG", "CNTR_NAME": "Antigua and Barbuda", "NAME_ENGL": "Antigua and Barbuda", "ISO3_CODE": "ATG", "FID": "AG" }, "geometry": { "type": "MultiPolygon", "coordinates": [ [ [ [ -61.902679, 17.100763 ], [ -61.897455, 17.118057 ], [ -61.882535, 17.128118 ], [ -61.864438, 17.120648 ], [ -61.849836, 17.119421 ], [ -61.850044, 17.122773 ], [ -61.855679, 17.126111 ], [ -61.853959, 17.129946 ], [ -61.860274, 17.135874 ], [ -61.846492, 17.164938 ], [ -61.832191, 17.172293 ], [ -61.816959, 17.167979 ], [ -61.802428, 17.16888 ], [ -61.791257, 17.158411 ], [ -61.786732, 17.148273 ], [ -61.774922, 17.140501 ], [ -61.775219, 17.137282 ], [ -61.781401, 17.134801 ], [ -61.787123, 17.126122 ], [ -61.777906, 17.12269 ], [ -61.775123, 17.112982 ], [ -61.761919, 17.112752 ], [ -61.761069, 17.124731 ], [ -61.749943, 17.135767 ], [ -61.747725, 17.131315 ], [ -61.752934, 17.122424 ], [ -61.749495, 17.116438 ], [ -61.725096, 17.130938 ], [ -61.720999, 17.129585 ], [ -61.723488, 17.124662 ], [ -61.742265, 17.113618 ], [ -61.728656, 17.107522 ], [ -61.731926, 17.095148 ], [ -61.730619, 17.094185 ], [ -61.723099, 17.098166 ], [ -61.712254, 17.093756 ], [ -61.703095, 17.104413 ], [ -61.694465, 17.099934 ], [ -61.685321, 17.100585 ], [ -61.682286, 17.095281 ], [ -61.685725, 17.085273 ], [ -61.692485, 17.086873 ], [ -61.708526, 17.072916 ], [ -61.707726, 17.071442 ], [ -61.700467, 17.072981 ], [ -61.690163, 17.067231 ], [ -61.679352, 17.069571 ], [ -61.675018, 17.052447 ], [ -61.676141, 17.044519 ], [ -61.681741, 17.044244 ], [ -61.693115, 17.031292 ], [ -61.712617, 17.03208 ], [ -61.734604, 17.042938 ], [ -61.743617, 17.042149 ], [ -61.738824, 17.027033 ], [ -61.730695, 17.017714 ], [ -61.732491, 17.01428 ], [ -61.736347, 17.015703 ], [ -61.738403, 17.01367 ], [ -61.734985, 17.005723 ], [ -61.739252, 17.005666 ], [ -61.745727, 16.999097 ], [ -61.756056, 16.998474 ], [ -61.763369, 17.006721 ], [ -61.770142, 17.001736 ], [ -61.77344, 17.002639 ], [ -61.777734, 17.007689 ], [ -61.770003, 17.012663 ], [ -61.768618, 17.019184 ], [ -61.774968, 17.022461 ], [ -61.781208, 17.020717 ], [ -61.787215, 17.008774 ], [ -61.80287, 17.014492 ], [ -61.817204, 17.008212 ], [ -61.832182, 17.0048 ], [ -61.833197, 17.015186 ], [ -61.839908, 17.012763 ], [ -61.860698, 17.021538 ], [ -61.882266, 17.023289 ], [ -61.889379, 17.026447 ], [ -61.896389, 17.05008 ], [ -61.889645, 17.060439 ], [ -61.888614, 17.072222 ], [ -61.892052, 17.07799 ], [ -61.899101, 17.081849 ], [ -61.898945, 17.083408 ], [ -61.881358, 17.089173 ], [ -61.87525, 17.102242 ], [ -61.87948, 17.104943 ], [ -61.902679, 17.100763 ] ] ], [ [ [ -61.885827, 17.697101 ], [ -61.87053, 17.714758 ], [ -61.855949, 17.717889 ], [ -61.852902, 17.725849 ], [ -61.847401, 17.728531 ], [ -61.840635, 17.726219 ], [ -61.821939, 17.703578 ], [ -61.817202, 17.703187 ], [ -61.812175, 17.703782 ], [ -61.805632, 17.699051 ], [ -61.796997, 17.700827 ], [ -61.792467, 17.698904 ], [ -61.770312, 17.671424 ], [ -61.749369, 17.652895 ], [ -61.740541, 17.638689 ], [ -61.73147, 17.605045 ], [ -61.731822, 17.593137 ], [ -61.736702, 17.580783 ], [ -61.736369, 17.549618 ], [ -61.755821, 17.554103 ], [ -61.765152, 17.547669 ], [ -61.769618, 17.559008 ], [ -61.7776, 17.568056 ], [ -61.796001, 17.574282 ], [ -61.817202, 17.58934 ], [ -61.833014, 17.592511 ], [ -61.854956, 17.581345 ], [ -61.859645, 17.582673 ], [ -61.850267, 17.627065 ], [ -61.853704, 17.650075 ], [ -61.856301, 17.657593 ], [ -61.863848, 17.666221 ], [ -61.869087, 17.681084 ], [ -61.885827, 17.697101 ] ] ], [ [ [ -61.762462, 17.151881 ], [ -61.757974, 17.159895 ], [ -61.747079, 17.158536 ], [ -61.745746, 17.155201 ], [ -61.753862, 17.151314 ], [ -61.756408, 17.152144 ], [ -61.758816, 17.149518 ], [ -61.762462, 17.151881 ] ] ], [ [ [ -62.350175, 16.94261 ], [ -62.344941, 16.945219 ], [ -62.34328, 16.942182 ], [ -62.343707, 16.934735 ], [ -62.348747, 16.933314 ], [ -62.350175, 16.94261 ] ] ], [ [ [ -61.672484, 17.050962 ], [ -61.671127, 17.054897 ], [ -61.666372, 17.054897 ], [ -61.666613, 17.051492 ], [ -61.672484, 17.050962 ] ] ], [ [ [ -61.665745, 17.069346 ], [ -61.664552, 17.07171 ], [ -61.660218, 17.07086 ], [ -61.659722, 17.067549 ], [ -61.662575, 17.067029 ], [ -61.665745, 17.069346 ] ] ], [ [ [ -61.67458, 17.071308 ], [ -61.672266, 17.074009 ], [ -61.667058, 17.0712 ], [ -61.668599, 17.068828 ], [ -61.67458, 17.071308 ] ] ], [ [ [ -61.722144, 17.108397 ], [ -61.720307, 17.111175 ], [ -61.715005, 17.110337 ], [ -61.716242, 17.106878 ], [ -61.722144, 17.108397 ] ] ], [ [ [ -61.766773, 17.145162 ], [ -61.764727, 17.147282 ], [ -61.759899, 17.147545 ], [ -61.762888, 17.142311 ], [ -61.766773, 17.145162 ] ] ], [ [ [ -61.736932, 17.547917 ], [ -61.734692, 17.549091 ], [ -61.730043, 17.544327 ], [ -61.734865, 17.543597 ], [ -61.736932, 17.547917 ] ] ] ] } }
]
}
