{
"type": "FeatureCollection",
"name": "Armenia",
"crs": { "type": "name", "properties": { "name": "urn:ogc:def:crs:OGC:1.3:CRS84" } },
"features": [
{ "type": "Feature", "properties": { "id": "AM", "CNTR_ID": "AM", "CNTR_NAME": "Հայաստան", "NAME_ENGL": "Armenia", "ISO3_CODE": "ARM", "FID": "AM" }, "geometry": { "type": "MultiPolygon", "coordinates": [ [ [ [ 46.140659, 38.844944 ], [ 46.147903, 38.87025 ], [ 46.150884, 38.885683 ], [ 46.146146, 38.896339 ], [ 46.139763, 38.908557 ], [ 46.137723, 38.914257 ], [ 46.132537, 38.922759 ], [ 46.123798, 38.9418 ], [ 46.117145, 38.953414 ], [ 46.114115, 38.960629 ], [ 46.111454, 38.969826 ], [ 46.109358, 38.977073 ], [ 46.10675, 38.982626 ], [ 46.104838, 38.98791 ], [ 46.100622, 39.022743 ], [ 46.084433, 39.037489 ], [ 46.071616, 39.067735 ], [ 46.034231, 39.089256 ], [ 46.026004, 39.107585 ], [ 46.028369, 39.13175 ], [ 46.009803, 39.151334 ], [ 46.009044, 39.157704 ], [ 46.013881, 39.173634 ], [ 46.000417, 39.18656 ], [ 45.996659, 39.216302 ], [ 45.995723, 39.247827 ], [ 45.999979, 39.260082 ], [ 45.999163, 39.296812 ], [ 45.884828, 39.352878 ], [ 45.864671, 39.359898 ], [ 45.814453, 39.365686 ], [ 45.797566, 39.379615 ], [ 45.794758, 39.386614 ], [ 45.796336, 39.400819 ], [ 45.824801, 39.439285 ], [ 45.840001, 39.470278 ], [ 45.836682, 39.479459 ], [ 45.826669, 39.488519 ], [ 45.823374, 39.495371 ], [ 45.825741, 39.528482 ], [ 45.817994, 39.545721 ], [ 45.799515, 39.563851 ], [ 45.790253, 39.577246 ], [ 45.77681, 39.586976 ], [ 45.744887, 39.591814 ], [ 45.707693, 39.606468 ], [ 45.697219, 39.605308 ], [ 45.686271, 39.598173 ], [ 45.669533, 39.581358 ], [ 45.650754, 39.571587 ], [ 45.636494, 39.567338 ], [ 45.610214, 39.564963 ], [ 45.579454, 39.551194 ], [ 45.546266, 39.541335 ], [ 45.537533, 39.536008 ], [ 45.509482, 39.51075 ], [ 45.500203, 39.505919 ], [ 45.48962, 39.50322 ], [ 45.485831, 39.502253 ], [ 45.474671, 39.502804 ], [ 45.46366, 39.503347 ], [ 45.457022, 39.504347 ], [ 45.453146, 39.507443 ], [ 45.442152, 39.527277 ], [ 45.433292, 39.533878 ], [ 45.411252, 39.533455 ], [ 45.382387, 39.545579 ], [ 45.350959, 39.551246 ], [ 45.339662, 39.554676 ], [ 45.331446, 39.560035 ], [ 45.328942, 39.567105 ], [ 45.303723, 39.600862 ], [ 45.286038, 39.610966 ], [ 45.267763, 39.61411 ], [ 45.257893, 39.613904 ], [ 45.249194, 39.610307 ], [ 45.234942, 39.596953 ], [ 45.229346, 39.586506 ], [ 45.226026, 39.583825 ], [ 45.214197, 39.582806 ], [ 45.198499, 39.587276 ], [ 45.191461, 39.594906 ], [ 45.186049, 39.608147 ], [ 45.18978, 39.622425 ], [ 45.185448, 39.637777 ], [ 45.19373, 39.653375 ], [ 45.192734, 39.677933 ], [ 45.186054, 39.693995 ], [ 45.175796, 39.70736 ], [ 45.157123, 39.718358 ], [ 45.151415, 39.730439 ], [ 45.147166, 39.739431 ], [ 45.128019, 39.762914 ], [ 45.100564, 39.779557 ], [ 45.090392, 39.783036 ], [ 45.088466, 39.783595 ], [ 45.081989, 39.785472 ], [ 45.066332, 39.785452 ], [ 45.062073, 39.783595 ], [ 45.058682, 39.782116 ], [ 45.018884, 39.753164 ], [ 45.0, 39.744079 ], [ 44.991334, 39.739938 ], [ 44.9687, 39.732862 ], [ 44.953448, 39.730039 ], [ 44.900145, 39.72928 ], [ 44.894891, 39.729205 ], [ 44.835184, 39.724158 ], [ 44.800945, 39.720574 ], [ 44.77192, 39.71372 ], [ 44.768336, 39.714149 ], [ 44.750037, 39.727068 ], [ 44.642252, 39.803113 ], [ 44.592699, 39.831993 ], [ 44.561023, 39.878361 ], [ 44.550987, 39.899445 ], [ 44.520142, 39.929994 ], [ 44.486528, 39.963271 ], [ 44.397739, 40.004153 ], [ 44.291052, 40.042987 ], [ 44.284215, 40.045475 ], [ 44.266367, 40.042987 ], [ 44.203245, 40.034187 ], [ 44.044554, 40.010474 ], [ 43.97211, 40.010842 ], [ 43.9334, 40.0138 ], [ 43.929846, 40.014661 ], [ 43.910019, 40.019464 ], [ 43.842213, 40.042987 ], [ 43.67002, 40.102687 ], [ 43.649881, 40.12395 ], [ 43.653923, 40.130377 ], [ 43.669149, 40.14607 ], [ 43.714594, 40.158518 ], [ 43.661757, 40.274113 ], [ 43.607235, 40.368551 ], [ 43.583346, 40.452225 ], [ 43.593133, 40.500697 ], [ 43.653828, 40.532575 ], [ 43.655135, 40.534378 ], [ 43.702648, 40.599912 ], [ 43.71738, 40.620217 ], [ 43.740906, 40.665913 ], [ 43.750184, 40.74498 ], [ 43.742303, 40.770574 ], [ 43.727064, 40.804735 ], [ 43.670588, 40.928148 ], [ 43.66399, 40.93383 ], [ 43.595607, 40.992686 ], [ 43.567399, 40.996726 ], [ 43.564729, 40.997108 ], [ 43.485794, 41.02216 ], [ 43.469638, 41.057345 ], [ 43.454701, 41.094861 ], [ 43.473827, 41.123297 ], [ 43.495263, 41.127503 ], [ 43.509251, 41.13339 ], [ 43.528232, 41.134376 ], [ 43.543639, 41.140239 ], [ 43.567399, 41.144223 ], [ 43.590436, 41.138898 ], [ 43.596777, 41.13112 ], [ 43.601876, 41.129216 ], [ 43.633552, 41.129378 ], [ 43.664882, 41.135243 ], [ 43.68206, 41.133856 ], [ 43.751466, 41.110394 ], [ 43.800411, 41.143201 ], [ 43.839687, 41.160313 ], [ 43.881305, 41.163829 ], [ 43.913358, 41.171965 ], [ 43.929846, 41.174396 ], [ 43.938575, 41.175683 ], [ 43.948566, 41.173714 ], [ 43.95248, 41.166944 ], [ 43.96206, 41.165568 ], [ 43.99739, 41.181355 ], [ 44.018875, 41.186944 ], [ 44.05443, 41.190602 ], [ 44.085668, 41.201366 ], [ 44.090181, 41.191582 ], [ 44.094767, 41.189281 ], [ 44.123871, 41.186736 ], [ 44.159801, 41.189243 ], [ 44.17072, 41.203243 ], [ 44.181266, 41.228126 ], [ 44.180835, 41.245909 ], [ 44.202688, 41.236425 ], [ 44.21471, 41.233831 ], [ 44.239735, 41.237769 ], [ 44.250006, 41.232476 ], [ 44.272177, 41.213597 ], [ 44.282426, 41.210152 ], [ 44.297624, 41.214495 ], [ 44.310096, 41.214483 ], [ 44.327554, 41.205471 ], [ 44.340931, 41.20341 ], [ 44.34601, 41.20614 ], [ 44.34547, 41.224819 ], [ 44.35682, 41.230639 ], [ 44.365419, 41.226205 ], [ 44.390063, 41.219456 ], [ 44.415244, 41.200554 ], [ 44.437797, 41.193358 ], [ 44.452951, 41.191242 ], [ 44.468316, 41.181607 ], [ 44.508832, 41.194338 ], [ 44.515828, 41.205561 ], [ 44.527721, 41.214915 ], [ 44.530773, 41.223371 ], [ 44.535436, 41.225643 ], [ 44.545661, 41.224059 ], [ 44.538538, 41.216107 ], [ 44.541183, 41.209566 ], [ 44.534412, 41.201889 ], [ 44.5359, 41.197364 ], [ 44.547773, 41.195198 ], [ 44.557443, 41.202525 ], [ 44.569783, 41.206304 ], [ 44.576583, 41.205924 ], [ 44.579593, 41.211624 ], [ 44.589328, 41.210341 ], [ 44.584906, 41.197869 ], [ 44.594686, 41.195626 ], [ 44.606106, 41.218866 ], [ 44.605523, 41.22996 ], [ 44.608996, 41.239127 ], [ 44.612545, 41.240572 ], [ 44.646492, 41.234178 ], [ 44.685171, 41.239291 ], [ 44.681631, 41.228101 ], [ 44.684478, 41.222074 ], [ 44.698884, 41.216042 ], [ 44.725517, 41.224291 ], [ 44.723672, 41.211043 ], [ 44.728299, 41.204558 ], [ 44.733338, 41.205829 ], [ 44.739664, 41.212466 ], [ 44.745037, 41.21259 ], [ 44.750037, 41.219078 ], [ 44.790494, 41.221375 ], [ 44.795622, 41.228413 ], [ 44.810022, 41.215967 ], [ 44.816189, 41.214565 ], [ 44.841053, 41.21578 ], [ 44.849527, 41.209898 ], [ 44.857825, 41.207486 ], [ 44.881937, 41.204695 ], [ 44.898592, 41.211896 ], [ 44.889915, 41.220949 ], [ 44.868318, 41.218762 ], [ 44.850863, 41.228593 ], [ 44.826821, 41.231368 ], [ 44.818138, 41.236759 ], [ 44.806475, 41.249294 ], [ 44.802742, 41.259848 ], [ 44.807463, 41.269774 ], [ 44.806569, 41.287685 ], [ 44.818077, 41.299703 ], [ 44.832183, 41.296659 ], [ 44.846957, 41.284919 ], [ 44.852126, 41.275437 ], [ 44.87189, 41.275862 ], [ 44.88772, 41.268478 ], [ 44.897209, 41.273401 ], [ 44.912957, 41.259059 ], [ 44.932282, 41.25929 ], [ 44.939726, 41.257322 ], [ 44.959696, 41.258373 ], [ 44.977854, 41.280323 ], [ 44.992361, 41.28535 ], [ 45.002386, 41.292916 ], [ 45.013149, 41.296609 ], [ 45.021903, 41.275112 ], [ 45.043653, 41.252013 ], [ 45.046665, 41.242492 ], [ 45.04582, 41.235845 ], [ 45.037902, 41.224796 ], [ 45.012164, 41.208238 ], [ 45.011353, 41.201342 ], [ 45.015375, 41.196594 ], [ 45.078475, 41.193031 ], [ 45.110684, 41.209048 ], [ 45.124638, 41.210075 ], [ 45.132781, 41.205939 ], [ 45.166556, 41.163994 ], [ 45.192783, 41.159105 ], [ 45.204985, 41.15101 ], [ 45.202811, 41.147665 ], [ 45.190861, 41.144173 ], [ 45.177838, 41.131949 ], [ 45.165247, 41.126818 ], [ 45.133259, 41.119288 ], [ 45.08581, 41.114524 ], [ 45.074447, 41.108972 ], [ 45.068743, 41.10172 ], [ 45.069716, 41.092889 ], [ 45.09495, 41.06027 ], [ 45.109253, 41.056413 ], [ 45.120246, 41.060398 ], [ 45.12969, 41.077479 ], [ 45.117352, 41.085802 ], [ 45.117206, 41.091511 ], [ 45.123849, 41.094758 ], [ 45.146384, 41.096194 ], [ 45.154879, 41.091329 ], [ 45.157808, 41.066262 ], [ 45.165452, 41.051673 ], [ 45.17015, 41.049262 ], [ 45.182884, 41.050344 ], [ 45.191416, 41.047426 ], [ 45.20296, 41.037116 ], [ 45.215291, 41.020118 ], [ 45.221739, 41.017237 ], [ 45.241669, 41.018971 ], [ 45.261575, 41.017699 ], [ 45.265294, 41.020846 ], [ 45.269643, 41.032703 ], [ 45.289145, 41.039574 ], [ 45.29733, 41.03487 ], [ 45.317193, 41.005139 ], [ 45.33424, 41.002417 ], [ 45.34457, 41.00444 ], [ 45.4009, 41.027437 ], [ 45.427249, 41.029196 ], [ 45.429272, 41.023233 ], [ 45.411849, 41.000743 ], [ 45.409156, 40.979173 ], [ 45.411886, 40.971626 ], [ 45.424403, 40.968531 ], [ 45.455663, 40.978616 ], [ 45.464696, 40.977788 ], [ 45.470233, 40.972211 ], [ 45.471561, 40.959674 ], [ 45.474671, 40.953994 ], [ 45.475417, 40.952632 ], [ 45.493694, 40.941668 ], [ 45.493685, 40.93383 ], [ 45.493677, 40.927238 ], [ 45.511274, 40.926747 ], [ 45.525527, 40.912671 ], [ 45.552493, 40.907074 ], [ 45.569063, 40.896822 ], [ 45.58174, 40.89844 ], [ 45.591458, 40.892212 ], [ 45.59422, 40.867964 ], [ 45.594675, 40.863966 ], [ 45.587022, 40.843974 ], [ 45.579086, 40.832851 ], [ 45.567401, 40.82318 ], [ 45.48962, 40.777885 ], [ 45.474671, 40.769176 ], [ 45.44355, 40.751042 ], [ 45.411868, 40.738503 ], [ 45.397981, 40.713602 ], [ 45.375292, 40.693117 ], [ 45.359041, 40.671406 ], [ 45.355798, 40.656821 ], [ 45.358676, 40.651488 ], [ 45.371157, 40.641999 ], [ 45.371692, 40.62218 ], [ 45.376471, 40.615072 ], [ 45.387787, 40.610408 ], [ 45.415527, 40.610741 ], [ 45.437689, 40.600058 ], [ 45.448837, 40.586171 ], [ 45.439306, 40.563308 ], [ 45.44428, 40.547623 ], [ 45.437345, 40.534378 ], [ 45.434656, 40.529243 ], [ 45.434143, 40.522024 ], [ 45.437971, 40.512584 ], [ 45.474671, 40.489389 ], [ 45.483441, 40.483845 ], [ 45.48962, 40.482998 ], [ 45.523935, 40.478292 ], [ 45.544649, 40.46932 ], [ 45.554598, 40.458591 ], [ 45.566072, 40.438122 ], [ 45.601307, 40.412806 ], [ 45.64289, 40.372204 ], [ 45.691844, 40.365052 ], [ 45.755535, 40.347666 ], [ 45.810316, 40.326105 ], [ 45.84962, 40.29757 ], [ 45.863752, 40.29626 ], [ 45.903142, 40.298582 ], [ 45.913534, 40.296841 ], [ 45.947765, 40.272735 ], [ 45.953069, 40.266762 ], [ 45.951907, 40.262726 ], [ 45.944407, 40.260392 ], [ 45.915733, 40.267182 ], [ 45.911146, 40.266375 ], [ 45.908177, 40.261617 ], [ 45.910143, 40.255232 ], [ 45.917269, 40.250557 ], [ 45.95042, 40.240565 ], [ 45.973118, 40.220541 ], [ 45.976691, 40.213068 ], [ 45.965158, 40.1975 ], [ 45.956288, 40.149572 ], [ 45.947665, 40.135094 ], [ 45.934812, 40.123206 ], [ 45.904993, 40.110687 ], [ 45.896859, 40.103059 ], [ 45.89484, 40.095548 ], [ 45.896486, 40.071825 ], [ 45.884824, 40.031595 ], [ 45.881442, 40.027482 ], [ 45.875359, 40.024893 ], [ 45.856832, 40.024252 ], [ 45.812347, 40.000925 ], [ 45.788797, 40.008189 ], [ 45.755145, 40.030814 ], [ 45.731945, 40.034702 ], [ 45.655143, 40.040754 ], [ 45.636088, 40.039693 ], [ 45.625099, 40.033109 ], [ 45.610536, 40.017554 ], [ 45.60943, 40.008513 ], [ 45.613076, 39.998385 ], [ 45.621199, 39.984622 ], [ 45.633456, 39.974713 ], [ 45.664695, 39.971879 ], [ 45.715017, 39.959915 ], [ 45.746589, 39.941277 ], [ 45.787855, 39.93772 ], [ 45.806817, 39.929994 ], [ 45.811184, 39.923792 ], [ 45.8117, 39.905383 ], [ 45.825874, 39.854416 ], [ 45.829027, 39.835907 ], [ 45.831979, 39.83104 ], [ 45.837196, 39.826921 ], [ 45.844896, 39.822865 ], [ 45.886783, 39.813097 ], [ 45.941754, 39.793493 ], [ 45.977327, 39.783595 ], [ 45.996019, 39.778392 ], [ 45.999976, 39.774417 ], [ 46.00302, 39.761563 ], [ 46.008736, 39.753112 ], [ 46.011758, 39.75038 ], [ 46.015362, 39.748171 ], [ 46.022449, 39.744921 ], [ 46.025005, 39.742606 ], [ 46.028235, 39.740208 ], [ 46.032594, 39.735873 ], [ 46.033845, 39.733491 ], [ 46.034213, 39.730244 ], [ 46.036852, 39.726581 ], [ 46.038053, 39.724027 ], [ 46.040518, 39.72009 ], [ 46.044036, 39.717734 ], [ 46.052015, 39.714087 ], [ 46.057641, 39.711194 ], [ 46.064099, 39.708376 ], [ 46.06881, 39.707172 ], [ 46.070893, 39.706175 ], [ 46.072869, 39.704781 ], [ 46.074155, 39.702909 ], [ 46.075183, 39.700648 ], [ 46.075609, 39.698505 ], [ 46.074293, 39.696713 ], [ 46.066133, 39.692518 ], [ 46.064333, 39.690897 ], [ 46.064813, 39.689069 ], [ 46.068629, 39.685 ], [ 46.071577, 39.682642 ], [ 46.075229, 39.680402 ], [ 46.080446, 39.678068 ], [ 46.085387, 39.677679 ], [ 46.090404, 39.677944 ], [ 46.094802, 39.678642 ], [ 46.101402, 39.680123 ], [ 46.105666, 39.678603 ], [ 46.111454, 39.674348 ], [ 46.114883, 39.671826 ], [ 46.117939, 39.669356 ], [ 46.12186, 39.665693 ], [ 46.126855, 39.662755 ], [ 46.131285, 39.659586 ], [ 46.148885, 39.650327 ], [ 46.159936, 39.645519 ], [ 46.164896, 39.642397 ], [ 46.167794, 39.639637 ], [ 46.170269, 39.636214 ], [ 46.173745, 39.629735 ], [ 46.175462, 39.624458 ], [ 46.175494, 39.620407 ], [ 46.174094, 39.617024 ], [ 46.172293, 39.614327 ], [ 46.172584, 39.610788 ], [ 46.175371, 39.607058 ], [ 46.179082, 39.600815 ], [ 46.177967, 39.597484 ], [ 46.177319, 39.594433 ], [ 46.176157, 39.591428 ], [ 46.175881, 39.588116 ], [ 46.179682, 39.583978 ], [ 46.184284, 39.582233 ], [ 46.187622, 39.58223 ], [ 46.189474, 39.583374 ], [ 46.191078, 39.587741 ], [ 46.200235, 39.602209 ], [ 46.207482, 39.605813 ], [ 46.211544, 39.606922 ], [ 46.219076, 39.607956 ], [ 46.225846, 39.606265 ], [ 46.236268, 39.604777 ], [ 46.241792, 39.603257 ], [ 46.247245, 39.602654 ], [ 46.252083, 39.602439 ], [ 46.256054, 39.602877 ], [ 46.260821, 39.603787 ], [ 46.267334, 39.605772 ], [ 46.278619, 39.610446 ], [ 46.286835, 39.613241 ], [ 46.299864, 39.619638 ], [ 46.3096, 39.623612 ], [ 46.318412, 39.627981 ], [ 46.327054, 39.631669 ], [ 46.34286, 39.635694 ], [ 46.346719, 39.636409 ], [ 46.349963, 39.63701 ], [ 46.356717, 39.638046 ], [ 46.368066, 39.638645 ], [ 46.372087, 39.637489 ], [ 46.373771, 39.635944 ], [ 46.377195, 39.63046 ], [ 46.377796, 39.627501 ], [ 46.378897, 39.624869 ], [ 46.380202, 39.623474 ], [ 46.390146, 39.619135 ], [ 46.399648, 39.611175 ], [ 46.406298, 39.613573 ], [ 46.415767, 39.622724 ], [ 46.422657, 39.623143 ], [ 46.428098, 39.620693 ], [ 46.429727, 39.616106 ], [ 46.426403, 39.588197 ], [ 46.42922, 39.579794 ], [ 46.437211, 39.573817 ], [ 46.445133, 39.573145 ], [ 46.453759, 39.578279 ], [ 46.466036, 39.574962 ], [ 46.479828, 39.582316 ], [ 46.530649, 39.586923 ], [ 46.536977, 39.584603 ], [ 46.548446, 39.574121 ], [ 46.561737, 39.568181 ], [ 46.572768, 39.549407 ], [ 46.570468, 39.544496 ], [ 46.556425, 39.545449 ], [ 46.54579, 39.542782 ], [ 46.535574, 39.531697 ], [ 46.510792, 39.520777 ], [ 46.505741, 39.515428 ], [ 46.510837, 39.500159 ], [ 46.542742, 39.475876 ], [ 46.547639, 39.466436 ], [ 46.540456, 39.46595 ], [ 46.515879, 39.472576 ], [ 46.505291, 39.48206 ], [ 46.496435, 39.483046 ], [ 46.485444, 39.476179 ], [ 46.468699, 39.453799 ], [ 46.46192, 39.449541 ], [ 46.453815, 39.44932 ], [ 46.426779, 39.455216 ], [ 46.407658, 39.454366 ], [ 46.401938, 39.448109 ], [ 46.398066, 39.435694 ], [ 46.38705, 39.42424 ], [ 46.407767, 39.379665 ], [ 46.427967, 39.356789 ], [ 46.476165, 39.329781 ], [ 46.4849, 39.331734 ], [ 46.500816, 39.343474 ], [ 46.506512, 39.343063 ], [ 46.535836, 39.312387 ], [ 46.537528, 39.303848 ], [ 46.531522, 39.291906 ], [ 46.538721, 39.269934 ], [ 46.549515, 39.257192 ], [ 46.577719, 39.248106 ], [ 46.585632, 39.232857 ], [ 46.592024, 39.227591 ], [ 46.623765, 39.22499 ], [ 46.629106, 39.221619 ], [ 46.621728, 39.215733 ], [ 46.596788, 39.211605 ], [ 46.580284, 39.203309 ], [ 46.560306, 39.181501 ], [ 46.541158, 39.165214 ], [ 46.536288, 39.171265 ], [ 46.532703, 39.202168 ], [ 46.52605, 39.208168 ], [ 46.513063, 39.204949 ], [ 46.492889, 39.187262 ], [ 46.468754, 39.195275 ], [ 46.454095, 39.196997 ], [ 46.444076, 39.194669 ], [ 46.439922, 39.189832 ], [ 46.439435, 39.171443 ], [ 46.44713, 39.153015 ], [ 46.475284, 39.143224 ], [ 46.489867, 39.147436 ], [ 46.497776, 39.144233 ], [ 46.491411, 39.132294 ], [ 46.491502, 39.126591 ], [ 46.507993, 39.115529 ], [ 46.508683, 39.105259 ], [ 46.512039, 39.09944 ], [ 46.528769, 39.090871 ], [ 46.537506, 39.079968 ], [ 46.536357, 39.074843 ], [ 46.526027, 39.067598 ], [ 46.523978, 39.060359 ], [ 46.53034, 39.054479 ], [ 46.545948, 39.051978 ], [ 46.55202, 39.048048 ], [ 46.524603, 38.98791 ], [ 46.524357, 38.986519 ], [ 46.523632, 38.984752 ], [ 46.523877, 38.981782 ], [ 46.527243, 38.976341 ], [ 46.528012, 38.974336 ], [ 46.528191, 38.97239 ], [ 46.527581, 38.969451 ], [ 46.524926, 38.965812 ], [ 46.518424, 38.960476 ], [ 46.516622, 38.957956 ], [ 46.514148, 38.95178 ], [ 46.51364, 38.947469 ], [ 46.514856, 38.943682 ], [ 46.520858, 38.932864 ], [ 46.525163, 38.926572 ], [ 46.536228, 38.913441 ], [ 46.541241, 38.906125 ], [ 46.543185, 38.897309 ], [ 46.543046, 38.892278 ], [ 46.543414, 38.888093 ], [ 46.545804, 38.878105 ], [ 46.539675, 38.870719 ], [ 46.533404, 38.868471 ], [ 46.525645, 38.875604 ], [ 46.525778, 38.885125 ], [ 46.523128, 38.888148 ], [ 46.506539, 38.885654 ], [ 46.494734, 38.889312 ], [ 46.483646, 38.886033 ], [ 46.474153, 38.889544 ], [ 46.465761, 38.889399 ], [ 46.453806, 38.898414 ], [ 46.431973, 38.894058 ], [ 46.424356, 38.884766 ], [ 46.420687, 38.883714 ], [ 46.415885, 38.891564 ], [ 46.394879, 38.90357 ], [ 46.370997, 38.90942 ], [ 46.36258, 38.916097 ], [ 46.346719, 38.916191 ], [ 46.341232, 38.916224 ], [ 46.334827, 38.909948 ], [ 46.318513, 38.902213 ], [ 46.304219, 38.905347 ], [ 46.299122, 38.901144 ], [ 46.283892, 38.900155 ], [ 46.277325, 38.895929 ], [ 46.26905, 38.8942 ], [ 46.266112, 38.886534 ], [ 46.251386, 38.878781 ], [ 46.246227, 38.873315 ], [ 46.218057, 38.864039 ], [ 46.214602, 38.854362 ], [ 46.194747, 38.851461 ], [ 46.183212, 38.841476 ], [ 46.156285, 38.841321 ], [ 46.140659, 38.844944 ] ], [ [ 44.98029, 41.070666 ], [ 44.980581, 41.064668 ], [ 44.9825, 41.059729 ], [ 44.984777, 41.054924 ], [ 44.987762, 41.050598 ], [ 44.991916, 41.046401 ], [ 44.994974, 41.042005 ], [ 45.0, 41.03917 ], [ 45.009936, 41.0331 ], [ 45.016826, 41.031149 ], [ 45.025829, 41.030572 ], [ 45.033222, 41.031434 ], [ 45.039698, 41.033062 ], [ 45.0451, 41.03521 ], [ 45.050106, 41.038703 ], [ 45.054147, 41.042217 ], [ 45.057134, 41.046541 ], [ 45.058865, 41.05281 ], [ 45.057767, 41.058297 ], [ 45.054524, 41.062718 ], [ 45.047367, 41.070678 ], [ 45.039497, 41.077721 ], [ 45.034412, 41.080872 ], [ 45.030242, 41.084996 ], [ 45.024308, 41.087528 ], [ 45.017577, 41.089147 ], [ 45.013567, 41.089679 ], [ 45.007464, 41.089698 ], [ 45.0, 41.088599 ], [ 44.994725, 41.087212 ], [ 44.989379, 41.085082 ], [ 44.984251, 41.081977 ], [ 44.981948, 41.076672 ], [ 44.98029, 41.070666 ] ], [ [ 45.195, 40.99111 ], [ 45.19805, 40.98667 ], [ 45.206389, 40.97944 ], [ 45.22139, 40.970279 ], [ 45.22916, 40.969159 ], [ 45.23555, 40.970829 ], [ 45.24139, 40.973059 ], [ 45.245281, 40.976939 ], [ 45.245281, 40.98305 ], [ 45.23694, 40.99028 ], [ 45.23194, 40.99333 ], [ 45.22805, 40.99694 ], [ 45.21806, 41.00306 ], [ 45.21195, 41.00417 ], [ 45.20472, 41.00472 ], [ 45.19917, 41.00222 ], [ 45.19583, 40.99777 ], [ 45.195, 40.99111 ] ], [ [ 44.91571, 39.81596 ], [ 44.91623, 39.81054 ], [ 44.91657, 39.80314 ], [ 44.92096, 39.79273 ], [ 44.9251, 39.78739 ], [ 44.928807, 39.783595 ], [ 44.932809, 39.782697 ], [ 44.935106, 39.783595 ], [ 44.93662, 39.78463 ], [ 44.94187, 39.7929 ], [ 44.94428, 39.79944 ], [ 44.94523, 39.80546 ], [ 44.94721, 39.81372 ], [ 44.916231, 39.818619 ], [ 44.91571, 39.81596 ] ] ], [ [ [ 45.47186, 40.59758 ], [ 45.474671, 40.61455 ], [ 45.481697, 40.656463 ], [ 45.489306, 40.665471 ], [ 45.511831, 40.671906 ], [ 45.525424, 40.668655 ], [ 45.539936, 40.659984 ], [ 45.547467, 40.645886 ], [ 45.542788, 40.626024 ], [ 45.52039, 40.611037 ], [ 45.483303, 40.591808 ], [ 45.474671, 40.591304 ], [ 45.47186, 40.59758 ] ] ] ] } }
]
}
