{
"type": "FeatureCollection",
"name": "Aruba",
"crs": { "type": "name", "properties": { "name": "urn:ogc:def:crs:OGC:1.3:CRS84" } },
"features": [
{ "type": "Feature", "properties": { "id": "AW", "CNTR_ID": "AW", "CNTR_NAME": "Aruba-Aruba", "NAME_ENGL": "Aruba", "ISO3_CODE": "ABW", "FID": "AW" }, "geometry": { "type": "MultiPolygon", "coordinates": [ [ [ [ -70.06312, 12.539823 ], [ -70.045025, 12.579112 ], [ -70.053437, 12.609356 ], [ -70.058789, 12.616608 ], [ -70.057044, 12.621435 ], [ -70.048398, 12.62069 ], [ -70.023721, 12.602423 ], [ -70.013127, 12.585748 ], [ -69.987871, 12.559942 ], [ -69.966209, 12.548497 ], [ -69.958148, 12.543758 ], [ -69.956199, 12.538695 ], [ -69.945021, 12.538189 ], [ -69.93828, 12.532299 ], [ -69.930265, 12.525297 ], [ -69.927668, 12.517802 ], [ -69.91764, 12.506408 ], [ -69.909202, 12.501269 ], [ -69.896074, 12.48556 ], [ -69.887097, 12.48101 ], [ -69.866689, 12.417853 ], [ -69.875423, 12.412757 ], [ -69.883599, 12.413971 ], [ -69.890117, 12.421695 ], [ -69.901575, 12.424434 ], [ -69.909356, 12.431149 ], [ -69.920939, 12.431555 ], [ -69.926467, 12.439385 ], [ -69.93828, 12.442754 ], [ -69.943813, 12.444332 ], [ -69.966209, 12.462314 ], [ -69.983661, 12.476172 ], [ -69.997859, 12.480438 ], [ -70.017211, 12.498825 ], [ -70.027809, 12.503585 ], [ -70.032368, 12.513186 ], [ -70.047197, 12.523532 ], [ -70.06312, 12.539823 ] ] ] ] } }
]
}
