{
"type": "FeatureCollection",
"name": "Arunachal Pradesh",
"crs": { "type": "name", "properties": { "name": "urn:ogc:def:crs:OGC:1.3:CRS84" } },
"features": [
{ "type": "Feature", "properties": { "id": "XD", "CNTR_ID": "XD", "CNTR_NAME": "Arunashal Pradesh (Disputed Territory)", "NAME_ENGL": "Arunachal Pradesh", "ISO3_CODE": "XD", "FID": "XD" }, "geometry": { "type": "MultiPolygon", "coordinates": [ [ [ [ 97.05753, 27.74408 ], [ 97.054973, 27.766378 ], [ 97.048657, 27.779821 ], [ 97.048313, 27.805711 ], [ 97.042921, 27.82225 ], [ 97.032179, 27.822565 ], [ 96.997436, 27.813076 ], [ 96.991964, 27.815984 ], [ 96.981401, 27.830581 ], [ 96.969607, 27.859374 ], [ 96.965846, 27.862991 ], [ 96.915799, 27.884337 ], [ 96.904268, 27.883885 ], [ 96.89823, 27.883649 ], [ 96.871248, 27.876164 ], [ 96.860789, 27.877765 ], [ 96.814385, 27.896998 ], [ 96.803184, 27.908635 ], [ 96.78771, 27.932565 ], [ 96.761775, 27.937098 ], [ 96.737832, 27.949329 ], [ 96.725174, 27.955795 ], [ 96.701947, 27.960633 ], [ 96.685003, 27.954868 ], [ 96.674096, 27.958394 ], [ 96.657541, 27.970527 ], [ 96.650498, 27.982628 ], [ 96.637124, 27.994546 ], [ 96.631722, 28.018046 ], [ 96.619498, 28.034321 ], [ 96.606533, 28.045853 ], [ 96.591316, 28.046834 ], [ 96.577001, 28.063769 ], [ 96.552844, 28.067087 ], [ 96.545783, 28.074332 ], [ 96.529531, 28.079486 ], [ 96.518757, 28.081816 ], [ 96.506193, 28.072263 ], [ 96.501974, 28.074342 ], [ 96.491914, 28.088595 ], [ 96.485422, 28.112575 ], [ 96.473588, 28.132116 ], [ 96.45826, 28.150295 ], [ 96.442103, 28.159262 ], [ 96.425079, 28.162909 ], [ 96.39783, 28.154047 ], [ 96.39555, 28.14872 ], [ 96.400177, 28.133178 ], [ 96.397361, 28.127571 ], [ 96.392495, 28.125231 ], [ 96.3657, 28.124448 ], [ 96.299738, 28.144141 ], [ 96.292455, 28.153983 ], [ 96.283287, 28.183785 ], [ 96.28324, 28.217274 ], [ 96.273297, 28.230895 ], [ 96.265134, 28.234402 ], [ 96.230048, 28.231555 ], [ 96.202274, 28.221856 ], [ 96.177686, 28.217308 ], [ 96.134139, 28.214178 ], [ 96.098582, 28.217322 ], [ 96.090186, 28.214961 ], [ 96.064707, 28.1982 ], [ 96.01301, 28.195189 ], [ 95.986055, 28.203608 ], [ 95.936722, 28.243284 ], [ 95.916477, 28.241273 ], [ 95.908759, 28.244685 ], [ 95.903804, 28.255664 ], [ 95.899053, 28.281521 ], [ 95.874028, 28.300477 ], [ 95.853687, 28.294167 ], [ 95.832182, 28.298176 ], [ 95.824141, 28.296624 ], [ 95.786078, 28.274281 ], [ 95.773141, 28.277322 ], [ 95.767392, 28.278673 ], [ 95.739895, 28.278706 ], [ 95.714987, 28.268863 ], [ 95.686656, 28.262318 ], [ 95.671801, 28.256752 ], [ 95.588109, 28.212556 ], [ 95.536607, 28.190103 ], [ 95.437, 28.165326 ], [ 95.397556, 28.146533 ], [ 95.380024, 28.130799 ], [ 95.371127, 28.114694 ], [ 95.351642, 28.044469 ], [ 95.322743, 28.013153 ], [ 95.309409, 27.978999 ], [ 95.299757, 27.961992 ], [ 95.285438, 27.943758 ], [ 95.267777, 27.931154 ], [ 95.170571, 27.8942 ], [ 95.067022, 27.844476 ], [ 95.014957, 27.832433 ], [ 95.003069, 27.827485 ], [ 94.974591, 27.808181 ], [ 94.945974, 27.795038 ], [ 94.885258, 27.747107 ], [ 94.817953, 27.725378 ], [ 94.779121, 27.702721 ], [ 94.711502, 27.683081 ], [ 94.658429, 27.653426 ], [ 94.628919, 27.642267 ], [ 94.595685, 27.629698 ], [ 94.549438, 27.612205 ], [ 94.524339, 27.599979 ], [ 94.508914, 27.598993 ], [ 94.494887, 27.601696 ], [ 94.476891, 27.605164 ], [ 94.440651, 27.588607 ], [ 94.399183, 27.592124 ], [ 94.353552, 27.582166 ], [ 94.322457, 27.588831 ], [ 94.287199, 27.587527 ], [ 94.276068, 27.584058 ], [ 94.243285, 27.549687 ], [ 94.220331, 27.539591 ], [ 94.21057, 27.531808 ], [ 94.182982, 27.498407 ], [ 94.145039, 27.460866 ], [ 94.055673, 27.379398 ], [ 94.016886, 27.351864 ], [ 93.986191, 27.325735 ], [ 93.958586, 27.294277 ], [ 93.935041, 27.267437 ], [ 93.861836, 27.191482 ], [ 93.849048, 27.172874 ], [ 93.845579, 27.158892 ], [ 93.846162, 27.133605 ], [ 93.846868, 27.103045 ], [ 93.841251, 27.051141 ], [ 93.82967, 27.037827 ], [ 93.816494, 27.029618 ], [ 93.744047, 27.018709 ], [ 93.714986, 27.007386 ], [ 93.682866, 26.987126 ], [ 93.625793, 26.960033 ], [ 93.567512, 26.942127 ], [ 93.233698, 26.910612 ], [ 93.169037, 26.895009 ], [ 93.107527, 26.883562 ], [ 93.086015, 26.882618 ], [ 93.062592, 26.885686 ], [ 93.051676, 26.887116 ], [ 92.961459, 26.910566 ], [ 92.909477, 26.917966 ], [ 92.864483, 26.912211 ], [ 92.824175, 26.904449 ], [ 92.79864, 26.899531 ], [ 92.771949, 26.907231 ], [ 92.681573, 26.951149 ], [ 92.663903, 26.955976 ], [ 92.591617, 26.952692 ], [ 92.56735, 26.949435 ], [ 92.534168, 26.94049 ], [ 92.511572, 26.93278 ], [ 92.495598, 26.925457 ], [ 92.467288, 26.918372 ], [ 92.423114, 26.909284 ], [ 92.403859, 26.90611 ], [ 92.341801, 26.904021 ], [ 92.322606, 26.901885 ], [ 92.285388, 26.896048 ], [ 92.260647, 26.889311 ], [ 92.19711, 26.873591 ], [ 92.126344, 26.860725 ], [ 92.121705, 26.859882 ], [ 92.10793, 26.85827 ], [ 92.108317, 26.860725 ], [ 92.115178, 26.904276 ], [ 92.113594, 26.931214 ], [ 92.122885, 26.945817 ], [ 92.123159, 26.963224 ], [ 92.104701, 26.986689 ], [ 92.100859, 27.004216 ], [ 92.081228, 27.024657 ], [ 92.075056, 27.043649 ], [ 92.066186, 27.048728 ], [ 92.045526, 27.054763 ], [ 92.035977, 27.06609 ], [ 92.028473, 27.083445 ], [ 92.025698, 27.112623 ], [ 92.02714, 27.124195 ], [ 92.032317, 27.133605 ], [ 92.03506, 27.138591 ], [ 92.031653, 27.171632 ], [ 92.041235, 27.182321 ], [ 92.059766, 27.194255 ], [ 92.069075, 27.219792 ], [ 92.070215, 27.240448 ], [ 92.075254, 27.250599 ], [ 92.090666, 27.267286 ], [ 92.10702, 27.269117 ], [ 92.123614, 27.276468 ], [ 92.115027, 27.287703 ], [ 92.112663, 27.301133 ], [ 92.090426, 27.338218 ], [ 92.05306, 27.414199 ], [ 92.038608, 27.434358 ], [ 92.021417, 27.448029 ], [ 92.017819, 27.471533 ], [ 92.0127, 27.476935 ], [ 91.975236, 27.470212 ], [ 91.946682, 27.467954 ], [ 91.885145, 27.486825 ], [ 91.867232, 27.489155 ], [ 91.837945, 27.492966 ], [ 91.802758, 27.48449 ], [ 91.752867, 27.46652 ], [ 91.732669, 27.466499 ], [ 91.715283, 27.472113 ], [ 91.674757, 27.49372 ], [ 91.661447, 27.510721 ], [ 91.625588, 27.513512 ], [ 91.609285, 27.535142 ], [ 91.58391, 27.544629 ], [ 91.578127, 27.562564 ], [ 91.564512, 27.579628 ], [ 91.566881, 27.590461 ], [ 91.581035, 27.603858 ], [ 91.564309, 27.622802 ], [ 91.561417, 27.631367 ], [ 91.562693, 27.64238 ], [ 91.571216, 27.655615 ], [ 91.622705, 27.698274 ], [ 91.626475, 27.704707 ], [ 91.625531, 27.710777 ], [ 91.634263, 27.724997 ], [ 91.635063, 27.748131 ], [ 91.64209, 27.75846 ], [ 91.677651, 27.763635 ], [ 91.733333, 27.762903 ], [ 91.782963, 27.756268 ], [ 91.823988, 27.766636 ], [ 91.850607, 27.754881 ], [ 91.894363, 27.722308 ], [ 91.899483, 27.723832 ], [ 91.910867, 27.734576 ], [ 91.920911, 27.737532 ], [ 91.936769, 27.735188 ], [ 91.968423, 27.72545 ], [ 91.98506, 27.72446 ], [ 92.018289, 27.733286 ], [ 92.03837, 27.742676 ], [ 92.059651, 27.760506 ], [ 92.085502, 27.788997 ], [ 92.104715, 27.80067 ], [ 92.186469, 27.829392 ], [ 92.230999, 27.85957 ], [ 92.262159, 27.872992 ], [ 92.274543, 27.874191 ], [ 92.281663, 27.871003 ], [ 92.290717, 27.855559 ], [ 92.307989, 27.809322 ], [ 92.313856, 27.802096 ], [ 92.323925, 27.797984 ], [ 92.332594, 27.799269 ], [ 92.347236, 27.808218 ], [ 92.362778, 27.841807 ], [ 92.368017, 27.846302 ], [ 92.377653, 27.841994 ], [ 92.386585, 27.810822 ], [ 92.395512, 27.804996 ], [ 92.403721, 27.811439 ], [ 92.413782, 27.84297 ], [ 92.423518, 27.85245 ], [ 92.43816, 27.850058 ], [ 92.449276, 27.830401 ], [ 92.455413, 27.827191 ], [ 92.476705, 27.833736 ], [ 92.501237, 27.851282 ], [ 92.533929, 27.853258 ], [ 92.55416, 27.861077 ], [ 92.572866, 27.875821 ], [ 92.59273, 27.905728 ], [ 92.599998, 27.907442 ], [ 92.624399, 27.905661 ], [ 92.63278, 27.908228 ], [ 92.675813, 27.936816 ], [ 92.704174, 27.948 ], [ 92.718703, 27.961109 ], [ 92.724098, 27.977769 ], [ 92.719822, 28.001189 ], [ 92.722678, 28.020491 ], [ 92.719474, 28.030025 ], [ 92.709253, 28.038531 ], [ 92.678671, 28.048967 ], [ 92.673473, 28.053901 ], [ 92.669775, 28.06443 ], [ 92.669954, 28.073855 ], [ 92.68113, 28.107842 ], [ 92.690493, 28.121154 ], [ 92.726978, 28.137994 ], [ 92.746625, 28.159844 ], [ 92.760039, 28.167618 ], [ 92.783991, 28.172049 ], [ 92.819187, 28.17045 ], [ 92.865514, 28.184214 ], [ 92.903792, 28.21041 ], [ 92.925441, 28.238822 ], [ 92.955587, 28.261163 ], [ 92.969532, 28.263736 ], [ 93.000984, 28.260338 ], [ 93.014773, 28.262842 ], [ 93.022236, 28.275673 ], [ 93.029697, 28.321023 ], [ 93.035513, 28.328504 ], [ 93.043115, 28.327524 ], [ 93.056608, 28.31511 ], [ 93.067384, 28.313091 ], [ 93.078772, 28.320192 ], [ 93.091518, 28.346179 ], [ 93.107082, 28.356603 ], [ 93.121874, 28.357373 ], [ 93.194079, 28.348338 ], [ 93.212268, 28.351111 ], [ 93.224444, 28.359431 ], [ 93.231785, 28.370694 ], [ 93.235724, 28.412675 ], [ 93.244299, 28.44924 ], [ 93.240722, 28.472681 ], [ 93.221595, 28.526308 ], [ 93.22192, 28.540927 ], [ 93.233681, 28.563711 ], [ 93.300357, 28.635919 ], [ 93.321498, 28.650548 ], [ 93.346594, 28.660352 ], [ 93.358353, 28.660121 ], [ 93.372429, 28.651504 ], [ 93.383539, 28.650599 ], [ 93.417908, 28.666074 ], [ 93.565189, 28.68547 ], [ 93.61306, 28.685544 ], [ 93.641302, 28.677092 ], [ 93.67338, 28.674935 ], [ 93.684506, 28.682183 ], [ 93.689063, 28.697225 ], [ 93.693873, 28.701276 ], [ 93.707861, 28.702008 ], [ 93.727129, 28.690413 ], [ 93.744965, 28.693792 ], [ 93.766124, 28.708373 ], [ 93.82433, 28.761998 ], [ 93.833602, 28.766633 ], [ 93.882351, 28.770758 ], [ 93.927035, 28.767205 ], [ 93.936974, 28.770433 ], [ 93.948694, 28.781413 ], [ 93.951583, 28.792448 ], [ 93.93189, 28.817004 ], [ 93.930289, 28.825114 ], [ 93.933609, 28.830982 ], [ 93.950685, 28.835703 ], [ 93.96905, 28.845259 ], [ 93.977255, 28.844964 ], [ 93.992019, 28.839531 ], [ 94.002939, 28.841517 ], [ 94.023932, 28.856937 ], [ 94.046817, 28.865833 ], [ 94.055893, 28.876672 ], [ 94.05564, 28.896873 ], [ 94.034191, 28.965011 ], [ 94.043264, 28.979862 ], [ 94.055567, 28.98593 ], [ 94.079956, 28.986194 ], [ 94.095899, 28.979135 ], [ 94.124181, 28.956613 ], [ 94.134195, 28.955759 ], [ 94.143921, 28.971468 ], [ 94.169229, 28.992087 ], [ 94.194395, 29.039484 ], [ 94.216643, 29.06991 ], [ 94.264429, 29.112468 ], [ 94.277817, 29.130277 ], [ 94.289529, 29.138365 ], [ 94.310569, 29.147031 ], [ 94.352336, 29.145326 ], [ 94.362441, 29.148102 ], [ 94.389134, 29.184381 ], [ 94.424294, 29.213472 ], [ 94.436735, 29.216648 ], [ 94.449478, 29.214487 ], [ 94.458276, 29.215665 ], [ 94.482267, 29.227304 ], [ 94.494887, 29.230514 ], [ 94.529826, 29.223707 ], [ 94.544532, 29.22448 ], [ 94.552682, 29.229571 ], [ 94.570895, 29.254675 ], [ 94.585919, 29.26886 ], [ 94.595685, 29.274395 ], [ 94.612977, 29.284194 ], [ 94.62329, 29.293401 ], [ 94.628919, 29.295464 ], [ 94.653219, 29.304372 ], [ 94.66464, 29.303684 ], [ 94.681315, 29.311585 ], [ 94.690128, 29.311926 ], [ 94.700188, 29.307726 ], [ 94.709967, 29.296019 ], [ 94.727183, 29.284407 ], [ 94.742116, 29.259597 ], [ 94.748171, 29.238373 ], [ 94.756718, 29.228393 ], [ 94.794033, 29.213452 ], [ 94.797263, 29.175354 ], [ 94.803724, 29.168009 ], [ 94.830506, 29.179116 ], [ 94.875192, 29.18022 ], [ 94.889239, 29.175985 ], [ 94.912319, 29.15909 ], [ 94.953212, 29.161221 ], [ 94.96803, 29.157447 ], [ 94.991063, 29.139411 ], [ 95.006611, 29.13059 ], [ 95.015026, 29.128912 ], [ 95.018087, 29.133214 ], [ 95.009484, 29.146698 ], [ 95.005314, 29.165839 ], [ 95.063782, 29.145515 ], [ 95.086375, 29.145432 ], [ 95.09704, 29.141254 ], [ 95.109843, 29.121529 ], [ 95.111027, 29.111841 ], [ 95.102907, 29.101026 ], [ 95.108046, 29.095108 ], [ 95.123278, 29.090564 ], [ 95.138742, 29.091514 ], [ 95.172265, 29.102421 ], [ 95.213751, 29.108255 ], [ 95.223893, 29.104136 ], [ 95.260603, 29.073519 ], [ 95.268559, 29.077344 ], [ 95.26879, 29.099103 ], [ 95.27513, 29.113155 ], [ 95.299476, 29.138253 ], [ 95.306003, 29.140176 ], [ 95.315931, 29.133187 ], [ 95.322743, 29.133143 ], [ 95.335058, 29.136889 ], [ 95.384736, 29.136897 ], [ 95.400202, 29.128644 ], [ 95.406059, 29.128444 ], [ 95.417192, 29.162678 ], [ 95.41777, 29.175468 ], [ 95.423479, 29.183278 ], [ 95.43766, 29.191207 ], [ 95.451687, 29.189144 ], [ 95.456996, 29.184033 ], [ 95.452357, 29.166765 ], [ 95.458736, 29.141664 ], [ 95.463303, 29.140414 ], [ 95.480661, 29.144611 ], [ 95.503563, 29.132619 ], [ 95.509794, 29.139177 ], [ 95.513034, 29.152386 ], [ 95.511859, 29.164854 ], [ 95.503039, 29.187174 ], [ 95.508044, 29.190448 ], [ 95.514477, 29.190486 ], [ 95.564173, 29.177117 ], [ 95.576577, 29.179833 ], [ 95.600341, 29.191664 ], [ 95.604367, 29.195985 ], [ 95.598571, 29.207289 ], [ 95.595685, 29.225948 ], [ 95.601282, 29.231487 ], [ 95.609443, 29.234509 ], [ 95.624942, 29.230133 ], [ 95.645388, 29.215498 ], [ 95.650961, 29.215961 ], [ 95.662851, 29.223564 ], [ 95.686935, 29.227305 ], [ 95.700298, 29.222331 ], [ 95.708578, 29.208091 ], [ 95.72687, 29.218563 ], [ 95.740362, 29.217831 ], [ 95.742973, 29.224524 ], [ 95.730265, 29.235961 ], [ 95.728768, 29.241305 ], [ 95.745531, 29.272173 ], [ 95.745868, 29.286679 ], [ 95.738749, 29.299018 ], [ 95.742465, 29.307513 ], [ 95.758471, 29.318071 ], [ 95.773141, 29.324348 ], [ 95.799321, 29.335548 ], [ 95.820699, 29.347503 ], [ 95.824623, 29.347503 ], [ 95.835681, 29.342134 ], [ 95.839715, 29.334667 ], [ 95.839719, 29.325512 ], [ 95.845135, 29.318296 ], [ 95.873076, 29.314616 ], [ 95.886992, 29.327731 ], [ 95.931528, 29.347503 ], [ 95.93765, 29.356261 ], [ 95.948796, 29.362069 ], [ 95.953727, 29.362847 ], [ 95.965773, 29.368874 ], [ 95.975571, 29.371787 ], [ 95.982088, 29.371708 ], [ 95.993953, 29.367102 ], [ 95.998676, 29.367123 ], [ 96.010423, 29.377749 ], [ 96.019961, 29.40477 ], [ 96.044937, 29.434612 ], [ 96.061024, 29.448756 ], [ 96.065668, 29.450677 ], [ 96.087175, 29.453428 ], [ 96.098058, 29.452406 ], [ 96.107909, 29.447273 ], [ 96.118423, 29.426357 ], [ 96.126846, 29.414214 ], [ 96.141926, 29.404556 ], [ 96.142174, 29.40085 ], [ 96.179636, 29.355548 ], [ 96.184598, 29.347503 ], [ 96.190471, 29.329063 ], [ 96.191028, 29.304888 ], [ 96.215598, 29.269259 ], [ 96.251848, 29.236267 ], [ 96.260471, 29.235035 ], [ 96.275826, 29.238943 ], [ 96.296666, 29.237612 ], [ 96.312529, 29.256504 ], [ 96.346104, 29.264582 ], [ 96.363471, 29.283534 ], [ 96.375291, 29.282412 ], [ 96.39625, 29.250936 ], [ 96.394478, 29.244444 ], [ 96.37935, 29.222044 ], [ 96.366024, 29.21033 ], [ 96.362278, 29.187334 ], [ 96.355973, 29.180023 ], [ 96.3443, 29.173863 ], [ 96.288311, 29.163037 ], [ 96.256875, 29.165244 ], [ 96.240401, 29.149225 ], [ 96.22909, 29.149605 ], [ 96.223801, 29.146815 ], [ 96.216185, 29.122295 ], [ 96.198812, 29.094437 ], [ 96.190717, 29.091482 ], [ 96.175966, 29.09143 ], [ 96.157875, 29.084779 ], [ 96.131239, 29.081557 ], [ 96.12623, 29.077831 ], [ 96.14173, 29.070171 ], [ 96.154332, 29.057644 ], [ 96.16763, 29.023664 ], [ 96.180142, 29.009057 ], [ 96.192235, 28.987504 ], [ 96.191942, 28.979787 ], [ 96.186833, 28.971646 ], [ 96.177893, 28.965205 ], [ 96.160599, 28.959672 ], [ 96.155592, 28.953543 ], [ 96.154875, 28.930016 ], [ 96.168517, 28.914465 ], [ 96.173265, 28.90333 ], [ 96.179136, 28.900501 ], [ 96.189065, 28.901041 ], [ 96.201985, 28.911655 ], [ 96.231911, 28.926988 ], [ 96.320583, 29.015611 ], [ 96.334352, 29.021428 ], [ 96.352126, 29.035977 ], [ 96.389283, 29.040279 ], [ 96.442925, 29.039029 ], [ 96.503543, 29.073187 ], [ 96.514147, 29.074929 ], [ 96.518941, 29.069713 ], [ 96.517839, 29.062119 ], [ 96.496143, 29.023649 ], [ 96.483898, 28.995793 ], [ 96.481779, 28.981485 ], [ 96.495709, 28.961061 ], [ 96.504281, 28.959911 ], [ 96.516066, 28.96441 ], [ 96.518753, 28.963134 ], [ 96.52006, 28.943159 ], [ 96.534368, 28.929277 ], [ 96.541138, 28.916518 ], [ 96.539513, 28.894348 ], [ 96.543055, 28.877971 ], [ 96.580977, 28.821543 ], [ 96.610041, 28.799143 ], [ 96.622413, 28.779156 ], [ 96.615508, 28.746366 ], [ 96.603853, 28.727484 ], [ 96.590748, 28.717586 ], [ 96.5639, 28.706391 ], [ 96.545888, 28.713473 ], [ 96.532552, 28.713951 ], [ 96.499825, 28.683906 ], [ 96.474234, 28.679981 ], [ 96.474255, 28.670199 ], [ 96.489844, 28.653748 ], [ 96.493591, 28.642756 ], [ 96.488405, 28.628917 ], [ 96.450436, 28.599352 ], [ 96.432287, 28.581996 ], [ 96.424533, 28.579098 ], [ 96.415902, 28.586157 ], [ 96.411665, 28.584211 ], [ 96.409481, 28.580709 ], [ 96.415484, 28.56963 ], [ 96.413315, 28.564939 ], [ 96.373865, 28.550051 ], [ 96.354604, 28.547763 ], [ 96.334417, 28.530309 ], [ 96.332234, 28.524634 ], [ 96.335376, 28.518617 ], [ 96.358316, 28.501086 ], [ 96.368148, 28.486684 ], [ 96.367092, 28.477572 ], [ 96.278723, 28.415182 ], [ 96.272768, 28.406644 ], [ 96.302682, 28.403634 ], [ 96.312055, 28.397272 ], [ 96.320474, 28.38348 ], [ 96.325609, 28.381354 ], [ 96.356719, 28.387967 ], [ 96.371391, 28.38775 ], [ 96.376393, 28.381757 ], [ 96.377874, 28.365235 ], [ 96.387286, 28.35917 ], [ 96.394476, 28.344942 ], [ 96.399002, 28.342139 ], [ 96.413798, 28.343299 ], [ 96.4282, 28.349365 ], [ 96.432561, 28.357343 ], [ 96.438103, 28.390613 ], [ 96.462012, 28.413869 ], [ 96.476166, 28.419109 ], [ 96.505216, 28.416014 ], [ 96.519949, 28.41748 ], [ 96.534435, 28.423696 ], [ 96.580279, 28.455881 ], [ 96.592458, 28.459633 ], [ 96.611976, 28.452708 ], [ 96.624384, 28.457189 ], [ 96.636926, 28.454376 ], [ 96.656558, 28.455419 ], [ 96.669809, 28.452231 ], [ 96.708086, 28.426496 ], [ 96.737832, 28.416241 ], [ 96.743685, 28.414223 ], [ 96.755653, 28.403408 ], [ 96.761807, 28.389729 ], [ 96.765006, 28.370572 ], [ 96.773554, 28.363076 ], [ 96.800049, 28.363188 ], [ 96.846478, 28.355622 ], [ 96.862424, 28.3664 ], [ 96.871035, 28.366912 ], [ 96.884569, 28.37337 ], [ 96.894598, 28.373305 ], [ 96.904268, 28.369283 ], [ 96.910538, 28.366676 ], [ 96.915396, 28.361442 ], [ 96.918882, 28.350451 ], [ 96.9279, 28.342204 ], [ 96.970328, 28.329428 ], [ 96.983246, 28.327881 ], [ 97.004028, 28.318789 ], [ 97.014721, 28.318643 ], [ 97.024768, 28.321791 ], [ 97.089928, 28.367825 ], [ 97.118349, 28.370558 ], [ 97.135036, 28.36964 ], [ 97.14753, 28.36309 ], [ 97.157026, 28.33697 ], [ 97.162108, 28.334677 ], [ 97.184282, 28.333574 ], [ 97.189806, 28.328226 ], [ 97.195191, 28.315522 ], [ 97.203865, 28.309376 ], [ 97.222454, 28.311444 ], [ 97.230796, 28.309187 ], [ 97.234303, 28.305272 ], [ 97.240123, 28.280707 ], [ 97.255996, 28.264419 ], [ 97.290203, 28.24047 ], [ 97.34711, 28.208066 ], [ 97.352343, 28.208761 ], [ 97.360621, 28.204049 ], [ 97.360921, 28.198799 ], [ 97.358572, 28.191157 ], [ 97.35612, 28.185826 ], [ 97.352882, 28.177386 ], [ 97.358228, 28.164012 ], [ 97.353141, 28.162535 ], [ 97.35134, 28.158414 ], [ 97.352766, 28.154598 ], [ 97.350316, 28.151706 ], [ 97.345935, 28.14888 ], [ 97.339948, 28.149614 ], [ 97.337795, 28.146401 ], [ 97.334828, 28.146639 ], [ 97.329785, 28.143794 ], [ 97.327956, 28.143025 ], [ 97.326317, 28.140439 ], [ 97.329611, 28.136341 ], [ 97.338818, 28.128262 ], [ 97.342866, 28.121135 ], [ 97.342972, 28.116474 ], [ 97.341965, 28.112238 ], [ 97.315532, 28.097258 ], [ 97.311531, 28.093257 ], [ 97.309193, 28.089816 ], [ 97.30534, 28.077564 ], [ 97.306505, 28.075392 ], [ 97.308521, 28.065054 ], [ 97.31666, 28.058128 ], [ 97.321629, 28.05724 ], [ 97.326591, 28.058165 ], [ 97.331565, 28.059532 ], [ 97.349534, 28.062416 ], [ 97.356578, 28.064125 ], [ 97.366153, 28.065799 ], [ 97.371986, 28.066354 ], [ 97.374601, 28.06726 ], [ 97.376989, 28.067724 ], [ 97.3786, 28.066156 ], [ 97.378521, 28.061466 ], [ 97.375382, 28.057975 ], [ 97.373105, 28.049284 ], [ 97.373048, 28.04337 ], [ 97.376322, 28.034711 ], [ 97.38305, 28.031787 ], [ 97.391599, 28.031877 ], [ 97.395719, 28.031268 ], [ 97.403514, 28.026092 ], [ 97.410719, 28.020078 ], [ 97.410045, 28.012126 ], [ 97.405885, 28.008949 ], [ 97.397616, 28.001456 ], [ 97.393828, 27.999931 ], [ 97.390348, 27.995189 ], [ 97.385242, 27.985917 ], [ 97.380099, 27.969725 ], [ 97.379137, 27.945041 ], [ 97.377981, 27.937391 ], [ 97.381909, 27.925851 ], [ 97.385012, 27.921397 ], [ 97.385496, 27.918646 ], [ 97.377059, 27.91167 ], [ 97.375357, 27.906845 ], [ 97.375879, 27.903612 ], [ 97.382478, 27.895359 ], [ 97.385173, 27.891435 ], [ 97.382831, 27.88441 ], [ 97.378461, 27.879723 ], [ 97.36712, 27.874296 ], [ 97.360968, 27.874439 ], [ 97.347303, 27.88067 ], [ 97.336649, 27.882698 ], [ 97.327526, 27.883276 ], [ 97.325434, 27.885241 ], [ 97.325513, 27.892219 ], [ 97.324039, 27.900147 ], [ 97.317971, 27.906621 ], [ 97.313226, 27.913356 ], [ 97.308513, 27.916224 ], [ 97.301476, 27.915365 ], [ 97.277844, 27.907761 ], [ 97.254611, 27.895091 ], [ 97.249035, 27.889845 ], [ 97.24202, 27.884233 ], [ 97.221938, 27.866874 ], [ 97.214294, 27.861176 ], [ 97.185566, 27.832182 ], [ 97.176266, 27.827817 ], [ 97.170941, 27.82478 ], [ 97.16966, 27.818199 ], [ 97.16444, 27.812754 ], [ 97.15753, 27.811653 ], [ 97.146647, 27.806406 ], [ 97.139655, 27.803635 ], [ 97.134905, 27.795992 ], [ 97.129213, 27.792755 ], [ 97.113106, 27.78525 ], [ 97.105485, 27.782878 ], [ 97.100302, 27.779294 ], [ 97.097096, 27.749866 ], [ 97.091392, 27.743021 ], [ 97.086521, 27.742363 ], [ 97.081734, 27.742423 ], [ 97.066036, 27.745829 ], [ 97.05753, 27.74408 ] ] ] ] } }
]
}
