{
"type": "FeatureCollection",
"name": "Bahrain",
"crs": { "type": "name", "properties": { "name": "urn:ogc:def:crs:OGC:1.3:CRS84" } },
"features": [
{ "type": "Feature", "properties": { "id": "BH", "CNTR_ID": "BH", "CNTR_NAME": "مملكة البحرين", "NAME_ENGL": "Bahrain", "ISO3_CODE": "BHR", "FID": "BH" }, "geometry": { "type": "MultiPolygon", "coordinates": [ [ [ [ 50.454759, 26.161022 ], [ 50.462023, 26.179471 ], [ 50.462554, 26.192316 ], [ 50.461425, 26.197982 ], [ 50.455092, 26.20468 ], [ 50.455025, 26.209284 ], [ 50.472398, 26.226506 ], [ 50.495495, 26.231348 ], [ 50.513411, 26.231518 ], [ 50.552427, 26.225053 ], [ 50.562859, 26.220854 ], [ 50.568128, 26.222411 ], [ 50.573055, 26.231195 ], [ 50.581232, 26.235488 ], [ 50.589832, 26.233838 ], [ 50.599705, 26.225366 ], [ 50.60205, 26.220402 ], [ 50.598259, 26.212687 ], [ 50.612165, 26.203537 ], [ 50.612784, 26.194178 ], [ 50.600333, 26.194824 ], [ 50.577872, 26.204817 ], [ 50.572536, 26.200555 ], [ 50.568375, 26.186933 ], [ 50.584948, 26.164831 ], [ 50.599849, 26.155303 ], [ 50.600894, 26.143911 ], [ 50.608533, 26.146103 ], [ 50.618762, 26.144617 ], [ 50.628817, 26.121574 ], [ 50.638878, 26.114687 ], [ 50.638181, 26.110334 ], [ 50.627437, 26.099982 ], [ 50.627841, 26.086772 ], [ 50.625134, 26.080152 ], [ 50.631059, 26.071058 ], [ 50.627041, 26.061689 ], [ 50.629807, 26.044458 ], [ 50.641894, 26.037078 ], [ 50.634978, 26.029691 ], [ 50.625022, 25.980564 ], [ 50.619149, 25.965961 ], [ 50.617632, 25.942126 ], [ 50.620197, 25.929132 ], [ 50.610537, 25.903968 ], [ 50.610896, 25.858185 ], [ 50.613259, 25.849758 ], [ 50.598217, 25.835242 ], [ 50.591932, 25.824045 ], [ 50.572133, 25.802249 ], [ 50.559259, 25.823226 ], [ 50.557212, 25.841912 ], [ 50.55283, 25.852477 ], [ 50.530466, 25.889956 ], [ 50.513411, 25.905359 ], [ 50.495952, 25.923731 ], [ 50.476745, 25.933754 ], [ 50.465748, 25.949656 ], [ 50.461454, 25.969645 ], [ 50.462572, 25.979725 ], [ 50.476886, 26.001913 ], [ 50.480152, 26.018549 ], [ 50.49325, 26.043554 ], [ 50.488084, 26.061714 ], [ 50.485217, 26.096789 ], [ 50.46452, 26.132938 ], [ 50.454759, 26.161022 ] ] ], [ [ [ 50.744827, 25.653623 ], [ 50.74907, 25.675143 ], [ 50.759929, 25.694805 ], [ 50.778234, 25.715431 ], [ 50.790683, 25.714997 ], [ 50.793377, 25.720266 ], [ 50.801686, 25.722425 ], [ 50.802349, 25.709183 ], [ 50.787616, 25.692024 ], [ 50.802532, 25.681942 ], [ 50.799852, 25.675705 ], [ 50.795293, 25.673694 ], [ 50.793718, 25.678213 ], [ 50.789847, 25.678565 ], [ 50.778317, 25.671897 ], [ 50.772548, 25.678647 ], [ 50.765516, 25.681 ], [ 50.758643, 25.679904 ], [ 50.755861, 25.676538 ], [ 50.758564, 25.672413 ], [ 50.766239, 25.670341 ], [ 50.76571, 25.661392 ], [ 50.781904, 25.634798 ], [ 50.775165, 25.632787 ], [ 50.769225, 25.625882 ], [ 50.77103, 25.618852 ], [ 50.766905, 25.612883 ], [ 50.767871, 25.611664 ], [ 50.776847, 25.613532 ], [ 50.780104, 25.607788 ], [ 50.769992, 25.599148 ], [ 50.762779, 25.582062 ], [ 50.805859, 25.556968 ], [ 50.8154, 25.548093 ], [ 50.817749, 25.544914 ], [ 50.817662, 25.542248 ], [ 50.811364, 25.544641 ], [ 50.805859, 25.551855 ], [ 50.77703, 25.570385 ], [ 50.748837, 25.584677 ], [ 50.746868, 25.591141 ], [ 50.755232, 25.612825 ], [ 50.755381, 25.636307 ], [ 50.744827, 25.653623 ] ] ], [ [ [ 50.385849, 26.145433 ], [ 50.386227, 26.152716 ], [ 50.389843, 26.155516 ], [ 50.391678, 26.160637 ], [ 50.399395, 26.165466 ], [ 50.402355, 26.174664 ], [ 50.412216, 26.177771 ], [ 50.420349, 26.173779 ], [ 50.423206, 26.167786 ], [ 50.427505, 26.1651 ], [ 50.429039, 26.160051 ], [ 50.424969, 26.147541 ], [ 50.426186, 26.140444 ], [ 50.426979, 26.135796 ], [ 50.431374, 26.130678 ], [ 50.430355, 26.124626 ], [ 50.431915, 26.120487 ], [ 50.430202, 26.119465 ], [ 50.417004, 26.122818 ], [ 50.401604, 26.119995 ], [ 50.392952, 26.12339 ], [ 50.392452, 26.129478 ], [ 50.385849, 26.145433 ] ] ], [ [ [ 50.605446, 26.250526 ], [ 50.607777, 26.261278 ], [ 50.618038, 26.271301 ], [ 50.626629, 26.279694 ], [ 50.640213, 26.282597 ], [ 50.646725, 26.278538 ], [ 50.647617, 26.273918 ], [ 50.65136, 26.271072 ], [ 50.659233, 26.270199 ], [ 50.664471, 26.266169 ], [ 50.663731, 26.248714 ], [ 50.661873, 26.238342 ], [ 50.658852, 26.238646 ], [ 50.657276, 26.243347 ], [ 50.648735, 26.245897 ], [ 50.638481, 26.241886 ], [ 50.635948, 26.243504 ], [ 50.633949, 26.248606 ], [ 50.639713, 26.253704 ], [ 50.639362, 26.256239 ], [ 50.637253, 26.257652 ], [ 50.632969, 26.258539 ], [ 50.627728, 26.256342 ], [ 50.623955, 26.245947 ], [ 50.619564, 26.239996 ], [ 50.616055, 26.239798 ], [ 50.609821, 26.242842 ], [ 50.605446, 26.250526 ] ] ], [ [ [ 50.609203, 26.164469 ], [ 50.612698, 26.171286 ], [ 50.620144, 26.173641 ], [ 50.628723, 26.170914 ], [ 50.632298, 26.171291 ], [ 50.635441, 26.165241 ], [ 50.637348, 26.160601 ], [ 50.633427, 26.147589 ], [ 50.636871, 26.143372 ], [ 50.638748, 26.128386 ], [ 50.635635, 26.12616 ], [ 50.624939, 26.144339 ], [ 50.620003, 26.149969 ], [ 50.610996, 26.155693 ], [ 50.609203, 26.164469 ] ] ], [ [ [ 50.788006, 25.650661 ], [ 50.788589, 25.653404 ], [ 50.793972, 25.655571 ], [ 50.801243, 25.652864 ], [ 50.797039, 25.647682 ], [ 50.801804, 25.645956 ], [ 50.805862, 25.646467 ], [ 50.807907, 25.646725 ], [ 50.811157, 25.645266 ], [ 50.816254, 25.64629 ], [ 50.822224, 25.642466 ], [ 50.825397, 25.638479 ], [ 50.820934, 25.633074 ], [ 50.820534, 25.628029 ], [ 50.81546, 25.627695 ], [ 50.813042, 25.63166 ], [ 50.80748, 25.632027 ], [ 50.805862, 25.629518 ], [ 50.804562, 25.627502 ], [ 50.801777, 25.627571 ], [ 50.796886, 25.624933 ], [ 50.79285, 25.634226 ], [ 50.795475, 25.637379 ], [ 50.790783, 25.64163 ], [ 50.788006, 25.650661 ] ] ], [ [ [ 50.807728, 25.666723 ], [ 50.809757, 25.675636 ], [ 50.816357, 25.675934 ], [ 50.820095, 25.682507 ], [ 50.822521, 25.67877 ], [ 50.827011, 25.676361 ], [ 50.828693, 25.673101 ], [ 50.825718, 25.66674 ], [ 50.815708, 25.66239 ], [ 50.812584, 25.659479 ], [ 50.807728, 25.666723 ] ] ], [ [ [ 50.783123, 25.747877 ], [ 50.79068, 25.753462 ], [ 50.795982, 25.750204 ], [ 50.796848, 25.746622 ], [ 50.796299, 25.744856 ], [ 50.787834, 25.741522 ], [ 50.783123, 25.747877 ] ] ], [ [ [ 50.767452, 25.74963 ], [ 50.772884, 25.750376 ], [ 50.778286, 25.750233 ], [ 50.779587, 25.744858 ], [ 50.77755, 25.742687 ], [ 50.77359, 25.741901 ], [ 50.768288, 25.745157 ], [ 50.767452, 25.74963 ] ] ], [ [ [ 50.58791, 26.175719 ], [ 50.588963, 26.181151 ], [ 50.592763, 26.186972 ], [ 50.597103, 26.176681 ], [ 50.589755, 26.173139 ], [ 50.58791, 26.175719 ] ] ] ] } }
]
}
