{
"type": "FeatureCollection",
"name": "Bangladesh",
"crs": { "type": "name", "properties": { "name": "urn:ogc:def:crs:OGC:1.3:CRS84" } },
"features": [
{ "type": "Feature", "properties": { "id": "BD", "CNTR_ID": "BD", "CNTR_NAME": "People’S Republic of Bangladesh", "NAME_ENGL": "Bangladesh", "ISO3_CODE": "BGD", "FID": "BD" }, "geometry": { "type": "MultiPolygon", "coordinates": [ [ [ [ 89.079786, 22.154845 ], [ 89.077062, 22.168728 ], [ 89.080238, 22.183351 ], [ 89.08268, 22.184139 ], [ 89.081347, 22.191431 ], [ 89.076354, 22.198673 ], [ 89.054836, 22.221676 ], [ 89.04341, 22.251259 ], [ 89.036878, 22.25453 ], [ 89.026323, 22.255319 ], [ 89.023423, 22.26482 ], [ 89.007976, 22.28213 ], [ 89.010551, 22.291914 ], [ 89.028634, 22.292031 ], [ 89.032556, 22.29538 ], [ 89.022722, 22.307373 ], [ 89.002599, 22.320249 ], [ 88.995868, 22.32908 ], [ 88.996757, 22.369973 ], [ 89.000318, 22.382477 ], [ 88.985746, 22.402841 ], [ 89.004225, 22.421082 ], [ 89.00628, 22.426513 ], [ 89.002768, 22.437512 ], [ 89.000148, 22.468905 ], [ 88.983505, 22.498859 ], [ 88.97687, 22.530837 ], [ 88.967016, 22.545644 ], [ 88.946494, 22.550569 ], [ 88.938387, 22.552514 ], [ 88.928976, 22.559648 ], [ 88.933436, 22.563152 ], [ 88.946494, 22.561261 ], [ 88.950979, 22.560611 ], [ 88.948241, 22.584087 ], [ 88.964593, 22.604748 ], [ 88.962845, 22.61231 ], [ 88.947988, 22.621359 ], [ 88.946494, 22.623044 ], [ 88.939306, 22.63115 ], [ 88.936949, 22.642247 ], [ 88.939093, 22.644796 ], [ 88.946494, 22.643316 ], [ 88.94844, 22.642927 ], [ 88.946494, 22.649908 ], [ 88.944771, 22.65609 ], [ 88.946494, 22.659607 ], [ 88.955367, 22.677718 ], [ 88.965101, 22.683565 ], [ 88.967312, 22.688832 ], [ 88.962919, 22.700035 ], [ 88.947173, 22.71518 ], [ 88.939192, 22.723816 ], [ 88.925191, 22.758047 ], [ 88.929716, 22.763246 ], [ 88.943175, 22.765685 ], [ 88.952493, 22.785115 ], [ 88.963429, 22.792844 ], [ 88.956793, 22.806756 ], [ 88.96927, 22.823878 ], [ 88.970868, 22.842922 ], [ 88.953235, 22.873858 ], [ 88.933545, 22.87144 ], [ 88.924308, 22.876289 ], [ 88.918409, 22.88315 ], [ 88.910907, 22.901638 ], [ 88.914236, 22.918022 ], [ 88.905719, 22.928943 ], [ 88.905474, 22.942475 ], [ 88.90161, 22.950357 ], [ 88.891439, 22.955576 ], [ 88.872722, 22.95319 ], [ 88.868658, 22.956016 ], [ 88.86979, 22.963288 ], [ 88.880622, 22.9775 ], [ 88.876766, 22.997343 ], [ 88.87828, 23.014305 ], [ 88.891765, 23.038344 ], [ 88.885339, 23.060012 ], [ 88.875014, 23.078813 ], [ 88.883003, 23.102243 ], [ 88.917972, 23.126031 ], [ 88.935469, 23.146263 ], [ 88.940536, 23.161989 ], [ 88.946915, 23.171217 ], [ 88.971439, 23.189535 ], [ 88.990444, 23.190002 ], [ 88.994469, 23.201511 ], [ 88.983876, 23.222528 ], [ 88.967286, 23.209461 ], [ 88.947157, 23.205368 ], [ 88.928925, 23.218219 ], [ 88.924946, 23.226963 ], [ 88.917621, 23.232226 ], [ 88.867543, 23.235223 ], [ 88.850144, 23.2435 ], [ 88.824485, 23.248258 ], [ 88.818437, 23.243935 ], [ 88.814419, 23.227281 ], [ 88.79596, 23.226274 ], [ 88.787755, 23.23024 ], [ 88.780239, 23.24223 ], [ 88.750868, 23.245736 ], [ 88.730576, 23.257085 ], [ 88.72572, 23.274771 ], [ 88.71768, 23.28822 ], [ 88.705495, 23.29768 ], [ 88.704291, 23.304293 ], [ 88.713264, 23.312166 ], [ 88.726006, 23.308968 ], [ 88.73244, 23.319432 ], [ 88.742328, 23.315982 ], [ 88.746523, 23.317291 ], [ 88.746113, 23.32274 ], [ 88.738848, 23.333255 ], [ 88.738361, 23.351189 ], [ 88.743269, 23.356252 ], [ 88.764637, 23.364734 ], [ 88.770393, 23.370772 ], [ 88.770709, 23.378753 ], [ 88.764767, 23.394124 ], [ 88.771336, 23.434276 ], [ 88.776286, 23.441446 ], [ 88.788758, 23.444212 ], [ 88.794701, 23.449148 ], [ 88.796705, 23.465356 ], [ 88.802313, 23.480345 ], [ 88.801439, 23.490025 ], [ 88.795532, 23.497351 ], [ 88.786745, 23.499195 ], [ 88.783152, 23.496149 ], [ 88.781254, 23.48615 ], [ 88.774907, 23.479046 ], [ 88.765233, 23.475177 ], [ 88.75456, 23.477731 ], [ 88.736258, 23.505054 ], [ 88.717153, 23.512226 ], [ 88.698408, 23.526732 ], [ 88.687179, 23.540183 ], [ 88.665748, 23.55293 ], [ 88.660979, 23.578542 ], [ 88.651812, 23.592527 ], [ 88.649633, 23.603779 ], [ 88.640233, 23.605844 ], [ 88.623016, 23.601885 ], [ 88.611809, 23.605186 ], [ 88.596728, 23.605097 ], [ 88.595229, 23.609869 ], [ 88.603448, 23.621576 ], [ 88.602619, 23.634894 ], [ 88.596362, 23.638369 ], [ 88.581074, 23.639081 ], [ 88.57271, 23.648254 ], [ 88.584573, 23.673277 ], [ 88.580059, 23.715745 ], [ 88.589844, 23.760838 ], [ 88.578238, 23.784396 ], [ 88.610529, 23.807806 ], [ 88.601733, 23.82834 ], [ 88.599591, 23.861277 ], [ 88.608821, 23.868782 ], [ 88.622705, 23.873539 ], [ 88.630663, 23.872019 ], [ 88.639558, 23.864056 ], [ 88.668204, 23.86635 ], [ 88.71482, 23.903798 ], [ 88.736985, 23.908784 ], [ 88.747872, 23.935044 ], [ 88.744322, 23.956854 ], [ 88.747196, 23.974578 ], [ 88.755054, 23.982354 ], [ 88.768998, 23.982095 ], [ 88.773279, 23.985565 ], [ 88.770757, 23.994194 ], [ 88.759785, 24.003983 ], [ 88.747577, 24.005401 ], [ 88.742328, 23.998969 ], [ 88.738268, 24.000865 ], [ 88.737381, 24.012847 ], [ 88.749886, 24.020502 ], [ 88.753247, 24.028582 ], [ 88.73015, 24.042356 ], [ 88.731736, 24.046538 ], [ 88.742146, 24.05106 ], [ 88.742685, 24.056384 ], [ 88.734201, 24.066105 ], [ 88.708531, 24.085688 ], [ 88.699141, 24.109707 ], [ 88.702682, 24.135088 ], [ 88.700487, 24.170398 ], [ 88.714141, 24.195763 ], [ 88.728638, 24.201307 ], [ 88.73252, 24.20823 ], [ 88.729883, 24.274672 ], [ 88.724057, 24.291287 ], [ 88.709642, 24.312654 ], [ 88.69238, 24.324903 ], [ 88.682658, 24.325203 ], [ 88.648873, 24.306162 ], [ 88.63616, 24.310193 ], [ 88.623167, 24.310281 ], [ 88.611163, 24.316741 ], [ 88.592612, 24.314361 ], [ 88.572256, 24.325365 ], [ 88.548454, 24.313602 ], [ 88.542778, 24.313574 ], [ 88.524042, 24.317094 ], [ 88.493832, 24.330305 ], [ 88.456664, 24.361872 ], [ 88.44013, 24.368033 ], [ 88.420127, 24.374849 ], [ 88.377842, 24.397555 ], [ 88.356576, 24.415927 ], [ 88.336326, 24.438608 ], [ 88.301007, 24.448831 ], [ 88.276078, 24.459425 ], [ 88.237661, 24.464884 ], [ 88.2087, 24.473655 ], [ 88.125543, 24.519695 ], [ 88.109308, 24.54551 ], [ 88.103389, 24.580426 ], [ 88.085592, 24.619079 ], [ 88.055193, 24.654753 ], [ 88.032704, 24.688361 ], [ 88.066424, 24.735309 ], [ 88.074279, 24.769662 ], [ 88.083591, 24.777137 ], [ 88.101129, 24.784954 ], [ 88.115708, 24.817794 ], [ 88.122833, 24.821833 ], [ 88.131535, 24.81748 ], [ 88.144696, 24.842555 ], [ 88.159108, 24.849869 ], [ 88.163792, 24.85522 ], [ 88.159218, 24.893293 ], [ 88.139582, 24.922876 ], [ 88.142541, 24.932206 ], [ 88.168493, 24.945292 ], [ 88.226004, 24.956659 ], [ 88.236086, 24.950138 ], [ 88.261703, 24.918083 ], [ 88.264434, 24.905976 ], [ 88.260995, 24.889009 ], [ 88.274507, 24.895284 ], [ 88.290234, 24.888801 ], [ 88.300521, 24.880773 ], [ 88.327871, 24.875433 ], [ 88.3361, 24.883145 ], [ 88.339774, 24.893338 ], [ 88.338426, 24.896882 ], [ 88.327852, 24.901169 ], [ 88.3256, 24.906927 ], [ 88.338331, 24.934788 ], [ 88.354756, 24.945244 ], [ 88.376671, 24.94475 ], [ 88.388588, 24.950353 ], [ 88.394636, 24.967151 ], [ 88.4083, 24.982064 ], [ 88.411775, 24.995107 ], [ 88.41856, 25.00656 ], [ 88.43152, 25.015583 ], [ 88.44013, 25.031204 ], [ 88.441898, 25.034412 ], [ 88.44013, 25.03903 ], [ 88.43323, 25.057049 ], [ 88.44013, 25.070378 ], [ 88.444978, 25.079744 ], [ 88.44013, 25.119323 ], [ 88.439317, 25.126282 ], [ 88.44013, 25.127914 ], [ 88.451352, 25.139099 ], [ 88.457339, 25.149978 ], [ 88.453781, 25.16074 ], [ 88.44013, 25.182172 ], [ 88.44013, 25.187593 ], [ 88.44078, 25.196313 ], [ 88.444288, 25.199327 ], [ 88.460041, 25.201432 ], [ 88.48215, 25.214495 ], [ 88.489749, 25.213835 ], [ 88.500234, 25.207762 ], [ 88.51732, 25.202954 ], [ 88.524539, 25.197415 ], [ 88.533039, 25.190098 ], [ 88.548034, 25.194484 ], [ 88.558543, 25.18051 ], [ 88.565746, 25.177538 ], [ 88.576306, 25.18207 ], [ 88.588542, 25.193768 ], [ 88.613245, 25.204638 ], [ 88.654472, 25.204848 ], [ 88.668301, 25.20208 ], [ 88.682362, 25.208662 ], [ 88.694091, 25.210287 ], [ 88.713791, 25.206433 ], [ 88.729529, 25.197565 ], [ 88.744611, 25.184065 ], [ 88.770118, 25.191105 ], [ 88.776145, 25.181455 ], [ 88.797656, 25.17578 ], [ 88.82022, 25.191955 ], [ 88.828259, 25.207345 ], [ 88.838498, 25.210745 ], [ 88.856921, 25.206593 ], [ 88.863512, 25.199913 ], [ 88.873444, 25.195296 ], [ 88.880091, 25.186807 ], [ 88.895728, 25.186398 ], [ 88.920797, 25.17369 ], [ 88.930571, 25.18428 ], [ 88.940662, 25.187457 ], [ 88.942282, 25.197939 ], [ 88.935708, 25.212422 ], [ 88.946494, 25.211876 ], [ 88.94891, 25.211753 ], [ 88.953637, 25.215576 ], [ 88.94987, 25.229423 ], [ 88.949187, 25.25392 ], [ 88.985191, 25.273992 ], [ 88.997519, 25.275071 ], [ 89.010507, 25.298853 ], [ 89.000912, 25.314694 ], [ 88.996167, 25.317457 ], [ 88.985191, 25.31737 ], [ 88.954937, 25.317131 ], [ 88.946494, 25.317806 ], [ 88.909288, 25.320784 ], [ 88.904151, 25.325013 ], [ 88.895219, 25.342267 ], [ 88.887462, 25.343073 ], [ 88.876229, 25.337715 ], [ 88.858865, 25.35595 ], [ 88.836544, 25.370373 ], [ 88.831526, 25.40348 ], [ 88.820099, 25.407324 ], [ 88.812917, 25.414916 ], [ 88.824609, 25.426543 ], [ 88.827448, 25.43523 ], [ 88.825432, 25.448849 ], [ 88.837223, 25.46108 ], [ 88.824926, 25.492797 ], [ 88.809239, 25.499613 ], [ 88.802984, 25.507335 ], [ 88.800794, 25.516754 ], [ 88.801992, 25.531307 ], [ 88.779843, 25.524196 ], [ 88.75995, 25.527461 ], [ 88.755103, 25.518514 ], [ 88.76547, 25.510147 ], [ 88.763983, 25.502145 ], [ 88.740334, 25.498649 ], [ 88.737466, 25.500729 ], [ 88.738729, 25.507118 ], [ 88.731391, 25.507833 ], [ 88.71036, 25.500076 ], [ 88.705312, 25.486069 ], [ 88.699755, 25.480642 ], [ 88.681117, 25.477564 ], [ 88.66683, 25.477407 ], [ 88.644181, 25.484501 ], [ 88.640155, 25.491668 ], [ 88.642825, 25.502168 ], [ 88.619816, 25.503042 ], [ 88.601262, 25.514426 ], [ 88.587571, 25.510696 ], [ 88.55162, 25.516123 ], [ 88.537852, 25.513885 ], [ 88.535501, 25.531367 ], [ 88.530513, 25.540271 ], [ 88.524539, 25.540016 ], [ 88.503475, 25.552462 ], [ 88.496741, 25.559279 ], [ 88.486622, 25.581293 ], [ 88.479235, 25.585686 ], [ 88.461287, 25.589145 ], [ 88.445607, 25.604511 ], [ 88.442663, 25.621384 ], [ 88.448313, 25.647262 ], [ 88.445958, 25.666142 ], [ 88.44013, 25.66792 ], [ 88.423673, 25.67294 ], [ 88.403569, 25.675548 ], [ 88.396487, 25.685808 ], [ 88.372432, 25.703002 ], [ 88.369655, 25.714282 ], [ 88.365121, 25.719829 ], [ 88.340068, 25.738187 ], [ 88.320818, 25.743283 ], [ 88.305155, 25.76213 ], [ 88.2738, 25.782532 ], [ 88.269203, 25.790516 ], [ 88.267933, 25.804876 ], [ 88.261507, 25.81231 ], [ 88.233428, 25.811318 ], [ 88.20469, 25.793377 ], [ 88.194549, 25.800547 ], [ 88.184801, 25.801491 ], [ 88.151839, 25.781703 ], [ 88.144976, 25.783292 ], [ 88.138534, 25.796697 ], [ 88.117522, 25.803507 ], [ 88.106573, 25.82878 ], [ 88.111507, 25.862117 ], [ 88.09182, 25.8775 ], [ 88.094484, 25.894736 ], [ 88.087898, 25.915964 ], [ 88.086921, 25.919004 ], [ 88.089518, 25.931795 ], [ 88.105455, 25.938712 ], [ 88.118341, 25.949663 ], [ 88.111933, 25.963838 ], [ 88.117687, 25.973008 ], [ 88.127109, 25.980069 ], [ 88.129991, 25.993927 ], [ 88.144559, 25.999916 ], [ 88.151407, 26.013105 ], [ 88.172086, 26.019798 ], [ 88.18062, 26.025787 ], [ 88.173828, 26.041764 ], [ 88.184337, 26.059604 ], [ 88.184673, 26.065765 ], [ 88.172968, 26.07604 ], [ 88.16332, 26.079243 ], [ 88.161727, 26.082847 ], [ 88.164402, 26.099232 ], [ 88.177631, 26.120199 ], [ 88.183137, 26.145779 ], [ 88.197329, 26.156305 ], [ 88.212339, 26.158716 ], [ 88.217933, 26.165585 ], [ 88.229264, 26.169493 ], [ 88.231563, 26.17402 ], [ 88.229852, 26.184367 ], [ 88.233067, 26.187656 ], [ 88.246165, 26.190821 ], [ 88.274545, 26.185714 ], [ 88.290189, 26.194373 ], [ 88.320625, 26.20226 ], [ 88.348974, 26.218573 ], [ 88.355482, 26.237611 ], [ 88.349186, 26.257129 ], [ 88.347008, 26.276836 ], [ 88.357377, 26.297812 ], [ 88.368554, 26.306349 ], [ 88.377301, 26.308709 ], [ 88.405669, 26.316363 ], [ 88.407277, 26.319086 ], [ 88.403111, 26.326873 ], [ 88.404579, 26.331105 ], [ 88.409922, 26.335044 ], [ 88.422052, 26.336324 ], [ 88.430103, 26.34166 ], [ 88.44013, 26.355825 ], [ 88.451119, 26.369884 ], [ 88.458963, 26.362003 ], [ 88.48, 26.351475 ], [ 88.497049, 26.36095 ], [ 88.501131, 26.360014 ], [ 88.505468, 26.352782 ], [ 88.522437, 26.371437 ], [ 88.518245, 26.377918 ], [ 88.517355, 26.388932 ], [ 88.500966, 26.41319 ], [ 88.49319, 26.439018 ], [ 88.479126, 26.460329 ], [ 88.466864, 26.465079 ], [ 88.44013, 26.467105 ], [ 88.426388, 26.472673 ], [ 88.422052, 26.472151 ], [ 88.415744, 26.471158 ], [ 88.398726, 26.482479 ], [ 88.387777, 26.481076 ], [ 88.377301, 26.482652 ], [ 88.367988, 26.484054 ], [ 88.361934, 26.479584 ], [ 88.357379, 26.457577 ], [ 88.3524, 26.453345 ], [ 88.332666, 26.486789 ], [ 88.332956, 26.497191 ], [ 88.345958, 26.507058 ], [ 88.354024, 26.522338 ], [ 88.360508, 26.542911 ], [ 88.37116, 26.562656 ], [ 88.375027, 26.583646 ], [ 88.377301, 26.58627 ], [ 88.387073, 26.597551 ], [ 88.396238, 26.603119 ], [ 88.390402, 26.610974 ], [ 88.396107, 26.628145 ], [ 88.407259, 26.630903 ], [ 88.416205, 26.624819 ], [ 88.4203, 26.572642 ], [ 88.430155, 26.553988 ], [ 88.44013, 26.548956 ], [ 88.447223, 26.545378 ], [ 88.479464, 26.542055 ], [ 88.48533, 26.530642 ], [ 88.488822, 26.513655 ], [ 88.513901, 26.511231 ], [ 88.515603, 26.507058 ], [ 88.523899, 26.486715 ], [ 88.539815, 26.483746 ], [ 88.554685, 26.484443 ], [ 88.562236, 26.466937 ], [ 88.585858, 26.462495 ], [ 88.600202, 26.476614 ], [ 88.617999, 26.475207 ], [ 88.625975, 26.436601 ], [ 88.643532, 26.432201 ], [ 88.649845, 26.42345 ], [ 88.663753, 26.413405 ], [ 88.682444, 26.412408 ], [ 88.682976, 26.408898 ], [ 88.678907, 26.403528 ], [ 88.690922, 26.398757 ], [ 88.694369, 26.39489 ], [ 88.685495, 26.389185 ], [ 88.690837, 26.370839 ], [ 88.696598, 26.365083 ], [ 88.709252, 26.362017 ], [ 88.710109, 26.349197 ], [ 88.720479, 26.349624 ], [ 88.730952, 26.35418 ], [ 88.743577, 26.352237 ], [ 88.740292, 26.338003 ], [ 88.752336, 26.333265 ], [ 88.752425, 26.328207 ], [ 88.733492, 26.326681 ], [ 88.720884, 26.320057 ], [ 88.704512, 26.321392 ], [ 88.69407, 26.315432 ], [ 88.692322, 26.302964 ], [ 88.70282, 26.292703 ], [ 88.700645, 26.286408 ], [ 88.687794, 26.288622 ], [ 88.672716, 26.301207 ], [ 88.666343, 26.299907 ], [ 88.662236, 26.286082 ], [ 88.668662, 26.273202 ], [ 88.680771, 26.268863 ], [ 88.71149, 26.282542 ], [ 88.719721, 26.297695 ], [ 88.743291, 26.29369 ], [ 88.742476, 26.305347 ], [ 88.747317, 26.311259 ], [ 88.751555, 26.311004 ], [ 88.756142, 26.304726 ], [ 88.760953, 26.303349 ], [ 88.795347, 26.311133 ], [ 88.803838, 26.306443 ], [ 88.812626, 26.295212 ], [ 88.807711, 26.279578 ], [ 88.810555, 26.269501 ], [ 88.808461, 26.257484 ], [ 88.821789, 26.25368 ], [ 88.825439, 26.244625 ], [ 88.836279, 26.238198 ], [ 88.859074, 26.232342 ], [ 88.869415, 26.236404 ], [ 88.86814, 26.243084 ], [ 88.861675, 26.251106 ], [ 88.859757, 26.266039 ], [ 88.869137, 26.282057 ], [ 88.879028, 26.287935 ], [ 88.887462, 26.288494 ], [ 88.90806, 26.288275 ], [ 88.918684, 26.282564 ], [ 88.932886, 26.259864 ], [ 88.946494, 26.247549 ], [ 88.957554, 26.237539 ], [ 88.963406, 26.235444 ], [ 88.985191, 26.239237 ], [ 88.989987, 26.240072 ], [ 88.998397, 26.237623 ], [ 89.007233, 26.23083 ], [ 89.03851, 26.247181 ], [ 89.05171, 26.249781 ], [ 89.064003, 26.25862 ], [ 89.064165, 26.2647 ], [ 89.055569, 26.27678 ], [ 89.054168, 26.287979 ], [ 89.047963, 26.289389 ], [ 89.039971, 26.285831 ], [ 89.02813, 26.288575 ], [ 89.02473, 26.307962 ], [ 89.019693, 26.312534 ], [ 89.014605, 26.302718 ], [ 89.001303, 26.302097 ], [ 88.993776, 26.297645 ], [ 88.98699, 26.299373 ], [ 88.985191, 26.304992 ], [ 88.982219, 26.314275 ], [ 88.985191, 26.317182 ], [ 88.995314, 26.327085 ], [ 88.996419, 26.333583 ], [ 88.985191, 26.336524 ], [ 88.980943, 26.348632 ], [ 88.971496, 26.353779 ], [ 88.965146, 26.353912 ], [ 88.954679, 26.347113 ], [ 88.947797, 26.346336 ], [ 88.946684, 26.351738 ], [ 88.954624, 26.360482 ], [ 88.951677, 26.364594 ], [ 88.946494, 26.36315 ], [ 88.934514, 26.360401 ], [ 88.915607, 26.367659 ], [ 88.912239, 26.375992 ], [ 88.913452, 26.39945 ], [ 88.90607, 26.408702 ], [ 88.929274, 26.418173 ], [ 88.929523, 26.432389 ], [ 88.942252, 26.436665 ], [ 88.946494, 26.45265 ], [ 88.954156, 26.458896 ], [ 88.973724, 26.449913 ], [ 88.978883, 26.430651 ], [ 88.985191, 26.429997 ], [ 88.991988, 26.430976 ], [ 88.994687, 26.420404 ], [ 89.014917, 26.416368 ], [ 89.048579, 26.398092 ], [ 89.065714, 26.399016 ], [ 89.098145, 26.394865 ], [ 89.098001, 26.376633 ], [ 89.086582, 26.366784 ], [ 89.101251, 26.354901 ], [ 89.100375, 26.341243 ], [ 89.09206, 26.332438 ], [ 89.091325, 26.326971 ], [ 89.095219, 26.323887 ], [ 89.113463, 26.325994 ], [ 89.124036, 26.324487 ], [ 89.137108, 26.315877 ], [ 89.136372, 26.306117 ], [ 89.128998, 26.299804 ], [ 89.122933, 26.300856 ], [ 89.109299, 26.311042 ], [ 89.104361, 26.310399 ], [ 89.105419, 26.285812 ], [ 89.124108, 26.265326 ], [ 89.124497, 26.254999 ], [ 89.140949, 26.236847 ], [ 89.14402, 26.233458 ], [ 89.150469, 26.210159 ], [ 89.140949, 26.196029 ], [ 89.140949, 26.185515 ], [ 89.165139, 26.142922 ], [ 89.17549, 26.131172 ], [ 89.186905, 26.125566 ], [ 89.214924, 26.125772 ], [ 89.226883, 26.121109 ], [ 89.263202, 26.091641 ], [ 89.264672, 26.088127 ], [ 89.260634, 26.069755 ], [ 89.263199, 26.06222 ], [ 89.278048, 26.055521 ], [ 89.287594, 26.046156 ], [ 89.310004, 26.041196 ], [ 89.356877, 26.00965 ], [ 89.382371, 26.007438 ], [ 89.387259, 26.009218 ], [ 89.411431, 26.036516 ], [ 89.418892, 26.039668 ], [ 89.426458, 26.039414 ], [ 89.4315, 26.035296 ], [ 89.435542, 26.025072 ], [ 89.450553, 26.017494 ], [ 89.469003, 26.002432 ], [ 89.515066, 26.007204 ], [ 89.532144, 26.002944 ], [ 89.537858, 25.997038 ], [ 89.544874, 25.970124 ], [ 89.559051, 25.961076 ], [ 89.570408, 25.963047 ], [ 89.580959, 25.975796 ], [ 89.578686, 26.021335 ], [ 89.583716, 26.034958 ], [ 89.608219, 26.05692 ], [ 89.630757, 26.061152 ], [ 89.638234, 26.068947 ], [ 89.627352, 26.101497 ], [ 89.621069, 26.100403 ], [ 89.608452, 26.090135 ], [ 89.59969, 26.091976 ], [ 89.597867, 26.100722 ], [ 89.60007, 26.106584 ], [ 89.622069, 26.113966 ], [ 89.627386, 26.120649 ], [ 89.623997, 26.122653 ], [ 89.609488, 26.118352 ], [ 89.601335, 26.120328 ], [ 89.597468, 26.138406 ], [ 89.591364, 26.151601 ], [ 89.592773, 26.154893 ], [ 89.607579, 26.159671 ], [ 89.616602, 26.172831 ], [ 89.640287, 26.168957 ], [ 89.647876, 26.171643 ], [ 89.646645, 26.178139 ], [ 89.629792, 26.184509 ], [ 89.624638, 26.189902 ], [ 89.62575, 26.19414 ], [ 89.634125, 26.200175 ], [ 89.631462, 26.213439 ], [ 89.635359, 26.219759 ], [ 89.644295, 26.224799 ], [ 89.659103, 26.225013 ], [ 89.67127, 26.22851 ], [ 89.678202, 26.217838 ], [ 89.686978, 26.211839 ], [ 89.689445, 26.205484 ], [ 89.68675, 26.189582 ], [ 89.679208, 26.168823 ], [ 89.681149, 26.161703 ], [ 89.687782, 26.156544 ], [ 89.7208, 26.162163 ], [ 89.736098, 26.159973 ], [ 89.746447, 26.15304 ], [ 89.75299, 26.143951 ], [ 89.758133, 26.136807 ], [ 89.768035, 26.112622 ], [ 89.783641, 26.094302 ], [ 89.787753, 26.084267 ], [ 89.789058, 26.072073 ], [ 89.779314, 26.051347 ], [ 89.778932, 26.043137 ], [ 89.801158, 26.032322 ], [ 89.827672, 25.986733 ], [ 89.834705, 25.98431 ], [ 89.849502, 25.984613 ], [ 89.855041, 25.980578 ], [ 89.852869, 25.975877 ], [ 89.843269, 25.971163 ], [ 89.837894, 25.959513 ], [ 89.826233, 25.953764 ], [ 89.825975, 25.947027 ], [ 89.835626, 25.941584 ], [ 89.869575, 25.939325 ], [ 89.875803, 25.936407 ], [ 89.878556, 25.931947 ], [ 89.874105, 25.920037 ], [ 89.87045, 25.915964 ], [ 89.836937, 25.878613 ], [ 89.821034, 25.812609 ], [ 89.834146, 25.784011 ], [ 89.837729, 25.767126 ], [ 89.824093, 25.735089 ], [ 89.823505, 25.726701 ], [ 89.827265, 25.721398 ], [ 89.839896, 25.71393 ], [ 89.840577, 25.710431 ], [ 89.844716, 25.689167 ], [ 89.852634, 25.677785 ], [ 89.867931, 25.664257 ], [ 89.872738, 25.64824 ], [ 89.873033, 25.618557 ], [ 89.868522, 25.583699 ], [ 89.850575, 25.531207 ], [ 89.842513, 25.466793 ], [ 89.823533, 25.425966 ], [ 89.816379, 25.375554 ], [ 89.819089, 25.352999 ], [ 89.830638, 25.320556 ], [ 89.834473, 25.299836 ], [ 89.856073, 25.284136 ], [ 89.866517, 25.282405 ], [ 89.876666, 25.285388 ], [ 89.904952, 25.304835 ], [ 89.92545, 25.298758 ], [ 89.952666, 25.300647 ], [ 89.976859, 25.28743 ], [ 89.989982, 25.280261 ], [ 90.006366, 25.273895 ], [ 90.050172, 25.25678 ], [ 90.110299, 25.22649 ], [ 90.211326, 25.203442 ], [ 90.314034, 25.187632 ], [ 90.334201, 25.178242 ], [ 90.355428, 25.162643 ], [ 90.371771, 25.159569 ], [ 90.439211, 25.146882 ], [ 90.471121, 25.154646 ], [ 90.491756, 25.166552 ], [ 90.511079, 25.172219 ], [ 90.532536, 25.173567 ], [ 90.55477, 25.16957 ], [ 90.58862, 25.173041 ], [ 90.618408, 25.16767 ], [ 90.630103, 25.171496 ], [ 90.648014, 25.183507 ], [ 90.658685, 25.177478 ], [ 90.668599, 25.166084 ], [ 90.681977, 25.160429 ], [ 90.724854, 25.1577 ], [ 90.741021, 25.164613 ], [ 90.760651, 25.177869 ], [ 90.770441, 25.179661 ], [ 90.783611, 25.176413 ], [ 90.806925, 25.163225 ], [ 90.834726, 25.154784 ], [ 90.883746, 25.154146 ], [ 90.954514, 25.160033 ], [ 90.986606, 25.179274 ], [ 91.050962, 25.188966 ], [ 91.074582, 25.194903 ], [ 91.139493, 25.189711 ], [ 91.187837, 25.197314 ], [ 91.224847, 25.195499 ], [ 91.241668, 25.198671 ], [ 91.25803, 25.201757 ], [ 91.282689, 25.195461 ], [ 91.342452, 25.168191 ], [ 91.37047, 25.167458 ], [ 91.38905, 25.163307 ], [ 91.405957, 25.162506 ], [ 91.431911, 25.148232 ], [ 91.457173, 25.144121 ], [ 91.47775, 25.136187 ], [ 91.480724, 25.13504 ], [ 91.50336, 25.135938 ], [ 91.521414, 25.144916 ], [ 91.551116, 25.14404 ], [ 91.583883, 25.164507 ], [ 91.59536, 25.166254 ], [ 91.602192, 25.158424 ], [ 91.600455, 25.140539 ], [ 91.619147, 25.137276 ], [ 91.637022, 25.123405 ], [ 91.685017, 25.128282 ], [ 91.690318, 25.132368 ], [ 91.697402, 25.150693 ], [ 91.702322, 25.154762 ], [ 91.741465, 25.146311 ], [ 91.752452, 25.163723 ], [ 91.759772, 25.167853 ], [ 91.770584, 25.166811 ], [ 91.786988, 25.165229 ], [ 91.861896, 25.171123 ], [ 91.867232, 25.171543 ], [ 91.879433, 25.172509 ], [ 91.915268, 25.178827 ], [ 91.947571, 25.179966 ], [ 91.959065, 25.177428 ], [ 91.9806, 25.165072 ], [ 91.991892, 25.174639 ], [ 92.019427, 25.18454 ], [ 92.054601, 25.184917 ], [ 92.122004, 25.166047 ], [ 92.133525, 25.156104 ], [ 92.138991, 25.137305 ], [ 92.143933, 25.136307 ], [ 92.156378, 25.144581 ], [ 92.161293, 25.131023 ], [ 92.174171, 25.121031 ], [ 92.183, 25.120485 ], [ 92.180296, 25.129373 ], [ 92.184385, 25.132639 ], [ 92.207205, 25.124036 ], [ 92.214084, 25.115058 ], [ 92.218475, 25.101448 ], [ 92.239282, 25.09528 ], [ 92.269647, 25.078084 ], [ 92.30323, 25.07083 ], [ 92.326933, 25.07892 ], [ 92.334276, 25.077916 ], [ 92.340132, 25.072438 ], [ 92.334913, 25.053303 ], [ 92.338516, 25.047801 ], [ 92.346243, 25.045282 ], [ 92.373082, 25.044187 ], [ 92.400456, 25.032259 ], [ 92.413832, 25.017992 ], [ 92.422008, 24.973984 ], [ 92.432975, 24.966004 ], [ 92.452491, 24.966011 ], [ 92.461857, 24.96129 ], [ 92.450064, 24.946724 ], [ 92.451355, 24.940513 ], [ 92.458368, 24.938677 ], [ 92.479151, 24.940133 ], [ 92.486053, 24.935789 ], [ 92.48555, 24.929497 ], [ 92.490961, 24.919491 ], [ 92.493948, 24.898524 ], [ 92.489341, 24.868857 ], [ 92.484575, 24.865772 ], [ 92.468839, 24.870314 ], [ 92.457028, 24.869589 ], [ 92.429507, 24.852918 ], [ 92.414927, 24.85521 ], [ 92.398091, 24.852387 ], [ 92.38284, 24.858188 ], [ 92.36495, 24.858821 ], [ 92.331217, 24.856517 ], [ 92.298319, 24.850855 ], [ 92.286398, 24.854819 ], [ 92.279252, 24.853193 ], [ 92.261242, 24.830514 ], [ 92.276381, 24.807189 ], [ 92.273853, 24.785734 ], [ 92.252056, 24.73702 ], [ 92.23251, 24.679886 ], [ 92.202853, 24.62352 ], [ 92.198583, 24.611069 ], [ 92.193152, 24.572308 ], [ 92.182538, 24.555392 ], [ 92.171709, 24.54685 ], [ 92.14107, 24.531039 ], [ 92.129291, 24.513647 ], [ 92.132076, 24.461995 ], [ 92.143189, 24.434757 ], [ 92.143256, 24.419534 ], [ 92.136834, 24.398044 ], [ 92.120541, 24.382285 ], [ 92.104198, 24.374622 ], [ 92.086898, 24.373997 ], [ 92.012943, 24.383054 ], [ 91.987999, 24.376191 ], [ 91.971411, 24.377219 ], [ 91.965507, 24.375352 ], [ 91.965991, 24.370119 ], [ 91.989519, 24.343556 ], [ 91.995585, 24.324613 ], [ 91.992631, 24.319879 ], [ 91.986338, 24.320722 ], [ 91.977783, 24.328238 ], [ 91.966438, 24.348552 ], [ 91.958664, 24.351733 ], [ 91.946478, 24.347863 ], [ 91.922125, 24.327736 ], [ 91.920591, 24.317065 ], [ 91.932099, 24.29143 ], [ 91.931302, 24.263475 ], [ 91.929943, 24.252741 ], [ 91.928151, 24.238589 ], [ 91.916342, 24.202935 ], [ 91.910094, 24.155253 ], [ 91.905962, 24.145091 ], [ 91.901637, 24.142554 ], [ 91.893797, 24.141021 ], [ 91.883023, 24.142944 ], [ 91.877258, 24.147792 ], [ 91.870576, 24.157187 ], [ 91.867232, 24.165261 ], [ 91.861896, 24.176829 ], [ 91.854936, 24.184514 ], [ 91.842354, 24.190755 ], [ 91.838157, 24.199849 ], [ 91.846858, 24.217377 ], [ 91.841465, 24.225277 ], [ 91.836096, 24.224027 ], [ 91.833935, 24.223524 ], [ 91.822425, 24.215611 ], [ 91.816248, 24.211996 ], [ 91.809257, 24.211795 ], [ 91.770584, 24.229866 ], [ 91.758294, 24.235608 ], [ 91.746296, 24.233828 ], [ 91.744285, 24.212262 ], [ 91.747685, 24.199849 ], [ 91.750176, 24.190755 ], [ 91.759258, 24.157584 ], [ 91.755146, 24.140338 ], [ 91.743317, 24.134411 ], [ 91.732396, 24.136741 ], [ 91.691289, 24.161051 ], [ 91.68449, 24.16926 ], [ 91.675109, 24.190755 ], [ 91.67114, 24.199849 ], [ 91.65971, 24.226033 ], [ 91.652708, 24.226373 ], [ 91.648244, 24.216206 ], [ 91.65056, 24.199849 ], [ 91.651848, 24.190755 ], [ 91.652287, 24.187649 ], [ 91.641196, 24.166601 ], [ 91.637892, 24.150533 ], [ 91.63764, 24.105949 ], [ 91.629807, 24.09662 ], [ 91.615828, 24.092141 ], [ 91.586969, 24.075025 ], [ 91.537328, 24.071292 ], [ 91.4802, 24.094794 ], [ 91.47775, 24.094826 ], [ 91.449235, 24.095195 ], [ 91.410808, 24.108514 ], [ 91.396502, 24.10946 ], [ 91.38905, 24.107747 ], [ 91.38694, 24.107262 ], [ 91.378739, 24.100156 ], [ 91.37711, 24.095251 ], [ 91.38905, 24.061065 ], [ 91.395183, 24.043501 ], [ 91.391389, 24.03326 ], [ 91.38905, 24.030466 ], [ 91.369313, 24.0069 ], [ 91.371903, 23.997567 ], [ 91.370016, 23.978903 ], [ 91.303388, 23.987201 ], [ 91.28823, 23.970952 ], [ 91.263218, 23.958876 ], [ 91.266764, 23.926813 ], [ 91.242639, 23.918939 ], [ 91.241668, 23.91235 ], [ 91.240568, 23.904877 ], [ 91.230166, 23.893114 ], [ 91.228072, 23.885242 ], [ 91.228382, 23.877876 ], [ 91.241668, 23.851575 ], [ 91.244679, 23.845615 ], [ 91.245764, 23.834252 ], [ 91.241668, 23.826823 ], [ 91.231143, 23.807729 ], [ 91.226314, 23.787418 ], [ 91.227579, 23.765679 ], [ 91.220665, 23.748801 ], [ 91.211754, 23.739442 ], [ 91.197757, 23.747768 ], [ 91.174389, 23.74533 ], [ 91.167134, 23.744573 ], [ 91.161396, 23.739361 ], [ 91.151537, 23.715301 ], [ 91.151535, 23.70167 ], [ 91.156609, 23.690327 ], [ 91.165873, 23.687099 ], [ 91.174389, 23.687152 ], [ 91.195031, 23.687279 ], [ 91.19999, 23.675957 ], [ 91.195446, 23.647438 ], [ 91.180815, 23.646548 ], [ 91.174389, 23.653888 ], [ 91.16393, 23.664635 ], [ 91.152506, 23.642083 ], [ 91.16261, 23.596509 ], [ 91.174389, 23.585916 ], [ 91.176735, 23.577553 ], [ 91.190297, 23.563791 ], [ 91.196809, 23.54525 ], [ 91.207362, 23.540225 ], [ 91.198459, 23.518654 ], [ 91.215051, 23.506516 ], [ 91.219234, 23.496003 ], [ 91.230131, 23.494831 ], [ 91.233638, 23.487502 ], [ 91.241668, 23.483514 ], [ 91.243336, 23.482686 ], [ 91.250804, 23.437293 ], [ 91.263601, 23.428174 ], [ 91.259863, 23.420398 ], [ 91.270361, 23.402631 ], [ 91.274685, 23.380087 ], [ 91.285956, 23.374 ], [ 91.282941, 23.365117 ], [ 91.289964, 23.350723 ], [ 91.306787, 23.355426 ], [ 91.313473, 23.353842 ], [ 91.313168, 23.349569 ], [ 91.290684, 23.328027 ], [ 91.288401, 23.320441 ], [ 91.302549, 23.3106 ], [ 91.306907, 23.303066 ], [ 91.305898, 23.298697 ], [ 91.298628, 23.293137 ], [ 91.306698, 23.28095 ], [ 91.308421, 23.266411 ], [ 91.318293, 23.248337 ], [ 91.316564, 23.238373 ], [ 91.320238, 23.224573 ], [ 91.325568, 23.153201 ], [ 91.34127, 23.115138 ], [ 91.348994, 23.087978 ], [ 91.372747, 23.06427 ], [ 91.38905, 23.056682 ], [ 91.393752, 23.054643 ], [ 91.403903, 23.056353 ], [ 91.408127, 23.075411 ], [ 91.401498, 23.087458 ], [ 91.38905, 23.12954 ], [ 91.383421, 23.148564 ], [ 91.380031, 23.174778 ], [ 91.381983, 23.201458 ], [ 91.385626, 23.223178 ], [ 91.38905, 23.230783 ], [ 91.396094, 23.246428 ], [ 91.392802, 23.257527 ], [ 91.428168, 23.258398 ], [ 91.460453, 23.231731 ], [ 91.46129, 23.226173 ], [ 91.454715, 23.219575 ], [ 91.45491, 23.216166 ], [ 91.459352, 23.214676 ], [ 91.46924, 23.217278 ], [ 91.476482, 23.212206 ], [ 91.47775, 23.208769 ], [ 91.479594, 23.203774 ], [ 91.47775, 23.201179 ], [ 91.471281, 23.192072 ], [ 91.47775, 23.190613 ], [ 91.496279, 23.186435 ], [ 91.490001, 23.17448 ], [ 91.494317, 23.167666 ], [ 91.49273, 23.159642 ], [ 91.500394, 23.151063 ], [ 91.501617, 23.142495 ], [ 91.508509, 23.139795 ], [ 91.506034, 23.123188 ], [ 91.519723, 23.095729 ], [ 91.52812, 23.088067 ], [ 91.528171, 23.06951 ], [ 91.522617, 23.052062 ], [ 91.541261, 23.035213 ], [ 91.539, 23.022152 ], [ 91.542936, 23.013827 ], [ 91.544851, 22.99383 ], [ 91.552199, 22.990498 ], [ 91.556394, 22.980148 ], [ 91.573938, 22.964589 ], [ 91.584705, 22.969689 ], [ 91.601286, 22.968494 ], [ 91.610208, 22.958918 ], [ 91.602679, 22.951279 ], [ 91.613592, 22.944982 ], [ 91.615399, 22.931577 ], [ 91.617964, 22.930066 ], [ 91.623224, 22.935036 ], [ 91.626213, 22.95389 ], [ 91.642993, 22.974631 ], [ 91.661342, 22.97206 ], [ 91.681928, 22.975481 ], [ 91.690418, 22.980148 ], [ 91.695335, 22.983133 ], [ 91.707502, 22.982168 ], [ 91.716875, 22.985315 ], [ 91.758092, 23.023346 ], [ 91.770584, 23.026744 ], [ 91.778069, 23.02878 ], [ 91.78094, 23.039785 ], [ 91.774563, 23.059584 ], [ 91.77708, 23.065299 ], [ 91.785992, 23.0683 ], [ 91.797126, 23.061707 ], [ 91.803845, 23.062444 ], [ 91.812218, 23.067451 ], [ 91.816588, 23.077466 ], [ 91.822425, 23.082904 ], [ 91.82792, 23.090727 ], [ 91.828137, 23.094357 ], [ 91.822425, 23.097026 ], [ 91.814447, 23.100043 ], [ 91.815348, 23.109065 ], [ 91.808512, 23.133518 ], [ 91.804753, 23.167956 ], [ 91.788826, 23.200684 ], [ 91.780347, 23.237404 ], [ 91.772351, 23.244018 ], [ 91.775125, 23.25707 ], [ 91.771237, 23.267602 ], [ 91.780355, 23.293137 ], [ 91.785059, 23.306309 ], [ 91.796759, 23.318573 ], [ 91.805364, 23.340654 ], [ 91.822425, 23.358318 ], [ 91.828357, 23.365102 ], [ 91.836096, 23.384503 ], [ 91.84132, 23.397599 ], [ 91.845399, 23.401991 ], [ 91.857653, 23.405043 ], [ 91.861896, 23.40837 ], [ 91.867232, 23.412553 ], [ 91.883546, 23.425342 ], [ 91.899567, 23.433769 ], [ 91.914902, 23.435509 ], [ 91.926824, 23.430984 ], [ 91.936243, 23.43104 ], [ 91.941863, 23.462154 ], [ 91.960117, 23.476638 ], [ 91.966029, 23.486682 ], [ 91.966172, 23.503011 ], [ 91.961417, 23.514012 ], [ 91.959822, 23.555131 ], [ 91.948633, 23.59634 ], [ 91.944525, 23.620996 ], [ 91.938844, 23.655437 ], [ 91.938488, 23.669879 ], [ 91.938276, 23.678439 ], [ 91.946153, 23.693532 ], [ 91.9494, 23.718484 ], [ 91.954523, 23.725378 ], [ 91.966682, 23.727034 ], [ 91.97813, 23.721758 ], [ 91.988946, 23.694643 ], [ 92.008643, 23.669879 ], [ 92.013957, 23.663197 ], [ 92.024486, 23.643724 ], [ 92.030909, 23.640321 ], [ 92.057533, 23.640429 ], [ 92.073365, 23.645997 ], [ 92.084082, 23.669879 ], [ 92.086189, 23.674572 ], [ 92.098539, 23.679223 ], [ 92.113014, 23.691477 ], [ 92.142985, 23.724911 ], [ 92.159972, 23.732806 ], [ 92.169389, 23.733537 ], [ 92.189017, 23.724041 ], [ 92.199583, 23.704731 ], [ 92.209894, 23.696086 ], [ 92.209368, 23.669879 ], [ 92.209141, 23.658537 ], [ 92.214106, 23.651488 ], [ 92.221043, 23.653277 ], [ 92.226897, 23.661385 ], [ 92.229448, 23.669879 ], [ 92.243953, 23.71816 ], [ 92.25589, 23.72157 ], [ 92.273011, 23.712976 ], [ 92.288946, 23.693424 ], [ 92.286298, 23.672885 ], [ 92.285078, 23.669879 ], [ 92.273834, 23.642173 ], [ 92.27496, 23.627103 ], [ 92.283766, 23.624883 ], [ 92.287597, 23.620996 ], [ 92.288229, 23.618425 ], [ 92.282478, 23.6079 ], [ 92.283043, 23.593786 ], [ 92.299564, 23.583431 ], [ 92.302696, 23.577819 ], [ 92.309795, 23.530611 ], [ 92.315788, 23.516395 ], [ 92.321093, 23.467283 ], [ 92.327773, 23.450956 ], [ 92.327728, 23.424846 ], [ 92.34046, 23.424007 ], [ 92.351226, 23.404502 ], [ 92.353421, 23.379781 ], [ 92.358688, 23.375888 ], [ 92.360691, 23.368525 ], [ 92.369818, 23.363678 ], [ 92.375955, 23.348938 ], [ 92.367282, 23.324272 ], [ 92.375624, 23.316159 ], [ 92.380531, 23.305618 ], [ 92.380018, 23.293137 ], [ 92.379819, 23.288279 ], [ 92.385575, 23.275831 ], [ 92.385491, 23.267224 ], [ 92.369833, 23.262569 ], [ 92.363513, 23.252055 ], [ 92.3626, 23.243285 ], [ 92.352287, 23.23944 ], [ 92.349007, 23.233551 ], [ 92.3538, 23.216677 ], [ 92.350294, 23.190129 ], [ 92.355837, 23.177277 ], [ 92.358654, 23.153774 ], [ 92.356056, 23.136588 ], [ 92.36337, 23.121497 ], [ 92.359007, 23.103557 ], [ 92.382604, 23.074243 ], [ 92.388327, 23.048428 ], [ 92.379967, 23.014361 ], [ 92.382057, 22.992603 ], [ 92.373385, 22.954753 ], [ 92.372441, 22.940467 ], [ 92.375492, 22.928956 ], [ 92.394273, 22.923408 ], [ 92.398107, 22.912691 ], [ 92.416024, 22.908546 ], [ 92.429064, 22.891527 ], [ 92.442507, 22.884593 ], [ 92.452532, 22.861731 ], [ 92.459163, 22.854031 ], [ 92.459985, 22.845434 ], [ 92.451077, 22.833505 ], [ 92.463636, 22.801052 ], [ 92.474754, 22.747406 ], [ 92.490502, 22.737391 ], [ 92.50454, 22.733313 ], [ 92.514597, 22.717882 ], [ 92.527986, 22.655808 ], [ 92.526371, 22.637207 ], [ 92.530098, 22.628343 ], [ 92.525357, 22.616419 ], [ 92.535516, 22.587597 ], [ 92.536442, 22.573731 ], [ 92.535316, 22.569281 ], [ 92.527678, 22.563984 ], [ 92.525306, 22.555173 ], [ 92.546438, 22.512009 ], [ 92.54802, 22.50164 ], [ 92.544485, 22.484305 ], [ 92.545443, 22.466106 ], [ 92.553196, 22.44056 ], [ 92.55357, 22.423458 ], [ 92.561628, 22.378117 ], [ 92.578481, 22.323282 ], [ 92.580856, 22.297362 ], [ 92.576855, 22.286009 ], [ 92.577405, 22.270012 ], [ 92.588947, 22.247708 ], [ 92.589907, 22.214512 ], [ 92.598849, 22.173777 ], [ 92.608427, 22.161202 ], [ 92.606538, 22.134709 ], [ 92.602954, 22.126856 ], [ 92.593065, 22.126023 ], [ 92.581763, 22.136294 ], [ 92.569335, 22.133191 ], [ 92.565921, 22.128687 ], [ 92.595292, 22.059807 ], [ 92.593375, 22.038993 ], [ 92.604846, 22.003997 ], [ 92.608078, 21.983688 ], [ 92.606756, 21.971201 ], [ 92.612338, 21.956504 ], [ 92.611349, 21.947395 ], [ 92.615074, 21.940217 ], [ 92.615318, 21.930994 ], [ 92.624105, 21.914263 ], [ 92.627837, 21.889538 ], [ 92.633441, 21.874143 ], [ 92.630572, 21.861826 ], [ 92.616936, 21.846534 ], [ 92.622722, 21.822497 ], [ 92.611349, 21.814609 ], [ 92.608405, 21.806425 ], [ 92.611117, 21.77333 ], [ 92.601722, 21.701938 ], [ 92.608082, 21.68463 ], [ 92.604482, 21.661188 ], [ 92.603642, 21.652975 ], [ 92.610054, 21.622421 ], [ 92.608335, 21.590503 ], [ 92.615501, 21.573581 ], [ 92.617333, 21.549774 ], [ 92.618411, 21.535757 ], [ 92.618877, 21.529697 ], [ 92.620012, 21.51494 ], [ 92.627106, 21.486781 ], [ 92.625152, 21.472138 ], [ 92.632717, 21.442907 ], [ 92.638022, 21.436107 ], [ 92.643961, 21.400596 ], [ 92.649269, 21.390169 ], [ 92.652552, 21.354985 ], [ 92.656756, 21.34832 ], [ 92.664074, 21.319065 ], [ 92.679813, 21.296966 ], [ 92.680056, 21.286347 ], [ 92.636147, 21.267611 ], [ 92.625652, 21.255588 ], [ 92.624197, 21.246606 ], [ 92.601895, 21.243014 ], [ 92.598093, 21.242402 ], [ 92.590437, 21.282433 ], [ 92.572101, 21.324957 ], [ 92.572674, 21.335111 ], [ 92.566826, 21.346508 ], [ 92.561307, 21.37953 ], [ 92.55511, 21.38231 ], [ 92.552672, 21.383403 ], [ 92.534414, 21.371959 ], [ 92.527965, 21.37001 ], [ 92.511486, 21.375593 ], [ 92.509225, 21.362736 ], [ 92.501286, 21.351463 ], [ 92.477651, 21.353496 ], [ 92.461491, 21.365607 ], [ 92.441754, 21.365655 ], [ 92.428133, 21.381481 ], [ 92.427091, 21.395293 ], [ 92.430679, 21.408549 ], [ 92.422647, 21.437598 ], [ 92.400867, 21.454638 ], [ 92.393405, 21.467212 ], [ 92.381333, 21.478184 ], [ 92.367337, 21.477314 ], [ 92.346196, 21.462778 ], [ 92.339186, 21.435982 ], [ 92.331151, 21.427641 ], [ 92.329898, 21.417513 ], [ 92.314013, 21.415259 ], [ 92.30701, 21.418974 ], [ 92.300135, 21.418988 ], [ 92.29112, 21.427558 ], [ 92.273827, 21.424935 ], [ 92.268006, 21.405669 ], [ 92.271168, 21.396495 ], [ 92.263199, 21.390754 ], [ 92.258494, 21.383268 ], [ 92.259669, 21.375249 ], [ 92.257064, 21.369004 ], [ 92.259237, 21.358243 ], [ 92.253958, 21.354042 ], [ 92.239452, 21.351016 ], [ 92.219927, 21.342457 ], [ 92.202205, 21.325618 ], [ 92.202654, 21.304054 ], [ 92.208932, 21.288407 ], [ 92.216589, 21.27863 ], [ 92.22254, 21.254056 ], [ 92.216982, 21.241256 ], [ 92.220309, 21.229246 ], [ 92.207252, 21.207452 ], [ 92.196457, 21.201174 ], [ 92.175216, 21.17825 ], [ 92.173298, 21.171519 ], [ 92.177016, 21.161428 ], [ 92.195401, 21.160916 ], [ 92.202136, 21.150743 ], [ 92.197115, 21.140014 ], [ 92.199687, 21.119836 ], [ 92.214448, 21.101612 ], [ 92.236128, 21.08407 ], [ 92.252637, 21.06025 ], [ 92.252244, 21.026856 ], [ 92.261759, 20.979622 ], [ 92.263991, 20.94394 ], [ 92.275324, 20.912731 ], [ 92.300325, 20.88351 ], [ 92.30435, 20.874471 ], [ 92.313881, 20.853066 ], [ 92.334594, 20.785856 ], [ 92.335117, 20.768019 ], [ 92.328739, 20.757447 ], [ 92.309383, 20.773209 ], [ 92.308118, 20.783076 ], [ 92.30169, 20.787741 ], [ 92.305791, 20.793126 ], [ 92.304972, 20.797057 ], [ 92.297312, 20.805822 ], [ 92.291629, 20.804427 ], [ 92.292535, 20.811297 ], [ 92.251485, 20.874471 ], [ 92.224211, 20.916551 ], [ 92.20641, 20.952611 ], [ 92.182172, 21.017381 ], [ 92.074677, 21.144633 ], [ 92.050612, 21.180618 ], [ 92.046985, 21.198064 ], [ 92.047451, 21.275089 ], [ 92.044302, 21.301087 ], [ 92.013662, 21.36954 ], [ 91.985864, 21.409236 ], [ 91.960553, 21.438197 ], [ 91.952347, 21.453619 ], [ 91.955674, 21.466505 ], [ 91.965571, 21.472343 ], [ 91.974956, 21.472091 ], [ 91.993972, 21.498987 ], [ 92.005309, 21.509288 ], [ 91.996674, 21.575216 ], [ 92.004021, 21.589008 ], [ 92.014334, 21.597023 ], [ 92.016793, 21.604667 ], [ 92.009296, 21.609897 ], [ 91.998233, 21.634466 ], [ 91.997106, 21.64536 ], [ 92.003417, 21.656382 ], [ 91.993532, 21.657152 ], [ 91.98326, 21.652702 ], [ 91.964086, 21.671359 ], [ 91.950035, 21.709201 ], [ 91.944882, 21.737694 ], [ 91.940312, 21.745201 ], [ 91.947268, 21.709425 ], [ 91.958015, 21.676997 ], [ 91.98069, 21.644984 ], [ 91.985943, 21.632637 ], [ 91.979486, 21.53993 ], [ 91.969882, 21.513634 ], [ 91.96049, 21.506713 ], [ 91.90434, 21.519809 ], [ 91.895505, 21.528053 ], [ 91.898955, 21.539298 ], [ 91.895092, 21.548827 ], [ 91.895373, 21.569882 ], [ 91.884808, 21.586465 ], [ 91.88148, 21.598813 ], [ 91.883919, 21.613005 ], [ 91.88833, 21.620636 ], [ 91.88781, 21.630433 ], [ 91.891242, 21.642723 ], [ 91.88457, 21.684978 ], [ 91.887566, 21.690023 ], [ 91.909968, 21.704254 ], [ 91.915628, 21.717561 ], [ 91.912957, 21.727555 ], [ 91.923022, 21.731619 ], [ 91.925294, 21.736408 ], [ 91.912212, 21.742316 ], [ 91.90645, 21.730381 ], [ 91.905315, 21.706836 ], [ 91.880369, 21.685974 ], [ 91.878403, 21.674024 ], [ 91.881135, 21.65024 ], [ 91.874586, 21.65166 ], [ 91.859426, 21.667325 ], [ 91.856385, 21.684609 ], [ 91.86084, 21.698942 ], [ 91.874836, 21.720238 ], [ 91.884378, 21.756374 ], [ 91.896678, 21.766762 ], [ 91.895707, 21.78486 ], [ 91.907721, 21.810811 ], [ 91.918875, 21.858509 ], [ 91.907786, 21.910258 ], [ 91.907004, 21.935695 ], [ 91.902892, 21.943569 ], [ 91.889014, 21.954488 ], [ 91.886293, 21.972215 ], [ 91.878793, 21.990895 ], [ 91.881728, 22.005892 ], [ 91.881001, 22.03528 ], [ 91.863541, 22.087751 ], [ 91.861553, 22.107001 ], [ 91.857822, 22.114201 ], [ 91.845478, 22.117248 ], [ 91.839548, 22.122522 ], [ 91.824307, 22.15683 ], [ 91.813565, 22.20344 ], [ 91.81367, 22.229765 ], [ 91.797108, 22.232044 ], [ 91.769567, 22.272152 ], [ 91.767004, 22.296863 ], [ 91.754164, 22.355493 ], [ 91.754686, 22.370861 ], [ 91.748615, 22.383971 ], [ 91.741717, 22.418804 ], [ 91.722686, 22.463018 ], [ 91.694759, 22.50881 ], [ 91.63289, 22.580634 ], [ 91.619658, 22.60098 ], [ 91.599606, 22.61991 ], [ 91.592857, 22.637463 ], [ 91.56335, 22.677726 ], [ 91.533142, 22.706594 ], [ 91.479795, 22.747459 ], [ 91.474496, 22.748879 ], [ 91.466938, 22.744861 ], [ 91.450107, 22.79173 ], [ 91.441393, 22.800663 ], [ 91.424696, 22.807052 ], [ 91.432381, 22.832148 ], [ 91.448606, 22.829504 ], [ 91.460896, 22.843207 ], [ 91.477183, 22.848834 ], [ 91.479068, 22.876124 ], [ 91.484245, 22.899895 ], [ 91.482376, 22.909799 ], [ 91.47841, 22.910448 ], [ 91.463574, 22.858874 ], [ 91.4496, 22.836434 ], [ 91.446515, 22.833973 ], [ 91.435134, 22.836374 ], [ 91.42845, 22.835061 ], [ 91.413535, 22.813354 ], [ 91.413382, 22.803685 ], [ 91.421994, 22.791989 ], [ 91.425939, 22.778173 ], [ 91.421289, 22.761044 ], [ 91.412884, 22.761794 ], [ 91.389938, 22.780625 ], [ 91.362737, 22.781745 ], [ 91.34121, 22.793377 ], [ 91.3351, 22.805712 ], [ 91.335319, 22.834825 ], [ 91.328359, 22.842742 ], [ 91.331874, 22.829697 ], [ 91.329813, 22.807765 ], [ 91.333335, 22.789469 ], [ 91.344511, 22.780581 ], [ 91.380527, 22.765712 ], [ 91.383572, 22.758311 ], [ 91.359398, 22.750041 ], [ 91.281959, 22.750025 ], [ 91.279943, 22.747744 ], [ 91.288192, 22.742456 ], [ 91.290607, 22.736057 ], [ 91.275481, 22.713211 ], [ 91.261622, 22.703273 ], [ 91.241668, 22.711266 ], [ 91.232648, 22.71518 ], [ 91.232105, 22.715416 ], [ 91.230567, 22.71518 ], [ 91.21411, 22.712657 ], [ 91.216616, 22.705991 ], [ 91.235738, 22.695233 ], [ 91.238328, 22.681226 ], [ 91.241668, 22.679642 ], [ 91.258639, 22.671591 ], [ 91.264753, 22.656789 ], [ 91.262796, 22.636052 ], [ 91.249277, 22.615844 ], [ 91.272734, 22.589696 ], [ 91.260111, 22.578067 ], [ 91.246407, 22.556276 ], [ 91.241668, 22.55479 ], [ 91.218564, 22.547338 ], [ 91.175837, 22.526251 ], [ 91.165886, 22.526484 ], [ 91.154439, 22.531191 ], [ 91.141715, 22.50739 ], [ 91.10741, 22.483137 ], [ 91.098425, 22.500376 ], [ 91.091185, 22.497908 ], [ 91.092043, 22.508347 ], [ 91.104679, 22.524959 ], [ 91.125695, 22.540102 ], [ 91.091896, 22.526863 ], [ 91.063969, 22.529354 ], [ 91.037195, 22.528084 ], [ 90.872136, 22.434129 ], [ 90.842078, 22.362005 ], [ 90.841474, 22.270086 ], [ 90.818159, 22.138843 ], [ 90.80904, 22.12265 ], [ 90.791146, 22.105572 ], [ 90.770679, 22.076259 ], [ 90.739698, 22.05383 ], [ 90.691872, 22.010377 ], [ 90.66509, 21.99941 ], [ 90.636036, 21.997701 ], [ 90.625702, 22.005551 ], [ 90.623616, 22.018088 ], [ 90.612811, 22.023198 ], [ 90.603121, 22.035541 ], [ 90.60287, 22.049845 ], [ 90.619698, 22.111707 ], [ 90.624952, 22.179162 ], [ 90.646016, 22.21059 ], [ 90.656056, 22.236611 ], [ 90.646123, 22.248327 ], [ 90.602452, 22.263079 ], [ 90.571482, 22.245819 ], [ 90.544033, 22.219553 ], [ 90.519678, 22.180778 ], [ 90.5006, 22.165819 ], [ 90.485876, 22.138579 ], [ 90.460322, 22.104376 ], [ 90.440018, 22.084783 ], [ 90.419284, 22.072689 ], [ 90.401499, 22.074347 ], [ 90.399724, 22.084343 ], [ 90.389542, 22.104068 ], [ 90.391171, 22.126507 ], [ 90.388212, 22.129935 ], [ 90.385016, 22.129033 ], [ 90.37698, 22.113819 ], [ 90.371314, 22.082802 ], [ 90.34599, 22.061001 ], [ 90.329426, 22.038627 ], [ 90.305134, 21.977114 ], [ 90.293025, 21.930145 ], [ 90.262698, 21.866042 ], [ 90.247997, 21.845833 ], [ 90.245682, 21.834617 ], [ 90.225093, 21.815447 ], [ 90.209256, 21.809076 ], [ 90.204735, 21.808994 ], [ 90.202472, 21.81559 ], [ 90.159668, 21.804622 ], [ 90.129435, 21.81137 ], [ 90.102449, 21.825425 ], [ 90.092662, 21.841397 ], [ 90.110092, 21.880257 ], [ 90.111694, 21.89659 ], [ 90.083414, 21.90136 ], [ 90.052764, 21.894699 ], [ 90.038773, 21.89931 ], [ 90.033594, 21.905009 ], [ 90.034109, 21.942494 ], [ 90.052508, 21.956942 ], [ 90.057724, 21.964697 ], [ 90.049888, 21.976911 ], [ 90.024278, 21.981474 ], [ 90.000632, 21.975664 ], [ 89.989152, 21.967861 ], [ 89.978702, 21.953147 ], [ 89.968875, 21.948251 ], [ 89.954162, 21.948935 ], [ 89.942646, 21.957468 ], [ 89.934917, 21.993726 ], [ 89.917521, 22.026574 ], [ 89.905682, 22.067849 ], [ 89.910698, 22.125853 ], [ 89.907388, 22.152263 ], [ 89.891653, 22.197649 ], [ 89.876324, 22.218697 ], [ 89.862135, 22.219516 ], [ 89.852403, 22.215305 ], [ 89.864827, 22.201311 ], [ 89.875892, 22.181121 ], [ 89.883257, 22.140129 ], [ 89.877578, 22.106193 ], [ 89.846249, 22.06935 ], [ 89.836854, 22.067464 ], [ 89.824505, 22.066895 ], [ 89.815085, 22.071805 ], [ 89.83398, 22.100718 ], [ 89.836854, 22.109355 ], [ 89.839732, 22.118005 ], [ 89.836854, 22.12493 ], [ 89.822855, 22.141578 ], [ 89.83096, 22.156575 ], [ 89.832374, 22.166754 ], [ 89.804734, 22.219935 ], [ 89.804996, 22.214682 ], [ 89.828393, 22.169197 ], [ 89.826905, 22.16071 ], [ 89.816328, 22.143895 ], [ 89.829351, 22.118886 ], [ 89.80505, 22.070291 ], [ 89.829068, 22.038264 ], [ 89.836854, 22.04469 ], [ 89.843984, 22.04239 ], [ 89.852713, 22.031343 ], [ 89.862122, 21.969287 ], [ 89.871231, 21.936493 ], [ 89.874338, 21.904067 ], [ 89.863751, 21.883626 ], [ 89.852535, 21.878027 ], [ 89.84647, 21.881862 ], [ 89.843439, 21.895009 ], [ 89.836854, 21.897686 ], [ 89.836854, 21.896806 ], [ 89.840145, 21.886132 ], [ 89.836854, 21.860571 ], [ 89.826566, 21.849428 ], [ 89.780542, 21.83915 ], [ 89.776646, 21.845658 ], [ 89.782726, 21.87126 ], [ 89.766361, 21.856159 ], [ 89.755766, 21.855761 ], [ 89.749769, 21.860954 ], [ 89.735656, 21.887928 ], [ 89.724922, 21.902393 ], [ 89.730921, 21.928087 ], [ 89.721901, 21.956389 ], [ 89.744321, 21.975539 ], [ 89.744392, 21.98954 ], [ 89.749747, 21.999288 ], [ 89.750639, 22.015212 ], [ 89.756608, 22.027713 ], [ 89.7481, 22.04216 ], [ 89.747486, 22.050217 ], [ 89.758454, 22.066618 ], [ 89.778296, 22.088305 ], [ 89.76302, 22.122288 ], [ 89.752626, 22.13162 ], [ 89.763899, 22.113771 ], [ 89.770394, 22.086942 ], [ 89.744618, 22.050992 ], [ 89.745394, 22.039562 ], [ 89.751584, 22.026792 ], [ 89.739688, 21.992531 ], [ 89.738675, 21.978998 ], [ 89.730477, 21.974421 ], [ 89.71847, 21.975594 ], [ 89.714949, 21.959813 ], [ 89.722421, 21.930815 ], [ 89.715046, 21.903263 ], [ 89.73517, 21.872872 ], [ 89.739657, 21.845171 ], [ 89.731892, 21.837152 ], [ 89.721679, 21.834688 ], [ 89.70854, 21.838048 ], [ 89.698695, 21.845242 ], [ 89.674455, 21.84069 ], [ 89.668794, 21.849147 ], [ 89.668699, 21.868453 ], [ 89.663529, 21.885797 ], [ 89.677966, 21.906638 ], [ 89.690969, 21.939469 ], [ 89.693522, 21.95816 ], [ 89.690002, 21.988975 ], [ 89.699965, 22.007109 ], [ 89.702225, 22.023016 ], [ 89.698421, 22.037314 ], [ 89.687358, 22.046403 ], [ 89.684902, 22.051527 ], [ 89.706352, 22.071535 ], [ 89.712396, 22.104209 ], [ 89.711251, 22.127443 ], [ 89.698027, 22.174049 ], [ 89.70517, 22.189067 ], [ 89.698209, 22.203802 ], [ 89.720104, 22.241739 ], [ 89.732707, 22.273846 ], [ 89.726734, 22.279522 ], [ 89.708984, 22.281291 ], [ 89.704195, 22.303994 ], [ 89.705834, 22.276676 ], [ 89.727569, 22.268745 ], [ 89.712111, 22.238398 ], [ 89.690722, 22.210654 ], [ 89.693374, 22.169224 ], [ 89.706442, 22.127145 ], [ 89.70805, 22.105054 ], [ 89.700398, 22.074536 ], [ 89.677017, 22.065377 ], [ 89.677933, 22.047927 ], [ 89.693202, 22.02529 ], [ 89.679158, 21.988889 ], [ 89.683592, 21.964976 ], [ 89.683149, 21.950569 ], [ 89.671442, 21.916793 ], [ 89.661239, 21.908326 ], [ 89.651685, 21.912931 ], [ 89.639534, 21.931318 ], [ 89.631998, 21.952233 ], [ 89.589257, 21.951402 ], [ 89.570908, 21.947143 ], [ 89.559265, 21.95339 ], [ 89.55369, 21.96241 ], [ 89.558578, 22.006313 ], [ 89.573671, 22.049037 ], [ 89.596809, 22.091015 ], [ 89.602482, 22.118751 ], [ 89.59041, 22.149879 ], [ 89.562719, 22.186683 ], [ 89.559078, 22.204894 ], [ 89.564396, 22.211256 ], [ 89.580744, 22.220343 ], [ 89.589109, 22.229669 ], [ 89.596492, 22.249522 ], [ 89.599344, 22.2792 ], [ 89.619748, 22.307807 ], [ 89.641622, 22.354533 ], [ 89.653247, 22.363538 ], [ 89.634068, 22.365997 ], [ 89.619488, 22.412621 ], [ 89.604262, 22.437061 ], [ 89.59803, 22.44189 ], [ 89.593145, 22.441247 ], [ 89.592915, 22.434051 ], [ 89.613616, 22.38993 ], [ 89.621144, 22.344055 ], [ 89.611786, 22.31959 ], [ 89.583988, 22.27822 ], [ 89.578418, 22.246183 ], [ 89.569082, 22.23702 ], [ 89.544453, 22.201811 ], [ 89.54747, 22.183391 ], [ 89.568355, 22.150425 ], [ 89.580321, 22.117474 ], [ 89.574641, 22.096566 ], [ 89.550825, 22.045055 ], [ 89.542588, 22.015528 ], [ 89.529732, 22.001509 ], [ 89.520995, 22.006497 ], [ 89.515375, 22.018386 ], [ 89.530101, 22.05277 ], [ 89.532382, 22.081953 ], [ 89.514569, 22.113248 ], [ 89.48101, 22.219673 ], [ 89.489423, 22.257538 ], [ 89.487553, 22.280133 ], [ 89.476334, 22.306346 ], [ 89.450948, 22.334301 ], [ 89.440601, 22.352876 ], [ 89.448965, 22.397445 ], [ 89.458729, 22.409956 ], [ 89.441232, 22.420999 ], [ 89.431595, 22.456435 ], [ 89.422844, 22.456574 ], [ 89.419832, 22.449865 ], [ 89.425821, 22.409445 ], [ 89.432956, 22.384947 ], [ 89.42369, 22.358789 ], [ 89.422477, 22.345172 ], [ 89.44628, 22.322314 ], [ 89.472035, 22.276963 ], [ 89.470847, 22.266714 ], [ 89.456867, 22.252467 ], [ 89.430382, 22.240946 ], [ 89.420404, 22.241838 ], [ 89.420348, 22.254893 ], [ 89.42892, 22.281562 ], [ 89.415982, 22.304307 ], [ 89.417361, 22.323104 ], [ 89.395927, 22.343939 ], [ 89.40883, 22.322267 ], [ 89.410136, 22.295953 ], [ 89.421568, 22.280876 ], [ 89.41181, 22.2503 ], [ 89.413126, 22.237278 ], [ 89.422737, 22.231159 ], [ 89.444846, 22.238952 ], [ 89.455517, 22.236323 ], [ 89.458375, 22.20014 ], [ 89.47047, 22.155594 ], [ 89.469116, 22.153404 ], [ 89.456889, 22.152718 ], [ 89.438944, 22.164469 ], [ 89.399247, 22.2061 ], [ 89.398613, 22.199313 ], [ 89.413201, 22.185585 ], [ 89.42651, 22.163382 ], [ 89.441396, 22.1568 ], [ 89.454803, 22.145066 ], [ 89.464336, 22.124777 ], [ 89.466172, 22.111702 ], [ 89.476106, 22.093557 ], [ 89.46576, 22.080301 ], [ 89.445121, 22.069345 ], [ 89.431117, 22.04986 ], [ 89.440172, 22.05815 ], [ 89.447376, 22.057525 ], [ 89.446272, 22.065187 ], [ 89.449089, 22.06828 ], [ 89.471941, 22.076034 ], [ 89.489798, 22.087865 ], [ 89.503449, 22.085642 ], [ 89.511043, 22.077431 ], [ 89.467435, 22.045696 ], [ 89.473651, 22.029109 ], [ 89.488211, 22.006179 ], [ 89.49309, 21.9868 ], [ 89.509051, 21.956414 ], [ 89.509427, 21.939308 ], [ 89.504432, 21.929837 ], [ 89.507633, 21.92431 ], [ 89.503139, 21.911984 ], [ 89.46213, 21.908244 ], [ 89.454601, 21.910648 ], [ 89.453537, 21.913274 ], [ 89.461281, 21.928037 ], [ 89.459885, 21.938219 ], [ 89.435197, 21.953305 ], [ 89.425419, 21.964495 ], [ 89.433401, 21.948077 ], [ 89.448607, 21.933346 ], [ 89.450203, 21.911047 ], [ 89.463103, 21.895965 ], [ 89.450038, 21.857566 ], [ 89.426242, 21.851712 ], [ 89.452757, 21.840149 ], [ 89.469917, 21.810277 ], [ 89.471843, 21.798877 ], [ 89.456667, 21.770171 ], [ 89.417394, 21.730591 ], [ 89.39647, 21.725298 ], [ 89.379548, 21.73215 ], [ 89.36926, 21.742158 ], [ 89.352127, 21.803156 ], [ 89.366967, 21.848818 ], [ 89.378861, 21.873071 ], [ 89.383946, 21.89814 ], [ 89.37974, 21.928948 ], [ 89.363722, 21.964797 ], [ 89.355939, 22.023102 ], [ 89.388538, 22.078489 ], [ 89.390004, 22.087705 ], [ 89.386551, 22.109936 ], [ 89.406553, 22.129264 ], [ 89.409245, 22.146965 ], [ 89.406596, 22.146932 ], [ 89.397611, 22.133456 ], [ 89.39602, 22.126536 ], [ 89.382781, 22.117337 ], [ 89.372855, 22.102505 ], [ 89.355901, 22.115341 ], [ 89.347695, 22.130348 ], [ 89.329947, 22.135713 ], [ 89.332769, 22.127837 ], [ 89.346643, 22.125586 ], [ 89.353512, 22.110579 ], [ 89.378516, 22.086019 ], [ 89.364439, 22.058149 ], [ 89.3436, 22.029979 ], [ 89.342414, 22.013483 ], [ 89.34769, 21.986838 ], [ 89.341706, 21.978913 ], [ 89.333, 21.985296 ], [ 89.324342, 21.996576 ], [ 89.295016, 22.057215 ], [ 89.305854, 22.066286 ], [ 89.324254, 22.059306 ], [ 89.327334, 22.060726 ], [ 89.312746, 22.073255 ], [ 89.301092, 22.093443 ], [ 89.27453, 22.099919 ], [ 89.279386, 22.107545 ], [ 89.287265, 22.111719 ], [ 89.282541, 22.124815 ], [ 89.29306, 22.151108 ], [ 89.320227, 22.176647 ], [ 89.329031, 22.17556 ], [ 89.335703, 22.165759 ], [ 89.329169, 22.196377 ], [ 89.334833, 22.210307 ], [ 89.346665, 22.225535 ], [ 89.352151, 22.245705 ], [ 89.346318, 22.264251 ], [ 89.335258, 22.274918 ], [ 89.32239, 22.300022 ], [ 89.319499, 22.300498 ], [ 89.317967, 22.295792 ], [ 89.339525, 22.263965 ], [ 89.347019, 22.241935 ], [ 89.337895, 22.219964 ], [ 89.324563, 22.209888 ], [ 89.317716, 22.210783 ], [ 89.313358, 22.216532 ], [ 89.310068, 22.236166 ], [ 89.301004, 22.255237 ], [ 89.304224, 22.26266 ], [ 89.317065, 22.274066 ], [ 89.318689, 22.281757 ], [ 89.307764, 22.289541 ], [ 89.286514, 22.293996 ], [ 89.272812, 22.317131 ], [ 89.258999, 22.333797 ], [ 89.259133, 22.340034 ], [ 89.268901, 22.342669 ], [ 89.273523, 22.348508 ], [ 89.272291, 22.358784 ], [ 89.264144, 22.370808 ], [ 89.260563, 22.371615 ], [ 89.267457, 22.352433 ], [ 89.255679, 22.345323 ], [ 89.253571, 22.336272 ], [ 89.272221, 22.30728 ], [ 89.281152, 22.288063 ], [ 89.287998, 22.283967 ], [ 89.302672, 22.282182 ], [ 89.307105, 22.278495 ], [ 89.305148, 22.273238 ], [ 89.294037, 22.264116 ], [ 89.290949, 22.258333 ], [ 89.293148, 22.247072 ], [ 89.301881, 22.232874 ], [ 89.296056, 22.224073 ], [ 89.266246, 22.222877 ], [ 89.253826, 22.228501 ], [ 89.24941, 22.241572 ], [ 89.251075, 22.25694 ], [ 89.263343, 22.275717 ], [ 89.264509, 22.283565 ], [ 89.257813, 22.289314 ], [ 89.237049, 22.294106 ], [ 89.225685, 22.303685 ], [ 89.21285, 22.338109 ], [ 89.218671, 22.355923 ], [ 89.218746, 22.364528 ], [ 89.212492, 22.370026 ], [ 89.198096, 22.374594 ], [ 89.193921, 22.391807 ], [ 89.190628, 22.39086 ], [ 89.190372, 22.379466 ], [ 89.194406, 22.370928 ], [ 89.209894, 22.359901 ], [ 89.207162, 22.339442 ], [ 89.219333, 22.30647 ], [ 89.23247, 22.290772 ], [ 89.249954, 22.279142 ], [ 89.242937, 22.260241 ], [ 89.235989, 22.210813 ], [ 89.254486, 22.214249 ], [ 89.296629, 22.210295 ], [ 89.308095, 22.189859 ], [ 89.303544, 22.179391 ], [ 89.273275, 22.151231 ], [ 89.265002, 22.135285 ], [ 89.261958, 22.114621 ], [ 89.247297, 22.10281 ], [ 89.219157, 22.102251 ], [ 89.211812, 22.119222 ], [ 89.222556, 22.133125 ], [ 89.2172, 22.141353 ], [ 89.217682, 22.145332 ], [ 89.242262, 22.16262 ], [ 89.231218, 22.186077 ], [ 89.232838, 22.162507 ], [ 89.213512, 22.149528 ], [ 89.211747, 22.134909 ], [ 89.202168, 22.135076 ], [ 89.193822, 22.142813 ], [ 89.194999, 22.132304 ], [ 89.2134, 22.095587 ], [ 89.233267, 22.074209 ], [ 89.24051, 22.059805 ], [ 89.234944, 22.04428 ], [ 89.205179, 22.009727 ], [ 89.197077, 22.010605 ], [ 89.185129, 22.022069 ], [ 89.169388, 22.028626 ], [ 89.159933, 22.036797 ], [ 89.160102, 22.043529 ], [ 89.170735, 22.055292 ], [ 89.173033, 22.06583 ], [ 89.16157, 22.086074 ], [ 89.145416, 22.092606 ], [ 89.130832, 22.106367 ], [ 89.125105, 22.121548 ], [ 89.135008, 22.125902 ], [ 89.137604, 22.130813 ], [ 89.126326, 22.14853 ], [ 89.128737, 22.138126 ], [ 89.13446, 22.130795 ], [ 89.122395, 22.128915 ], [ 89.117464, 22.124216 ], [ 89.126816, 22.101192 ], [ 89.144358, 22.079671 ], [ 89.137118, 22.069087 ], [ 89.150753, 22.073786 ], [ 89.169805, 22.062451 ], [ 89.154751, 22.054276 ], [ 89.148217, 22.045219 ], [ 89.147031, 22.032725 ], [ 89.156289, 22.015383 ], [ 89.161439, 21.996202 ], [ 89.15759, 21.988903 ], [ 89.136037, 21.969017 ], [ 89.131458, 21.95417 ], [ 89.132667, 21.943232 ], [ 89.14562, 21.917483 ], [ 89.158693, 21.913964 ], [ 89.190356, 21.914631 ], [ 89.196612, 21.913192 ], [ 89.198955, 21.909986 ], [ 89.186404, 21.873705 ], [ 89.183493, 21.839495 ], [ 89.177076, 21.831825 ], [ 89.165676, 21.805035 ], [ 89.149833, 21.796917 ], [ 89.10337, 21.81532 ], [ 89.106993, 21.822084 ], [ 89.104056, 21.830112 ], [ 89.102089, 21.862248 ], [ 89.093245, 21.885253 ], [ 89.082092, 21.904126 ], [ 89.081773, 21.913456 ], [ 89.090096, 21.939991 ], [ 89.100938, 21.940236 ], [ 89.104556, 21.942666 ], [ 89.099147, 21.943779 ], [ 89.094543, 21.955526 ], [ 89.095629, 21.981564 ], [ 89.091887, 22.010191 ], [ 89.09447, 22.031353 ], [ 89.089015, 22.023631 ], [ 89.072043, 22.047955 ], [ 89.069912, 22.056646 ], [ 89.057023, 22.066188 ], [ 89.050595, 22.091315 ], [ 89.058857, 22.111706 ], [ 89.101061, 22.142704 ], [ 89.108207, 22.153177 ], [ 89.122096, 22.151631 ], [ 89.098936, 22.167731 ], [ 89.0953, 22.161383 ], [ 89.0802, 22.155271 ], [ 89.079786, 22.154845 ] ] ], [ [ [ 91.023258, 22.105626 ], [ 91.039381, 22.131922 ], [ 91.045987, 22.167261 ], [ 91.048196, 22.179078 ], [ 91.065003, 22.226831 ], [ 91.069269, 22.249748 ], [ 91.067329, 22.299539 ], [ 91.065824, 22.328198 ], [ 91.072311, 22.362884 ], [ 91.070033, 22.401037 ], [ 91.078358, 22.422868 ], [ 91.097499, 22.414846 ], [ 91.129432, 22.400823 ], [ 91.135329, 22.380963 ], [ 91.156121, 22.35751 ], [ 91.164715, 22.32993 ], [ 91.174389, 22.314487 ], [ 91.184067, 22.299037 ], [ 91.180592, 22.28884 ], [ 91.18146, 22.23855 ], [ 91.174389, 22.219161 ], [ 91.173635, 22.217093 ], [ 91.174389, 22.205246 ], [ 91.174389, 22.203315 ], [ 91.169714, 22.196106 ], [ 91.17177, 22.191006 ], [ 91.167139, 22.190131 ], [ 91.16482, 22.185555 ], [ 91.166849, 22.178292 ], [ 91.155189, 22.176738 ], [ 91.146053, 22.167261 ], [ 91.130858, 22.151497 ], [ 91.112162, 22.141181 ], [ 91.097499, 22.127116 ], [ 91.085795, 22.119882 ], [ 91.063477, 22.099193 ], [ 91.048598, 22.091003 ], [ 91.038981, 22.089629 ], [ 91.023901, 22.100531 ], [ 91.023258, 22.105626 ] ] ], [ [ [ 89.140961, 21.950249 ], [ 89.140961, 21.953014 ], [ 89.143811, 21.962885 ], [ 89.160171, 21.979639 ], [ 89.170648, 21.996331 ], [ 89.170307, 22.005607 ], [ 89.165844, 22.016333 ], [ 89.167534, 22.01963 ], [ 89.184043, 22.019784 ], [ 89.186223, 22.015494 ], [ 89.197442, 22.000954 ], [ 89.238876, 21.985326 ], [ 89.23407, 21.977535 ], [ 89.205874, 21.961506 ], [ 89.202922, 21.950511 ], [ 89.211159, 21.936079 ], [ 89.221574, 21.929965 ], [ 89.238381, 21.927134 ], [ 89.254083, 21.909696 ], [ 89.282468, 21.903088 ], [ 89.268861, 21.881244 ], [ 89.270877, 21.847179 ], [ 89.256268, 21.831595 ], [ 89.24944, 21.819436 ], [ 89.251867, 21.81869 ], [ 89.260254, 21.829918 ], [ 89.267818, 21.827315 ], [ 89.284418, 21.786239 ], [ 89.286213, 21.759964 ], [ 89.262037, 21.760321 ], [ 89.253756, 21.758495 ], [ 89.253951, 21.756849 ], [ 89.264886, 21.756705 ], [ 89.280562, 21.751672 ], [ 89.286415, 21.742308 ], [ 89.287578, 21.730804 ], [ 89.2782, 21.704776 ], [ 89.262268, 21.703829 ], [ 89.258551, 21.698701 ], [ 89.247515, 21.69278 ], [ 89.238715, 21.695516 ], [ 89.227, 21.706315 ], [ 89.227239, 21.715267 ], [ 89.220991, 21.739943 ], [ 89.224391, 21.747356 ], [ 89.233946, 21.753014 ], [ 89.233433, 21.754552 ], [ 89.220851, 21.754168 ], [ 89.216419, 21.758025 ], [ 89.193716, 21.786624 ], [ 89.188007, 21.814964 ], [ 89.188439, 21.818897 ], [ 89.194299, 21.82333 ], [ 89.208589, 21.825235 ], [ 89.196867, 21.83599 ], [ 89.202209, 21.882921 ], [ 89.211697, 21.907246 ], [ 89.209737, 21.91639 ], [ 89.205787, 21.920261 ], [ 89.186223, 21.925991 ], [ 89.181087, 21.926971 ], [ 89.154689, 21.92565 ], [ 89.143259, 21.937259 ], [ 89.140961, 21.950249 ] ] ], [ [ [ 91.418786, 22.519114 ], [ 91.424894, 22.524628 ], [ 91.425857, 22.529871 ], [ 91.422934, 22.537285 ], [ 91.426508, 22.556876 ], [ 91.422387, 22.561784 ], [ 91.423652, 22.572331 ], [ 91.419847, 22.577889 ], [ 91.427136, 22.589348 ], [ 91.427628, 22.599603 ], [ 91.441782, 22.607918 ], [ 91.444175, 22.60332 ], [ 91.450858, 22.606328 ], [ 91.463523, 22.600524 ], [ 91.468682, 22.595148 ], [ 91.47775, 22.586966 ], [ 91.485542, 22.579936 ], [ 91.505062, 22.555223 ], [ 91.506187, 22.545866 ], [ 91.519369, 22.524556 ], [ 91.521438, 22.515569 ], [ 91.545706, 22.478664 ], [ 91.55578, 22.450332 ], [ 91.558604, 22.424984 ], [ 91.56461, 22.408336 ], [ 91.560732, 22.400968 ], [ 91.555338, 22.403117 ], [ 91.535453, 22.400385 ], [ 91.528625, 22.393317 ], [ 91.515907, 22.400367 ], [ 91.481914, 22.395717 ], [ 91.47775, 22.400124 ], [ 91.475285, 22.402733 ], [ 91.468682, 22.418642 ], [ 91.443692, 22.453814 ], [ 91.425116, 22.496744 ], [ 91.418786, 22.519114 ] ] ], [ [ [ 90.314286, 21.857034 ], [ 90.315777, 21.886591 ], [ 90.330901, 21.91864 ], [ 90.338284, 21.9438 ], [ 90.351839, 21.961984 ], [ 90.358998, 21.9819 ], [ 90.371771, 21.990583 ], [ 90.397755, 22.00834 ], [ 90.406654, 22.019369 ], [ 90.42425, 22.033572 ], [ 90.450786, 22.04409 ], [ 90.472765, 22.03072 ], [ 90.484524, 21.971884 ], [ 90.483107, 21.947516 ], [ 90.475941, 21.93241 ], [ 90.448823, 21.913308 ], [ 90.424966, 21.901786 ], [ 90.399614, 21.89814 ], [ 90.38389, 21.902721 ], [ 90.379784, 21.907989 ], [ 90.377347, 21.919271 ], [ 90.37898, 21.925534 ], [ 90.386134, 21.931633 ], [ 90.387122, 21.937256 ], [ 90.371771, 21.939994 ], [ 90.355743, 21.916689 ], [ 90.352689, 21.900351 ], [ 90.35709, 21.886087 ], [ 90.355901, 21.877926 ], [ 90.345221, 21.863484 ], [ 90.339555, 21.850186 ], [ 90.325843, 21.848042 ], [ 90.314286, 21.857034 ] ] ], [ [ [ 89.211368, 21.953602 ], [ 89.21969, 21.959983 ], [ 89.236374, 21.965931 ], [ 89.247768, 21.974747 ], [ 89.250835, 21.97947 ], [ 89.250246, 21.987021 ], [ 89.247768, 21.990905 ], [ 89.242641, 21.996114 ], [ 89.219901, 22.008142 ], [ 89.247768, 22.043732 ], [ 89.253211, 22.060835 ], [ 89.247768, 22.075339 ], [ 89.225152, 22.09411 ], [ 89.22735, 22.098049 ], [ 89.233559, 22.099155 ], [ 89.247768, 22.094195 ], [ 89.261355, 22.081662 ], [ 89.272966, 22.083983 ], [ 89.285036, 22.086396 ], [ 89.29228, 22.084955 ], [ 89.280372, 22.06917 ], [ 89.277273, 22.059676 ], [ 89.278331, 22.050975 ], [ 89.29567, 22.022504 ], [ 89.306976, 21.99565 ], [ 89.341254, 21.953636 ], [ 89.357715, 21.917314 ], [ 89.359318, 21.903551 ], [ 89.357249, 21.898615 ], [ 89.332424, 21.885624 ], [ 89.315167, 21.869022 ], [ 89.31255, 21.866504 ], [ 89.303348, 21.846629 ], [ 89.30118, 21.827382 ], [ 89.297017, 21.821761 ], [ 89.284862, 21.833863 ], [ 89.295373, 21.842716 ], [ 89.30054, 21.85688 ], [ 89.297421, 21.857104 ], [ 89.292953, 21.844138 ], [ 89.287354, 21.843102 ], [ 89.280566, 21.869022 ], [ 89.279733, 21.872202 ], [ 89.293749, 21.895777 ], [ 89.294361, 21.90784 ], [ 89.282767, 21.917314 ], [ 89.278465, 21.919925 ], [ 89.272966, 21.919147 ], [ 89.260887, 21.917439 ], [ 89.247768, 21.933664 ], [ 89.241943, 21.938803 ], [ 89.218503, 21.945163 ], [ 89.211368, 21.953602 ] ] ], [ [ [ 89.548795, 21.877552 ], [ 89.55599, 21.898616 ], [ 89.566757, 21.917307 ], [ 89.577893, 21.936635 ], [ 89.588107, 21.944682 ], [ 89.608877, 21.946901 ], [ 89.616361, 21.94538 ], [ 89.623422, 21.943263 ], [ 89.629407, 21.930648 ], [ 89.639961, 21.917307 ], [ 89.645831, 21.909886 ], [ 89.627775, 21.885727 ], [ 89.624974, 21.871618 ], [ 89.62572, 21.869022 ], [ 89.627256, 21.863682 ], [ 89.661182, 21.822874 ], [ 89.665944, 21.817144 ], [ 89.687131, 21.800959 ], [ 89.695661, 21.795839 ], [ 89.70016, 21.777535 ], [ 89.695661, 21.768773 ], [ 89.689038, 21.764809 ], [ 89.687131, 21.76621 ], [ 89.683208, 21.766221 ], [ 89.68134, 21.760971 ], [ 89.673994, 21.756401 ], [ 89.661182, 21.752961 ], [ 89.659171, 21.752421 ], [ 89.648826, 21.757514 ], [ 89.650595, 21.76498 ], [ 89.637453, 21.759975 ], [ 89.628301, 21.759631 ], [ 89.616361, 21.763102 ], [ 89.611754, 21.764442 ], [ 89.616361, 21.777396 ], [ 89.619063, 21.784991 ], [ 89.616361, 21.796998 ], [ 89.605566, 21.812019 ], [ 89.558671, 21.849819 ], [ 89.55684, 21.856219 ], [ 89.562402, 21.859771 ], [ 89.55536, 21.863647 ], [ 89.552822, 21.869022 ], [ 89.548795, 21.877552 ] ] ], [ [ [ 90.48359, 22.056819 ], [ 90.492321, 22.087824 ], [ 90.497859, 22.094083 ], [ 90.510891, 22.105369 ], [ 90.533566, 22.13027 ], [ 90.548415, 22.132576 ], [ 90.548591, 22.134173 ], [ 90.539906, 22.137293 ], [ 90.549562, 22.158068 ], [ 90.564535, 22.167261 ], [ 90.568669, 22.169799 ], [ 90.570762, 22.173501 ], [ 90.583937, 22.184244 ], [ 90.598161, 22.187445 ], [ 90.603666, 22.185902 ], [ 90.603633, 22.167261 ], [ 90.603584, 22.139359 ], [ 90.600544, 22.119933 ], [ 90.594653, 22.103185 ], [ 90.594778, 22.084576 ], [ 90.590999, 22.065663 ], [ 90.582116, 22.053586 ], [ 90.579641, 22.057305 ], [ 90.58001, 22.063065 ], [ 90.572183, 22.059695 ], [ 90.572588, 22.053973 ], [ 90.570181, 22.046322 ], [ 90.560833, 22.025791 ], [ 90.529036, 21.990537 ], [ 90.518816, 21.98168 ], [ 90.503457, 21.976592 ], [ 90.504778, 21.99344 ], [ 90.494793, 22.009889 ], [ 90.493115, 22.018362 ], [ 90.508882, 22.03147 ], [ 90.518301, 22.053057 ], [ 90.516797, 22.053921 ], [ 90.511188, 22.04806 ], [ 90.506498, 22.032983 ], [ 90.497859, 22.029859 ], [ 90.49365, 22.035447 ], [ 90.493726, 22.04123 ], [ 90.484292, 22.046506 ], [ 90.48359, 22.056819 ] ] ], [ [ [ 90.912485, 22.142798 ], [ 90.9139, 22.153086 ], [ 90.921008, 22.167261 ], [ 90.923954, 22.172961 ], [ 90.930566, 22.183929 ], [ 90.935882, 22.205262 ], [ 90.945164, 22.216885 ], [ 90.971499, 22.299539 ], [ 90.972619, 22.316437 ], [ 90.969234, 22.345387 ], [ 90.982827, 22.349717 ], [ 90.987572, 22.348514 ], [ 90.989344, 22.344092 ], [ 90.992408, 22.324957 ], [ 90.990385, 22.314881 ], [ 90.993727, 22.309481 ], [ 90.993763, 22.299539 ], [ 90.999337, 22.282594 ], [ 90.991191, 22.264465 ], [ 90.997672, 22.248502 ], [ 90.989677, 22.202614 ], [ 90.983904, 22.192973 ], [ 90.977684, 22.188257 ], [ 90.972384, 22.167261 ], [ 90.956808, 22.140452 ], [ 90.939054, 22.118849 ], [ 90.931626, 22.116374 ], [ 90.923637, 22.12023 ], [ 90.912485, 22.142798 ] ] ], [ [ [ 91.295117, 22.694081 ], [ 91.295186, 22.708206 ], [ 91.299402, 22.716148 ], [ 91.311168, 22.724253 ], [ 91.333284, 22.723153 ], [ 91.349896, 22.714804 ], [ 91.370771, 22.689049 ], [ 91.371548, 22.682304 ], [ 91.365706, 22.673546 ], [ 91.367061, 22.672486 ], [ 91.378061, 22.681338 ], [ 91.387572, 22.676454 ], [ 91.402159, 22.658495 ], [ 91.403267, 22.651033 ], [ 91.394835, 22.619476 ], [ 91.38905, 22.614611 ], [ 91.362726, 22.628725 ], [ 91.33249, 22.635049 ], [ 91.320442, 22.646859 ], [ 91.300673, 22.678139 ], [ 91.295117, 22.694081 ] ] ], [ [ [ 89.032918, 21.898616 ], [ 89.036182, 21.916923 ], [ 89.047716, 21.92145 ], [ 89.056945, 21.918243 ], [ 89.058907, 21.890988 ], [ 89.071533, 21.869022 ], [ 89.079786, 21.860124 ], [ 89.083463, 21.856159 ], [ 89.079786, 21.837381 ], [ 89.076423, 21.8202 ], [ 89.079786, 21.809468 ], [ 89.083383, 21.79799 ], [ 89.095894, 21.786373 ], [ 89.118463, 21.776399 ], [ 89.130074, 21.769822 ], [ 89.134698, 21.757857 ], [ 89.140949, 21.753985 ], [ 89.14448, 21.751798 ], [ 89.142927, 21.746163 ], [ 89.146366, 21.735004 ], [ 89.140949, 21.728044 ], [ 89.138016, 21.724275 ], [ 89.131234, 21.720086 ], [ 89.116478, 21.718697 ], [ 89.10775, 21.721648 ], [ 89.102271, 21.729897 ], [ 89.10395, 21.734561 ], [ 89.092972, 21.740362 ], [ 89.079786, 21.757356 ], [ 89.071239, 21.768371 ], [ 89.068306, 21.77176 ], [ 89.064481, 21.77354 ], [ 89.061477, 21.776399 ], [ 89.053027, 21.780381 ], [ 89.045207, 21.788315 ], [ 89.058908, 21.832935 ], [ 89.060362, 21.845055 ], [ 89.057669, 21.864712 ], [ 89.05608, 21.869022 ], [ 89.053165, 21.876604 ], [ 89.032918, 21.898616 ] ] ], [ [ [ 89.531054, 21.824896 ], [ 89.535342, 21.83779 ], [ 89.540486, 21.848296 ], [ 89.541344, 21.85132 ], [ 89.547517, 21.848614 ], [ 89.550261, 21.845908 ], [ 89.554377, 21.839223 ], [ 89.563637, 21.830945 ], [ 89.571011, 21.827443 ], [ 89.577013, 21.823463 ], [ 89.582672, 21.817891 ], [ 89.588503, 21.81407 ], [ 89.600678, 21.804517 ], [ 89.604279, 21.799422 ], [ 89.604965, 21.788276 ], [ 89.602393, 21.777766 ], [ 89.598792, 21.774263 ], [ 89.59279, 21.771874 ], [ 89.588674, 21.767255 ], [ 89.587645, 21.760407 ], [ 89.589874, 21.749577 ], [ 89.593647, 21.741453 ], [ 89.598963, 21.734603 ], [ 89.606318, 21.7274 ], [ 89.607622, 21.721042 ], [ 89.606054, 21.717982 ], [ 89.603039, 21.718544 ], [ 89.596728, 21.717023 ], [ 89.593331, 21.714069 ], [ 89.584512, 21.713179 ], [ 89.577013, 21.716124 ], [ 89.572976, 21.71413 ], [ 89.565863, 21.716296 ], [ 89.561513, 21.719191 ], [ 89.555558, 21.724681 ], [ 89.553201, 21.731401 ], [ 89.553519, 21.734126 ], [ 89.551067, 21.735293 ], [ 89.544089, 21.745166 ], [ 89.543455, 21.74826 ], [ 89.5392, 21.756549 ], [ 89.54157, 21.758312 ], [ 89.544757, 21.754629 ], [ 89.547766, 21.75873 ], [ 89.550965, 21.758612 ], [ 89.551461, 21.76184 ], [ 89.550775, 21.773148 ], [ 89.553691, 21.773466 ], [ 89.552833, 21.776174 ], [ 89.55249, 21.784932 ], [ 89.548546, 21.801174 ], [ 89.544087, 21.800855 ], [ 89.539972, 21.807861 ], [ 89.537399, 21.810408 ], [ 89.536885, 21.814707 ], [ 89.53397, 21.817254 ], [ 89.531226, 21.822189 ], [ 89.531054, 21.824896 ] ] ], [ [ [ 91.832508, 21.754728 ], [ 91.843312, 21.773811 ], [ 91.841747, 21.803669 ], [ 91.849773, 21.827982 ], [ 91.840771, 21.858372 ], [ 91.841193, 21.87276 ], [ 91.84591, 21.883932 ], [ 91.846363, 21.899222 ], [ 91.861896, 21.917572 ], [ 91.873957, 21.921629 ], [ 91.880851, 21.918258 ], [ 91.892662, 21.895263 ], [ 91.895794, 21.877787 ], [ 91.892307, 21.854172 ], [ 91.861896, 21.781738 ], [ 91.850694, 21.762117 ], [ 91.848925, 21.744688 ], [ 91.84117, 21.739508 ], [ 91.836751, 21.742751 ], [ 91.832508, 21.754728 ] ] ], [ [ [ 90.512071, 21.904734 ], [ 90.514657, 21.917307 ], [ 90.518749, 21.937208 ], [ 90.531527, 21.95335 ], [ 90.540119, 21.95911 ], [ 90.557217, 21.960761 ], [ 90.569692, 21.966009 ], [ 90.569692, 21.96896 ], [ 90.560582, 21.964224 ], [ 90.550036, 21.964818 ], [ 90.547164, 21.969594 ], [ 90.549173, 21.974331 ], [ 90.553917, 21.977838 ], [ 90.575453, 21.981292 ], [ 90.575293, 21.974433 ], [ 90.577373, 21.974331 ], [ 90.583595, 21.981887 ], [ 90.590573, 21.974331 ], [ 90.600358, 21.961728 ], [ 90.588838, 21.921653 ], [ 90.586518, 21.917307 ], [ 90.579315, 21.903811 ], [ 90.575618, 21.909122 ], [ 90.569692, 21.910679 ], [ 90.566273, 21.909934 ], [ 90.562338, 21.900737 ], [ 90.555073, 21.899438 ], [ 90.552948, 21.892659 ], [ 90.541463, 21.88564 ], [ 90.517939, 21.891364 ], [ 90.512071, 21.904734 ] ] ], [ [ [ 89.208399, 21.662215 ], [ 89.209084, 21.665876 ], [ 89.217133, 21.677334 ], [ 89.21816, 21.684337 ], [ 89.22364, 21.696749 ], [ 89.226038, 21.699135 ], [ 89.23049, 21.700249 ], [ 89.234258, 21.692771 ], [ 89.245903, 21.688156 ], [ 89.247763, 21.688611 ], [ 89.260011, 21.696206 ], [ 89.272966, 21.694779 ], [ 89.282538, 21.693725 ], [ 89.291356, 21.690825 ], [ 89.293154, 21.687402 ], [ 89.291015, 21.680153 ], [ 89.279575, 21.66864 ], [ 89.272966, 21.666303 ], [ 89.270829, 21.665547 ], [ 89.262926, 21.666736 ], [ 89.260824, 21.658816 ], [ 89.247763, 21.65572 ], [ 89.24539, 21.654416 ], [ 89.229463, 21.652347 ], [ 89.221414, 21.65362 ], [ 89.219701, 21.655848 ], [ 89.211481, 21.651233 ], [ 89.209597, 21.653939 ], [ 89.208399, 21.662215 ] ] ], [ [ [ 89.310555, 21.846054 ], [ 89.314797, 21.856636 ], [ 89.326089, 21.861146 ], [ 89.323702, 21.86486 ], [ 89.328319, 21.869022 ], [ 89.332854, 21.873109 ], [ 89.341822, 21.877873 ], [ 89.352083, 21.88073 ], [ 89.351741, 21.879143 ], [ 89.34643, 21.874374 ], [ 89.347594, 21.873118 ], [ 89.359721, 21.88141 ], [ 89.365591, 21.880807 ], [ 89.365598, 21.87632 ], [ 89.360871, 21.869022 ], [ 89.355633, 21.860935 ], [ 89.350825, 21.833261 ], [ 89.335982, 21.812402 ], [ 89.334645, 21.80658 ], [ 89.337757, 21.790478 ], [ 89.332854, 21.791636 ], [ 89.312242, 21.83631 ], [ 89.310555, 21.846054 ] ] ], [ [ [ 91.125307, 22.473088 ], [ 91.12733, 22.478014 ], [ 91.152247, 22.50083 ], [ 91.174389, 22.509991 ], [ 91.178369, 22.511637 ], [ 91.190133, 22.524362 ], [ 91.198479, 22.529397 ], [ 91.202378, 22.530316 ], [ 91.205412, 22.522257 ], [ 91.203042, 22.510402 ], [ 91.198479, 22.504807 ], [ 91.19349, 22.506969 ], [ 91.19428, 22.502644 ], [ 91.193268, 22.498822 ], [ 91.179303, 22.485805 ], [ 91.174389, 22.482588 ], [ 91.156546, 22.470904 ], [ 91.13624, 22.467262 ], [ 91.125307, 22.473088 ] ] ], [ [ [ 90.581766, 22.190354 ], [ 90.582087, 22.195768 ], [ 90.583538, 22.199911 ], [ 90.588235, 22.200239 ], [ 90.588749, 22.202564 ], [ 90.594286, 22.20226 ], [ 90.601535, 22.19889 ], [ 90.603072, 22.206125 ], [ 90.607327, 22.20799 ], [ 90.606594, 22.210426 ], [ 90.604112, 22.210003 ], [ 90.604323, 22.21387 ], [ 90.607354, 22.214558 ], [ 90.613458, 22.213489 ], [ 90.611854, 22.218359 ], [ 90.608878, 22.222565 ], [ 90.604701, 22.224178 ], [ 90.604359, 22.228036 ], [ 90.598575, 22.226534 ], [ 90.593437, 22.219633 ], [ 90.590247, 22.220101 ], [ 90.593378, 22.226318 ], [ 90.591623, 22.228621 ], [ 90.590929, 22.236853 ], [ 90.596127, 22.240278 ], [ 90.59822, 22.239099 ], [ 90.598591, 22.24186 ], [ 90.603275, 22.242959 ], [ 90.60156, 22.23804 ], [ 90.60412, 22.237339 ], [ 90.605484, 22.243249 ], [ 90.618486, 22.243311 ], [ 90.632859, 22.244165 ], [ 90.632228, 22.24055 ], [ 90.63355, 22.227691 ], [ 90.635957, 22.216136 ], [ 90.633933, 22.213144 ], [ 90.624153, 22.20257 ], [ 90.620943, 22.204166 ], [ 90.618331, 22.203386 ], [ 90.615644, 22.198711 ], [ 90.612578, 22.200083 ], [ 90.612224, 22.196472 ], [ 90.603596, 22.191578 ], [ 90.588988, 22.188529 ], [ 90.581766, 22.190354 ] ] ], [ [ [ 91.267023, 22.506443 ], [ 91.273256, 22.527297 ], [ 91.286091, 22.549678 ], [ 91.289687, 22.550008 ], [ 91.289687, 22.553063 ], [ 91.308058, 22.562966 ], [ 91.313734, 22.561037 ], [ 91.317351, 22.553758 ], [ 91.308505, 22.534686 ], [ 91.289687, 22.509283 ], [ 91.277729, 22.497659 ], [ 91.267023, 22.506443 ] ] ], [ [ [ 90.340874, 22.01841 ], [ 90.354824, 22.045349 ], [ 90.36438, 22.059163 ], [ 90.371771, 22.057267 ], [ 90.374279, 22.056623 ], [ 90.375427, 22.05145 ], [ 90.374279, 22.047607 ], [ 90.375789, 22.046178 ], [ 90.381652, 22.051207 ], [ 90.388824, 22.043406 ], [ 90.374279, 22.022444 ], [ 90.371771, 22.020252 ], [ 90.352324, 22.003255 ], [ 90.350893, 22.004212 ], [ 90.368735, 22.039774 ], [ 90.364539, 22.041929 ], [ 90.351117, 22.009434 ], [ 90.346723, 22.003713 ], [ 90.342121, 22.003972 ], [ 90.340874, 22.01841 ] ] ], [ [ [ 90.62305, 21.917307 ], [ 90.62354, 21.940918 ], [ 90.636602, 21.942495 ], [ 90.643918, 21.955218 ], [ 90.654716, 21.954327 ], [ 90.659351, 21.947123 ], [ 90.659955, 21.933389 ], [ 90.655616, 21.917307 ], [ 90.655448, 21.915424 ], [ 90.649979, 21.909613 ], [ 90.647881, 21.9095 ], [ 90.635304, 21.912348 ], [ 90.63126, 21.914037 ], [ 90.624162, 21.915327 ], [ 90.62305, 21.917307 ] ] ], [ [ [ 89.469452, 22.127895 ], [ 89.471618, 22.138203 ], [ 89.479917, 22.141531 ], [ 89.495478, 22.127895 ], [ 89.496198, 22.124694 ], [ 89.501365, 22.101723 ], [ 89.507888, 22.088009 ], [ 89.490953, 22.091294 ], [ 89.486478, 22.093048 ], [ 89.474601, 22.1141 ], [ 89.470647, 22.124694 ], [ 89.469452, 22.127895 ] ] ], [ [ [ 90.989314, 22.441996 ], [ 90.990063, 22.453926 ], [ 91.006664, 22.460176 ], [ 91.014904, 22.46034 ], [ 91.023576, 22.458477 ], [ 91.031699, 22.452533 ], [ 91.019591, 22.449493 ], [ 91.018406, 22.432951 ], [ 91.014904, 22.427608 ], [ 90.992909, 22.427535 ], [ 90.989314, 22.441996 ] ] ], [ [ [ 89.543115, 21.9533 ], [ 89.545446, 21.959055 ], [ 89.5688, 21.932365 ], [ 89.562519, 21.917307 ], [ 89.548013, 21.887401 ], [ 89.546295, 21.887789 ], [ 89.548014, 21.917307 ], [ 89.543115, 21.9533 ] ] ], [ [ [ 89.478695, 22.047657 ], [ 89.507833, 22.066835 ], [ 89.510932, 22.069348 ], [ 89.514537, 22.073166 ], [ 89.515567, 22.075552 ], [ 89.51797, 22.073007 ], [ 89.519515, 22.069825 ], [ 89.519515, 22.06728 ], [ 89.518829, 22.063461 ], [ 89.51694, 22.058848 ], [ 89.51488, 22.054234 ], [ 89.511619, 22.048665 ], [ 89.507833, 22.044019 ], [ 89.495056, 22.0297 ], [ 89.481288, 22.038895 ], [ 89.478695, 22.047657 ] ] ], [ [ [ 89.631673, 21.877042 ], [ 89.6325, 21.884072 ], [ 89.644958, 21.897005 ], [ 89.661182, 21.869881 ], [ 89.661182, 21.867758 ], [ 89.659011, 21.862414 ], [ 89.653173, 21.857931 ], [ 89.646132, 21.860202 ], [ 89.635262, 21.869022 ], [ 89.631673, 21.877042 ] ] ], [ [ [ 90.992736, 22.417606 ], [ 90.996326, 22.418811 ], [ 91.002167, 22.417851 ], [ 91.006517, 22.414422 ], [ 91.014136, 22.405486 ], [ 91.011139, 22.40158 ], [ 91.014728, 22.383306 ], [ 91.011447, 22.379912 ], [ 91.009155, 22.375368 ], [ 91.002777, 22.375161 ], [ 91.001396, 22.384432 ], [ 90.995294, 22.403706 ], [ 90.992941, 22.412964 ], [ 90.992736, 22.417606 ] ] ], [ [ [ 90.672089, 21.971668 ], [ 90.678703, 21.974347 ], [ 90.682172, 21.976004 ], [ 90.68741, 21.976335 ], [ 90.70147, 21.974347 ], [ 90.694385, 21.954507 ], [ 90.689486, 21.95042 ], [ 90.681488, 21.949084 ], [ 90.676055, 21.951952 ], [ 90.675572, 21.964437 ], [ 90.672089, 21.971668 ] ] ], [ [ [ 90.973159, 22.049423 ], [ 90.97508, 22.049971 ], [ 90.97703, 22.041933 ], [ 90.991774, 22.044194 ], [ 90.998743, 22.044279 ], [ 90.998768, 22.042461 ], [ 91.002673, 22.042378 ], [ 91.005205, 22.04072 ], [ 91.007918, 22.036074 ], [ 91.008915, 22.031923 ], [ 90.998251, 22.02651 ], [ 90.997068, 22.024635 ], [ 90.991809, 22.021972 ], [ 90.9879, 22.022443 ], [ 90.980013, 22.028195 ], [ 90.975842, 22.03724 ], [ 90.974091, 22.042677 ], [ 90.973159, 22.049423 ] ] ], [ [ [ 91.841593, 21.529697 ], [ 91.845834, 21.529697 ], [ 91.861896, 21.510658 ], [ 91.865144, 21.506809 ], [ 91.867232, 21.505016 ], [ 91.895661, 21.480825 ], [ 91.902652, 21.478117 ], [ 91.909655, 21.480123 ], [ 91.913125, 21.471983 ], [ 91.918791, 21.473642 ], [ 91.918964, 21.470752 ], [ 91.910651, 21.469197 ], [ 91.895736, 21.476129 ], [ 91.867232, 21.498212 ], [ 91.861896, 21.502431 ], [ 91.857933, 21.505564 ], [ 91.842761, 21.523478 ], [ 91.841593, 21.529697 ] ] ], [ [ [ 91.028018, 22.420047 ], [ 91.030965, 22.427034 ], [ 91.034678, 22.438664 ], [ 91.036468, 22.449241 ], [ 91.03382, 22.450496 ], [ 91.034342, 22.452932 ], [ 91.043001, 22.447519 ], [ 91.047638, 22.442683 ], [ 91.044824, 22.416261 ], [ 91.042048, 22.416742 ], [ 91.035724, 22.413576 ], [ 91.028018, 22.420047 ] ] ], [ [ [ 90.735052, 21.908324 ], [ 90.738621, 21.917307 ], [ 90.74195, 21.925683 ], [ 90.750426, 21.925256 ], [ 90.757931, 21.917307 ], [ 90.761508, 21.913519 ], [ 90.757199, 21.904094 ], [ 90.750426, 21.900846 ], [ 90.739569, 21.903442 ], [ 90.735052, 21.908324 ] ] ], [ [ [ 91.013311, 22.039213 ], [ 91.016711, 22.042858 ], [ 91.017638, 22.045701 ], [ 91.023114, 22.049114 ], [ 91.024317, 22.052728 ], [ 91.017668, 22.053424 ], [ 91.017219, 22.055993 ], [ 91.021077, 22.056555 ], [ 91.023437, 22.065593 ], [ 91.021892, 22.067376 ], [ 91.024728, 22.072044 ], [ 91.028546, 22.075565 ], [ 91.034615, 22.076025 ], [ 91.036718, 22.073733 ], [ 91.037201, 22.058808 ], [ 91.035994, 22.056219 ], [ 91.029962, 22.053058 ], [ 91.029601, 22.049192 ], [ 91.023474, 22.043068 ], [ 91.017439, 22.040164 ], [ 91.015393, 22.038032 ], [ 91.013311, 22.039213 ] ] ], [ [ [ 90.505681, 21.865266 ], [ 90.506584, 21.86889 ], [ 90.508892, 21.871246 ], [ 90.515362, 21.880498 ], [ 90.520281, 21.883667 ], [ 90.5255, 21.885422 ], [ 90.525985, 21.881303 ], [ 90.533073, 21.878831 ], [ 90.534097, 21.875494 ], [ 90.530279, 21.8726 ], [ 90.52991, 21.870015 ], [ 90.525382, 21.864139 ], [ 90.509579, 21.86352 ], [ 90.505681, 21.865266 ] ] ], [ [ [ 91.249698, 22.42897 ], [ 91.251998, 22.432063 ], [ 91.254211, 22.431064 ], [ 91.25694, 22.432884 ], [ 91.261683, 22.427564 ], [ 91.262865, 22.420928 ], [ 91.265907, 22.419682 ], [ 91.266932, 22.414578 ], [ 91.264436, 22.405216 ], [ 91.257574, 22.404119 ], [ 91.253968, 22.406511 ], [ 91.251998, 22.41007 ], [ 91.253048, 22.414173 ], [ 91.250648, 22.419006 ], [ 91.249698, 22.42897 ] ] ], [ [ [ 90.950485, 22.432963 ], [ 90.95106, 22.441561 ], [ 90.959136, 22.444657 ], [ 90.967546, 22.444113 ], [ 90.969305, 22.438668 ], [ 90.969225, 22.434502 ], [ 90.970705, 22.429053 ], [ 90.965592, 22.424433 ], [ 90.956905, 22.424844 ], [ 90.952506, 22.428824 ], [ 90.950485, 22.432963 ] ] ], [ [ [ 90.430384, 21.836375 ], [ 90.431589, 21.837927 ], [ 90.431762, 21.843555 ], [ 90.435582, 21.844382 ], [ 90.441259, 21.848561 ], [ 90.451324, 21.852424 ], [ 90.454334, 21.852599 ], [ 90.454507, 21.850556 ], [ 90.451836, 21.846679 ], [ 90.454493, 21.843652 ], [ 90.460215, 21.845275 ], [ 90.458932, 21.840397 ], [ 90.454047, 21.837892 ], [ 90.444761, 21.83647 ], [ 90.442055, 21.834638 ], [ 90.430553, 21.834587 ], [ 90.430384, 21.836375 ] ] ], [ [ [ 89.330528, 21.701743 ], [ 89.332244, 21.705411 ], [ 89.332844, 21.70732 ], [ 89.338534, 21.717634 ], [ 89.349179, 21.703022 ], [ 89.34365, 21.697504 ], [ 89.332844, 21.698315 ], [ 89.331043, 21.699988 ], [ 89.330528, 21.701743 ] ] ], [ [ [ 90.567377, 21.993254 ], [ 90.56969, 22.001332 ], [ 90.576631, 22.014523 ], [ 90.578279, 22.014459 ], [ 90.580211, 22.009849 ], [ 90.578297, 21.991852 ], [ 90.576278, 21.988857 ], [ 90.56969, 21.990347 ], [ 90.567377, 21.993254 ] ] ], [ [ [ 90.419494, 21.887347 ], [ 90.421057, 21.893629 ], [ 90.425162, 21.89639 ], [ 90.427406, 21.8979 ], [ 90.427751, 21.894255 ], [ 90.43222, 21.894324 ], [ 90.432992, 21.890165 ], [ 90.431601, 21.882061 ], [ 90.425162, 21.881869 ], [ 90.422388, 21.881786 ], [ 90.419494, 21.887347 ] ] ], [ [ [ 90.837563, 21.955902 ], [ 90.840011, 21.956774 ], [ 90.839854, 21.963682 ], [ 90.841039, 21.965195 ], [ 90.848582, 21.966249 ], [ 90.850506, 21.956697 ], [ 90.849132, 21.951973 ], [ 90.843873, 21.951434 ], [ 90.837563, 21.955902 ] ] ], [ [ [ 91.043216, 22.374933 ], [ 91.046745, 22.378821 ], [ 91.051939, 22.38196 ], [ 91.05705, 22.371254 ], [ 91.057107, 22.367153 ], [ 91.046888, 22.368568 ], [ 91.045029, 22.373417 ], [ 91.043216, 22.374933 ] ] ], [ [ [ 90.656889, 21.960399 ], [ 90.660709, 21.960398 ], [ 90.663722, 21.963579 ], [ 90.668105, 21.965054 ], [ 90.672554, 21.96242 ], [ 90.672056, 21.959201 ], [ 90.668487, 21.958509 ], [ 90.665149, 21.960516 ], [ 90.662211, 21.954951 ], [ 90.65865, 21.953744 ], [ 90.656889, 21.960399 ] ] ], [ [ [ 90.714011, 21.869207 ], [ 90.71593, 21.877145 ], [ 90.717811, 21.878999 ], [ 90.718948, 21.871185 ], [ 90.717862, 21.865987 ], [ 90.720118, 21.858311 ], [ 90.716669, 21.858332 ], [ 90.71439, 21.863756 ], [ 90.714011, 21.869207 ] ] ], [ [ [ 91.27036, 22.447386 ], [ 91.274087, 22.449438 ], [ 91.277842, 22.449344 ], [ 91.281814, 22.443215 ], [ 91.280557, 22.439846 ], [ 91.274184, 22.441657 ], [ 91.27039, 22.444971 ], [ 91.27036, 22.447386 ] ] ], [ [ [ 89.454102, 21.701898 ], [ 89.455112, 21.704777 ], [ 89.461009, 21.703631 ], [ 89.460212, 21.706266 ], [ 89.462795, 21.709638 ], [ 89.463138, 21.713305 ], [ 89.465107, 21.713538 ], [ 89.46424, 21.703846 ], [ 89.460958, 21.700615 ], [ 89.456459, 21.700157 ], [ 89.454102, 21.701898 ] ] ], [ [ [ 89.343431, 21.688442 ], [ 89.343892, 21.694816 ], [ 89.34632, 21.696385 ], [ 89.34798, 21.691664 ], [ 89.350371, 21.69174 ], [ 89.351026, 21.687745 ], [ 89.347973, 21.687873 ], [ 89.347407, 21.685894 ], [ 89.343999, 21.685742 ], [ 89.343431, 21.688442 ] ] ], [ [ [ 90.47609, 22.052296 ], [ 90.477497, 22.058835 ], [ 90.479855, 22.060994 ], [ 90.480712, 22.056416 ], [ 90.479068, 22.045928 ], [ 90.477497, 22.044473 ], [ 90.47609, 22.052296 ] ] ], [ [ [ 89.878056, 22.084195 ], [ 89.878056, 22.086364 ], [ 89.883637, 22.088365 ], [ 89.885437, 22.08553 ], [ 89.884717, 22.082527 ], [ 89.878956, 22.079858 ], [ 89.878056, 22.084195 ] ] ], [ [ [ 91.935615, 21.50403 ], [ 91.937689, 21.507227 ], [ 91.941324, 21.50784 ], [ 91.941314, 21.505933 ], [ 91.947001, 21.506171 ], [ 91.94755, 21.501969 ], [ 91.935615, 21.50403 ] ] ], [ [ [ 89.886488, 22.161174 ], [ 89.889001, 22.161648 ], [ 89.89199, 22.158228 ], [ 89.891808, 22.151797 ], [ 89.888125, 22.152857 ], [ 89.886488, 22.161174 ] ] ], [ [ [ 90.367666, 21.839973 ], [ 90.368614, 21.845983 ], [ 90.370836, 21.846593 ], [ 90.37438, 21.841711 ], [ 90.37438, 21.83867 ], [ 90.367666, 21.839973 ] ] ], [ [ [ 91.151881, 22.157315 ], [ 91.156506, 22.165748 ], [ 91.161011, 22.165333 ], [ 91.16138, 22.163899 ], [ 91.157418, 22.162689 ], [ 91.155588, 22.156744 ], [ 91.151881, 22.157315 ] ] ], [ [ [ 91.992096, 21.600986 ], [ 91.99492, 21.606068 ], [ 91.996574, 21.605984 ], [ 91.998242, 21.601956 ], [ 91.992953, 21.597414 ], [ 91.992096, 21.600986 ] ] ], [ [ [ 90.020266, 21.903537 ], [ 90.021135, 21.905918 ], [ 90.026882, 21.898815 ], [ 90.023701, 21.896566 ], [ 90.020742, 21.900569 ], [ 90.020266, 21.903537 ] ] ], [ [ [ 90.083808, 21.853001 ], [ 90.087481, 21.860644 ], [ 90.089519, 21.862175 ], [ 90.090103, 21.856923 ], [ 90.085401, 21.852283 ], [ 90.083808, 21.853001 ] ] ], [ [ [ 90.961944, 22.406862 ], [ 90.970327, 22.410484 ], [ 90.970267, 22.404856 ], [ 90.965632, 22.404952 ], [ 90.961944, 22.406862 ] ] ], [ [ [ 91.848729, 21.608233 ], [ 91.850554, 21.61307 ], [ 91.852662, 21.613011 ], [ 91.852884, 21.606205 ], [ 91.85119, 21.605167 ], [ 91.848729, 21.608233 ] ] ], [ [ [ 91.019658, 22.07779 ], [ 91.024669, 22.080835 ], [ 91.027337, 22.079359 ], [ 91.028106, 22.076901 ], [ 91.025318, 22.076455 ], [ 91.023057, 22.077911 ], [ 91.020617, 22.075988 ], [ 91.019658, 22.07779 ] ] ], [ [ [ 91.054939, 22.386459 ], [ 91.056104, 22.388983 ], [ 91.06109, 22.386254 ], [ 91.060695, 22.382344 ], [ 91.054939, 22.386459 ] ] ], [ [ [ 90.577618, 22.233444 ], [ 90.579948, 22.234023 ], [ 90.582649, 22.22998 ], [ 90.579192, 22.226934 ], [ 90.577618, 22.233444 ] ] ], [ [ [ 92.339846, 20.747901 ], [ 92.340727, 20.7489 ], [ 92.348148, 20.749342 ], [ 92.344954, 20.745088 ], [ 92.339846, 20.747901 ] ] ], [ [ [ 92.295319, 20.79888 ], [ 92.302435, 20.797803 ], [ 92.302194, 20.795305 ], [ 92.297142, 20.795069 ], [ 92.295319, 20.79888 ] ] ], [ [ [ 91.925084, 21.507923 ], [ 91.925103, 21.510379 ], [ 91.931355, 21.509932 ], [ 91.928916, 21.505615 ], [ 91.925084, 21.507923 ] ] ], [ [ [ 91.861709, 21.557414 ], [ 91.861709, 21.561359 ], [ 91.864956, 21.562106 ], [ 91.865705, 21.555578 ], [ 91.861709, 21.557414 ] ] ], [ [ [ 91.842781, 21.638514 ], [ 91.843473, 21.643297 ], [ 91.845996, 21.643297 ], [ 91.846616, 21.636308 ], [ 91.842781, 21.638514 ] ] ], [ [ [ 89.536689, 21.76786 ], [ 89.540053, 21.767341 ], [ 89.540057, 21.762228 ], [ 89.536985, 21.761345 ], [ 89.536689, 21.76786 ] ] ], [ [ [ 89.540576, 21.778655 ], [ 89.54652, 21.780307 ], [ 89.547414, 21.777454 ], [ 89.541998, 21.775621 ], [ 89.540576, 21.778655 ] ] ], [ [ [ 90.177404, 21.80394 ], [ 90.182282, 21.807003 ], [ 90.183944, 21.804648 ], [ 90.181823, 21.801225 ], [ 90.177404, 21.80394 ] ] ], [ [ [ 90.459398, 21.808988 ], [ 90.4594, 21.814719 ], [ 90.461503, 21.815227 ], [ 90.463713, 21.809707 ], [ 90.459398, 21.808988 ] ] ], [ [ [ 90.509947, 21.825894 ], [ 90.510091, 21.829301 ], [ 90.514775, 21.829859 ], [ 90.515585, 21.828383 ], [ 90.51191, 21.824766 ], [ 90.509947, 21.825894 ] ] ], [ [ [ 90.350888, 21.853619 ], [ 90.357782, 21.856759 ], [ 90.358075, 21.852919 ], [ 90.351638, 21.852147 ], [ 90.350888, 21.853619 ] ] ], [ [ [ 90.73412, 21.861058 ], [ 90.735972, 21.863683 ], [ 90.74018, 21.863453 ], [ 90.74027, 21.861152 ], [ 90.735676, 21.859161 ], [ 90.73412, 21.861058 ] ] ], [ [ [ 90.091494, 21.862716 ], [ 90.094036, 21.866774 ], [ 90.096777, 21.866648 ], [ 90.097488, 21.863853 ], [ 90.092746, 21.861545 ], [ 90.091494, 21.862716 ] ] ], [ [ [ 90.803953, 21.869675 ], [ 90.80746, 21.870434 ], [ 90.807398, 21.862991 ], [ 90.804985, 21.864366 ], [ 90.803953, 21.869675 ] ] ], [ [ [ 90.02422, 21.92632 ], [ 90.028405, 21.927945 ], [ 90.028859, 21.922345 ], [ 90.025789, 21.922118 ], [ 90.02422, 21.92632 ] ] ], [ [ [ 90.669376, 21.926232 ], [ 90.673858, 21.930376 ], [ 90.675636, 21.927181 ], [ 90.670513, 21.923889 ], [ 90.669376, 21.926232 ] ] ], [ [ [ 90.830489, 21.960554 ], [ 90.830588, 21.964429 ], [ 90.834724, 21.963637 ], [ 90.835382, 21.959083 ], [ 90.830489, 21.960554 ] ] ], [ [ [ 91.867171, 22.00488 ], [ 91.867171, 22.006649 ], [ 91.871756, 22.005732 ], [ 91.872406, 22.002814 ], [ 91.869172, 22.001155 ], [ 91.867171, 22.00488 ] ] ], [ [ [ 91.064337, 22.034418 ], [ 91.064425, 22.036897 ], [ 91.067661, 22.038453 ], [ 91.070252, 22.036098 ], [ 91.065929, 22.032971 ], [ 91.064337, 22.034418 ] ] ], [ [ [ 91.071305, 22.044812 ], [ 91.076363, 22.049164 ], [ 91.078812, 22.048175 ], [ 91.073914, 22.043085 ], [ 91.071305, 22.044812 ] ] ], [ [ [ 91.177372, 22.216837 ], [ 91.182147, 22.218228 ], [ 91.183932, 22.216843 ], [ 91.181723, 22.212534 ], [ 91.177372, 22.216837 ] ] ], [ [ [ 91.182994, 22.225296 ], [ 91.184818, 22.228353 ], [ 91.18792, 22.226297 ], [ 91.186754, 22.222736 ], [ 91.184457, 22.22224 ], [ 91.182994, 22.225296 ] ] ], [ [ [ 91.186671, 22.237344 ], [ 91.192, 22.236742 ], [ 91.190735, 22.232559 ], [ 91.187971, 22.232296 ], [ 91.186671, 22.237344 ] ] ], [ [ [ 91.187707, 22.272729 ], [ 91.192284, 22.274855 ], [ 91.194034, 22.270942 ], [ 91.188638, 22.269984 ], [ 91.187707, 22.272729 ] ] ], [ [ [ 90.972765, 22.38349 ], [ 90.979006, 22.383563 ], [ 90.978688, 22.380149 ], [ 90.974817, 22.379627 ], [ 90.972765, 22.38349 ] ] ], [ [ [ 90.959457, 22.387057 ], [ 90.962339, 22.391283 ], [ 90.965566, 22.38845 ], [ 90.965133, 22.385813 ], [ 90.959457, 22.387057 ] ] ], [ [ [ 91.516635, 22.389659 ], [ 91.522745, 22.391043 ], [ 91.525245, 22.38871 ], [ 91.516659, 22.387381 ], [ 91.516635, 22.389659 ] ] ], [ [ [ 90.971586, 22.393592 ], [ 90.976699, 22.395735 ], [ 90.978209, 22.392138 ], [ 90.973855, 22.390727 ], [ 90.971586, 22.393592 ] ] ], [ [ [ 90.967517, 22.41493 ], [ 90.967981, 22.418748 ], [ 90.971017, 22.419814 ], [ 90.972209, 22.413992 ], [ 90.967517, 22.41493 ] ] ], [ [ [ 91.137435, 22.440204 ], [ 91.142728, 22.441952 ], [ 91.143726, 22.437596 ], [ 91.138555, 22.437754 ], [ 91.137435, 22.440204 ] ] ], [ [ [ 91.260184, 22.570712 ], [ 91.261012, 22.574347 ], [ 91.263178, 22.573843 ], [ 91.263412, 22.567366 ], [ 91.260526, 22.567617 ], [ 91.260184, 22.570712 ] ] ], [ [ [ 91.264417, 22.576095 ], [ 91.265652, 22.578511 ], [ 91.271121, 22.577755 ], [ 91.26954, 22.573917 ], [ 91.264417, 22.576095 ] ] ], [ [ [ 91.272968, 22.608945 ], [ 91.277758, 22.609993 ], [ 91.276995, 22.604058 ], [ 91.274024, 22.605274 ], [ 91.272968, 22.608945 ] ] ], [ [ [ 91.259756, 22.612279 ], [ 91.262889, 22.612999 ], [ 91.264633, 22.607272 ], [ 91.261953, 22.606322 ], [ 91.259756, 22.612279 ] ] ], [ [ [ 91.261661, 22.61594 ], [ 91.262835, 22.617757 ], [ 91.267395, 22.618029 ], [ 91.267489, 22.612957 ], [ 91.261661, 22.61594 ] ] ], [ [ [ 91.267929, 22.622018 ], [ 91.270013, 22.624495 ], [ 91.273775, 22.619627 ], [ 91.270624, 22.617874 ], [ 91.267929, 22.622018 ] ] ], [ [ [ 91.277679, 22.625828 ], [ 91.283925, 22.627992 ], [ 91.284878, 22.625853 ], [ 91.281444, 22.622809 ], [ 91.277679, 22.625828 ] ] ], [ [ [ 91.483588, 22.718977 ], [ 91.485726, 22.720026 ], [ 91.488497, 22.713829 ], [ 91.484769, 22.713448 ], [ 91.483588, 22.718977 ] ] ], [ [ [ 90.981639, 22.407425 ], [ 90.983705, 22.408383 ], [ 90.985284, 22.402995 ], [ 90.982513, 22.403283 ], [ 90.981639, 22.407425 ] ] ], [ [ [ 90.983003, 22.40056 ], [ 90.984455, 22.402943 ], [ 90.985777, 22.400571 ], [ 90.984003, 22.399579 ], [ 90.983003, 22.40056 ] ] ] ] } }
]
}
