{
"type": "FeatureCollection",
"name": "Bassas Da India",
"crs": { "type": "name", "properties": { "name": "urn:ogc:def:crs:OGC:1.3:CRS84" } },
"features": [
{ "type": "Feature", "properties": { "id": "XO", "CNTR_ID": "XO", "CNTR_NAME": "Fr Territory (Juan de Nova, Glorioso, Europa, Tromelin, Bassas Da India)", "NAME_ENGL": "Bassas Da India", "ISO3_CODE": "XO", "FID": "XO" }, "geometry": { "type": "MultiPolygon", "coordinates": [ [ [ [ 40.36403, -22.366588 ], [ 40.361699, -22.373103 ], [ 40.355175, -22.372688 ], [ 40.35769, -22.382652 ], [ 40.381185, -22.382175 ], [ 40.389835, -22.374859 ], [ 40.391498, -22.362843 ], [ 40.395238, -22.360016 ], [ 40.39895, -22.368532 ], [ 40.392805, -22.379519 ], [ 40.377656, -22.393994 ], [ 40.366533, -22.39869 ], [ 40.354087, -22.395655 ], [ 40.331479, -22.375447 ], [ 40.329947, -22.373317 ], [ 40.329076, -22.368956 ], [ 40.331479, -22.361869 ], [ 40.333078, -22.346411 ], [ 40.346458, -22.340774 ], [ 40.365415, -22.339408 ], [ 40.374132, -22.344088 ], [ 40.376493, -22.356351 ], [ 40.372818, -22.362086 ], [ 40.36403, -22.366588 ] ] ], [ [ [ 42.75057, -17.059203 ], [ 42.750484, -17.061085 ], [ 42.741397, -17.060929 ], [ 42.733123, -17.059824 ], [ 42.732435, -17.062217 ], [ 42.728249, -17.062418 ], [ 42.723013, -17.064592 ], [ 42.713076, -17.059769 ], [ 42.711184, -17.057833 ], [ 42.710649, -17.052918 ], [ 42.700501, -17.047583 ], [ 42.700086, -17.046712 ], [ 42.701038, -17.045963 ], [ 42.711757, -17.046651 ], [ 42.715063, -17.047766 ], [ 42.72372, -17.048424 ], [ 42.732396, -17.049867 ], [ 42.744207, -17.054398 ], [ 42.75057, -17.059203 ] ] ], [ [ [ 47.304659, -11.589461 ], [ 47.299239, -11.591086 ], [ 47.292749, -11.588007 ], [ 47.286052, -11.581408 ], [ 47.284861, -11.577919 ], [ 47.284941, -11.576293 ], [ 47.289662, -11.570852 ], [ 47.29666, -11.568131 ], [ 47.301101, -11.570494 ], [ 47.309713, -11.578116 ], [ 47.311045, -11.581157 ], [ 47.304659, -11.589461 ] ] ], [ [ [ 54.529543, -15.893962 ], [ 54.526362, -15.898417 ], [ 54.520864, -15.893168 ], [ 54.517783, -15.887764 ], [ 54.517984, -15.885731 ], [ 54.522253, -15.88666 ], [ 54.528899, -15.891309 ], [ 54.529543, -15.893962 ] ] ], [ [ [ 39.748589, -21.465822 ], [ 39.74664, -21.46628 ], [ 39.74453, -21.4625 ], [ 39.75084, -21.45961 ], [ 39.75209, -21.465 ], [ 39.748589, -21.465822 ] ] ], [ [ [ 39.68959, -21.4925 ], [ 39.68501, -21.49458 ], [ 39.6829, -21.49167 ], [ 39.6829, -21.489193 ], [ 39.68661, -21.48792 ], [ 39.68959, -21.4925 ] ] ], [ [ [ 40.395187, -22.356576 ], [ 40.393277, -22.35723 ], [ 40.389818, -22.346357 ], [ 40.391808, -22.346186 ], [ 40.395187, -22.356576 ] ] ], [ [ [ 47.380045, -11.516204 ], [ 47.377953, -11.520142 ], [ 47.373663, -11.516674 ], [ 47.377587, -11.513974 ], [ 47.380045, -11.516204 ] ] ], [ [ [ 39.742969, -21.450013 ], [ 39.74165, -21.454683 ], [ 39.737788, -21.452501 ], [ 39.739099, -21.448661 ], [ 39.742969, -21.450013 ] ] ], [ [ [ 39.708146, -21.494834 ], [ 39.705874, -21.499822 ], [ 39.701817, -21.498469 ], [ 39.704965, -21.494412 ], [ 39.708146, -21.494834 ] ] ], [ [ [ 40.387591, -22.336522 ], [ 40.390102, -22.342064 ], [ 40.386691, -22.341137 ], [ 40.383093, -22.336534 ], [ 40.387591, -22.336522 ] ] ] ] } }
]
}
