{
"type": "FeatureCollection",
"name": "Belize",
"crs": { "type": "name", "properties": { "name": "urn:ogc:def:crs:OGC:1.3:CRS84" } },
"features": [
{ "type": "Feature", "properties": { "id": "BZ", "CNTR_ID": "BZ", "CNTR_NAME": "Belize", "NAME_ENGL": "Belize", "ISO3_CODE": "BLZ", "FID": "BZ" }, "geometry": { "type": "MultiPolygon", "coordinates": [ [ [ [ -88.31683, 18.488801 ], [ -88.313533, 18.480602 ], [ -88.303104, 18.468328 ], [ -88.301548, 18.454829 ], [ -88.313847, 18.443434 ], [ -88.321889, 18.428952 ], [ -88.331255, 18.420229 ], [ -88.381478, 18.392608 ], [ -88.39199, 18.384283 ], [ -88.397243, 18.370072 ], [ -88.393455, 18.35655 ], [ -88.377965, 18.348165 ], [ -88.349124, 18.358805 ], [ -88.323135, 18.362967 ], [ -88.322986, 18.359893 ], [ -88.341682, 18.337486 ], [ -88.341689, 18.331741 ], [ -88.336404, 18.329308 ], [ -88.292697, 18.345845 ], [ -88.245417, 18.355999 ], [ -88.237255, 18.352656 ], [ -88.231532, 18.342737 ], [ -88.211668, 18.345402 ], [ -88.214777, 18.33236 ], [ -88.21287, 18.33095 ], [ -88.198276, 18.337089 ], [ -88.171403, 18.342548 ], [ -88.132431, 18.362463 ], [ -88.102773, 18.367843 ], [ -88.106646, 18.343733 ], [ -88.122369, 18.335237 ], [ -88.142112, 18.310323 ], [ -88.137167, 18.309619 ], [ -88.115594, 18.322166 ], [ -88.100151, 18.319407 ], [ -88.101662, 18.290367 ], [ -88.095716, 18.270798 ], [ -88.095482, 18.267726 ], [ -88.091009, 18.206462 ], [ -88.105809, 18.103906 ], [ -88.124661, 18.063679 ], [ -88.149134, 18.046349 ], [ -88.148527, 18.03148 ], [ -88.16013, 18.009323 ], [ -88.155672, 17.996132 ], [ -88.156311, 17.987351 ], [ -88.158844, 17.986336 ], [ -88.164043, 17.991939 ], [ -88.170838, 17.988867 ], [ -88.177593, 17.969544 ], [ -88.178369, 17.958457 ], [ -88.203823, 17.922302 ], [ -88.202456, 17.892903 ], [ -88.222306, 17.778944 ], [ -88.225207, 17.778816 ], [ -88.227358, 17.788057 ], [ -88.232917, 17.78778 ], [ -88.252186, 17.762445 ], [ -88.257486, 17.743319 ], [ -88.274349, 17.723223 ], [ -88.273841, 17.717309 ], [ -88.269847, 17.712536 ], [ -88.246157, 17.705849 ], [ -88.243405, 17.698303 ], [ -88.257859, 17.676206 ], [ -88.264813, 17.673301 ], [ -88.278125, 17.673057 ], [ -88.282716, 17.668442 ], [ -88.282008, 17.664371 ], [ -88.288084, 17.66109 ], [ -88.294641, 17.61421 ], [ -88.284267, 17.564596 ], [ -88.268118, 17.551205 ], [ -88.241359, 17.538624 ], [ -88.22719, 17.520552 ], [ -88.193729, 17.513237 ], [ -88.185117, 17.499346 ], [ -88.190448, 17.488523 ], [ -88.203303, 17.481618 ], [ -88.223209, 17.486305 ], [ -88.234595, 17.484945 ], [ -88.248382, 17.469313 ], [ -88.254777, 17.44638 ], [ -88.294454, 17.295016 ], [ -88.30305, 17.23785 ], [ -88.30445, 17.166937 ], [ -88.299556, 17.122579 ], [ -88.290783, 17.106417 ], [ -88.28076, 17.077867 ], [ -88.267828, 17.068674 ], [ -88.251553, 17.066913 ], [ -88.246131, 17.061245 ], [ -88.234025, 17.002303 ], [ -88.220347, 16.961645 ], [ -88.222833, 16.949954 ], [ -88.231297, 16.939001 ], [ -88.258386, 16.928686 ], [ -88.27476, 16.91726 ], [ -88.285356, 16.89312 ], [ -88.283565, 16.867122 ], [ -88.267881, 16.837515 ], [ -88.256511, 16.807689 ], [ -88.273215, 16.80318 ], [ -88.292244, 16.78798 ], [ -88.298092, 16.779024 ], [ -88.307784, 16.77881 ], [ -88.317916, 16.770393 ], [ -88.319024, 16.758783 ], [ -88.311513, 16.74881 ], [ -88.302865, 16.721003 ], [ -88.310195, 16.696251 ], [ -88.310792, 16.666087 ], [ -88.313012, 16.663614 ], [ -88.320815, 16.667083 ], [ -88.328422, 16.664386 ], [ -88.343135, 16.651181 ], [ -88.348702, 16.636329 ], [ -88.358603, 16.629378 ], [ -88.360645, 16.626794 ], [ -88.370437, 16.614403 ], [ -88.371605, 16.595105 ], [ -88.367417, 16.589157 ], [ -88.358407, 16.601097 ], [ -88.354672, 16.620608 ], [ -88.350973, 16.621986 ], [ -88.356326, 16.593153 ], [ -88.363623, 16.576969 ], [ -88.35745, 16.5434 ], [ -88.365728, 16.52457 ], [ -88.367068, 16.514165 ], [ -88.372306, 16.512095 ], [ -88.376843, 16.516177 ], [ -88.366793, 16.53696 ], [ -88.366907, 16.554703 ], [ -88.371885, 16.566201 ], [ -88.380909, 16.561553 ], [ -88.3843, 16.556518 ], [ -88.378284, 16.543877 ], [ -88.390183, 16.541251 ], [ -88.396199, 16.536386 ], [ -88.39449, 16.530972 ], [ -88.387373, 16.525718 ], [ -88.395246, 16.51518 ], [ -88.395109, 16.504957 ], [ -88.406856, 16.499619 ], [ -88.41572, 16.484252 ], [ -88.429978, 16.474136 ], [ -88.430342, 16.472322 ], [ -88.433069, 16.458749 ], [ -88.440487, 16.448453 ], [ -88.44591, 16.4456 ], [ -88.452545, 16.44708 ], [ -88.448957, 16.435075 ], [ -88.451706, 16.42429 ], [ -88.455926, 16.421587 ], [ -88.458358, 16.42982 ], [ -88.464188, 16.427269 ], [ -88.464004, 16.411941 ], [ -88.481031, 16.396206 ], [ -88.478465, 16.386121 ], [ -88.480144, 16.373058 ], [ -88.491151, 16.347691 ], [ -88.539501, 16.301599 ], [ -88.546913, 16.274848 ], [ -88.549219, 16.274129 ], [ -88.572508, 16.266868 ], [ -88.585535, 16.243871 ], [ -88.58879, 16.247883 ], [ -88.587137, 16.258156 ], [ -88.599113, 16.255746 ], [ -88.608777, 16.258374 ], [ -88.632971, 16.279547 ], [ -88.646498, 16.28281 ], [ -88.655733, 16.276376 ], [ -88.655912, 16.259564 ], [ -88.661782, 16.252792 ], [ -88.674767, 16.251927 ], [ -88.695792, 16.243629 ], [ -88.702706, 16.238186 ], [ -88.723984, 16.236882 ], [ -88.735762, 16.224386 ], [ -88.752062, 16.216968 ], [ -88.745498, 16.193512 ], [ -88.752249, 16.177251 ], [ -88.748611, 16.16248 ], [ -88.754172, 16.138545 ], [ -88.794342, 16.11775 ], [ -88.810671, 16.084113 ], [ -88.830062, 16.077821 ], [ -88.849824, 16.059527 ], [ -88.855664, 16.038625 ], [ -88.860749, 16.03098 ], [ -88.887059, 16.013995 ], [ -88.913463, 16.0018 ], [ -88.931247, 15.984945 ], [ -88.934013, 15.976242 ], [ -88.933451, 15.95904 ], [ -88.91278, 15.900129 ], [ -88.924156, 15.888136 ], [ -88.979899, 15.894682 ], [ -88.99711, 15.900769 ], [ -89.009194, 15.897362 ], [ -89.014156, 15.895963 ], [ -89.021442, 15.906346 ], [ -89.033289, 15.911365 ], [ -89.041815, 15.910053 ], [ -89.050905, 15.901187 ], [ -89.055756, 15.911256 ], [ -89.059023, 15.912656 ], [ -89.061857, 15.910487 ], [ -89.063261, 15.898104 ], [ -89.075006, 15.906479 ], [ -89.080152, 15.894797 ], [ -89.088349, 15.906287 ], [ -89.094655, 15.908807 ], [ -89.111245, 15.905248 ], [ -89.114302, 15.895982 ], [ -89.127233, 15.898136 ], [ -89.134557, 15.902755 ], [ -89.144935, 15.895803 ], [ -89.151718, 15.894722 ], [ -89.161047, 15.898381 ], [ -89.172932, 15.907904 ], [ -89.179167, 15.909148 ], [ -89.183256, 15.906951 ], [ -89.187198, 15.89816 ], [ -89.214785, 15.890221 ], [ -89.220962, 15.892037 ], [ -89.223207, 15.898863 ], [ -89.22465, 15.926442 ], [ -89.220652, 15.96468 ], [ -89.216683, 16.002628 ], [ -89.184877, 16.472322 ], [ -89.145851, 17.047065 ], [ -89.146022, 17.235911 ], [ -89.146569, 17.571427 ], [ -89.146583, 17.579898 ], [ -89.14696, 17.8095 ], [ -89.145179, 17.943388 ], [ -89.126907, 17.965307 ], [ -89.105094, 17.970064 ], [ -89.091871, 17.985585 ], [ -89.039296, 18.002695 ], [ -89.02756, 18.003044 ], [ -89.014156, 17.992266 ], [ -89.009194, 17.988276 ], [ -88.998501, 17.979677 ], [ -88.98284, 17.955771 ], [ -88.973207, 17.958061 ], [ -88.962847, 17.953613 ], [ -88.948017, 17.957527 ], [ -88.941411, 17.956241 ], [ -88.916627, 17.921539 ], [ -88.877859, 17.904218 ], [ -88.853337, 17.874783 ], [ -88.844796, 17.86873 ], [ -88.843994, 17.897338 ], [ -88.848935, 17.914766 ], [ -88.846968, 17.92736 ], [ -88.827758, 17.941659 ], [ -88.810372, 17.948905 ], [ -88.79709, 17.968207 ], [ -88.780585, 17.979158 ], [ -88.778031, 17.994384 ], [ -88.763541, 18.012163 ], [ -88.753522, 18.035586 ], [ -88.740117, 18.046847 ], [ -88.699688, 18.063591 ], [ -88.692814, 18.073833 ], [ -88.685331, 18.105379 ], [ -88.664738, 18.138619 ], [ -88.663945, 18.140927 ], [ -88.652301, 18.174804 ], [ -88.628858, 18.211827 ], [ -88.613822, 18.221723 ], [ -88.604682, 18.234138 ], [ -88.599703, 18.249301 ], [ -88.597059, 18.267726 ], [ -88.592187, 18.301668 ], [ -88.549219, 18.347443 ], [ -88.545879, 18.351 ], [ -88.5452, 18.377508 ], [ -88.525392, 18.419783 ], [ -88.521454, 18.435968 ], [ -88.517892, 18.45061 ], [ -88.511962, 18.462892 ], [ -88.473867, 18.494059 ], [ -88.453924, 18.490013 ], [ -88.447118, 18.481929 ], [ -88.441208, 18.479929 ], [ -88.394338, 18.496193 ], [ -88.376276, 18.485029 ], [ -88.333949, 18.489236 ], [ -88.31683, 18.488801 ] ] ], [ [ [ -87.973616, 17.93747 ], [ -87.983617, 17.93158 ], [ -87.98434, 17.947171 ], [ -87.973616, 17.967372 ], [ -87.966921, 17.983472 ], [ -87.956988, 17.992894 ], [ -87.958042, 18.001672 ], [ -87.950828, 18.016605 ], [ -87.927753, 18.043159 ], [ -87.931072, 18.057863 ], [ -87.945259, 18.051723 ], [ -87.949658, 18.056184 ], [ -87.949918, 18.060744 ], [ -87.939598, 18.063347 ], [ -87.92481, 18.077166 ], [ -87.910725, 18.081071 ], [ -87.907883, 18.106001 ], [ -87.892352, 18.132016 ], [ -87.889601, 18.135986 ], [ -87.89608, 18.140234 ], [ -87.895815, 18.143307 ], [ -87.890353, 18.147633 ], [ -87.885881, 18.160452 ], [ -87.876231, 18.173427 ], [ -87.86824, 18.1771 ], [ -87.855263, 18.158506 ], [ -87.855073, 18.143986 ], [ -87.850729, 18.132016 ], [ -87.851129, 18.114089 ], [ -87.87692, 18.083548 ], [ -87.897504, 18.030843 ], [ -87.912031, 18.00896 ], [ -87.916561, 18.021469 ], [ -87.902084, 18.05697 ], [ -87.91802, 18.056633 ], [ -87.931728, 18.021274 ], [ -87.927165, 18.009373 ], [ -87.931808, 18.001411 ], [ -87.933742, 17.987974 ], [ -87.950245, 17.964512 ], [ -87.952249, 17.939045 ], [ -87.955873, 17.941251 ], [ -87.954601, 17.949779 ], [ -87.956752, 17.953725 ], [ -87.973616, 17.93747 ] ] ], [ [ [ -87.933518, 17.280159 ], [ -87.93239, 17.30754 ], [ -87.928149, 17.318757 ], [ -87.917908, 17.341067 ], [ -87.907189, 17.347823 ], [ -87.909908, 17.356095 ], [ -87.902994, 17.36155 ], [ -87.906312, 17.376769 ], [ -87.91596, 17.37737 ], [ -87.92073, 17.37331 ], [ -87.921867, 17.383403 ], [ -87.897348, 17.422625 ], [ -87.891385, 17.436066 ], [ -87.866576, 17.472918 ], [ -87.861013, 17.477601 ], [ -87.856934, 17.475459 ], [ -87.868592, 17.461301 ], [ -87.869604, 17.457575 ], [ -87.867736, 17.454893 ], [ -87.852234, 17.454876 ], [ -87.839431, 17.4608 ], [ -87.827798, 17.462495 ], [ -87.818526, 17.471471 ], [ -87.819094, 17.482571 ], [ -87.815791, 17.487931 ], [ -87.792293, 17.501277 ], [ -87.792795, 17.506176 ], [ -87.798809, 17.511446 ], [ -87.798807, 17.518535 ], [ -87.79532, 17.526316 ], [ -87.784328, 17.531136 ], [ -87.784204, 17.527676 ], [ -87.791276, 17.519301 ], [ -87.790584, 17.514734 ], [ -87.775918, 17.505685 ], [ -87.770303, 17.504725 ], [ -87.769965, 17.503166 ], [ -87.780822, 17.4963 ], [ -87.786107, 17.488309 ], [ -87.795649, 17.48007 ], [ -87.803102, 17.46742 ], [ -87.802104, 17.461183 ], [ -87.807069, 17.457722 ], [ -87.811495, 17.447813 ], [ -87.819165, 17.446032 ], [ -87.813698, 17.439912 ], [ -87.829648, 17.424608 ], [ -87.83733, 17.422105 ], [ -87.842529, 17.423723 ], [ -87.844838, 17.442293 ], [ -87.848771, 17.445139 ], [ -87.866187, 17.437057 ], [ -87.870228, 17.42539 ], [ -87.88341, 17.428006 ], [ -87.891368, 17.423611 ], [ -87.900187, 17.400118 ], [ -87.901174, 17.389546 ], [ -87.905745, 17.383729 ], [ -87.896172, 17.383767 ], [ -87.899038, 17.373241 ], [ -87.897002, 17.360628 ], [ -87.905118, 17.34103 ], [ -87.912831, 17.336461 ], [ -87.920791, 17.318757 ], [ -87.920589, 17.308881 ], [ -87.924081, 17.303468 ], [ -87.918849, 17.294953 ], [ -87.924362, 17.286454 ], [ -87.921242, 17.269929 ], [ -87.923073, 17.265163 ], [ -87.933518, 17.280159 ] ] ], [ [ [ -87.823356, 17.315716 ], [ -87.82255, 17.318785 ], [ -87.821076, 17.3244 ], [ -87.822739, 17.335412 ], [ -87.818668, 17.353615 ], [ -87.822577, 17.362512 ], [ -87.813173, 17.365128 ], [ -87.813173, 17.372782 ], [ -87.809819, 17.376149 ], [ -87.793345, 17.332303 ], [ -87.797841, 17.318785 ], [ -87.800972, 17.318785 ], [ -87.807144, 17.323092 ], [ -87.815101, 17.318785 ], [ -87.822018, 17.315041 ], [ -87.823356, 17.315716 ] ] ], [ [ [ -87.973616, 17.906144 ], [ -87.978469, 17.893208 ], [ -87.994388, 17.87982 ], [ -88.018963, 17.87539 ], [ -88.025889, 17.877676 ], [ -88.035707, 17.876721 ], [ -88.039373, 17.879415 ], [ -88.033431, 17.885161 ], [ -88.023626, 17.882826 ], [ -88.010015, 17.887862 ], [ -87.996663, 17.885073 ], [ -87.994465, 17.889404 ], [ -88.00043, 17.897309 ], [ -87.999669, 17.903451 ], [ -87.994793, 17.901701 ], [ -87.986014, 17.904821 ], [ -87.973616, 17.91703 ], [ -87.96472, 17.919923 ], [ -87.963469, 17.928874 ], [ -87.963109, 17.931445 ], [ -87.95854, 17.932408 ], [ -87.959986, 17.921644 ], [ -87.963469, 17.917684 ], [ -87.973616, 17.906144 ] ] ], [ [ [ -87.89151, 17.232396 ], [ -87.889172, 17.235926 ], [ -87.88561, 17.237637 ], [ -87.882246, 17.233903 ], [ -87.876887, 17.232743 ], [ -87.877799, 17.23031 ], [ -87.882343, 17.231164 ], [ -87.883542, 17.224836 ], [ -87.875682, 17.224975 ], [ -87.871989, 17.223116 ], [ -87.866815, 17.22746 ], [ -87.868713, 17.231482 ], [ -87.866416, 17.243626 ], [ -87.863158, 17.245821 ], [ -87.857183, 17.241199 ], [ -87.857124, 17.235926 ], [ -87.861632, 17.231591 ], [ -87.863938, 17.2183 ], [ -87.868549, 17.211418 ], [ -87.865008, 17.197264 ], [ -87.873281, 17.189651 ], [ -87.874783, 17.190459 ], [ -87.872993, 17.198054 ], [ -87.876073, 17.205116 ], [ -87.875033, 17.215562 ], [ -87.886196, 17.219877 ], [ -87.89151, 17.232396 ] ] ], [ [ [ -88.16306, 17.674528 ], [ -88.161439, 17.676158 ], [ -88.157647, 17.678285 ], [ -88.144417, 17.677667 ], [ -88.140843, 17.685881 ], [ -88.119452, 17.693635 ], [ -88.101955, 17.717305 ], [ -88.09738, 17.717105 ], [ -88.096573, 17.702435 ], [ -88.102233, 17.702914 ], [ -88.111806, 17.697226 ], [ -88.129053, 17.678594 ], [ -88.141629, 17.670434 ], [ -88.157647, 17.673323 ], [ -88.160231, 17.672616 ], [ -88.16306, 17.674528 ] ] ], [ [ [ -87.858496, 17.286387 ], [ -87.855271, 17.289553 ], [ -87.85271, 17.283579 ], [ -87.848662, 17.281997 ], [ -87.84871, 17.289806 ], [ -87.845231, 17.287731 ], [ -87.842622, 17.290138 ], [ -87.848188, 17.291135 ], [ -87.848214, 17.298153 ], [ -87.836795, 17.298857 ], [ -87.829664, 17.297362 ], [ -87.830273, 17.290305 ], [ -87.84097, 17.27295 ], [ -87.845309, 17.271529 ], [ -87.843926, 17.275524 ], [ -87.856884, 17.280174 ], [ -87.856721, 17.284399 ], [ -87.858496, 17.286387 ] ] ], [ [ [ -87.944556, 17.261744 ], [ -87.941818, 17.265216 ], [ -87.938912, 17.260553 ], [ -87.934396, 17.247617 ], [ -87.930986, 17.245716 ], [ -87.934819, 17.241783 ], [ -87.934089, 17.23591 ], [ -87.930195, 17.223793 ], [ -87.919484, 17.226934 ], [ -87.916203, 17.224045 ], [ -87.916454, 17.221816 ], [ -87.919493, 17.223678 ], [ -87.925626, 17.219804 ], [ -87.928824, 17.212304 ], [ -87.935023, 17.217007 ], [ -87.938912, 17.232969 ], [ -87.944556, 17.261744 ] ] ], [ [ [ -87.516769, 17.441953 ], [ -87.514614, 17.447651 ], [ -87.506836, 17.45257 ], [ -87.50362, 17.455544 ], [ -87.499586, 17.454007 ], [ -87.495022, 17.455437 ], [ -87.490312, 17.446133 ], [ -87.490693, 17.442583 ], [ -87.496125, 17.434689 ], [ -87.500012, 17.434729 ], [ -87.502352, 17.43732 ], [ -87.505654, 17.437241 ], [ -87.508621, 17.439394 ], [ -87.516769, 17.441953 ] ] ], [ [ [ -87.832749, 17.40693 ], [ -87.829659, 17.412775 ], [ -87.8229, 17.425557 ], [ -87.816234, 17.424435 ], [ -87.813168, 17.426549 ], [ -87.810206, 17.42514 ], [ -87.813168, 17.422293 ], [ -87.81894, 17.411412 ], [ -87.813168, 17.386796 ], [ -87.809448, 17.381829 ], [ -87.811066, 17.380582 ], [ -87.813168, 17.382418 ], [ -87.818135, 17.386915 ], [ -87.817859, 17.398844 ], [ -87.820634, 17.404342 ], [ -87.829659, 17.40627 ], [ -87.832749, 17.40693 ] ] ], [ [ [ -88.053139, 17.074768 ], [ -88.049564, 17.083136 ], [ -88.046467, 17.086197 ], [ -88.04558, 17.093869 ], [ -88.042597, 17.096119 ], [ -88.036142, 17.096266 ], [ -88.03162, 17.092396 ], [ -88.028484, 17.085241 ], [ -88.029768, 17.079765 ], [ -88.036557, 17.080116 ], [ -88.039417, 17.078943 ], [ -88.04274, 17.079974 ], [ -88.049159, 17.077216 ], [ -88.051007, 17.073844 ], [ -88.053139, 17.074768 ] ] ], [ [ [ -87.861541, 17.260135 ], [ -87.860183, 17.265325 ], [ -87.84448, 17.265403 ], [ -87.837418, 17.26263 ], [ -87.832858, 17.2712 ], [ -87.83022, 17.269354 ], [ -87.83123, 17.266581 ], [ -87.829659, 17.265391 ], [ -87.827054, 17.263418 ], [ -87.828012, 17.26009 ], [ -87.829659, 17.261119 ], [ -87.832319, 17.26278 ], [ -87.835537, 17.262122 ], [ -87.842473, 17.252809 ], [ -87.853193, 17.251646 ], [ -87.854972, 17.257973 ], [ -87.861541, 17.260135 ] ] ], [ [ [ -87.60532, 17.1907 ], [ -87.604542, 17.194061 ], [ -87.601531, 17.197746 ], [ -87.597911, 17.205502 ], [ -87.59578, 17.212191 ], [ -87.595171, 17.221691 ], [ -87.592634, 17.221853 ], [ -87.588777, 17.219268 ], [ -87.588439, 17.21636 ], [ -87.584515, 17.214518 ], [ -87.584379, 17.211157 ], [ -87.587728, 17.205663 ], [ -87.597573, 17.198974 ], [ -87.601509, 17.1936 ], [ -87.599839, 17.191864 ], [ -87.603053, 17.189634 ], [ -87.60532, 17.1907 ] ] ], [ [ [ -87.973616, 18.078536 ], [ -87.984638, 18.07954 ], [ -87.973616, 18.095563 ], [ -87.961651, 18.091387 ], [ -87.965116, 18.083388 ], [ -87.973616, 18.078536 ] ] ], [ [ [ -88.084532, 17.496138 ], [ -88.083166, 17.495362 ], [ -88.078564, 17.497748 ], [ -88.080483, 17.50217 ], [ -88.077888, 17.503203 ], [ -88.067662, 17.498581 ], [ -88.062744, 17.495734 ], [ -88.061909, 17.492602 ], [ -88.063114, 17.488937 ], [ -88.066769, 17.485521 ], [ -88.071386, 17.483406 ], [ -88.074386, 17.484173 ], [ -88.071952, 17.487061 ], [ -88.072794, 17.491237 ], [ -88.076062, 17.491481 ], [ -88.079074, 17.494208 ], [ -88.084456, 17.493466 ], [ -88.084532, 17.496138 ] ] ], [ [ [ -88.104431, 17.62582 ], [ -88.099317, 17.627646 ], [ -88.089806, 17.625902 ], [ -88.087034, 17.622321 ], [ -88.082772, 17.620187 ], [ -88.083496, 17.615868 ], [ -88.080739, 17.614684 ], [ -88.080337, 17.610131 ], [ -88.083399, 17.610801 ], [ -88.08552, 17.608806 ], [ -88.093234, 17.613896 ], [ -88.098912, 17.622734 ], [ -88.104431, 17.62582 ] ] ], [ [ [ -88.031943, 17.757514 ], [ -88.029976, 17.763039 ], [ -88.029807, 17.774703 ], [ -88.025869, 17.782405 ], [ -88.025627, 17.788029 ], [ -88.021715, 17.791704 ], [ -88.020925, 17.795913 ], [ -88.017437, 17.794013 ], [ -88.020523, 17.789705 ], [ -88.021286, 17.783402 ], [ -88.023946, 17.77693 ], [ -88.024725, 17.771759 ], [ -88.024572, 17.757164 ], [ -88.02573, 17.754858 ], [ -88.031943, 17.757514 ] ] ], [ [ [ -88.070455, 17.387832 ], [ -88.067539, 17.389742 ], [ -88.062639, 17.390318 ], [ -88.059999, 17.388985 ], [ -88.061448, 17.385033 ], [ -88.057333, 17.377319 ], [ -88.058679, 17.373194 ], [ -88.06093, 17.371358 ], [ -88.068643, 17.371934 ], [ -88.070455, 17.387832 ] ] ], [ [ [ -88.160578, 17.51849 ], [ -88.157647, 17.519375 ], [ -88.147169, 17.517855 ], [ -88.142958, 17.508416 ], [ -88.145131, 17.503663 ], [ -88.148451, 17.503083 ], [ -88.157647, 17.514158 ], [ -88.160017, 17.515502 ], [ -88.160578, 17.51849 ] ] ], [ [ [ -88.285008, 17.656943 ], [ -88.282989, 17.658117 ], [ -88.279485, 17.655558 ], [ -88.274506, 17.65558 ], [ -88.271897, 17.661019 ], [ -88.264943, 17.659378 ], [ -88.267457, 17.649439 ], [ -88.27102, 17.644888 ], [ -88.27552, 17.644888 ], [ -88.27681, 17.649965 ], [ -88.285008, 17.656943 ] ] ], [ [ [ -87.813071, 17.54754 ], [ -87.810528, 17.547252 ], [ -87.809093, 17.542061 ], [ -87.806876, 17.540077 ], [ -87.80165, 17.54045 ], [ -87.800947, 17.534158 ], [ -87.803708, 17.532976 ], [ -87.800747, 17.527146 ], [ -87.805866, 17.526131 ], [ -87.808768, 17.529891 ], [ -87.812658, 17.530556 ], [ -87.811569, 17.536873 ], [ -87.813071, 17.54754 ] ] ], [ [ [ -87.919262, 17.192421 ], [ -87.919113, 17.199493 ], [ -87.91657, 17.200264 ], [ -87.909304, 17.194515 ], [ -87.912172, 17.190415 ], [ -87.914495, 17.189353 ], [ -87.911691, 17.185042 ], [ -87.911341, 17.179186 ], [ -87.909765, 17.175504 ], [ -87.912198, 17.172756 ], [ -87.914844, 17.176843 ], [ -87.916595, 17.186297 ], [ -87.919262, 17.192421 ] ] ], [ [ [ -88.038462, 17.730321 ], [ -88.037413, 17.738743 ], [ -88.034282, 17.742054 ], [ -88.030119, 17.739303 ], [ -88.025563, 17.744536 ], [ -88.023589, 17.741546 ], [ -88.028877, 17.731812 ], [ -88.03246, 17.729047 ], [ -88.038107, 17.72859 ], [ -88.038462, 17.730321 ] ] ], [ [ [ -87.956155, 18.10657 ], [ -87.952862, 18.109037 ], [ -87.949258, 18.108823 ], [ -87.949949, 18.106941 ], [ -87.946013, 18.105352 ], [ -87.942578, 18.109123 ], [ -87.939582, 18.109138 ], [ -87.938943, 18.103917 ], [ -87.941822, 18.099264 ], [ -87.946742, 18.09826 ], [ -87.952246, 18.093725 ], [ -87.953552, 18.094895 ], [ -87.948176, 18.101558 ], [ -87.948525, 18.102925 ], [ -87.953147, 18.100866 ], [ -87.953297, 18.103706 ], [ -87.956155, 18.10657 ] ] ], [ [ [ -88.089405, 17.604697 ], [ -88.087942, 17.606337 ], [ -88.082607, 17.600678 ], [ -88.079252, 17.59912 ], [ -88.07988, 17.59683 ], [ -88.077373, 17.591964 ], [ -88.08191, 17.586913 ], [ -88.078297, 17.586806 ], [ -88.07794, 17.579898 ], [ -88.079548, 17.579898 ], [ -88.086734, 17.58488 ], [ -88.086824, 17.5865 ], [ -88.081548, 17.597226 ], [ -88.086135, 17.599038 ], [ -88.089405, 17.604697 ] ] ], [ [ [ -88.134144, 17.639882 ], [ -88.134011, 17.644923 ], [ -88.126436, 17.641414 ], [ -88.116095, 17.640824 ], [ -88.112412, 17.631076 ], [ -88.116388, 17.631076 ], [ -88.121281, 17.636848 ], [ -88.132821, 17.637394 ], [ -88.134144, 17.639882 ] ] ], [ [ [ -87.819753, 17.275011 ], [ -87.819595, 17.283964 ], [ -87.813168, 17.290235 ], [ -87.810545, 17.290011 ], [ -87.807926, 17.285642 ], [ -87.813168, 17.278008 ], [ -87.815433, 17.273186 ], [ -87.819753, 17.275011 ] ] ], [ [ [ -87.84691, 18.179415 ], [ -87.845227, 18.179734 ], [ -87.841587, 18.173555 ], [ -87.835078, 18.148676 ], [ -87.837092, 18.148676 ], [ -87.843241, 18.161931 ], [ -87.84691, 18.179415 ] ] ], [ [ [ -88.201842, 17.646265 ], [ -88.194447, 17.655317 ], [ -88.191377, 17.654401 ], [ -88.19054, 17.648096 ], [ -88.187995, 17.648033 ], [ -88.187211, 17.640979 ], [ -88.19054, 17.641218 ], [ -88.19603, 17.645604 ], [ -88.201842, 17.646265 ] ] ], [ [ [ -88.461429, 16.404311 ], [ -88.460044, 16.407098 ], [ -88.456675, 16.40751 ], [ -88.456653, 16.405206 ], [ -88.451719, 16.403856 ], [ -88.444006, 16.405056 ], [ -88.444975, 16.401255 ], [ -88.449753, 16.401658 ], [ -88.453166, 16.398312 ], [ -88.460143, 16.395286 ], [ -88.459447, 16.400103 ], [ -88.461429, 16.404311 ] ] ], [ [ [ -88.071036, 17.850287 ], [ -88.070111, 17.851268 ], [ -88.047119, 17.851254 ], [ -88.048805, 17.847995 ], [ -88.066845, 17.845985 ], [ -88.071036, 17.850287 ] ] ], [ [ [ -88.045299, 17.684844 ], [ -88.044279, 17.691408 ], [ -88.044631, 17.697546 ], [ -88.041417, 17.705935 ], [ -88.039634, 17.705668 ], [ -88.039816, 17.690776 ], [ -88.043767, 17.684111 ], [ -88.045299, 17.684844 ] ] ], [ [ [ -87.922418, 18.088891 ], [ -87.921029, 18.096619 ], [ -87.912368, 18.099707 ], [ -87.912416, 18.097115 ], [ -87.915095, 18.096102 ], [ -87.912002, 18.091842 ], [ -87.912336, 18.088426 ], [ -87.915226, 18.090042 ], [ -87.922418, 18.088891 ] ] ], [ [ [ -88.187368, 17.533572 ], [ -88.182497, 17.538953 ], [ -88.178862, 17.534132 ], [ -88.175826, 17.533488 ], [ -88.175905, 17.531219 ], [ -88.179591, 17.528255 ], [ -88.183851, 17.528405 ], [ -88.187368, 17.533572 ] ] ], [ [ [ -87.930876, 17.968828 ], [ -87.929787, 17.98035 ], [ -87.925013, 17.981644 ], [ -87.922378, 17.985723 ], [ -87.920492, 17.984377 ], [ -87.928423, 17.96933 ], [ -87.930876, 17.968828 ] ] ], [ [ [ -88.153234, 18.007289 ], [ -88.150099, 18.008812 ], [ -88.147768, 18.013089 ], [ -88.143334, 18.016375 ], [ -88.140256, 18.016216 ], [ -88.143291, 18.009605 ], [ -88.148759, 18.004181 ], [ -88.151626, 18.003919 ], [ -88.153234, 18.007289 ] ] ], [ [ [ -88.076632, 17.405601 ], [ -88.072324, 17.416887 ], [ -88.070538, 17.418902 ], [ -88.068642, 17.41841 ], [ -88.067483, 17.415618 ], [ -88.068006, 17.41244 ], [ -88.069277, 17.409688 ], [ -88.073997, 17.404266 ], [ -88.076632, 17.405601 ] ] ], [ [ [ -88.082921, 17.575037 ], [ -88.079888, 17.577242 ], [ -88.07509, 17.577163 ], [ -88.071481, 17.574021 ], [ -88.070903, 17.568976 ], [ -88.073155, 17.567222 ], [ -88.082921, 17.575037 ] ] ], [ [ [ -87.909597, 17.170111 ], [ -87.905892, 17.173999 ], [ -87.901791, 17.180624 ], [ -87.898504, 17.177915 ], [ -87.901667, 17.174113 ], [ -87.899689, 17.169456 ], [ -87.907088, 17.16744 ], [ -87.909597, 17.170111 ] ] ], [ [ [ -87.824017, 17.509179 ], [ -87.821882, 17.522166 ], [ -87.816631, 17.527306 ], [ -87.813088, 17.524745 ], [ -87.817048, 17.522644 ], [ -87.821063, 17.510255 ], [ -87.824017, 17.509179 ] ] ], [ [ [ -88.089155, 16.898001 ], [ -88.087857, 16.90067 ], [ -88.080707, 16.906666 ], [ -88.078813, 16.906183 ], [ -88.080309, 16.900066 ], [ -88.085759, 16.894673 ], [ -88.088576, 16.895275 ], [ -88.089155, 16.898001 ] ] ], [ [ [ -88.17814, 17.557892 ], [ -88.175669, 17.561427 ], [ -88.172844, 17.568328 ], [ -88.168254, 17.570179 ], [ -88.169313, 17.562942 ], [ -88.17355, 17.556546 ], [ -88.17814, 17.557892 ] ] ], [ [ [ -88.070153, 17.62528 ], [ -88.070113, 17.631076 ], [ -88.070082, 17.635686 ], [ -88.065134, 17.638993 ], [ -88.063724, 17.63809 ], [ -88.065397, 17.631076 ], [ -88.066128, 17.628009 ], [ -88.068497, 17.624777 ], [ -88.070153, 17.62528 ] ] ], [ [ [ -88.107416, 16.830834 ], [ -88.104574, 16.835406 ], [ -88.100738, 16.834931 ], [ -88.096629, 16.827556 ], [ -88.099882, 16.825098 ], [ -88.102622, 16.827556 ], [ -88.102964, 16.831653 ], [ -88.105739, 16.829625 ], [ -88.107416, 16.830834 ] ] ], [ [ [ -88.142029, 18.038512 ], [ -88.137166, 18.045024 ], [ -88.138918, 18.046747 ], [ -88.134706, 18.048991 ], [ -88.133469, 18.046747 ], [ -88.131459, 18.045123 ], [ -88.139775, 18.037015 ], [ -88.142029, 18.038512 ] ] ], [ [ [ -88.231581, 17.737706 ], [ -88.230511, 17.740849 ], [ -88.224931, 17.743229 ], [ -88.226217, 17.732193 ], [ -88.228658, 17.731389 ], [ -88.228192, 17.735098 ], [ -88.231581, 17.737706 ] ] ], [ [ [ -87.808724, 17.305794 ], [ -87.80654, 17.312319 ], [ -87.800486, 17.313426 ], [ -87.803024, 17.305345 ], [ -87.808724, 17.305794 ] ] ], [ [ [ -88.338286, 16.635896 ], [ -88.334504, 16.643248 ], [ -88.328384, 16.641185 ], [ -88.33038, 16.63804 ], [ -88.336966, 16.634966 ], [ -88.338286, 16.635896 ] ] ], [ [ [ -88.185372, 17.543726 ], [ -88.185359, 17.546328 ], [ -88.181237, 17.550195 ], [ -88.178246, 17.54677 ], [ -88.180834, 17.545599 ], [ -88.179945, 17.541304 ], [ -88.183919, 17.539811 ], [ -88.185372, 17.543726 ] ] ], [ [ [ -88.074406, 17.439505 ], [ -88.074183, 17.441881 ], [ -88.066971, 17.44638 ], [ -88.064568, 17.448169 ], [ -88.063631, 17.44638 ], [ -88.067186, 17.442167 ], [ -88.066801, 17.439959 ], [ -88.074406, 17.439505 ] ] ], [ [ [ -87.993722, 17.928572 ], [ -87.993263, 17.933217 ], [ -87.991491, 17.933256 ], [ -87.988993, 17.937434 ], [ -87.985722, 17.936512 ], [ -87.988872, 17.928597 ], [ -87.993722, 17.928572 ] ] ], [ [ [ -88.426457, 16.461079 ], [ -88.423513, 16.463244 ], [ -88.421133, 16.461951 ], [ -88.418325, 16.455114 ], [ -88.420359, 16.453691 ], [ -88.424164, 16.456732 ], [ -88.426457, 16.461079 ] ] ], [ [ [ -88.055285, 16.981164 ], [ -88.042087, 16.981164 ], [ -88.04326, 16.977667 ], [ -88.054797, 16.978346 ], [ -88.055285, 16.981164 ] ] ], [ [ [ -88.160017, 17.65653 ], [ -88.157647, 17.658514 ], [ -88.153056, 17.661312 ], [ -88.150164, 17.658579 ], [ -88.152475, 17.654905 ], [ -88.157647, 17.655141 ], [ -88.15945, 17.654716 ], [ -88.160017, 17.65653 ] ] ], [ [ [ -88.208121, 17.571801 ], [ -88.205671, 17.573991 ], [ -88.204802, 17.57772 ], [ -88.199448, 17.578264 ], [ -88.20141, 17.57253 ], [ -88.204406, 17.569874 ], [ -88.208121, 17.571801 ] ] ], [ [ [ -87.884524, 17.260054 ], [ -87.881701, 17.260799 ], [ -87.880314, 17.264989 ], [ -87.874189, 17.268279 ], [ -87.874093, 17.264989 ], [ -87.882132, 17.258317 ], [ -87.884524, 17.260054 ] ] ], [ [ [ -88.027087, 17.001964 ], [ -88.027087, 17.009679 ], [ -88.023483, 17.010335 ], [ -88.022281, 17.002128 ], [ -88.027087, 17.001964 ] ] ], [ [ [ -87.902045, 17.234977 ], [ -87.898489, 17.238523 ], [ -87.898489, 17.242932 ], [ -87.894025, 17.241471 ], [ -87.895488, 17.236952 ], [ -87.899236, 17.233776 ], [ -87.902045, 17.234977 ] ] ], [ [ [ -87.837165, 18.139267 ], [ -87.834684, 18.140293 ], [ -87.833051, 18.134966 ], [ -87.830741, 18.132016 ], [ -87.829571, 18.130523 ], [ -87.830692, 18.128983 ], [ -87.834652, 18.132016 ], [ -87.836848, 18.133697 ], [ -87.835698, 18.137045 ], [ -87.837165, 18.139267 ] ] ], [ [ [ -88.098564, 16.880683 ], [ -88.097656, 16.882652 ], [ -88.092275, 16.880559 ], [ -88.088372, 16.875776 ], [ -88.090674, 16.874017 ], [ -88.093815, 16.877587 ], [ -88.098564, 16.880683 ] ] ], [ [ [ -87.845851, 18.11605 ], [ -87.84513, 18.118188 ], [ -87.840943, 18.119105 ], [ -87.838626, 18.121621 ], [ -87.834529, 18.120083 ], [ -87.84152, 18.115587 ], [ -87.845851, 18.11605 ] ] ], [ [ [ -87.944596, 17.947223 ], [ -87.938819, 17.95908 ], [ -87.936638, 17.958381 ], [ -87.938819, 17.954615 ], [ -87.941114, 17.947512 ], [ -87.944596, 17.947223 ] ] ], [ [ [ -87.834431, 18.120152 ], [ -87.832133, 18.124705 ], [ -87.829723, 18.123938 ], [ -87.829983, 18.127874 ], [ -87.828131, 18.128063 ], [ -87.827538, 18.124347 ], [ -87.829631, 18.119666 ], [ -87.834431, 18.120152 ] ] ], [ [ [ -87.95267, 18.035538 ], [ -87.949716, 18.044485 ], [ -87.947807, 18.044112 ], [ -87.948167, 18.03556 ], [ -87.95267, 18.035538 ] ] ], [ [ [ -88.172148, 17.647006 ], [ -88.165508, 17.653127 ], [ -88.164134, 17.648969 ], [ -88.167227, 17.645652 ], [ -88.172148, 17.647006 ] ] ], [ [ [ -88.13205, 17.500588 ], [ -88.127639, 17.502987 ], [ -88.122578, 17.501187 ], [ -88.123178, 17.498704 ], [ -88.131299, 17.499625 ], [ -88.13205, 17.500588 ] ] ], [ [ [ -87.834098, 17.379247 ], [ -87.829335, 17.380672 ], [ -87.828763, 17.372797 ], [ -87.831071, 17.37355 ], [ -87.834098, 17.379247 ] ] ], [ [ [ -88.073093, 17.433393 ], [ -88.070679, 17.437924 ], [ -88.065517, 17.438318 ], [ -88.068743, 17.432805 ], [ -88.073093, 17.433393 ] ] ], [ [ [ -87.825981, 17.263159 ], [ -87.82324, 17.26957 ], [ -87.821035, 17.268978 ], [ -87.821113, 17.264722 ], [ -87.825169, 17.261198 ], [ -87.825981, 17.263159 ] ] ], [ [ [ -88.362369, 16.513574 ], [ -88.358214, 16.515341 ], [ -88.358629, 16.508729 ], [ -88.361397, 16.507678 ], [ -88.362369, 16.513574 ] ] ], [ [ [ -88.244367, 17.73709 ], [ -88.23807, 17.73755 ], [ -88.238548, 17.732506 ], [ -88.240516, 17.732025 ], [ -88.244367, 17.73709 ] ] ], [ [ [ -88.427883, 16.446317 ], [ -88.420675, 16.448646 ], [ -88.420855, 16.445669 ], [ -88.424357, 16.443256 ], [ -88.427883, 16.446317 ] ] ], [ [ [ -88.244409, 17.758727 ], [ -88.244133, 17.760095 ], [ -88.240717, 17.760937 ], [ -88.24003, 17.754387 ], [ -88.243522, 17.754223 ], [ -88.242417, 17.756003 ], [ -88.244409, 17.758727 ] ] ], [ [ [ -88.01046, 17.891264 ], [ -88.010041, 17.895506 ], [ -88.008361, 17.896119 ], [ -88.005195, 17.891205 ], [ -88.006266, 17.889925 ], [ -88.01046, 17.891264 ] ] ], [ [ [ -88.640851, 16.222225 ], [ -88.640275, 16.224217 ], [ -88.635337, 16.225544 ], [ -88.634372, 16.22415 ], [ -88.637586, 16.220255 ], [ -88.640851, 16.222225 ] ] ], [ [ [ -88.721918, 16.16647 ], [ -88.714798, 16.171421 ], [ -88.713589, 16.169052 ], [ -88.719704, 16.165247 ], [ -88.721918, 16.16647 ] ] ], [ [ [ -88.711355, 16.173563 ], [ -88.709516, 16.177673 ], [ -88.707105, 16.177343 ], [ -88.707046, 16.170751 ], [ -88.711355, 16.173563 ] ] ], [ [ [ -88.644965, 16.178841 ], [ -88.643783, 16.180372 ], [ -88.63619, 16.180614 ], [ -88.638071, 16.17711 ], [ -88.644965, 16.178841 ] ] ], [ [ [ -88.747163, 16.182943 ], [ -88.74346, 16.183869 ], [ -88.739897, 16.179532 ], [ -88.744664, 16.179101 ], [ -88.747163, 16.182943 ] ] ], [ [ [ -88.201731, 16.244349 ], [ -88.201731, 16.24875 ], [ -88.19733, 16.24875 ], [ -88.19733, 16.244349 ], [ -88.201731, 16.244349 ] ] ], [ [ [ -87.954602, 18.116559 ], [ -87.953339, 18.120373 ], [ -87.949266, 18.121483 ], [ -87.950074, 18.116132 ], [ -87.954602, 18.116559 ] ] ], [ [ [ -88.441338, 16.407676 ], [ -88.436985, 16.412925 ], [ -88.434058, 16.410003 ], [ -88.439735, 16.406729 ], [ -88.441338, 16.407676 ] ] ], [ [ [ -88.430816, 16.424526 ], [ -88.430164, 16.429422 ], [ -88.427356, 16.429139 ], [ -88.427166, 16.424847 ], [ -88.430483, 16.422077 ], [ -88.430816, 16.424526 ] ] ], [ [ [ -88.439118, 16.429919 ], [ -88.434006, 16.428315 ], [ -88.43519, 16.423753 ], [ -88.438189, 16.425029 ], [ -88.439118, 16.429919 ] ] ], [ [ [ -88.410524, 16.475944 ], [ -88.406204, 16.479035 ], [ -88.403488, 16.478271 ], [ -88.404758, 16.474014 ], [ -88.410524, 16.475944 ] ] ], [ [ [ -88.169203, 16.499643 ], [ -88.168911, 16.502786 ], [ -88.164355, 16.502177 ], [ -88.165622, 16.496525 ], [ -88.169203, 16.499643 ] ] ], [ [ [ -88.279679, 16.515401 ], [ -88.276744, 16.518882 ], [ -88.273793, 16.517929 ], [ -88.274857, 16.513121 ], [ -88.279679, 16.515401 ] ] ], [ [ [ -88.219393, 16.598052 ], [ -88.218768, 16.600336 ], [ -88.212908, 16.601077 ], [ -88.213055, 16.597039 ], [ -88.219393, 16.598052 ] ] ], [ [ [ -88.211266, 16.632667 ], [ -88.20955, 16.63625 ], [ -88.206293, 16.632649 ], [ -88.208451, 16.628472 ], [ -88.211266, 16.632667 ] ] ], [ [ [ -88.320053, 16.65005 ], [ -88.314444, 16.652043 ], [ -88.313017, 16.64994 ], [ -88.31562, 16.646567 ], [ -88.320053, 16.65005 ] ] ], [ [ [ -88.314256, 16.765569 ], [ -88.310691, 16.771225 ], [ -88.30912, 16.767881 ], [ -88.312055, 16.763088 ], [ -88.314256, 16.765569 ] ] ], [ [ [ -88.307366, 16.772237 ], [ -88.306138, 16.774736 ], [ -88.301781, 16.775873 ], [ -88.301045, 16.772779 ], [ -88.305088, 16.770979 ], [ -88.307366, 16.772237 ] ] ], [ [ [ -88.089808, 16.88636 ], [ -88.084451, 16.889708 ], [ -88.08348, 16.885946 ], [ -88.088564, 16.883876 ], [ -88.089808, 16.88636 ] ] ], [ [ [ -87.538627, 17.204395 ], [ -87.532089, 17.206393 ], [ -87.531454, 17.203105 ], [ -87.537872, 17.202059 ], [ -87.538627, 17.204395 ] ] ], [ [ [ -87.919786, 17.210104 ], [ -87.914082, 17.211629 ], [ -87.913471, 17.20773 ], [ -87.916597, 17.206472 ], [ -87.919786, 17.210104 ] ] ], [ [ [ -87.918838, 17.25193 ], [ -87.917266, 17.257278 ], [ -87.913282, 17.257086 ], [ -87.91763, 17.250004 ], [ -87.918838, 17.25193 ] ] ], [ [ [ -87.860201, 17.269272 ], [ -87.856631, 17.27283 ], [ -87.852308, 17.271046 ], [ -87.856472, 17.267984 ], [ -87.860201, 17.269272 ] ] ], [ [ [ -87.890719, 17.282938 ], [ -87.886461, 17.282821 ], [ -87.883696, 17.2793 ], [ -87.887235, 17.277735 ], [ -87.890719, 17.282938 ] ] ], [ [ [ -87.865631, 17.293916 ], [ -87.863772, 17.29634 ], [ -87.860474, 17.297856 ], [ -87.860935, 17.292035 ], [ -87.862459, 17.291549 ], [ -87.865631, 17.293916 ] ] ], [ [ [ -87.903823, 17.310737 ], [ -87.90063, 17.314739 ], [ -87.898579, 17.312811 ], [ -87.899852, 17.3077 ], [ -87.903823, 17.310737 ] ] ], [ [ [ -87.868942, 17.312848 ], [ -87.866824, 17.316505 ], [ -87.863613, 17.315284 ], [ -87.864748, 17.310225 ], [ -87.868942, 17.312848 ] ] ], [ [ [ -87.870535, 17.323 ], [ -87.867141, 17.323169 ], [ -87.863509, 17.319679 ], [ -87.866165, 17.318735 ], [ -87.868651, 17.318735 ], [ -87.870535, 17.323 ] ] ], [ [ [ -88.177652, 17.356386 ], [ -88.176159, 17.358939 ], [ -88.171293, 17.36033 ], [ -88.170294, 17.358447 ], [ -88.174066, 17.355726 ], [ -88.177652, 17.356386 ] ] ], [ [ [ -88.072749, 17.426538 ], [ -88.071858, 17.429799 ], [ -88.067755, 17.43036 ], [ -88.066894, 17.425889 ], [ -88.072749, 17.426538 ] ] ], [ [ [ -88.07377, 17.446627 ], [ -88.070585, 17.452412 ], [ -88.067159, 17.450813 ], [ -88.06988, 17.447036 ], [ -88.07377, 17.446627 ] ] ], [ [ [ -88.13297, 17.46099 ], [ -88.131631, 17.462725 ], [ -88.127129, 17.462319 ], [ -88.127954, 17.458641 ], [ -88.131604, 17.458408 ], [ -88.13297, 17.46099 ] ] ], [ [ [ -87.853076, 17.484304 ], [ -87.851021, 17.489884 ], [ -87.847417, 17.487857 ], [ -87.848465, 17.484688 ], [ -87.853076, 17.484304 ] ] ], [ [ [ -88.202827, 17.523907 ], [ -88.20253, 17.526153 ], [ -88.197479, 17.527059 ], [ -88.198838, 17.521134 ], [ -88.202827, 17.523907 ] ] ], [ [ [ -87.76458, 17.539989 ], [ -87.760686, 17.541948 ], [ -87.759128, 17.535621 ], [ -87.763299, 17.536984 ], [ -87.76458, 17.539989 ] ] ], [ [ [ -88.081439, 17.551014 ], [ -88.078135, 17.553823 ], [ -88.073962, 17.553257 ], [ -88.074878, 17.55107 ], [ -88.080209, 17.549411 ], [ -88.081439, 17.551014 ] ] ], [ [ [ -88.073448, 17.561178 ], [ -88.070845, 17.562563 ], [ -88.069135, 17.556327 ], [ -88.073238, 17.556336 ], [ -88.073448, 17.561178 ] ] ], [ [ [ -88.048694, 17.679323 ], [ -88.044679, 17.682596 ], [ -88.04342, 17.678872 ], [ -88.046338, 17.675449 ], [ -88.048694, 17.679323 ] ] ], [ [ [ -88.008901, 17.906129 ], [ -88.003577, 17.906156 ], [ -88.004401, 17.901034 ], [ -88.006877, 17.901359 ], [ -88.008901, 17.906129 ] ] ], [ [ [ -88.20093, 17.907893 ], [ -88.198295, 17.91527 ], [ -88.195905, 17.914114 ], [ -88.198439, 17.907451 ], [ -88.20093, 17.907893 ] ] ], [ [ [ -87.985421, 17.918845 ], [ -87.983811, 17.924298 ], [ -87.980102, 17.92444 ], [ -87.982918, 17.918018 ], [ -87.985421, 17.918845 ] ] ], [ [ [ -87.923908, 18.012067 ], [ -87.922061, 18.013113 ], [ -87.917706, 18.008884 ], [ -87.918407, 18.00754 ], [ -87.923427, 18.008865 ], [ -87.923908, 18.012067 ] ] ], [ [ [ -88.140201, 18.018668 ], [ -88.138087, 18.022694 ], [ -88.133874, 18.020611 ], [ -88.136339, 18.017167 ], [ -88.140201, 18.018668 ] ] ], [ [ [ -87.950098, 18.11496 ], [ -87.944974, 18.117054 ], [ -87.943169, 18.112245 ], [ -87.944646, 18.111388 ], [ -87.950098, 18.11496 ] ] ], [ [ [ -88.026044, 18.030429 ], [ -88.023201, 18.038259 ], [ -88.020944, 18.0367 ], [ -88.023664, 18.030166 ], [ -88.026044, 18.030429 ] ] ], [ [ [ -87.963575, 18.096713 ], [ -87.960652, 18.101193 ], [ -87.958337, 18.094796 ], [ -87.962282, 18.094467 ], [ -87.963575, 18.096713 ] ] ], [ [ [ -88.115376, 18.334745 ], [ -88.109869, 18.335968 ], [ -88.108707, 18.333445 ], [ -88.111781, 18.330598 ], [ -88.115376, 18.334745 ] ] ], [ [ [ -88.10032, 18.34009 ], [ -88.099491, 18.342954 ], [ -88.095929, 18.342667 ], [ -88.096416, 18.337947 ], [ -88.098688, 18.337045 ], [ -88.10032, 18.34009 ] ] ] ] } }
]
}
