{
"type": "FeatureCollection",
"name": "Benin",
"crs": { "type": "name", "properties": { "name": "urn:ogc:def:crs:OGC:1.3:CRS84" } },
"features": [
{ "type": "Feature", "properties": { "id": "BJ", "CNTR_ID": "BJ", "CNTR_NAME": "Bénin", "NAME_ENGL": "Benin", "ISO3_CODE": "BEN", "FID": "BJ" }, "geometry": { "type": "MultiPolygon", "coordinates": [ [ [ [ 0.91216, 10.99649 ], [ 0.92249, 11.017873 ], [ 0.949741, 11.036805 ], [ 0.968561, 11.056443 ], [ 0.971555, 11.080288 ], [ 0.979366, 11.089775 ], [ 0.983974, 11.08838 ], [ 0.989766, 11.081343 ], [ 1.000895, 11.085597 ], [ 1.012252, 11.083744 ], [ 1.023067, 11.061965 ], [ 1.03426, 11.050213 ], [ 1.043546, 11.049531 ], [ 1.068899, 11.05855 ], [ 1.090946, 11.04858 ], [ 1.111401, 11.032343 ], [ 1.115194, 11.040058 ], [ 1.100928, 11.055488 ], [ 1.094429, 11.068714 ], [ 1.095848, 11.079139 ], [ 1.086988, 11.090584 ], [ 1.089272, 11.099426 ], [ 1.085188, 11.105652 ], [ 1.085203, 11.114882 ], [ 1.069731, 11.127685 ], [ 1.063264, 11.119351 ], [ 1.05192, 11.127663 ], [ 1.053476, 11.139564 ], [ 1.057078, 11.1438 ], [ 1.095178, 11.146846 ], [ 1.119696, 11.171793 ], [ 1.139708, 11.173442 ], [ 1.149776, 11.162165 ], [ 1.15853, 11.163549 ], [ 1.151215, 11.175724 ], [ 1.151846, 11.1979 ], [ 1.149424, 11.203204 ], [ 1.15579, 11.223794 ], [ 1.136252, 11.237571 ], [ 1.129547, 11.251234 ], [ 1.131413, 11.259302 ], [ 1.139697, 11.268443 ], [ 1.146808, 11.270459 ], [ 1.160107, 11.262205 ], [ 1.161811, 11.261148 ], [ 1.178357, 11.262018 ], [ 1.188724, 11.258643 ], [ 1.226055, 11.259556 ], [ 1.247163, 11.246498 ], [ 1.252013, 11.246029 ], [ 1.260973, 11.254275 ], [ 1.273273, 11.259994 ], [ 1.27567, 11.264286 ], [ 1.271204, 11.288222 ], [ 1.264546, 11.28832 ], [ 1.268405, 11.280221 ], [ 1.264752, 11.276861 ], [ 1.259501, 11.279756 ], [ 1.255353, 11.288747 ], [ 1.252553, 11.310542 ], [ 1.25583, 11.317932 ], [ 1.260595, 11.320858 ], [ 1.268656, 11.319908 ], [ 1.280522, 11.312204 ], [ 1.2915, 11.293482 ], [ 1.300471, 11.292476 ], [ 1.303898, 11.299431 ], [ 1.307254, 11.300667 ], [ 1.315856, 11.292578 ], [ 1.325758, 11.290936 ], [ 1.340618, 11.310238 ], [ 1.332543, 11.322899 ], [ 1.331323, 11.331159 ], [ 1.324559, 11.339263 ], [ 1.3194, 11.361133 ], [ 1.341994, 11.365266 ], [ 1.353423, 11.389428 ], [ 1.362956, 11.38545 ], [ 1.371754, 11.390109 ], [ 1.37614, 11.397084 ], [ 1.388795, 11.400661 ], [ 1.389872, 11.405103 ], [ 1.383869, 11.410504 ], [ 1.380303, 11.423228 ], [ 1.384847, 11.441738 ], [ 1.404179, 11.452955 ], [ 1.419218, 11.45305 ], [ 1.425642, 11.46498 ], [ 1.436366, 11.472607 ], [ 1.441745, 11.472598 ], [ 1.450807, 11.463148 ], [ 1.467741, 11.46552 ], [ 1.477518, 11.454556 ], [ 1.494073, 11.465109 ], [ 1.500242, 11.465914 ], [ 1.509691, 11.456874 ], [ 1.511935, 11.455971 ], [ 1.532855, 11.447554 ], [ 1.541224, 11.450953 ], [ 1.550382, 11.469149 ], [ 1.555009, 11.470572 ], [ 1.56734, 11.456853 ], [ 1.56952, 11.446575 ], [ 1.579232, 11.44167 ], [ 1.575647, 11.430382 ], [ 1.589639, 11.420797 ], [ 1.592229, 11.399567 ], [ 1.599671, 11.395111 ], [ 1.604907, 11.394064 ], [ 1.621418, 11.39076 ], [ 1.64, 11.401691 ], [ 1.650911, 11.396551 ], [ 1.663252, 11.396786 ], [ 1.684557, 11.413933 ], [ 1.700673, 11.408811 ], [ 1.715903, 11.429027 ], [ 1.738341, 11.417197 ], [ 1.747578, 11.419417 ], [ 1.753657, 11.417294 ], [ 1.760414, 11.422183 ], [ 1.772964, 11.419922 ], [ 1.783331, 11.422389 ], [ 1.794626, 11.426805 ], [ 1.804422, 11.436015 ], [ 1.827095, 11.434146 ], [ 1.843268, 11.444196 ], [ 1.850405, 11.438948 ], [ 1.872295, 11.445323 ], [ 1.883896, 11.438642 ], [ 1.893093, 11.43902 ], [ 1.913963, 11.430361 ], [ 1.955822, 11.420868 ], [ 1.984771, 11.42038 ], [ 2.00912, 11.423309 ], [ 2.018306, 11.427409 ], [ 2.184874, 11.596419 ], [ 2.208279, 11.602442 ], [ 2.257492, 11.647687 ], [ 2.306892, 11.676091 ], [ 2.308493, 11.679632 ], [ 2.304331, 11.685633 ], [ 2.306115, 11.696966 ], [ 2.299599, 11.718499 ], [ 2.304033, 11.734921 ], [ 2.319163, 11.755578 ], [ 2.337654, 11.769892 ], [ 2.341661, 11.785533 ], [ 2.371704, 11.793981 ], [ 2.368588, 11.814728 ], [ 2.382484, 11.827358 ], [ 2.375088, 11.835081 ], [ 2.375928, 11.84532 ], [ 2.381522, 11.856071 ], [ 2.401678, 11.86961 ], [ 2.401841, 11.875091 ], [ 2.395135, 11.889731 ], [ 2.397389, 11.894677 ], [ 2.405076, 11.89978 ], [ 2.408518, 11.89986 ], [ 2.408901, 11.904997 ], [ 2.40139, 11.912677 ], [ 2.401297, 11.920133 ], [ 2.392887, 11.928955 ], [ 2.40321, 11.93843 ], [ 2.403887, 11.949752 ], [ 2.4123, 11.955546 ], [ 2.414564, 11.954893 ], [ 2.413546, 11.950014 ], [ 2.417449, 11.94743 ], [ 2.425619, 11.954717 ], [ 2.436438, 11.953791 ], [ 2.438421, 11.958283 ], [ 2.435433, 11.970453 ], [ 2.44597, 11.982632 ], [ 2.453159, 11.981863 ], [ 2.460376, 11.977021 ], [ 2.465029, 11.981883 ], [ 2.455291, 12.005465 ], [ 2.455452, 12.013932 ], [ 2.449877, 12.019444 ], [ 2.441252, 12.01876 ], [ 2.435704, 12.047981 ], [ 2.422014, 12.057395 ], [ 2.418397, 12.065196 ], [ 2.420579, 12.07555 ], [ 2.406221, 12.082335 ], [ 2.408699, 12.087972 ], [ 2.404764, 12.101377 ], [ 2.391692, 12.113901 ], [ 2.397111, 12.13089 ], [ 2.391283, 12.139868 ], [ 2.396293, 12.148863 ], [ 2.382248, 12.172133 ], [ 2.384172, 12.177352 ], [ 2.392135, 12.18367 ], [ 2.392155, 12.190976 ], [ 2.381595, 12.202719 ], [ 2.377782, 12.212288 ], [ 2.379477, 12.215179 ], [ 2.387171, 12.216813 ], [ 2.390537, 12.227506 ], [ 2.379267, 12.232626 ], [ 2.375054, 12.240411 ], [ 2.384342, 12.243476 ], [ 2.383049, 12.250831 ], [ 2.399284, 12.257116 ], [ 2.410263, 12.253475 ], [ 2.432058, 12.253116 ], [ 2.443321, 12.263976 ], [ 2.463215, 12.253569 ], [ 2.473274, 12.272641 ], [ 2.504675, 12.267314 ], [ 2.512652, 12.276363 ], [ 2.514215, 12.285704 ], [ 2.520922, 12.293705 ], [ 2.533654, 12.283709 ], [ 2.540996, 12.28147 ], [ 2.543523, 12.274168 ], [ 2.567552, 12.281441 ], [ 2.579325, 12.278861 ], [ 2.592831, 12.29803 ], [ 2.598356, 12.301649 ], [ 2.605969, 12.298511 ], [ 2.616007, 12.300471 ], [ 2.631174, 12.295916 ], [ 2.667515, 12.305625 ], [ 2.675255, 12.302938 ], [ 2.684031, 12.294663 ], [ 2.686033, 12.280542 ], [ 2.68994, 12.280558 ], [ 2.696024, 12.284857 ], [ 2.706073, 12.3021 ], [ 2.707329, 12.312695 ], [ 2.715939, 12.325046 ], [ 2.722505, 12.351211 ], [ 2.731402, 12.356307 ], [ 2.735242, 12.363633 ], [ 2.741337, 12.363742 ], [ 2.742873, 12.355993 ], [ 2.747711, 12.351156 ], [ 2.760317, 12.351345 ], [ 2.771487, 12.364622 ], [ 2.77682, 12.376254 ], [ 2.787061, 12.385997 ], [ 2.808898, 12.396583 ], [ 2.837184, 12.395522 ], [ 2.836911, 12.406814 ], [ 2.856666, 12.393291 ], [ 2.870702, 12.388829 ], [ 2.883936, 12.37676 ], [ 2.893181, 12.360173 ], [ 2.911645, 12.346225 ], [ 2.927954, 12.333904 ], [ 2.944747, 12.315874 ], [ 2.953729, 12.302306 ], [ 2.963354, 12.287766 ], [ 3.012514, 12.267112 ], [ 3.029281, 12.234484 ], [ 3.048628, 12.217643 ], [ 3.058064, 12.209429 ], [ 3.059846, 12.196648 ], [ 3.07021, 12.185419 ], [ 3.082301, 12.176949 ], [ 3.101251, 12.171936 ], [ 3.125275, 12.156867 ], [ 3.128533, 12.139748 ], [ 3.169546, 12.112588 ], [ 3.189674, 12.083145 ], [ 3.220124, 12.060663 ], [ 3.230607, 12.04945 ], [ 3.23828, 12.03413 ], [ 3.252652, 12.03057 ], [ 3.261551, 12.019552 ], [ 3.26928, 12.014705 ], [ 3.268918, 12.010435 ], [ 3.257964, 11.998319 ], [ 3.258737, 11.992437 ], [ 3.278085, 11.965571 ], [ 3.282442, 11.937486 ], [ 3.298541, 11.931523 ], [ 3.304816, 11.902792 ], [ 3.318923, 11.884079 ], [ 3.32696, 11.881634 ], [ 3.337113, 11.885636 ], [ 3.346345, 11.882909 ], [ 3.383023, 11.886263 ], [ 3.404334, 11.877565 ], [ 3.443032, 11.87625 ], [ 3.460883, 11.865923 ], [ 3.481941, 11.86072 ], [ 3.494675, 11.842719 ], [ 3.520107, 11.815651 ], [ 3.519927, 11.796117 ], [ 3.523396, 11.787691 ], [ 3.536784, 11.779173 ], [ 3.558003, 11.778663 ], [ 3.564029, 11.772756 ], [ 3.564328, 11.763264 ], [ 3.554251, 11.75117 ], [ 3.550574, 11.74134 ], [ 3.550309, 11.734487 ], [ 3.555345, 11.725978 ], [ 3.585408, 11.712286 ], [ 3.60507, 11.69697 ], [ 3.590685, 11.673559 ], [ 3.557418, 11.630595 ], [ 3.471979, 11.448108 ], [ 3.690482, 11.130358 ], [ 3.717459, 11.1275 ], [ 3.726142, 11.12238 ], [ 3.726951, 11.116224 ], [ 3.719664, 11.085405 ], [ 3.723732, 11.056564 ], [ 3.71715, 11.026036 ], [ 3.749627, 11.011709 ], [ 3.75724, 11.000769 ], [ 3.771095, 10.93057 ], [ 3.770771, 10.925914 ], [ 3.768893, 10.898958 ], [ 3.749858, 10.839539 ], [ 3.749887, 10.82441 ], [ 3.776676, 10.776152 ], [ 3.784922, 10.754118 ], [ 3.796314, 10.736861 ], [ 3.840889, 10.704168 ], [ 3.84814, 10.664847 ], [ 3.851531, 10.605518 ], [ 3.848282, 10.589442 ], [ 3.831159, 10.566951 ], [ 3.806468, 10.50378 ], [ 3.801202, 10.485092 ], [ 3.799786, 10.44589 ], [ 3.786055, 10.406795 ], [ 3.688586, 10.455712 ], [ 3.645704, 10.434597 ], [ 3.632841, 10.41881 ], [ 3.633365, 10.389913 ], [ 3.613645, 10.353749 ], [ 3.584649, 10.276065 ], [ 3.596909, 10.243569 ], [ 3.612547, 10.222047 ], [ 3.647734, 10.18865 ], [ 3.656089, 10.184303 ], [ 3.672037, 10.183314 ], [ 3.677146, 10.178815 ], [ 3.678704, 10.169806 ], [ 3.675708, 10.148951 ], [ 3.662338, 10.106969 ], [ 3.629179, 10.092794 ], [ 3.61609, 10.076211 ], [ 3.611443, 10.059858 ], [ 3.611183, 9.994505 ], [ 3.602279, 9.957866 ], [ 3.595261, 9.945616 ], [ 3.569011, 9.922491 ], [ 3.56442, 9.915113 ], [ 3.562398, 9.895563 ], [ 3.532576, 9.864352 ], [ 3.509508, 9.857523 ], [ 3.475314, 9.862898 ], [ 3.45926, 9.861456 ], [ 3.426688, 9.851581 ], [ 3.357249, 9.825756 ], [ 3.330008, 9.798691 ], [ 3.323686, 9.77725 ], [ 3.324392, 9.761405 ], [ 3.329163, 9.74499 ], [ 3.350555, 9.703638 ], [ 3.351681, 9.696772 ], [ 3.348571, 9.68612 ], [ 3.314953, 9.658206 ], [ 3.280955, 9.661638 ], [ 3.27191, 9.658828 ], [ 3.264059, 9.652572 ], [ 3.256162, 9.63885 ], [ 3.25137, 9.605811 ], [ 3.2082, 9.54452 ], [ 3.194824, 9.515566 ], [ 3.1858, 9.507112 ], [ 3.155059, 9.492881 ], [ 3.13624, 9.46221 ], [ 3.131302, 9.438068 ], [ 3.152239, 9.372915 ], [ 3.151959, 9.3223 ], [ 3.157753, 9.287561 ], [ 3.150676, 9.273704 ], [ 3.131978, 9.259064 ], [ 3.125897, 9.250445 ], [ 3.122167, 9.236217 ], [ 3.123282, 9.192627 ], [ 3.093415, 9.132946 ], [ 3.086968, 9.1009 ], [ 3.048628, 9.085827 ], [ 3.04515, 9.08446 ], [ 3.00847, 9.074164 ], [ 2.981222, 9.073404 ], [ 2.965046, 9.079394 ], [ 2.956712, 9.091216 ], [ 2.953729, 9.09193 ], [ 2.95195, 9.092357 ], [ 2.911645, 9.086056 ], [ 2.897057, 9.083775 ], [ 2.883185, 9.073694 ], [ 2.878644, 9.065225 ], [ 2.870933, 9.062904 ], [ 2.783833, 9.065078 ], [ 2.779286, 9.057163 ], [ 2.779205, 9.052173 ], [ 2.785166, 9.043637 ], [ 2.7819, 9.032112 ], [ 2.775243, 9.025378 ], [ 2.783368, 9.018644 ], [ 2.772659, 9.009147 ], [ 2.781367, 9.003958 ], [ 2.77909, 8.993286 ], [ 2.787511, 8.988833 ], [ 2.782722, 8.981061 ], [ 2.788189, 8.97025 ], [ 2.785259, 8.964128 ], [ 2.772585, 8.954124 ], [ 2.779229, 8.948786 ], [ 2.780792, 8.943163 ], [ 2.770816, 8.919804 ], [ 2.761756, 8.914009 ], [ 2.758462, 8.908016 ], [ 2.760244, 8.903674 ], [ 2.770045, 8.903782 ], [ 2.773157, 8.894802 ], [ 2.76825, 8.868845 ], [ 2.759315, 8.86489 ], [ 2.75739, 8.86122 ], [ 2.760823, 8.850438 ], [ 2.758654, 8.822284 ], [ 2.7626, 8.80913 ], [ 2.758898, 8.804294 ], [ 2.741476, 8.796395 ], [ 2.728928, 8.772999 ], [ 2.745777, 8.736045 ], [ 2.745454, 8.714802 ], [ 2.749695, 8.699785 ], [ 2.741874, 8.678961 ], [ 2.745172, 8.666536 ], [ 2.738049, 8.654709 ], [ 2.749082, 8.638816 ], [ 2.74941, 8.582069 ], [ 2.758191, 8.561122 ], [ 2.749718, 8.535081 ], [ 2.761147, 8.522481 ], [ 2.761317, 8.506355 ], [ 2.750889, 8.492639 ], [ 2.755834, 8.481921 ], [ 2.745333, 8.464475 ], [ 2.739236, 8.442975 ], [ 2.731305, 8.43456 ], [ 2.714431, 8.430608 ], [ 2.707836, 8.421084 ], [ 2.713598, 8.386568 ], [ 2.708596, 8.370206 ], [ 2.697401, 8.356697 ], [ 2.695776, 8.327227 ], [ 2.698456, 8.306736 ], [ 2.715595, 8.258892 ], [ 2.753054, 8.210635 ], [ 2.747989, 8.16491 ], [ 2.735137, 8.144525 ], [ 2.7306, 8.131139 ], [ 2.732081, 8.114294 ], [ 2.724353, 8.086562 ], [ 2.72873, 8.068451 ], [ 2.721659, 8.055942 ], [ 2.708112, 8.003066 ], [ 2.704521, 7.968893 ], [ 2.695885, 7.933226 ], [ 2.678754, 7.898134 ], [ 2.669581, 7.889125 ], [ 2.685295, 7.868316 ], [ 2.695782, 7.854428 ], [ 2.705796, 7.833553 ], [ 2.710146, 7.815808 ], [ 2.724195, 7.807454 ], [ 2.729528, 7.791249 ], [ 2.73217, 7.772473 ], [ 2.728102, 7.744335 ], [ 2.730256, 7.6993 ], [ 2.725571, 7.648491 ], [ 2.730889, 7.578924 ], [ 2.736268, 7.565771 ], [ 2.74602, 7.554843 ], [ 2.746595, 7.538685 ], [ 2.750569, 7.5264 ], [ 2.774656, 7.510864 ], [ 2.792383, 7.494365 ], [ 2.798286, 7.47921 ], [ 2.798016, 7.425684 ], [ 2.786261, 7.419193 ], [ 2.749683, 7.417047 ], [ 2.747581, 7.413173 ], [ 2.749603, 7.26185 ], [ 2.752454, 7.255539 ], [ 2.77422, 7.233404 ], [ 2.78328, 7.183761 ], [ 2.784701, 7.161245 ], [ 2.774522, 7.127256 ], [ 2.766698, 7.116825 ], [ 2.74902, 7.103747 ], [ 2.745256, 7.093868 ], [ 2.75458, 7.075513 ], [ 2.781271, 7.054025 ], [ 2.79139, 7.041239 ], [ 2.746619, 7.014818 ], [ 2.727695, 6.995902 ], [ 2.720628, 6.984461 ], [ 2.718384, 6.94294 ], [ 2.720101, 6.935646 ], [ 2.72558, 6.93141 ], [ 2.747333, 6.927554 ], [ 2.751348, 6.911875 ], [ 2.75038, 6.885167 ], [ 2.744005, 6.856178 ], [ 2.748424, 6.83903 ], [ 2.72973, 6.807564 ], [ 2.729889, 6.788352 ], [ 2.740073, 6.765394 ], [ 2.754433, 6.758764 ], [ 2.778719, 6.758689 ], [ 2.786784, 6.753162 ], [ 2.789616, 6.741364 ], [ 2.786123, 6.72274 ], [ 2.786381, 6.696634 ], [ 2.752732, 6.665731 ], [ 2.731901, 6.628717 ], [ 2.735986, 6.608669 ], [ 2.744535, 6.584161 ], [ 2.753076, 6.570309 ], [ 2.750526, 6.557357 ], [ 2.743131, 6.545746 ], [ 2.729394, 6.534462 ], [ 2.724823, 6.526581 ], [ 2.72035, 6.508015 ], [ 2.719297, 6.482991 ], [ 2.717465, 6.47099 ], [ 2.71071, 6.452543 ], [ 2.706305, 6.425704 ], [ 2.708299, 6.409284 ], [ 2.709383, 6.375676 ], [ 2.568765, 6.361568 ], [ 2.477154, 6.360464 ], [ 2.457631, 6.355288 ], [ 2.443493, 6.358818 ], [ 2.439693, 6.351876 ], [ 2.420114, 6.342904 ], [ 2.350444, 6.34945 ], [ 2.246473, 6.34264 ], [ 2.104451, 6.324976 ], [ 1.968168, 6.30148 ], [ 1.964264, 6.303201 ], [ 1.971281, 6.30836 ], [ 1.969132, 6.3103 ], [ 1.946044, 6.309869 ], [ 1.922196, 6.31547 ], [ 1.900703, 6.31607 ], [ 1.892918, 6.312178 ], [ 1.887683, 6.30545 ], [ 1.874349, 6.300847 ], [ 1.86785, 6.293481 ], [ 1.851357, 6.288611 ], [ 1.837171, 6.279999 ], [ 1.628739, 6.23453 ], [ 1.63091, 6.242519 ], [ 1.64419, 6.247494 ], [ 1.667893, 6.248016 ], [ 1.680079, 6.25391 ], [ 1.710909, 6.257628 ], [ 1.749156, 6.270814 ], [ 1.764469, 6.272406 ], [ 1.771513, 6.281791 ], [ 1.798167, 6.280796 ], [ 1.805544, 6.284742 ], [ 1.790379, 6.301525 ], [ 1.797662, 6.311532 ], [ 1.783787, 6.337448 ], [ 1.788547, 6.351735 ], [ 1.781019, 6.370443 ], [ 1.772269, 6.379316 ], [ 1.773024, 6.394363 ], [ 1.769682, 6.399483 ], [ 1.769475, 6.408839 ], [ 1.77519, 6.416403 ], [ 1.755985, 6.435943 ], [ 1.7528, 6.449628 ], [ 1.747347, 6.455596 ], [ 1.749707, 6.464146 ], [ 1.735383, 6.474816 ], [ 1.736236, 6.482289 ], [ 1.729545, 6.48836 ], [ 1.727743, 6.497394 ], [ 1.71848, 6.493952 ], [ 1.712686, 6.498485 ], [ 1.706132, 6.496728 ], [ 1.695126, 6.502163 ], [ 1.69491, 6.509938 ], [ 1.701764, 6.515953 ], [ 1.697287, 6.549397 ], [ 1.688768, 6.552805 ], [ 1.683445, 6.559481 ], [ 1.673224, 6.556403 ], [ 1.667992, 6.559241 ], [ 1.667072, 6.563842 ], [ 1.675028, 6.577444 ], [ 1.674095, 6.582688 ], [ 1.665492, 6.584182 ], [ 1.652835, 6.578666 ], [ 1.641277, 6.582976 ], [ 1.633206, 6.596892 ], [ 1.617342, 6.597444 ], [ 1.610213, 6.605888 ], [ 1.609558, 6.617764 ], [ 1.604907, 6.624175 ], [ 1.602891, 6.626954 ], [ 1.603448, 6.636025 ], [ 1.604907, 6.637461 ], [ 1.610518, 6.642984 ], [ 1.604907, 6.659784 ], [ 1.603228, 6.664812 ], [ 1.589493, 6.683022 ], [ 1.578838, 6.685417 ], [ 1.574925, 6.689212 ], [ 1.591176, 6.705549 ], [ 1.592805, 6.724396 ], [ 1.59985, 6.72688 ], [ 1.604907, 6.73275 ], [ 1.607041, 6.735227 ], [ 1.618936, 6.742488 ], [ 1.617982, 6.751064 ], [ 1.624968, 6.76081 ], [ 1.609281, 6.770725 ], [ 1.608129, 6.780466 ], [ 1.611507, 6.795384 ], [ 1.607926, 6.799501 ], [ 1.604907, 6.799855 ], [ 1.599557, 6.800484 ], [ 1.597224, 6.805322 ], [ 1.599203, 6.8123 ], [ 1.604907, 6.817322 ], [ 1.61392, 6.825259 ], [ 1.612487, 6.828016 ], [ 1.604907, 6.827742 ], [ 1.600743, 6.831461 ], [ 1.601156, 6.850806 ], [ 1.595393, 6.866811 ], [ 1.597538, 6.87403 ], [ 1.604907, 6.882554 ], [ 1.605841, 6.883577 ], [ 1.605508, 6.903523 ], [ 1.604907, 6.903851 ], [ 1.585799, 6.914285 ], [ 1.578896, 6.921418 ], [ 1.573862, 6.94694 ], [ 1.559558, 6.972237 ], [ 1.558087, 6.995167 ], [ 1.560677, 6.997295 ], [ 1.58158, 6.997792 ], [ 1.593658, 6.993886 ], [ 1.604907, 6.994504 ], [ 1.641773, 6.996529 ], [ 1.635831, 7.267782 ], [ 1.63649, 7.417878 ], [ 1.644763, 7.486712 ], [ 1.651468, 7.493645 ], [ 1.673952, 7.494876 ], [ 1.677011, 7.498726 ], [ 1.668502, 7.516428 ], [ 1.659376, 7.521983 ], [ 1.652595, 7.535741 ], [ 1.648475, 7.566839 ], [ 1.650181, 7.613628 ], [ 1.637354, 7.640974 ], [ 1.631384, 7.66448 ], [ 1.636143, 7.80202 ], [ 1.63034, 7.838629 ], [ 1.631502, 7.868316 ], [ 1.636177, 7.987713 ], [ 1.633461, 8.317287 ], [ 1.631653, 8.340282 ], [ 1.624354, 8.353703 ], [ 1.620135, 8.373905 ], [ 1.627462, 8.413866 ], [ 1.626948, 8.427932 ], [ 1.632479, 8.43854 ], [ 1.630992, 8.449802 ], [ 1.645732, 8.46971 ], [ 1.649909, 8.479855 ], [ 1.648339, 8.49147 ], [ 1.631145, 8.521533 ], [ 1.628779, 8.647545 ], [ 1.633016, 8.794767 ], [ 1.629545, 8.82995 ], [ 1.629725, 8.906731 ], [ 1.622746, 8.955025 ], [ 1.629441, 9.001322 ], [ 1.624947, 9.040687 ], [ 1.616697, 9.062167 ], [ 1.616377, 9.073524 ], [ 1.604907, 9.096961 ], [ 1.598678, 9.109689 ], [ 1.579442, 9.131449 ], [ 1.559167, 9.169642 ], [ 1.525368, 9.19147 ], [ 1.511935, 9.204395 ], [ 1.477869, 9.237173 ], [ 1.462668, 9.254511 ], [ 1.447858, 9.281947 ], [ 1.420027, 9.309425 ], [ 1.408401, 9.33405 ], [ 1.40331, 9.354689 ], [ 1.401035, 9.434749 ], [ 1.391008, 9.494077 ], [ 1.388035, 9.496095 ], [ 1.365914, 9.486158 ], [ 1.360915, 9.487387 ], [ 1.358251, 9.509524 ], [ 1.342782, 9.542682 ], [ 1.342607, 9.548254 ], [ 1.365713, 9.610914 ], [ 1.36898, 9.660794 ], [ 1.363148, 9.69984 ], [ 1.364465, 9.787755 ], [ 1.360871, 9.864352 ], [ 1.358101, 9.949841 ], [ 1.353575, 10.000814 ], [ 1.160107, 10.113993 ], [ 1.137013, 10.127501 ], [ 1.088823, 10.158361 ], [ 1.01622, 10.207763 ], [ 0.775119, 10.385339 ], [ 0.78037, 10.467127 ], [ 0.783132, 10.510127 ], [ 0.800991, 10.558645 ], [ 0.807418, 10.5897 ], [ 0.80594, 10.641403 ], [ 0.797186, 10.684615 ], [ 0.801777, 10.717203 ], [ 0.810083, 10.734017 ], [ 0.850776, 10.781874 ], [ 0.867809, 10.795667 ], [ 0.873592, 10.805188 ], [ 0.884593, 10.859917 ], [ 0.900168, 10.886145 ], [ 0.890724, 10.920094 ], [ 0.91216, 10.99649 ] ] ], [ [ [ 1.856474, 6.284307 ], [ 1.858561, 6.288083 ], [ 1.864299, 6.289628 ], [ 1.869017, 6.288322 ], [ 1.869427, 6.290153 ], [ 1.873436, 6.289283 ], [ 1.88057, 6.291385 ], [ 1.89856, 6.293669 ], [ 1.902445, 6.291957 ], [ 1.911163, 6.296007 ], [ 1.911173, 6.291076 ], [ 1.900882, 6.290074 ], [ 1.883149, 6.287034 ], [ 1.857504, 6.283536 ], [ 1.856474, 6.284307 ] ] ], [ [ [ 2.826335, 12.403709 ], [ 2.82671, 12.408685 ], [ 2.832739, 12.407742 ], [ 2.830482, 12.399956 ], [ 2.826335, 12.403709 ] ] ], [ [ [ 1.919539, 6.30903 ], [ 1.922202, 6.312431 ], [ 1.928254, 6.311003 ], [ 1.925094, 6.307538 ], [ 1.919539, 6.30903 ] ] ], [ [ [ 1.925792, 6.294731 ], [ 1.925798, 6.298935 ], [ 1.930574, 6.298945 ], [ 1.931111, 6.29523 ], [ 1.925792, 6.294731 ] ] ], [ [ [ 1.919305, 6.300984 ], [ 1.921336, 6.303956 ], [ 1.926104, 6.301719 ], [ 1.921996, 6.298129 ], [ 1.919305, 6.300984 ] ] ], [ [ [ 1.942182, 6.304279 ], [ 1.945839, 6.307784 ], [ 1.950019, 6.305008 ], [ 1.946562, 6.302734 ], [ 1.942182, 6.304279 ] ] ], [ [ [ 1.909065, 6.307055 ], [ 1.913163, 6.310178 ], [ 1.917263, 6.308453 ], [ 1.915063, 6.30561 ], [ 1.909065, 6.307055 ] ] ], [ [ [ 1.899185, 6.307267 ], [ 1.900252, 6.311578 ], [ 1.904772, 6.311769 ], [ 1.905471, 6.308604 ], [ 1.899185, 6.307267 ] ] ], [ [ [ 1.935834, 6.297595 ], [ 1.936302, 6.298309 ], [ 1.94033, 6.30049 ], [ 1.942628, 6.297057 ], [ 1.939757, 6.29552 ], [ 1.936436, 6.296673 ], [ 1.935834, 6.297595 ] ] ], [ [ [ 1.941731, 6.298404 ], [ 1.943104, 6.300292 ], [ 1.94705, 6.300279 ], [ 1.946249, 6.297453 ], [ 1.942598, 6.297189 ], [ 1.941731, 6.298404 ] ] ] ] } }
]
}
