{
"type": "FeatureCollection",
"name": "Bermuda",
"crs": { "type": "name", "properties": { "name": "urn:ogc:def:crs:OGC:1.3:CRS84" } },
"features": [
{ "type": "Feature", "properties": { "id": "BM", "CNTR_ID": "BM", "CNTR_NAME": "Bermuda", "NAME_ENGL": "Bermuda", "ISO3_CODE": "BMU", "FID": "BM" }, "geometry": { "type": "MultiPolygon", "coordinates": [ [ [ [ -64.896123, 32.283401 ], [ -64.89342, 32.285688 ], [ -64.890985, 32.285684 ], [ -64.887305, 32.281535 ], [ -64.884228, 32.289341 ], [ -64.882594, 32.300992 ], [ -64.885022, 32.307394 ], [ -64.88367, 32.308765 ], [ -64.878799, 32.308761 ], [ -64.872852, 32.312873 ], [ -64.868042, 32.311491 ], [ -64.868255, 32.308299 ], [ -64.865018, 32.302359 ], [ -64.86637, 32.298931 ], [ -64.872592, 32.295507 ], [ -64.87476, 32.292537 ], [ -64.878578, 32.27861 ], [ -64.861796, 32.276305 ], [ -64.859256, 32.273563 ], [ -64.8664, 32.273568 ], [ -64.870722, 32.272197 ], [ -64.872081, 32.268086 ], [ -64.870195, 32.260313 ], [ -64.865873, 32.257798 ], [ -64.852627, 32.259847 ], [ -64.831546, 32.260748 ], [ -64.829653, 32.26326 ], [ -64.832623, 32.266005 ], [ -64.83018, 32.270346 ], [ -64.794753, 32.284249 ], [ -64.784194, 32.290178 ], [ -64.78311, 32.294064 ], [ -64.790943, 32.297041 ], [ -64.806408, 32.295545 ], [ -64.804732, 32.298427 ], [ -64.805801, 32.302542 ], [ -64.819323, 32.304382 ], [ -64.818773, 32.306211 ], [ -64.81391, 32.307807 ], [ -64.785515, 32.307776 ], [ -64.767657, 32.31438 ], [ -64.748157, 32.326238 ], [ -64.74166, 32.327142 ], [ -64.728955, 32.325749 ], [ -64.722458, 32.327795 ], [ -64.716762, 32.334182 ], [ -64.716479, 32.338068 ], [ -64.72781, 32.34883 ], [ -64.730803, 32.343348 ], [ -64.736223, 32.338331 ], [ -64.744072, 32.336285 ], [ -64.7465, 32.338801 ], [ -64.745683, 32.342 ], [ -64.737285, 32.346558 ], [ -64.737544, 32.351357 ], [ -64.726764, 32.359606 ], [ -64.719495, 32.358908 ], [ -64.718335, 32.352009 ], [ -64.714013, 32.349261 ], [ -64.698339, 32.344203 ], [ -64.682916, 32.345317 ], [ -64.674808, 32.343015 ], [ -64.676434, 32.340275 ], [ -64.689444, 32.333674 ], [ -64.704332, 32.329818 ], [ -64.710287, 32.326173 ], [ -64.725206, 32.312487 ], [ -64.743607, 32.304749 ], [ -64.752272, 32.299049 ], [ -64.775841, 32.277374 ], [ -64.790462, 32.266421 ], [ -64.816689, 32.257309 ], [ -64.860475, 32.247513 ], [ -64.867774, 32.246601 ], [ -64.876959, 32.248433 ], [ -64.88209, 32.254148 ], [ -64.890725, 32.275175 ], [ -64.896123, 32.283401 ] ] ], [ [ [ -64.707176, 32.36462 ], [ -64.7071, 32.366539 ], [ -64.701958, 32.372639 ], [ -64.673782, 32.375492 ], [ -64.663521, 32.375164 ], [ -64.659409, 32.379005 ], [ -64.655365, 32.378281 ], [ -64.652702, 32.375515 ], [ -64.651993, 32.368195 ], [ -64.657997, 32.364372 ], [ -64.660202, 32.360966 ], [ -64.656982, 32.357445 ], [ -64.658012, 32.355919 ], [ -64.661354, 32.355953 ], [ -64.669899, 32.363346 ], [ -64.675003, 32.365452 ], [ -64.680153, 32.364361 ], [ -64.691582, 32.358761 ], [ -64.69558, 32.362911 ], [ -64.702339, 32.362518 ], [ -64.707176, 32.36462 ] ] ], [ [ [ -64.71328, 32.365788 ], [ -64.710007, 32.375156 ], [ -64.709404, 32.379719 ], [ -64.706924, 32.38335 ], [ -64.699844, 32.387398 ], [ -64.689003, 32.389347 ], [ -64.68029, 32.393833 ], [ -64.673851, 32.390114 ], [ -64.676086, 32.385113 ], [ -64.687202, 32.382477 ], [ -64.693954, 32.383228 ], [ -64.694794, 32.380722 ], [ -64.692673, 32.376602 ], [ -64.703056, 32.375092 ], [ -64.711624, 32.365147 ], [ -64.71328, 32.365788 ] ] ] ] } }
]
}
