{
"type": "FeatureCollection",
"name": "Bhutan",
"crs": { "type": "name", "properties": { "name": "urn:ogc:def:crs:OGC:1.3:CRS84" } },
"features": [
{ "type": "Feature", "properties": { "id": "BT", "CNTR_ID": "BT", "CNTR_NAME": "Kingdom of Bhutan", "NAME_ENGL": "Bhutan", "ISO3_CODE": "BTN", "FID": "BT" }, "geometry": { "type": "MultiPolygon", "coordinates": [ [ [ [ 91.64209, 27.75846 ], [ 91.635063, 27.748131 ], [ 91.634263, 27.724997 ], [ 91.625531, 27.710777 ], [ 91.626475, 27.704707 ], [ 91.622705, 27.698274 ], [ 91.571216, 27.655615 ], [ 91.562693, 27.64238 ], [ 91.561417, 27.631367 ], [ 91.564309, 27.622802 ], [ 91.581035, 27.603858 ], [ 91.566881, 27.590461 ], [ 91.564512, 27.579628 ], [ 91.578127, 27.562564 ], [ 91.58391, 27.544629 ], [ 91.609285, 27.535142 ], [ 91.625588, 27.513512 ], [ 91.661447, 27.510721 ], [ 91.674757, 27.49372 ], [ 91.715283, 27.472113 ], [ 91.732669, 27.466499 ], [ 91.752867, 27.46652 ], [ 91.802758, 27.48449 ], [ 91.837945, 27.492966 ], [ 91.867232, 27.489155 ], [ 91.885145, 27.486825 ], [ 91.946682, 27.467954 ], [ 91.975236, 27.470212 ], [ 92.0127, 27.476935 ], [ 92.017819, 27.471533 ], [ 92.021417, 27.448029 ], [ 92.038608, 27.434358 ], [ 92.05306, 27.414199 ], [ 92.090426, 27.338218 ], [ 92.112663, 27.301133 ], [ 92.115027, 27.287703 ], [ 92.123614, 27.276468 ], [ 92.10702, 27.269117 ], [ 92.090666, 27.267286 ], [ 92.075254, 27.250599 ], [ 92.070215, 27.240448 ], [ 92.069075, 27.219792 ], [ 92.059766, 27.194255 ], [ 92.041235, 27.182321 ], [ 92.031653, 27.171632 ], [ 92.03506, 27.138591 ], [ 92.032317, 27.133605 ], [ 92.02714, 27.124195 ], [ 92.025698, 27.112623 ], [ 92.028473, 27.083445 ], [ 92.035977, 27.06609 ], [ 92.045526, 27.054763 ], [ 92.066186, 27.048728 ], [ 92.075056, 27.043649 ], [ 92.081228, 27.024657 ], [ 92.100859, 27.004216 ], [ 92.104701, 26.986689 ], [ 92.123159, 26.963224 ], [ 92.122885, 26.945817 ], [ 92.113594, 26.931214 ], [ 92.115178, 26.904276 ], [ 92.108317, 26.860725 ], [ 92.10793, 26.85827 ], [ 92.100046, 26.860725 ], [ 92.095121, 26.862259 ], [ 92.089979, 26.860725 ], [ 92.06914, 26.854509 ], [ 92.040221, 26.850124 ], [ 92.006834, 26.851564 ], [ 91.982961, 26.860725 ], [ 91.949662, 26.892396 ], [ 91.937008, 26.897813 ], [ 91.930678, 26.894718 ], [ 91.928059, 26.889005 ], [ 91.933892, 26.87016 ], [ 91.932556, 26.860725 ], [ 91.925574, 26.85585 ], [ 91.912711, 26.854171 ], [ 91.907999, 26.85091 ], [ 91.914382, 26.834971 ], [ 91.913435, 26.810781 ], [ 91.910573, 26.807523 ], [ 91.892535, 26.815793 ], [ 91.887479, 26.85039 ], [ 91.883547, 26.855483 ], [ 91.87157, 26.860725 ], [ 91.867628, 26.862398 ], [ 91.851574, 26.86331 ], [ 91.837755, 26.860725 ], [ 91.801656, 26.838121 ], [ 91.771216, 26.823203 ], [ 91.745651, 26.814098 ], [ 91.720431, 26.798777 ], [ 91.712649, 26.796564 ], [ 91.698864, 26.806326 ], [ 91.669499, 26.80293 ], [ 91.63531, 26.81232 ], [ 91.614668, 26.809522 ], [ 91.582149, 26.800427 ], [ 91.551944, 26.80345 ], [ 91.54148, 26.809471 ], [ 91.5342, 26.817884 ], [ 91.516515, 26.860725 ], [ 91.508663, 26.868818 ], [ 91.494124, 26.873105 ], [ 91.459224, 26.869802 ], [ 91.437527, 26.872723 ], [ 91.428177, 26.869503 ], [ 91.418607, 26.860725 ], [ 91.405264, 26.836442 ], [ 91.379877, 26.802152 ], [ 91.357505, 26.786103 ], [ 91.333619, 26.777788 ], [ 91.319332, 26.778188 ], [ 91.301629, 26.783042 ], [ 91.257193, 26.807848 ], [ 91.241668, 26.809754 ], [ 91.215084, 26.813017 ], [ 91.174389, 26.811545 ], [ 91.143897, 26.810442 ], [ 91.090934, 26.815428 ], [ 91.080478, 26.81197 ], [ 91.054617, 26.790555 ], [ 91.045296, 26.787334 ], [ 90.978334, 26.789796 ], [ 90.749126, 26.782162 ], [ 90.697142, 26.772268 ], [ 90.671355, 26.782506 ], [ 90.657938, 26.778943 ], [ 90.649778, 26.779701 ], [ 90.608666, 26.802262 ], [ 90.575718, 26.80744 ], [ 90.550885, 26.815248 ], [ 90.535095, 26.822821 ], [ 90.485764, 26.859291 ], [ 90.483075, 26.860725 ], [ 90.449802, 26.878475 ], [ 90.418642, 26.901767 ], [ 90.383079, 26.902602 ], [ 90.361065, 26.900548 ], [ 90.348539, 26.895645 ], [ 90.339447, 26.887984 ], [ 90.322989, 26.866386 ], [ 90.31228, 26.860725 ], [ 90.301992, 26.855287 ], [ 90.28179, 26.854629 ], [ 90.235574, 26.860394 ], [ 90.222782, 26.856379 ], [ 90.199238, 26.836698 ], [ 90.18666, 26.817345 ], [ 90.185987, 26.804701 ], [ 90.19061, 26.784353 ], [ 90.186909, 26.775112 ], [ 90.169263, 26.765261 ], [ 90.115622, 26.75192 ], [ 90.061853, 26.741251 ], [ 90.006366, 26.736429 ], [ 89.920003, 26.728923 ], [ 89.89112, 26.733064 ], [ 89.872523, 26.74453 ], [ 89.85929, 26.746739 ], [ 89.855493, 26.744088 ], [ 89.854595, 26.738448 ], [ 89.862978, 26.714136 ], [ 89.856938, 26.708323 ], [ 89.826935, 26.714894 ], [ 89.778265, 26.710461 ], [ 89.770563, 26.713113 ], [ 89.75299, 26.727034 ], [ 89.750701, 26.728847 ], [ 89.714584, 26.733172 ], [ 89.696823, 26.737746 ], [ 89.679024, 26.736238 ], [ 89.667148, 26.738331 ], [ 89.659429, 26.727683 ], [ 89.649809, 26.721717 ], [ 89.640127, 26.725407 ], [ 89.624179, 26.725421 ], [ 89.618793, 26.729549 ], [ 89.623102, 26.737801 ], [ 89.635373, 26.747801 ], [ 89.642536, 26.760673 ], [ 89.642821, 26.774368 ], [ 89.636246, 26.781503 ], [ 89.581747, 26.793623 ], [ 89.561071, 26.808777 ], [ 89.542342, 26.814142 ], [ 89.486524, 26.808702 ], [ 89.469651, 26.811911 ], [ 89.458608, 26.818965 ], [ 89.451833, 26.831928 ], [ 89.446109, 26.837169 ], [ 89.411393, 26.841929 ], [ 89.396579, 26.839691 ], [ 89.382057, 26.854851 ], [ 89.373769, 26.85963 ], [ 89.336989, 26.847661 ], [ 89.308689, 26.846103 ], [ 89.286405, 26.831824 ], [ 89.264479, 26.822122 ], [ 89.211568, 26.816607 ], [ 89.174516, 26.817942 ], [ 89.150492, 26.811558 ], [ 89.136928, 26.812078 ], [ 89.110203, 26.831311 ], [ 89.100303, 26.860725 ], [ 89.089821, 26.891858 ], [ 89.080107, 26.897849 ], [ 89.061582, 26.90346 ], [ 89.049072, 26.917621 ], [ 89.023698, 26.93544 ], [ 89.011108, 26.93651 ], [ 88.985191, 26.925457 ], [ 88.977071, 26.923294 ], [ 88.953099, 26.933698 ], [ 88.948798, 26.939821 ], [ 88.94886, 26.958431 ], [ 88.946494, 26.965953 ], [ 88.945979, 26.967589 ], [ 88.932091, 26.98288 ], [ 88.921698, 26.9879 ], [ 88.914262, 26.987409 ], [ 88.906863, 26.983022 ], [ 88.879967, 26.959045 ], [ 88.876268, 26.990925 ], [ 88.887443, 27.026748 ], [ 88.876761, 27.067586 ], [ 88.868693, 27.073715 ], [ 88.838561, 27.08408 ], [ 88.807411, 27.099948 ], [ 88.772147, 27.105145 ], [ 88.762547, 27.113611 ], [ 88.773001, 27.135175 ], [ 88.790446, 27.147109 ], [ 88.797439, 27.156316 ], [ 88.805914, 27.181268 ], [ 88.806467, 27.184532 ], [ 88.809387, 27.201773 ], [ 88.813844, 27.209183 ], [ 88.825651, 27.216266 ], [ 88.852872, 27.22442 ], [ 88.883858, 27.225566 ], [ 88.907248, 27.233489 ], [ 88.916134, 27.243902 ], [ 88.92332, 27.272839 ], [ 88.944191, 27.26167 ], [ 88.946494, 27.258129 ], [ 88.961096, 27.23567 ], [ 88.97992, 27.215006 ], [ 88.985191, 27.213334 ], [ 89.002776, 27.223047 ], [ 89.052219, 27.237598 ], [ 89.063645, 27.243215 ], [ 89.071204, 27.256834 ], [ 89.06999, 27.278 ], [ 89.073243, 27.287998 ], [ 89.118558, 27.31364 ], [ 89.149853, 27.323554 ], [ 89.159643, 27.358213 ], [ 89.165052, 27.363456 ], [ 89.179214, 27.377179 ], [ 89.178681, 27.381373 ], [ 89.163686, 27.395623 ], [ 89.156497, 27.417809 ], [ 89.137842, 27.433505 ], [ 89.131468, 27.442712 ], [ 89.116425, 27.445479 ], [ 89.106239, 27.464046 ], [ 89.093925, 27.476877 ], [ 89.094033, 27.492564 ], [ 89.101324, 27.508086 ], [ 89.103084, 27.537462 ], [ 89.138277, 27.553013 ], [ 89.158958, 27.576589 ], [ 89.145453, 27.598763 ], [ 89.126236, 27.614345 ], [ 89.129685, 27.635383 ], [ 89.15256, 27.65937 ], [ 89.180203, 27.675789 ], [ 89.183546, 27.688412 ], [ 89.203143, 27.721134 ], [ 89.22486, 27.731039 ], [ 89.221831, 27.768878 ], [ 89.225172, 27.781204 ], [ 89.23618, 27.798787 ], [ 89.259812, 27.813812 ], [ 89.296358, 27.852841 ], [ 89.324843, 27.856461 ], [ 89.339596, 27.866149 ], [ 89.365686, 27.873673 ], [ 89.377211, 27.884292 ], [ 89.403027, 27.922983 ], [ 89.436147, 27.963825 ], [ 89.453313, 28.005281 ], [ 89.469032, 28.014963 ], [ 89.468616, 28.021897 ], [ 89.460321, 28.031916 ], [ 89.461102, 28.03611 ], [ 89.489106, 28.063578 ], [ 89.498744, 28.07991 ], [ 89.509072, 28.088617 ], [ 89.529898, 28.089763 ], [ 89.539007, 28.093109 ], [ 89.555599, 28.118065 ], [ 89.57039, 28.127693 ], [ 89.604062, 28.164707 ], [ 89.639383, 28.171781 ], [ 89.66678, 28.172863 ], [ 89.680275, 28.182309 ], [ 89.724916, 28.175023 ], [ 89.743393, 28.189019 ], [ 89.768499, 28.195743 ], [ 89.776286, 28.201296 ], [ 89.782356, 28.214647 ], [ 89.773283, 28.226444 ], [ 89.785519, 28.232682 ], [ 89.790067, 28.245244 ], [ 89.796836, 28.247596 ], [ 89.821036, 28.242771 ], [ 89.840223, 28.230515 ], [ 89.857408, 28.229781 ], [ 89.864325, 28.226924 ], [ 89.892487, 28.192939 ], [ 89.901868, 28.185928 ], [ 89.943703, 28.191079 ], [ 89.979356, 28.189971 ], [ 90.006366, 28.172464 ], [ 90.012556, 28.168451 ], [ 90.026642, 28.145293 ], [ 90.034257, 28.140684 ], [ 90.043456, 28.141012 ], [ 90.058453, 28.153689 ], [ 90.071058, 28.158157 ], [ 90.082656, 28.156334 ], [ 90.095293, 28.146899 ], [ 90.101202, 28.146555 ], [ 90.117726, 28.16695 ], [ 90.122293, 28.191046 ], [ 90.126449, 28.19369 ], [ 90.166116, 28.189951 ], [ 90.181558, 28.178438 ], [ 90.190417, 28.164399 ], [ 90.222133, 28.149756 ], [ 90.242385, 28.149589 ], [ 90.292669, 28.157231 ], [ 90.303393, 28.138034 ], [ 90.322282, 28.132566 ], [ 90.342236, 28.11158 ], [ 90.361685, 28.096799 ], [ 90.377451, 28.066406 ], [ 90.384095, 28.064774 ], [ 90.410157, 28.067869 ], [ 90.434579, 28.066279 ], [ 90.443404, 28.062079 ], [ 90.453527, 28.051782 ], [ 90.461142, 28.048972 ], [ 90.480086, 28.049441 ], [ 90.504969, 28.063019 ], [ 90.514089, 28.064623 ], [ 90.565869, 28.048235 ], [ 90.592431, 28.026468 ], [ 90.617063, 28.044882 ], [ 90.642054, 28.049549 ], [ 90.672754, 28.064928 ], [ 90.686267, 28.077404 ], [ 90.700029, 28.079054 ], [ 90.759462, 28.04855 ], [ 90.779053, 28.043896 ], [ 90.792631, 28.047172 ], [ 90.797835, 28.045496 ], [ 90.802468, 28.038941 ], [ 90.806043, 28.018244 ], [ 90.846077, 27.973278 ], [ 90.898024, 27.950078 ], [ 90.931658, 27.947562 ], [ 90.961973, 27.954721 ], [ 90.974204, 27.939827 ], [ 90.963761, 27.905396 ], [ 90.996149, 27.883923 ], [ 91.022654, 27.86251 ], [ 91.035247, 27.857924 ], [ 91.093946, 27.851604 ], [ 91.111432, 27.852845 ], [ 91.148237, 27.892706 ], [ 91.149508, 27.90149 ], [ 91.144524, 27.926287 ], [ 91.161528, 27.947006 ], [ 91.163899, 27.970579 ], [ 91.174389, 27.975224 ], [ 91.180819, 27.978071 ], [ 91.195157, 27.988339 ], [ 91.211313, 27.99184 ], [ 91.237222, 27.97848 ], [ 91.241668, 27.977869 ], [ 91.253025, 27.97631 ], [ 91.270075, 27.992427 ], [ 91.277513, 28.010766 ], [ 91.287327, 28.023996 ], [ 91.301916, 28.030643 ], [ 91.308735, 28.037866 ], [ 91.31026, 28.061378 ], [ 91.334247, 28.063713 ], [ 91.350466, 28.049821 ], [ 91.363645, 28.047793 ], [ 91.377958, 28.037535 ], [ 91.422651, 28.018123 ], [ 91.432986, 28.00638 ], [ 91.446628, 28.009384 ], [ 91.462424, 28.005657 ], [ 91.469639, 27.985446 ], [ 91.487439, 27.973424 ], [ 91.483176, 27.955807 ], [ 91.485485, 27.942544 ], [ 91.514472, 27.932178 ], [ 91.529301, 27.921633 ], [ 91.542337, 27.919176 ], [ 91.550756, 27.910461 ], [ 91.554183, 27.894494 ], [ 91.585729, 27.903799 ], [ 91.597868, 27.901352 ], [ 91.61045, 27.894391 ], [ 91.62211, 27.874904 ], [ 91.617898, 27.862193 ], [ 91.590203, 27.858065 ], [ 91.570709, 27.860388 ], [ 91.560381, 27.858369 ], [ 91.554114, 27.852273 ], [ 91.54403, 27.826117 ], [ 91.552082, 27.82066 ], [ 91.569453, 27.816872 ], [ 91.604736, 27.822223 ], [ 91.615886, 27.819419 ], [ 91.627393, 27.807303 ], [ 91.632822, 27.797318 ], [ 91.64209, 27.75846 ] ] ] ] } }
]
}
