{
"type": "FeatureCollection",
"name": "Bolivia",
"crs": { "type": "name", "properties": { "name": "urn:ogc:def:crs:OGC:1.3:CRS84" } },
"features": [
{ "type": "Feature", "properties": { "id": "BO", "CNTR_ID": "BO", "CNTR_NAME": "Wuliwya-Volívia-Bulivya-Bolivia", "NAME_ENGL": "Bolivia", "ISO3_CODE": "BOL", "FID": "BO" }, "geometry": { "type": "MultiPolygon", "coordinates": [ [ [ [ -58.16346, -20.16246 ], [ -58.169149, -20.163128 ], [ -58.167771, -20.153578 ], [ -58.159113, -20.14372 ], [ -58.14496, -20.137277 ], [ -58.1381, -20.117857 ], [ -58.14385, -20.100146 ], [ -58.154795, -20.085567 ], [ -58.154254, -20.076798 ], [ -58.164138, -20.065565 ], [ -58.162978, -20.05775 ], [ -58.166462, -20.049771 ], [ -58.159985, -20.046907 ], [ -58.157879, -20.043017 ], [ -58.174778, -20.028338 ], [ -58.173619, -20.019388 ], [ -58.177335, -20.012373 ], [ -58.177628, -19.997267 ], [ -58.185048, -19.974914 ], [ -58.193999, -19.963148 ], [ -58.20261, -19.96034 ], [ -58.212495, -19.952675 ], [ -58.196415, -19.926606 ], [ -58.199235, -19.904239 ], [ -58.204687, -19.892573 ], [ -58.201341, -19.864311 ], [ -58.190228, -19.851253 ], [ -58.177576, -19.844132 ], [ -58.172798, -19.834195 ], [ -58.163727, -19.826339 ], [ -58.235792, -19.772317 ], [ -58.525526, -19.603422 ], [ -58.529487, -19.601112 ], [ -59.066225, -19.287758 ], [ -59.546332, -19.289867 ], [ -59.976699, -19.29231 ], [ -60.097943, -19.324194 ], [ -60.358588, -19.392716 ], [ -60.604005, -19.45724 ], [ -60.700337, -19.473155 ], [ -60.847786, -19.497511 ], [ -61.458045, -19.598276 ], [ -61.607668, -19.622971 ], [ -61.730155, -19.643186 ], [ -61.909718, -20.059086 ], [ -61.915315, -20.072048 ], [ -61.921725, -20.086896 ], [ -62.05028, -20.263718 ], [ -62.104658, -20.338512 ], [ -62.132686, -20.377076 ], [ -62.265868, -20.561356 ], [ -62.261339, -21.055565 ], [ -62.33414, -21.282993 ], [ -62.342511, -21.30901 ], [ -62.458412, -21.669496 ], [ -62.504882, -21.81403 ], [ -62.637439, -22.22632 ], [ -62.642434, -22.241858 ], [ -62.645202, -22.250466 ], [ -62.6556, -22.2513 ], [ -62.667052, -22.241832 ], [ -62.682668, -22.216933 ], [ -62.69134, -22.195515 ], [ -62.697398, -22.196354 ], [ -62.709404, -22.207688 ], [ -62.719401, -22.20859 ], [ -62.73134, -22.179007 ], [ -62.752176, -22.155534 ], [ -62.763879, -22.155137 ], [ -62.774825, -22.167926 ], [ -62.780721, -22.170228 ], [ -62.792104, -22.153374 ], [ -62.809416, -22.136581 ], [ -62.812152, -22.128835 ], [ -62.808311, -22.109286 ], [ -62.809859, -22.091718 ], [ -62.79594, -22.063854 ], [ -62.799903, -22.05755 ], [ -62.81079, -22.05105 ], [ -62.812775, -22.046394 ], [ -62.815122, -22.040891 ], [ -62.812775, -22.035688 ], [ -62.802739, -22.013433 ], [ -62.804541, -22.006144 ], [ -62.812775, -21.999494 ], [ -63.931676, -22.001551 ], [ -63.940309, -22.008898 ], [ -63.943526, -22.029026 ], [ -63.953359, -22.045373 ], [ -63.960374, -22.083231 ], [ -63.966897, -22.087226 ], [ -63.977951, -22.085561 ], [ -63.992668, -22.107999 ], [ -64.00247, -22.15479 ], [ -64.018709, -22.171523 ], [ -64.020726, -22.184835 ], [ -64.029841, -22.195445 ], [ -64.02847, -22.208299 ], [ -64.034887, -22.21986 ], [ -64.035891, -22.237981 ], [ -64.046735, -22.243809 ], [ -64.060612, -22.241069 ], [ -64.07025, -22.253908 ], [ -64.075577, -22.27768 ], [ -64.096759, -22.317088 ], [ -64.099851, -22.343377 ], [ -64.113957, -22.363036 ], [ -64.111906, -22.377358 ], [ -64.118675, -22.386775 ], [ -64.120582, -22.400223 ], [ -64.140747, -22.41067 ], [ -64.141327, -22.427947 ], [ -64.149403, -22.437264 ], [ -64.153915, -22.448593 ], [ -64.16495, -22.457615 ], [ -64.17169, -22.468563 ], [ -64.181106, -22.474999 ], [ -64.189061, -22.492614 ], [ -64.204995, -22.502968 ], [ -64.22179, -22.536555 ], [ -64.239111, -22.556847 ], [ -64.246909, -22.584586 ], [ -64.24199, -22.602278 ], [ -64.250831, -22.61223 ], [ -64.253677, -22.626771 ], [ -64.261281, -22.638558 ], [ -64.268888, -22.660048 ], [ -64.268445, -22.671009 ], [ -64.262694, -22.685942 ], [ -64.267026, -22.69946 ], [ -64.26574, -22.740083 ], [ -64.277644, -22.765196 ], [ -64.288194, -22.802003 ], [ -64.281542, -22.825933 ], [ -64.287708, -22.841988 ], [ -64.310991, -22.87316 ], [ -64.322657, -22.899718 ], [ -64.333989, -22.911563 ], [ -64.341578, -22.903519 ], [ -64.33337, -22.892752 ], [ -64.333532, -22.878058 ], [ -64.345086, -22.869336 ], [ -64.340357, -22.86095 ], [ -64.338313, -22.844628 ], [ -64.330039, -22.833337 ], [ -64.328076, -22.823132 ], [ -64.338846, -22.799044 ], [ -64.336909, -22.779967 ], [ -64.340885, -22.750994 ], [ -64.350779, -22.733386 ], [ -64.358791, -22.726155 ], [ -64.37031, -22.724793 ], [ -64.380037, -22.719018 ], [ -64.390474, -22.720224 ], [ -64.399054, -22.717906 ], [ -64.397679, -22.686792 ], [ -64.414264, -22.67602 ], [ -64.417069, -22.656663 ], [ -64.430475, -22.648958 ], [ -64.438226, -22.638799 ], [ -64.436544, -22.635873 ], [ -64.426433, -22.633766 ], [ -64.432722, -22.625527 ], [ -64.429282, -22.614603 ], [ -64.428019, -22.582382 ], [ -64.417624, -22.574215 ], [ -64.411586, -22.565467 ], [ -64.411345, -22.559101 ], [ -64.416385, -22.551454 ], [ -64.413982, -22.540086 ], [ -64.431155, -22.524335 ], [ -64.447292, -22.517792 ], [ -64.448598, -22.505845 ], [ -64.479536, -22.480442 ], [ -64.481404, -22.47322 ], [ -64.477842, -22.464516 ], [ -64.487973, -22.4543 ], [ -64.493125, -22.437631 ], [ -64.498746, -22.437227 ], [ -64.513999, -22.444387 ], [ -64.521228, -22.441836 ], [ -64.522206, -22.435803 ], [ -64.514413, -22.42109 ], [ -64.515976, -22.41378 ], [ -64.529291, -22.39892 ], [ -64.546801, -22.390729 ], [ -64.564428, -22.374367 ], [ -64.562708, -22.322207 ], [ -64.545423, -22.312202 ], [ -64.537253, -22.298743 ], [ -64.534836, -22.283643 ], [ -64.546, -22.271763 ], [ -64.59119, -22.2447 ], [ -64.602397, -22.225885 ], [ -64.620635, -22.204088 ], [ -64.644552, -22.191618 ], [ -64.664022, -22.192708 ], [ -64.682958, -22.186272 ], [ -64.709046, -22.189065 ], [ -64.723003, -22.193757 ], [ -64.73411, -22.19241 ], [ -64.75199, -22.179705 ], [ -64.778034, -22.173985 ], [ -64.78973, -22.163097 ], [ -64.816759, -22.145683 ], [ -64.841, -22.136248 ], [ -64.87101, -22.119078 ], [ -64.877833, -22.118826 ], [ -64.888022, -22.124695 ], [ -64.903488, -22.11943 ], [ -64.924904, -22.118263 ], [ -64.951994, -22.104247 ], [ -64.970991, -22.099656 ], [ -64.992327, -22.086935 ], [ -65.462411, -22.088365 ], [ -65.474107, -22.091941 ], [ -65.482093, -22.10286 ], [ -65.572098, -22.077105 ], [ -65.578513, -22.080291 ], [ -65.587262, -22.094761 ], [ -65.610299, -22.095244 ], [ -65.632541, -22.103338 ], [ -65.659569, -22.109079 ], [ -65.678626, -22.109312 ], [ -65.71007, -22.097887 ], [ -65.729492, -22.106803 ], [ -65.747249, -22.106375 ], [ -65.772358, -22.093568 ], [ -65.792221, -22.076766 ], [ -65.807982, -22.069234 ], [ -65.816464, -22.057247 ], [ -65.81775, -22.056019 ], [ -65.835202, -22.039343 ], [ -65.923963, -21.924279 ], [ -66.062418, -21.916319 ], [ -66.06738, -21.853571 ], [ -66.093699, -21.823599 ], [ -66.189073, -21.796309 ], [ -66.221845, -21.783657 ], [ -66.235988, -21.787901 ], [ -66.240266, -21.792711 ], [ -66.237717, -21.814065 ], [ -66.240411, -21.832705 ], [ -66.236864, -21.850558 ], [ -66.246923, -21.876657 ], [ -66.250091, -21.893563 ], [ -66.259792, -21.908059 ], [ -66.261716, -21.933388 ], [ -66.273106, -21.948711 ], [ -66.276789, -21.972835 ], [ -66.281241, -21.982985 ], [ -66.280296, -22.019015 ], [ -66.289394, -22.034775 ], [ -66.287432, -22.052856 ], [ -66.291727, -22.06415 ], [ -66.291961, -22.085702 ], [ -66.305264, -22.09108 ], [ -66.315828, -22.086821 ], [ -66.320586, -22.087427 ], [ -66.332214, -22.114258 ], [ -66.344948, -22.119533 ], [ -66.356016, -22.129238 ], [ -66.621051, -22.198731 ], [ -66.651848, -22.216488 ], [ -66.684969, -22.210125 ], [ -66.695611, -22.210874 ], [ -66.735548, -22.234076 ], [ -66.754221, -22.288067 ], [ -66.76495, -22.350419 ], [ -66.780858, -22.396858 ], [ -66.784398, -22.436202 ], [ -66.925084, -22.488534 ], [ -66.976077, -22.533345 ], [ -67.030332, -22.535042 ], [ -67.015141, -22.652898 ], [ -67.132147, -22.718972 ], [ -67.1775, -22.80469 ], [ -67.572155, -22.895663 ], [ -67.791764, -22.87368 ], [ -67.817795, -22.844454 ], [ -67.825177, -22.841066 ], [ -67.849282, -22.83828 ], [ -67.873702, -22.827597 ], [ -67.870785, -22.809227 ], [ -67.884759, -22.7286 ], [ -67.885319, -22.709303 ], [ -67.871922, -22.633026 ], [ -67.848714, -22.546837 ], [ -67.888129, -22.496559 ], [ -67.89585, -22.415698 ], [ -67.924758, -22.375868 ], [ -67.945402, -22.323352 ], [ -67.925473, -22.272434 ], [ -67.91984, -22.243013 ], [ -67.921965, -22.226611 ], [ -67.939767, -22.184244 ], [ -67.951956, -22.162826 ], [ -67.952953, -22.144638 ], [ -67.939624, -22.115194 ], [ -67.938961, -22.103194 ], [ -67.943229, -22.090588 ], [ -67.960166, -22.072082 ], [ -67.96501, -22.047954 ], [ -67.971749, -22.043637 ], [ -68.000128, -22.035382 ], [ -68.013157, -22.016729 ], [ -68.064026, -21.975038 ], [ -68.057152, -21.76371 ], [ -68.060982, -21.757622 ], [ -68.086041, -21.736345 ], [ -68.110555, -21.673825 ], [ -68.176893, -21.598199 ], [ -68.173052, -21.493039 ], [ -68.172786, -21.296851 ], [ -68.286749, -21.103713 ], [ -68.3094, -21.070156 ], [ -68.317683, -21.059128 ], [ -68.364227, -20.992494 ], [ -68.37636, -20.974451 ], [ -68.395415, -20.947066 ], [ -68.400526, -20.938087 ], [ -68.462269, -20.940965 ], [ -68.485181, -20.938096 ], [ -68.491232, -20.937338 ], [ -68.5046, -20.936309 ], [ -68.515207, -20.932634 ], [ -68.521806, -20.92573 ], [ -68.539919, -20.896547 ], [ -68.547167, -20.880157 ], [ -68.548349, -20.866055 ], [ -68.545872, -20.82919 ], [ -68.54509, -20.794154 ], [ -68.544267, -20.783096 ], [ -68.54485, -20.764459 ], [ -68.548878, -20.747689 ], [ -68.549927, -20.730972 ], [ -68.549157, -20.726334 ], [ -68.530609, -20.709017 ], [ -68.514241, -20.688638 ], [ -68.507078, -20.676788 ], [ -68.502541, -20.670537 ], [ -68.489558, -20.662812 ], [ -68.485181, -20.660821 ], [ -68.457887, -20.648407 ], [ -68.446495, -20.642215 ], [ -68.439248, -20.637473 ], [ -68.439395, -20.632512 ], [ -68.452449, -20.632518 ], [ -68.458524, -20.628858 ], [ -68.472343, -20.610624 ], [ -68.481608, -20.600663 ], [ -68.485181, -20.600285 ], [ -68.488729, -20.599909 ], [ -68.51017, -20.602386 ], [ -68.513002, -20.59873 ], [ -68.515343, -20.585518 ], [ -68.519901, -20.576503 ], [ -68.531237, -20.564265 ], [ -68.538257, -20.56019 ], [ -68.569409, -20.552344 ], [ -68.61315, -20.531443 ], [ -68.639122, -20.520438 ], [ -68.658093, -20.511205 ], [ -68.678142, -20.498325 ], [ -68.687763, -20.488795 ], [ -68.713858, -20.462947 ], [ -68.717244, -20.46066 ], [ -68.72683, -20.453835 ], [ -68.735575, -20.441832 ], [ -68.754409, -20.395798 ], [ -68.754197, -20.388935 ], [ -68.740666, -20.364224 ], [ -68.687763, -20.342153 ], [ -68.670741, -20.335051 ], [ -68.663891, -20.32292 ], [ -68.687763, -20.281952 ], [ -68.712584, -20.239343 ], [ -68.705289, -20.142305 ], [ -68.712059, -20.138624 ], [ -68.750554, -20.134445 ], [ -68.771976, -20.123425 ], [ -68.780473, -20.111662 ], [ -68.781631, -20.086052 ], [ -68.775233, -20.080881 ], [ -68.691884, -20.06568 ], [ -68.687763, -20.064149 ], [ -68.651366, -20.050623 ], [ -68.609256, -20.045239 ], [ -68.560537, -20.044264 ], [ -68.523462, -19.919284 ], [ -68.540025, -19.882987 ], [ -68.530364, -19.851256 ], [ -68.530598, -19.843323 ], [ -68.605627, -19.81823 ], [ -68.619243, -19.788006 ], [ -68.627987, -19.777349 ], [ -68.664642, -19.749266 ], [ -68.687763, -19.744892 ], [ -68.689794, -19.739155 ], [ -68.687763, -19.733029 ], [ -68.684265, -19.724965 ], [ -68.670854, -19.713008 ], [ -68.655791, -19.704952 ], [ -68.622469, -19.696108 ], [ -68.611788, -19.671937 ], [ -68.600365, -19.66239 ], [ -68.595233, -19.639036 ], [ -68.566949, -19.627043 ], [ -68.550767, -19.584868 ], [ -68.485181, -19.503754 ], [ -68.432833, -19.438982 ], [ -68.415192, -19.428023 ], [ -68.408012, -19.414497 ], [ -68.407818, -19.406203 ], [ -68.412995, -19.395787 ], [ -68.485181, -19.338013 ], [ -68.531689, -19.30078 ], [ -68.556589, -19.288463 ], [ -68.615774, -19.269432 ], [ -68.67008, -19.189004 ], [ -68.684738, -19.17931 ], [ -68.687763, -19.177934 ], [ -68.71276, -19.16657 ], [ -68.731192, -19.153058 ], [ -68.751641, -19.130359 ], [ -68.800297, -19.086207 ], [ -68.865295, -19.056336 ], [ -68.884919, -19.044445 ], [ -68.897767, -19.031818 ], [ -68.908624, -19.013594 ], [ -68.919198, -18.973794 ], [ -68.927098, -18.963907 ], [ -68.954746, -18.944699 ], [ -68.956331, -18.940165 ], [ -68.95426, -18.93568 ], [ -68.913914, -18.89009 ], [ -68.909452, -18.877231 ], [ -68.946874, -18.792657 ], [ -68.977818, -18.749086 ], [ -68.977557, -18.719206 ], [ -68.984056, -18.693301 ], [ -68.987361, -18.663419 ], [ -69.002226, -18.633923 ], [ -68.998671, -18.591755 ], [ -69.009321, -18.571811 ], [ -69.008973, -18.537831 ], [ -69.023767, -18.455658 ], [ -69.039272, -18.422602 ], [ -69.042128, -18.411707 ], [ -69.050684, -18.379067 ], [ -69.051429, -18.354798 ], [ -69.038224, -18.331344 ], [ -69.037047, -18.320905 ], [ -69.043288, -18.312375 ], [ -69.064471, -18.299962 ], [ -69.069267, -18.291606 ], [ -69.070873, -18.28049 ], [ -69.065244, -18.257925 ], [ -69.07059, -18.237826 ], [ -69.134005, -18.167453 ], [ -69.138051, -18.157586 ], [ -69.130034, -18.137212 ], [ -69.093313, -18.095963 ], [ -69.070895, -18.078053 ], [ -69.068349, -18.068366 ], [ -69.084413, -18.043926 ], [ -69.102303, -18.030758 ], [ -69.124689, -18.024834 ], [ -69.177108, -18.002786 ], [ -69.20024, -17.990823 ], [ -69.215362, -17.977484 ], [ -69.231241, -17.982015 ], [ -69.23929, -17.981068 ], [ -69.246062, -17.975785 ], [ -69.255634, -17.954364 ], [ -69.270877, -17.965176 ], [ -69.277666, -17.966157 ], [ -69.285324, -17.962252 ], [ -69.295826, -17.950622 ], [ -69.299912, -17.929916 ], [ -69.312097, -17.910926 ], [ -69.306061, -17.887285 ], [ -69.3058, -17.873153 ], [ -69.299914, -17.858021 ], [ -69.308992, -17.825653 ], [ -69.309128, -17.799116 ], [ -69.313828, -17.78994 ], [ -69.332978, -17.768387 ], [ -69.336835, -17.733529 ], [ -69.344784, -17.717675 ], [ -69.41362, -17.65593 ], [ -69.415744, -17.65368 ], [ -69.461203, -17.605514 ], [ -69.47262, -17.49896 ], [ -69.465653, -17.435091 ], [ -69.465018, -17.374399 ], [ -69.572129, -17.290194 ], [ -69.598714, -17.283882 ], [ -69.634416, -17.286631 ], [ -69.638202, -17.284632 ], [ -69.638522, -17.280259 ], [ -69.612337, -17.255702 ], [ -69.600397, -17.21905 ], [ -69.599252, -17.215536 ], [ -69.593488, -17.211811 ], [ -69.580662, -17.210107 ], [ -69.571192, -17.202493 ], [ -69.565497, -17.1925 ], [ -69.560561, -17.171948 ], [ -69.552415, -17.163006 ], [ -69.50682, -17.144488 ], [ -69.454623, -17.103467 ], [ -69.437776, -17.100991 ], [ -69.420644, -17.109837 ], [ -69.415744, -17.106377 ], [ -69.376613, -17.078746 ], [ -69.370091, -17.050107 ], [ -69.37767, -17.034715 ], [ -69.388027, -17.026473 ], [ -69.389185, -17.018806 ], [ -69.362891, -16.988502 ], [ -69.335813, -16.982854 ], [ -69.318213, -16.967477 ], [ -69.31257, -16.958977 ], [ -69.317399, -16.944182 ], [ -69.311783, -16.932469 ], [ -69.276029, -16.889703 ], [ -69.274756, -16.888181 ], [ -69.219162, -16.838541 ], [ -69.201809, -16.811146 ], [ -69.183412, -16.794042 ], [ -69.173997, -16.744086 ], [ -69.166607, -16.731194 ], [ -69.151348, -16.723637 ], [ -69.113195, -16.71803 ], [ -69.062889, -16.693915 ], [ -69.042377, -16.692621 ], [ -69.022312, -16.679024 ], [ -69.007938, -16.675337 ], [ -68.997917, -16.658061 ], [ -69.027054, -16.600303 ], [ -69.031635, -16.563953 ], [ -68.984312, -16.436988 ], [ -68.979478, -16.431279 ], [ -68.963144, -16.42171 ], [ -68.86876, -16.370649 ], [ -68.822308, -16.345515 ], [ -68.814663, -16.335771 ], [ -68.815347, -16.325024 ], [ -68.822696, -16.310808 ], [ -68.843673, -16.291128 ], [ -68.896512, -16.252428 ], [ -68.92683, -16.216875 ], [ -68.961895, -16.19009 ], [ -68.974193, -16.189524 ], [ -68.985331, -16.193463 ], [ -69.001242, -16.21044 ], [ -69.008828, -16.214659 ], [ -69.041127, -16.201413 ], [ -69.075944, -16.217478 ], [ -69.097316, -16.218767 ], [ -69.235915, -16.14172 ], [ -69.247941, -16.114268 ], [ -69.298587, -15.937225 ], [ -69.412653, -15.621678 ], [ -69.375816, -15.558474 ], [ -69.340114, -15.497198 ], [ -69.336156, -15.487597 ], [ -69.334031, -15.468214 ], [ -69.317722, -15.440678 ], [ -69.298153, -15.420641 ], [ -69.274418, -15.418319 ], [ -69.283481, -15.371313 ], [ -69.279992, -15.36685 ], [ -69.266839, -15.364903 ], [ -69.26765, -15.345816 ], [ -69.264557, -15.336725 ], [ -69.253808, -15.329748 ], [ -69.236408, -15.326308 ], [ -69.227346, -15.313299 ], [ -69.21203, -15.307922 ], [ -69.202799, -15.285703 ], [ -69.185186, -15.262576 ], [ -69.17908, -15.26178 ], [ -69.15483, -15.269971 ], [ -69.145363, -15.270262 ], [ -69.133275, -15.265876 ], [ -69.127035, -15.255127 ], [ -69.13209, -15.227532 ], [ -69.151746, -15.213873 ], [ -69.170688, -15.187207 ], [ -69.184896, -15.174918 ], [ -69.192559, -15.162706 ], [ -69.280219, -15.110852 ], [ -69.321312, -15.048572 ], [ -69.331629, -15.021519 ], [ -69.365556, -14.978934 ], [ -69.372395, -14.962923 ], [ -69.37344, -14.950395 ], [ -69.367731, -14.934596 ], [ -69.349846, -14.90453 ], [ -69.347397, -14.88977 ], [ -69.359427, -14.861742 ], [ -69.356573, -14.828425 ], [ -69.361843, -14.803536 ], [ -69.351654, -14.79326 ], [ -69.31781, -14.775917 ], [ -69.297773, -14.768273 ], [ -69.253921, -14.759027 ], [ -69.2442, -14.752601 ], [ -69.237507, -14.737286 ], [ -69.23666, -14.718812 ], [ -69.24515, -14.683365 ], [ -69.24348, -14.650421 ], [ -69.236696, -14.605303 ], [ -69.225832, -14.584758 ], [ -69.218846, -14.578675 ], [ -69.209011, -14.576649 ], [ -69.158241, -14.584666 ], [ -69.149822, -14.583138 ], [ -69.146587, -14.574989 ], [ -69.153162, -14.515655 ], [ -69.150193, -14.505997 ], [ -69.126289, -14.496548 ], [ -69.108239, -14.485201 ], [ -69.06183, -14.434495 ], [ -69.015559, -14.415691 ], [ -68.980658, -14.386718 ], [ -68.978579, -14.368696 ], [ -68.989875, -14.341935 ], [ -68.995961, -14.300042 ], [ -68.990956, -14.263837 ], [ -68.980309, -14.236884 ], [ -68.971859, -14.231786 ], [ -68.942774, -14.224989 ], [ -68.856737, -14.219835 ], [ -68.848453, -14.216828 ], [ -68.841626, -14.209252 ], [ -68.839793, -14.193905 ], [ -68.851551, -14.176613 ], [ -68.854302, -14.167201 ], [ -68.85667, -14.120333 ], [ -68.86539, -14.107351 ], [ -68.882709, -14.063431 ], [ -68.91774, -14.026155 ], [ -68.951978, -13.99983 ], [ -68.962243, -13.986468 ], [ -68.964834, -13.972852 ], [ -68.960451, -13.940662 ], [ -68.967936, -13.912267 ], [ -68.960128, -13.876653 ], [ -68.964321, -13.866541 ], [ -68.979847, -13.847432 ], [ -68.999124, -13.801103 ], [ -68.999176, -13.789677 ], [ -68.989691, -13.777347 ], [ -68.989369, -13.766097 ], [ -68.995593, -13.754903 ], [ -69.013579, -13.737873 ], [ -69.050863, -13.717373 ], [ -69.075192, -13.67205 ], [ -69.075482, -13.655358 ], [ -69.070123, -13.645451 ], [ -69.059382, -13.64267 ], [ -69.037915, -13.64388 ], [ -69.023425, -13.651551 ], [ -68.999734, -13.653192 ], [ -69.005892, -13.608663 ], [ -68.998592, -13.597525 ], [ -68.984064, -13.588433 ], [ -68.974855, -13.578633 ], [ -68.961949, -13.547326 ], [ -68.960672, -13.534204 ], [ -68.94818, -13.511737 ], [ -68.942718, -13.489104 ], [ -68.950956, -13.463928 ], [ -68.946306, -13.454621 ], [ -68.946996, -13.442559 ], [ -68.954309, -13.429178 ], [ -68.947425, -13.425242 ], [ -68.944442, -13.419844 ], [ -68.953681, -13.396947 ], [ -68.950436, -13.36738 ], [ -68.944005, -13.370479 ], [ -68.942412, -13.36496 ], [ -68.945333, -13.341893 ], [ -68.953351, -13.330749 ], [ -68.945879, -13.326922 ], [ -68.95147, -13.32067 ], [ -68.942698, -13.314548 ], [ -68.940732, -13.308389 ], [ -68.949015, -13.299944 ], [ -68.951374, -13.284211 ], [ -68.945498, -13.283218 ], [ -68.944494, -13.278699 ], [ -68.953482, -13.26158 ], [ -68.950402, -13.257556 ], [ -68.942191, -13.256951 ], [ -68.939984, -13.251027 ], [ -68.943457, -13.243445 ], [ -68.954239, -13.240476 ], [ -68.953132, -13.23279 ], [ -68.944857, -13.22488 ], [ -68.945203, -13.221072 ], [ -68.953976, -13.204721 ], [ -68.962621, -13.204662 ], [ -68.965559, -13.199019 ], [ -68.963867, -13.19452 ], [ -68.952325, -13.18568 ], [ -68.95802, -13.18218 ], [ -68.959588, -13.177531 ], [ -68.957466, -13.164972 ], [ -68.951907, -13.157336 ], [ -68.951113, -13.134965 ], [ -68.95483, -13.134189 ], [ -68.964901, -13.140959 ], [ -68.967874, -13.139045 ], [ -68.964923, -13.126945 ], [ -68.956892, -13.124002 ], [ -68.952178, -13.116229 ], [ -68.951003, -13.106027 ], [ -68.958324, -13.094086 ], [ -68.94609, -13.074641 ], [ -68.951962, -13.061234 ], [ -68.945512, -13.053669 ], [ -68.944081, -13.045173 ], [ -68.948942, -13.032938 ], [ -68.954749, -13.028549 ], [ -68.951045, -13.019944 ], [ -68.963432, -13.019346 ], [ -68.969049, -13.002496 ], [ -68.957631, -12.9568 ], [ -68.969529, -12.938627 ], [ -68.967789, -12.93423 ], [ -68.958475, -12.929688 ], [ -68.970249, -12.913404 ], [ -68.963756, -12.909313 ], [ -68.966992, -12.896889 ], [ -68.962588, -12.885124 ], [ -68.961191, -12.855066 ], [ -68.945998, -12.851741 ], [ -68.934969, -12.844014 ], [ -68.916215, -12.79711 ], [ -68.892517, -12.79352 ], [ -68.880878, -12.773922 ], [ -68.875558, -12.753009 ], [ -68.851175, -12.753385 ], [ -68.843388, -12.749895 ], [ -68.842009, -12.745361 ], [ -68.849599, -12.734639 ], [ -68.848842, -12.729228 ], [ -68.804716, -12.727905 ], [ -68.788337, -12.722755 ], [ -68.751898, -12.718727 ], [ -68.741514, -12.70812 ], [ -68.739287, -12.703768 ], [ -68.741284, -12.688423 ], [ -68.729563, -12.668477 ], [ -68.734986, -12.659473 ], [ -68.747207, -12.659724 ], [ -68.746011, -12.650134 ], [ -68.749049, -12.645719 ], [ -68.764359, -12.647756 ], [ -68.769396, -12.646006 ], [ -68.770121, -12.634817 ], [ -68.765275, -12.616149 ], [ -68.750066, -12.589815 ], [ -68.721623, -12.573815 ], [ -68.705205, -12.559361 ], [ -68.699799, -12.547825 ], [ -68.698531, -12.531015 ], [ -68.693187, -12.526677 ], [ -68.687763, -12.525435 ], [ -68.682949, -12.524333 ], [ -68.679418, -12.519641 ], [ -68.681423, -12.493605 ], [ -68.687763, -12.480579 ], [ -68.910256, -12.023051 ], [ -68.92433, -11.994083 ], [ -68.998984, -11.873923 ], [ -69.031317, -11.81178 ], [ -69.288448, -11.401268 ], [ -69.327221, -11.335504 ], [ -69.56644, -10.95666 ], [ -69.533204, -10.959123 ], [ -69.502224, -10.952668 ], [ -69.461543, -10.953714 ], [ -69.449075, -10.950223 ], [ -69.434305, -10.951133 ], [ -69.420417, -10.941804 ], [ -69.399212, -10.940863 ], [ -69.391182, -10.931202 ], [ -69.375412, -10.938894 ], [ -69.362279, -10.942725 ], [ -69.352979, -10.941005 ], [ -69.341776, -10.948403 ], [ -69.314664, -10.955654 ], [ -69.272247, -10.953668 ], [ -69.239722, -10.958502 ], [ -69.224435, -10.956684 ], [ -69.203587, -10.959061 ], [ -69.185139, -10.966954 ], [ -69.164631, -10.963299 ], [ -69.152121, -10.964003 ], [ -69.09526, -10.98217 ], [ -69.070728, -10.977652 ], [ -69.056451, -10.97847 ], [ -68.979444, -11.003466 ], [ -68.957978, -10.995464 ], [ -68.943479, -11.004311 ], [ -68.924062, -11.006896 ], [ -68.912122, -11.014192 ], [ -68.896781, -11.016148 ], [ -68.882283, -11.012073 ], [ -68.868871, -11.022296 ], [ -68.861159, -11.017818 ], [ -68.847001, -11.01553 ], [ -68.840808, -10.999141 ], [ -68.830064, -11.001553 ], [ -68.820512, -10.995988 ], [ -68.807517, -11.002887 ], [ -68.797521, -10.992491 ], [ -68.788589, -10.990692 ], [ -68.776373, -11.002668 ], [ -68.756375, -11.00395 ], [ -68.75214, -11.007793 ], [ -68.758541, -11.026379 ], [ -68.771245, -11.049001 ], [ -68.772797, -11.057592 ], [ -68.765774, -11.093127 ], [ -68.77584, -11.124787 ], [ -68.774267, -11.131415 ], [ -68.765284, -11.138931 ], [ -68.73404, -11.142048 ], [ -68.687763, -11.131873 ], [ -68.649176, -11.123389 ], [ -68.588998, -11.110116 ], [ -68.576009, -11.10421 ], [ -68.553523, -11.085792 ], [ -68.537824, -11.065113 ], [ -68.514241, -11.047246 ], [ -68.491254, -11.043695 ], [ -68.469517, -11.035699 ], [ -68.414748, -11.039622 ], [ -68.407136, -11.034444 ], [ -68.396618, -11.016241 ], [ -68.373443, -11.005464 ], [ -68.36055, -11.004065 ], [ -68.339868, -11.010434 ], [ -68.309586, -10.992921 ], [ -68.284388, -10.986273 ], [ -68.247592, -10.951059 ], [ -68.237373, -10.925389 ], [ -68.221022, -10.905241 ], [ -68.212808, -10.880752 ], [ -68.187176, -10.839155 ], [ -68.163037, -10.819067 ], [ -68.118852, -10.764354 ], [ -68.11443, -10.751713 ], [ -68.115457, -10.724293 ], [ -68.088598, -10.700052 ], [ -68.058245, -10.679413 ], [ -68.032015, -10.669646 ], [ -68.017781, -10.660052 ], [ -68.003836, -10.655124 ], [ -67.971975, -10.662567 ], [ -67.952698, -10.658793 ], [ -67.927021, -10.660009 ], [ -67.902405, -10.655209 ], [ -67.867686, -10.654657 ], [ -67.813252, -10.66284 ], [ -67.761686, -10.692378 ], [ -67.738962, -10.713907 ], [ -67.729052, -10.712786 ], [ -67.715251, -10.702961 ], [ -67.684138, -10.629765 ], [ -67.633323, -10.597021 ], [ -67.628884, -10.586314 ], [ -67.6192, -10.575273 ], [ -67.605125, -10.549032 ], [ -67.601366, -10.535494 ], [ -67.592863, -10.523488 ], [ -67.563188, -10.500175 ], [ -67.530236, -10.49196 ], [ -67.502193, -10.473984 ], [ -67.445078, -10.45017 ], [ -67.419257, -10.419084 ], [ -67.419987, -10.405863 ], [ -67.427541, -10.393114 ], [ -67.415176, -10.373585 ], [ -67.404513, -10.370511 ], [ -67.384919, -10.37536 ], [ -67.372702, -10.373986 ], [ -67.359671, -10.382074 ], [ -67.349457, -10.374365 ], [ -67.328412, -10.372566 ], [ -67.319221, -10.357349 ], [ -67.323896, -10.32627 ], [ -67.313084, -10.317206 ], [ -67.280832, -10.317889 ], [ -67.261794, -10.322575 ], [ -67.232757, -10.314586 ], [ -67.207986, -10.325636 ], [ -67.193035, -10.336328 ], [ -67.183362, -10.337525 ], [ -67.166393, -10.324782 ], [ -67.151567, -10.320558 ], [ -67.14121, -10.313774 ], [ -67.139592, -10.308611 ], [ -67.142824, -10.298404 ], [ -67.135669, -10.288852 ], [ -67.102936, -10.282409 ], [ -67.08421, -10.283978 ], [ -67.069496, -10.275113 ], [ -67.060974, -10.264879 ], [ -67.052602, -10.262469 ], [ -67.044462, -10.255864 ], [ -67.030146, -10.253166 ], [ -67.016094, -10.228831 ], [ -67.005588, -10.21787 ], [ -67.007776, -10.206491 ], [ -67.003124, -10.193438 ], [ -66.985926, -10.182981 ], [ -66.966721, -10.177552 ], [ -66.955833, -10.156236 ], [ -66.945003, -10.145308 ], [ -66.930474, -10.139251 ], [ -66.907494, -10.110139 ], [ -66.888658, -10.094763 ], [ -66.882764, -10.082308 ], [ -66.855126, -10.081381 ], [ -66.844264, -10.064373 ], [ -66.825862, -10.051279 ], [ -66.794253, -10.021568 ], [ -66.75824, -9.998701 ], [ -66.735913, -9.988812 ], [ -66.715327, -9.970068 ], [ -66.698006, -9.966161 ], [ -66.65735, -9.948865 ], [ -66.647173, -9.93188 ], [ -66.63443, -9.937117 ], [ -66.625729, -9.934871 ], [ -66.621635, -9.902448 ], [ -66.614702, -9.893604 ], [ -66.57842, -9.89771 ], [ -66.554816, -9.884437 ], [ -66.526181, -9.884866 ], [ -66.508807, -9.879146 ], [ -66.498807, -9.882892 ], [ -66.479783, -9.873621 ], [ -66.446472, -9.870374 ], [ -66.433776, -9.874558 ], [ -66.429836, -9.891078 ], [ -66.422942, -9.893931 ], [ -66.415784, -9.880338 ], [ -66.402506, -9.869433 ], [ -66.364184, -9.860339 ], [ -66.350899, -9.843474 ], [ -66.324473, -9.83257 ], [ -66.313339, -9.831533 ], [ -66.291437, -9.838342 ], [ -66.27302, -9.827779 ], [ -66.236467, -9.818832 ], [ -66.215653, -9.826518 ], [ -66.206341, -9.826767 ], [ -66.199925, -9.821011 ], [ -66.189759, -9.801836 ], [ -66.160205, -9.785589 ], [ -66.125251, -9.789845 ], [ -66.10683, -9.787062 ], [ -66.102835, -9.804993 ], [ -66.099521, -9.807408 ], [ -66.094974, -9.803392 ], [ -66.083462, -9.779578 ], [ -66.068296, -9.773373 ], [ -66.044565, -9.782124 ], [ -66.03135, -9.802757 ], [ -66.020362, -9.806198 ], [ -66.00576, -9.801332 ], [ -65.977257, -9.798741 ], [ -65.956086, -9.780788 ], [ -65.942711, -9.774265 ], [ -65.919206, -9.766722 ], [ -65.899003, -9.766338 ], [ -65.875294, -9.757472 ], [ -65.869897, -9.764052 ], [ -65.870422, -9.788555 ], [ -65.866998, -9.792905 ], [ -65.861918, -9.793571 ], [ -65.84006, -9.783428 ], [ -65.811044, -9.751709 ], [ -65.807507, -9.756645 ], [ -65.806165, -9.777631 ], [ -65.802786, -9.783636 ], [ -65.797498, -9.785058 ], [ -65.790164, -9.78152 ], [ -65.782346, -9.772045 ], [ -65.779487, -9.738813 ], [ -65.77574, -9.729765 ], [ -65.768877, -9.736727 ], [ -65.765764, -9.758476 ], [ -65.748353, -9.769351 ], [ -65.742263, -9.768353 ], [ -65.73268, -9.758832 ], [ -65.728646, -9.756381 ], [ -65.715403, -9.748335 ], [ -65.70321, -9.745768 ], [ -65.69087, -9.748375 ], [ -65.690582, -9.758414 ], [ -65.705149, -9.768854 ], [ -65.707045, -9.790496 ], [ -65.701269, -9.800865 ], [ -65.693469, -9.799222 ], [ -65.679239, -9.781984 ], [ -65.668521, -9.779747 ], [ -65.652911, -9.788044 ], [ -65.646366, -9.799984 ], [ -65.634969, -9.800689 ], [ -65.62852, -9.820152 ], [ -65.608889, -9.81571 ], [ -65.603282, -9.818599 ], [ -65.59498, -9.829614 ], [ -65.564369, -9.83326 ], [ -65.560941, -9.829605 ], [ -65.562115, -9.813329 ], [ -65.55839, -9.807826 ], [ -65.538956, -9.800383 ], [ -65.514121, -9.79691 ], [ -65.507493, -9.792425 ], [ -65.503901, -9.750454 ], [ -65.499542, -9.73956 ], [ -65.49064, -9.731162 ], [ -65.486719, -9.71922 ], [ -65.47152, -9.715626 ], [ -65.460628, -9.709538 ], [ -65.434091, -9.68188 ], [ -65.40246, -9.686093 ], [ -65.37688, -9.698846 ], [ -65.361248, -9.714176 ], [ -65.3545, -9.740296 ], [ -65.33562, -9.766748 ], [ -65.321382, -9.809268 ], [ -65.298897, -9.831983 ], [ -65.290715, -9.849552 ], [ -65.292912, -9.865587 ], [ -65.323346, -9.904887 ], [ -65.326793, -9.916114 ], [ -65.326877, -9.93379 ], [ -65.316458, -9.998997 ], [ -65.322447, -10.024146 ], [ -65.322498, -10.041189 ], [ -65.302798, -10.088587 ], [ -65.292679, -10.124973 ], [ -65.291963, -10.164367 ], [ -65.282646, -10.197257 ], [ -65.280338, -10.217136 ], [ -65.28432, -10.236099 ], [ -65.301255, -10.269891 ], [ -65.308812, -10.297049 ], [ -65.346622, -10.333866 ], [ -65.375561, -10.369821 ], [ -65.382884, -10.387778 ], [ -65.379483, -10.418098 ], [ -65.384207, -10.436184 ], [ -65.40313, -10.46259 ], [ -65.424649, -10.47061 ], [ -65.430028, -10.479205 ], [ -65.422248, -10.507348 ], [ -65.427034, -10.537417 ], [ -65.41608, -10.562095 ], [ -65.411722, -10.594144 ], [ -65.424225, -10.642174 ], [ -65.410629, -10.653586 ], [ -65.381277, -10.66513 ], [ -65.374679, -10.677127 ], [ -65.372666, -10.719434 ], [ -65.377761, -10.766819 ], [ -65.38124, -10.785259 ], [ -65.393441, -10.800301 ], [ -65.395265, -10.810333 ], [ -65.387483, -10.819539 ], [ -65.349618, -10.83697 ], [ -65.326247, -10.857153 ], [ -65.31634, -10.871112 ], [ -65.308281, -10.891328 ], [ -65.306117, -10.90584 ], [ -65.310488, -10.948325 ], [ -65.297898, -10.964426 ], [ -65.289707, -10.983779 ], [ -65.294187, -10.995559 ], [ -65.326875, -11.025673 ], [ -65.335972, -11.044719 ], [ -65.33448, -11.060927 ], [ -65.318878, -11.094558 ], [ -65.319492, -11.107091 ], [ -65.325406, -11.113504 ], [ -65.370244, -11.14059 ], [ -65.38938, -11.165766 ], [ -65.388463, -11.193195 ], [ -65.3831, -11.209928 ], [ -65.374361, -11.220185 ], [ -65.354362, -11.230503 ], [ -65.350633, -11.237341 ], [ -65.355667, -11.244515 ], [ -65.379097, -11.252604 ], [ -65.383803, -11.259843 ], [ -65.38412, -11.268528 ], [ -65.373669, -11.297191 ], [ -65.355078, -11.322337 ], [ -65.344883, -11.328006 ], [ -65.321233, -11.328959 ], [ -65.311496, -11.340295 ], [ -65.31324, -11.352214 ], [ -65.329695, -11.355903 ], [ -65.336174, -11.362433 ], [ -65.337747, -11.390895 ], [ -65.328648, -11.424922 ], [ -65.298137, -11.500131 ], [ -65.284384, -11.511742 ], [ -65.268965, -11.513369 ], [ -65.236877, -11.510106 ], [ -65.220636, -11.519194 ], [ -65.206251, -11.551765 ], [ -65.210725, -11.579368 ], [ -65.205404, -11.599654 ], [ -65.200199, -11.604093 ], [ -65.170067, -11.615454 ], [ -65.160081, -11.625908 ], [ -65.161671, -11.633206 ], [ -65.178169, -11.630318 ], [ -65.183941, -11.633712 ], [ -65.176294, -11.676935 ], [ -65.184324, -11.695148 ], [ -65.200606, -11.71891 ], [ -65.202444, -11.732183 ], [ -65.199445, -11.746244 ], [ -65.185874, -11.76023 ], [ -65.173905, -11.766784 ], [ -65.146989, -11.776571 ], [ -65.136048, -11.775887 ], [ -65.133057, -11.770141 ], [ -65.132418, -11.739124 ], [ -65.126206, -11.714097 ], [ -65.117648, -11.702351 ], [ -65.109939, -11.69825 ], [ -65.104827, -11.700031 ], [ -65.102734, -11.708399 ], [ -65.111797, -11.730552 ], [ -65.109233, -11.742733 ], [ -65.101901, -11.745571 ], [ -65.062601, -11.743139 ], [ -65.053211, -11.747962 ], [ -65.048212, -11.756421 ], [ -65.044245, -11.783039 ], [ -65.035104, -11.808415 ], [ -65.032103, -11.86047 ], [ -65.02765, -11.880489 ], [ -65.017744, -11.899125 ], [ -65.005269, -11.907852 ], [ -64.999816, -11.916678 ], [ -64.997734, -11.934094 ], [ -65.001263, -11.974765 ], [ -64.991843, -11.999102 ], [ -64.984705, -12.004155 ], [ -64.953402, -12.011865 ], [ -64.914431, -12.006964 ], [ -64.888994, -12.022886 ], [ -64.885861, -12.023051 ], [ -64.838858, -12.025527 ], [ -64.797167, -12.035993 ], [ -64.785752, -12.045104 ], [ -64.764159, -12.088147 ], [ -64.734205, -12.113904 ], [ -64.730957, -12.15318 ], [ -64.725203, -12.16085 ], [ -64.714983, -12.161126 ], [ -64.706522, -12.154101 ], [ -64.699882, -12.108653 ], [ -64.692152, -12.100971 ], [ -64.683069, -12.099713 ], [ -64.677248, -12.104266 ], [ -64.675155, -12.110193 ], [ -64.679839, -12.141926 ], [ -64.675214, -12.161212 ], [ -64.650881, -12.188253 ], [ -64.611959, -12.212298 ], [ -64.577536, -12.21463 ], [ -64.561094, -12.22399 ], [ -64.531603, -12.231532 ], [ -64.518755, -12.240531 ], [ -64.510693, -12.239511 ], [ -64.496809, -12.231763 ], [ -64.48554, -12.231715 ], [ -64.47247, -12.253021 ], [ -64.468919, -12.269601 ], [ -64.469054, -12.295917 ], [ -64.477765, -12.32869 ], [ -64.493489, -12.355517 ], [ -64.492364, -12.364784 ], [ -64.461858, -12.388205 ], [ -64.419101, -12.434007 ], [ -64.387552, -12.459076 ], [ -64.372736, -12.466674 ], [ -64.347074, -12.472392 ], [ -64.307026, -12.471487 ], [ -64.29513, -12.474414 ], [ -64.287012, -12.499581 ], [ -64.279026, -12.509175 ], [ -64.240686, -12.481913 ], [ -64.226985, -12.476203 ], [ -64.215096, -12.476249 ], [ -64.176754, -12.486833 ], [ -64.167455, -12.515912 ], [ -64.161213, -12.523651 ], [ -64.153369, -12.527602 ], [ -64.137524, -12.525304 ], [ -64.131274, -12.499585 ], [ -64.124824, -12.495195 ], [ -64.119065, -12.498676 ], [ -64.110394, -12.514529 ], [ -64.09051, -12.505834 ], [ -64.072257, -12.510706 ], [ -64.049632, -12.510282 ], [ -64.024327, -12.532696 ], [ -63.996766, -12.537504 ], [ -63.979738, -12.532398 ], [ -63.96849, -12.532629 ], [ -63.958725, -12.539006 ], [ -63.94824, -12.553049 ], [ -63.937742, -12.5563 ], [ -63.901788, -12.535954 ], [ -63.867492, -12.492244 ], [ -63.876889, -12.47713 ], [ -63.873776, -12.469136 ], [ -63.862732, -12.468304 ], [ -63.835528, -12.477743 ], [ -63.811668, -12.463715 ], [ -63.788277, -12.456607 ], [ -63.77344, -12.454922 ], [ -63.745061, -12.459125 ], [ -63.71339, -12.458212 ], [ -63.691928, -12.465378 ], [ -63.660896, -12.471233 ], [ -63.637005, -12.493747 ], [ -63.61357, -12.495003 ], [ -63.60503, -12.505741 ], [ -63.582461, -12.51613 ], [ -63.557662, -12.543058 ], [ -63.545935, -12.551021 ], [ -63.514229, -12.55678 ], [ -63.480504, -12.558969 ], [ -63.46979, -12.569786 ], [ -63.463152, -12.586008 ], [ -63.465252, -12.602822 ], [ -63.438557, -12.621686 ], [ -63.423504, -12.653261 ], [ -63.396346, -12.673309 ], [ -63.366971, -12.679954 ], [ -63.345252, -12.697208 ], [ -63.328147, -12.704122 ], [ -63.281476, -12.711473 ], [ -63.266873, -12.716396 ], [ -63.250909, -12.714595 ], [ -63.245481, -12.711559 ], [ -63.239857, -12.696972 ], [ -63.229439, -12.684393 ], [ -63.192334, -12.676145 ], [ -63.180901, -12.658271 ], [ -63.162334, -12.656147 ], [ -63.142216, -12.642681 ], [ -63.134219, -12.641244 ], [ -63.119644, -12.649767 ], [ -63.099987, -12.650136 ], [ -63.080828, -12.654505 ], [ -63.068008, -12.670195 ], [ -63.060058, -12.706559 ], [ -63.050859, -12.716013 ], [ -63.045675, -12.721341 ], [ -63.045941, -12.726147 ], [ -63.050859, -12.733341 ], [ -63.056836, -12.742083 ], [ -63.056503, -12.746779 ], [ -63.050859, -12.753224 ], [ -63.046122, -12.758633 ], [ -63.034072, -12.767123 ], [ -63.024572, -12.77983 ], [ -62.998409, -12.846652 ], [ -62.991019, -12.85058 ], [ -62.976103, -12.847442 ], [ -62.969292, -12.856021 ], [ -62.947034, -12.8604 ], [ -62.938473, -12.871874 ], [ -62.933899, -12.868699 ], [ -62.928877, -12.855961 ], [ -62.920678, -12.856081 ], [ -62.909445, -12.865619 ], [ -62.892875, -12.892659 ], [ -62.870941, -12.919642 ], [ -62.853025, -12.931733 ], [ -62.852573, -12.949277 ], [ -62.83672, -12.944996 ], [ -62.825583, -12.947972 ], [ -62.818027, -12.957613 ], [ -62.809089, -12.981649 ], [ -62.779735, -13.013774 ], [ -62.763263, -13.021811 ], [ -62.760982, -13.016996 ], [ -62.767031, -13.002706 ], [ -62.764251, -12.992827 ], [ -62.758203, -12.992366 ], [ -62.748839, -12.997949 ], [ -62.740042, -12.993777 ], [ -62.72827, -12.997117 ], [ -62.723181, -12.990488 ], [ -62.714332, -12.989993 ], [ -62.708531, -12.983288 ], [ -62.675433, -12.965403 ], [ -62.669671, -12.979198 ], [ -62.653379, -12.985303 ], [ -62.656972, -12.998512 ], [ -62.655359, -13.003138 ], [ -62.639631, -13.009032 ], [ -62.631847, -13.014902 ], [ -62.632, -13.019591 ], [ -62.641627, -13.032475 ], [ -62.635926, -13.041679 ], [ -62.628405, -13.04508 ], [ -62.598423, -13.049539 ], [ -62.55323, -13.073057 ], [ -62.531749, -13.072639 ], [ -62.505793, -13.076305 ], [ -62.485233, -13.066023 ], [ -62.477522, -13.072569 ], [ -62.462788, -13.070532 ], [ -62.457596, -13.082354 ], [ -62.441937, -13.087649 ], [ -62.438905, -13.099417 ], [ -62.421545, -13.113478 ], [ -62.413496, -13.12866 ], [ -62.407523, -13.129847 ], [ -62.396492, -13.125652 ], [ -62.391961, -13.135351 ], [ -62.369405, -13.144546 ], [ -62.355296, -13.143707 ], [ -62.341961, -13.13698 ], [ -62.334034, -13.148354 ], [ -62.327432, -13.143442 ], [ -62.317906, -13.142591 ], [ -62.306038, -13.130943 ], [ -62.297968, -13.141751 ], [ -62.288725, -13.13876 ], [ -62.278114, -13.150129 ], [ -62.252042, -13.135686 ], [ -62.24333, -13.122373 ], [ -62.221784, -13.118271 ], [ -62.1956, -13.123418 ], [ -62.182549, -13.135748 ], [ -62.173993, -13.136628 ], [ -62.169216, -13.133189 ], [ -62.166305, -13.114735 ], [ -62.160355, -13.113231 ], [ -62.155882, -13.117444 ], [ -62.153793, -13.129923 ], [ -62.149697, -13.136036 ], [ -62.136257, -13.14353 ], [ -62.113475, -13.146809 ], [ -62.108556, -13.149996 ], [ -62.103031, -13.177956 ], [ -62.101176, -13.20587 ], [ -62.108306, -13.242367 ], [ -62.108027, -13.254549 ], [ -62.098087, -13.265333 ], [ -62.076022, -13.272128 ], [ -62.062138, -13.289352 ], [ -62.048342, -13.296823 ], [ -62.034773, -13.323123 ], [ -62.0136, -13.33523 ], [ -62.012233, -13.346878 ], [ -62.008829, -13.351374 ], [ -61.972294, -13.368496 ], [ -61.961889, -13.379999 ], [ -61.940772, -13.386341 ], [ -61.914044, -13.424415 ], [ -61.894743, -13.434804 ], [ -61.871964, -13.438845 ], [ -61.866563, -13.442134 ], [ -61.861164, -13.453583 ], [ -61.851571, -13.504469 ], [ -61.833751, -13.529904 ], [ -61.823851, -13.538518 ], [ -61.810342, -13.535224 ], [ -61.797307, -13.543266 ], [ -61.787412, -13.538284 ], [ -61.777932, -13.540424 ], [ -61.775811, -13.536611 ], [ -61.778959, -13.525104 ], [ -61.776613, -13.521984 ], [ -61.757162, -13.535427 ], [ -61.750497, -13.53403 ], [ -61.744973, -13.524836 ], [ -61.741632, -13.524091 ], [ -61.72777, -13.538701 ], [ -61.720584, -13.523215 ], [ -61.708733, -13.523869 ], [ -61.69195, -13.518112 ], [ -61.679786, -13.518892 ], [ -61.670293, -13.504361 ], [ -61.659747, -13.504694 ], [ -61.639808, -13.512809 ], [ -61.626363, -13.505533 ], [ -61.619863, -13.511588 ], [ -61.60989, -13.501649 ], [ -61.607668, -13.502654 ], [ -61.598704, -13.506708 ], [ -61.58573, -13.496792 ], [ -61.578549, -13.494732 ], [ -61.574162, -13.498234 ], [ -61.575186, -13.510666 ], [ -61.572265, -13.515129 ], [ -61.554477, -13.525793 ], [ -61.539949, -13.526775 ], [ -61.518493, -13.542449 ], [ -61.498222, -13.552462 ], [ -61.487164, -13.553952 ], [ -61.458045, -13.543042 ], [ -61.436698, -13.535045 ], [ -61.420818, -13.536751 ], [ -61.417302, -13.520234 ], [ -61.401509, -13.515553 ], [ -61.383896, -13.515487 ], [ -61.371838, -13.499706 ], [ -61.34351, -13.49196 ], [ -61.340616, -13.477651 ], [ -61.331822, -13.47392 ], [ -61.320603, -13.48112 ], [ -61.309527, -13.498973 ], [ -61.285065, -13.493888 ], [ -61.252018, -13.52369 ], [ -61.245188, -13.524852 ], [ -61.230206, -13.521453 ], [ -61.219477, -13.52643 ], [ -61.217265, -13.511299 ], [ -61.211706, -13.506233 ], [ -61.193227, -13.507934 ], [ -61.177309, -13.517802 ], [ -61.164693, -13.519353 ], [ -61.153157, -13.515873 ], [ -61.139125, -13.519718 ], [ -61.132952, -13.496256 ], [ -61.127801, -13.488992 ], [ -61.126962, -13.476538 ], [ -61.12186, -13.472475 ], [ -61.088374, -13.491016 ], [ -61.075412, -13.486158 ], [ -61.080856, -13.467966 ], [ -61.076305, -13.464095 ], [ -61.048901, -13.468026 ], [ -61.031107, -13.474588 ], [ -61.027076, -13.486192 ], [ -61.040299, -13.48469 ], [ -61.046511, -13.489471 ], [ -61.044453, -13.498224 ], [ -61.031853, -13.51311 ], [ -61.033793, -13.516696 ], [ -61.043757, -13.521166 ], [ -61.042162, -13.541514 ], [ -61.030702, -13.541987 ], [ -61.010863, -13.533097 ], [ -60.987289, -13.543347 ], [ -60.969249, -13.538455 ], [ -60.962362, -13.539226 ], [ -60.957385, -13.54444 ], [ -60.958226, -13.557402 ], [ -60.948925, -13.581921 ], [ -60.928041, -13.594281 ], [ -60.906666, -13.617012 ], [ -60.889464, -13.628602 ], [ -60.866983, -13.6327 ], [ -60.844466, -13.653211 ], [ -60.81225, -13.662814 ], [ -60.791887, -13.686082 ], [ -60.782775, -13.688211 ], [ -60.770363, -13.685731 ], [ -60.737039, -13.694101 ], [ -60.732508, -13.699076 ], [ -60.729913, -13.714834 ], [ -60.710957, -13.713301 ], [ -60.700337, -13.723517 ], [ -60.68127, -13.741855 ], [ -60.670613, -13.748124 ], [ -60.65964, -13.74699 ], [ -60.646114, -13.739086 ], [ -60.62197, -13.741463 ], [ -60.616732, -13.746722 ], [ -60.613482, -13.756918 ], [ -60.598063, -13.749671 ], [ -60.590752, -13.756434 ], [ -60.590392, -13.767853 ], [ -60.574925, -13.769898 ], [ -60.576493, -13.777563 ], [ -60.57377, -13.780676 ], [ -60.565423, -13.783577 ], [ -60.543389, -13.782286 ], [ -60.529242, -13.785715 ], [ -60.529153, -13.789573 ], [ -60.537778, -13.796731 ], [ -60.534636, -13.802202 ], [ -60.515928, -13.800514 ], [ -60.505224, -13.796082 ], [ -60.486557, -13.801624 ], [ -60.468415, -13.801914 ], [ -60.462916, -13.818523 ], [ -60.471969, -13.823044 ], [ -60.476366, -13.830459 ], [ -60.462618, -13.836849 ], [ -60.472349, -13.845094 ], [ -60.476466, -13.853541 ], [ -60.473819, -13.8563 ], [ -60.460632, -13.857542 ], [ -60.453152, -13.864277 ], [ -60.46145, -13.87202 ], [ -60.467004, -13.886662 ], [ -60.462589, -13.88861 ], [ -60.454777, -13.882888 ], [ -60.444672, -13.881254 ], [ -60.447575, -13.899163 ], [ -60.443212, -13.910384 ], [ -60.440894, -13.932662 ], [ -60.430324, -13.934274 ], [ -60.416467, -13.944421 ], [ -60.410249, -13.945374 ], [ -60.399906, -13.958302 ], [ -60.400399, -13.961918 ], [ -60.409364, -13.961516 ], [ -60.415663, -13.966046 ], [ -60.424351, -13.966851 ], [ -60.41594, -13.981724 ], [ -60.41178, -13.983894 ], [ -60.405372, -13.98077 ], [ -60.386012, -13.979622 ], [ -60.382192, -13.982679 ], [ -60.379182, -13.991814 ], [ -60.38322, -13.996551 ], [ -60.394598, -13.995179 ], [ -60.398386, -13.998037 ], [ -60.397057, -14.00476 ], [ -60.38946, -14.011963 ], [ -60.392716, -14.03022 ], [ -60.407732, -14.040629 ], [ -60.422224, -14.070446 ], [ -60.447249, -14.090993 ], [ -60.460505, -14.088929 ], [ -60.4687, -14.093905 ], [ -60.470564, -14.098549 ], [ -60.468839, -14.119952 ], [ -60.464877, -14.126746 ], [ -60.468674, -14.147342 ], [ -60.480963, -14.182158 ], [ -60.47653, -14.18986 ], [ -60.461085, -14.196357 ], [ -60.461833, -14.210628 ], [ -60.455701, -14.225638 ], [ -60.443055, -14.235809 ], [ -60.454461, -14.25745 ], [ -60.448998, -14.289291 ], [ -60.443652, -14.304058 ], [ -60.439183, -14.311477 ], [ -60.430437, -14.318008 ], [ -60.428716, -14.326605 ], [ -60.420505, -14.339311 ], [ -60.389381, -14.367225 ], [ -60.3974, -14.420319 ], [ -60.392156, -14.428568 ], [ -60.376876, -14.438413 ], [ -60.370844, -14.459171 ], [ -60.354705, -14.470315 ], [ -60.352455, -14.485614 ], [ -60.336873, -14.501867 ], [ -60.333205, -14.526269 ], [ -60.319791, -14.555784 ], [ -60.321867, -14.570871 ], [ -60.312134, -14.603294 ], [ -60.305815, -14.612062 ], [ -60.294962, -14.614584 ], [ -60.288492, -14.619113 ], [ -60.276764, -14.619979 ], [ -60.256038, -15.098007 ], [ -60.260303, -15.100375 ], [ -60.564212, -15.106269 ], [ -60.557582, -15.116695 ], [ -60.23607, -15.476771 ], [ -60.230287, -15.558474 ], [ -60.206084, -15.900048 ], [ -60.193546, -16.001249 ], [ -60.172768, -16.26319 ], [ -60.158633, -16.266048 ], [ -60.097943, -16.268365 ], [ -59.913625, -16.275403 ], [ -59.546332, -16.27735 ], [ -59.414051, -16.28103 ], [ -59.357788, -16.279617 ], [ -59.258563, -16.290551 ], [ -58.816424, -16.307228 ], [ -58.760917, -16.304992 ], [ -58.73354, -16.310785 ], [ -58.710827, -16.311951 ], [ -58.687672, -16.309406 ], [ -58.667635, -16.312626 ], [ -58.529487, -16.321093 ], [ -58.469449, -16.324773 ], [ -58.446118, -16.324093 ], [ -58.43223, -16.320681 ], [ -58.404412, -16.30428 ], [ -58.393603, -16.290029 ], [ -58.388805, -16.267465 ], [ -58.370601, -16.27602 ], [ -58.316138, -16.268471 ], [ -58.310261, -16.269837 ], [ -58.30872, -16.278907 ], [ -58.322075, -16.347074 ], [ -58.322251, -16.381386 ], [ -58.328062, -16.395721 ], [ -58.350226, -16.421342 ], [ -58.355197, -16.438948 ], [ -58.352297, -16.454579 ], [ -58.333127, -16.478941 ], [ -58.33513, -16.513095 ], [ -58.344258, -16.522583 ], [ -58.340453, -16.540433 ], [ -58.347854, -16.547412 ], [ -58.365968, -16.551909 ], [ -58.37297, -16.559141 ], [ -58.383698, -16.563795 ], [ -58.398197, -16.587145 ], [ -58.419273, -16.597491 ], [ -58.434203, -16.615842 ], [ -58.440483, -16.615438 ], [ -58.440165, -16.625851 ], [ -58.455539, -16.6583 ], [ -58.467274, -16.701162 ], [ -58.465057, -16.723913 ], [ -58.468847, -16.739473 ], [ -58.468382, -16.752444 ], [ -58.467005, -16.755468 ], [ -58.46396, -16.762157 ], [ -58.463825, -16.778663 ], [ -58.458956, -16.793086 ], [ -58.472515, -16.801875 ], [ -58.476199, -16.82082 ], [ -58.472666, -16.831543 ], [ -58.460671, -16.84277 ], [ -58.464226, -16.852163 ], [ -58.459955, -16.85775 ], [ -58.463361, -16.861784 ], [ -58.45895, -16.867257 ], [ -58.463714, -16.874171 ], [ -58.461386, -16.892807 ], [ -58.463291, -16.898212 ], [ -58.458735, -16.903355 ], [ -58.462252, -16.910148 ], [ -58.472701, -16.915836 ], [ -58.468186, -16.928234 ], [ -58.469622, -16.938025 ], [ -58.465615, -16.942012 ], [ -58.454817, -16.944359 ], [ -58.457208, -16.9632 ], [ -58.451604, -16.970243 ], [ -58.443519, -16.973561 ], [ -58.440405, -16.985738 ], [ -58.432003, -16.993212 ], [ -58.424044, -16.989059 ], [ -58.420115, -16.992691 ], [ -58.42139, -17.004435 ], [ -58.429425, -17.027381 ], [ -58.426333, -17.034965 ], [ -58.412405, -17.042139 ], [ -58.413703, -17.045191 ], [ -58.42625, -17.050609 ], [ -58.416341, -17.059201 ], [ -58.428443, -17.084419 ], [ -58.422126, -17.097697 ], [ -58.421883, -17.115673 ], [ -58.416776, -17.120253 ], [ -58.38719, -17.117876 ], [ -58.38219, -17.122631 ], [ -58.383332, -17.130872 ], [ -58.391148, -17.145489 ], [ -58.391412, -17.18377 ], [ -58.394358, -17.196333 ], [ -58.38014, -17.20517 ], [ -58.37099, -17.206614 ], [ -58.361172, -17.211965 ], [ -58.357099, -17.223422 ], [ -58.348862, -17.222504 ], [ -58.332058, -17.250732 ], [ -58.318042, -17.261955 ], [ -58.313679, -17.273495 ], [ -58.298332, -17.280817 ], [ -58.295366, -17.28984 ], [ -58.288291, -17.296472 ], [ -58.292953, -17.303302 ], [ -58.290759, -17.309137 ], [ -58.271614, -17.310329 ], [ -58.270728, -17.328507 ], [ -58.260379, -17.341186 ], [ -58.254563, -17.354581 ], [ -58.243161, -17.362204 ], [ -58.224805, -17.356164 ], [ -58.214528, -17.365055 ], [ -58.195459, -17.365673 ], [ -58.191069, -17.371189 ], [ -58.191543, -17.388703 ], [ -58.189066, -17.393787 ], [ -58.181539, -17.396355 ], [ -58.150741, -17.391542 ], [ -58.141762, -17.414924 ], [ -58.136881, -17.417548 ], [ -58.123693, -17.414768 ], [ -58.11941, -17.416888 ], [ -58.11462, -17.425207 ], [ -58.114742, -17.445848 ], [ -58.110001, -17.457459 ], [ -58.082731, -17.463553 ], [ -58.077639, -17.463747 ], [ -58.0653, -17.457121 ], [ -58.056213, -17.458092 ], [ -58.050564, -17.465173 ], [ -58.038855, -17.493158 ], [ -58.000367, -17.518719 ], [ -57.987215, -17.516001 ], [ -57.985589, -17.514669 ], [ -57.967283, -17.499668 ], [ -57.903537, -17.461207 ], [ -57.894293, -17.459535 ], [ -57.879162, -17.462821 ], [ -57.846779, -17.478752 ], [ -57.806717, -17.518042 ], [ -57.802554, -17.526651 ], [ -57.803391, -17.541241 ], [ -57.796611, -17.551691 ], [ -57.771866, -17.55618 ], [ -57.770513, -17.56065 ], [ -57.774107, -17.564469 ], [ -57.796989, -17.565916 ], [ -57.791205, -17.583343 ], [ -57.792012, -17.591384 ], [ -57.787273, -17.596879 ], [ -57.788296, -17.602803 ], [ -57.781499, -17.609257 ], [ -57.784079, -17.616639 ], [ -57.779063, -17.626957 ], [ -57.783926, -17.64657 ], [ -57.779093, -17.656246 ], [ -57.765272, -17.668762 ], [ -57.754361, -17.687726 ], [ -57.743536, -17.69907 ], [ -57.735054, -17.718416 ], [ -57.715361, -17.734952 ], [ -57.715844, -17.777866 ], [ -57.712404, -17.783706 ], [ -57.693643, -17.799543 ], [ -57.688822, -17.812211 ], [ -57.689917, -17.828199 ], [ -57.707456, -17.831295 ], [ -57.711012, -17.834197 ], [ -57.701045, -17.862448 ], [ -57.647904, -17.96203 ], [ -57.609968, -18.024056 ], [ -57.586568, -18.07954 ], [ -57.573784, -18.124594 ], [ -57.568728, -18.134231 ], [ -57.5507, -18.15473 ], [ -57.508534, -18.191007 ], [ -57.483743, -18.201735 ], [ -57.478547, -18.209985 ], [ -57.473087, -18.218654 ], [ -57.459777, -18.228676 ], [ -57.463784, -18.232005 ], [ -57.478547, -18.234254 ], [ -57.537629, -18.243251 ], [ -57.550067, -18.249881 ], [ -57.559145, -18.262454 ], [ -57.57899, -18.325025 ], [ -57.594254, -18.346708 ], [ -57.602018, -18.365159 ], [ -57.62254, -18.434417 ], [ -57.645945, -18.513373 ], [ -57.755652, -18.855338 ], [ -57.767648, -18.902909 ], [ -57.758178, -18.908535 ], [ -57.731437, -18.908017 ], [ -57.724391, -18.910871 ], [ -57.719652, -18.916497 ], [ -57.716069, -18.927826 ], [ -57.717169, -18.946427 ], [ -57.714073, -18.971164 ], [ -57.705771, -19.000074 ], [ -57.709448, -19.033685 ], [ -57.715078, -19.040057 ], [ -57.722197, -19.042482 ], [ -57.746187, -19.038131 ], [ -57.765195, -19.039517 ], [ -57.776867, -19.036454 ], [ -57.789435, -19.050134 ], [ -57.985589, -19.453901 ], [ -58.120691, -19.731415 ], [ -57.985589, -19.853579 ], [ -57.855201, -19.971392 ], [ -57.851458, -19.978761 ], [ -57.885154, -20.029164 ], [ -57.896936, -20.040238 ], [ -57.907772, -20.04285 ], [ -57.924061, -20.028992 ], [ -57.934327, -20.024646 ], [ -57.946819, -20.024293 ], [ -57.957044, -20.027178 ], [ -57.962156, -20.032367 ], [ -57.968131, -20.047592 ], [ -57.974399, -20.053437 ], [ -57.985589, -20.054837 ], [ -57.999002, -20.056516 ], [ -58.014661, -20.061917 ], [ -58.034541, -20.079711 ], [ -58.040821, -20.091712 ], [ -58.04987, -20.101322 ], [ -58.086161, -20.109785 ], [ -58.119289, -20.141919 ], [ -58.136873, -20.150242 ], [ -58.155437, -20.153958 ], [ -58.16346, -20.16246 ] ] ] ] } }
]
}
