{
"type": "FeatureCollection",
"name": "Bonaire, Sint Eustatius and Saba",
"crs": { "type": "name", "properties": { "name": "urn:ogc:def:crs:OGC:1.3:CRS84" } },
"features": [
{ "type": "Feature", "properties": { "id": "BQ", "CNTR_ID": "BQ", "CNTR_NAME": "Bonaire, Sint Eustatius and Saba", "NAME_ENGL": "Bonaire, Sint Eustatius and Saba", "ISO3_CODE": "BES", "FID": "BQ" }, "geometry": { "type": "MultiPolygon", "coordinates": [ [ [ [ -68.279319, 12.236149 ], [ -68.229184, 12.225098 ], [ -68.209578, 12.225646 ], [ -68.198899, 12.222127 ], [ -68.196208, 12.218711 ], [ -68.196169, 12.211964 ], [ -68.20557, 12.199082 ], [ -68.209288, 12.182011 ], [ -68.195451, 12.133861 ], [ -68.198906, 12.121183 ], [ -68.213642, 12.105931 ], [ -68.229184, 12.123257 ], [ -68.239292, 12.119721 ], [ -68.242978, 12.092851 ], [ -68.241457, 12.090048 ], [ -68.235639, 12.091461 ], [ -68.232735, 12.088798 ], [ -68.229184, 12.07014 ], [ -68.225675, 12.06198 ], [ -68.225093, 12.050781 ], [ -68.229184, 12.037884 ], [ -68.236609, 12.028469 ], [ -68.249362, 12.025545 ], [ -68.261846, 12.035095 ], [ -68.268902, 12.047145 ], [ -68.281093, 12.05851 ], [ -68.280406, 12.076885 ], [ -68.284257, 12.095182 ], [ -68.293981, 12.113912 ], [ -68.285184, 12.129366 ], [ -68.277371, 12.137127 ], [ -68.276361, 12.145586 ], [ -68.301088, 12.195233 ], [ -68.320947, 12.210018 ], [ -68.344962, 12.217594 ], [ -68.357556, 12.220519 ], [ -68.395193, 12.220609 ], [ -68.410393, 12.227432 ], [ -68.413477, 12.244269 ], [ -68.420263, 12.259033 ], [ -68.413896, 12.266046 ], [ -68.41445, 12.285011 ], [ -68.411158, 12.292758 ], [ -68.396932, 12.306254 ], [ -68.387779, 12.31173 ], [ -68.369675, 12.306254 ], [ -68.361427, 12.302437 ], [ -68.348454, 12.280976 ], [ -68.336473, 12.271277 ], [ -68.314919, 12.256957 ], [ -68.285766, 12.243736 ], [ -68.279319, 12.236149 ] ] ], [ [ [ -62.991617, 17.522627 ], [ -62.989652, 17.515942 ], [ -62.981592, 17.517332 ], [ -62.97902, 17.512508 ], [ -62.981378, 17.507903 ], [ -62.976019, 17.502614 ], [ -62.971818, 17.500324 ], [ -62.969589, 17.501306 ], [ -62.964959, 17.500406 ], [ -62.961872, 17.496154 ], [ -62.958786, 17.495582 ], [ -62.953984, 17.491738 ], [ -62.950898, 17.491329 ], [ -62.947125, 17.487895 ], [ -62.945668, 17.483234 ], [ -62.95004, 17.470803 ], [ -62.95347, 17.467695 ], [ -62.957157, 17.467777 ], [ -62.963012, 17.4649 ], [ -62.97012, 17.46481 ], [ -62.976165, 17.465914 ], [ -62.980143, 17.468245 ], [ -62.984678, 17.47316 ], [ -62.987805, 17.482436 ], [ -62.996578, 17.488576 ], [ -62.999082, 17.492664 ], [ -62.99934, 17.497871 ], [ -63.003027, 17.504494 ], [ -63.002855, 17.506866 ], [ -62.999168, 17.512916 ], [ -63.000455, 17.516105 ], [ -62.998997, 17.524935 ], [ -62.993741, 17.5256 ], [ -62.991617, 17.522627 ] ] ], [ [ [ -63.223054, 17.619384 ], [ -63.23438, 17.61456 ], [ -63.246625, 17.614623 ], [ -63.251492, 17.615763 ], [ -63.257846, 17.619887 ], [ -63.258668, 17.625142 ], [ -63.252477, 17.643781 ], [ -63.240256, 17.649616 ], [ -63.21888, 17.645492 ], [ -63.220947, 17.638978 ], [ -63.215034, 17.63265 ], [ -63.223054, 17.619384 ] ] ], [ [ [ -68.29484, 12.15081 ], [ -68.298117, 12.147986 ], [ -68.30379, 12.145988 ], [ -68.308271, 12.146465 ], [ -68.313507, 12.149957 ], [ -68.322854, 12.150637 ], [ -68.328432, 12.149082 ], [ -68.329079, 12.152494 ], [ -68.322846, 12.164541 ], [ -68.317559, 12.165656 ], [ -68.312314, 12.168216 ], [ -68.302904, 12.168077 ], [ -68.297211, 12.164907 ], [ -68.294857, 12.162302 ], [ -68.292721, 12.157069 ], [ -68.29484, 12.15081 ] ] ], [ [ [ -68.639235, 11.981652 ], [ -68.643067, 11.978794 ], [ -68.644265, 11.985721 ], [ -68.645734, 11.988773 ], [ -68.647429, 11.997589 ], [ -68.643869, 11.999398 ], [ -68.640478, 11.997646 ], [ -68.638387, 11.991147 ], [ -68.639235, 11.981652 ] ] ], [ [ [ -67.667602, 11.986387 ], [ -67.670311, 11.981698 ], [ -67.677373, 11.984038 ], [ -67.670572, 11.988732 ], [ -67.667602, 11.986387 ] ] ], [ [ [ -67.634849, 11.975338 ], [ -67.634371, 11.971965 ], [ -67.638135, 11.973882 ], [ -67.645059, 11.973438 ], [ -67.646033, 11.974357 ], [ -67.642878, 11.976691 ], [ -67.634849, 11.975338 ] ] ], [ [ [ -67.475236, 11.963576 ], [ -67.480224, 11.962733 ], [ -67.480736, 11.966163 ], [ -67.480071, 11.967407 ], [ -67.474163, 11.965492 ], [ -67.475236, 11.963576 ] ] ], [ [ [ -67.677886, 12.023073 ], [ -67.679364, 12.018353 ], [ -67.683399, 12.019478 ], [ -67.683377, 12.022895 ], [ -67.677886, 12.023073 ] ] ] ] } }
]
}
