{
"type": "FeatureCollection",
"name": "British Virgin Islands",
"crs": { "type": "name", "properties": { "name": "urn:ogc:def:crs:OGC:1.3:CRS84" } },
"features": [
{ "type": "Feature", "properties": { "id": "VG", "CNTR_ID": "VG", "CNTR_NAME": "British Virgin Islands", "NAME_ENGL": "British Virgin Islands", "ISO3_CODE": "VGB", "FID": "VG" }, "geometry": { "type": "MultiPolygon", "coordinates": [ [ [ [ -64.711076, 18.389259 ], [ -64.699672, 18.398547 ], [ -64.687311, 18.397513 ], [ -64.67925, 18.400861 ], [ -64.672328, 18.408978 ], [ -64.67062, 18.418177 ], [ -64.667285, 18.418589 ], [ -64.658083, 18.425642 ], [ -64.66362, 18.432138 ], [ -64.663568, 18.43725 ], [ -64.658785, 18.443344 ], [ -64.649061, 18.440604 ], [ -64.647599, 18.447897 ], [ -64.642863, 18.453356 ], [ -64.612158, 18.449022 ], [ -64.603116, 18.451385 ], [ -64.592687, 18.446164 ], [ -64.587482, 18.449927 ], [ -64.582138, 18.450011 ], [ -64.572066, 18.457747 ], [ -64.562929, 18.459143 ], [ -64.558873, 18.456866 ], [ -64.554815, 18.445712 ], [ -64.553087, 18.446165 ], [ -64.554052, 18.450515 ], [ -64.549136, 18.451631 ], [ -64.549504, 18.448231 ], [ -64.547521, 18.446067 ], [ -64.542642, 18.448352 ], [ -64.539899, 18.447523 ], [ -64.534751, 18.448746 ], [ -64.535809, 18.446421 ], [ -64.531799, 18.444512 ], [ -64.525953, 18.449171 ], [ -64.517178, 18.44203 ], [ -64.514912, 18.434737 ], [ -64.523077, 18.427349 ], [ -64.523837, 18.433299 ], [ -64.527681, 18.438263 ], [ -64.533098, 18.44096 ], [ -64.541504, 18.438285 ], [ -64.544692, 18.439024 ], [ -64.546293, 18.441703 ], [ -64.552856, 18.44439 ], [ -64.555809, 18.438885 ], [ -64.566916, 18.437741 ], [ -64.564603, 18.426885 ], [ -64.570293, 18.420845 ], [ -64.575521, 18.421675 ], [ -64.582138, 18.412776 ], [ -64.58504, 18.415646 ], [ -64.592991, 18.412898 ], [ -64.610763, 18.427338 ], [ -64.616373, 18.427002 ], [ -64.618414, 18.424681 ], [ -64.614732, 18.42211 ], [ -64.617446, 18.417345 ], [ -64.612221, 18.412316 ], [ -64.616941, 18.406552 ], [ -64.631841, 18.406552 ], [ -64.631295, 18.409065 ], [ -64.634195, 18.409023 ], [ -64.633826, 18.397819 ], [ -64.643212, 18.392545 ], [ -64.652111, 18.39227 ], [ -64.667285, 18.382821 ], [ -64.682411, 18.390126 ], [ -64.694715, 18.387114 ], [ -64.696521, 18.381622 ], [ -64.704047, 18.381164 ], [ -64.706208, 18.382731 ], [ -64.701028, 18.386928 ], [ -64.711076, 18.389259 ] ] ], [ [ [ -64.415619, 18.74063 ], [ -64.412044, 18.745451 ], [ -64.395296, 18.745531 ], [ -64.387564, 18.748871 ], [ -64.368851, 18.742799 ], [ -64.359329, 18.744568 ], [ -64.347957, 18.741907 ], [ -64.336859, 18.748768 ], [ -64.328322, 18.747723 ], [ -64.314753, 18.743423 ], [ -64.294728, 18.729808 ], [ -64.273651, 18.705479 ], [ -64.271296, 18.692035 ], [ -64.277731, 18.689697 ], [ -64.289413, 18.698968 ], [ -64.310233, 18.709304 ], [ -64.313444, 18.71412 ], [ -64.328322, 18.717475 ], [ -64.349107, 18.717693 ], [ -64.370448, 18.724882 ], [ -64.380858, 18.724178 ], [ -64.388581, 18.726697 ], [ -64.399123, 18.723486 ], [ -64.415619, 18.74063 ] ] ], [ [ [ -64.444837, 18.427207 ], [ -64.443203, 18.44189 ], [ -64.437378, 18.451714 ], [ -64.442259, 18.4592 ], [ -64.438285, 18.461657 ], [ -64.431989, 18.460549 ], [ -64.427172, 18.465304 ], [ -64.419692, 18.464728 ], [ -64.414885, 18.469192 ], [ -64.411395, 18.496463 ], [ -64.414101, 18.502544 ], [ -64.396698, 18.503167 ], [ -64.390395, 18.497647 ], [ -64.381319, 18.496127 ], [ -64.381991, 18.491305 ], [ -64.37913, 18.489712 ], [ -64.358334, 18.492237 ], [ -64.357497, 18.500408 ], [ -64.354446, 18.50222 ], [ -64.349226, 18.502062 ], [ -64.348462, 18.496474 ], [ -64.33902, 18.501746 ], [ -64.328322, 18.501419 ], [ -64.326266, 18.503364 ], [ -64.322845, 18.502928 ], [ -64.328322, 18.495887 ], [ -64.349927, 18.493379 ], [ -64.358179, 18.486085 ], [ -64.369761, 18.484954 ], [ -64.375276, 18.481636 ], [ -64.38619, 18.484585 ], [ -64.39, 18.476851 ], [ -64.387853, 18.468449 ], [ -64.408022, 18.467891 ], [ -64.425321, 18.458013 ], [ -64.428766, 18.440653 ], [ -64.424588, 18.431475 ], [ -64.435876, 18.430162 ], [ -64.44208, 18.425938 ], [ -64.444837, 18.427207 ] ] ], [ [ [ -64.77951, 18.443057 ], [ -64.763005, 18.450089 ], [ -64.753757, 18.458534 ], [ -64.729511, 18.454372 ], [ -64.727073, 18.44617 ], [ -64.722017, 18.443304 ], [ -64.721115, 18.439355 ], [ -64.723392, 18.43763 ], [ -64.731233, 18.440447 ], [ -64.731679, 18.436895 ], [ -64.73737, 18.435564 ], [ -64.745517, 18.438717 ], [ -64.750172, 18.444519 ], [ -64.753757, 18.44433 ], [ -64.753757, 18.438407 ], [ -64.76365, 18.442651 ], [ -64.774913, 18.440333 ], [ -64.77951, 18.443057 ] ] ], [ [ [ -64.607384, 18.351283 ], [ -64.60686, 18.352146 ], [ -64.594527, 18.35743 ], [ -64.582132, 18.35484 ], [ -64.567354, 18.355414 ], [ -64.566272, 18.330467 ], [ -64.572469, 18.333161 ], [ -64.571104, 18.338852 ], [ -64.574534, 18.349253 ], [ -64.582132, 18.351206 ], [ -64.596195, 18.348256 ], [ -64.60669, 18.350536 ], [ -64.607384, 18.351283 ] ] ], [ [ [ -64.539913, 18.464377 ], [ -64.536236, 18.465692 ], [ -64.534114, 18.472311 ], [ -64.537678, 18.472418 ], [ -64.534444, 18.476478 ], [ -64.539112, 18.479868 ], [ -64.538442, 18.484232 ], [ -64.536339, 18.485967 ], [ -64.539234, 18.491055 ], [ -64.533558, 18.495508 ], [ -64.530022, 18.495768 ], [ -64.532417, 18.492209 ], [ -64.531323, 18.489562 ], [ -64.527172, 18.485523 ], [ -64.527532, 18.481147 ], [ -64.530606, 18.47655 ], [ -64.531012, 18.470263 ], [ -64.526037, 18.46794 ], [ -64.523297, 18.471513 ], [ -64.519416, 18.467497 ], [ -64.523325, 18.465054 ], [ -64.52488, 18.467512 ], [ -64.528664, 18.462195 ], [ -64.532464, 18.461837 ], [ -64.533416, 18.458528 ], [ -64.538395, 18.457008 ], [ -64.538574, 18.46241 ], [ -64.539913, 18.464377 ] ] ], [ [ [ -64.582131, 18.4749 ], [ -64.582131, 18.477133 ], [ -64.578822, 18.478903 ], [ -64.577877, 18.481645 ], [ -64.579269, 18.485615 ], [ -64.582131, 18.485998 ], [ -64.582131, 18.48813 ], [ -64.578094, 18.488742 ], [ -64.572039, 18.480014 ], [ -64.56001, 18.478907 ], [ -64.558254, 18.474389 ], [ -64.568579, 18.464903 ], [ -64.575599, 18.473975 ], [ -64.582131, 18.4749 ] ] ], [ [ [ -64.6276, 18.309382 ], [ -64.624878, 18.310048 ], [ -64.62354, 18.315076 ], [ -64.618464, 18.31305 ], [ -64.613744, 18.318841 ], [ -64.620734, 18.320226 ], [ -64.621497, 18.323822 ], [ -64.618742, 18.323816 ], [ -64.614872, 18.32079 ], [ -64.611212, 18.323085 ], [ -64.610023, 18.321098 ], [ -64.606248, 18.320655 ], [ -64.603292, 18.323847 ], [ -64.598474, 18.322367 ], [ -64.592795, 18.32354 ], [ -64.590357, 18.322797 ], [ -64.591525, 18.317478 ], [ -64.600399, 18.320565 ], [ -64.607186, 18.317635 ], [ -64.611765, 18.312942 ], [ -64.610568, 18.310005 ], [ -64.613665, 18.310338 ], [ -64.616683, 18.308607 ], [ -64.620566, 18.308824 ], [ -64.624782, 18.30697 ], [ -64.6276, 18.309382 ] ] ], [ [ [ -64.752731, 18.382918 ], [ -64.750588, 18.38497 ], [ -64.741213, 18.388947 ], [ -64.734584, 18.388807 ], [ -64.725927, 18.391363 ], [ -64.725077, 18.388894 ], [ -64.733225, 18.387409 ], [ -64.737231, 18.384212 ], [ -64.737431, 18.381241 ], [ -64.741659, 18.383292 ], [ -64.74873, 18.382287 ], [ -64.752731, 18.382918 ] ] ], [ [ [ -64.483834, 18.388328 ], [ -64.478485, 18.39263 ], [ -64.470076, 18.393461 ], [ -64.468665, 18.391338 ], [ -64.470311, 18.388637 ], [ -64.474591, 18.389717 ], [ -64.476336, 18.386783 ], [ -64.471187, 18.38409 ], [ -64.472987, 18.38212 ], [ -64.479336, 18.383928 ], [ -64.480139, 18.387275 ], [ -64.483834, 18.388328 ] ] ], [ [ [ -64.534554, 18.37164 ], [ -64.530817, 18.372665 ], [ -64.527419, 18.376358 ], [ -64.522878, 18.375724 ], [ -64.525108, 18.369519 ], [ -64.521578, 18.366055 ], [ -64.522769, 18.362984 ], [ -64.525143, 18.363254 ], [ -64.528161, 18.369943 ], [ -64.530971, 18.368985 ], [ -64.534554, 18.37164 ] ] ], [ [ [ -64.374847, 18.513154 ], [ -64.369117, 18.513044 ], [ -64.365962, 18.507139 ], [ -64.360381, 18.506256 ], [ -64.359513, 18.504381 ], [ -64.368591, 18.502684 ], [ -64.369464, 18.506741 ], [ -64.374746, 18.511677 ], [ -64.374847, 18.513154 ] ] ], [ [ [ -64.517916, 18.467598 ], [ -64.512862, 18.47175 ], [ -64.503123, 18.470204 ], [ -64.502801, 18.468626 ], [ -64.507878, 18.46569 ], [ -64.512202, 18.465518 ], [ -64.517916, 18.467598 ] ] ], [ [ [ -64.515429, 18.380245 ], [ -64.512152, 18.386514 ], [ -64.504721, 18.38365 ], [ -64.50841, 18.37964 ], [ -64.508749, 18.375988 ], [ -64.512489, 18.37723 ], [ -64.515429, 18.380245 ] ] ], [ [ [ -64.725839, 18.452844 ], [ -64.724951, 18.456022 ], [ -64.721471, 18.458434 ], [ -64.720036, 18.456751 ], [ -64.715118, 18.455518 ], [ -64.71434, 18.453918 ], [ -64.718775, 18.450926 ], [ -64.725839, 18.452844 ] ] ], [ [ [ -64.509084, 18.372696 ], [ -64.499468, 18.373318 ], [ -64.498196, 18.370525 ], [ -64.499468, 18.36708 ], [ -64.5081, 18.369722 ], [ -64.509084, 18.372696 ] ] ], [ [ [ -64.400668, 18.510596 ], [ -64.395213, 18.512074 ], [ -64.391956, 18.515214 ], [ -64.390038, 18.514407 ], [ -64.391838, 18.508849 ], [ -64.397185, 18.506906 ], [ -64.400668, 18.510596 ] ] ], [ [ [ -64.361021, 18.527394 ], [ -64.358963, 18.529589 ], [ -64.355461, 18.529846 ], [ -64.353592, 18.528232 ], [ -64.358089, 18.523763 ], [ -64.360593, 18.524941 ], [ -64.361021, 18.527394 ] ] ], [ [ [ -64.461329, 18.483443 ], [ -64.459039, 18.485195 ], [ -64.453745, 18.482145 ], [ -64.455232, 18.48072 ], [ -64.459962, 18.480926 ], [ -64.461329, 18.483443 ] ] ], [ [ [ -64.566306, 18.364588 ], [ -64.563199, 18.368159 ], [ -64.559568, 18.364486 ], [ -64.565645, 18.362513 ], [ -64.566306, 18.364588 ] ] ], [ [ [ -64.719457, 18.381095 ], [ -64.717595, 18.383173 ], [ -64.711755, 18.383549 ], [ -64.712424, 18.379849 ], [ -64.719457, 18.381095 ] ] ], [ [ [ -64.453464, 18.415618 ], [ -64.451906, 18.421026 ], [ -64.448835, 18.420543 ], [ -64.449489, 18.416844 ], [ -64.452209, 18.414239 ], [ -64.453464, 18.415618 ] ] ], [ [ [ -64.561445, 18.423959 ], [ -64.559544, 18.427119 ], [ -64.554548, 18.42265 ], [ -64.557893, 18.421254 ], [ -64.561445, 18.423959 ] ] ], [ [ [ -64.54562, 18.457567 ], [ -64.544669, 18.460605 ], [ -64.541432, 18.460983 ], [ -64.540385, 18.457366 ], [ -64.542947, 18.455541 ], [ -64.54562, 18.457567 ] ] ], [ [ [ -64.475442, 18.48241 ], [ -64.47358, 18.486818 ], [ -64.470743, 18.485868 ], [ -64.470667, 18.482299 ], [ -64.474903, 18.480941 ], [ -64.475442, 18.48241 ] ] ], [ [ [ -64.460515, 18.494015 ], [ -64.457911, 18.495792 ], [ -64.453844, 18.492511 ], [ -64.457148, 18.489884 ], [ -64.460515, 18.494015 ] ] ], [ [ [ -64.362099, 18.509134 ], [ -64.359529, 18.512307 ], [ -64.355035, 18.510666 ], [ -64.358264, 18.507165 ], [ -64.362099, 18.509134 ] ] ], [ [ [ -64.453682, 18.481627 ], [ -64.453389, 18.482354 ], [ -64.451269, 18.483522 ], [ -64.450516, 18.482951 ], [ -64.450893, 18.480753 ], [ -64.453006, 18.480843 ], [ -64.453682, 18.481627 ] ] ] ] } }
]
}
