{
"type": "FeatureCollection",
"name": "British Indian Ocean Territory",
"crs": { "type": "name", "properties": { "name": "urn:ogc:def:crs:OGC:1.3:CRS84" } },
"features": [
{ "type": "Feature", "properties": { "id": "IO", "CNTR_ID": "IO", "CNTR_NAME": "British Indian Ocean Territory", "NAME_ENGL": "British Indian Ocean Territory", "ISO3_CODE": "IOT", "FID": "IO" }, "geometry": { "type": "MultiPolygon", "coordinates": [ [ [ [ 72.353606, -7.270737 ], [ 72.354542, -7.268624 ], [ 72.359017, -7.265572 ], [ 72.363911, -7.264003 ], [ 72.372711, -7.258913 ], [ 72.374098, -7.259948 ], [ 72.379671, -7.257825 ], [ 72.378939, -7.263598 ], [ 72.375153, -7.269979 ], [ 72.374088, -7.273852 ], [ 72.376097, -7.281182 ], [ 72.383253, -7.287842 ], [ 72.385964, -7.287543 ], [ 72.390414, -7.290623 ], [ 72.39206, -7.293754 ], [ 72.395132, -7.290877 ], [ 72.400149, -7.296003 ], [ 72.407354, -7.296999 ], [ 72.406103, -7.301148 ], [ 72.407623, -7.307962 ], [ 72.411588, -7.30612 ], [ 72.415492, -7.30804 ], [ 72.418326, -7.306707 ], [ 72.426637, -7.310804 ], [ 72.426702, -7.312671 ], [ 72.432502, -7.315834 ], [ 72.42994, -7.319307 ], [ 72.428753, -7.324916 ], [ 72.429528, -7.329717 ], [ 72.432661, -7.337488 ], [ 72.432661, -7.343132 ], [ 72.433984, -7.345309 ], [ 72.434195, -7.359936 ], [ 72.430348, -7.361249 ], [ 72.431844, -7.353387 ], [ 72.430477, -7.340368 ], [ 72.427078, -7.330073 ], [ 72.417257, -7.320161 ], [ 72.404616, -7.313626 ], [ 72.401938, -7.310291 ], [ 72.397592, -7.307656 ], [ 72.392558, -7.301734 ], [ 72.376573, -7.286305 ], [ 72.372033, -7.283232 ], [ 72.362219, -7.279513 ], [ 72.355833, -7.275314 ], [ 72.353606, -7.270737 ] ] ], [ [ [ 72.433686, -7.431638 ], [ 72.438604, -7.429274 ], [ 72.445204, -7.420273 ], [ 72.445076, -7.416757 ], [ 72.454026, -7.402354 ], [ 72.459024, -7.397313 ], [ 72.46583, -7.393975 ], [ 72.467142, -7.396931 ], [ 72.471342, -7.394357 ], [ 72.469275, -7.392518 ], [ 72.477901, -7.384275 ], [ 72.48133, -7.388007 ], [ 72.483431, -7.384762 ], [ 72.486264, -7.383665 ], [ 72.486132, -7.380602 ], [ 72.481306, -7.378435 ], [ 72.480708, -7.373861 ], [ 72.477237, -7.371023 ], [ 72.476998, -7.368251 ], [ 72.473799, -7.360209 ], [ 72.47115, -7.3563 ], [ 72.46361, -7.352456 ], [ 72.46957, -7.337722 ], [ 72.470936, -7.33249 ], [ 72.473905, -7.327231 ], [ 72.482257, -7.316845 ], [ 72.488494, -7.306062 ], [ 72.491024, -7.298442 ], [ 72.491196, -7.293594 ], [ 72.488814, -7.28937 ], [ 72.491569, -7.289759 ], [ 72.49441, -7.297195 ], [ 72.494047, -7.304854 ], [ 72.490843, -7.312862 ], [ 72.484638, -7.321834 ], [ 72.476031, -7.330901 ], [ 72.474664, -7.334386 ], [ 72.473051, -7.344353 ], [ 72.473542, -7.354076 ], [ 72.476906, -7.360389 ], [ 72.479, -7.36685 ], [ 72.488301, -7.372558 ], [ 72.492915, -7.381402 ], [ 72.489337, -7.385977 ], [ 72.481467, -7.393221 ], [ 72.472784, -7.398919 ], [ 72.463493, -7.40395 ], [ 72.456615, -7.410811 ], [ 72.451182, -7.417702 ], [ 72.439886, -7.439631 ], [ 72.43634, -7.442194 ], [ 72.43528, -7.439306 ], [ 72.438633, -7.437845 ], [ 72.438676, -7.43524 ], [ 72.433686, -7.431638 ] ] ], [ [ [ 71.312712, -6.205241 ], [ 71.317392, -6.199933 ], [ 71.323389, -6.188787 ], [ 71.328082, -6.183956 ], [ 71.3314, -6.178088 ], [ 71.334624, -6.174977 ], [ 71.340972, -6.175335 ], [ 71.342088, -6.17969 ], [ 71.33203, -6.187404 ], [ 71.324437, -6.195413 ], [ 71.31953, -6.202593 ], [ 71.314101, -6.206084 ], [ 71.312712, -6.205241 ] ] ], [ [ [ 71.367102, -6.682257 ], [ 71.368466, -6.679437 ], [ 71.383077, -6.683847 ], [ 71.389237, -6.678662 ], [ 71.392892, -6.685645 ], [ 71.394806, -6.691486 ], [ 71.392857, -6.693457 ], [ 71.387845, -6.693664 ], [ 71.387915, -6.691417 ], [ 71.380397, -6.68758 ], [ 71.373019, -6.682637 ], [ 71.367102, -6.682257 ] ] ], [ [ [ 71.755461, -5.446564 ], [ 71.7565, -5.444688 ], [ 71.764264, -5.451083 ], [ 71.777645, -5.455002 ], [ 71.779409, -5.458235 ], [ 71.772858, -5.458557 ], [ 71.760615, -5.453916 ], [ 71.755461, -5.446564 ] ] ], [ [ [ 72.421932, -7.38901 ], [ 72.424265, -7.378809 ], [ 72.42858, -7.369706 ], [ 72.429803, -7.365526 ], [ 72.432776, -7.368468 ], [ 72.431647, -7.374892 ], [ 72.423501, -7.38986 ], [ 72.421932, -7.38901 ] ] ], [ [ [ 71.321199, -6.661003 ], [ 71.322747, -6.660372 ], [ 71.328145, -6.664377 ], [ 71.341665, -6.666449 ], [ 71.341302, -6.66784 ], [ 71.334973, -6.672127 ], [ 71.329475, -6.670983 ], [ 71.321199, -6.661003 ] ] ], [ [ [ 72.200168, -5.351058 ], [ 72.201181, -5.349008 ], [ 72.207289, -5.350957 ], [ 72.207592, -5.357575 ], [ 72.211304, -5.361641 ], [ 72.213531, -5.361641 ], [ 72.214409, -5.364396 ], [ 72.211237, -5.365403 ], [ 72.205028, -5.362178 ], [ 72.200168, -5.351058 ] ] ], [ [ [ 71.755639, -5.258402 ], [ 71.761519, -5.250834 ], [ 71.764242, -5.248678 ], [ 71.770482, -5.247301 ], [ 71.772456, -5.249637 ], [ 71.766748, -5.252601 ], [ 71.756931, -5.26103 ], [ 71.755639, -5.258402 ] ] ], [ [ [ 71.748065, -5.411003 ], [ 71.748379, -5.405422 ], [ 71.751803, -5.396662 ], [ 71.754116, -5.397939 ], [ 71.754139, -5.405701 ], [ 71.752793, -5.414556 ], [ 71.748065, -5.411003 ] ] ], [ [ [ 71.73468, -5.296096 ], [ 71.735913, -5.288046 ], [ 71.737767, -5.287662 ], [ 71.739008, -5.283516 ], [ 71.743404, -5.282048 ], [ 71.744505, -5.283291 ], [ 71.737005, -5.298792 ], [ 71.73468, -5.296096 ] ] ], [ [ [ 72.433704, -7.233141 ], [ 72.439519, -7.234205 ], [ 72.446348, -7.238582 ], [ 72.445772, -7.240509 ], [ 72.440431, -7.23934 ], [ 72.435313, -7.239865 ], [ 72.433704, -7.233141 ] ] ], [ [ [ 71.74778, -5.340003 ], [ 71.750801, -5.340441 ], [ 71.753054, -5.352283 ], [ 71.755185, -5.353455 ], [ 71.756567, -5.358813 ], [ 71.754541, -5.36006 ], [ 71.752882, -5.354669 ], [ 71.750434, -5.35197 ], [ 71.74778, -5.340003 ] ] ], [ [ [ 72.457071, -7.266182 ], [ 72.458641, -7.265542 ], [ 72.464519, -7.271717 ], [ 72.474334, -7.277986 ], [ 72.473465, -7.279693 ], [ 72.469147, -7.278064 ], [ 72.461884, -7.27305 ], [ 72.457071, -7.266182 ] ] ], [ [ [ 71.237769, -6.384379 ], [ 71.238588, -6.379652 ], [ 71.242257, -6.382701 ], [ 71.242257, -6.393341 ], [ 71.239087, -6.39473 ], [ 71.237769, -6.384379 ] ] ], [ [ [ 71.958755, -5.24086 ], [ 71.96398, -5.238584 ], [ 71.96723, -5.246803 ], [ 71.966802, -5.24803 ], [ 71.958898, -5.24422 ], [ 71.958755, -5.24086 ] ] ], [ [ [ 72.417971, -7.403174 ], [ 72.418774, -7.399004 ], [ 72.421749, -7.400241 ], [ 72.420511, -7.405098 ], [ 72.421551, -7.415804 ], [ 72.41963, -7.416 ], [ 72.417971, -7.403174 ] ] ], [ [ [ 72.268343, -5.332881 ], [ 72.269429, -5.327131 ], [ 72.271665, -5.326264 ], [ 72.273909, -5.331325 ], [ 72.277544, -5.33305 ], [ 72.276635, -5.334973 ], [ 72.268343, -5.332881 ] ] ], [ [ [ 72.221872, -5.325826 ], [ 72.223454, -5.321005 ], [ 72.228824, -5.31384 ], [ 72.23054, -5.314677 ], [ 72.228897, -5.318932 ], [ 72.223518, -5.326362 ], [ 72.221872, -5.325826 ] ] ], [ [ [ 72.261429, -5.345336 ], [ 72.264795, -5.341775 ], [ 72.267206, -5.336632 ], [ 72.269584, -5.336977 ], [ 72.270243, -5.340383 ], [ 72.264423, -5.345571 ], [ 72.261429, -5.345336 ] ] ], [ [ [ 71.313204, -6.654223 ], [ 71.317048, -6.650414 ], [ 71.319847, -6.657087 ], [ 71.316014, -6.659555 ], [ 71.313204, -6.654223 ] ] ], [ [ [ 72.250018, -5.30178 ], [ 72.255941, -5.299328 ], [ 72.257026, -5.304492 ], [ 72.252045, -5.304436 ], [ 72.250018, -5.30178 ] ] ], [ [ [ 71.82104, -5.236597 ], [ 71.829322, -5.235317 ], [ 71.831474, -5.237171 ], [ 71.82186, -5.239183 ], [ 71.82104, -5.236597 ] ] ], [ [ [ 71.733382, -5.306104 ], [ 71.733942, -5.302334 ], [ 71.736175, -5.301918 ], [ 71.735853, -5.31085 ], [ 71.733407, -5.310199 ], [ 71.733382, -5.306104 ] ] ], [ [ [ 71.919334, -5.25892 ], [ 71.926667, -5.25602 ], [ 71.927504, -5.259236 ], [ 71.920425, -5.260827 ], [ 71.919334, -5.25892 ] ] ], [ [ [ 72.424374, -7.442077 ], [ 72.430668, -7.438856 ], [ 72.431016, -7.443819 ], [ 72.427658, -7.444256 ], [ 72.424374, -7.442077 ] ] ], [ [ [ 72.419453, -7.397285 ], [ 72.420919, -7.391464 ], [ 72.424439, -7.392353 ], [ 72.422578, -7.397995 ], [ 72.419453, -7.397285 ] ] ], [ [ [ 71.813846, -5.244486 ], [ 71.816229, -5.238105 ], [ 71.819557, -5.240427 ], [ 71.815981, -5.245316 ], [ 71.813846, -5.244486 ] ] ], [ [ [ 71.840962, -5.262518 ], [ 71.844436, -5.261026 ], [ 71.847465, -5.263248 ], [ 71.845999, -5.265788 ], [ 71.841854, -5.265153 ], [ 71.840962, -5.262518 ] ] ], [ [ [ 71.747922, -5.266634 ], [ 71.75111, -5.262029 ], [ 71.754148, -5.264747 ], [ 71.751543, -5.268352 ], [ 71.747922, -5.266634 ] ] ], [ [ [ 71.892475, -5.269319 ], [ 71.896519, -5.267281 ], [ 71.899066, -5.268012 ], [ 71.898293, -5.27111 ], [ 71.893937, -5.271939 ], [ 71.892475, -5.269319 ] ] ], [ [ [ 71.882278, -5.271375 ], [ 71.885474, -5.26872 ], [ 71.889674, -5.268676 ], [ 71.888645, -5.271415 ], [ 71.884696, -5.273227 ], [ 71.882278, -5.271375 ] ] ], [ [ [ 71.970766, -5.337285 ], [ 71.973178, -5.334942 ], [ 71.976179, -5.338925 ], [ 71.974065, -5.342631 ], [ 71.970766, -5.337285 ] ] ], [ [ [ 71.753739, -5.373393 ], [ 71.75484, -5.364064 ], [ 71.756793, -5.364872 ], [ 71.756643, -5.372187 ], [ 71.753739, -5.373393 ] ] ], [ [ [ 71.967198, -5.375598 ], [ 71.970086, -5.36841 ], [ 71.972405, -5.370622 ], [ 71.968944, -5.377215 ], [ 71.967198, -5.375598 ] ] ], [ [ [ 71.748717, -5.423093 ], [ 71.749214, -5.420163 ], [ 71.75283, -5.419775 ], [ 71.753121, -5.425029 ], [ 71.749178, -5.424928 ], [ 71.748717, -5.423093 ] ] ], [ [ [ 71.825867, -5.424735 ], [ 71.829703, -5.421721 ], [ 71.833763, -5.423976 ], [ 71.828738, -5.426901 ], [ 71.825867, -5.424735 ] ] ], [ [ [ 71.751875, -5.437048 ], [ 71.754169, -5.435886 ], [ 71.756341, -5.443139 ], [ 71.752423, -5.442499 ], [ 71.751875, -5.437048 ] ] ], [ [ [ 72.306933, -5.682096 ], [ 72.308868, -5.679262 ], [ 72.3141, -5.679912 ], [ 72.314232, -5.681657 ], [ 72.309671, -5.683476 ], [ 72.306933, -5.682096 ] ] ], [ [ [ 71.500969, -6.135912 ], [ 71.501465, -6.133671 ], [ 71.505115, -6.134075 ], [ 71.506017, -6.138108 ], [ 71.503538, -6.139676 ], [ 71.500969, -6.135912 ] ] ], [ [ [ 71.513981, -6.152392 ], [ 71.516496, -6.152348 ], [ 71.51954, -6.154541 ], [ 71.518923, -6.156295 ], [ 71.515746, -6.157524 ], [ 71.51429, -6.156076 ], [ 71.513981, -6.152392 ] ] ], [ [ [ 71.537194, -6.169951 ], [ 71.538321, -6.169089 ], [ 71.54413, -6.169942 ], [ 71.545206, -6.172237 ], [ 71.543921, -6.173558 ], [ 71.53779, -6.170969 ], [ 71.537194, -6.169951 ] ] ], [ [ [ 71.291927, -6.233408 ], [ 71.294899, -6.231287 ], [ 71.297847, -6.234696 ], [ 71.294061, -6.237879 ], [ 71.291927, -6.233408 ] ] ], [ [ [ 72.415125, -7.227738 ], [ 72.421715, -7.224009 ], [ 72.42385, -7.226484 ], [ 72.41735, -7.229225 ], [ 72.415125, -7.227738 ] ] ], [ [ [ 72.426398, -7.435549 ], [ 72.426398, -7.430017 ], [ 72.428799, -7.430408 ], [ 72.431092, -7.436628 ], [ 72.426398, -7.435549 ] ] ], [ [ [ 72.420943, -7.431828 ], [ 72.424115, -7.431983 ], [ 72.424702, -7.438103 ], [ 72.421077, -7.437556 ], [ 72.420943, -7.431828 ] ] ] ] } }
]
}
