{
"type": "FeatureCollection",
"name": "Brunei",
"crs": { "type": "name", "properties": { "name": "urn:ogc:def:crs:OGC:1.3:CRS84" } },
"features": [
{ "type": "Feature", "properties": { "id": "BN", "CNTR_ID": "BN", "CNTR_NAME": "Brunei", "NAME_ENGL": "Brunei", "ISO3_CODE": "BRN", "FID": "BN" }, "geometry": { "type": "MultiPolygon", "coordinates": [ [ [ [ 115.011638, 4.89172 ], [ 114.98869, 4.871701 ], [ 114.991999, 4.856334 ], [ 114.983854, 4.849014 ], [ 114.986733, 4.837488 ], [ 114.972771, 4.812528 ], [ 114.939353, 4.815297 ], [ 114.91704, 4.811977 ], [ 114.907209, 4.815292 ], [ 114.885916, 4.814025 ], [ 114.847762, 4.793127 ], [ 114.824967, 4.747594 ], [ 114.796273, 4.739724 ], [ 114.777558, 4.728823 ], [ 114.783226, 4.706514 ], [ 114.776885, 4.695171 ], [ 114.78435, 4.688692 ], [ 114.787681, 4.681169 ], [ 114.798387, 4.679807 ], [ 114.800767, 4.677105 ], [ 114.797368, 4.664999 ], [ 114.799982, 4.6366 ], [ 114.807823, 4.62742 ], [ 114.809111, 4.598527 ], [ 114.816132, 4.594089 ], [ 114.817759, 4.587384 ], [ 114.815949, 4.56617 ], [ 114.820053, 4.538036 ], [ 114.817677, 4.478635 ], [ 114.826371, 4.448605 ], [ 114.826541, 4.436515 ], [ 114.831177, 4.428427 ], [ 114.843934, 4.422235 ], [ 114.865654, 4.422505 ], [ 114.876354, 4.42562 ], [ 114.881957, 4.423458 ], [ 114.88234, 4.405536 ], [ 114.878428, 4.394618 ], [ 114.879684, 4.371014 ], [ 114.868512, 4.333583 ], [ 114.811812, 4.253738 ], [ 114.812422, 4.249091 ], [ 114.815954, 4.248645 ], [ 114.838912, 4.263818 ], [ 114.848834, 4.277655 ], [ 114.856287, 4.277512 ], [ 114.856597, 4.268022 ], [ 114.84076, 4.236117 ], [ 114.825569, 4.212384 ], [ 114.807452, 4.192192 ], [ 114.80108, 4.177479 ], [ 114.796187, 4.161493 ], [ 114.807314, 4.160583 ], [ 114.809265, 4.154121 ], [ 114.803642, 4.144356 ], [ 114.792322, 4.124697 ], [ 114.78146, 4.119497 ], [ 114.757623, 4.095089 ], [ 114.722429, 4.047625 ], [ 114.689862, 4.022314 ], [ 114.649817, 4.006459 ], [ 114.62443, 4.002384 ], [ 114.613918, 4.003347 ], [ 114.612458, 4.00668 ], [ 114.624832, 4.019868 ], [ 114.623411, 4.033802 ], [ 114.601737, 4.048324 ], [ 114.570856, 4.045578 ], [ 114.568215, 4.055577 ], [ 114.559689, 4.068536 ], [ 114.548087, 4.077806 ], [ 114.549237, 4.088017 ], [ 114.545328, 4.102296 ], [ 114.546878, 4.113303 ], [ 114.544214, 4.124041 ], [ 114.518392, 4.144356 ], [ 114.496814, 4.148188 ], [ 114.484227, 4.166101 ], [ 114.47155, 4.198961 ], [ 114.459661, 4.220307 ], [ 114.455306, 4.264027 ], [ 114.448563, 4.276886 ], [ 114.442622, 4.277992 ], [ 114.432315, 4.271563 ], [ 114.419807, 4.250417 ], [ 114.410633, 4.25179 ], [ 114.401, 4.260363 ], [ 114.389009, 4.263729 ], [ 114.37474, 4.264201 ], [ 114.360784, 4.257907 ], [ 114.332087, 4.257032 ], [ 114.320245, 4.263857 ], [ 114.317038, 4.278714 ], [ 114.328036, 4.343764 ], [ 114.30853, 4.362228 ], [ 114.309944, 4.390529 ], [ 114.302936, 4.415174 ], [ 114.25516, 4.50396 ], [ 114.215, 4.530899 ], [ 114.195953, 4.532816 ], [ 114.180056, 4.552808 ], [ 114.177433, 4.555014 ], [ 114.159102, 4.570433 ], [ 114.080887, 4.580899 ], [ 114.071457, 4.588868 ], [ 114.177433, 4.589167 ], [ 114.234163, 4.595728 ], [ 114.296633, 4.611481 ], [ 114.340538, 4.62573 ], [ 114.363751, 4.63591 ], [ 114.442671, 4.664197 ], [ 114.512203, 4.704085 ], [ 114.54721, 4.733572 ], [ 114.58802, 4.767944 ], [ 114.601492, 4.769737 ], [ 114.613344, 4.78469 ], [ 114.626006, 4.787655 ], [ 114.627029, 4.790753 ], [ 114.618385, 4.791285 ], [ 114.617291, 4.793509 ], [ 114.675834, 4.845919 ], [ 114.754081, 4.896716 ], [ 114.849239, 4.969125 ], [ 114.863514, 4.970993 ], [ 114.896031, 4.988102 ], [ 114.93001, 5.001873 ], [ 115.051422, 5.046014 ], [ 115.054807, 5.045844 ], [ 115.061338, 5.03879 ], [ 115.071665, 5.036206 ], [ 115.106892, 5.044949 ], [ 115.114768, 5.043941 ], [ 115.11313, 5.04039 ], [ 115.094333, 5.037352 ], [ 115.074, 5.028627 ], [ 115.065242, 5.021304 ], [ 115.068248, 5.019453 ], [ 115.077289, 5.021535 ], [ 115.094792, 5.011619 ], [ 115.116376, 5.011178 ], [ 115.124722, 5.003209 ], [ 115.123424, 4.995361 ], [ 115.088947, 4.996784 ], [ 115.082736, 5.004922 ], [ 115.075102, 5.008889 ], [ 115.060686, 5.00177 ], [ 115.046383, 5.004919 ], [ 115.033246, 5.003066 ], [ 115.035471, 4.981583 ], [ 115.04325, 4.970228 ], [ 115.024445, 4.951483 ], [ 115.014428, 4.933423 ], [ 115.01332, 4.923679 ], [ 115.018811, 4.918462 ], [ 115.021093, 4.910692 ], [ 115.018859, 4.903561 ], [ 115.007002, 4.893438 ], [ 115.011638, 4.89172 ] ] ], [ [ [ 115.154585, 4.912764 ], [ 115.159378, 4.88863 ], [ 115.152624, 4.885103 ], [ 115.150408, 4.872927 ], [ 115.158373, 4.869133 ], [ 115.168563, 4.872509 ], [ 115.184138, 4.866594 ], [ 115.182879, 4.852438 ], [ 115.190717, 4.84069 ], [ 115.237037, 4.804141 ], [ 115.229736, 4.761812 ], [ 115.243077, 4.743905 ], [ 115.254931, 4.737158 ], [ 115.259923, 4.729268 ], [ 115.254696, 4.714005 ], [ 115.244324, 4.698569 ], [ 115.248742, 4.692749 ], [ 115.258674, 4.691221 ], [ 115.269911, 4.684125 ], [ 115.267706, 4.668946 ], [ 115.260365, 4.650887 ], [ 115.28353, 4.635471 ], [ 115.290049, 4.609201 ], [ 115.285101, 4.59709 ], [ 115.287349, 4.588233 ], [ 115.28572, 4.574754 ], [ 115.275244, 4.566428 ], [ 115.267256, 4.528804 ], [ 115.268576, 4.511137 ], [ 115.277376, 4.507203 ], [ 115.273478, 4.483944 ], [ 115.278679, 4.473317 ], [ 115.273023, 4.447166 ], [ 115.281452, 4.431479 ], [ 115.2977, 4.413268 ], [ 115.302116, 4.400159 ], [ 115.32256, 4.391255 ], [ 115.332424, 4.383814 ], [ 115.346769, 4.357787 ], [ 115.363569, 4.340719 ], [ 115.355926, 4.323338 ], [ 115.333524, 4.300695 ], [ 115.324175, 4.297212 ], [ 115.319026, 4.299323 ], [ 115.30015, 4.318085 ], [ 115.295489, 4.326993 ], [ 115.295816, 4.335906 ], [ 115.281942, 4.336972 ], [ 115.272182, 4.342813 ], [ 115.259609, 4.335983 ], [ 115.251271, 4.337889 ], [ 115.245866, 4.34465 ], [ 115.244247, 4.362826 ], [ 115.23885, 4.366611 ], [ 115.216361, 4.359334 ], [ 115.198837, 4.361494 ], [ 115.186015, 4.369729 ], [ 115.173158, 4.370259 ], [ 115.159883, 4.37557 ], [ 115.149038, 4.383458 ], [ 115.136701, 4.374247 ], [ 115.11134, 4.371242 ], [ 115.102589, 4.382239 ], [ 115.091672, 4.387675 ], [ 115.102685, 4.405938 ], [ 115.104223, 4.41523 ], [ 115.096243, 4.427752 ], [ 115.092049, 4.44199 ], [ 115.098187, 4.458744 ], [ 115.096961, 4.472516 ], [ 115.092058, 4.479083 ], [ 115.094816, 4.491521 ], [ 115.080586, 4.517334 ], [ 115.084745, 4.528529 ], [ 115.082029, 4.536331 ], [ 115.073037, 4.547122 ], [ 115.072054, 4.557707 ], [ 115.074479, 4.564346 ], [ 115.070365, 4.576893 ], [ 115.064128, 4.584422 ], [ 115.061964, 4.593338 ], [ 115.052306, 4.602755 ], [ 115.0423, 4.619038 ], [ 115.040175, 4.633885 ], [ 115.047622, 4.642073 ], [ 115.050427, 4.650738 ], [ 115.039863, 4.657308 ], [ 115.03943, 4.665258 ], [ 115.044249, 4.668932 ], [ 115.04178, 4.680736 ], [ 115.03632, 4.688096 ], [ 115.038677, 4.694117 ], [ 115.032399, 4.701762 ], [ 115.033607, 4.710824 ], [ 115.04147, 4.71589 ], [ 115.034401, 4.722873 ], [ 115.04211, 4.730858 ], [ 115.026503, 4.734464 ], [ 115.022554, 4.747042 ], [ 115.031534, 4.754158 ], [ 115.032832, 4.771142 ], [ 115.054371, 4.788911 ], [ 115.050977, 4.793818 ], [ 115.039754, 4.794806 ], [ 115.035855, 4.804395 ], [ 115.036235, 4.814407 ], [ 115.044799, 4.814556 ], [ 115.051047, 4.799269 ], [ 115.055348, 4.79626 ], [ 115.055324, 4.816619 ], [ 115.060609, 4.830254 ], [ 115.079153, 4.842132 ], [ 115.087807, 4.843641 ], [ 115.094503, 4.840858 ], [ 115.101522, 4.84956 ], [ 115.1118, 4.851705 ], [ 115.114269, 4.863296 ], [ 115.098218, 4.882686 ], [ 115.097005, 4.890185 ], [ 115.100477, 4.896059 ], [ 115.115534, 4.90555 ], [ 115.149414, 4.908761 ], [ 115.154585, 4.912764 ] ] ] ] } }
]
}
