{
"type": "FeatureCollection",
"name": "Bulgaria",
"crs": { "type": "name", "properties": { "name": "urn:ogc:def:crs:OGC:1.3:CRS84" } },
"features": [
{ "type": "Feature", "properties": { "id": "BG", "CNTR_ID": "BG", "CNTR_NAME": "България", "NAME_ENGL": "Bulgaria", "ISO3_CODE": "BGR", "FID": "BG" }, "geometry": { "type": "MultiPolygon", "coordinates": [ [ [ [ 22.675162, 44.215663 ], [ 22.690841, 44.204562 ], [ 22.711038, 44.203131 ], [ 22.714729, 44.202868 ], [ 22.719828, 44.202276 ], [ 22.723104, 44.201981 ], [ 22.727112, 44.201385 ], [ 22.730565, 44.20026 ], [ 22.737613, 44.197081 ], [ 22.739609, 44.196262 ], [ 22.753978, 44.191141 ], [ 22.759248, 44.189191 ], [ 22.762682, 44.187446 ], [ 22.776398, 44.174432 ], [ 22.794947, 44.161648 ], [ 22.836332, 44.146485 ], [ 22.857783, 44.137963 ], [ 22.870673, 44.132842 ], [ 22.875016, 44.130399 ], [ 22.877328, 44.128988 ], [ 22.886376, 44.123176 ], [ 22.894891, 44.116359 ], [ 22.896623, 44.114895 ], [ 22.900232, 44.111517 ], [ 22.901883, 44.110411 ], [ 22.904133, 44.10908 ], [ 22.91088, 44.105516 ], [ 22.916655, 44.102268 ], [ 22.918822, 44.10121 ], [ 22.92212, 44.10004 ], [ 22.932864, 44.098418 ], [ 22.966369, 44.098288 ], [ 22.970911, 44.098275 ], [ 22.979881, 44.098105 ], [ 22.983791, 44.097905 ], [ 22.988931, 44.097425 ], [ 22.992001, 44.096975 ], [ 22.996281, 44.096125 ], [ 23.001776, 44.094782 ], [ 23.012137, 44.091995 ], [ 23.018426, 44.090006 ], [ 23.020946, 44.089153 ], [ 23.022895, 44.088379 ], [ 23.024636, 44.087513 ], [ 23.028682, 44.085306 ], [ 23.032947, 44.082836 ], [ 23.037304, 44.080172 ], [ 23.04096, 44.077676 ], [ 23.042492, 44.076388 ], [ 23.045371, 44.07343 ], [ 23.046261, 44.072235 ], [ 23.047091, 44.070887 ], [ 23.047663, 44.069583 ], [ 23.047981, 44.067914 ], [ 23.048072, 44.066404 ], [ 23.048011, 44.063665 ], [ 23.047386, 44.060808 ], [ 23.04577, 44.056677 ], [ 23.04481, 44.055048 ], [ 23.040116, 44.04809 ], [ 23.037646, 44.044721 ], [ 23.030795, 44.035381 ], [ 23.010548, 44.012062 ], [ 22.948143, 44.002505 ], [ 22.926996, 43.999514 ], [ 22.892367, 43.991384 ], [ 22.880983, 43.982258 ], [ 22.876287, 43.973489 ], [ 22.866315, 43.932359 ], [ 22.857783, 43.92115 ], [ 22.849975, 43.910889 ], [ 22.841707, 43.886091 ], [ 22.841364, 43.881746 ], [ 22.841303, 43.879318 ], [ 22.841334, 43.877595 ], [ 22.841369, 43.875651 ], [ 22.841671, 43.872477 ], [ 22.842141, 43.869285 ], [ 22.84329, 43.864843 ], [ 22.844231, 43.861926 ], [ 22.845201, 43.859636 ], [ 22.847102, 43.85631 ], [ 22.849106, 43.853374 ], [ 22.851419, 43.850585 ], [ 22.855005, 43.846739 ], [ 22.857783, 43.844394 ], [ 22.867127, 43.838745 ], [ 22.879711, 43.833596 ], [ 22.884701, 43.832346 ], [ 22.895981, 43.829816 ], [ 22.904301, 43.828156 ], [ 22.912367, 43.826711 ], [ 22.925681, 43.823867 ], [ 22.933539, 43.822431 ], [ 22.938592, 43.821295 ], [ 22.940353, 43.820847 ], [ 22.943511, 43.819856 ], [ 22.953651, 43.815716 ], [ 22.956355, 43.814874 ], [ 22.958477, 43.814337 ], [ 22.997171, 43.807867 ], [ 23.052029, 43.796357 ], [ 23.05691, 43.796289 ], [ 23.12689, 43.802708 ], [ 23.139391, 43.804762 ], [ 23.173963, 43.821 ], [ 23.189977, 43.825806 ], [ 23.217905, 43.833247 ], [ 23.241296, 43.836681 ], [ 23.246539, 43.839337 ], [ 23.260966, 43.84499 ], [ 23.293162, 43.846729 ], [ 23.340783, 43.848858 ], [ 23.345749, 43.848866 ], [ 23.351618, 43.848762 ], [ 23.356379, 43.848493 ], [ 23.363598, 43.848207 ], [ 23.366006, 43.84818 ], [ 23.36992, 43.848379 ], [ 23.372913, 43.848551 ], [ 23.39117, 43.850605 ], [ 23.403724, 43.852948 ], [ 23.423729, 43.854093 ], [ 23.433856, 43.852748 ], [ 23.466922, 43.843252 ], [ 23.484248, 43.838276 ], [ 23.511425, 43.837226 ], [ 23.542916, 43.816059 ], [ 23.54339, 43.81475 ], [ 23.543775, 43.810856 ], [ 23.54605, 43.806708 ], [ 23.557778, 43.801748 ], [ 23.608883, 43.792632 ], [ 23.630393, 43.79105 ], [ 23.638447, 43.792741 ], [ 23.641597, 43.793673 ], [ 23.643607, 43.794154 ], [ 23.652227, 43.796216 ], [ 23.663935, 43.799225 ], [ 23.700629, 43.806749 ], [ 23.740955, 43.803754 ], [ 23.750245, 43.800031 ], [ 23.776513, 43.780135 ], [ 23.809789, 43.773253 ], [ 23.826196, 43.76592 ], [ 23.845881, 43.758996 ], [ 23.850478, 43.757677 ], [ 23.859324, 43.754969 ], [ 23.865509, 43.753382 ], [ 23.874995, 43.750948 ], [ 23.909874, 43.747103 ], [ 23.925816, 43.746033 ], [ 23.937243, 43.745267 ], [ 23.958731, 43.746887 ], [ 23.977719, 43.748318 ], [ 23.993026, 43.744821 ], [ 24.028052, 43.730551 ], [ 24.055131, 43.719308 ], [ 24.057968, 43.71813 ], [ 24.061101, 43.716515 ], [ 24.069446, 43.71113 ], [ 24.070794, 43.710194 ], [ 24.074516, 43.707608 ], [ 24.07782, 43.705594 ], [ 24.080684, 43.704143 ], [ 24.083927, 43.702931 ], [ 24.087119, 43.702094 ], [ 24.090154, 43.701642 ], [ 24.09231, 43.70144 ], [ 24.098661, 43.700843 ], [ 24.112044, 43.699946 ], [ 24.147543, 43.692211 ], [ 24.170504, 43.684902 ], [ 24.195803, 43.68363 ], [ 24.198889, 43.683938 ], [ 24.255246, 43.691864 ], [ 24.260011, 43.692539 ], [ 24.266447, 43.693464 ], [ 24.276963, 43.695056 ], [ 24.286233, 43.696316 ], [ 24.297132, 43.698039 ], [ 24.299594, 43.69838 ], [ 24.301423, 43.698546 ], [ 24.305738, 43.698832 ], [ 24.307676, 43.698749 ], [ 24.314479, 43.69813 ], [ 24.323523, 43.697686 ], [ 24.337732, 43.696989 ], [ 24.340764, 43.696956 ], [ 24.413968, 43.722158 ], [ 24.419453, 43.72485 ], [ 24.42228, 43.726518 ], [ 24.429541, 43.731685 ], [ 24.43232, 43.733887 ], [ 24.437601, 43.737797 ], [ 24.440175, 43.73957 ], [ 24.442902, 43.741448 ], [ 24.445752, 43.743135 ], [ 24.451892, 43.746305 ], [ 24.457725, 43.748931 ], [ 24.463449, 43.751691 ], [ 24.478978, 43.758409 ], [ 24.48327, 43.760015 ], [ 24.486251, 43.760689 ], [ 24.489747, 43.761285 ], [ 24.494167, 43.761625 ], [ 24.496594, 43.761655 ], [ 24.502099, 43.761521 ], [ 24.539774, 43.76068 ], [ 24.570256, 43.756372 ], [ 24.599581, 43.749415 ], [ 24.604031, 43.747655 ], [ 24.614399, 43.743228 ], [ 24.624156, 43.739311 ], [ 24.628626, 43.737393 ], [ 24.632011, 43.735835 ], [ 24.637091, 43.733245 ], [ 24.640431, 43.731387 ], [ 24.64445, 43.729151 ], [ 24.65478, 43.723586 ], [ 24.658942, 43.721106 ], [ 24.664381, 43.717645 ], [ 24.667122, 43.715625 ], [ 24.669891, 43.713195 ], [ 24.672782, 43.710659 ], [ 24.676072, 43.707944 ], [ 24.677909, 43.706546 ], [ 24.679842, 43.705304 ], [ 24.681535, 43.704376 ], [ 24.694904, 43.697616 ], [ 24.697826, 43.696027 ], [ 24.699674, 43.695212 ], [ 24.704416, 43.693376 ], [ 24.706696, 43.692651 ], [ 24.710922, 43.691615 ], [ 24.712952, 43.691185 ], [ 24.718411, 43.690284 ], [ 24.725213, 43.689484 ], [ 24.729791, 43.688687 ], [ 24.736293, 43.687915 ], [ 24.740507, 43.687828 ], [ 24.746587, 43.688307 ], [ 24.769041, 43.692199 ], [ 24.806233, 43.708994 ], [ 24.810513, 43.710043 ], [ 24.833103, 43.712664 ], [ 24.862232, 43.70812 ], [ 24.86509, 43.707915 ], [ 24.86947, 43.707805 ], [ 24.87329, 43.707905 ], [ 24.878119, 43.708255 ], [ 24.883099, 43.708805 ], [ 24.901889, 43.711215 ], [ 24.905209, 43.711695 ], [ 24.910279, 43.712685 ], [ 24.917799, 43.714415 ], [ 24.921209, 43.715095 ], [ 24.924839, 43.715675 ], [ 24.932999, 43.716795 ], [ 24.938359, 43.717675 ], [ 24.943339, 43.718605 ], [ 24.946919, 43.719375 ], [ 24.950959, 43.720405 ], [ 24.956456, 43.722001 ], [ 24.972706, 43.727436 ], [ 24.983265, 43.728238 ], [ 24.992957, 43.728068 ], [ 24.996897, 43.727668 ], [ 24.998809, 43.726841 ], [ 25.00307, 43.725496 ], [ 25.006431, 43.723744 ], [ 25.019164, 43.712449 ], [ 25.045777, 43.699221 ], [ 25.052168, 43.696255 ], [ 25.053828, 43.695435 ], [ 25.056351, 43.694035 ], [ 25.061827, 43.692089 ], [ 25.067278, 43.690542 ], [ 25.07965, 43.688154 ], [ 25.093068, 43.686465 ], [ 25.107254, 43.685084 ], [ 25.113903, 43.684772 ], [ 25.124901, 43.68449 ], [ 25.128569, 43.684622 ], [ 25.13879, 43.686526 ], [ 25.143499, 43.68751 ], [ 25.145017, 43.688358 ], [ 25.153078, 43.693439 ], [ 25.154589, 43.694165 ], [ 25.160242, 43.696795 ], [ 25.162563, 43.697779 ], [ 25.164325, 43.698309 ], [ 25.169101, 43.699453 ], [ 25.172836, 43.699972 ], [ 25.176463, 43.700176 ], [ 25.179712, 43.700285 ], [ 25.182823, 43.700177 ], [ 25.184827, 43.699992 ], [ 25.187, 43.699642 ], [ 25.189784, 43.698969 ], [ 25.2075, 43.692949 ], [ 25.220664, 43.684498 ], [ 25.246061, 43.680219 ], [ 25.265731, 43.671666 ], [ 25.276292, 43.669506 ], [ 25.296373, 43.655419 ], [ 25.365799, 43.624613 ], [ 25.37909, 43.62072 ], [ 25.391915, 43.619622 ], [ 25.406786, 43.620225 ], [ 25.419195, 43.623152 ], [ 25.440273, 43.630017 ], [ 25.453989, 43.636043 ], [ 25.465378, 43.640476 ], [ 25.479685, 43.64534 ], [ 25.485652, 43.646898 ], [ 25.497048, 43.648515 ], [ 25.509604, 43.648423 ], [ 25.512126, 43.647914 ], [ 25.520458, 43.644499 ], [ 25.526569, 43.643278 ], [ 25.533268, 43.642619 ], [ 25.538099, 43.642352 ], [ 25.54454, 43.642845 ], [ 25.561732, 43.647133 ], [ 25.565617, 43.649242 ], [ 25.568714, 43.650645 ], [ 25.572037, 43.651904 ], [ 25.583274, 43.655876 ], [ 25.601872, 43.662242 ], [ 25.614868, 43.66819 ], [ 25.620571, 43.670706 ], [ 25.657143, 43.685203 ], [ 25.672201, 43.688148 ], [ 25.675306, 43.68824 ], [ 25.683704, 43.687773 ], [ 25.690532, 43.687546 ], [ 25.696134, 43.68749 ], [ 25.703352, 43.687527 ], [ 25.707253, 43.687444 ], [ 25.711374, 43.687165 ], [ 25.717779, 43.686364 ], [ 25.740611, 43.69106 ], [ 25.757336, 43.697857 ], [ 25.760554, 43.699094 ], [ 25.776844, 43.70671 ], [ 25.786824, 43.714731 ], [ 25.79879, 43.733543 ], [ 25.799624, 43.734883 ], [ 25.801094, 43.736783 ], [ 25.802794, 43.738613 ], [ 25.804424, 43.740153 ], [ 25.807733, 43.742995 ], [ 25.811731, 43.744515 ], [ 25.817347, 43.745903 ], [ 25.822012, 43.747256 ], [ 25.826347, 43.748292 ], [ 25.835263, 43.750773 ], [ 25.837136, 43.75136 ], [ 25.863428, 43.767173 ], [ 25.867321, 43.769829 ], [ 25.869357, 43.770983 ], [ 25.871303, 43.771834 ], [ 25.872874, 43.772703 ], [ 25.875574, 43.774843 ], [ 25.877154, 43.776253 ], [ 25.878484, 43.777633 ], [ 25.879964, 43.779443 ], [ 25.880894, 43.780793 ], [ 25.882924, 43.784563 ], [ 25.888534, 43.795983 ], [ 25.889914, 43.798013 ], [ 25.891754, 43.800153 ], [ 25.895514, 43.803833 ], [ 25.900244, 43.807943 ], [ 25.901757, 43.809147 ], [ 25.904061, 43.81098 ], [ 25.906328, 43.812589 ], [ 25.914591, 43.82176 ], [ 25.916572, 43.823485 ], [ 25.918952, 43.825717 ], [ 25.920511, 43.827483 ], [ 25.921605, 43.829022 ], [ 25.923082, 43.830689 ], [ 25.924094, 43.832033 ], [ 25.927194, 43.835431 ], [ 25.931524, 43.839803 ], [ 25.939284, 43.846883 ], [ 25.946184, 43.853643 ], [ 25.950834, 43.857523 ], [ 25.95283, 43.859001 ], [ 25.988762, 43.879769 ], [ 26.033616, 43.89631 ], [ 26.036558, 43.897067 ], [ 26.043734, 43.900283 ], [ 26.046127, 43.901158 ], [ 26.060757, 43.908597 ], [ 26.06945, 43.922212 ], [ 26.074613, 43.931212 ], [ 26.080183, 43.943072 ], [ 26.081203, 43.944972 ], [ 26.082953, 43.947622 ], [ 26.084343, 43.949432 ], [ 26.086083, 43.951462 ], [ 26.088223, 43.953702 ], [ 26.089732, 43.955144 ], [ 26.092229, 43.957531 ], [ 26.095008, 43.960548 ], [ 26.100804, 43.96721 ], [ 26.10245, 43.968486 ], [ 26.104843, 43.969511 ], [ 26.108556, 43.970569 ], [ 26.113526, 43.971854 ], [ 26.119352, 43.973034 ], [ 26.125386, 43.974783 ], [ 26.131508, 43.977627 ], [ 26.135962, 43.979439 ], [ 26.141929, 43.981045 ], [ 26.145383, 43.982296 ], [ 26.14768, 43.982911 ], [ 26.174352, 43.987789 ], [ 26.188879, 43.987046 ], [ 26.19181, 43.986841 ], [ 26.207543, 43.987852 ], [ 26.234609, 43.995973 ], [ 26.257668, 44.004186 ], [ 26.300192, 44.024818 ], [ 26.33466, 44.034125 ], [ 26.340709, 44.035426 ], [ 26.345964, 44.036359 ], [ 26.352481, 44.036864 ], [ 26.358182, 44.03716 ], [ 26.361405, 44.037328 ], [ 26.369262, 44.037375 ], [ 26.375475, 44.03768 ], [ 26.381823, 44.038612 ], [ 26.389255, 44.039701 ], [ 26.397001, 44.040683 ], [ 26.402547, 44.040671 ], [ 26.40656, 44.040469 ], [ 26.41098, 44.039859 ], [ 26.422515, 44.037505 ], [ 26.483827, 44.04275 ], [ 26.487977, 44.042847 ], [ 26.490046, 44.043013 ], [ 26.492802, 44.043307 ], [ 26.495412, 44.04368 ], [ 26.504514, 44.045393 ], [ 26.512375, 44.047183 ], [ 26.519316, 44.048592 ], [ 26.527117, 44.050337 ], [ 26.529048, 44.050706 ], [ 26.541571, 44.052651 ], [ 26.549501, 44.054551 ], [ 26.568518, 44.057987 ], [ 26.601343, 44.053466 ], [ 26.614885, 44.054849 ], [ 26.62716, 44.057411 ], [ 26.633056, 44.058527 ], [ 26.639913, 44.06033 ], [ 26.648038, 44.062635 ], [ 26.656039, 44.065058 ], [ 26.658564, 44.065955 ], [ 26.6615, 44.067402 ], [ 26.66514, 44.069415 ], [ 26.668196, 44.07097 ], [ 26.678515, 44.074518 ], [ 26.693982, 44.079011 ], [ 26.696252, 44.07982 ], [ 26.699917, 44.080639 ], [ 26.71518, 44.080774 ], [ 26.741241, 44.074961 ], [ 26.77211, 44.079551 ], [ 26.775647, 44.080828 ], [ 26.78415, 44.084605 ], [ 26.802969, 44.09296 ], [ 26.83722, 44.111647 ], [ 26.853072, 44.115367 ], [ 26.87015, 44.120178 ], [ 26.874729, 44.121735 ], [ 26.880744, 44.123781 ], [ 26.885366, 44.125511 ], [ 26.90232, 44.134157 ], [ 26.905552, 44.135805 ], [ 26.923678, 44.140153 ], [ 26.9697, 44.132267 ], [ 26.974693, 44.132096 ], [ 26.98573, 44.131203 ], [ 26.988458, 44.131229 ], [ 26.991039, 44.131382 ], [ 26.993141, 44.131707 ], [ 26.996529, 44.132523 ], [ 26.99988, 44.133806 ], [ 27.004448, 44.135792 ], [ 27.006063, 44.136403 ], [ 27.008323, 44.137257 ], [ 27.018579, 44.140536 ], [ 27.02778, 44.143181 ], [ 27.038478, 44.143407 ], [ 27.063611, 44.135777 ], [ 27.082442, 44.133516 ], [ 27.094245, 44.134334 ], [ 27.108356, 44.138809 ], [ 27.134974, 44.140505 ], [ 27.160735, 44.135404 ], [ 27.185495, 44.119527 ], [ 27.20031, 44.116728 ], [ 27.204458, 44.116364 ], [ 27.213447, 44.1158 ], [ 27.223947, 44.11543 ], [ 27.231167, 44.11544 ], [ 27.234297, 44.11558 ], [ 27.236547, 44.11581 ], [ 27.238537, 44.11615 ], [ 27.241757, 44.1169 ], [ 27.263764, 44.125656 ], [ 27.271341, 44.126335 ], [ 27.276845, 44.123185 ], [ 27.276537, 44.116167 ], [ 27.282984, 44.110177 ], [ 27.276903, 44.105599 ], [ 27.277317, 44.098518 ], [ 27.289914, 44.083646 ], [ 27.291766, 44.075522 ], [ 27.33336, 44.064241 ], [ 27.355726, 44.058462 ], [ 27.369635, 44.040547 ], [ 27.398619, 44.013328 ], [ 27.412702, 44.014279 ], [ 27.41851, 44.015138 ], [ 27.43408, 44.017456 ], [ 27.440063, 44.018256 ], [ 27.449601, 44.019715 ], [ 27.468983, 44.022359 ], [ 27.492074, 44.020936 ], [ 27.585881, 44.014324 ], [ 27.5936, 44.013546 ], [ 27.612042, 44.012211 ], [ 27.643538, 44.047973 ], [ 27.645544, 44.04676 ], [ 27.673655, 44.029781 ], [ 27.69541, 43.987343 ], [ 27.707603, 43.963922 ], [ 27.709997, 43.959324 ], [ 27.72464, 43.956081 ], [ 27.737999, 43.953415 ], [ 27.755586, 43.958378 ], [ 27.818878, 43.963962 ], [ 27.8333, 43.965297 ], [ 27.843537, 43.966339 ], [ 27.86867, 43.980785 ], [ 27.916834, 44.008274 ], [ 27.930738, 43.996388 ], [ 27.94431, 43.984783 ], [ 27.947787, 43.969065 ], [ 27.9503, 43.957706 ], [ 27.954193, 43.940129 ], [ 27.973997, 43.905018 ], [ 27.981912, 43.882073 ], [ 27.984391, 43.874882 ], [ 27.994265, 43.842964 ], [ 28.003751, 43.839838 ], [ 28.024634, 43.832957 ], [ 28.032803, 43.830265 ], [ 28.09268, 43.806656 ], [ 28.119589, 43.796043 ], [ 28.137743, 43.790212 ], [ 28.17279, 43.778946 ], [ 28.212178, 43.76625 ], [ 28.220127, 43.763687 ], [ 28.236143, 43.758522 ], [ 28.276837, 43.756244 ], [ 28.322998, 43.753635 ], [ 28.333205, 43.753059 ], [ 28.34851, 43.752193 ], [ 28.376898, 43.746826 ], [ 28.378716, 43.74648 ], [ 28.435577, 43.735692 ], [ 28.445576, 43.733799 ], [ 28.558522, 43.737972 ], [ 28.578884, 43.738739 ], [ 28.572563, 43.724216 ], [ 28.578114, 43.708175 ], [ 28.576746, 43.700775 ], [ 28.564731, 43.693916 ], [ 28.564511, 43.675182 ], [ 28.569128, 43.651184 ], [ 28.579059, 43.636932 ], [ 28.573117, 43.629078 ], [ 28.574475, 43.61824 ], [ 28.569683, 43.612094 ], [ 28.567904, 43.60175 ], [ 28.571051, 43.592159 ], [ 28.575092, 43.584539 ], [ 28.578436, 43.578232 ], [ 28.603815, 43.552421 ], [ 28.607464, 43.539371 ], [ 28.601506, 43.519718 ], [ 28.587773, 43.499477 ], [ 28.585496, 43.490215 ], [ 28.571032, 43.472942 ], [ 28.555622, 43.449394 ], [ 28.545817, 43.438587 ], [ 28.529503, 43.423538 ], [ 28.5143, 43.414436 ], [ 28.508358, 43.415241 ], [ 28.495669, 43.40823 ], [ 28.47096, 43.38279 ], [ 28.464949, 43.366502 ], [ 28.449395, 43.380336 ], [ 28.416284, 43.387538 ], [ 28.389213, 43.403267 ], [ 28.378956, 43.406456 ], [ 28.355636, 43.412709 ], [ 28.348225, 43.411683 ], [ 28.334925, 43.415539 ], [ 28.322998, 43.416678 ], [ 28.30944, 43.417972 ], [ 28.28735, 43.412788 ], [ 28.27993, 43.413261 ], [ 28.255564, 43.408554 ], [ 28.248186, 43.403 ], [ 28.241799, 43.405624 ], [ 28.231102, 43.403457 ], [ 28.223261, 43.399326 ], [ 28.212178, 43.398491 ], [ 28.194302, 43.397144 ], [ 28.180033, 43.397876 ], [ 28.164351, 43.405288 ], [ 28.150778, 43.404732 ], [ 28.10475, 43.380543 ], [ 28.09268, 43.376316 ], [ 28.081747, 43.363277 ], [ 28.067583, 43.335373 ], [ 28.069742, 43.327915 ], [ 28.060181, 43.316445 ], [ 28.054858, 43.31001 ], [ 28.050083, 43.304238 ], [ 28.04835, 43.302143 ], [ 28.043831, 43.276269 ], [ 28.026764, 43.246518 ], [ 28.018323, 43.242383 ], [ 28.013828, 43.227592 ], [ 28.009412, 43.223055 ], [ 27.999812, 43.219086 ], [ 27.976418, 43.21903 ], [ 27.956698, 43.212829 ], [ 27.94219, 43.210731 ], [ 27.926951, 43.203913 ], [ 27.920401, 43.197236 ], [ 27.91826, 43.19027 ], [ 27.910334, 43.18749 ], [ 27.915375, 43.174636 ], [ 27.928358, 43.174474 ], [ 27.940163, 43.170669 ], [ 27.944845, 43.171206 ], [ 27.946584, 43.167496 ], [ 27.939831, 43.134529 ], [ 27.930762, 43.127544 ], [ 27.923737, 43.10635 ], [ 27.912709, 43.061908 ], [ 27.90642, 43.055465 ], [ 27.901434, 43.055137 ], [ 27.897646, 43.047252 ], [ 27.890019, 43.042133 ], [ 27.889586, 43.022869 ], [ 27.892227, 42.987209 ], [ 27.893563, 42.980308 ], [ 27.901449, 42.946903 ], [ 27.9068, 42.929565 ], [ 27.897339, 42.920509 ], [ 27.896748, 42.913475 ], [ 27.902298, 42.887111 ], [ 27.897892, 42.873352 ], [ 27.899866, 42.865703 ], [ 27.902882, 42.854019 ], [ 27.889986, 42.853207 ], [ 27.88262, 42.838413 ], [ 27.886126, 42.815387 ], [ 27.90081, 42.771858 ], [ 27.900435, 42.766651 ], [ 27.889984, 42.755031 ], [ 27.891345, 42.741417 ], [ 27.900753, 42.719509 ], [ 27.899067, 42.700245 ], [ 27.892958, 42.697727 ], [ 27.879492, 42.70068 ], [ 27.840813, 42.70055 ], [ 27.822455, 42.704426 ], [ 27.810024, 42.701385 ], [ 27.785182, 42.704624 ], [ 27.761616, 42.708782 ], [ 27.741196, 42.707634 ], [ 27.730642, 42.707572 ], [ 27.722137, 42.702287 ], [ 27.71317, 42.677783 ], [ 27.716885, 42.666465 ], [ 27.729917, 42.658172 ], [ 27.721562, 42.656872 ], [ 27.709778, 42.648176 ], [ 27.691223, 42.650841 ], [ 27.678789, 42.638469 ], [ 27.676661, 42.635662 ], [ 27.666621, 42.638759 ], [ 27.653801, 42.636238 ], [ 27.652064, 42.638908 ], [ 27.646618, 42.638523 ], [ 27.63529, 42.625374 ], [ 27.630814, 42.604667 ], [ 27.633595, 42.578255 ], [ 27.640934, 42.565304 ], [ 27.65201, 42.55582 ], [ 27.641537, 42.552135 ], [ 27.631832, 42.561477 ], [ 27.616942, 42.565368 ], [ 27.607031, 42.563698 ], [ 27.600123, 42.558128 ], [ 27.593561, 42.563762 ], [ 27.583197, 42.564308 ], [ 27.55896, 42.550735 ], [ 27.539982, 42.558979 ], [ 27.527114, 42.558944 ], [ 27.509152, 42.549746 ], [ 27.492606, 42.52986 ], [ 27.485078, 42.510339 ], [ 27.481283, 42.490811 ], [ 27.471834, 42.485125 ], [ 27.464773, 42.487395 ], [ 27.460554, 42.483962 ], [ 27.453645, 42.484912 ], [ 27.447571, 42.476519 ], [ 27.448252, 42.462481 ], [ 27.451998, 42.457089 ], [ 27.468554, 42.445831 ], [ 27.474433, 42.449063 ], [ 27.474406, 42.455437 ], [ 27.480527, 42.459659 ], [ 27.492108, 42.446694 ], [ 27.507778, 42.438019 ], [ 27.513304, 42.429149 ], [ 27.520912, 42.430621 ], [ 27.529123, 42.436295 ], [ 27.537403, 42.448489 ], [ 27.538846, 42.455638 ], [ 27.570393, 42.445747 ], [ 27.580906, 42.448822 ], [ 27.580923, 42.45532 ], [ 27.585103, 42.46089 ], [ 27.598535, 42.450722 ], [ 27.614535, 42.444941 ], [ 27.624646, 42.447335 ], [ 27.62815, 42.455596 ], [ 27.637006, 42.449224 ], [ 27.648683, 42.450066 ], [ 27.648071, 42.439284 ], [ 27.653801, 42.431315 ], [ 27.646726, 42.426185 ], [ 27.651232, 42.416721 ], [ 27.661865, 42.411052 ], [ 27.673253, 42.409512 ], [ 27.687706, 42.41696 ], [ 27.692415, 42.422435 ], [ 27.688766, 42.425515 ], [ 27.694753, 42.426666 ], [ 27.698909, 42.425501 ], [ 27.695701, 42.420982 ], [ 27.702182, 42.419122 ], [ 27.706099, 42.409437 ], [ 27.712095, 42.407099 ], [ 27.7282, 42.409592 ], [ 27.724179, 42.400865 ], [ 27.71058, 42.400189 ], [ 27.706888, 42.393237 ], [ 27.709401, 42.384314 ], [ 27.719554, 42.378685 ], [ 27.710302, 42.367858 ], [ 27.721608, 42.350353 ], [ 27.729597, 42.344746 ], [ 27.729456, 42.337562 ], [ 27.738703, 42.3291 ], [ 27.747489, 42.326795 ], [ 27.754012, 42.32809 ], [ 27.758552, 42.333573 ], [ 27.770738, 42.336268 ], [ 27.773997, 42.333962 ], [ 27.783611, 42.335338 ], [ 27.779513, 42.324117 ], [ 27.774618, 42.320915 ], [ 27.780846, 42.318672 ], [ 27.78109, 42.313847 ], [ 27.791105, 42.307509 ], [ 27.770258, 42.300604 ], [ 27.771703, 42.294618 ], [ 27.755035, 42.285326 ], [ 27.758637, 42.270827 ], [ 27.765357, 42.265983 ], [ 27.752519, 42.261291 ], [ 27.751533, 42.255281 ], [ 27.756605, 42.245498 ], [ 27.768349, 42.241276 ], [ 27.773552, 42.244903 ], [ 27.778347, 42.238003 ], [ 27.784731, 42.236473 ], [ 27.777705, 42.233055 ], [ 27.778219, 42.22596 ], [ 27.782509, 42.226158 ], [ 27.79283, 42.21558 ], [ 27.804442, 42.216129 ], [ 27.806196, 42.211349 ], [ 27.81885, 42.206917 ], [ 27.818175, 42.203308 ], [ 27.824338, 42.198024 ], [ 27.829376, 42.197967 ], [ 27.82998, 42.193875 ], [ 27.839251, 42.193103 ], [ 27.837851, 42.189217 ], [ 27.845537, 42.185803 ], [ 27.844229, 42.181365 ], [ 27.851419, 42.178615 ], [ 27.852349, 42.173476 ], [ 27.859327, 42.17231 ], [ 27.858877, 42.170063 ], [ 27.853176, 42.169088 ], [ 27.853233, 42.165849 ], [ 27.857875, 42.163913 ], [ 27.862296, 42.164943 ], [ 27.867601, 42.158924 ], [ 27.872369, 42.159111 ], [ 27.877858, 42.149781 ], [ 27.88514, 42.144092 ], [ 27.89559, 42.143558 ], [ 27.903609, 42.128879 ], [ 27.908531, 42.1292 ], [ 27.912388, 42.125866 ], [ 27.913821, 42.122722 ], [ 27.908215, 42.118843 ], [ 27.913605, 42.115635 ], [ 27.913519, 42.111244 ], [ 27.922835, 42.105095 ], [ 27.928608, 42.102384 ], [ 27.936481, 42.104466 ], [ 27.946855, 42.103166 ], [ 27.956289, 42.086012 ], [ 27.963631, 42.082892 ], [ 27.962724, 42.078125 ], [ 27.968816, 42.070347 ], [ 27.981672, 42.062702 ], [ 27.991539, 42.063225 ], [ 27.993271, 42.05954 ], [ 27.987118, 42.054073 ], [ 27.992899, 42.046066 ], [ 27.998122, 42.045933 ], [ 28.003931, 42.04018 ], [ 28.002926, 42.035266 ], [ 28.015164, 42.027481 ], [ 28.010092, 42.022571 ], [ 28.017468, 42.020332 ], [ 28.019703, 42.008808 ], [ 28.021736, 42.003582 ], [ 28.030934, 41.997265 ], [ 28.035513, 41.983079 ], [ 28.02886, 41.983007 ], [ 28.022476, 41.980123 ], [ 27.994414, 41.980328 ], [ 27.976881, 41.989053 ], [ 27.974898, 41.983702 ], [ 27.958082, 41.976883 ], [ 27.955194, 41.98052 ], [ 27.943616, 41.977895 ], [ 27.934061, 41.984013 ], [ 27.93055, 41.978585 ], [ 27.926029, 41.976929 ], [ 27.921948, 41.982745 ], [ 27.916606, 41.97378 ], [ 27.909991, 41.973719 ], [ 27.900699, 41.981589 ], [ 27.898751, 41.991938 ], [ 27.886194, 41.99561 ], [ 27.879781, 41.995239 ], [ 27.876621, 41.99936 ], [ 27.869736, 41.999821 ], [ 27.86466, 42.00528 ], [ 27.859885, 42.005878 ], [ 27.860512, 41.994826 ], [ 27.855811, 41.99164 ], [ 27.852109, 41.994346 ], [ 27.856369, 41.997832 ], [ 27.854528, 42.001029 ], [ 27.850952, 42.000372 ], [ 27.849159, 41.994249 ], [ 27.844789, 41.99117 ], [ 27.828392, 41.997802 ], [ 27.819393, 41.98667 ], [ 27.819207, 41.978343 ], [ 27.824559, 41.973074 ], [ 27.821846, 41.96324 ], [ 27.825759, 41.960345 ], [ 27.833031, 41.959873 ], [ 27.835162, 41.950347 ], [ 27.82748, 41.94855 ], [ 27.816892, 41.952256 ], [ 27.815104, 41.944211 ], [ 27.803114, 41.951517 ], [ 27.794607, 41.949536 ], [ 27.789291, 41.953295 ], [ 27.781178, 41.954147 ], [ 27.7846, 41.960367 ], [ 27.782838, 41.963545 ], [ 27.776431, 41.964774 ], [ 27.770419, 41.961613 ], [ 27.765514, 41.967001 ], [ 27.749124, 41.970268 ], [ 27.737899, 41.97839 ], [ 27.729522, 41.974272 ], [ 27.702151, 41.976601 ], [ 27.701252, 41.972708 ], [ 27.686091, 41.971372 ], [ 27.681093, 41.965138 ], [ 27.67115, 41.959573 ], [ 27.666336, 41.960705 ], [ 27.658924, 41.958096 ], [ 27.652803, 41.961304 ], [ 27.642043, 41.955402 ], [ 27.638186, 41.959453 ], [ 27.633023, 41.955167 ], [ 27.620913, 41.957295 ], [ 27.625763, 41.949837 ], [ 27.612839, 41.939154 ], [ 27.608739, 41.939737 ], [ 27.608672, 41.944746 ], [ 27.604485, 41.946732 ], [ 27.588738, 41.932043 ], [ 27.585874, 41.932423 ], [ 27.586187, 41.936431 ], [ 27.574973, 41.936816 ], [ 27.567587, 41.924516 ], [ 27.574283, 41.922896 ], [ 27.575767, 41.920354 ], [ 27.566092, 41.918802 ], [ 27.562461, 41.914663 ], [ 27.563947, 41.912632 ], [ 27.571121, 41.911911 ], [ 27.571338, 41.905441 ], [ 27.560817, 41.904869 ], [ 27.548438, 41.914016 ], [ 27.540365, 41.916996 ], [ 27.528766, 41.938139 ], [ 27.51141, 41.957236 ], [ 27.505356, 41.957527 ], [ 27.502651, 41.952949 ], [ 27.490239, 41.952746 ], [ 27.46883, 41.958613 ], [ 27.467525, 41.965011 ], [ 27.46393, 41.968136 ], [ 27.448354, 41.967236 ], [ 27.445424, 41.973769 ], [ 27.438594, 41.977234 ], [ 27.432568, 41.991157 ], [ 27.426547, 41.989799 ], [ 27.42055, 41.988445 ], [ 27.41851, 41.989292 ], [ 27.414847, 41.990814 ], [ 27.413174, 41.999843 ], [ 27.408258, 42.002753 ], [ 27.393972, 42.006815 ], [ 27.391565, 42.017839 ], [ 27.384047, 42.02285 ], [ 27.381567, 42.0341 ], [ 27.375904, 42.040668 ], [ 27.376424, 42.046142 ], [ 27.363587, 42.058437 ], [ 27.337081, 42.06023 ], [ 27.335237, 42.067209 ], [ 27.329466, 42.071762 ], [ 27.326824, 42.073159 ], [ 27.325921, 42.07942 ], [ 27.317422, 42.079043 ], [ 27.310916, 42.08667 ], [ 27.300256, 42.087022 ], [ 27.293342, 42.096638 ], [ 27.282057, 42.095734 ], [ 27.273236, 42.099083 ], [ 27.273033, 42.101829 ], [ 27.270666, 42.10432 ], [ 27.253695, 42.099262 ], [ 27.240126, 42.105015 ], [ 27.222082, 42.098503 ], [ 27.216536, 42.085972 ], [ 27.203352, 42.082856 ], [ 27.198975, 42.0784 ], [ 27.198683, 42.073736 ], [ 27.206396, 42.062406 ], [ 27.203745, 42.059846 ], [ 27.189846, 42.060811 ], [ 27.181534, 42.069684 ], [ 27.16945, 42.065367 ], [ 27.159617, 42.065659 ], [ 27.152799, 42.071333 ], [ 27.141467, 42.066455 ], [ 27.132867, 42.066813 ], [ 27.12575, 42.076388 ], [ 27.115013, 42.079476 ], [ 27.112097, 42.083545 ], [ 27.108628, 42.086998 ], [ 27.103497, 42.085174 ], [ 27.075068, 42.08892 ], [ 27.072954, 42.089199 ], [ 27.067093, 42.093181 ], [ 27.059651, 42.088337 ], [ 27.050027, 42.084024 ], [ 27.041618, 42.084124 ], [ 27.033179, 42.079602 ], [ 27.024729, 42.080168 ], [ 27.0221, 42.074738 ], [ 27.02735, 42.062823 ], [ 27.025801, 42.056579 ], [ 27.00679, 42.038545 ], [ 26.999676, 42.036644 ], [ 26.993145, 42.038278 ], [ 26.982675, 42.036969 ], [ 26.983962, 42.019546 ], [ 26.966992, 42.002753 ], [ 26.964111, 41.997073 ], [ 26.957185, 41.997125 ], [ 26.949229, 42.000213 ], [ 26.928453, 42.000341 ], [ 26.92173, 41.994715 ], [ 26.912725, 41.994374 ], [ 26.90232, 41.987186 ], [ 26.882826, 41.988426 ], [ 26.870943, 41.990543 ], [ 26.857295, 41.983049 ], [ 26.850998, 41.982938 ], [ 26.847104, 41.97341 ], [ 26.845695, 41.96996 ], [ 26.832959, 41.969475 ], [ 26.827719, 41.973507 ], [ 26.81328, 41.974559 ], [ 26.79588, 41.983135 ], [ 26.792102, 41.989495 ], [ 26.787407, 41.989601 ], [ 26.779301, 41.979175 ], [ 26.776382, 41.979371 ], [ 26.773039, 41.979595 ], [ 26.763058, 41.969314 ], [ 26.759308, 41.970131 ], [ 26.756143, 41.963388 ], [ 26.753819, 41.958435 ], [ 26.745776, 41.959206 ], [ 26.738083, 41.959943 ], [ 26.728544, 41.960857 ], [ 26.723066, 41.963395 ], [ 26.71204, 41.968502 ], [ 26.702956, 41.966638 ], [ 26.700901, 41.966217 ], [ 26.682555, 41.967889 ], [ 26.679096, 41.971023 ], [ 26.678058, 41.968709 ], [ 26.667376, 41.965333 ], [ 26.657616, 41.969982 ], [ 26.637172, 41.97308 ], [ 26.62355, 41.97859 ], [ 26.6176, 41.965326 ], [ 26.586865, 41.947662 ], [ 26.561545, 41.926273 ], [ 26.571377, 41.912296 ], [ 26.584593, 41.902653 ], [ 26.56822, 41.887413 ], [ 26.567705, 41.883022 ], [ 26.579212, 41.877895 ], [ 26.579793, 41.874875 ], [ 26.580374, 41.871856 ], [ 26.565464, 41.866455 ], [ 26.564217, 41.854641 ], [ 26.554857, 41.849481 ], [ 26.552555, 41.848213 ], [ 26.538609, 41.823482 ], [ 26.497889, 41.823208 ], [ 26.463811, 41.823039 ], [ 26.449402, 41.822967 ], [ 26.423697, 41.822803 ], [ 26.369061, 41.820682 ], [ 26.358556, 41.804908 ], [ 26.348051, 41.789135 ], [ 26.342936, 41.783371 ], [ 26.34092, 41.771068 ], [ 26.337651, 41.764995 ], [ 26.333863, 41.76337 ], [ 26.332251, 41.758198 ], [ 26.329895, 41.756046 ], [ 26.329457, 41.752479 ], [ 26.328816, 41.750582 ], [ 26.328072, 41.748379 ], [ 26.327183, 41.742317 ], [ 26.328429, 41.73698 ], [ 26.343404, 41.726539 ], [ 26.34591, 41.724792 ], [ 26.350222, 41.721435 ], [ 26.358372, 41.714714 ], [ 26.357879, 41.711104 ], [ 26.347034, 41.711664 ], [ 26.329873, 41.71531 ], [ 26.31123, 41.70946 ], [ 26.294169, 41.710758 ], [ 26.290104, 41.711259 ], [ 26.285653, 41.712 ], [ 26.279668, 41.713427 ], [ 26.275399, 41.714703 ], [ 26.256724, 41.720757 ], [ 26.252791, 41.722088 ], [ 26.250851, 41.722966 ], [ 26.249101, 41.72396 ], [ 26.247476, 41.72528 ], [ 26.228606, 41.740157 ], [ 26.21206, 41.732297 ], [ 26.183898, 41.738881 ], [ 26.177577, 41.74204 ], [ 26.172716, 41.748812 ], [ 26.156371, 41.744114 ], [ 26.141189, 41.736241 ], [ 26.129322, 41.733807 ], [ 26.1189, 41.727236 ], [ 26.112242, 41.713883 ], [ 26.10131, 41.713575 ], [ 26.089732, 41.71649 ], [ 26.070186, 41.709074 ], [ 26.068804, 41.699544 ], [ 26.061729, 41.697513 ], [ 26.061111, 41.688589 ], [ 26.065365, 41.6836 ], [ 26.06821, 41.673451 ], [ 26.064528, 41.663156 ], [ 26.070915, 41.650412 ], [ 26.081793, 41.641495 ], [ 26.088371, 41.643053 ], [ 26.089732, 41.641197 ], [ 26.092948, 41.636812 ], [ 26.092678, 41.630253 ], [ 26.097635, 41.626595 ], [ 26.119115, 41.624578 ], [ 26.123939, 41.630637 ], [ 26.137798, 41.631551 ], [ 26.137851, 41.615089 ], [ 26.153534, 41.604876 ], [ 26.149997, 41.595584 ], [ 26.14748, 41.55544 ], [ 26.152116, 41.553514 ], [ 26.174941, 41.554462 ], [ 26.177793, 41.552995 ], [ 26.184453, 41.51978 ], [ 26.18025, 41.51594 ], [ 26.172763, 41.504402 ], [ 26.17115, 41.493369 ], [ 26.1576, 41.487823 ], [ 26.153231, 41.484469 ], [ 26.155074, 41.475249 ], [ 26.155256, 41.473897 ], [ 26.174526, 41.463688 ], [ 26.185635, 41.452611 ], [ 26.193668, 41.443645 ], [ 26.198979, 41.437715 ], [ 26.197061, 41.436396 ], [ 26.188567, 41.438039 ], [ 26.17322, 41.432299 ], [ 26.16802, 41.424876 ], [ 26.160357, 41.419837 ], [ 26.164151, 41.408278 ], [ 26.159777, 41.4 ], [ 26.155855, 41.389224 ], [ 26.151226, 41.386732 ], [ 26.147145, 41.377421 ], [ 26.137342, 41.375044 ], [ 26.136538, 41.363703 ], [ 26.131999, 41.355305 ], [ 26.12746, 41.354364 ], [ 26.121539, 41.355906 ], [ 26.112732, 41.353489 ], [ 26.107614, 41.356636 ], [ 26.102174, 41.353788 ], [ 26.09776, 41.354838 ], [ 26.092509, 41.35018 ], [ 26.092012, 41.34642 ], [ 26.089732, 41.346715 ], [ 26.080775, 41.345892 ], [ 26.067402, 41.349322 ], [ 26.052925, 41.347302 ], [ 26.04395, 41.349626 ], [ 26.03575, 41.350036 ], [ 26.029507, 41.346779 ], [ 26.010781, 41.344093 ], [ 26.004112, 41.338224 ], [ 25.998857, 41.326897 ], [ 25.988461, 41.325389 ], [ 25.976612, 41.318825 ], [ 25.960747, 41.319779 ], [ 25.948626, 41.320342 ], [ 25.935041, 41.320183 ], [ 25.928189, 41.314785 ], [ 25.918798, 41.313506 ], [ 25.906438, 41.307575 ], [ 25.885538, 41.30467 ], [ 25.879872, 41.30655 ], [ 25.869481, 41.313544 ], [ 25.872879, 41.328045 ], [ 25.864852, 41.328977 ], [ 25.859136, 41.32694 ], [ 25.853337, 41.328398 ], [ 25.846156, 41.337048 ], [ 25.822821, 41.347307 ], [ 25.815654, 41.337263 ], [ 25.79879, 41.334155 ], [ 25.789626, 41.332466 ], [ 25.780137, 41.321423 ], [ 25.769586, 41.320205 ], [ 25.762638, 41.32451 ], [ 25.756215, 41.319153 ], [ 25.745997, 41.315977 ], [ 25.739023, 41.318455 ], [ 25.719802, 41.317128 ], [ 25.712241, 41.301897 ], [ 25.713631, 41.293462 ], [ 25.711268, 41.291876 ], [ 25.701131, 41.293242 ], [ 25.693804, 41.301375 ], [ 25.683466, 41.306717 ], [ 25.665502, 41.308592 ], [ 25.657987, 41.313883 ], [ 25.651306, 41.313001 ], [ 25.646574, 41.313204 ], [ 25.622953, 41.304088 ], [ 25.610133, 41.304217 ], [ 25.586752, 41.309512 ], [ 25.583713, 41.314392 ], [ 25.57336, 41.318208 ], [ 25.560708, 41.31826 ], [ 25.55784, 41.315905 ], [ 25.544851, 41.310181 ], [ 25.543735, 41.3031 ], [ 25.529053, 41.27719 ], [ 25.524797, 41.276995 ], [ 25.51679, 41.282967 ], [ 25.502137, 41.286522 ], [ 25.472625, 41.28767 ], [ 25.469119, 41.28307 ], [ 25.461884, 41.282975 ], [ 25.443014, 41.276278 ], [ 25.436054, 41.275684 ], [ 25.432965, 41.275421 ], [ 25.429425, 41.265554 ], [ 25.416327, 41.265946 ], [ 25.409535, 41.262047 ], [ 25.393867, 41.259165 ], [ 25.391915, 41.258807 ], [ 25.388897, 41.258251 ], [ 25.384621, 41.256767 ], [ 25.367952, 41.259809 ], [ 25.36029, 41.255802 ], [ 25.356931, 41.251248 ], [ 25.34155, 41.247813 ], [ 25.335708, 41.24094 ], [ 25.314968, 41.244237 ], [ 25.296153, 41.24491 ], [ 25.287292, 41.235808 ], [ 25.276568, 41.239537 ], [ 25.263937, 41.244427 ], [ 25.235102, 41.247218 ], [ 25.232581, 41.249198 ], [ 25.232482, 41.256321 ], [ 25.224699, 41.264631 ], [ 25.224094, 41.266784 ], [ 25.225289, 41.271276 ], [ 25.220787, 41.281327 ], [ 25.214422, 41.284228 ], [ 25.207942, 41.291744 ], [ 25.183651, 41.298384 ], [ 25.179544, 41.302515 ], [ 25.179376, 41.310188 ], [ 25.171659, 41.312643 ], [ 25.165259, 41.311225 ], [ 25.159974, 41.317809 ], [ 25.150985, 41.315729 ], [ 25.144444, 41.322738 ], [ 25.132817, 41.323355 ], [ 25.122904, 41.333622 ], [ 25.124582, 41.342261 ], [ 25.11433, 41.343024 ], [ 25.107657, 41.338958 ], [ 25.098979, 41.334543 ], [ 25.093125, 41.339031 ], [ 25.083321, 41.338803 ], [ 25.069862, 41.348466 ], [ 25.063542, 41.359683 ], [ 25.055226, 41.364925 ], [ 25.042263, 41.36746 ], [ 25.032668, 41.366241 ], [ 25.010622, 41.372638 ], [ 24.989095, 41.376611 ], [ 24.977629, 41.376219 ], [ 24.956375, 41.386622 ], [ 24.949052, 41.387263 ], [ 24.941026, 41.387351 ], [ 24.919301, 41.403585 ], [ 24.916964, 41.40841 ], [ 24.898236, 41.407357 ], [ 24.885454, 41.398501 ], [ 24.881453, 41.393021 ], [ 24.875469, 41.393518 ], [ 24.869656, 41.39109 ], [ 24.860912, 41.393314 ], [ 24.852692, 41.399192 ], [ 24.836241, 41.398327 ], [ 24.819233, 41.401142 ], [ 24.821647, 41.385097 ], [ 24.814987, 41.36989 ], [ 24.815642, 41.354163 ], [ 24.813316, 41.350202 ], [ 24.802743, 41.346818 ], [ 24.788717, 41.358896 ], [ 24.783956, 41.360189 ], [ 24.764516, 41.36836 ], [ 24.761004, 41.371768 ], [ 24.761958, 41.375924 ], [ 24.746605, 41.381355 ], [ 24.737734, 41.399298 ], [ 24.734198, 41.41271 ], [ 24.72844, 41.416754 ], [ 24.722585, 41.416139 ], [ 24.716242, 41.419485 ], [ 24.704882, 41.42023 ], [ 24.69375, 41.418926 ], [ 24.681542, 41.424464 ], [ 24.67298, 41.418528 ], [ 24.658219, 41.41774 ], [ 24.658393, 41.426492 ], [ 24.663948, 41.432425 ], [ 24.651303, 41.434621 ], [ 24.641637, 41.431114 ], [ 24.627848, 41.431817 ], [ 24.616945, 41.424301 ], [ 24.608221, 41.427705 ], [ 24.597174, 41.442697 ], [ 24.598281, 41.45889 ], [ 24.594962, 41.466322 ], [ 24.585971, 41.468479 ], [ 24.58164, 41.473277 ], [ 24.573319, 41.475655 ], [ 24.568092, 41.491336 ], [ 24.562805, 41.497897 ], [ 24.559745, 41.501694 ], [ 24.563347, 41.513519 ], [ 24.559393, 41.521645 ], [ 24.556325, 41.524543 ], [ 24.556494, 41.529633 ], [ 24.546716, 41.539277 ], [ 24.552513, 41.550999 ], [ 24.542481, 41.557492 ], [ 24.534254, 41.556272 ], [ 24.534549, 41.564277 ], [ 24.52517, 41.568804 ], [ 24.509828, 41.559288 ], [ 24.499159, 41.558613 ], [ 24.494661, 41.55418 ], [ 24.48479, 41.557031 ], [ 24.475104, 41.552051 ], [ 24.471914, 41.546359 ], [ 24.467656, 41.545396 ], [ 24.462073, 41.540721 ], [ 24.462788, 41.529751 ], [ 24.450696, 41.522297 ], [ 24.440355, 41.528519 ], [ 24.43193, 41.527323 ], [ 24.414662, 41.529369 ], [ 24.407729, 41.539135 ], [ 24.395209, 41.538774 ], [ 24.392443, 41.535657 ], [ 24.384393, 41.535668 ], [ 24.376694, 41.526929 ], [ 24.370507, 41.522751 ], [ 24.368362, 41.518053 ], [ 24.362483, 41.517106 ], [ 24.352262, 41.523981 ], [ 24.343232, 41.524819 ], [ 24.338023, 41.526205 ], [ 24.330854, 41.520764 ], [ 24.323076, 41.520255 ], [ 24.313796, 41.513644 ], [ 24.303389, 41.511795 ], [ 24.299471, 41.52305 ], [ 24.296106, 41.525163 ], [ 24.302215, 41.537858 ], [ 24.289304, 41.550222 ], [ 24.271915, 41.558162 ], [ 24.274339, 41.5682 ], [ 24.261837, 41.573589 ], [ 24.241444, 41.562199 ], [ 24.239666, 41.556297 ], [ 24.229549, 41.547473 ], [ 24.213157, 41.551563 ], [ 24.210775, 41.550339 ], [ 24.208712, 41.543749 ], [ 24.197912, 41.539377 ], [ 24.195936, 41.533897 ], [ 24.190699, 41.531154 ], [ 24.192607, 41.519219 ], [ 24.183766, 41.515051 ], [ 24.175227, 41.515445 ], [ 24.172805, 41.518089 ], [ 24.174059, 41.522646 ], [ 24.161339, 41.528788 ], [ 24.158426, 41.536847 ], [ 24.150234, 41.538885 ], [ 24.133946, 41.534129 ], [ 24.131084, 41.54072 ], [ 24.116229, 41.54026 ], [ 24.107483, 41.543276 ], [ 24.101591, 41.549997 ], [ 24.078467, 41.541835 ], [ 24.075017, 41.531616 ], [ 24.063675, 41.526501 ], [ 24.059744, 41.522112 ], [ 24.060193, 41.511363 ], [ 24.066342, 41.499942 ], [ 24.065475, 41.497897 ], [ 24.060523, 41.486216 ], [ 24.070114, 41.480016 ], [ 24.072692, 41.466051 ], [ 24.05565, 41.45962 ], [ 24.04743, 41.451652 ], [ 24.040791, 41.451665 ], [ 24.034759, 41.456241 ], [ 24.023482, 41.456821 ], [ 24.019738, 41.466561 ], [ 24.017278, 41.467812 ], [ 24.007906, 41.457115 ], [ 24.002445, 41.454462 ], [ 23.996992, 41.454879 ], [ 23.99453, 41.450175 ], [ 23.989734, 41.447993 ], [ 23.98435, 41.445544 ], [ 23.981119, 41.440732 ], [ 23.973644, 41.438578 ], [ 23.965799, 41.440133 ], [ 23.958731, 41.444837 ], [ 23.95261, 41.448911 ], [ 23.943854, 41.45074 ], [ 23.941226, 41.461096 ], [ 23.937763, 41.463002 ], [ 23.933571, 41.464812 ], [ 23.931002, 41.472216 ], [ 23.925816, 41.475234 ], [ 23.922081, 41.477408 ], [ 23.915991, 41.480952 ], [ 23.909233, 41.478484 ], [ 23.909996, 41.469789 ], [ 23.905828, 41.457576 ], [ 23.891009, 41.450827 ], [ 23.882191, 41.453833 ], [ 23.870058, 41.449289 ], [ 23.856488, 41.449791 ], [ 23.85016, 41.440537 ], [ 23.843136, 41.441344 ], [ 23.82294, 41.436761 ], [ 23.800927, 41.437096 ], [ 23.790831, 41.426206 ], [ 23.788626, 41.41815 ], [ 23.780613, 41.412922 ], [ 23.767546, 41.396871 ], [ 23.762792, 41.397909 ], [ 23.75883, 41.402694 ], [ 23.730013, 41.407389 ], [ 23.691327, 41.404758 ], [ 23.674238, 41.4107 ], [ 23.661873, 41.400484 ], [ 23.647978, 41.393721 ], [ 23.645823, 41.38046 ], [ 23.637775, 41.376038 ], [ 23.624223, 41.375727 ], [ 23.613755, 41.376058 ], [ 23.605857, 41.37934 ], [ 23.597901, 41.378185 ], [ 23.579761, 41.39005 ], [ 23.552513, 41.386714 ], [ 23.543611, 41.39194 ], [ 23.536681, 41.395063 ], [ 23.533242, 41.40217 ], [ 23.525095, 41.405203 ], [ 23.522781, 41.405044 ], [ 23.506528, 41.400965 ], [ 23.482057, 41.399099 ], [ 23.466922, 41.401473 ], [ 23.438352, 41.405953 ], [ 23.42059, 41.39907 ], [ 23.415894, 41.399648 ], [ 23.404374, 41.401135 ], [ 23.397718, 41.395471 ], [ 23.386343, 41.39014 ], [ 23.376607, 41.381999 ], [ 23.366838, 41.380361 ], [ 23.359807, 41.376799 ], [ 23.350834, 41.367414 ], [ 23.341735, 41.364218 ], [ 23.322365, 41.398771 ], [ 23.297587, 41.401348 ], [ 23.283219, 41.399554 ], [ 23.280173, 41.397383 ], [ 23.256318, 41.38278 ], [ 23.232754, 41.37544 ], [ 23.226463, 41.366565 ], [ 23.230656, 41.349331 ], [ 23.220444, 41.333059 ], [ 23.198726, 41.322705 ], [ 23.189446, 41.322394 ], [ 23.181241, 41.319393 ], [ 23.174805, 41.321235 ], [ 23.134576, 41.320239 ], [ 23.118952, 41.320484 ], [ 23.106438, 41.316823 ], [ 23.086407, 41.319341 ], [ 23.080069, 41.31978 ], [ 23.055959, 41.325739 ], [ 23.033289, 41.332724 ], [ 23.027292, 41.33326 ], [ 23.01678, 41.330038 ], [ 23.003488, 41.330591 ], [ 22.983546, 41.33563 ], [ 22.974557, 41.33287 ], [ 22.951408, 41.335281 ], [ 22.931765, 41.340394 ], [ 22.927592, 41.338539 ], [ 22.928263, 41.341241 ], [ 22.937931, 41.341732 ], [ 22.950189, 41.351727 ], [ 22.965081, 41.353026 ], [ 22.9622, 41.379495 ], [ 22.966257, 41.392958 ], [ 22.960437, 41.408552 ], [ 22.955123, 41.412196 ], [ 22.952767, 41.417531 ], [ 22.956895, 41.423719 ], [ 22.96334, 41.430571 ], [ 22.969844, 41.43204 ], [ 22.977654, 41.442039 ], [ 22.977353, 41.451728 ], [ 22.964592, 41.464349 ], [ 22.967118, 41.473919 ], [ 22.961616, 41.477764 ], [ 22.960316, 41.492377 ], [ 22.957468, 41.493774 ], [ 22.961446, 41.498609 ], [ 22.96968, 41.505344 ], [ 22.970544, 41.516371 ], [ 22.968328, 41.519835 ], [ 22.960233, 41.530471 ], [ 22.959489, 41.532963 ], [ 22.958351, 41.535427 ], [ 22.958622, 41.538006 ], [ 22.960115, 41.540371 ], [ 22.960257, 41.543116 ], [ 22.963951, 41.543764 ], [ 22.969722, 41.54333 ], [ 22.969814, 41.546692 ], [ 22.96901, 41.553323 ], [ 22.968373, 41.554689 ], [ 22.972567, 41.560856 ], [ 22.972283, 41.563594 ], [ 22.969747, 41.563728 ], [ 22.967144, 41.567278 ], [ 22.965684, 41.569858 ], [ 22.965049, 41.575309 ], [ 22.965613, 41.578292 ], [ 22.96315, 41.57946 ], [ 22.962738, 41.581213 ], [ 22.960685, 41.581509 ], [ 22.960616, 41.584789 ], [ 22.955776, 41.586116 ], [ 22.952364, 41.586255 ], [ 22.951227, 41.589621 ], [ 22.950266, 41.590883 ], [ 22.950831, 41.592235 ], [ 22.949745, 41.594579 ], [ 22.949314, 41.598664 ], [ 22.951202, 41.60468 ], [ 22.950472, 41.606127 ], [ 22.951666, 41.611574 ], [ 22.952868, 41.614144 ], [ 22.95291, 41.616918 ], [ 22.953393, 41.619605 ], [ 22.952242, 41.621436 ], [ 22.952786, 41.62731 ], [ 22.948412, 41.631796 ], [ 22.952121, 41.641919 ], [ 22.959673, 41.646473 ], [ 22.968044, 41.648092 ], [ 22.981703, 41.646423 ], [ 22.984383, 41.650527 ], [ 22.982636, 41.65682 ], [ 22.987457, 41.659905 ], [ 22.995743, 41.674758 ], [ 23.001273, 41.678 ], [ 23.013415, 41.691822 ], [ 23.022019, 41.701801 ], [ 23.034123, 41.709444 ], [ 23.033991, 41.710759 ], [ 23.030963, 41.729531 ], [ 23.021435, 41.747158 ], [ 23.015877, 41.75052 ], [ 23.015658, 41.756486 ], [ 23.012701, 41.759598 ], [ 23.007593, 41.768578 ], [ 23.00028, 41.769258 ], [ 22.994835, 41.767032 ], [ 22.989244, 41.770787 ], [ 22.983016, 41.769469 ], [ 22.968674, 41.770988 ], [ 22.963597, 41.775491 ], [ 22.965437, 41.781571 ], [ 22.963469, 41.78938 ], [ 22.957655, 41.792212 ], [ 22.953785, 41.798347 ], [ 22.940981, 41.817716 ], [ 22.941506, 41.83205 ], [ 22.936396, 41.841961 ], [ 22.937189, 41.847157 ], [ 22.931948, 41.850025 ], [ 22.925895, 41.863494 ], [ 22.915374, 41.876462 ], [ 22.905274, 41.875625 ], [ 22.901934, 41.877642 ], [ 22.899714, 41.887081 ], [ 22.901424, 41.892471 ], [ 22.897426, 41.89524 ], [ 22.898778, 41.9037 ], [ 22.896415, 41.906676 ], [ 22.891648, 41.918701 ], [ 22.883232, 41.92255 ], [ 22.873449, 41.936101 ], [ 22.877664, 41.941791 ], [ 22.874213, 41.954552 ], [ 22.878127, 41.976171 ], [ 22.874738, 41.977901 ], [ 22.875094, 41.996464 ], [ 22.864069, 42.001658 ], [ 22.86973, 42.011419 ], [ 22.868792, 42.015439 ], [ 22.867214, 42.022199 ], [ 22.857783, 42.024232 ], [ 22.853575, 42.025139 ], [ 22.832444, 42.021318 ], [ 22.826209, 42.022285 ], [ 22.815052, 42.028914 ], [ 22.806158, 42.038241 ], [ 22.800174, 42.044693 ], [ 22.788627, 42.03749 ], [ 22.778132, 42.037454 ], [ 22.75734, 42.04334 ], [ 22.749544, 42.046609 ], [ 22.740444, 42.044881 ], [ 22.734099, 42.048135 ], [ 22.728338, 42.057084 ], [ 22.719649, 42.062696 ], [ 22.717397, 42.068477 ], [ 22.708101, 42.066661 ], [ 22.695353, 42.063226 ], [ 22.68684, 42.06441 ], [ 22.67777, 42.064367 ], [ 22.661196, 42.073034 ], [ 22.651678, 42.076773 ], [ 22.641714, 42.085797 ], [ 22.628809, 42.093968 ], [ 22.612066, 42.09466 ], [ 22.599098, 42.100007 ], [ 22.590701, 42.108537 ], [ 22.580569, 42.110108 ], [ 22.570913, 42.115355 ], [ 22.566417, 42.117987 ], [ 22.548193, 42.133994 ], [ 22.5288, 42.139934 ], [ 22.522636, 42.147452 ], [ 22.510412, 42.155158 ], [ 22.516224, 42.157923 ], [ 22.506004, 42.169775 ], [ 22.501364, 42.185828 ], [ 22.503568, 42.192215 ], [ 22.500863, 42.196213 ], [ 22.485612, 42.201149 ], [ 22.473127, 42.201692 ], [ 22.471124, 42.201779 ], [ 22.467482, 42.209403 ], [ 22.449122, 42.236597 ], [ 22.450741, 42.241243 ], [ 22.441183, 42.246106 ], [ 22.434192, 42.257198 ], [ 22.425172, 42.256891 ], [ 22.424122, 42.264081 ], [ 22.419185, 42.264635 ], [ 22.41395, 42.269106 ], [ 22.40178, 42.281078 ], [ 22.400929, 42.290003 ], [ 22.389503, 42.295068 ], [ 22.384368, 42.303294 ], [ 22.382091, 42.304171 ], [ 22.378917, 42.308362 ], [ 22.367039, 42.308632 ], [ 22.360207, 42.311157 ], [ 22.367136, 42.322161 ], [ 22.384486, 42.322895 ], [ 22.398223, 42.326372 ], [ 22.404528, 42.332038 ], [ 22.415526, 42.32952 ], [ 22.423506, 42.331877 ], [ 22.43333, 42.323325 ], [ 22.441554, 42.328822 ], [ 22.455526, 42.333657 ], [ 22.463274, 42.34486 ], [ 22.459838, 42.360712 ], [ 22.465014, 42.367914 ], [ 22.469989, 42.375759 ], [ 22.473127, 42.37708 ], [ 22.480603, 42.380227 ], [ 22.479085, 42.393027 ], [ 22.494594, 42.396339 ], [ 22.514059, 42.395249 ], [ 22.518088, 42.396659 ], [ 22.522867, 42.411966 ], [ 22.527461, 42.417589 ], [ 22.535374, 42.42236 ], [ 22.536219, 42.431746 ], [ 22.543286, 42.449682 ], [ 22.541411, 42.454062 ], [ 22.544047, 42.462604 ], [ 22.558423, 42.479979 ], [ 22.558634, 42.485625 ], [ 22.546322, 42.508214 ], [ 22.521814, 42.526692 ], [ 22.513989, 42.52764 ], [ 22.50318, 42.533674 ], [ 22.490655, 42.547442 ], [ 22.477958, 42.553602 ], [ 22.473127, 42.558454 ], [ 22.469407, 42.56219 ], [ 22.452032, 42.566479 ], [ 22.43914, 42.566464 ], [ 22.441172, 42.585713 ], [ 22.441866, 42.589728 ], [ 22.448933, 42.596034 ], [ 22.451596, 42.611625 ], [ 22.459484, 42.625578 ], [ 22.458933, 42.630163 ], [ 22.464632, 42.632931 ], [ 22.467049, 42.639532 ], [ 22.456763, 42.645835 ], [ 22.461472, 42.64849 ], [ 22.459898, 42.655165 ], [ 22.47236, 42.666998 ], [ 22.473127, 42.668849 ], [ 22.475972, 42.675712 ], [ 22.473127, 42.677648 ], [ 22.459305, 42.687051 ], [ 22.460236, 42.690299 ], [ 22.471072, 42.694418 ], [ 22.473127, 42.700618 ], [ 22.476425, 42.71056 ], [ 22.487297, 42.721527 ], [ 22.495841, 42.722383 ], [ 22.500916, 42.739177 ], [ 22.497651, 42.745042 ], [ 22.485715, 42.750499 ], [ 22.475699, 42.764606 ], [ 22.475329, 42.767183 ], [ 22.473127, 42.768684 ], [ 22.467346, 42.772628 ], [ 22.460406, 42.778409 ], [ 22.457001, 42.791333 ], [ 22.449945, 42.796335 ], [ 22.448049, 42.802324 ], [ 22.440913, 42.806877 ], [ 22.4399, 42.821401 ], [ 22.442822, 42.825456 ], [ 22.464288, 42.832246 ], [ 22.47313, 42.831493 ], [ 22.497192, 42.847373 ], [ 22.510624, 42.85432 ], [ 22.516775, 42.8595 ], [ 22.515907, 42.865703 ], [ 22.515511, 42.868538 ], [ 22.520947, 42.875721 ], [ 22.526258, 42.876322 ], [ 22.537453, 42.881277 ], [ 22.554987, 42.872187 ], [ 22.563638, 42.870304 ], [ 22.569469, 42.866644 ], [ 22.570913, 42.865737 ], [ 22.575448, 42.86289 ], [ 22.575002, 42.865703 ], [ 22.573327, 42.876263 ], [ 22.578957, 42.882184 ], [ 22.581519, 42.886597 ], [ 22.584231, 42.891265 ], [ 22.591011, 42.890827 ], [ 22.598047, 42.893962 ], [ 22.605246, 42.892509 ], [ 22.617197, 42.895701 ], [ 22.624696, 42.891919 ], [ 22.639838, 42.878626 ], [ 22.649469, 42.881249 ], [ 22.659471, 42.882068 ], [ 22.672498, 42.875744 ], [ 22.675183, 42.866779 ], [ 22.679949, 42.866651 ], [ 22.682728, 42.872408 ], [ 22.690018, 42.876025 ], [ 22.698348, 42.884099 ], [ 22.705413, 42.880313 ], [ 22.713235, 42.886286 ], [ 22.722051, 42.885364 ], [ 22.730145, 42.888019 ], [ 22.737141, 42.885489 ], [ 22.744311, 42.886582 ], [ 22.7484, 42.889787 ], [ 22.753581, 42.894439 ], [ 22.754012, 42.899145 ], [ 22.758239, 42.901368 ], [ 22.760325, 42.911129 ], [ 22.773555, 42.918769 ], [ 22.778533, 42.927723 ], [ 22.779232, 42.931821 ], [ 22.77374, 42.935955 ], [ 22.769035, 42.946106 ], [ 22.770116, 42.94857 ], [ 22.775324, 42.949854 ], [ 22.779195, 42.952272 ], [ 22.782271, 42.951458 ], [ 22.781655, 42.955162 ], [ 22.785154, 42.958464 ], [ 22.783207, 42.962756 ], [ 22.785736, 42.968062 ], [ 22.785451, 42.981388 ], [ 22.801065, 42.986742 ], [ 22.804365, 42.987549 ], [ 22.822134, 42.993027 ], [ 22.835277, 42.998216 ], [ 22.849284, 43.004712 ], [ 22.857783, 43.015385 ], [ 22.86257, 43.021395 ], [ 22.880205, 43.028677 ], [ 22.897035, 43.035628 ], [ 22.899713, 43.047196 ], [ 22.909823, 43.057167 ], [ 22.918504, 43.080065 ], [ 22.933394, 43.088107 ], [ 22.952007, 43.09251 ], [ 22.982636, 43.111649 ], [ 22.985455, 43.121717 ], [ 22.995286, 43.137653 ], [ 22.994133, 43.150119 ], [ 22.996942, 43.156065 ], [ 22.995164, 43.160937 ], [ 22.986876, 43.167496 ], [ 23.005295, 43.186433 ], [ 23.00621, 43.192878 ], [ 22.999808, 43.193082 ], [ 22.983712, 43.201932 ], [ 22.961487, 43.206501 ], [ 22.94091, 43.203241 ], [ 22.918698, 43.219189 ], [ 22.907942, 43.220968 ], [ 22.89768, 43.22652 ], [ 22.893232, 43.232118 ], [ 22.870726, 43.255175 ], [ 22.86821, 43.267276 ], [ 22.860414, 43.273567 ], [ 22.857783, 43.274206 ], [ 22.848761, 43.276399 ], [ 22.842789, 43.286094 ], [ 22.845481, 43.296706 ], [ 22.839163, 43.30109 ], [ 22.831926, 43.312392 ], [ 22.82621, 43.330405 ], [ 22.795899, 43.342247 ], [ 22.788082, 43.352291 ], [ 22.770103, 43.364055 ], [ 22.768426, 43.375332 ], [ 22.747454, 43.386613 ], [ 22.734516, 43.388889 ], [ 22.72234, 43.39525 ], [ 22.680341, 43.394466 ], [ 22.666976, 43.402747 ], [ 22.666429, 43.411765 ], [ 22.660135, 43.421953 ], [ 22.661157, 43.425932 ], [ 22.654591, 43.428139 ], [ 22.65246, 43.428272 ], [ 22.649985, 43.4298 ], [ 22.638684, 43.433411 ], [ 22.625074, 43.428308 ], [ 22.597116, 43.436332 ], [ 22.59141, 43.440635 ], [ 22.587455, 43.451346 ], [ 22.581519, 43.457772 ], [ 22.575874, 43.463882 ], [ 22.570913, 43.463503 ], [ 22.5532, 43.46261 ], [ 22.534904, 43.471265 ], [ 22.532318, 43.478608 ], [ 22.525377, 43.486069 ], [ 22.523317, 43.496666 ], [ 22.507142, 43.516918 ], [ 22.502514, 43.528575 ], [ 22.502743, 43.540168 ], [ 22.493777, 43.550868 ], [ 22.488167, 43.56743 ], [ 22.496159, 43.584128 ], [ 22.494566, 43.585387 ], [ 22.488339, 43.590308 ], [ 22.493002, 43.601451 ], [ 22.488636, 43.61734 ], [ 22.482464, 43.624814 ], [ 22.491139, 43.633977 ], [ 22.488958, 43.642892 ], [ 22.478697, 43.656025 ], [ 22.473127, 43.657049 ], [ 22.457621, 43.6599 ], [ 22.439632, 43.673836 ], [ 22.423471, 43.679425 ], [ 22.407838, 43.695975 ], [ 22.404655, 43.716457 ], [ 22.394722, 43.730341 ], [ 22.399351, 43.738343 ], [ 22.399065, 43.752764 ], [ 22.402691, 43.758914 ], [ 22.39497, 43.760105 ], [ 22.378432, 43.774671 ], [ 22.357497, 43.810026 ], [ 22.360272, 43.821971 ], [ 22.370042, 43.830974 ], [ 22.370918, 43.83298 ], [ 22.370745, 43.8348 ], [ 22.374605, 43.839647 ], [ 22.375773, 43.841664 ], [ 22.378431, 43.845177 ], [ 22.379568, 43.847528 ], [ 22.380205, 43.851212 ], [ 22.383858, 43.862195 ], [ 22.384083, 43.863974 ], [ 22.385514, 43.86861 ], [ 22.386264, 43.873599 ], [ 22.388677, 43.878894 ], [ 22.388848, 43.882797 ], [ 22.388193, 43.884099 ], [ 22.389112, 43.886472 ], [ 22.389581, 43.890067 ], [ 22.394269, 43.908566 ], [ 22.388408, 43.925929 ], [ 22.408473, 43.941165 ], [ 22.407397, 43.945944 ], [ 22.406201, 43.947951 ], [ 22.407719, 43.950806 ], [ 22.411425, 43.954765 ], [ 22.410725, 43.961789 ], [ 22.412335, 43.967215 ], [ 22.413212, 43.972169 ], [ 22.410843, 43.974957 ], [ 22.411804, 43.978369 ], [ 22.412221, 43.979851 ], [ 22.408186, 43.981637 ], [ 22.409736, 43.984423 ], [ 22.409741, 43.987413 ], [ 22.416197, 43.992316 ], [ 22.410261, 43.997363 ], [ 22.411032, 44.004695 ], [ 22.440041, 44.010376 ], [ 22.444107, 44.016624 ], [ 22.455208, 44.016529 ], [ 22.467834, 44.015043 ], [ 22.473127, 44.015911 ], [ 22.481269, 44.019488 ], [ 22.487042, 44.019891 ], [ 22.495481, 44.018263 ], [ 22.507646, 44.018409 ], [ 22.511128, 44.019416 ], [ 22.517418, 44.018848 ], [ 22.522757, 44.019058 ], [ 22.527349, 44.019725 ], [ 22.531057, 44.020834 ], [ 22.532656, 44.025074 ], [ 22.538767, 44.025817 ], [ 22.540271, 44.029195 ], [ 22.540781, 44.031274 ], [ 22.543468, 44.033652 ], [ 22.540882, 44.035134 ], [ 22.537944, 44.03817 ], [ 22.541946, 44.042119 ], [ 22.540348, 44.043777 ], [ 22.536145, 44.045511 ], [ 22.531685, 44.048638 ], [ 22.53577, 44.052122 ], [ 22.553371, 44.053705 ], [ 22.560248, 44.057121 ], [ 22.569469, 44.056111 ], [ 22.57562, 44.05462 ], [ 22.580653, 44.054068 ], [ 22.581519, 44.058708 ], [ 22.582145, 44.06206 ], [ 22.584849, 44.062309 ], [ 22.587484, 44.062551 ], [ 22.596021, 44.062188 ], [ 22.599533, 44.06343 ], [ 22.605464, 44.062264 ], [ 22.608456, 44.062146 ], [ 22.610329, 44.062503 ], [ 22.612405, 44.062289 ], [ 22.6156, 44.063301 ], [ 22.621212, 44.063376 ], [ 22.619426, 44.065648 ], [ 22.618939, 44.068846 ], [ 22.624596, 44.07284 ], [ 22.61634, 44.077929 ], [ 22.619261, 44.082811 ], [ 22.619669, 44.095881 ], [ 22.610709, 44.105702 ], [ 22.611772, 44.114453 ], [ 22.620068, 44.149147 ], [ 22.621579, 44.150446 ], [ 22.625765, 44.1483 ], [ 22.627787, 44.156905 ], [ 22.614267, 44.165005 ], [ 22.61865, 44.172543 ], [ 22.626528, 44.171527 ], [ 22.628637, 44.174204 ], [ 22.63446, 44.175074 ], [ 22.636063, 44.178019 ], [ 22.632466, 44.182195 ], [ 22.640897, 44.18447 ], [ 22.638543, 44.19127 ], [ 22.645219, 44.199091 ], [ 22.645653, 44.207221 ], [ 22.653732, 44.205336 ], [ 22.655815, 44.207467 ], [ 22.664331, 44.212845 ], [ 22.668221, 44.20906 ], [ 22.675162, 44.215663 ] ] ] ] } }
]
}
