{
"type": "FeatureCollection",
"name": "Burkina Faso",
"crs": { "type": "name", "properties": { "name": "urn:ogc:def:crs:OGC:1.3:CRS84" } },
"features": [
{ "type": "Feature", "properties": { "id": "BF", "CNTR_ID": "BF", "CNTR_NAME": "Burkina Faso", "NAME_ENGL": "Burkina Faso", "ISO3_CODE": "BFA", "FID": "BF" }, "geometry": { "type": "MultiPolygon", "coordinates": [ [ [ [ 2.405076, 11.89978 ], [ 2.397389, 11.894677 ], [ 2.395135, 11.889731 ], [ 2.401841, 11.875091 ], [ 2.401678, 11.86961 ], [ 2.381522, 11.856071 ], [ 2.375928, 11.84532 ], [ 2.375088, 11.835081 ], [ 2.382484, 11.827358 ], [ 2.368588, 11.814728 ], [ 2.371704, 11.793981 ], [ 2.341661, 11.785533 ], [ 2.337654, 11.769892 ], [ 2.319163, 11.755578 ], [ 2.304033, 11.734921 ], [ 2.299599, 11.718499 ], [ 2.306115, 11.696966 ], [ 2.304331, 11.685633 ], [ 2.308493, 11.679632 ], [ 2.306892, 11.676091 ], [ 2.257492, 11.647687 ], [ 2.208279, 11.602442 ], [ 2.184874, 11.596419 ], [ 2.018306, 11.427409 ], [ 2.00912, 11.423309 ], [ 1.984771, 11.42038 ], [ 1.955822, 11.420868 ], [ 1.913963, 11.430361 ], [ 1.893093, 11.43902 ], [ 1.883896, 11.438642 ], [ 1.872295, 11.445323 ], [ 1.850405, 11.438948 ], [ 1.843268, 11.444196 ], [ 1.827095, 11.434146 ], [ 1.804422, 11.436015 ], [ 1.794626, 11.426805 ], [ 1.783331, 11.422389 ], [ 1.772964, 11.419922 ], [ 1.760414, 11.422183 ], [ 1.753657, 11.417294 ], [ 1.747578, 11.419417 ], [ 1.738341, 11.417197 ], [ 1.715903, 11.429027 ], [ 1.700673, 11.408811 ], [ 1.684557, 11.413933 ], [ 1.663252, 11.396786 ], [ 1.650911, 11.396551 ], [ 1.64, 11.401691 ], [ 1.621418, 11.39076 ], [ 1.604907, 11.394064 ], [ 1.599671, 11.395111 ], [ 1.592229, 11.399567 ], [ 1.589639, 11.420797 ], [ 1.575647, 11.430382 ], [ 1.579232, 11.44167 ], [ 1.56952, 11.446575 ], [ 1.56734, 11.456853 ], [ 1.555009, 11.470572 ], [ 1.550382, 11.469149 ], [ 1.541224, 11.450953 ], [ 1.532855, 11.447554 ], [ 1.511935, 11.455971 ], [ 1.509691, 11.456874 ], [ 1.500242, 11.465914 ], [ 1.494073, 11.465109 ], [ 1.477518, 11.454556 ], [ 1.467741, 11.46552 ], [ 1.450807, 11.463148 ], [ 1.441745, 11.472598 ], [ 1.436366, 11.472607 ], [ 1.425642, 11.46498 ], [ 1.419218, 11.45305 ], [ 1.404179, 11.452955 ], [ 1.384847, 11.441738 ], [ 1.380303, 11.423228 ], [ 1.383869, 11.410504 ], [ 1.389872, 11.405103 ], [ 1.388795, 11.400661 ], [ 1.37614, 11.397084 ], [ 1.371754, 11.390109 ], [ 1.362956, 11.38545 ], [ 1.353423, 11.389428 ], [ 1.341994, 11.365266 ], [ 1.3194, 11.361133 ], [ 1.324559, 11.339263 ], [ 1.331323, 11.331159 ], [ 1.332543, 11.322899 ], [ 1.340618, 11.310238 ], [ 1.325758, 11.290936 ], [ 1.315856, 11.292578 ], [ 1.307254, 11.300667 ], [ 1.303898, 11.299431 ], [ 1.300471, 11.292476 ], [ 1.2915, 11.293482 ], [ 1.280522, 11.312204 ], [ 1.268656, 11.319908 ], [ 1.260595, 11.320858 ], [ 1.25583, 11.317932 ], [ 1.252553, 11.310542 ], [ 1.255353, 11.288747 ], [ 1.259501, 11.279756 ], [ 1.264752, 11.276861 ], [ 1.268405, 11.280221 ], [ 1.264546, 11.28832 ], [ 1.271204, 11.288222 ], [ 1.27567, 11.264286 ], [ 1.273273, 11.259994 ], [ 1.260973, 11.254275 ], [ 1.252013, 11.246029 ], [ 1.247163, 11.246498 ], [ 1.226055, 11.259556 ], [ 1.188724, 11.258643 ], [ 1.178357, 11.262018 ], [ 1.161811, 11.261148 ], [ 1.160107, 11.262205 ], [ 1.146808, 11.270459 ], [ 1.139697, 11.268443 ], [ 1.131413, 11.259302 ], [ 1.129547, 11.251234 ], [ 1.136252, 11.237571 ], [ 1.15579, 11.223794 ], [ 1.149424, 11.203204 ], [ 1.151846, 11.1979 ], [ 1.151215, 11.175724 ], [ 1.15853, 11.163549 ], [ 1.149776, 11.162165 ], [ 1.139708, 11.173442 ], [ 1.119696, 11.171793 ], [ 1.095178, 11.146846 ], [ 1.057078, 11.1438 ], [ 1.053476, 11.139564 ], [ 1.05192, 11.127663 ], [ 1.063264, 11.119351 ], [ 1.069731, 11.127685 ], [ 1.085203, 11.114882 ], [ 1.085188, 11.105652 ], [ 1.089272, 11.099426 ], [ 1.086988, 11.090584 ], [ 1.095848, 11.079139 ], [ 1.094429, 11.068714 ], [ 1.100928, 11.055488 ], [ 1.115194, 11.040058 ], [ 1.111401, 11.032343 ], [ 1.090946, 11.04858 ], [ 1.068899, 11.05855 ], [ 1.043546, 11.049531 ], [ 1.03426, 11.050213 ], [ 1.023067, 11.061965 ], [ 1.012252, 11.083744 ], [ 1.000895, 11.085597 ], [ 0.989766, 11.081343 ], [ 0.983974, 11.08838 ], [ 0.979366, 11.089775 ], [ 0.971555, 11.080288 ], [ 0.968561, 11.056443 ], [ 0.949741, 11.036805 ], [ 0.92249, 11.017873 ], [ 0.91216, 10.99649 ], [ 0.657269, 10.997234 ], [ 0.596206, 10.970365 ], [ 0.585859, 10.96846 ], [ 0.497235, 10.932566 ], [ 0.505919, 10.977758 ], [ 0.504057, 10.981586 ], [ 0.493956, 10.982909 ], [ 0.490924, 10.98683 ], [ 0.501025, 11.003777 ], [ 0.500925, 11.009014 ], [ -0.14201, 11.138979 ], [ -0.282787, 11.164427 ], [ -0.288349, 11.14753 ], [ -0.272466, 11.137497 ], [ -0.270958, 11.126936 ], [ -0.27843, 11.122672 ], [ -0.320098, 11.114747 ], [ -0.334006, 11.10805 ], [ -0.339706, 11.088555 ], [ -0.353618, 11.083765 ], [ -0.354889, 11.074525 ], [ -0.358724, 11.070647 ], [ -0.363011, 11.070141 ], [ -0.37268, 11.085365 ], [ -0.377957, 11.117587 ], [ -0.400301, 11.11943 ], [ -0.41621, 11.11139 ], [ -0.420999, 11.099678 ], [ -0.423149, 11.062863 ], [ -0.414085, 11.043345 ], [ -0.416683, 11.031129 ], [ -0.439668, 11.03107 ], [ -0.458731, 11.026289 ], [ -0.467374, 11.016887 ], [ -0.483645, 11.013225 ], [ -0.494102, 10.998391 ], [ -0.503937, 10.990123 ], [ -0.520427, 10.989313 ], [ -0.529814, 10.995019 ], [ -0.546125, 10.973845 ], [ -0.550974, 10.976071 ], [ -0.55446, 10.98377 ], [ -0.560114, 10.989026 ], [ -0.565177, 10.993732 ], [ -0.568761, 10.993757 ], [ -0.585093, 10.961301 ], [ -0.59369, 10.939993 ], [ -0.599136, 10.915991 ], [ -0.614771, 10.904574 ], [ -0.619306, 10.91145 ], [ -0.626557, 10.939254 ], [ -0.645878, 10.948342 ], [ -0.645805, 10.955604 ], [ -0.653101, 10.962848 ], [ -0.662166, 10.956308 ], [ -0.670658, 10.959511 ], [ -0.664672, 10.972752 ], [ -0.65705, 10.975191 ], [ -0.653692, 10.979679 ], [ -0.655234, 10.987418 ], [ -0.671482, 10.989721 ], [ -0.679776, 10.982805 ], [ -0.685913, 10.987276 ], [ -0.686095, 10.998167 ], [ -0.807998, 10.998653 ], [ -0.81462, 11.006047 ], [ -0.82865, 11.00584 ], [ -0.831869, 10.997647 ], [ -0.857055, 10.996495 ], [ -0.8705, 10.967742 ], [ -0.891154, 10.964312 ], [ -0.893079, 10.965524 ], [ -0.889486, 10.969525 ], [ -0.892242, 10.979633 ], [ -0.915936, 10.981239 ], [ -0.916895, 10.998501 ], [ -0.920015, 11.000129 ], [ -0.957104, 10.999956 ], [ -0.974838, 10.993403 ], [ -1.000543, 10.993239 ], [ -1.003861, 10.994207 ], [ -1.008114, 11.003453 ], [ -1.113393, 11.003814 ], [ -1.115798, 11.002041 ], [ -1.116389, 10.987115 ], [ -1.118917, 10.985546 ], [ -1.300623, 10.991967 ], [ -1.312169, 10.992375 ], [ -1.389806, 10.987711 ], [ -1.423504, 11.015251 ], [ -1.436247, 11.030059 ], [ -1.442618, 11.028656 ], [ -1.444668, 11.019041 ], [ -1.451963, 11.013714 ], [ -1.472091, 11.02117 ], [ -1.583994, 11.020105 ], [ -1.586403, 11.018333 ], [ -1.58819, 11.000696 ], [ -1.686716, 11.000021 ], [ -1.690504, 10.992585 ], [ -1.693415, 10.991848 ], [ -1.742989, 10.991741 ], [ -1.746354, 10.999153 ], [ -1.750295, 11.000075 ], [ -2.357043, 10.999549 ], [ -2.574765, 10.99936 ], [ -2.58752, 10.999349 ], [ -2.593119, 10.998337 ], [ -2.607082, 10.987951 ], [ -2.684721, 10.987313 ], [ -2.69806, 10.987203 ], [ -2.724579, 10.999328 ], [ -2.833605, 10.998562 ], [ -2.840011, 10.96658 ], [ -2.819521, 10.942231 ], [ -2.817747, 10.92452 ], [ -2.837506, 10.893954 ], [ -2.858199, 10.891171 ], [ -2.864373, 10.886199 ], [ -2.866207, 10.875377 ], [ -2.863806, 10.857829 ], [ -2.878582, 10.83181 ], [ -2.88072, 10.804408 ], [ -2.890871, 10.782526 ], [ -2.895683, 10.764461 ], [ -2.917165, 10.737807 ], [ -2.929585, 10.72757 ], [ -2.937519, 10.72103 ], [ -2.938384, 10.708982 ], [ -2.929585, 10.706034 ], [ -2.911846, 10.700091 ], [ -2.906064, 10.68672 ], [ -2.91261, 10.668262 ], [ -2.929585, 10.653298 ], [ -2.931162, 10.651907 ], [ -2.938398, 10.641165 ], [ -2.940532, 10.61597 ], [ -2.929585, 10.60228 ], [ -2.925893, 10.597663 ], [ -2.911169, 10.564677 ], [ -2.902515, 10.552052 ], [ -2.898747, 10.540958 ], [ -2.898439, 10.521388 ], [ -2.874822, 10.490958 ], [ -2.871341, 10.48102 ], [ -2.872024, 10.467127 ], [ -2.864607, 10.454634 ], [ -2.833622, 10.43803 ], [ -2.779965, 10.426125 ], [ -2.774569, 10.421757 ], [ -2.776343, 10.413442 ], [ -2.782085, 10.4077 ], [ -2.799007, 10.399029 ], [ -2.817847, 10.397376 ], [ -2.831299, 10.386848 ], [ -2.841223, 10.365535 ], [ -2.842349, 10.344431 ], [ -2.849265, 10.319037 ], [ -2.841656, 10.304586 ], [ -2.833093, 10.296436 ], [ -2.797693, 10.2767 ], [ -2.766758, 10.265782 ], [ -2.76039, 10.259758 ], [ -2.757359, 10.251552 ], [ -2.756925, 10.238664 ], [ -2.760972, 10.227708 ], [ -2.790438, 10.204097 ], [ -2.79677, 10.193672 ], [ -2.787603, 10.142835 ], [ -2.792763, 10.124325 ], [ -2.788361, 10.094047 ], [ -2.790092, 10.071774 ], [ -2.782522, 10.045774 ], [ -2.781266, 10.028213 ], [ -2.775405, 10.012768 ], [ -2.770286, 10.005126 ], [ -2.763242, 9.994611 ], [ -2.750303, 9.981668 ], [ -2.743477, 9.961642 ], [ -2.745217, 9.948404 ], [ -2.755383, 9.934684 ], [ -2.762119, 9.917703 ], [ -2.761272, 9.885413 ], [ -2.748916, 9.859266 ], [ -2.730838, 9.838894 ], [ -2.727117, 9.827978 ], [ -2.732317, 9.816492 ], [ -2.749295, 9.808065 ], [ -2.757154, 9.80092 ], [ -2.77753, 9.758929 ], [ -2.788109, 9.747212 ], [ -2.783434, 9.725303 ], [ -2.786402, 9.699015 ], [ -2.780144, 9.688799 ], [ -2.757998, 9.679779 ], [ -2.755291, 9.664414 ], [ -2.753643, 9.655058 ], [ -2.74679, 9.641558 ], [ -2.748496, 9.633745 ], [ -2.760622, 9.61845 ], [ -2.770819, 9.59904 ], [ -2.770869, 9.579664 ], [ -2.768062, 9.56948 ], [ -2.755196, 9.551138 ], [ -2.732396, 9.531559 ], [ -2.713438, 9.523013 ], [ -2.701219, 9.511758 ], [ -2.686919, 9.490736 ], [ -2.707295, 9.4745 ], [ -2.752852, 9.410574 ], [ -2.761591, 9.402623 ], [ -2.773338, 9.403225 ], [ -2.797462, 9.418261 ], [ -2.868891, 9.490474 ], [ -2.902043, 9.532364 ], [ -2.929585, 9.581572 ], [ -2.965709, 9.646215 ], [ -2.973036, 9.664414 ], [ -2.994204, 9.716985 ], [ -3.007364, 9.737305 ], [ -3.017617, 9.741906 ], [ -3.046609, 9.720574 ], [ -3.062658, 9.721852 ], [ -3.090798, 9.761224 ], [ -3.095989, 9.79188 ], [ -3.109371, 9.812072 ], [ -3.123558, 9.841787 ], [ -3.137674, 9.847539 ], [ -3.168845, 9.842572 ], [ -3.18251, 9.843337 ], [ -3.188634, 9.847634 ], [ -3.194144, 9.859165 ], [ -3.192754, 9.912796 ], [ -3.196594, 9.925713 ], [ -3.211786, 9.921801 ], [ -3.22205, 9.902637 ], [ -3.239616, 9.894402 ], [ -3.252507, 9.877524 ], [ -3.280142, 9.853735 ], [ -3.30935, 9.85388 ], [ -3.316248, 9.857828 ], [ -3.318533, 9.863552 ], [ -3.310652, 9.889049 ], [ -3.311988, 9.895787 ], [ -3.31711, 9.901049 ], [ -3.346993, 9.891663 ], [ -3.366563, 9.903715 ], [ -3.394729, 9.91525 ], [ -3.420557, 9.912286 ], [ -3.469834, 9.924586 ], [ -3.492503, 9.923217 ], [ -3.551709, 9.926067 ], [ -3.597875, 9.920567 ], [ -3.629823, 9.950277 ], [ -3.642706, 9.955976 ], [ -3.674517, 9.940599 ], [ -3.707856, 9.9419 ], [ -3.754283, 9.930453 ], [ -3.787715, 9.912094 ], [ -3.811711, 9.88877 ], [ -3.899707, 9.899269 ], [ -3.90492, 9.8941 ], [ -3.919254, 9.879888 ], [ -3.928416, 9.878307 ], [ -3.939487, 9.871783 ], [ -3.963435, 9.872409 ], [ -3.971898, 9.868678 ], [ -3.977102, 9.853435 ], [ -3.974615, 9.841863 ], [ -3.984107, 9.831876 ], [ -3.993838, 9.830049 ], [ -4.010599, 9.835587 ], [ -4.033314, 9.831505 ], [ -4.043204, 9.819185 ], [ -4.047465, 9.801325 ], [ -4.062207, 9.799768 ], [ -4.075921, 9.803776 ], [ -4.12135, 9.829948 ], [ -4.132121, 9.830316 ], [ -4.139236, 9.824197 ], [ -4.146677, 9.811552 ], [ -4.165788, 9.797495 ], [ -4.173927, 9.782557 ], [ -4.18364, 9.77397 ], [ -4.200732, 9.766157 ], [ -4.207509, 9.763059 ], [ -4.227583, 9.761094 ], [ -4.238039, 9.754664 ], [ -4.27109, 9.754926 ], [ -4.276198, 9.740448 ], [ -4.267965, 9.736042 ], [ -4.266975, 9.731996 ], [ -4.275509, 9.702535 ], [ -4.282778, 9.692102 ], [ -4.281384, 9.683271 ], [ -4.288555, 9.66864 ], [ -4.288914, 9.664414 ], [ -4.291043, 9.639322 ], [ -4.30088, 9.621854 ], [ -4.318056, 9.601882 ], [ -4.349173, 9.624203 ], [ -4.358367, 9.625734 ], [ -4.370378, 9.617911 ], [ -4.375632, 9.597273 ], [ -4.381308, 9.594667 ], [ -4.389417, 9.595405 ], [ -4.404378, 9.607771 ], [ -4.418312, 9.647859 ], [ -4.433537, 9.661364 ], [ -4.466803, 9.653201 ], [ -4.503838, 9.647848 ], [ -4.510333, 9.649904 ], [ -4.51859, 9.661211 ], [ -4.519055, 9.664414 ], [ -4.522898, 9.690925 ], [ -4.521342, 9.704302 ], [ -4.507714, 9.721201 ], [ -4.506158, 9.734454 ], [ -4.510921, 9.742197 ], [ -4.52032, 9.745567 ], [ -4.547785, 9.745385 ], [ -4.557776, 9.740729 ], [ -4.559319, 9.736677 ], [ -4.556988, 9.730173 ], [ -4.547588, 9.721798 ], [ -4.546724, 9.717634 ], [ -4.557046, 9.699851 ], [ -4.569924, 9.688648 ], [ -4.579231, 9.688287 ], [ -4.586533, 9.692005 ], [ -4.601045, 9.712354 ], [ -4.616072, 9.721057 ], [ -4.628176, 9.703446 ], [ -4.654002, 9.71236 ], [ -4.657988, 9.70837 ], [ -4.660053, 9.697604 ], [ -4.664321, 9.691381 ], [ -4.674576, 9.688816 ], [ -4.683288, 9.679598 ], [ -4.691768, 9.678263 ], [ -4.698324, 9.685827 ], [ -4.710847, 9.693377 ], [ -4.726273, 9.725922 ], [ -4.73653, 9.737282 ], [ -4.742202, 9.749209 ], [ -4.751622, 9.752443 ], [ -4.767554, 9.752702 ], [ -4.772406, 9.739578 ], [ -4.777884, 9.738217 ], [ -4.783739, 9.742841 ], [ -4.788379, 9.753907 ], [ -4.798013, 9.756984 ], [ -4.80192, 9.767332 ], [ -4.811207, 9.772819 ], [ -4.814002, 9.784421 ], [ -4.795434, 9.783983 ], [ -4.790958, 9.786496 ], [ -4.79528, 9.804226 ], [ -4.793701, 9.81886 ], [ -4.78929, 9.829428 ], [ -4.793447, 9.836013 ], [ -4.804797, 9.843508 ], [ -4.822727, 9.845619 ], [ -4.834244, 9.864142 ], [ -4.844514, 9.867016 ], [ -4.856228, 9.866098 ], [ -4.866089, 9.871223 ], [ -4.879576, 9.872361 ], [ -4.911429, 9.890886 ], [ -4.926186, 9.886237 ], [ -4.936321, 9.876005 ], [ -4.955557, 9.883562 ], [ -4.965975, 9.892176 ], [ -4.97084, 9.906992 ], [ -4.962515, 9.921556 ], [ -4.962681, 9.938998 ], [ -4.949418, 9.951839 ], [ -4.961002, 9.961841 ], [ -4.968339, 9.973746 ], [ -4.985762, 9.984654 ], [ -4.988691, 10.002391 ], [ -4.986906, 10.005126 ], [ -4.983848, 10.009811 ], [ -4.966651, 10.006892 ], [ -4.964256, 10.02455 ], [ -4.972753, 10.0408 ], [ -4.985277, 10.048346 ], [ -4.995014, 10.060156 ], [ -5.00407, 10.064385 ], [ -5.014626, 10.065317 ], [ -5.019271, 10.069372 ], [ -5.01962, 10.077808 ], [ -5.008944, 10.102424 ], [ -5.027269, 10.097852 ], [ -5.046172, 10.082692 ], [ -5.058489, 10.081766 ], [ -5.062449, 10.08358 ], [ -5.06303, 10.087626 ], [ -5.050962, 10.104801 ], [ -5.073298, 10.107116 ], [ -5.079363, 10.111098 ], [ -5.080147, 10.116603 ], [ -5.076541, 10.122077 ], [ -5.066092, 10.122854 ], [ -5.053922, 10.118882 ], [ -5.048575, 10.120631 ], [ -5.046663, 10.124928 ], [ -5.050872, 10.130747 ], [ -5.06793, 10.135572 ], [ -5.07897, 10.14417 ], [ -5.080181, 10.157411 ], [ -5.076525, 10.180294 ], [ -5.102871, 10.176736 ], [ -5.11129, 10.180693 ], [ -5.109645, 10.184601 ], [ -5.097206, 10.191971 ], [ -5.089351, 10.213974 ], [ -5.090953, 10.220052 ], [ -5.09541, 10.223663 ], [ -5.105994, 10.216912 ], [ -5.118531, 10.214503 ], [ -5.109224, 10.233665 ], [ -5.117992, 10.243003 ], [ -5.11875, 10.252002 ], [ -5.101626, 10.270208 ], [ -5.105407, 10.275234 ], [ -5.118679, 10.28144 ], [ -5.114773, 10.301462 ], [ -5.123212, 10.300828 ], [ -5.131299, 10.304586 ], [ -5.146044, 10.290412 ], [ -5.156638, 10.285284 ], [ -5.159002, 10.285765 ], [ -5.175944, 10.289212 ], [ -5.185454, 10.287176 ], [ -5.189254, 10.290629 ], [ -5.190308, 10.299392 ], [ -5.204766, 10.309324 ], [ -5.209107, 10.319638 ], [ -5.223771, 10.311653 ], [ -5.235606, 10.314685 ], [ -5.246556, 10.313371 ], [ -5.263488, 10.311339 ], [ -5.276044, 10.314133 ], [ -5.28513, 10.310984 ], [ -5.300381, 10.318062 ], [ -5.304892, 10.315543 ], [ -5.305226, 10.307036 ], [ -5.32979, 10.295023 ], [ -5.354456, 10.304637 ], [ -5.358702, 10.302398 ], [ -5.368972, 10.286996 ], [ -5.383261, 10.293158 ], [ -5.404544, 10.295939 ], [ -5.420711, 10.307812 ], [ -5.428083, 10.32024 ], [ -5.441268, 10.323056 ], [ -5.449838, 10.338757 ], [ -5.468716, 10.348358 ], [ -5.470179, 10.352969 ], [ -5.466911, 10.362731 ], [ -5.469801, 10.372132 ], [ -5.473662, 10.375291 ], [ -5.485685, 10.377433 ], [ -5.495425, 10.400368 ], [ -5.510407, 10.422449 ], [ -5.516381, 10.42617 ], [ -5.51892, 10.43327 ], [ -5.512885, 10.452394 ], [ -5.513811, 10.462297 ], [ -5.51049, 10.467127 ], [ -5.499618, 10.482932 ], [ -5.485106, 10.518371 ], [ -5.47743, 10.545562 ], [ -5.466132, 10.561693 ], [ -5.472231, 10.580328 ], [ -5.466128, 10.592697 ], [ -5.46585, 10.599536 ], [ -5.468646, 10.605789 ], [ -5.477434, 10.610924 ], [ -5.482379, 10.621996 ], [ -5.480005, 10.63071 ], [ -5.476413, 10.716508 ], [ -5.47036, 10.735455 ], [ -5.473341, 10.75733 ], [ -5.449955, 10.769852 ], [ -5.443703, 10.80301 ], [ -5.428327, 10.825426 ], [ -5.422618, 10.850445 ], [ -5.425077, 10.857389 ], [ -5.433737, 10.866277 ], [ -5.449772, 10.875033 ], [ -5.464625, 10.905756 ], [ -5.464462, 10.932134 ], [ -5.469029, 10.94396 ], [ -5.469301, 10.961938 ], [ -5.489031, 10.973585 ], [ -5.486681, 10.993817 ], [ -5.494494, 11.024557 ], [ -5.495998, 11.06316 ], [ -5.488077, 11.072628 ], [ -5.394531, 11.098002 ], [ -5.391128, 11.100195 ], [ -5.363522, 11.117987 ], [ -5.342292, 11.136002 ], [ -5.335794, 11.154154 ], [ -5.327882, 11.196993 ], [ -5.286379, 11.220985 ], [ -5.271054, 11.237801 ], [ -5.264566, 11.268149 ], [ -5.267755, 11.335588 ], [ -5.265103, 11.359309 ], [ -5.25656, 11.370409 ], [ -5.246556, 11.376773 ], [ -5.2167, 11.395764 ], [ -5.200006, 11.43074 ], [ -5.203485, 11.444639 ], [ -5.211078, 11.455006 ], [ -5.214076, 11.465629 ], [ -5.210677, 11.484573 ], [ -5.214536, 11.511754 ], [ -5.204598, 11.532105 ], [ -5.219191, 11.558051 ], [ -5.22391, 11.585532 ], [ -5.242095, 11.604652 ], [ -5.246556, 11.604613 ], [ -5.282251, 11.6043 ], [ -5.292867, 11.611585 ], [ -5.298968, 11.620665 ], [ -5.298423, 11.628629 ], [ -5.272053, 11.684899 ], [ -5.275676, 11.709449 ], [ -5.265522, 11.74381 ], [ -5.268174, 11.755379 ], [ -5.265246, 11.763663 ], [ -5.271827, 11.765521 ], [ -5.281131, 11.759771 ], [ -5.28537, 11.759985 ], [ -5.296039, 11.769866 ], [ -5.29459, 11.776914 ], [ -5.299726, 11.784947 ], [ -5.309369, 11.786267 ], [ -5.316677, 11.793202 ], [ -5.350653, 11.804388 ], [ -5.356455, 11.797729 ], [ -5.359828, 11.79769 ], [ -5.374522, 11.810383 ], [ -5.387688, 11.817101 ], [ -5.397109, 11.816084 ], [ -5.408279, 11.824342 ], [ -5.408896, 11.831862 ], [ -5.405527, 11.835523 ], [ -5.38355, 11.842101 ], [ -5.368538, 11.833378 ], [ -5.361032, 11.825323 ], [ -5.35553, 11.824858 ], [ -5.335453, 11.836164 ], [ -5.328342, 11.844176 ], [ -5.321149, 11.840078 ], [ -5.308419, 11.838862 ], [ -5.300819, 11.848926 ], [ -5.288445, 11.853898 ], [ -5.284587, 11.852393 ], [ -5.280631, 11.842071 ], [ -5.267828, 11.83638 ], [ -5.262766, 11.841475 ], [ -5.254311, 11.843236 ], [ -5.254025, 11.855767 ], [ -5.248293, 11.865079 ], [ -5.246556, 11.866041 ], [ -5.226439, 11.877184 ], [ -5.21058, 11.895186 ], [ -5.198235, 11.898841 ], [ -5.187194, 11.9066 ], [ -5.178483, 11.929473 ], [ -5.170072, 11.933457 ], [ -5.159002, 11.933623 ], [ -5.154653, 11.947669 ], [ -5.141582, 11.949423 ], [ -5.126223, 11.959491 ], [ -5.093455, 11.970634 ], [ -5.079775, 11.979778 ], [ -5.063592, 11.977803 ], [ -5.037896, 11.983299 ], [ -5.02197, 11.98184 ], [ -5.009819, 11.986057 ], [ -4.9928, 11.984046 ], [ -4.951731, 12.000567 ], [ -4.921854, 12.000758 ], [ -4.90563, 12.004397 ], [ -4.882577, 12.001662 ], [ -4.859101, 12.012947 ], [ -4.840234, 12.016202 ], [ -4.825518, 12.008263 ], [ -4.76764, 12.00734 ], [ -4.751145, 12.000812 ], [ -4.733679, 11.998267 ], [ -4.72454, 12.00846 ], [ -4.717343, 12.036206 ], [ -4.71325, 12.042511 ], [ -4.707209, 12.049784 ], [ -4.697531, 12.055449 ], [ -4.694334, 12.055901 ], [ -4.686935, 12.056946 ], [ -4.668937, 12.053573 ], [ -4.657916, 12.054686 ], [ -4.642887, 12.07106 ], [ -4.636759, 12.096568 ], [ -4.625305, 12.113534 ], [ -4.609369, 12.123704 ], [ -4.568987, 12.135474 ], [ -4.562026, 12.151613 ], [ -4.586113, 12.170559 ], [ -4.59058, 12.181928 ], [ -4.58998, 12.191008 ], [ -4.58426, 12.198344 ], [ -4.514636, 12.254399 ], [ -4.504293, 12.266495 ], [ -4.488466, 12.293874 ], [ -4.484114, 12.32234 ], [ -4.477165, 12.326391 ], [ -4.468347, 12.326095 ], [ -4.448162, 12.320776 ], [ -4.427889, 12.309691 ], [ -4.423827, 12.309863 ], [ -4.421665, 12.314155 ], [ -4.424185, 12.322262 ], [ -4.437376, 12.340875 ], [ -4.450457, 12.37593 ], [ -4.452545, 12.416697 ], [ -4.42905, 12.483862 ], [ -4.401025, 12.517158 ], [ -4.394176, 12.533467 ], [ -4.407185, 12.555409 ], [ -4.419897, 12.590118 ], [ -4.427546, 12.601238 ], [ -4.443972, 12.615608 ], [ -4.476929, 12.633691 ], [ -4.486132, 12.64922 ], [ -4.490994, 12.665357 ], [ -4.487839, 12.684302 ], [ -4.488355, 12.711978 ], [ -4.476818, 12.721967 ], [ -4.449152, 12.721156 ], [ -4.371215, 12.731295 ], [ -4.355728, 12.725614 ], [ -4.331828, 12.703853 ], [ -4.311839, 12.697985 ], [ -4.29521, 12.69934 ], [ -4.276331, 12.708045 ], [ -4.248134, 12.726585 ], [ -4.238152, 12.7431 ], [ -4.228984, 12.77508 ], [ -4.227535, 12.803003 ], [ -4.238237, 12.856787 ], [ -4.230445, 12.936036 ], [ -4.232233, 12.949849 ], [ -4.238265, 12.961165 ], [ -4.281061, 13.009033 ], [ -4.300229, 13.058019 ], [ -4.312873, 13.077112 ], [ -4.331837, 13.098872 ], [ -4.354211, 13.118055 ], [ -4.356606, 13.123784 ], [ -4.355043, 13.134051 ], [ -4.345775, 13.145917 ], [ -4.29048, 13.179276 ], [ -4.277634, 13.181099 ], [ -4.254476, 13.179467 ], [ -4.246085, 13.183337 ], [ -4.242241, 13.188949 ], [ -4.24296, 13.194489 ], [ -4.259522, 13.217961 ], [ -4.258224, 13.229324 ], [ -4.221298, 13.258877 ], [ -4.200732, 13.26757 ], [ -4.178066, 13.27715 ], [ -4.154415, 13.291892 ], [ -4.123528, 13.325115 ], [ -4.115736, 13.345972 ], [ -4.111098, 13.358384 ], [ -4.104053, 13.382815 ], [ -4.093352, 13.394334 ], [ -4.068542, 13.404081 ], [ -4.052353, 13.418436 ], [ -4.038598, 13.425459 ], [ -4.006845, 13.433504 ], [ -3.999007, 13.439553 ], [ -3.984661, 13.460828 ], [ -3.985426, 13.493414 ], [ -3.9709, 13.500787 ], [ -3.962273, 13.49894 ], [ -3.956944, 13.494575 ], [ -3.946086, 13.459598 ], [ -3.920231, 13.448608 ], [ -3.915782, 13.440566 ], [ -3.920629, 13.431644 ], [ -3.958124, 13.421222 ], [ -3.969992, 13.413551 ], [ -3.974407, 13.406887 ], [ -3.973991, 13.39712 ], [ -3.967526, 13.387291 ], [ -3.946848, 13.377179 ], [ -3.911747, 13.37883 ], [ -3.90492, 13.376961 ], [ -3.852451, 13.362591 ], [ -3.814249, 13.362762 ], [ -3.79753, 13.358384 ], [ -3.777838, 13.345972 ], [ -3.723601, 13.284263 ], [ -3.686771, 13.270682 ], [ -3.671121, 13.262141 ], [ -3.626159, 13.221147 ], [ -3.601675, 13.203428 ], [ -3.531378, 13.171938 ], [ -3.478339, 13.160126 ], [ -3.452483, 13.157983 ], [ -3.433722, 13.16309 ], [ -3.422328, 13.178288 ], [ -3.420678, 13.20657 ], [ -3.42516, 13.230053 ], [ -3.434423, 13.251984 ], [ -3.430719, 13.263513 ], [ -3.403, 13.271559 ], [ -3.254265, 13.284868 ], [ -3.244108, 13.290591 ], [ -3.238045, 13.306194 ], [ -3.244619, 13.338251 ], [ -3.249748, 13.345972 ], [ -3.259027, 13.358384 ], [ -3.263489, 13.428381 ], [ -3.269818, 13.476916 ], [ -3.281629, 13.53393 ], [ -3.278228, 13.546767 ], [ -3.26052, 13.577155 ], [ -3.255996, 13.663173 ], [ -3.261333, 13.677461 ], [ -3.283418, 13.700907 ], [ -3.284153, 13.706964 ], [ -3.280066, 13.714566 ], [ -3.272835, 13.717943 ], [ -3.262721, 13.718347 ], [ -3.239594, 13.712496 ], [ -3.184905, 13.685576 ], [ -3.168229, 13.686195 ], [ -3.133048, 13.695572 ], [ -3.105154, 13.69446 ], [ -3.069559, 13.663639 ], [ -3.059664, 13.635729 ], [ -3.049239, 13.623924 ], [ -3.038915, 13.629194 ], [ -3.019845, 13.660531 ], [ -3.006876, 13.667097 ], [ -2.994832, 13.663153 ], [ -2.953017, 13.627266 ], [ -2.929585, 13.635483 ], [ -2.873653, 13.655096 ], [ -2.902707, 13.724718 ], [ -2.896093, 13.822738 ], [ -2.833454, 13.995287 ], [ -2.834366, 13.997925 ], [ -2.850696, 14.003873 ], [ -2.836991, 14.059489 ], [ -2.684721, 14.128893 ], [ -2.672142, 14.134625 ], [ -2.574765, 14.215781 ], [ -2.477832, 14.296537 ], [ -2.357043, 14.267599 ], [ -2.292018, 14.252018 ], [ -2.106266, 14.151005 ], [ -1.997996, 14.194016 ], [ -1.993445, 14.199463 ], [ -1.974211, 14.480537 ], [ -1.902542, 14.488032 ], [ -1.757927, 14.482542 ], [ -1.675503, 14.506866 ], [ -1.315422, 14.733099 ], [ -1.15326, 14.771804 ], [ -1.087345, 14.790776 ], [ -1.009274, 14.855668 ], [ -1.003845, 14.859883 ], [ -0.885084, 14.952074 ], [ -0.823488, 15.013301 ], [ -0.737788, 15.07136 ], [ -0.719539, 15.079988 ], [ -0.703502, 15.081367 ], [ -0.565177, 15.080453 ], [ -0.560114, 15.080479 ], [ -0.456949, 15.081007 ], [ -0.440534, 15.066086 ], [ -0.403899, 15.014083 ], [ -0.391606, 15.00807 ], [ -0.375647, 15.011981 ], [ -0.271154, 15.070695 ], [ -0.252567, 15.076573 ], [ -0.16882, 15.049698 ], [ -0.147406, 15.039125 ], [ -0.008359, 14.985263 ], [ 0.061264, 14.977952 ], [ 0.092394, 14.978071 ], [ 0.165107, 14.980994 ], [ 0.200676, 14.988636 ], [ 0.22935, 14.98967 ], [ 0.235243, 14.88704 ], [ 0.20867, 14.865564 ], [ 0.207179, 14.859883 ], [ 0.202106, 14.840552 ], [ 0.235596, 14.746846 ], [ 0.230801, 14.720632 ], [ 0.213693, 14.671809 ], [ 0.177573, 14.582207 ], [ 0.166735, 14.535271 ], [ 0.167541, 14.526136 ], [ 0.176855, 14.492562 ], [ 0.193124, 14.45972 ], [ 0.264773, 14.392167 ], [ 0.276223, 14.378162 ], [ 0.296527, 14.367122 ], [ 0.324007, 14.36053 ], [ 0.353367, 14.321815 ], [ 0.370532, 14.307431 ], [ 0.387305, 14.285645 ], [ 0.402953, 14.24905 ], [ 0.387395, 14.22191 ], [ 0.39019, 14.190002 ], [ 0.372623, 14.172041 ], [ 0.357308, 14.145639 ], [ 0.359283, 14.125474 ], [ 0.368313, 14.10983 ], [ 0.39384, 14.0868 ], [ 0.384713, 14.068846 ], [ 0.399999, 14.026182 ], [ 0.419528, 14.002082 ], [ 0.449857, 13.977692 ], [ 0.452954, 13.969708 ], [ 0.451047, 13.956767 ], [ 0.454683, 13.951237 ], [ 0.46388, 13.952431 ], [ 0.480574, 13.96403 ], [ 0.482442, 13.949075 ], [ 0.471977, 13.930676 ], [ 0.474404, 13.915323 ], [ 0.491915, 13.894294 ], [ 0.522174, 13.871928 ], [ 0.526017, 13.865541 ], [ 0.526977, 13.848214 ], [ 0.530576, 13.841079 ], [ 0.551467, 13.830802 ], [ 0.578814, 13.812262 ], [ 0.585306, 13.794201 ], [ 0.591415, 13.786604 ], [ 0.610667, 13.779439 ], [ 0.614524, 13.785733 ], [ 0.620122, 13.785409 ], [ 0.624872, 13.764075 ], [ 0.59992, 13.727992 ], [ 0.604382, 13.711573 ], [ 0.616328, 13.701193 ], [ 0.637359, 13.69347 ], [ 0.774193, 13.690964 ], [ 0.794137, 13.678099 ], [ 0.784278, 13.672647 ], [ 0.778894, 13.663894 ], [ 0.781706, 13.644503 ], [ 0.786033, 13.640388 ], [ 0.826603, 13.619326 ], [ 0.847954, 13.623586 ], [ 0.906272, 13.618403 ], [ 0.959004, 13.580683 ], [ 0.97317, 13.576178 ], [ 0.990976, 13.574871 ], [ 1.005692, 13.558163 ], [ 1.010433, 13.546918 ], [ 1.014126, 13.531175 ], [ 1.007889, 13.517408 ], [ 1.015291, 13.487581 ], [ 1.040811, 13.482711 ], [ 1.067966, 13.461987 ], [ 1.088403, 13.459902 ], [ 1.136979, 13.414465 ], [ 1.154592, 13.4126 ], [ 1.160107, 13.407695 ], [ 1.162795, 13.405305 ], [ 1.220454, 13.387935 ], [ 1.241774, 13.390347 ], [ 1.281539, 13.356492 ], [ 1.282022, 13.352395 ], [ 1.279102, 13.350112 ], [ 1.264669, 13.345972 ], [ 1.244613, 13.340218 ], [ 1.236384, 13.345972 ], [ 1.230253, 13.350259 ], [ 1.22341, 13.372852 ], [ 1.217101, 13.378874 ], [ 1.210485, 13.379991 ], [ 1.202794, 13.373899 ], [ 1.204086, 13.351391 ], [ 1.202787, 13.345972 ], [ 1.199745, 13.33328 ], [ 1.187912, 13.323231 ], [ 1.169638, 13.322778 ], [ 1.160107, 13.326243 ], [ 1.133503, 13.335916 ], [ 1.126817, 13.333218 ], [ 1.118148, 13.334029 ], [ 1.095635, 13.345972 ], [ 1.054126, 13.36799 ], [ 1.029781, 13.367255 ], [ 1.017852, 13.372101 ], [ 1.00235, 13.373065 ], [ 0.992592, 13.370455 ], [ 0.9925, 13.345972 ], [ 0.991601, 13.106357 ], [ 0.991708, 13.104549 ], [ 0.997891, 13.000799 ], [ 1.119297, 12.99868 ], [ 1.160107, 12.96613 ], [ 1.303176, 12.851984 ], [ 1.390006, 12.777903 ], [ 1.511935, 12.683601 ], [ 1.576972, 12.633286 ], [ 1.604907, 12.630626 ], [ 1.864559, 12.605903 ], [ 1.924683, 12.691785 ], [ 1.94886, 12.69277 ], [ 1.978817, 12.736534 ], [ 2.012971, 12.728576 ], [ 2.06023, 12.727162 ], [ 2.081529, 12.721739 ], [ 2.103235, 12.730103 ], [ 2.111612, 12.70718 ], [ 2.12947, 12.697156 ], [ 2.159385, 12.687862 ], [ 2.157897, 12.663676 ], [ 2.152657, 12.649063 ], [ 2.19586, 12.623776 ], [ 2.224998, 12.583887 ], [ 2.228597, 12.522341 ], [ 2.269422, 12.471482 ], [ 2.267187, 12.437743 ], [ 2.273113, 12.42778 ], [ 2.262412, 12.424214 ], [ 2.261115, 12.41877 ], [ 2.254415, 12.41605 ], [ 2.235559, 12.425428 ], [ 2.224746, 12.422645 ], [ 2.215522, 12.415157 ], [ 2.201804, 12.422075 ], [ 2.179165, 12.424128 ], [ 2.154339, 12.419276 ], [ 2.152808, 12.411749 ], [ 2.11962, 12.398035 ], [ 2.109655, 12.384443 ], [ 2.105695, 12.386129 ], [ 2.102122, 12.395194 ], [ 2.082074, 12.39303 ], [ 2.071, 12.379475 ], [ 2.072143, 12.370549 ], [ 2.065088, 12.360964 ], [ 2.065427, 12.354236 ], [ 2.405076, 11.89978 ] ] ] ] } }
]
}
