{
"type": "FeatureCollection",
"name": "Burundi",
"crs": { "type": "name", "properties": { "name": "urn:ogc:def:crs:OGC:1.3:CRS84" } },
"features": [
{ "type": "Feature", "properties": { "id": "BI", "CNTR_ID": "BI", "CNTR_NAME": "Burundi-Burundi", "NAME_ENGL": "Burundi", "ISO3_CODE": "BDI", "FID": "BI" }, "geometry": { "type": "MultiPolygon", "coordinates": [ [ [ [ 29.423334, -4.447501 ], [ 29.407611, -4.369528 ], [ 29.3978, -4.297939 ], [ 29.392533, -4.191785 ], [ 29.388792, -4.167594 ], [ 29.378568, -4.134492 ], [ 29.346863, -4.056435 ], [ 29.335927, -4.036551 ], [ 29.309274, -4.000506 ], [ 29.239342, -3.921422 ], [ 29.232504, -3.884547 ], [ 29.223965, -3.789353 ], [ 29.240085, -3.692699 ], [ 29.246806, -3.591936 ], [ 29.237837, -3.461996 ], [ 29.231694, -3.421816 ], [ 29.213229, -3.340196 ], [ 29.218945, -3.329312 ], [ 29.211688, -3.304305 ], [ 29.213768, -3.296022 ], [ 29.223669, -3.293785 ], [ 29.228947, -3.284235 ], [ 29.239891, -3.275319 ], [ 29.240079, -3.26778 ], [ 29.232685, -3.258289 ], [ 29.226514, -3.228983 ], [ 29.23429, -3.211343 ], [ 29.223351, -3.197034 ], [ 29.230892, -3.18436 ], [ 29.225563, -3.179661 ], [ 29.232582, -3.169397 ], [ 29.234266, -3.15351 ], [ 29.243675, -3.140891 ], [ 29.246376, -3.125459 ], [ 29.253693, -3.123975 ], [ 29.257423, -3.116861 ], [ 29.251969, -3.108652 ], [ 29.253604, -3.101929 ], [ 29.250087, -3.097124 ], [ 29.254893, -3.092199 ], [ 29.258353, -3.069033 ], [ 29.251014, -3.061533 ], [ 29.252901, -3.050464 ], [ 29.24187, -3.041648 ], [ 29.240514, -3.036529 ], [ 29.233789, -3.033476 ], [ 29.235716, -3.025834 ], [ 29.230127, -3.02497 ], [ 29.225661, -3.020174 ], [ 29.20421, -3.022074 ], [ 29.19336, -3.009166 ], [ 29.185821, -3.007456 ], [ 29.184942, -2.999564 ], [ 29.17976, -2.993274 ], [ 29.168622, -2.995541 ], [ 29.167488, -2.991779 ], [ 29.171714, -2.982438 ], [ 29.167039, -2.97109 ], [ 29.167652, -2.959529 ], [ 29.155542, -2.947695 ], [ 29.143722, -2.945843 ], [ 29.130181, -2.930742 ], [ 29.099381, -2.921 ], [ 29.09087, -2.903465 ], [ 29.090743, -2.891581 ], [ 29.09434, -2.881775 ], [ 29.091914, -2.873369 ], [ 29.07019, -2.862939 ], [ 29.068554, -2.847554 ], [ 29.050434, -2.820673 ], [ 29.045756, -2.819406 ], [ 29.028407, -2.825263 ], [ 29.022706, -2.821156 ], [ 29.011985, -2.819453 ], [ 29.00358, -2.811293 ], [ 29.001423, -2.798536 ], [ 29.002933, -2.783362 ], [ 29.027001, -2.761015 ], [ 29.038082, -2.759772 ], [ 29.040641, -2.743844 ], [ 29.041756, -2.726726 ], [ 29.055234, -2.70929 ], [ 29.049868, -2.697896 ], [ 29.055564, -2.686778 ], [ 29.056379, -2.678122 ], [ 29.050192, -2.673508 ], [ 29.048074, -2.666395 ], [ 29.052087, -2.657344 ], [ 29.060629, -2.649777 ], [ 29.054054, -2.638858 ], [ 29.052571, -2.627103 ], [ 29.062171, -2.60344 ], [ 29.072689, -2.602768 ], [ 29.084887, -2.593788 ], [ 29.091595, -2.59223 ], [ 29.097413, -2.596638 ], [ 29.115598, -2.597526 ], [ 29.128922, -2.609496 ], [ 29.139538, -2.604722 ], [ 29.140878, -2.597502 ], [ 29.149509, -2.592369 ], [ 29.168734, -2.603492 ], [ 29.17588, -2.615411 ], [ 29.201136, -2.618071 ], [ 29.22594, -2.629219 ], [ 29.26435, -2.619133 ], [ 29.268766, -2.623547 ], [ 29.281066, -2.626339 ], [ 29.294103, -2.640545 ], [ 29.312471, -2.645173 ], [ 29.317855, -2.650852 ], [ 29.327382, -2.654804 ], [ 29.335328, -2.670521 ], [ 29.32863, -2.688536 ], [ 29.335169, -2.691168 ], [ 29.34176, -2.700422 ], [ 29.349489, -2.701286 ], [ 29.35062, -2.707236 ], [ 29.348634, -2.718222 ], [ 29.351777, -2.734609 ], [ 29.334145, -2.746886 ], [ 29.340419, -2.753729 ], [ 29.339061, -2.763564 ], [ 29.349787, -2.768838 ], [ 29.348755, -2.776641 ], [ 29.356065, -2.79093 ], [ 29.351985, -2.803335 ], [ 29.371018, -2.838979 ], [ 29.376972, -2.836932 ], [ 29.387448, -2.819443 ], [ 29.394007, -2.816926 ], [ 29.403715, -2.818091 ], [ 29.439714, -2.797641 ], [ 29.454834, -2.800188 ], [ 29.464363, -2.809699 ], [ 29.477563, -2.807617 ], [ 29.485924, -2.802605 ], [ 29.521396, -2.829397 ], [ 29.542262, -2.828411 ], [ 29.543999, -2.817475 ], [ 29.573296, -2.811332 ], [ 29.586407, -2.803694 ], [ 29.592471, -2.807761 ], [ 29.605336, -2.80701 ], [ 29.616421, -2.809816 ], [ 29.624844, -2.805587 ], [ 29.630238, -2.802879 ], [ 29.64215, -2.788626 ], [ 29.666222, -2.790004 ], [ 29.695276, -2.806149 ], [ 29.708521, -2.818243 ], [ 29.724701, -2.816913 ], [ 29.744749, -2.807886 ], [ 29.752574, -2.810466 ], [ 29.761742, -2.796527 ], [ 29.770894, -2.765679 ], [ 29.786427, -2.765331 ], [ 29.796182, -2.7583 ], [ 29.804881, -2.759554 ], [ 29.810479, -2.763371 ], [ 29.81426, -2.77287 ], [ 29.831535, -2.780347 ], [ 29.834569, -2.773867 ], [ 29.841574, -2.769442 ], [ 29.858478, -2.761852 ], [ 29.876337, -2.760407 ], [ 29.88956, -2.750719 ], [ 29.89282, -2.745993 ], [ 29.894201, -2.734528 ], [ 29.917803, -2.702317 ], [ 29.925749, -2.680865 ], [ 29.929145, -2.657949 ], [ 29.935506, -2.642991 ], [ 29.929098, -2.63301 ], [ 29.93144, -2.589161 ], [ 29.921565, -2.557681 ], [ 29.933941, -2.533662 ], [ 29.942582, -2.502271 ], [ 29.9548, -2.490733 ], [ 29.965108, -2.487745 ], [ 29.968401, -2.479277 ], [ 29.969791, -2.461043 ], [ 29.962304, -2.433456 ], [ 29.961516, -2.413902 ], [ 29.953068, -2.385552 ], [ 29.94372, -2.369545 ], [ 29.944984, -2.363306 ], [ 29.955941, -2.349363 ], [ 29.957654, -2.328604 ], [ 29.980478, -2.334795 ], [ 29.998124, -2.343445 ], [ 30.018366, -2.343621 ], [ 30.031032, -2.348699 ], [ 30.048612, -2.36465 ], [ 30.065562, -2.395164 ], [ 30.097559, -2.422953 ], [ 30.131191, -2.437465 ], [ 30.165863, -2.426957 ], [ 30.183182, -2.427936 ], [ 30.19623, -2.408758 ], [ 30.199242, -2.388764 ], [ 30.212824, -2.382013 ], [ 30.219372, -2.357102 ], [ 30.224406, -2.350951 ], [ 30.232124, -2.351771 ], [ 30.246229, -2.36245 ], [ 30.250944, -2.370832 ], [ 30.256863, -2.373266 ], [ 30.279506, -2.374934 ], [ 30.309903, -2.369984 ], [ 30.372265, -2.355492 ], [ 30.373681, -2.348532 ], [ 30.373633, -2.344058 ], [ 30.37678, -2.340606 ], [ 30.380115, -2.33024 ], [ 30.380679, -2.325366 ], [ 30.387835, -2.317232 ], [ 30.392804, -2.312924 ], [ 30.404183, -2.312055 ], [ 30.409032, -2.309935 ], [ 30.413977, -2.313913 ], [ 30.417528, -2.320063 ], [ 30.429755, -2.328117 ], [ 30.437284, -2.329272 ], [ 30.443096, -2.321862 ], [ 30.451914, -2.317995 ], [ 30.458303, -2.318144 ], [ 30.462139, -2.320447 ], [ 30.463177, -2.324791 ], [ 30.459156, -2.332995 ], [ 30.458703, -2.344282 ], [ 30.46066, -2.347241 ], [ 30.470154, -2.351533 ], [ 30.470899, -2.356662 ], [ 30.469434, -2.362629 ], [ 30.471171, -2.366205 ], [ 30.478243, -2.368283 ], [ 30.482641, -2.365922 ], [ 30.485691, -2.366108 ], [ 30.489739, -2.376728 ], [ 30.494742, -2.377542 ], [ 30.499993, -2.384645 ], [ 30.508257, -2.389434 ], [ 30.510727, -2.400698 ], [ 30.521039, -2.404513 ], [ 30.534128, -2.404954 ], [ 30.538179, -2.409938 ], [ 30.543254, -2.413237 ], [ 30.53612, -2.433436 ], [ 30.524838, -2.447702 ], [ 30.51978, -2.47326 ], [ 30.513918, -2.482528 ], [ 30.506931, -2.504734 ], [ 30.495215, -2.52291 ], [ 30.484402, -2.526661 ], [ 30.484011, -2.556377 ], [ 30.447109, -2.613004 ], [ 30.437912, -2.635034 ], [ 30.422981, -2.653657 ], [ 30.420457, -2.661444 ], [ 30.430748, -2.678553 ], [ 30.442759, -2.678947 ], [ 30.458643, -2.691205 ], [ 30.504421, -2.665016 ], [ 30.514001, -2.656456 ], [ 30.526279, -2.654882 ], [ 30.52858, -2.666855 ], [ 30.520198, -2.687703 ], [ 30.506159, -2.69609 ], [ 30.502353, -2.704231 ], [ 30.486114, -2.720031 ], [ 30.483575, -2.721009 ], [ 30.475885, -2.715752 ], [ 30.468226, -2.718533 ], [ 30.463239, -2.724846 ], [ 30.460764, -2.736061 ], [ 30.441343, -2.745753 ], [ 30.441381, -2.751817 ], [ 30.437493, -2.75719 ], [ 30.446481, -2.768966 ], [ 30.438925, -2.800406 ], [ 30.426695, -2.815315 ], [ 30.426561, -2.822687 ], [ 30.418909, -2.842384 ], [ 30.406918, -2.860594 ], [ 30.418404, -2.873657 ], [ 30.426611, -2.870157 ], [ 30.434152, -2.874968 ], [ 30.439558, -2.904772 ], [ 30.445753, -2.909218 ], [ 30.46005, -2.912371 ], [ 30.462909, -2.918196 ], [ 30.459428, -2.922214 ], [ 30.471415, -2.927038 ], [ 30.478775, -2.93483 ], [ 30.484705, -2.947271 ], [ 30.503418, -2.953244 ], [ 30.523665, -2.942172 ], [ 30.531708, -2.933015 ], [ 30.539911, -2.933016 ], [ 30.566954, -2.896386 ], [ 30.572713, -2.894712 ], [ 30.578914, -2.897272 ], [ 30.588945, -2.912773 ], [ 30.595421, -2.915495 ], [ 30.599026, -2.921752 ], [ 30.606464, -2.922054 ], [ 30.618547, -2.927511 ], [ 30.631732, -2.939056 ], [ 30.646243, -2.954262 ], [ 30.64576, -2.967421 ], [ 30.648874, -2.974981 ], [ 30.669685, -2.993107 ], [ 30.682289, -2.985782 ], [ 30.690955, -2.97686 ], [ 30.704231, -2.971824 ], [ 30.710104, -2.973775 ], [ 30.725282, -2.989714 ], [ 30.737204, -2.99124 ], [ 30.746768, -2.997288 ], [ 30.800802, -2.988781 ], [ 30.806717, -2.986757 ], [ 30.836356, -2.976614 ], [ 30.843981, -2.97886 ], [ 30.845063, -2.981676 ], [ 30.838231, -2.991216 ], [ 30.83587, -3.000133 ], [ 30.826194, -3.010405 ], [ 30.817006, -3.027999 ], [ 30.814083, -3.041881 ], [ 30.806717, -3.04677 ], [ 30.795516, -3.054203 ], [ 30.802972, -3.06966 ], [ 30.806717, -3.073864 ], [ 30.812072, -3.079877 ], [ 30.828967, -3.084634 ], [ 30.833513, -3.088979 ], [ 30.835674, -3.095602 ], [ 30.832036, -3.104601 ], [ 30.832963, -3.116861 ], [ 30.8283, -3.132009 ], [ 30.818715, -3.146982 ], [ 30.822067, -3.149895 ], [ 30.834048, -3.144581 ], [ 30.844416, -3.161484 ], [ 30.845018, -3.167732 ], [ 30.838212, -3.191668 ], [ 30.846005, -3.205877 ], [ 30.828261, -3.21317 ], [ 30.820386, -3.213592 ], [ 30.813646, -3.223986 ], [ 30.824831, -3.245356 ], [ 30.835991, -3.253426 ], [ 30.83475, -3.257764 ], [ 30.827945, -3.263341 ], [ 30.806717, -3.271412 ], [ 30.803272, -3.272722 ], [ 30.797442, -3.278145 ], [ 30.760117, -3.291359 ], [ 30.748752, -3.286312 ], [ 30.74485, -3.269415 ], [ 30.740265, -3.268224 ], [ 30.731065, -3.274361 ], [ 30.729523, -3.286855 ], [ 30.71848, -3.30287 ], [ 30.684871, -3.316789 ], [ 30.666317, -3.320634 ], [ 30.658555, -3.333813 ], [ 30.638745, -3.353343 ], [ 30.634965, -3.360923 ], [ 30.645966, -3.377524 ], [ 30.647633, -3.385085 ], [ 30.664569, -3.387773 ], [ 30.67622, -3.396547 ], [ 30.67178, -3.41854 ], [ 30.660382, -3.431831 ], [ 30.640219, -3.446614 ], [ 30.63531, -3.454377 ], [ 30.61965, -3.465319 ], [ 30.600026, -3.471534 ], [ 30.582692, -3.484475 ], [ 30.562776, -3.49441 ], [ 30.534617, -3.503746 ], [ 30.524823, -3.512456 ], [ 30.513996, -3.528986 ], [ 30.511405, -3.529208 ], [ 30.509557, -3.52276 ], [ 30.502572, -3.518644 ], [ 30.492592, -3.519996 ], [ 30.479425, -3.535551 ], [ 30.470477, -3.540938 ], [ 30.461278, -3.555449 ], [ 30.447629, -3.565519 ], [ 30.448092, -3.574455 ], [ 30.45624, -3.577613 ], [ 30.454206, -3.588585 ], [ 30.457097, -3.595063 ], [ 30.456383, -3.605553 ], [ 30.44262, -3.617507 ], [ 30.435091, -3.618909 ], [ 30.429864, -3.623292 ], [ 30.432298, -3.632891 ], [ 30.423293, -3.641146 ], [ 30.420532, -3.651236 ], [ 30.416593, -3.654099 ], [ 30.415369, -3.663537 ], [ 30.409165, -3.668537 ], [ 30.408528, -3.68614 ], [ 30.404603, -3.686766 ], [ 30.399696, -3.700843 ], [ 30.389135, -3.713985 ], [ 30.389445, -3.725134 ], [ 30.398105, -3.73266 ], [ 30.403467, -3.759337 ], [ 30.409413, -3.766385 ], [ 30.408879, -3.783864 ], [ 30.398226, -3.796196 ], [ 30.395976, -3.790116 ], [ 30.386219, -3.786391 ], [ 30.384995, -3.778624 ], [ 30.376422, -3.775204 ], [ 30.347247, -3.774205 ], [ 30.333704, -3.783631 ], [ 30.322448, -3.797904 ], [ 30.32337, -3.811389 ], [ 30.315171, -3.820358 ], [ 30.307719, -3.845504 ], [ 30.296054, -3.859063 ], [ 30.288435, -3.861651 ], [ 30.280197, -3.872247 ], [ 30.267938, -3.87544 ], [ 30.25852, -3.881541 ], [ 30.250311, -3.915244 ], [ 30.247511, -3.919477 ], [ 30.240272, -3.922141 ], [ 30.240272, -3.92733 ], [ 30.240272, -3.92924 ], [ 30.232389, -3.940367 ], [ 30.233487, -3.948835 ], [ 30.22922, -3.955469 ], [ 30.226737, -3.974104 ], [ 30.214806, -3.99063 ], [ 30.219285, -4.006237 ], [ 30.228959, -4.012075 ], [ 30.225558, -4.020858 ], [ 30.217298, -4.027674 ], [ 30.214538, -4.035758 ], [ 30.203994, -4.046779 ], [ 30.195709, -4.046754 ], [ 30.190189, -4.051813 ], [ 30.181678, -4.080558 ], [ 30.159797, -4.112513 ], [ 30.133801, -4.132766 ], [ 30.126823, -4.132959 ], [ 30.118083, -4.137969 ], [ 30.108418, -4.149824 ], [ 30.086173, -4.160859 ], [ 30.076995, -4.169286 ], [ 30.07124, -4.189253 ], [ 30.053264, -4.221882 ], [ 30.055785, -4.231591 ], [ 30.051469, -4.243271 ], [ 30.053172, -4.255297 ], [ 30.051443, -4.25792 ], [ 30.044612, -4.255674 ], [ 30.045969, -4.261668 ], [ 30.041837, -4.274968 ], [ 30.019326, -4.274551 ], [ 30.013295, -4.283183 ], [ 30.004202, -4.280515 ], [ 30.002717, -4.285878 ], [ 30.006324, -4.290558 ], [ 30.003647, -4.295158 ], [ 29.996452, -4.299007 ], [ 29.971444, -4.301793 ], [ 29.965586, -4.318507 ], [ 29.959366, -4.32712 ], [ 29.95054, -4.330127 ], [ 29.942107, -4.339048 ], [ 29.92822, -4.345942 ], [ 29.909161, -4.348814 ], [ 29.89277, -4.355238 ], [ 29.874036, -4.370888 ], [ 29.872097, -4.374748 ], [ 29.874249, -4.379295 ], [ 29.87052, -4.382165 ], [ 29.852015, -4.380661 ], [ 29.845386, -4.369645 ], [ 29.835334, -4.368131 ], [ 29.826935, -4.361277 ], [ 29.812801, -4.365545 ], [ 29.794231, -4.402438 ], [ 29.765579, -4.426502 ], [ 29.764589, -4.448138 ], [ 29.768294, -4.456093 ], [ 29.759261, -4.46738 ], [ 29.748645, -4.469148 ], [ 29.742011, -4.459251 ], [ 29.736239, -4.45704 ], [ 29.727719, -4.462522 ], [ 29.716973, -4.457348 ], [ 29.705974, -4.462783 ], [ 29.691403, -4.452373 ], [ 29.673716, -4.448057 ], [ 29.624844, -4.447949 ], [ 29.423334, -4.447501 ] ] ] ] } }
]
}
