{
"type": "FeatureCollection",
"name": "Cambodia",
"crs": { "type": "name", "properties": { "name": "urn:ogc:def:crs:OGC:1.3:CRS84" } },
"features": [
{ "type": "Feature", "properties": { "id": "KH", "CNTR_ID": "KH", "CNTR_NAME": "កម្ពុជា", "NAME_ENGL": "Cambodia", "ISO3_CODE": "KHM", "FID": "KH" }, "geometry": { "type": "MultiPolygon", "coordinates": [ [ [ [ 104.438612, 10.424547 ], [ 104.429655, 10.433131 ], [ 104.425777, 10.442321 ], [ 104.388989, 10.453465 ], [ 104.368991, 10.478717 ], [ 104.365509, 10.483114 ], [ 104.350169, 10.495094 ], [ 104.342206, 10.494449 ], [ 104.304632, 10.476385 ], [ 104.290645, 10.479444 ], [ 104.287293, 10.509807 ], [ 104.280718, 10.527458 ], [ 104.271679, 10.542675 ], [ 104.24565, 10.569546 ], [ 104.218018, 10.568235 ], [ 104.215571, 10.558905 ], [ 104.19832, 10.557148 ], [ 104.180055, 10.540823 ], [ 104.143412, 10.562635 ], [ 104.132253, 10.561379 ], [ 104.101441, 10.547231 ], [ 104.049701, 10.549591 ], [ 103.9612, 10.58611 ], [ 103.9378, 10.58911 ], [ 103.918249, 10.609607 ], [ 103.903825, 10.636968 ], [ 103.901683, 10.650294 ], [ 103.883991, 10.65786 ], [ 103.870109, 10.653389 ], [ 103.85944, 10.655496 ], [ 103.855154, 10.652133 ], [ 103.855029, 10.64428 ], [ 103.859066, 10.635836 ], [ 103.867442, 10.629728 ], [ 103.867438, 10.620244 ], [ 103.827051, 10.564781 ], [ 103.800985, 10.520788 ], [ 103.791524, 10.522346 ], [ 103.782149, 10.534608 ], [ 103.775432, 10.534593 ], [ 103.767295, 10.530314 ], [ 103.755528, 10.531651 ], [ 103.733621, 10.540898 ], [ 103.727317, 10.551837 ], [ 103.714553, 10.552863 ], [ 103.713327, 10.549093 ], [ 103.73656, 10.526839 ], [ 103.736144, 10.508788 ], [ 103.730043, 10.499906 ], [ 103.724496, 10.499022 ], [ 103.703994, 10.506975 ], [ 103.681372, 10.50852 ], [ 103.671918, 10.500764 ], [ 103.662181, 10.501399 ], [ 103.649018, 10.497609 ], [ 103.641959, 10.489658 ], [ 103.634024, 10.488238 ], [ 103.611207, 10.502233 ], [ 103.613962, 10.532576 ], [ 103.603384, 10.551393 ], [ 103.588272, 10.557904 ], [ 103.573946, 10.543378 ], [ 103.566439, 10.54057 ], [ 103.56013, 10.556917 ], [ 103.532065, 10.597204 ], [ 103.521323, 10.605402 ], [ 103.503278, 10.607539 ], [ 103.492469, 10.622589 ], [ 103.502114, 10.643891 ], [ 103.515915, 10.648697 ], [ 103.522666, 10.666932 ], [ 103.532427, 10.678784 ], [ 103.542009, 10.685215 ], [ 103.545296, 10.698784 ], [ 103.545169, 10.718935 ], [ 103.554026, 10.720209 ], [ 103.566577, 10.727021 ], [ 103.581651, 10.740629 ], [ 103.599902, 10.735208 ], [ 103.612724, 10.73688 ], [ 103.619774, 10.745706 ], [ 103.635537, 10.738902 ], [ 103.670413, 10.74519 ], [ 103.663963, 10.752129 ], [ 103.658937, 10.76651 ], [ 103.665459, 10.769869 ], [ 103.670376, 10.777015 ], [ 103.671189, 10.798012 ], [ 103.674925, 10.807791 ], [ 103.686412, 10.818847 ], [ 103.699886, 10.824713 ], [ 103.707655, 10.83573 ], [ 103.712523, 10.864513 ], [ 103.699726, 10.92363 ], [ 103.680599, 10.964622 ], [ 103.660189, 10.994945 ], [ 103.66387, 11.008358 ], [ 103.66247, 11.025883 ], [ 103.648695, 11.050143 ], [ 103.661798, 11.058985 ], [ 103.684863, 11.060807 ], [ 103.69137, 11.067615 ], [ 103.684873, 11.069695 ], [ 103.667696, 11.064317 ], [ 103.660889, 11.06863 ], [ 103.656644, 11.076936 ], [ 103.634252, 11.08634 ], [ 103.62375, 11.088186 ], [ 103.612222, 11.086095 ], [ 103.594517, 11.092828 ], [ 103.568007, 11.139886 ], [ 103.549588, 11.166045 ], [ 103.530076, 11.168311 ], [ 103.504696, 11.165883 ], [ 103.486957, 11.148577 ], [ 103.473191, 11.139425 ], [ 103.467001, 11.12565 ], [ 103.446899, 11.103451 ], [ 103.449315, 11.099518 ], [ 103.465414, 11.103349 ], [ 103.468397, 11.09255 ], [ 103.45043, 11.071479 ], [ 103.446578, 11.044868 ], [ 103.429034, 11.008826 ], [ 103.423181, 10.986672 ], [ 103.411605, 10.959217 ], [ 103.41354, 10.94185 ], [ 103.420413, 10.926352 ], [ 103.423403, 10.893177 ], [ 103.409871, 10.891874 ], [ 103.38714, 10.876653 ], [ 103.369325, 10.879792 ], [ 103.353553, 10.868209 ], [ 103.348633, 10.883381 ], [ 103.335107, 10.898805 ], [ 103.306182, 10.912936 ], [ 103.289916, 10.91569 ], [ 103.282551, 10.923872 ], [ 103.258271, 10.92265 ], [ 103.246225, 10.917922 ], [ 103.239724, 10.9098 ], [ 103.231068, 10.904945 ], [ 103.226438, 10.896491 ], [ 103.214403, 10.889303 ], [ 103.209151, 10.879886 ], [ 103.183747, 10.868673 ], [ 103.179053, 10.858451 ], [ 103.172092, 10.860081 ], [ 103.154346, 10.872728 ], [ 103.14847, 10.871782 ], [ 103.141923, 10.86295 ], [ 103.124732, 10.870137 ], [ 103.123564, 10.873345 ], [ 103.130645, 10.879089 ], [ 103.130044, 10.891127 ], [ 103.118165, 10.906276 ], [ 103.09968, 10.916534 ], [ 103.096166, 10.932319 ], [ 103.097526, 10.950374 ], [ 103.107981, 10.966491 ], [ 103.108942, 10.992869 ], [ 103.10601, 11.022103 ], [ 103.096943, 11.054368 ], [ 103.096416, 11.071314 ], [ 103.091028, 11.078397 ], [ 103.094525, 11.082138 ], [ 103.100271, 11.078486 ], [ 103.104801, 11.079783 ], [ 103.115921, 11.099796 ], [ 103.113401, 11.132899 ], [ 103.094748, 11.191794 ], [ 103.081553, 11.216795 ], [ 103.073124, 11.222394 ], [ 103.053342, 11.217308 ], [ 103.04847, 11.222652 ], [ 103.057534, 11.233464 ], [ 103.070022, 11.240216 ], [ 103.066622, 11.256104 ], [ 103.076168, 11.267869 ], [ 103.072286, 11.284669 ], [ 103.090594, 11.285307 ], [ 103.095162, 11.297937 ], [ 103.103432, 11.298703 ], [ 103.113026, 11.304538 ], [ 103.121272, 11.316406 ], [ 103.135194, 11.313395 ], [ 103.14193, 11.318838 ], [ 103.142801, 11.324822 ], [ 103.135529, 11.338821 ], [ 103.133728, 11.348694 ], [ 103.121073, 11.348727 ], [ 103.106963, 11.343444 ], [ 103.092913, 11.356206 ], [ 103.083709, 11.411828 ], [ 103.078449, 11.418407 ], [ 103.072931, 11.416608 ], [ 103.06352, 11.421049 ], [ 103.063701, 11.431041 ], [ 103.053574, 11.439514 ], [ 103.059363, 11.443016 ], [ 103.079882, 11.44101 ], [ 103.080636, 11.446062 ], [ 103.058509, 11.449223 ], [ 103.048715, 11.44692 ], [ 103.020814, 11.423353 ], [ 103.014535, 11.42428 ], [ 103.012353, 11.433159 ], [ 103.014281, 11.448142 ], [ 103.009548, 11.467468 ], [ 102.986612, 11.499614 ], [ 102.983915, 11.516449 ], [ 102.967586, 11.52562 ], [ 102.952645, 11.545337 ], [ 102.952954, 11.564879 ], [ 102.941661, 11.584104 ], [ 102.934051, 11.586633 ], [ 102.931323, 11.591459 ], [ 102.931619, 11.597536 ], [ 102.938023, 11.602687 ], [ 102.936, 11.612184 ], [ 102.927025, 11.627332 ], [ 102.919002, 11.632086 ], [ 102.910947, 11.647208 ], [ 102.91572, 11.652952 ], [ 102.919955, 11.669965 ], [ 102.915792, 11.697149 ], [ 102.916195, 11.746857 ], [ 102.904423, 11.775497 ], [ 102.891755, 11.788658 ], [ 102.887662, 11.79859 ], [ 102.871769, 11.810821 ], [ 102.865505, 11.822055 ], [ 102.852335, 11.830798 ], [ 102.830222, 11.878175 ], [ 102.826831, 11.904822 ], [ 102.816137, 11.932465 ], [ 102.804948, 11.948302 ], [ 102.800293, 11.961455 ], [ 102.784164, 11.981586 ], [ 102.779783, 12.050707 ], [ 102.7572, 12.086555 ], [ 102.747383, 12.097497 ], [ 102.740061, 12.117198 ], [ 102.72866, 12.131397 ], [ 102.716459, 12.169178 ], [ 102.726924, 12.223068 ], [ 102.725549, 12.248669 ], [ 102.73836, 12.291113 ], [ 102.744314, 12.365697 ], [ 102.756897, 12.381733 ], [ 102.778917, 12.389998 ], [ 102.787901, 12.398301 ], [ 102.792143, 12.409689 ], [ 102.791088, 12.440578 ], [ 102.780655, 12.457699 ], [ 102.759565, 12.459295 ], [ 102.741448, 12.470348 ], [ 102.733687, 12.485991 ], [ 102.730976, 12.505607 ], [ 102.725789, 12.516671 ], [ 102.675238, 12.550834 ], [ 102.651177, 12.580651 ], [ 102.649681, 12.58418 ], [ 102.641483, 12.603525 ], [ 102.612945, 12.618129 ], [ 102.579735, 12.645542 ], [ 102.531266, 12.65461 ], [ 102.526929, 12.659021 ], [ 102.515051, 12.671101 ], [ 102.507147, 12.692991 ], [ 102.509115, 12.702001 ], [ 102.517065, 12.714643 ], [ 102.513593, 12.734206 ], [ 102.525272, 12.74858 ], [ 102.526929, 12.751837 ], [ 102.533243, 12.764247 ], [ 102.538914, 12.800548 ], [ 102.543018, 12.811032 ], [ 102.526929, 12.818443 ], [ 102.521101, 12.821127 ], [ 102.518469, 12.836887 ], [ 102.505829, 12.850175 ], [ 102.515287, 12.866115 ], [ 102.515302, 12.881746 ], [ 102.491464, 12.944559 ], [ 102.503232, 12.961495 ], [ 102.488019, 12.975088 ], [ 102.501756, 12.984372 ], [ 102.510677, 12.994322 ], [ 102.521524, 12.995849 ], [ 102.52541, 12.999186 ], [ 102.515365, 13.003795 ], [ 102.499131, 13.018368 ], [ 102.466115, 13.077062 ], [ 102.443867, 13.082473 ], [ 102.438515, 13.086595 ], [ 102.433379, 13.09958 ], [ 102.420967, 13.117356 ], [ 102.418823, 13.133837 ], [ 102.406301, 13.14773 ], [ 102.396737, 13.167803 ], [ 102.392889, 13.190725 ], [ 102.380675, 13.221096 ], [ 102.378922, 13.233697 ], [ 102.369948, 13.247255 ], [ 102.353428, 13.29287 ], [ 102.357864, 13.30889 ], [ 102.351248, 13.336446 ], [ 102.364929, 13.400874 ], [ 102.365438, 13.432894 ], [ 102.36128, 13.455772 ], [ 102.364494, 13.490076 ], [ 102.365296, 13.498636 ], [ 102.341965, 13.540261 ], [ 102.344869, 13.551979 ], [ 102.360559, 13.561266 ], [ 102.372383, 13.573281 ], [ 102.401052, 13.563801 ], [ 102.422942, 13.565207 ], [ 102.441787, 13.558301 ], [ 102.471524, 13.561228 ], [ 102.487457, 13.56586 ], [ 102.513782, 13.566513 ], [ 102.526929, 13.564607 ], [ 102.534919, 13.563448 ], [ 102.567606, 13.577669 ], [ 102.591016, 13.599111 ], [ 102.623796, 13.605727 ], [ 102.620606, 13.610508 ], [ 102.604632, 13.616882 ], [ 102.570931, 13.639516 ], [ 102.559283, 13.653932 ], [ 102.56372, 13.669248 ], [ 102.590539, 13.69476 ], [ 102.618593, 13.70461 ], [ 102.649681, 13.723051 ], [ 102.697811, 13.751597 ], [ 102.724257, 13.762461 ], [ 102.731067, 13.767923 ], [ 102.733948, 13.774764 ], [ 102.735426, 13.796095 ], [ 102.7669, 13.850895 ], [ 102.776639, 13.875903 ], [ 102.787433, 13.919403 ], [ 102.792892, 13.929024 ], [ 102.863608, 13.994984 ], [ 102.893618, 14.006271 ], [ 102.911634, 14.017978 ], [ 102.903267, 14.054839 ], [ 102.907468, 14.082354 ], [ 102.926065, 14.104453 ], [ 102.931083, 14.126405 ], [ 102.943007, 14.144356 ], [ 102.941066, 14.165416 ], [ 102.941879, 14.168942 ], [ 102.944265, 14.179296 ], [ 102.95922, 14.19254 ], [ 102.96359, 14.200701 ], [ 102.991575, 14.205344 ], [ 103.020015, 14.224573 ], [ 103.050786, 14.262294 ], [ 103.075295, 14.281775 ], [ 103.143719, 14.316493 ], [ 103.168391, 14.323908 ], [ 103.182593, 14.328176 ], [ 103.232477, 14.325212 ], [ 103.274137, 14.345387 ], [ 103.314985, 14.351114 ], [ 103.346321, 14.351929 ], [ 103.374712, 14.347877 ], [ 103.39129, 14.350029 ], [ 103.400889, 14.354353 ], [ 103.423472, 14.378962 ], [ 103.436775, 14.385079 ], [ 103.44018, 14.383888 ], [ 103.444442, 14.374592 ], [ 103.451521, 14.367646 ], [ 103.467749, 14.363107 ], [ 103.490386, 14.383186 ], [ 103.521114, 14.398824 ], [ 103.533109, 14.408249 ], [ 103.561588, 14.419178 ], [ 103.587754, 14.41895 ], [ 103.619018, 14.398737 ], [ 103.630605, 14.397828 ], [ 103.648814, 14.405134 ], [ 103.658261, 14.411933 ], [ 103.658086, 14.432206 ], [ 103.660485, 14.437214 ], [ 103.664614, 14.438804 ], [ 103.696568, 14.434526 ], [ 103.703983, 14.430275 ], [ 103.705328, 14.388422 ], [ 103.707803, 14.382689 ], [ 103.713455, 14.378715 ], [ 103.739597, 14.377638 ], [ 103.762598, 14.372508 ], [ 103.779032, 14.363583 ], [ 103.797911, 14.364447 ], [ 103.820242, 14.351663 ], [ 103.830644, 14.35258 ], [ 103.843643, 14.365948 ], [ 103.850166, 14.36704 ], [ 103.88457, 14.340502 ], [ 103.927585, 14.327626 ], [ 103.937126, 14.331098 ], [ 103.946395, 14.347343 ], [ 103.964673, 14.345765 ], [ 104.002772, 14.35223 ], [ 104.026797, 14.333611 ], [ 104.087018, 14.346105 ], [ 104.106616, 14.364766 ], [ 104.117472, 14.370417 ], [ 104.142473, 14.366524 ], [ 104.150843, 14.353691 ], [ 104.171991, 14.352338 ], [ 104.176857, 14.371018 ], [ 104.189327, 14.380651 ], [ 104.199057, 14.395791 ], [ 104.20549, 14.399127 ], [ 104.215521, 14.392889 ], [ 104.217641, 14.379458 ], [ 104.23438, 14.369152 ], [ 104.246054, 14.375045 ], [ 104.261974, 14.392785 ], [ 104.280867, 14.393752 ], [ 104.300513, 14.38901 ], [ 104.321306, 14.372539 ], [ 104.336367, 14.365693 ], [ 104.357546, 14.368479 ], [ 104.368991, 14.36789 ], [ 104.382021, 14.367219 ], [ 104.398251, 14.370373 ], [ 104.408532, 14.365121 ], [ 104.428081, 14.362699 ], [ 104.454922, 14.354539 ], [ 104.473305, 14.344489 ], [ 104.479044, 14.347802 ], [ 104.491742, 14.364371 ], [ 104.512504, 14.369044 ], [ 104.519261, 14.367234 ], [ 104.538673, 14.352857 ], [ 104.557056, 14.349532 ], [ 104.580195, 14.356879 ], [ 104.598562, 14.383797 ], [ 104.621906, 14.398892 ], [ 104.646207, 14.419783 ], [ 104.654726, 14.41841 ], [ 104.668403, 14.397661 ], [ 104.679965, 14.394033 ], [ 104.691281, 14.400063 ], [ 104.715223, 14.425539 ], [ 104.722992, 14.423518 ], [ 104.730179, 14.407136 ], [ 104.736673, 14.400983 ], [ 104.744669, 14.405274 ], [ 104.760388, 14.408239 ], [ 104.774679, 14.420361 ], [ 104.804447, 14.433153 ], [ 104.821334, 14.42614 ], [ 104.847568, 14.404488 ], [ 104.880684, 14.41385 ], [ 104.902649, 14.400166 ], [ 104.946005, 14.381886 ], [ 104.957198, 14.380454 ], [ 104.980278, 14.383538 ], [ 104.995256, 14.374031 ], [ 105.000009, 14.366884 ], [ 104.998058, 14.308736 ], [ 105.023009, 14.263914 ], [ 105.030197, 14.234106 ], [ 105.052953, 14.214666 ], [ 105.0642, 14.211179 ], [ 105.072239, 14.208686 ], [ 105.099057, 14.208567 ], [ 105.121314, 14.216999 ], [ 105.135948, 14.225956 ], [ 105.151762, 14.241794 ], [ 105.156268, 14.250285 ], [ 105.154036, 14.265747 ], [ 105.164748, 14.290318 ], [ 105.179044, 14.3109 ], [ 105.178045, 14.330085 ], [ 105.20007, 14.342709 ], [ 105.202986, 14.328743 ], [ 105.201185, 14.315967 ], [ 105.210276, 14.28993 ], [ 105.226524, 14.260223 ], [ 105.248929, 14.240513 ], [ 105.248515, 14.232737 ], [ 105.255491, 14.225979 ], [ 105.257009, 14.209952 ], [ 105.264757, 14.20393 ], [ 105.272083, 14.183579 ], [ 105.280858, 14.175274 ], [ 105.287389, 14.174923 ], [ 105.293056, 14.174619 ], [ 105.305857, 14.168942 ], [ 105.321971, 14.161795 ], [ 105.326379, 14.153262 ], [ 105.326356, 14.144872 ], [ 105.360918, 14.109727 ], [ 105.370407, 14.103765 ], [ 105.385211, 14.105009 ], [ 105.390856, 14.100155 ], [ 105.395918, 14.099734 ], [ 105.414309, 14.110054 ], [ 105.424147, 14.105614 ], [ 105.435701, 14.109075 ], [ 105.440268, 14.103903 ], [ 105.453911, 14.10273 ], [ 105.458787, 14.110192 ], [ 105.46663, 14.112036 ], [ 105.47417, 14.119753 ], [ 105.487199, 14.120511 ], [ 105.498894, 14.133424 ], [ 105.507255, 14.132609 ], [ 105.509783, 14.134192 ], [ 105.527932, 14.142688 ], [ 105.548513, 14.157116 ], [ 105.56067, 14.158761 ], [ 105.584032, 14.139718 ], [ 105.587745, 14.140473 ], [ 105.587495, 14.148118 ], [ 105.603456, 14.146143 ], [ 105.614602, 14.128833 ], [ 105.621493, 14.132592 ], [ 105.631233, 14.1276 ], [ 105.63491, 14.119512 ], [ 105.63425, 14.10843 ], [ 105.644935, 14.098895 ], [ 105.64854, 14.100059 ], [ 105.652577, 14.109764 ], [ 105.659417, 14.111854 ], [ 105.657557, 14.117083 ], [ 105.659872, 14.118459 ], [ 105.681801, 14.108295 ], [ 105.703225, 14.088592 ], [ 105.708883, 14.090342 ], [ 105.717583, 14.105354 ], [ 105.723521, 14.108109 ], [ 105.738049, 14.095512 ], [ 105.781481, 14.085083 ], [ 105.785294, 14.076208 ], [ 105.781539, 14.06048 ], [ 105.781995, 14.048925 ], [ 105.790783, 14.0226 ], [ 105.821743, 14.001239 ], [ 105.834955, 13.983566 ], [ 105.853788, 13.974811 ], [ 105.889622, 13.951943 ], [ 105.898522, 13.938478 ], [ 105.910678, 13.930256 ], [ 105.932651, 13.928803 ], [ 105.958124, 13.931995 ], [ 105.986076, 13.924429 ], [ 105.994969, 13.933417 ], [ 106.003608, 13.934602 ], [ 106.052726, 13.922345 ], [ 106.074213, 13.922348 ], [ 106.107331, 13.916117 ], [ 106.110303, 13.92151 ], [ 106.110082, 13.941671 ], [ 106.1219, 13.960856 ], [ 106.115712, 13.977313 ], [ 106.117624, 13.991443 ], [ 106.152079, 14.006227 ], [ 106.169793, 14.021784 ], [ 106.176182, 14.032181 ], [ 106.184531, 14.060467 ], [ 106.171057, 14.074684 ], [ 106.168306, 14.085338 ], [ 106.149866, 14.091002 ], [ 106.133536, 14.103551 ], [ 106.119464, 14.136048 ], [ 106.095012, 14.158841 ], [ 106.088938, 14.178842 ], [ 106.062478, 14.205668 ], [ 106.046308, 14.213113 ], [ 106.046061, 14.23395 ], [ 106.027374, 14.258129 ], [ 106.03187, 14.279379 ], [ 106.025156, 14.308733 ], [ 106.0137, 14.319351 ], [ 105.994809, 14.324744 ], [ 105.994938, 14.336109 ], [ 106.000439, 14.35442 ], [ 106.000977, 14.379845 ], [ 106.00835, 14.377254 ], [ 106.014302, 14.362284 ], [ 106.024942, 14.349995 ], [ 106.052001, 14.350136 ], [ 106.07514, 14.339869 ], [ 106.080219, 14.342768 ], [ 106.087019, 14.355625 ], [ 106.088609, 14.370792 ], [ 106.091854, 14.373847 ], [ 106.10654, 14.372094 ], [ 106.123719, 14.364274 ], [ 106.145427, 14.366945 ], [ 106.16344, 14.357116 ], [ 106.175696, 14.357049 ], [ 106.197564, 14.371126 ], [ 106.219392, 14.378795 ], [ 106.246848, 14.443033 ], [ 106.244551, 14.462762 ], [ 106.253313, 14.481298 ], [ 106.265383, 14.474611 ], [ 106.273838, 14.476702 ], [ 106.292378, 14.467457 ], [ 106.317805, 14.437458 ], [ 106.328913, 14.43821 ], [ 106.370616, 14.453537 ], [ 106.409083, 14.452318 ], [ 106.418719, 14.460662 ], [ 106.423816, 14.474009 ], [ 106.438043, 14.48855 ], [ 106.437796, 14.494559 ], [ 106.431493, 14.506156 ], [ 106.433365, 14.517627 ], [ 106.44279, 14.521511 ], [ 106.468374, 14.512158 ], [ 106.475003, 14.513718 ], [ 106.475364, 14.520577 ], [ 106.460651, 14.540093 ], [ 106.461381, 14.550394 ], [ 106.492737, 14.571463 ], [ 106.506188, 14.584497 ], [ 106.530611, 14.59149 ], [ 106.543785, 14.587899 ], [ 106.551969, 14.573157 ], [ 106.559371, 14.549397 ], [ 106.576567, 14.533937 ], [ 106.576241, 14.518556 ], [ 106.567789, 14.503299 ], [ 106.590943, 14.508921 ], [ 106.610588, 14.506403 ], [ 106.619631, 14.490924 ], [ 106.630884, 14.450991 ], [ 106.655623, 14.449172 ], [ 106.670911, 14.433523 ], [ 106.697871, 14.429463 ], [ 106.705197, 14.424262 ], [ 106.721248, 14.431081 ], [ 106.739951, 14.424116 ], [ 106.751867, 14.404254 ], [ 106.755838, 14.386424 ], [ 106.774367, 14.374207 ], [ 106.788646, 14.341184 ], [ 106.799154, 14.327159 ], [ 106.812314, 14.319551 ], [ 106.816536, 14.310239 ], [ 106.831809, 14.310607 ], [ 106.839035, 14.299256 ], [ 106.843642, 14.298416 ], [ 106.86577, 14.317255 ], [ 106.892108, 14.315571 ], [ 106.903064, 14.325794 ], [ 106.912647, 14.330043 ], [ 106.937814, 14.323128 ], [ 106.94615, 14.316167 ], [ 106.951119, 14.315608 ], [ 106.96343, 14.319687 ], [ 106.976084, 14.334164 ], [ 106.974082, 14.350316 ], [ 106.976091, 14.356583 ], [ 106.995837, 14.365424 ], [ 107.022399, 14.401817 ], [ 107.043364, 14.416934 ], [ 107.045327, 14.434102 ], [ 107.075069, 14.42179 ], [ 107.080488, 14.395634 ], [ 107.085133, 14.392009 ], [ 107.102836, 14.397003 ], [ 107.117346, 14.396684 ], [ 107.125103, 14.416623 ], [ 107.157322, 14.416594 ], [ 107.176583, 14.433316 ], [ 107.188179, 14.435213 ], [ 107.201905, 14.430753 ], [ 107.218477, 14.442572 ], [ 107.235403, 14.44748 ], [ 107.24883, 14.467057 ], [ 107.248752, 14.490117 ], [ 107.256524, 14.525777 ], [ 107.260677, 14.530457 ], [ 107.270909, 14.534708 ], [ 107.277032, 14.541745 ], [ 107.283374, 14.556054 ], [ 107.284587, 14.569599 ], [ 107.298854, 14.585586 ], [ 107.332446, 14.587083 ], [ 107.359565, 14.569201 ], [ 107.365416, 14.554336 ], [ 107.37472, 14.544791 ], [ 107.400193, 14.538736 ], [ 107.42618, 14.528358 ], [ 107.436945, 14.528168 ], [ 107.444645, 14.53757 ], [ 107.453587, 14.556519 ], [ 107.456273, 14.587153 ], [ 107.466443, 14.595495 ], [ 107.458265, 14.608833 ], [ 107.45845, 14.614586 ], [ 107.478483, 14.622685 ], [ 107.493202, 14.625367 ], [ 107.502652, 14.638618 ], [ 107.518313, 14.651905 ], [ 107.525793, 14.678933 ], [ 107.53366, 14.686563 ], [ 107.540169, 14.688819 ], [ 107.556132, 14.686602 ], [ 107.551743, 14.655636 ], [ 107.556773, 14.622705 ], [ 107.552328, 14.614902 ], [ 107.552259, 14.606481 ], [ 107.533673, 14.59823 ], [ 107.52457, 14.583469 ], [ 107.524266, 14.574971 ], [ 107.533322, 14.548022 ], [ 107.532629, 14.531303 ], [ 107.532534, 14.529013 ], [ 107.508952, 14.498805 ], [ 107.504179, 14.461486 ], [ 107.491606, 14.430799 ], [ 107.485901, 14.402384 ], [ 107.482292, 14.397408 ], [ 107.476827, 14.396841 ], [ 107.449632, 14.412912 ], [ 107.439405, 14.385987 ], [ 107.410685, 14.360082 ], [ 107.407971, 14.315334 ], [ 107.414973, 14.275499 ], [ 107.412089, 14.251362 ], [ 107.406391, 14.235514 ], [ 107.39501, 14.222243 ], [ 107.38785, 14.198938 ], [ 107.37657, 14.179133 ], [ 107.368568, 14.168942 ], [ 107.339609, 14.132055 ], [ 107.336967, 14.111523 ], [ 107.340374, 14.099957 ], [ 107.345997, 14.094111 ], [ 107.35985, 14.085005 ], [ 107.382196, 14.078687 ], [ 107.387288, 14.074541 ], [ 107.385243, 14.068652 ], [ 107.373653, 14.063285 ], [ 107.368459, 14.056451 ], [ 107.362073, 14.026358 ], [ 107.365494, 14.015583 ], [ 107.383129, 14.001766 ], [ 107.400805, 13.993294 ], [ 107.424323, 13.989209 ], [ 107.446318, 13.992257 ], [ 107.457043, 13.977336 ], [ 107.459727, 13.963757 ], [ 107.457483, 13.933155 ], [ 107.46081, 13.92464 ], [ 107.469896, 13.919929 ], [ 107.472243, 13.913807 ], [ 107.469663, 13.892555 ], [ 107.458949, 13.879542 ], [ 107.456272, 13.870921 ], [ 107.471396, 13.854119 ], [ 107.467654, 13.843285 ], [ 107.457512, 13.829069 ], [ 107.459833, 13.814095 ], [ 107.451709, 13.793693 ], [ 107.489435, 13.773424 ], [ 107.531573, 13.742001 ], [ 107.55066, 13.700627 ], [ 107.572114, 13.662989 ], [ 107.578199, 13.619882 ], [ 107.588838, 13.598195 ], [ 107.61453, 13.545812 ], [ 107.624763, 13.515454 ], [ 107.627317, 13.490076 ], [ 107.628203, 13.481266 ], [ 107.630052, 13.362519 ], [ 107.588838, 13.259838 ], [ 107.497603, 13.032215 ], [ 107.493111, 13.005836 ], [ 107.501095, 12.977788 ], [ 107.489634, 12.967887 ], [ 107.486254, 12.951506 ], [ 107.499612, 12.917389 ], [ 107.493976, 12.898711 ], [ 107.499144, 12.881528 ], [ 107.510426, 12.86891 ], [ 107.514892, 12.857738 ], [ 107.549697, 12.822125 ], [ 107.56078, 12.793864 ], [ 107.560447, 12.761824 ], [ 107.56702, 12.731011 ], [ 107.562239, 12.710799 ], [ 107.57927, 12.681175 ], [ 107.572056, 12.664974 ], [ 107.570599, 12.645236 ], [ 107.574974, 12.628905 ], [ 107.583751, 12.612454 ], [ 107.584679, 12.597923 ], [ 107.581331, 12.578445 ], [ 107.5877, 12.557951 ], [ 107.575328, 12.533634 ], [ 107.558576, 12.516352 ], [ 107.561642, 12.510483 ], [ 107.576692, 12.498138 ], [ 107.579277, 12.489565 ], [ 107.549239, 12.412107 ], [ 107.553207, 12.382258 ], [ 107.544499, 12.355496 ], [ 107.508948, 12.328979 ], [ 107.471098, 12.310168 ], [ 107.461009, 12.296647 ], [ 107.445844, 12.286409 ], [ 107.434534, 12.248276 ], [ 107.418574, 12.243301 ], [ 107.399313, 12.255712 ], [ 107.387541, 12.269597 ], [ 107.383892, 12.286072 ], [ 107.375406, 12.303448 ], [ 107.347384, 12.330298 ], [ 107.320887, 12.323149 ], [ 107.307856, 12.330348 ], [ 107.285621, 12.323871 ], [ 107.272614, 12.3234 ], [ 107.24672, 12.306935 ], [ 107.23215, 12.297669 ], [ 107.207904, 12.298612 ], [ 107.19687, 12.296146 ], [ 107.18019, 12.283269 ], [ 107.154441, 12.274472 ], [ 107.138709, 12.243541 ], [ 107.135551, 12.230937 ], [ 107.111358, 12.215033 ], [ 107.093071, 12.185816 ], [ 107.074996, 12.181682 ], [ 107.07468, 12.165 ], [ 107.055027, 12.149858 ], [ 107.042745, 12.132073 ], [ 107.009167, 12.115761 ], [ 107.004513, 12.101705 ], [ 106.997672, 12.095482 ], [ 106.932303, 12.06631 ], [ 106.919492, 12.063642 ], [ 106.901334, 12.066663 ], [ 106.865014, 12.063912 ], [ 106.825719, 12.08089 ], [ 106.790122, 12.081524 ], [ 106.778563, 12.070663 ], [ 106.769308, 12.049136 ], [ 106.758701, 12.034318 ], [ 106.741756, 11.998772 ], [ 106.740465, 11.985403 ], [ 106.71256, 11.97075 ], [ 106.687054, 11.966082 ], [ 106.674315, 11.977163 ], [ 106.656751, 11.986257 ], [ 106.651653, 11.98034 ], [ 106.655438, 11.967951 ], [ 106.652502, 11.966108 ], [ 106.64111, 11.9709 ], [ 106.633549, 11.965278 ], [ 106.628577, 11.971613 ], [ 106.623182, 11.973502 ], [ 106.539489, 11.970289 ], [ 106.528717, 11.976968 ], [ 106.517011, 11.978975 ], [ 106.48615, 11.970679 ], [ 106.472845, 11.97372 ], [ 106.462505, 11.982383 ], [ 106.451759, 11.987041 ], [ 106.441942, 11.985203 ], [ 106.420031, 11.973105 ], [ 106.464335, 11.872398 ], [ 106.459148, 11.86626 ], [ 106.446683, 11.864629 ], [ 106.439939, 11.855218 ], [ 106.438338, 11.843232 ], [ 106.443232, 11.830137 ], [ 106.443454, 11.822055 ], [ 106.421309, 11.78193 ], [ 106.416609, 11.767594 ], [ 106.429153, 11.725488 ], [ 106.450987, 11.690101 ], [ 106.451721, 11.678573 ], [ 106.447773, 11.672806 ], [ 106.430789, 11.673535 ], [ 106.415225, 11.679577 ], [ 106.397575, 11.69152 ], [ 106.377759, 11.695717 ], [ 106.359733, 11.69187 ], [ 106.342611, 11.683683 ], [ 106.330861, 11.683765 ], [ 106.318048, 11.677739 ], [ 106.30578, 11.676708 ], [ 106.275307, 11.702775 ], [ 106.261153, 11.72139 ], [ 106.247299, 11.726713 ], [ 106.212335, 11.730987 ], [ 106.200265, 11.738465 ], [ 106.189359, 11.749645 ], [ 106.17256, 11.747062 ], [ 106.155536, 11.739017 ], [ 106.134169, 11.744042 ], [ 106.117478, 11.744452 ], [ 106.074983, 11.773393 ], [ 106.039486, 11.777609 ], [ 106.026913, 11.774193 ], [ 106.015832, 11.764637 ], [ 106.012517, 11.754143 ], [ 106.015444, 11.735113 ], [ 106.012844, 11.722015 ], [ 106.001759, 11.704663 ], [ 105.982734, 11.688842 ], [ 105.980402, 11.667273 ], [ 105.959549, 11.64648 ], [ 105.934509, 11.647527 ], [ 105.898318, 11.672347 ], [ 105.884424, 11.674587 ], [ 105.864575, 11.666587 ], [ 105.845963, 11.652823 ], [ 105.833064, 11.625561 ], [ 105.813215, 11.615068 ], [ 105.811507, 11.595952 ], [ 105.823736, 11.57073 ], [ 105.846782, 11.563472 ], [ 105.861959, 11.56231 ], [ 105.880915, 11.540693 ], [ 105.884142, 11.523538 ], [ 105.880288, 11.502278 ], [ 105.882679, 11.486725 ], [ 105.877401, 11.462978 ], [ 105.883808, 11.454949 ], [ 105.898029, 11.449507 ], [ 105.901534, 11.443745 ], [ 105.898429, 11.429152 ], [ 105.876914, 11.403643 ], [ 105.878324, 11.390469 ], [ 105.87467, 11.375955 ], [ 105.883989, 11.358955 ], [ 105.87003, 11.316622 ], [ 105.868027, 11.28428 ], [ 105.87226, 11.282194 ], [ 105.886288, 11.28407 ], [ 105.907433, 11.279899 ], [ 105.910853, 11.267745 ], [ 105.911899, 11.243246 ], [ 105.916983, 11.232671 ], [ 105.931047, 11.216005 ], [ 105.957147, 11.202995 ], [ 105.978957, 11.19976 ], [ 105.994037, 11.191518 ], [ 106.014977, 11.185402 ], [ 106.024187, 11.15027 ], [ 106.075291, 11.108679 ], [ 106.09529, 11.097096 ], [ 106.102245, 11.086246 ], [ 106.107801, 11.068287 ], [ 106.128558, 11.090211 ], [ 106.144427, 11.100703 ], [ 106.15231, 11.102492 ], [ 106.161583, 11.095779 ], [ 106.1886, 11.052105 ], [ 106.192899, 11.019017 ], [ 106.207108, 10.977855 ], [ 106.197327, 10.972669 ], [ 106.1656, 10.982538 ], [ 106.151502, 10.977652 ], [ 106.149544, 10.955369 ], [ 106.154865, 10.940141 ], [ 106.145122, 10.916545 ], [ 106.167277, 10.882198 ], [ 106.194218, 10.796807 ], [ 106.194839, 10.78425 ], [ 106.151338, 10.805011 ], [ 106.089743, 10.806178 ], [ 106.072282, 10.812014 ], [ 106.011275, 10.849253 ], [ 105.977541, 10.887413 ], [ 105.94834, 10.911905 ], [ 105.946266, 10.906578 ], [ 105.953087, 10.883877 ], [ 105.931698, 10.862852 ], [ 105.934666, 10.845904 ], [ 105.932705, 10.840615 ], [ 105.90267, 10.84211 ], [ 105.856284, 10.860988 ], [ 105.852164, 10.869983 ], [ 105.860975, 10.891594 ], [ 105.859393, 10.904169 ], [ 105.84619, 10.927208 ], [ 105.808819, 10.973887 ], [ 105.774398, 11.029472 ], [ 105.724321, 11.022235 ], [ 105.710512, 11.015252 ], [ 105.690752, 11.000025 ], [ 105.662813, 10.986677 ], [ 105.535704, 10.952668 ], [ 105.491348, 10.951553 ], [ 105.473459, 10.963098 ], [ 105.465256, 10.963501 ], [ 105.451508, 10.958833 ], [ 105.428911, 10.969783 ], [ 105.406803, 10.933351 ], [ 105.387645, 10.91947 ], [ 105.367199, 10.891243 ], [ 105.338027, 10.863299 ], [ 105.268749, 10.893166 ], [ 105.233802, 10.891804 ], [ 105.214596, 10.898357 ], [ 105.197563, 10.90804 ], [ 105.178205, 10.911164 ], [ 105.155731, 10.92324 ], [ 105.107037, 10.921429 ], [ 105.103284, 10.926837 ], [ 105.115446, 10.946008 ], [ 105.115528, 10.957773 ], [ 105.109489, 10.959948 ], [ 105.0835, 10.955286 ], [ 105.076998, 10.938392 ], [ 105.065873, 10.935914 ], [ 105.0642, 10.93484 ], [ 105.055568, 10.929298 ], [ 105.052775, 10.917076 ], [ 105.044394, 10.909594 ], [ 105.04362, 10.900716 ], [ 105.030942, 10.889045 ], [ 105.03659, 10.869394 ], [ 105.05708, 10.824304 ], [ 105.0642, 10.788579 ], [ 105.078182, 10.775334 ], [ 105.090464, 10.757279 ], [ 105.094008, 10.724717 ], [ 105.091766, 10.720775 ], [ 105.0642, 10.703893 ], [ 104.948744, 10.633342 ], [ 104.900935, 10.553231 ], [ 104.869039, 10.523943 ], [ 104.760237, 10.51805 ], [ 104.694929, 10.537375 ], [ 104.65494, 10.54013 ], [ 104.64819, 10.537368 ], [ 104.641543, 10.529211 ], [ 104.618921, 10.527468 ], [ 104.605516, 10.531892 ], [ 104.593687, 10.53115 ], [ 104.58737, 10.52663 ], [ 104.583978, 10.507606 ], [ 104.56005, 10.492852 ], [ 104.557337, 10.473273 ], [ 104.551708, 10.45786 ], [ 104.541981, 10.449394 ], [ 104.520473, 10.442135 ], [ 104.499587, 10.406129 ], [ 104.496241, 10.406748 ], [ 104.487465, 10.421334 ], [ 104.477593, 10.429449 ], [ 104.438612, 10.424547 ] ] ], [ [ [ 102.970489, 11.394587 ], [ 102.972404, 11.405705 ], [ 102.974853, 11.411593 ], [ 102.979707, 11.420024 ], [ 102.982426, 11.421507 ], [ 102.983017, 11.417596 ], [ 102.985324, 11.418356 ], [ 102.986932, 11.415977 ], [ 102.984042, 11.409584 ], [ 102.98541, 11.407684 ], [ 102.988694, 11.409154 ], [ 102.995842, 11.410237 ], [ 102.998155, 11.414279 ], [ 103.004352, 11.418553 ], [ 103.007889, 11.417486 ], [ 103.014076, 11.418819 ], [ 103.017666, 11.416113 ], [ 103.02089, 11.408903 ], [ 103.023751, 11.405577 ], [ 103.022412, 11.401826 ], [ 103.033982, 11.379756 ], [ 103.034985, 11.374608 ], [ 103.031001, 11.362934 ], [ 103.031106, 11.359261 ], [ 103.02848, 11.35181 ], [ 103.029707, 11.344513 ], [ 103.033273, 11.341948 ], [ 103.033873, 11.339088 ], [ 103.037289, 11.338419 ], [ 103.041449, 11.334747 ], [ 103.041917, 11.329437 ], [ 103.038586, 11.320813 ], [ 103.044275, 11.308151 ], [ 103.044365, 11.304408 ], [ 103.041901, 11.301172 ], [ 103.042989, 11.293805 ], [ 103.041275, 11.291473 ], [ 103.040231, 11.286242 ], [ 103.037555, 11.281452 ], [ 103.032166, 11.277406 ], [ 103.032576, 11.273972 ], [ 103.034755, 11.27208 ], [ 103.031673, 11.264611 ], [ 103.028035, 11.259241 ], [ 103.025594, 11.248342 ], [ 103.022525, 11.244694 ], [ 103.016711, 11.24229 ], [ 103.010467, 11.245115 ], [ 103.006194, 11.250778 ], [ 103.000754, 11.248244 ], [ 102.997812, 11.254862 ], [ 102.995034, 11.256754 ], [ 102.990073, 11.253854 ], [ 102.988216, 11.255537 ], [ 102.992052, 11.260145 ], [ 102.989412, 11.269279 ], [ 102.985019, 11.270217 ], [ 102.980936, 11.274751 ], [ 102.982372, 11.27715 ], [ 102.985691, 11.277241 ], [ 102.984201, 11.282693 ], [ 102.985399, 11.285533 ], [ 102.983507, 11.292929 ], [ 102.985708, 11.294719 ], [ 102.984811, 11.299999 ], [ 102.98116, 11.302129 ], [ 102.980932, 11.304995 ], [ 102.988667, 11.316722 ], [ 102.990595, 11.318033 ], [ 102.98013, 11.350254 ], [ 102.977003, 11.352212 ], [ 102.975227, 11.358754 ], [ 102.978387, 11.36086 ], [ 102.978249, 11.367043 ], [ 102.980641, 11.370421 ], [ 102.973552, 11.390147 ], [ 102.971262, 11.391087 ], [ 102.970489, 11.394587 ] ] ], [ [ [ 103.183278, 10.735235 ], [ 103.191022, 10.75433 ], [ 103.190635, 10.765007 ], [ 103.197724, 10.77075 ], [ 103.210694, 10.765762 ], [ 103.221289, 10.765368 ], [ 103.22891, 10.77072 ], [ 103.23238, 10.779404 ], [ 103.248761, 10.775431 ], [ 103.256086, 10.770816 ], [ 103.250862, 10.764892 ], [ 103.256579, 10.751593 ], [ 103.257836, 10.739021 ], [ 103.253344, 10.734227 ], [ 103.256352, 10.726949 ], [ 103.265814, 10.718397 ], [ 103.272008, 10.723118 ], [ 103.288704, 10.722832 ], [ 103.295735, 10.711207 ], [ 103.292035, 10.706925 ], [ 103.293352, 10.70308 ], [ 103.301098, 10.700829 ], [ 103.310558, 10.711844 ], [ 103.314851, 10.709023 ], [ 103.315181, 10.700005 ], [ 103.311415, 10.6917 ], [ 103.297269, 10.679796 ], [ 103.288704, 10.682769 ], [ 103.281236, 10.678418 ], [ 103.26854, 10.652238 ], [ 103.26207, 10.652355 ], [ 103.259131, 10.657778 ], [ 103.256553, 10.682665 ], [ 103.2448, 10.703588 ], [ 103.234293, 10.70818 ], [ 103.224624, 10.701346 ], [ 103.213244, 10.703344 ], [ 103.202469, 10.714524 ], [ 103.204266, 10.721979 ], [ 103.200923, 10.73516 ], [ 103.194861, 10.738009 ], [ 103.187489, 10.732649 ], [ 103.183278, 10.735235 ] ] ], [ [ [ 103.732479, 10.480592 ], [ 103.740531, 10.479048 ], [ 103.744502, 10.47674 ], [ 103.747269, 10.481833 ], [ 103.747988, 10.485466 ], [ 103.745254, 10.508544 ], [ 103.740239, 10.516721 ], [ 103.741839, 10.518696 ], [ 103.748436, 10.520174 ], [ 103.771778, 10.517361 ], [ 103.787362, 10.50987 ], [ 103.793838, 10.504812 ], [ 103.795906, 10.501189 ], [ 103.796076, 10.495091 ], [ 103.794501, 10.48492 ], [ 103.795865, 10.473889 ], [ 103.795894, 10.466338 ], [ 103.798375, 10.46198 ], [ 103.797837, 10.457052 ], [ 103.792705, 10.456306 ], [ 103.789761, 10.454019 ], [ 103.785231, 10.454099 ], [ 103.781509, 10.451989 ], [ 103.778956, 10.445653 ], [ 103.773971, 10.444763 ], [ 103.769615, 10.442106 ], [ 103.766113, 10.446706 ], [ 103.763108, 10.446609 ], [ 103.758988, 10.449642 ], [ 103.757505, 10.453702 ], [ 103.749692, 10.463111 ], [ 103.737809, 10.472325 ], [ 103.734919, 10.471186 ], [ 103.732479, 10.480592 ] ] ], [ [ [ 103.279449, 10.608892 ], [ 103.288704, 10.619727 ], [ 103.292912, 10.62169 ], [ 103.301395, 10.61684 ], [ 103.311287, 10.624072 ], [ 103.315001, 10.623384 ], [ 103.31656, 10.615876 ], [ 103.323081, 10.607549 ], [ 103.303009, 10.602894 ], [ 103.304437, 10.596903 ], [ 103.310772, 10.591554 ], [ 103.305885, 10.587075 ], [ 103.306214, 10.582337 ], [ 103.313732, 10.575065 ], [ 103.322961, 10.571928 ], [ 103.326778, 10.574936 ], [ 103.332184, 10.588192 ], [ 103.339045, 10.577436 ], [ 103.338244, 10.572977 ], [ 103.325292, 10.560528 ], [ 103.323923, 10.543783 ], [ 103.312164, 10.544498 ], [ 103.309831, 10.557969 ], [ 103.302835, 10.567089 ], [ 103.295668, 10.566693 ], [ 103.295351, 10.575867 ], [ 103.288704, 10.581647 ], [ 103.283812, 10.587715 ], [ 103.279449, 10.608892 ] ] ], [ [ [ 103.783264, 10.421784 ], [ 103.787794, 10.429379 ], [ 103.785877, 10.434878 ], [ 103.790816, 10.437868 ], [ 103.80192, 10.432266 ], [ 103.803886, 10.429379 ], [ 103.817616, 10.429379 ], [ 103.822243, 10.424557 ], [ 103.806404, 10.416319 ], [ 103.808327, 10.406088 ], [ 103.805578, 10.403869 ], [ 103.794992, 10.415032 ], [ 103.784522, 10.417225 ], [ 103.783264, 10.421784 ] ] ], [ [ [ 103.578227, 10.50181 ], [ 103.58009, 10.507543 ], [ 103.585099, 10.50909 ], [ 103.585717, 10.506599 ], [ 103.589644, 10.505 ], [ 103.595199, 10.504471 ], [ 103.599671, 10.505783 ], [ 103.599595, 10.496825 ], [ 103.604576, 10.494123 ], [ 103.606878, 10.490577 ], [ 103.606375, 10.488266 ], [ 103.608406, 10.482734 ], [ 103.603416, 10.482297 ], [ 103.598769, 10.478121 ], [ 103.601113, 10.475684 ], [ 103.597646, 10.473729 ], [ 103.596322, 10.477602 ], [ 103.593162, 10.480174 ], [ 103.588939, 10.480386 ], [ 103.587897, 10.478673 ], [ 103.581213, 10.481414 ], [ 103.580503, 10.483673 ], [ 103.587115, 10.486335 ], [ 103.588217, 10.490357 ], [ 103.584477, 10.497035 ], [ 103.579847, 10.499508 ], [ 103.578227, 10.50181 ] ] ], [ [ [ 103.166343, 10.830066 ], [ 103.168543, 10.831435 ], [ 103.169926, 10.82941 ], [ 103.179656, 10.832178 ], [ 103.184126, 10.836043 ], [ 103.1878, 10.832979 ], [ 103.189895, 10.826442 ], [ 103.195992, 10.825574 ], [ 103.196705, 10.821061 ], [ 103.188679, 10.818085 ], [ 103.180502, 10.818181 ], [ 103.177999, 10.816359 ], [ 103.174188, 10.81724 ], [ 103.170779, 10.821856 ], [ 103.166343, 10.830066 ] ] ], [ [ [ 103.122695, 10.304312 ], [ 103.13093, 10.309345 ], [ 103.135016, 10.315728 ], [ 103.135307, 10.323428 ], [ 103.137173, 10.322925 ], [ 103.138157, 10.317474 ], [ 103.14147, 10.313685 ], [ 103.145158, 10.313431 ], [ 103.150102, 10.315461 ], [ 103.151254, 10.311621 ], [ 103.147736, 10.309835 ], [ 103.143371, 10.310595 ], [ 103.140447, 10.30889 ], [ 103.138137, 10.300554 ], [ 103.138278, 10.296904 ], [ 103.14043, 10.293399 ], [ 103.128623, 10.293865 ], [ 103.126744, 10.296602 ], [ 103.125963, 10.301387 ], [ 103.122695, 10.304312 ] ] ], [ [ [ 103.06633, 10.889654 ], [ 103.06897, 10.897567 ], [ 103.072304, 10.901071 ], [ 103.072491, 10.905897 ], [ 103.078259, 10.904133 ], [ 103.078633, 10.902695 ], [ 103.08684, 10.8954 ], [ 103.090931, 10.893841 ], [ 103.091178, 10.889306 ], [ 103.088053, 10.888134 ], [ 103.080763, 10.888665 ], [ 103.07698, 10.887777 ], [ 103.068452, 10.888155 ], [ 103.06633, 10.889654 ] ] ], [ [ [ 102.912133, 9.933736 ], [ 102.917047, 9.934939 ], [ 102.922025, 9.926005 ], [ 102.929468, 9.925396 ], [ 102.932615, 9.922553 ], [ 102.937962, 9.921678 ], [ 102.937948, 9.917782 ], [ 102.934761, 9.914925 ], [ 102.930148, 9.914443 ], [ 102.916758, 9.926427 ], [ 102.912133, 9.933736 ] ] ], [ [ [ 102.878776, 9.932251 ], [ 102.882497, 9.933666 ], [ 102.887618, 9.928912 ], [ 102.891832, 9.921977 ], [ 102.895618, 9.920304 ], [ 102.89956, 9.921242 ], [ 102.902124, 9.9183 ], [ 102.906082, 9.917029 ], [ 102.902727, 9.9133 ], [ 102.896533, 9.914305 ], [ 102.894497, 9.91699 ], [ 102.881051, 9.926434 ], [ 102.878776, 9.932251 ] ] ], [ [ [ 104.317953, 10.434586 ], [ 104.321048, 10.437231 ], [ 104.321839, 10.443477 ], [ 104.327944, 10.442183 ], [ 104.334032, 10.438937 ], [ 104.333413, 10.433755 ], [ 104.331915, 10.431929 ], [ 104.327602, 10.43192 ], [ 104.326977, 10.429664 ], [ 104.322373, 10.429511 ], [ 104.317953, 10.434586 ] ] ], [ [ [ 103.061159, 10.927877 ], [ 103.064131, 10.931247 ], [ 103.068979, 10.928373 ], [ 103.072428, 10.932473 ], [ 103.072223, 10.937176 ], [ 103.076168, 10.941863 ], [ 103.080122, 10.944995 ], [ 103.08114, 10.942887 ], [ 103.080251, 10.938694 ], [ 103.07647, 10.935563 ], [ 103.075276, 10.931153 ], [ 103.071813, 10.926384 ], [ 103.067089, 10.92575 ], [ 103.061159, 10.927877 ] ] ], [ [ [ 103.143575, 10.288499 ], [ 103.146027, 10.288696 ], [ 103.149428, 10.281207 ], [ 103.155841, 10.279811 ], [ 103.153462, 10.273251 ], [ 103.146389, 10.270356 ], [ 103.146138, 10.276495 ], [ 103.143575, 10.288499 ] ] ], [ [ [ 103.553679, 10.49636 ], [ 103.557869, 10.500287 ], [ 103.560288, 10.500608 ], [ 103.563977, 10.497874 ], [ 103.566915, 10.492564 ], [ 103.565369, 10.487633 ], [ 103.560036, 10.487253 ], [ 103.558803, 10.492083 ], [ 103.553679, 10.49636 ] ] ], [ [ [ 103.472159, 10.627313 ], [ 103.473247, 10.631265 ], [ 103.476248, 10.629416 ], [ 103.481402, 10.629222 ], [ 103.484719, 10.631959 ], [ 103.488324, 10.630077 ], [ 103.48321, 10.622215 ], [ 103.480496, 10.622037 ], [ 103.472159, 10.627313 ] ] ], [ [ [ 103.411071, 10.607394 ], [ 103.412994, 10.609919 ], [ 103.420049, 10.61199 ], [ 103.433227, 10.609191 ], [ 103.429908, 10.606309 ], [ 103.411071, 10.607394 ] ] ], [ [ [ 103.065866, 10.974044 ], [ 103.07047, 10.981205 ], [ 103.075486, 10.982229 ], [ 103.080513, 10.981416 ], [ 103.077598, 10.977721 ], [ 103.069689, 10.975429 ], [ 103.068709, 10.971636 ], [ 103.065866, 10.974044 ] ] ], [ [ [ 103.296159, 10.628581 ], [ 103.298901, 10.635087 ], [ 103.303475, 10.636456 ], [ 103.305421, 10.631994 ], [ 103.303635, 10.628855 ], [ 103.299955, 10.626029 ], [ 103.296159, 10.628581 ] ] ], [ [ [ 102.951521, 10.371131 ], [ 102.953786, 10.374521 ], [ 102.95862, 10.377531 ], [ 102.966109, 10.374959 ], [ 102.962504, 10.372273 ], [ 102.957365, 10.373115 ], [ 102.956231, 10.36862 ], [ 102.951521, 10.371131 ] ] ], [ [ [ 103.192311, 10.801229 ], [ 103.19259, 10.804157 ], [ 103.198719, 10.806681 ], [ 103.203017, 10.805609 ], [ 103.203844, 10.803418 ], [ 103.193207, 10.800063 ], [ 103.192311, 10.801229 ] ] ], [ [ [ 103.046719, 10.954963 ], [ 103.051814, 10.961327 ], [ 103.056876, 10.960822 ], [ 103.053559, 10.95375 ], [ 103.046719, 10.954963 ] ] ], [ [ [ 103.540603, 10.52378 ], [ 103.542943, 10.528938 ], [ 103.54742, 10.532195 ], [ 103.547491, 10.525333 ], [ 103.542136, 10.521243 ], [ 103.540603, 10.52378 ] ] ], [ [ [ 104.326124, 10.396574 ], [ 104.331484, 10.399077 ], [ 104.330991, 10.401626 ], [ 104.334149, 10.40248 ], [ 104.332557, 10.395894 ], [ 104.330754, 10.393744 ], [ 104.326676, 10.393929 ], [ 104.326124, 10.396574 ] ] ], [ [ [ 103.056573, 10.909483 ], [ 103.061544, 10.910252 ], [ 103.063551, 10.907806 ], [ 103.059175, 10.904909 ], [ 103.056573, 10.909483 ] ] ], [ [ [ 104.341342, 10.425046 ], [ 104.345572, 10.427322 ], [ 104.346079, 10.422493 ], [ 104.343012, 10.420325 ], [ 104.341342, 10.425046 ] ] ], [ [ [ 104.330805, 10.450067 ], [ 104.333297, 10.455821 ], [ 104.33602, 10.453348 ], [ 104.333739, 10.448491 ], [ 104.330805, 10.450067 ] ] ], [ [ [ 103.618939, 10.482469 ], [ 103.621359, 10.487253 ], [ 103.624078, 10.481933 ], [ 103.621492, 10.479519 ], [ 103.618939, 10.482469 ] ] ], [ [ [ 103.545885, 10.495643 ], [ 103.550534, 10.498398 ], [ 103.552736, 10.494749 ], [ 103.548141, 10.49292 ], [ 103.545885, 10.495643 ] ] ], [ [ [ 103.562544, 10.510798 ], [ 103.565537, 10.512751 ], [ 103.567849, 10.508882 ], [ 103.564612, 10.505607 ], [ 103.562544, 10.510798 ] ] ], [ [ [ 103.537053, 10.555673 ], [ 103.540679, 10.557771 ], [ 103.54492, 10.55681 ], [ 103.541869, 10.553941 ], [ 103.537452, 10.553832 ], [ 103.537053, 10.555673 ] ] ], [ [ [ 103.170337, 10.834891 ], [ 103.170381, 10.836921 ], [ 103.174347, 10.841115 ], [ 103.17629, 10.840535 ], [ 103.174238, 10.835675 ], [ 103.170337, 10.834891 ] ] ], [ [ [ 103.048713, 10.911692 ], [ 103.050284, 10.917223 ], [ 103.05325, 10.917091 ], [ 103.053525, 10.912348 ], [ 103.048713, 10.911692 ] ] ], [ [ [ 103.085348, 11.052403 ], [ 103.090471, 11.0544 ], [ 103.093139, 11.051743 ], [ 103.08857, 11.049478 ], [ 103.085348, 11.052403 ] ] ], [ [ [ 103.069494, 11.061202 ], [ 103.070975, 11.064177 ], [ 103.075001, 11.060496 ], [ 103.070334, 11.057069 ], [ 103.069494, 11.061202 ] ] ], [ [ [ 103.078269, 11.060758 ], [ 103.082051, 11.064546 ], [ 103.084955, 11.065114 ], [ 103.083234, 11.059395 ], [ 103.078269, 11.060758 ] ] ], [ [ [ 103.003853, 11.434109 ], [ 103.004389, 11.437329 ], [ 103.009706, 11.434754 ], [ 103.006883, 11.430847 ], [ 103.003853, 11.434109 ] ] ] ] } }
]
}
