{
"type": "FeatureCollection",
"name": "Cameroon",
"crs": { "type": "name", "properties": { "name": "urn:ogc:def:crs:OGC:1.3:CRS84" } },
"features": [
{ "type": "Feature", "properties": { "id": "CM", "CNTR_ID": "CM", "CNTR_NAME": "Cameroon-Cameroun", "NAME_ENGL": "Cameroon", "ISO3_CODE": "CMR", "FID": "CM" }, "geometry": { "type": "MultiPolygon", "coordinates": [ [ [ [ 16.19199, 2.22051 ], [ 16.189423, 2.210641 ], [ 16.181613, 2.200138 ], [ 16.162415, 2.191252 ], [ 16.147485, 2.175685 ], [ 16.141288, 2.176722 ], [ 16.13504, 2.192678 ], [ 16.128583, 2.196954 ], [ 16.09651, 2.198004 ], [ 16.087456, 2.192609 ], [ 16.084983, 2.185518 ], [ 16.080454, 2.124829 ], [ 16.089231, 2.102177 ], [ 16.088834, 2.086155 ], [ 16.083303, 2.076542 ], [ 16.07051, 2.06917 ], [ 16.066221, 2.062755 ], [ 16.06965, 2.05629 ], [ 16.082869, 2.047604 ], [ 16.084303, 2.040463 ], [ 16.077711, 2.025903 ], [ 16.063236, 2.012598 ], [ 16.056485, 2.0021 ], [ 16.057868, 1.98046 ], [ 16.055889, 1.971388 ], [ 16.079954, 1.944982 ], [ 16.090167, 1.8917 ], [ 16.09744, 1.887069 ], [ 16.109524, 1.889083 ], [ 16.114363, 1.886087 ], [ 16.112928, 1.869137 ], [ 16.115874, 1.854503 ], [ 16.127503, 1.81615 ], [ 16.140112, 1.797435 ], [ 16.146606, 1.763504 ], [ 16.140014, 1.742848 ], [ 16.14016, 1.726193 ], [ 16.152417, 1.703493 ], [ 16.148664, 1.689136 ], [ 16.144114, 1.682965 ], [ 16.135951, 1.68537 ], [ 16.126508, 1.694278 ], [ 16.120977, 1.695776 ], [ 16.08605, 1.686281 ], [ 16.065745, 1.655055 ], [ 16.059524, 1.652885 ], [ 16.031619, 1.658451 ], [ 16.023261, 1.677723 ], [ 16.026336, 1.702824 ], [ 16.018405, 1.717975 ], [ 16.034114, 1.750611 ], [ 16.03162, 1.762556 ], [ 16.023491, 1.765362 ], [ 15.995733, 1.761135 ], [ 15.959882, 1.762355 ], [ 15.935915, 1.773081 ], [ 15.918353, 1.775146 ], [ 15.908746, 1.789352 ], [ 15.898185, 1.789176 ], [ 15.887071, 1.780499 ], [ 15.881921, 1.780298 ], [ 15.882364, 1.79132 ], [ 15.870213, 1.822808 ], [ 15.847565, 1.827762 ], [ 15.833323, 1.842588 ], [ 15.806898, 1.853418 ], [ 15.795589, 1.864858 ], [ 15.788388, 1.881723 ], [ 15.769143, 1.904378 ], [ 15.759569, 1.910148 ], [ 15.751424, 1.915058 ], [ 15.743252, 1.916035 ], [ 15.730945, 1.912868 ], [ 15.721079, 1.920728 ], [ 15.68899, 1.932227 ], [ 15.670328, 1.92977 ], [ 15.652668, 1.932838 ], [ 15.610166, 1.94299 ], [ 15.591771, 1.952526 ], [ 15.566198, 1.947155 ], [ 15.545451, 1.960512 ], [ 15.539079, 1.960084 ], [ 15.526909, 1.953678 ], [ 15.49048, 1.975365 ], [ 15.477618, 1.968956 ], [ 15.432116, 1.956256 ], [ 15.408869, 1.939046 ], [ 15.392649, 1.935499 ], [ 15.345635, 1.911735 ], [ 15.335579, 1.926404 ], [ 15.334746, 1.93856 ], [ 15.319263, 1.931004 ], [ 15.307092, 1.935125 ], [ 15.306008, 1.96316 ], [ 15.290764, 1.982745 ], [ 15.281491, 1.990234 ], [ 15.269354, 1.994622 ], [ 15.260041, 2.005741 ], [ 15.244697, 2.009533 ], [ 15.250828, 2.02046 ], [ 15.250434, 2.026059 ], [ 15.212912, 2.035637 ], [ 15.196033, 2.033402 ], [ 15.186594, 2.024392 ], [ 15.176907, 2.015146 ], [ 15.171901, 2.019378 ], [ 15.162248, 2.038923 ], [ 15.152381, 2.038218 ], [ 15.145304, 2.012283 ], [ 15.137581, 2.007778 ], [ 15.121809, 2.010535 ], [ 15.115072, 1.999533 ], [ 15.111932, 1.985709 ], [ 15.105291, 1.978332 ], [ 15.076255, 1.980555 ], [ 15.07533, 1.99632 ], [ 15.068566, 2.000823 ], [ 15.050797, 1.979754 ], [ 15.043207, 1.977545 ], [ 15.035702, 1.984799 ], [ 15.032358, 2.000502 ], [ 15.009037, 2.013346 ], [ 14.987267, 2.032103 ], [ 14.980474, 2.026535 ], [ 14.973956, 2.009958 ], [ 14.968305, 2.004944 ], [ 14.954678, 2.000644 ], [ 14.922887, 1.998034 ], [ 14.911834, 2.003683 ], [ 14.898578, 2.018257 ], [ 14.913478, 2.03666 ], [ 14.916713, 2.056169 ], [ 14.913484, 2.059992 ], [ 14.891103, 2.06628 ], [ 14.884005, 2.07145 ], [ 14.880877, 2.08153 ], [ 14.880902, 2.10179 ], [ 14.877412, 2.107471 ], [ 14.871346, 2.107657 ], [ 14.862966, 2.101721 ], [ 14.86871, 2.085708 ], [ 14.866387, 2.080034 ], [ 14.86163, 2.080696 ], [ 14.850794, 2.082204 ], [ 14.842776, 2.080318 ], [ 14.828437, 2.0634 ], [ 14.815282, 2.058053 ], [ 14.809782, 2.059066 ], [ 14.795934, 2.071421 ], [ 14.78069, 2.061992 ], [ 14.775709, 2.061875 ], [ 14.770768, 2.067676 ], [ 14.776896, 2.083473 ], [ 14.773652, 2.093695 ], [ 14.762384, 2.094614 ], [ 14.750252, 2.087438 ], [ 14.744844, 2.088013 ], [ 14.743812, 2.094112 ], [ 14.75456, 2.095642 ], [ 14.755734, 2.102179 ], [ 14.729676, 2.121628 ], [ 14.723505, 2.119262 ], [ 14.726722, 2.106509 ], [ 14.723961, 2.104096 ], [ 14.703293, 2.1097 ], [ 14.698027, 2.120497 ], [ 14.687413, 2.129769 ], [ 14.651653, 2.129244 ], [ 14.646444, 2.137472 ], [ 14.648781, 2.146301 ], [ 14.647263, 2.15107 ], [ 14.630326, 2.157404 ], [ 14.610473, 2.192594 ], [ 14.602151, 2.19675 ], [ 14.591794, 2.201922 ], [ 14.584682, 2.210415 ], [ 14.571461, 2.203247 ], [ 14.556546, 2.21026 ], [ 14.545635, 2.197441 ], [ 14.525175, 2.188089 ], [ 14.485224, 2.174402 ], [ 14.431653, 2.156048 ], [ 14.42556, 2.157276 ], [ 14.410882, 2.174383 ], [ 14.395745, 2.182661 ], [ 14.364084, 2.184941 ], [ 14.348115, 2.183386 ], [ 14.309924, 2.190227 ], [ 14.270195, 2.184907 ], [ 14.256097, 2.172957 ], [ 14.245671, 2.17169 ], [ 14.110665, 2.171606 ], [ 14.027834, 2.171555 ], [ 14.024968, 2.171352 ], [ 13.998621, 2.169481 ], [ 13.866167, 2.172468 ], [ 13.862477, 2.172551 ], [ 13.679916, 2.170926 ], [ 13.495601, 2.171274 ], [ 13.407647, 2.168496 ], [ 13.29897, 2.17056 ], [ 13.298894, 2.181797 ], [ 13.291026, 2.19054 ], [ 13.303592, 2.204328 ], [ 13.30539, 2.210879 ], [ 13.300104, 2.226049 ], [ 13.291936, 2.234337 ], [ 13.286321, 2.248461 ], [ 13.275377, 2.2462 ], [ 13.265693, 2.25339 ], [ 13.262196, 2.262847 ], [ 13.250294, 2.272227 ], [ 13.224148, 2.260178 ], [ 13.20943, 2.260066 ], [ 13.204357, 2.266262 ], [ 13.196391, 2.265854 ], [ 13.190723, 2.27066 ], [ 13.19014, 2.273952 ], [ 13.195932, 2.27619 ], [ 13.190996, 2.280949 ], [ 13.179527, 2.278589 ], [ 13.160498, 2.282956 ], [ 13.123247, 2.271939 ], [ 13.116017, 2.267412 ], [ 13.114888, 2.253656 ], [ 13.102641, 2.251601 ], [ 13.088922, 2.23964 ], [ 13.076407, 2.248425 ], [ 13.066712, 2.246134 ], [ 13.059102, 2.239912 ], [ 13.043847, 2.237378 ], [ 13.038681, 2.23928 ], [ 13.035273, 2.245925 ], [ 13.027834, 2.244935 ], [ 13.018332, 2.248982 ], [ 12.992627, 2.24844 ], [ 12.977551, 2.243986 ], [ 12.972037, 2.242356 ], [ 12.954111, 2.242742 ], [ 12.946036, 2.244606 ], [ 12.934909, 2.252362 ], [ 12.926075, 2.252867 ], [ 12.918119, 2.25017 ], [ 12.91708, 2.242167 ], [ 12.897666, 2.236386 ], [ 12.880799, 2.243303 ], [ 12.873465, 2.23077 ], [ 12.863888, 2.229163 ], [ 12.853234, 2.235808 ], [ 12.830028, 2.240704 ], [ 12.82573, 2.252237 ], [ 12.820426, 2.255977 ], [ 12.812096, 2.248199 ], [ 12.79657, 2.24759 ], [ 12.791676, 2.238704 ], [ 12.778303, 2.230979 ], [ 12.745699, 2.223813 ], [ 12.732474, 2.228805 ], [ 12.711081, 2.229333 ], [ 12.687017, 2.242288 ], [ 12.675734, 2.242897 ], [ 12.658256, 2.239208 ], [ 12.628202, 2.24431 ], [ 12.610653, 2.25426 ], [ 12.590016, 2.255619 ], [ 12.583903, 2.265278 ], [ 12.577563, 2.267902 ], [ 12.539132, 2.255456 ], [ 12.526625, 2.254733 ], [ 12.494877, 2.260353 ], [ 12.473671, 2.254275 ], [ 12.453393, 2.252809 ], [ 12.421273, 2.25641 ], [ 12.327563, 2.276362 ], [ 12.301254, 2.276961 ], [ 12.29163, 2.274888 ], [ 12.279437, 2.258167 ], [ 12.260516, 2.257036 ], [ 12.243117, 2.250752 ], [ 12.225539, 2.259168 ], [ 12.21798, 2.271113 ], [ 12.209844, 2.277732 ], [ 12.171612, 2.280995 ], [ 12.152296, 2.273316 ], [ 12.125109, 2.289656 ], [ 12.109466, 2.280655 ], [ 12.100722, 2.279164 ], [ 12.055986, 2.286854 ], [ 12.040814, 2.282433 ], [ 12.016818, 2.289458 ], [ 12.008969, 2.284085 ], [ 11.994174, 2.284877 ], [ 11.979942, 2.290011 ], [ 11.963221, 2.285866 ], [ 11.947339, 2.287618 ], [ 11.931987, 2.283193 ], [ 11.919621, 2.287685 ], [ 11.908872, 2.281293 ], [ 11.89653, 2.284784 ], [ 11.885117, 2.28076 ], [ 11.869932, 2.282804 ], [ 11.858726, 2.273823 ], [ 11.850676, 2.279994 ], [ 11.8387, 2.278666 ], [ 11.826673, 2.284149 ], [ 11.818733, 2.278428 ], [ 11.793974, 2.28142 ], [ 11.780224, 2.274033 ], [ 11.75378, 2.274492 ], [ 11.746168, 2.2859 ], [ 11.743672, 2.296151 ], [ 11.730803, 2.296386 ], [ 11.720444, 2.304119 ], [ 11.709398, 2.308321 ], [ 11.696327, 2.322282 ], [ 11.673018, 2.317831 ], [ 11.662816, 2.320861 ], [ 11.644082, 2.307129 ], [ 11.626545, 2.307272 ], [ 11.611096, 2.30012 ], [ 11.589713, 2.310441 ], [ 11.578525, 2.311909 ], [ 11.558061, 2.309353 ], [ 11.545383, 2.29898 ], [ 11.505383, 2.303349 ], [ 11.487277, 2.295821 ], [ 11.473623, 2.303619 ], [ 11.459369, 2.304492 ], [ 11.452598, 2.303068 ], [ 11.45595, 2.296498 ], [ 11.450661, 2.293193 ], [ 11.435207, 2.300969 ], [ 11.423162, 2.296637 ], [ 11.39178, 2.302799 ], [ 11.376398, 2.298583 ], [ 11.365808, 2.287953 ], [ 11.372982, 2.282578 ], [ 11.376792, 2.274807 ], [ 11.373376, 2.267476 ], [ 11.376724, 2.25971 ], [ 11.370695, 2.251004 ], [ 11.361316, 2.244293 ], [ 11.350952, 2.226442 ], [ 11.355621, 2.221103 ], [ 11.353779, 2.205039 ], [ 11.356208, 2.198871 ], [ 11.350856, 2.185343 ], [ 11.354871, 2.175357 ], [ 11.345958, 2.17471 ], [ 11.33461, 2.173887 ], [ 11.248165, 2.173879 ], [ 11.228577, 2.173878 ], [ 11.189169, 2.186807 ], [ 11.182203, 2.185647 ], [ 11.162805, 2.174803 ], [ 11.041609, 2.174534 ], [ 10.793152, 2.173982 ], [ 10.669564, 2.174309 ], [ 10.640879, 2.174146 ], [ 10.635878, 2.17276 ], [ 10.598766, 2.173917 ], [ 10.52122, 2.17279 ], [ 10.390006, 2.17295 ], [ 10.373272, 2.174004 ], [ 10.330355, 2.172607 ], [ 10.303579, 2.174279 ], [ 10.288742, 2.172812 ], [ 10.197952, 2.172956 ], [ 10.193803, 2.17256 ], [ 10.172597, 2.158917 ], [ 10.164395, 2.166356 ], [ 10.162015, 2.172985 ], [ 10.159192, 2.175464 ], [ 10.15249, 2.174603 ], [ 10.147967, 2.17544 ], [ 10.142422, 2.174228 ], [ 10.130106, 2.162701 ], [ 10.124996, 2.160121 ], [ 10.119928, 2.16148 ], [ 10.113781, 2.165518 ], [ 10.108782, 2.165975 ], [ 10.101264, 2.163632 ], [ 10.096943, 2.163564 ], [ 10.062648, 2.165558 ], [ 10.05277, 2.178263 ], [ 10.045296, 2.165616 ], [ 10.038963, 2.162729 ], [ 9.998572, 2.176916 ], [ 9.983732, 2.177185 ], [ 9.963937, 2.188229 ], [ 9.944071, 2.192397 ], [ 9.925547, 2.200314 ], [ 9.913183, 2.191709 ], [ 9.907381, 2.192583 ], [ 9.904156, 2.197206 ], [ 9.902555, 2.211343 ], [ 9.898327, 2.217678 ], [ 9.888552, 2.221973 ], [ 9.881673, 2.231846 ], [ 9.847193, 2.248747 ], [ 9.831549, 2.290712 ], [ 9.834071, 2.313096 ], [ 9.83279, 2.329146 ], [ 9.82147, 2.347847 ], [ 9.82407, 2.378194 ], [ 9.820521, 2.416316 ], [ 9.826348, 2.443537 ], [ 9.819255, 2.504079 ], [ 9.824317, 2.525506 ], [ 9.825538, 2.569724 ], [ 9.838263, 2.60958 ], [ 9.848555, 2.673942 ], [ 9.860037, 2.700864 ], [ 9.862061, 2.719137 ], [ 9.875363, 2.740256 ], [ 9.879382, 2.769814 ], [ 9.891803, 2.800176 ], [ 9.884824, 2.847906 ], [ 9.891031, 2.877114 ], [ 9.898828, 2.895125 ], [ 9.899791, 2.923114 ], [ 9.915554, 2.975087 ], [ 9.92566, 2.99129 ], [ 9.947433, 3.009023 ], [ 9.95476, 3.019105 ], [ 9.965674, 3.056381 ], [ 9.966778, 3.075395 ], [ 9.972189, 3.090875 ], [ 9.921758, 3.219821 ], [ 9.896816, 3.266795 ], [ 9.897646, 3.291695 ], [ 9.877479, 3.324873 ], [ 9.766741, 3.446531 ], [ 9.712924, 3.494957 ], [ 9.648539, 3.540711 ], [ 9.633686, 3.559125 ], [ 9.642158, 3.602828 ], [ 9.649086, 3.622502 ], [ 9.649006, 3.641457 ], [ 9.62061, 3.700733 ], [ 9.55413, 3.81138 ], [ 9.558644, 3.811076 ], [ 9.577448, 3.795426 ], [ 9.593313, 3.768922 ], [ 9.604744, 3.762698 ], [ 9.609416, 3.763369 ], [ 9.610552, 3.771395 ], [ 9.596231, 3.806536 ], [ 9.601247, 3.836814 ], [ 9.61384, 3.861029 ], [ 9.630614, 3.864967 ], [ 9.662689, 3.841551 ], [ 9.674639, 3.838332 ], [ 9.687211, 3.841542 ], [ 9.710256, 3.860195 ], [ 9.710124, 3.867932 ], [ 9.700356, 3.878217 ], [ 9.68026, 3.910464 ], [ 9.682728, 3.914961 ], [ 9.697624, 3.92102 ], [ 9.696751, 3.935715 ], [ 9.63924, 3.939881 ], [ 9.626574, 3.94765 ], [ 9.625589, 3.964944 ], [ 9.632954, 3.970929 ], [ 9.638605, 3.988434 ], [ 9.651558, 4.010354 ], [ 9.643228, 4.030526 ], [ 9.628175, 4.027704 ], [ 9.621845, 4.018739 ], [ 9.614315, 4.014087 ], [ 9.593216, 4.00743 ], [ 9.576588, 4.007115 ], [ 9.540628, 4.019407 ], [ 9.528405, 4.028951 ], [ 9.489276, 4.073317 ], [ 9.470208, 4.076298 ], [ 9.454169, 4.059548 ], [ 9.449315, 4.033811 ], [ 9.441095, 4.012265 ], [ 9.443816, 3.998282 ], [ 9.457946, 3.969058 ], [ 9.445021, 3.926718 ], [ 9.461484, 3.919313 ], [ 9.47036, 3.909875 ], [ 9.436151, 3.891442 ], [ 9.401166, 3.888093 ], [ 9.345609, 3.911476 ], [ 9.315175, 3.934658 ], [ 9.30199, 3.949318 ], [ 9.287154, 3.972692 ], [ 9.271619, 3.973327 ], [ 9.244912, 3.946586 ], [ 9.23677, 3.949012 ], [ 9.225414, 3.960768 ], [ 9.211984, 3.957456 ], [ 9.207875, 3.965213 ], [ 9.208224, 3.998362 ], [ 9.201824, 4.007926 ], [ 9.189808, 4.010914 ], [ 9.156376, 4.008778 ], [ 9.139576, 4.012563 ], [ 9.125214, 4.00921 ], [ 9.116042, 4.011448 ], [ 9.082496, 4.0373 ], [ 9.015725, 4.07073 ], [ 8.983838, 4.09496 ], [ 8.980188, 4.10436 ], [ 8.986535, 4.121591 ], [ 8.988844, 4.154917 ], [ 8.99537, 4.178469 ], [ 8.993116, 4.19611 ], [ 8.975766, 4.229925 ], [ 8.937714, 4.2588 ], [ 8.919128, 4.284359 ], [ 8.916497, 4.298851 ], [ 8.921171, 4.322786 ], [ 8.918362, 4.340421 ], [ 8.911342, 4.353499 ], [ 8.896388, 4.368819 ], [ 8.886806, 4.393785 ], [ 8.887742, 4.437273 ], [ 8.900144, 4.453828 ], [ 8.896055, 4.465173 ], [ 8.896725, 4.475116 ], [ 8.937398, 4.544375 ], [ 8.933088, 4.54608 ], [ 8.925773, 4.541211 ], [ 8.901231, 4.511447 ], [ 8.885534, 4.516538 ], [ 8.883158, 4.524405 ], [ 8.884327, 4.548214 ], [ 8.881207, 4.580706 ], [ 8.86032, 4.597149 ], [ 8.841187, 4.623738 ], [ 8.828687, 4.628474 ], [ 8.823852, 4.634869 ], [ 8.828828, 4.679159 ], [ 8.838313, 4.712423 ], [ 8.838194, 4.729071 ], [ 8.811308, 4.768067 ], [ 8.788032, 4.785247 ], [ 8.811963, 4.761991 ], [ 8.829705, 4.731683 ], [ 8.830553, 4.716373 ], [ 8.8173, 4.6833 ], [ 8.798171, 4.663851 ], [ 8.766238, 4.650358 ], [ 8.749871, 4.651317 ], [ 8.739919, 4.675351 ], [ 8.753602, 4.710214 ], [ 8.753032, 4.715797 ], [ 8.739688, 4.699668 ], [ 8.733351, 4.677369 ], [ 8.739067, 4.654437 ], [ 8.757498, 4.634253 ], [ 8.769309, 4.603661 ], [ 8.792806, 4.560017 ], [ 8.794791, 4.550818 ], [ 8.791819, 4.544154 ], [ 8.778696, 4.537422 ], [ 8.765819, 4.538804 ], [ 8.744161, 4.556492 ], [ 8.719145, 4.570516 ], [ 8.709736, 4.581245 ], [ 8.685181, 4.6476 ], [ 8.707044, 4.675969 ], [ 8.709019, 4.696392 ], [ 8.705085, 4.700173 ], [ 8.703286, 4.685989 ], [ 8.696935, 4.674479 ], [ 8.677281, 4.669792 ], [ 8.665004, 4.673765 ], [ 8.652683, 4.686574 ], [ 8.646893, 4.705293 ], [ 8.648675, 4.716827 ], [ 8.65895, 4.725179 ], [ 8.657761, 4.72838 ], [ 8.639665, 4.720886 ], [ 8.635489, 4.70734 ], [ 8.63492, 4.693082 ], [ 8.655215, 4.64938 ], [ 8.667026, 4.587847 ], [ 8.677697, 4.563964 ], [ 8.672274, 4.538185 ], [ 8.688524, 4.539759 ], [ 8.697472, 4.537072 ], [ 8.71386, 4.521526 ], [ 8.718606, 4.511318 ], [ 8.71772, 4.505288 ], [ 8.687721, 4.48535 ], [ 8.662088, 4.483156 ], [ 8.570634, 4.485733 ], [ 8.565383, 4.49279 ], [ 8.567348, 4.499137 ], [ 8.586845, 4.510916 ], [ 8.572143, 4.536716 ], [ 8.558797, 4.551687 ], [ 8.557875, 4.547167 ], [ 8.567921, 4.529752 ], [ 8.564221, 4.517944 ], [ 8.55068, 4.504532 ], [ 8.537626, 4.497547 ], [ 8.525794, 4.49794 ], [ 8.510573, 4.508137 ], [ 8.502134, 4.53792 ], [ 8.502864, 4.550635 ], [ 8.517881, 4.559624 ], [ 8.532556, 4.58267 ], [ 8.575285, 4.614333 ], [ 8.582809, 4.625446 ], [ 8.58142, 4.635875 ], [ 8.573061, 4.649022 ], [ 8.571779, 4.646209 ], [ 8.578383, 4.631126 ], [ 8.576807, 4.624635 ], [ 8.540003, 4.605071 ], [ 8.529659, 4.596286 ], [ 8.518197, 4.591889 ], [ 8.506316, 4.60071 ], [ 8.501579, 4.60942 ], [ 8.514676, 4.656248 ], [ 8.530197, 4.66497 ], [ 8.528476, 4.671228 ], [ 8.531534, 4.681758 ], [ 8.538673, 4.683383 ], [ 8.545283, 4.675009 ], [ 8.558989, 4.680022 ], [ 8.563584, 4.688657 ], [ 8.579038, 4.701915 ], [ 8.58048, 4.721228 ], [ 8.574674, 4.718785 ], [ 8.575858, 4.706207 ], [ 8.57289, 4.702062 ], [ 8.562028, 4.702929 ], [ 8.55439, 4.713249 ], [ 8.55333, 4.72775 ], [ 8.562984, 4.740324 ], [ 8.551081, 4.756864 ], [ 8.549331, 4.766448 ], [ 8.570035, 4.796807 ], [ 8.600811, 4.802511 ], [ 8.616779, 4.817762 ], [ 8.627814, 4.824485 ], [ 8.62956, 4.833479 ], [ 8.624687, 4.847413 ], [ 8.605068, 4.86891 ], [ 8.603908, 4.877585 ], [ 8.607006, 4.887748 ], [ 8.622021, 4.906134 ], [ 8.641757, 4.909599 ], [ 8.650406, 4.915518 ], [ 8.652435, 4.923925 ], [ 8.64923, 4.93585 ], [ 8.650436, 4.942685 ], [ 8.665106, 4.949976 ], [ 8.66867, 4.964144 ], [ 8.678383, 4.972785 ], [ 8.68319, 4.981397 ], [ 8.695572, 4.987233 ], [ 8.694206, 4.993968 ], [ 8.687724, 5.00231 ], [ 8.707454, 5.022276 ], [ 8.721219, 5.041375 ], [ 8.721304, 5.057023 ], [ 8.727721, 5.072966 ], [ 8.741862, 5.086547 ], [ 8.75051, 5.101284 ], [ 8.784961, 5.117152 ], [ 8.818665, 5.181893 ], [ 8.813549, 5.239177 ], [ 8.816116, 5.279638 ], [ 8.832202, 5.331274 ], [ 8.839141, 5.395284 ], [ 8.835699, 5.433075 ], [ 8.84487, 5.456297 ], [ 8.865709, 5.474848 ], [ 8.873228, 5.49354 ], [ 8.893715, 5.519145 ], [ 8.91791, 5.56427 ], [ 8.913356, 5.592499 ], [ 8.903378, 5.617985 ], [ 8.853183, 5.670764 ], [ 8.840941, 5.680161 ], [ 8.834921, 5.693624 ], [ 8.834515, 5.703317 ], [ 8.842508, 5.701404 ], [ 8.851508, 5.706675 ], [ 8.863218, 5.730202 ], [ 8.869697, 5.73549 ], [ 8.873737, 5.747067 ], [ 8.869763, 5.754298 ], [ 8.870053, 5.760594 ], [ 8.881475, 5.771554 ], [ 8.883047, 5.776395 ], [ 8.880244, 5.79729 ], [ 8.874179, 5.801519 ], [ 8.864029, 5.799825 ], [ 8.853175, 5.804197 ], [ 8.84438, 5.825085 ], [ 8.855924, 5.831137 ], [ 8.864769, 5.847007 ], [ 8.877843, 5.855354 ], [ 8.902982, 5.864196 ], [ 8.915212, 5.901867 ], [ 8.927395, 5.905503 ], [ 8.945547, 5.915825 ], [ 9.148766, 6.08911 ], [ 9.172509, 6.130835 ], [ 9.264225, 6.185681 ], [ 9.307505, 6.261781 ], [ 9.333303, 6.292157 ], [ 9.337433, 6.309453 ], [ 9.336959, 6.320501 ], [ 9.343227, 6.331768 ], [ 9.346732, 6.350325 ], [ 9.357334, 6.349673 ], [ 9.414773, 6.32151 ], [ 9.432087, 6.319153 ], [ 9.444275, 6.362356 ], [ 9.445521, 6.378861 ], [ 9.451073, 6.389218 ], [ 9.458249, 6.418093 ], [ 9.459568, 6.436378 ], [ 9.465793, 6.452049 ], [ 9.525754, 6.446164 ], [ 9.568598, 6.465827 ], [ 9.583815, 6.476927 ], [ 9.585459, 6.503287 ], [ 9.598863, 6.527543 ], [ 9.631196, 6.520183 ], [ 9.650946, 6.523145 ], [ 9.669002, 6.51123 ], [ 9.697286, 6.510333 ], [ 9.70377, 6.512547 ], [ 9.725527, 6.59007 ], [ 9.751678, 6.655261 ], [ 9.752569, 6.675083 ], [ 9.764497, 6.682975 ], [ 9.763972, 6.689747 ], [ 9.758544, 6.699111 ], [ 9.767497, 6.746352 ], [ 9.766136, 6.760331 ], [ 9.778192, 6.789783 ], [ 9.795946, 6.785389 ], [ 9.807152, 6.787898 ], [ 9.81919, 6.78195 ], [ 9.869381, 6.77546 ], [ 9.965168, 6.871068 ], [ 9.993542, 6.896606 ], [ 10.01708, 6.906293 ], [ 10.094438, 6.985004 ], [ 10.150677, 7.035714 ], [ 10.159674, 7.034888 ], [ 10.160946, 7.021666 ], [ 10.173298, 7.012904 ], [ 10.167935, 7.000165 ], [ 10.170556, 6.991192 ], [ 10.17744, 6.983384 ], [ 10.179812, 6.969414 ], [ 10.175158, 6.939981 ], [ 10.217913, 6.886867 ], [ 10.490125, 6.872852 ], [ 10.495849, 6.912164 ], [ 10.526803, 6.925145 ], [ 10.540952, 6.942466 ], [ 10.54213, 6.961888 ], [ 10.551616, 6.980901 ], [ 10.559855, 7.030131 ], [ 10.557728, 7.050123 ], [ 10.559225, 7.078007 ], [ 10.567855, 7.151651 ], [ 10.57148, 7.158823 ], [ 10.575261, 7.159512 ], [ 10.596926, 7.140728 ], [ 10.604389, 7.105357 ], [ 10.59769, 7.078072 ], [ 10.613452, 7.059799 ], [ 10.629193, 7.049233 ], [ 10.650084, 7.044493 ], [ 10.660232, 7.049045 ], [ 10.672823, 7.042697 ], [ 10.683824, 7.018504 ], [ 10.700055, 7.011652 ], [ 10.718553, 6.991125 ], [ 10.737391, 6.987325 ], [ 10.748613, 6.969994 ], [ 10.762237, 6.958545 ], [ 10.767758, 6.958215 ], [ 10.779113, 6.965253 ], [ 10.795876, 6.961634 ], [ 10.813487, 6.948657 ], [ 10.837591, 6.935998 ], [ 10.839174, 6.922523 ], [ 10.816113, 6.856985 ], [ 10.818246, 6.841874 ], [ 10.825046, 6.828017 ], [ 10.837496, 6.81364 ], [ 10.874416, 6.796151 ], [ 10.893784, 6.765737 ], [ 10.897837, 6.764936 ], [ 10.903495, 6.769446 ], [ 10.90934, 6.765328 ], [ 10.913039, 6.754868 ], [ 10.912315, 6.727623 ], [ 10.920302, 6.706841 ], [ 10.943341, 6.690167 ], [ 10.953852, 6.693468 ], [ 10.987339, 6.687517 ], [ 11.006565, 6.695295 ], [ 11.026694, 6.71174 ], [ 11.048365, 6.709114 ], [ 11.057916, 6.712587 ], [ 11.067032, 6.707474 ], [ 11.091447, 6.680901 ], [ 11.095284, 6.671197 ], [ 11.092496, 6.616087 ], [ 11.096404, 6.589053 ], [ 11.09426, 6.571403 ], [ 11.095613, 6.532768 ], [ 11.102895, 6.51982 ], [ 11.116608, 6.517007 ], [ 11.135845, 6.526172 ], [ 11.143989, 6.508302 ], [ 11.151768, 6.504112 ], [ 11.167037, 6.501813 ], [ 11.194851, 6.51178 ], [ 11.196566, 6.529455 ], [ 11.201208, 6.53555 ], [ 11.220782, 6.536058 ], [ 11.248905, 6.52836 ], [ 11.275023, 6.536055 ], [ 11.301091, 6.523195 ], [ 11.317267, 6.507707 ], [ 11.351985, 6.501904 ], [ 11.355454, 6.505367 ], [ 11.352204, 6.514581 ], [ 11.358975, 6.524289 ], [ 11.376687, 6.524284 ], [ 11.393212, 6.529328 ], [ 11.423766, 6.532284 ], [ 11.420603, 6.540303 ], [ 11.43025, 6.546228 ], [ 11.432382, 6.551824 ], [ 11.426287, 6.577842 ], [ 11.416115, 6.590027 ], [ 11.415894, 6.597099 ], [ 11.42912, 6.601928 ], [ 11.447516, 6.601819 ], [ 11.461134, 6.608727 ], [ 11.484638, 6.599667 ], [ 11.493971, 6.601009 ], [ 11.499268, 6.605481 ], [ 11.515885, 6.623407 ], [ 11.524256, 6.641086 ], [ 11.532988, 6.648768 ], [ 11.535859, 6.65619 ], [ 11.551639, 6.66585 ], [ 11.548298, 6.703881 ], [ 11.554666, 6.71839 ], [ 11.582945, 6.73762 ], [ 11.58051, 6.753148 ], [ 11.571051, 6.7772 ], [ 11.575503, 6.788644 ], [ 11.586786, 6.7972 ], [ 11.589171, 6.802612 ], [ 11.579458, 6.818617 ], [ 11.577814, 6.841315 ], [ 11.569219, 6.849348 ], [ 11.558226, 6.852906 ], [ 11.555539, 6.860704 ], [ 11.563497, 6.873583 ], [ 11.565047, 6.885693 ], [ 11.575011, 6.900418 ], [ 11.583836, 6.906287 ], [ 11.59963, 6.908391 ], [ 11.605337, 6.913219 ], [ 11.6061, 6.933541 ], [ 11.621565, 6.951081 ], [ 11.621963, 6.972237 ], [ 11.626776, 6.982283 ], [ 11.635128, 6.988491 ], [ 11.656168, 6.990005 ], [ 11.660005, 6.996497 ], [ 11.676468, 7.006185 ], [ 11.686086, 7.020325 ], [ 11.710803, 7.033245 ], [ 11.720043, 7.045973 ], [ 11.737554, 7.049293 ], [ 11.773381, 7.044206 ], [ 11.780392, 7.050216 ], [ 11.788592, 7.067925 ], [ 11.802545, 7.079829 ], [ 11.809841, 7.079746 ], [ 11.826028, 7.070281 ], [ 11.831359, 7.073798 ], [ 11.83485, 7.083449 ], [ 11.84023, 7.086676 ], [ 11.864352, 7.078411 ], [ 11.870087, 7.091158 ], [ 11.878185, 7.100353 ], [ 11.878278, 7.111258 ], [ 11.867947, 7.126431 ], [ 11.862222, 7.140712 ], [ 11.863536, 7.157102 ], [ 11.859016, 7.170304 ], [ 11.863185, 7.183588 ], [ 11.857188, 7.197856 ], [ 11.858634, 7.214261 ], [ 11.87829, 7.245162 ], [ 11.850563, 7.253883 ], [ 11.844576, 7.269621 ], [ 11.85419, 7.279663 ], [ 11.862003, 7.299445 ], [ 11.87639, 7.315249 ], [ 11.925841, 7.393776 ], [ 11.925383, 7.423251 ], [ 11.929164, 7.436581 ], [ 11.917394, 7.452456 ], [ 11.917633, 7.469104 ], [ 11.932318, 7.484508 ], [ 11.956592, 7.490088 ], [ 11.975587, 7.503396 ], [ 11.999223, 7.511671 ], [ 12.021902, 7.52738 ], [ 12.011928, 7.544713 ], [ 12.008783, 7.562862 ], [ 12.006573, 7.581158 ], [ 12.010248, 7.593355 ], [ 12.006453, 7.606816 ], [ 12.010231, 7.628251 ], [ 12.005197, 7.63872 ], [ 12.005179, 7.651453 ], [ 11.998323, 7.666492 ], [ 11.999102, 7.674348 ], [ 12.014753, 7.680996 ], [ 12.019619, 7.69656 ], [ 12.035783, 7.719341 ], [ 12.039761, 7.729695 ], [ 12.052562, 7.739408 ], [ 12.061104, 7.757561 ], [ 12.06005, 7.772534 ], [ 12.070521, 7.793784 ], [ 12.154416, 7.893414 ], [ 12.173114, 7.92511 ], [ 12.190422, 7.940404 ], [ 12.192867, 7.956328 ], [ 12.204527, 7.967069 ], [ 12.209457, 7.976456 ], [ 12.209495, 7.988059 ], [ 12.199612, 8.012107 ], [ 12.199937, 8.055939 ], [ 12.194084, 8.077027 ], [ 12.192108, 8.101204 ], [ 12.201333, 8.125278 ], [ 12.224517, 8.145636 ], [ 12.233749, 8.165405 ], [ 12.241972, 8.365516 ], [ 12.25154, 8.410729 ], [ 12.259233, 8.426692 ], [ 12.261926, 8.441066 ], [ 12.270394, 8.446694 ], [ 12.288783, 8.445224 ], [ 12.300336, 8.440667 ], [ 12.313437, 8.428298 ], [ 12.337749, 8.429771 ], [ 12.367725, 8.424667 ], [ 12.404853, 8.471451 ], [ 12.396546, 8.498412 ], [ 12.412532, 8.537797 ], [ 12.41961, 8.542907 ], [ 12.438371, 8.546195 ], [ 12.455427, 8.554517 ], [ 12.453142, 8.565033 ], [ 12.446852, 8.575529 ], [ 12.444991, 8.60021 ], [ 12.437208, 8.611921 ], [ 12.436697, 8.618403 ], [ 12.46162, 8.622484 ], [ 12.490797, 8.638688 ], [ 12.503008, 8.640423 ], [ 12.522173, 8.6323 ], [ 12.5379, 8.629239 ], [ 12.554423, 8.611061 ], [ 12.59973, 8.594181 ], [ 12.613416, 8.602553 ], [ 12.603895, 8.612674 ], [ 12.612176, 8.636122 ], [ 12.628822, 8.638379 ], [ 12.637683, 8.646613 ], [ 12.651328, 8.650834 ], [ 12.677345, 8.650376 ], [ 12.696429, 8.667921 ], [ 12.708379, 8.701664 ], [ 12.711228, 8.734632 ], [ 12.715038, 8.751357 ], [ 12.719805, 8.759353 ], [ 12.751737, 8.762009 ], [ 12.772822, 8.748022 ], [ 12.779025, 8.746476 ], [ 12.78438, 8.749316 ], [ 12.791181, 8.768108 ], [ 12.790173, 8.78295 ], [ 12.80862, 8.799073 ], [ 12.811119, 8.816459 ], [ 12.816424, 8.830076 ], [ 12.803419, 8.85297 ], [ 12.80986, 8.868632 ], [ 12.808916, 8.886055 ], [ 12.8161, 8.899123 ], [ 12.807513, 8.907372 ], [ 12.806159, 8.914444 ], [ 12.815726, 8.929097 ], [ 12.824675, 8.971838 ], [ 12.864214, 9.017686 ], [ 12.885213, 9.06729 ], [ 12.890205, 9.101763 ], [ 12.897858, 9.116076 ], [ 12.89416, 9.137075 ], [ 12.887181, 9.149842 ], [ 12.890576, 9.18048 ], [ 12.898938, 9.197312 ], [ 12.901677, 9.218312 ], [ 12.91031, 9.232379 ], [ 12.915102, 9.248156 ], [ 12.912705, 9.265574 ], [ 12.916345, 9.280286 ], [ 12.911781, 9.294174 ], [ 12.911488, 9.308298 ], [ 12.922678, 9.332922 ], [ 12.922274, 9.340813 ], [ 12.915754, 9.348274 ], [ 12.904386, 9.353286 ], [ 12.893744, 9.352953 ], [ 12.881056, 9.347983 ], [ 12.87234, 9.348957 ], [ 12.864343, 9.354899 ], [ 12.856085, 9.368339 ], [ 12.867808, 9.370203 ], [ 12.871432, 9.3815 ], [ 12.88136, 9.393848 ], [ 12.901986, 9.399332 ], [ 12.938168, 9.417586 ], [ 12.949926, 9.43381 ], [ 12.963957, 9.444682 ], [ 12.977551, 9.464117 ], [ 13.002136, 9.479264 ], [ 13.012794, 9.490336 ], [ 13.032555, 9.503636 ], [ 13.050006, 9.506457 ], [ 13.065454, 9.513903 ], [ 13.083545, 9.512347 ], [ 13.095735, 9.523686 ], [ 13.123, 9.526386 ], [ 13.150948, 9.538394 ], [ 13.166181, 9.540569 ], [ 13.191512, 9.556726 ], [ 13.208255, 9.558202 ], [ 13.224706, 9.579718 ], [ 13.226667, 9.600564 ], [ 13.234456, 9.620195 ], [ 13.229653, 9.647373 ], [ 13.235968, 9.666153 ], [ 13.232296, 9.681088 ], [ 13.249784, 9.697835 ], [ 13.248326, 9.715147 ], [ 13.258286, 9.737726 ], [ 13.256885, 9.753385 ], [ 13.261064, 9.774732 ], [ 13.271424, 9.789824 ], [ 13.286827, 9.802803 ], [ 13.299855, 9.825724 ], [ 13.296372, 9.833364 ], [ 13.282445, 9.844473 ], [ 13.247069, 9.861009 ], [ 13.238478, 9.886742 ], [ 13.238135, 9.911054 ], [ 13.250328, 9.925407 ], [ 13.266366, 9.928734 ], [ 13.279141, 9.938209 ], [ 13.287097, 9.971197 ], [ 13.2775, 9.988248 ], [ 13.260175, 9.993983 ], [ 13.250819, 10.001002 ], [ 13.248334, 10.031456 ], [ 13.270238, 10.032825 ], [ 13.283867, 10.038118 ], [ 13.295832, 10.058376 ], [ 13.298427, 10.085167 ], [ 13.313238, 10.106158 ], [ 13.338364, 10.115279 ], [ 13.352433, 10.107786 ], [ 13.371103, 10.115682 ], [ 13.396449, 10.114638 ], [ 13.39889, 10.120763 ], [ 13.395478, 10.129471 ], [ 13.398495, 10.133327 ], [ 13.41761, 10.122406 ], [ 13.430083, 10.121221 ], [ 13.43615, 10.141262 ], [ 13.427198, 10.150717 ], [ 13.426607, 10.155551 ], [ 13.444643, 10.159728 ], [ 13.454376, 10.168044 ], [ 13.46198, 10.170056 ], [ 13.469926, 10.189704 ], [ 13.482506, 10.193439 ], [ 13.49879, 10.207962 ], [ 13.502421, 10.223267 ], [ 13.49893, 10.24744 ], [ 13.520215, 10.270559 ], [ 13.52113, 10.292096 ], [ 13.53472, 10.322814 ], [ 13.541233, 10.359339 ], [ 13.538925, 10.378534 ], [ 13.525327, 10.405935 ], [ 13.520155, 10.437316 ], [ 13.521315, 10.452466 ], [ 13.528119, 10.463383 ], [ 13.530184, 10.474719 ], [ 13.538635, 10.484095 ], [ 13.540999, 10.51147 ], [ 13.561969, 10.514599 ], [ 13.574221, 10.508886 ], [ 13.594196, 10.524083 ], [ 13.584086, 10.547447 ], [ 13.571678, 10.552933 ], [ 13.568036, 10.561874 ], [ 13.572006, 10.586438 ], [ 13.566024, 10.604195 ], [ 13.565932, 10.616989 ], [ 13.569105, 10.620285 ], [ 13.576036, 10.619059 ], [ 13.578623, 10.621184 ], [ 13.579353, 10.651521 ], [ 13.588347, 10.666257 ], [ 13.582252, 10.687119 ], [ 13.587555, 10.691882 ], [ 13.606156, 10.695505 ], [ 13.61483, 10.704861 ], [ 13.625471, 10.710812 ], [ 13.633259, 10.746739 ], [ 13.644521, 10.765539 ], [ 13.655235, 10.776776 ], [ 13.653284, 10.78367 ], [ 13.643347, 10.792105 ], [ 13.648716, 10.806499 ], [ 13.670785, 10.814785 ], [ 13.682507, 10.841998 ], [ 13.696035, 10.847151 ], [ 13.704314, 10.857598 ], [ 13.717976, 10.866289 ], [ 13.722652, 10.89971 ], [ 13.730506, 10.912 ], [ 13.732362, 10.920443 ], [ 13.715658, 10.941259 ], [ 13.712211, 10.954666 ], [ 13.715761, 10.963235 ], [ 13.729565, 10.98009 ], [ 13.733303, 11.000695 ], [ 13.741041, 11.005002 ], [ 13.778573, 11.00242 ], [ 13.793509, 11.007265 ], [ 13.79935, 11.026078 ], [ 13.810512, 11.044796 ], [ 13.815882, 11.063831 ], [ 13.825168, 11.067489 ], [ 13.840164, 11.084145 ], [ 13.853117, 11.092244 ], [ 13.867781, 11.12363 ], [ 13.878201, 11.133517 ], [ 13.877236, 11.142941 ], [ 13.880807, 11.151441 ], [ 13.887887, 11.157624 ], [ 13.900482, 11.162777 ], [ 13.907364, 11.169996 ], [ 13.915135, 11.190767 ], [ 13.934496, 11.207901 ], [ 13.948135, 11.240969 ], [ 13.978798, 11.263068 ], [ 13.988574, 11.288784 ], [ 13.983828, 11.303488 ], [ 13.985311, 11.307979 ], [ 13.992392, 11.309459 ], [ 14.00557, 11.305783 ], [ 14.024968, 11.292113 ], [ 14.032581, 11.293444 ], [ 14.068126, 11.279704 ], [ 14.086032, 11.279832 ], [ 14.110665, 11.265273 ], [ 14.125478, 11.256518 ], [ 14.146725, 11.250628 ], [ 14.155269, 11.245512 ], [ 14.163678, 11.245853 ], [ 14.177998, 11.240315 ], [ 14.189612, 11.242359 ], [ 14.204501, 11.256201 ], [ 14.227649, 11.263952 ], [ 14.236688, 11.270617 ], [ 14.253005, 11.298662 ], [ 14.319806, 11.327367 ], [ 14.369732, 11.366671 ], [ 14.376654, 11.380094 ], [ 14.379837, 11.419209 ], [ 14.385919, 11.426742 ], [ 14.409421, 11.433288 ], [ 14.433394, 11.443974 ], [ 14.459921, 11.463694 ], [ 14.479494, 11.464691 ], [ 14.507667, 11.474395 ], [ 14.514089, 11.474983 ], [ 14.567264, 11.479856 ], [ 14.572547, 11.481523 ], [ 14.58662, 11.485964 ], [ 14.598163, 11.493194 ], [ 14.61246, 11.511191 ], [ 14.645606, 11.582076 ], [ 14.63981, 11.5998 ], [ 14.648247, 11.616722 ], [ 14.642666, 11.635785 ], [ 14.640885, 11.655577 ], [ 14.626768, 11.666093 ], [ 14.620672, 11.675901 ], [ 14.60931, 11.683159 ], [ 14.598971, 11.701909 ], [ 14.5816, 11.703156 ], [ 14.572547, 11.706831 ], [ 14.55422, 11.714271 ], [ 14.548557, 11.724287 ], [ 14.555027, 11.730999 ], [ 14.57069, 11.737877 ], [ 14.572547, 11.741638 ], [ 14.578378, 11.751498 ], [ 14.599165, 11.761376 ], [ 14.614667, 11.783398 ], [ 14.606241, 11.805434 ], [ 14.610642, 11.822285 ], [ 14.606828, 11.837171 ], [ 14.614814, 11.85491 ], [ 14.605781, 11.869584 ], [ 14.619937, 11.884901 ], [ 14.629118, 11.903204 ], [ 14.64159, 11.912403 ], [ 14.635958, 11.93413 ], [ 14.655084, 11.961763 ], [ 14.64417, 11.974449 ], [ 14.635447, 11.994335 ], [ 14.632632, 12.01747 ], [ 14.624026, 12.031292 ], [ 14.623121, 12.043975 ], [ 14.631781, 12.0581 ], [ 14.652231, 12.065934 ], [ 14.650408, 12.072416 ], [ 14.639887, 12.082529 ], [ 14.637139, 12.092346 ], [ 14.654613, 12.114886 ], [ 14.65467, 12.13847 ], [ 14.67475, 12.157408 ], [ 14.676031, 12.167436 ], [ 14.674941, 12.172158 ], [ 14.665619, 12.179903 ], [ 14.665324, 12.189162 ], [ 14.658279, 12.196613 ], [ 14.63104, 12.193144 ], [ 14.628089, 12.190376 ], [ 14.627788, 12.184022 ], [ 14.622739, 12.184258 ], [ 14.613295, 12.191519 ], [ 14.600249, 12.19505 ], [ 14.607256, 12.203153 ], [ 14.602049, 12.21261 ], [ 14.593979, 12.217839 ], [ 14.593216, 12.22711 ], [ 14.572547, 12.228562 ], [ 14.54991, 12.237299 ], [ 14.549272, 12.241629 ], [ 14.555506, 12.246919 ], [ 14.558893, 12.258298 ], [ 14.551786, 12.257109 ], [ 14.548138, 12.260058 ], [ 14.543889, 12.271446 ], [ 14.546772, 12.280398 ], [ 14.521159, 12.296281 ], [ 14.514089, 12.296947 ], [ 14.512241, 12.297121 ], [ 14.514089, 12.304241 ], [ 14.514089, 12.306555 ], [ 14.511273, 12.314288 ], [ 14.514089, 12.3146 ], [ 14.51983, 12.315617 ], [ 14.520822, 12.318134 ], [ 14.519793, 12.325307 ], [ 14.514089, 12.329113 ], [ 14.497244, 12.331473 ], [ 14.484299, 12.341135 ], [ 14.486872, 12.346957 ], [ 14.484327, 12.350738 ], [ 14.475449, 12.346864 ], [ 14.468776, 12.356713 ], [ 14.463369, 12.359482 ], [ 14.445383, 12.350614 ], [ 14.442675, 12.363723 ], [ 14.433343, 12.369259 ], [ 14.427717, 12.368838 ], [ 14.419923, 12.361581 ], [ 14.400688, 12.367082 ], [ 14.379358, 12.358601 ], [ 14.366701, 12.364361 ], [ 14.349147, 12.364352 ], [ 14.329747, 12.375009 ], [ 14.320671, 12.371766 ], [ 14.31541, 12.363059 ], [ 14.308567, 12.358966 ], [ 14.301324, 12.361158 ], [ 14.299027, 12.369906 ], [ 14.292353, 12.37159 ], [ 14.291158, 12.368217 ], [ 14.297092, 12.360251 ], [ 14.291899, 12.355435 ], [ 14.286539, 12.359666 ], [ 14.284105, 12.368558 ], [ 14.274617, 12.372949 ], [ 14.223284, 12.362065 ], [ 14.218339, 12.366849 ], [ 14.220961, 12.374517 ], [ 14.1996, 12.385469 ], [ 14.187039, 12.406353 ], [ 14.174849, 12.409994 ], [ 14.17429, 12.41338 ], [ 14.178658, 12.418527 ], [ 14.17684, 12.428675 ], [ 14.183578, 12.428148 ], [ 14.186704, 12.434751 ], [ 14.193603, 12.434728 ], [ 14.188671, 12.442592 ], [ 14.196069, 12.449624 ], [ 14.19201, 12.451119 ], [ 14.182839, 12.448177 ], [ 14.183115, 12.457168 ], [ 14.176785, 12.478083 ], [ 14.188139, 12.482699 ], [ 14.192187, 12.497907 ], [ 14.199866, 12.503018 ], [ 14.203031, 12.538826 ], [ 14.127336, 12.886239 ], [ 14.110665, 12.962567 ], [ 14.08543, 13.07806 ], [ 14.08951, 13.07784 ], [ 14.110665, 13.077764 ], [ 14.134126, 13.077679 ], [ 14.179276, 13.077054 ], [ 14.187526, 13.07752 ], [ 14.213277, 13.077777 ], [ 14.288827, 13.075786 ], [ 14.298936, 13.076247 ], [ 14.318099, 13.076042 ], [ 14.325061, 13.074899 ], [ 14.358045, 13.075825 ], [ 14.364014, 13.076283 ], [ 14.370745, 13.07492 ], [ 14.441591, 13.07472 ], [ 14.453488, 13.074039 ], [ 14.45989, 13.074412 ], [ 14.473753, 13.053786 ], [ 14.487759, 13.034567 ], [ 14.490988, 13.027228 ], [ 14.512733, 12.998338 ], [ 14.514089, 12.996406 ], [ 14.533352, 12.968952 ], [ 14.540343, 12.960278 ], [ 14.543592, 12.956848 ], [ 14.552164, 12.95057 ], [ 14.553528, 12.941516 ], [ 14.55059, 12.930728 ], [ 14.554506, 12.918847 ], [ 14.561326, 12.914737 ], [ 14.56677, 12.901536 ], [ 14.568711, 12.891861 ], [ 14.567253, 12.888769 ], [ 14.563196, 12.886239 ], [ 14.558816, 12.8775 ], [ 14.567502, 12.835002 ], [ 14.555151, 12.809859 ], [ 14.551849, 12.787105 ], [ 14.560745, 12.777625 ], [ 14.572547, 12.774804 ], [ 14.575552, 12.774086 ], [ 14.585489, 12.748434 ], [ 14.592873, 12.745291 ], [ 14.598242, 12.746814 ], [ 14.617346, 12.767485 ], [ 14.622565, 12.769086 ], [ 14.624741, 12.763871 ], [ 14.620816, 12.746353 ], [ 14.622355, 12.739272 ], [ 14.636952, 12.738835 ], [ 14.663473, 12.720368 ], [ 14.686701, 12.720515 ], [ 14.704571, 12.724523 ], [ 14.716682, 12.717792 ], [ 14.722695, 12.703945 ], [ 14.706416, 12.67696 ], [ 14.707433, 12.669622 ], [ 14.715319, 12.659613 ], [ 14.724234, 12.658587 ], [ 14.736866, 12.681295 ], [ 14.747564, 12.685898 ], [ 14.752797, 12.682454 ], [ 14.757634, 12.673141 ], [ 14.762192, 12.641015 ], [ 14.767293, 12.634192 ], [ 14.773023, 12.631405 ], [ 14.790335, 12.630713 ], [ 14.818126, 12.634331 ], [ 14.83222, 12.626619 ], [ 14.837678, 12.595165 ], [ 14.85127, 12.564787 ], [ 14.854407, 12.550547 ], [ 14.853214, 12.530173 ], [ 14.856286, 12.514816 ], [ 14.852801, 12.502734 ], [ 14.857942, 12.484405 ], [ 14.84972, 12.470575 ], [ 14.848682, 12.458138 ], [ 14.858328, 12.448828 ], [ 14.863453, 12.451156 ], [ 14.866837, 12.455449 ], [ 14.872447, 12.462566 ], [ 14.879291, 12.461996 ], [ 14.886375, 12.426933 ], [ 14.904163, 12.397219 ], [ 14.910176, 12.379571 ], [ 14.90929, 12.328425 ], [ 14.900535, 12.302641 ], [ 14.908612, 12.272286 ], [ 14.904236, 12.239844 ], [ 14.90572, 12.223044 ], [ 14.90035, 12.203527 ], [ 14.909198, 12.182265 ], [ 14.89325, 12.167822 ], [ 14.892283, 12.159155 ], [ 14.896022, 12.152755 ], [ 14.904707, 12.148627 ], [ 14.932741, 12.115168 ], [ 14.966601, 12.092531 ], [ 14.980909, 12.091363 ], [ 14.988228, 12.095637 ], [ 14.994775, 12.107059 ], [ 15.001476, 12.111501 ], [ 15.010251, 12.11175 ], [ 15.027221, 12.104555 ], [ 15.038208, 12.094451 ], [ 15.035335, 12.070063 ], [ 15.046277, 12.065691 ], [ 15.050091, 12.064528 ], [ 15.054424, 12.059078 ], [ 15.061046, 12.041632 ], [ 15.055629, 12.02957 ], [ 15.05297, 12.027535 ], [ 15.046277, 12.028151 ], [ 15.04317, 12.028438 ], [ 15.040683, 12.026858 ], [ 15.039832, 12.023957 ], [ 15.042291, 12.01955 ], [ 15.046277, 12.017474 ], [ 15.057666, 12.004497 ], [ 15.081256, 11.999658 ], [ 15.086596, 11.990585 ], [ 15.082426, 11.977899 ], [ 15.076763, 11.971298 ], [ 15.060024, 11.97298 ], [ 15.053383, 11.969184 ], [ 15.053777, 11.960937 ], [ 15.063225, 11.942721 ], [ 15.064458, 11.93001 ], [ 15.059939, 11.920744 ], [ 15.046277, 11.911356 ], [ 15.044544, 11.909487 ], [ 15.042614, 11.903948 ], [ 15.042114, 11.898701 ], [ 15.043864, 11.890801 ], [ 15.046277, 11.88585 ], [ 15.055657, 11.850645 ], [ 15.064359, 11.842828 ], [ 15.072145, 11.842422 ], [ 15.075437, 11.846061 ], [ 15.078505, 11.859935 ], [ 15.093769, 11.84692 ], [ 15.098052, 11.817782 ], [ 15.118322, 11.793925 ], [ 15.117439, 11.787831 ], [ 15.111076, 11.778794 ], [ 15.089236, 11.772404 ], [ 15.081187, 11.76352 ], [ 15.083381, 11.75637 ], [ 15.098679, 11.74687 ], [ 15.102336, 11.730513 ], [ 15.096691, 11.727402 ], [ 15.082758, 11.732103 ], [ 15.07536, 11.730974 ], [ 15.068931, 11.724393 ], [ 15.066473, 11.714271 ], [ 15.068888, 11.69766 ], [ 15.078722, 11.685685 ], [ 15.07786, 11.668935 ], [ 15.084281, 11.656879 ], [ 15.081795, 11.639591 ], [ 15.090769, 11.619802 ], [ 15.10183, 11.608972 ], [ 15.100156, 11.584878 ], [ 15.105196, 11.579456 ], [ 15.126774, 11.570858 ], [ 15.137331, 11.563265 ], [ 15.141733, 11.556486 ], [ 15.142289, 11.542518 ], [ 15.13159, 11.510064 ], [ 15.107854, 11.493974 ], [ 15.098185, 11.480011 ], [ 15.097788, 11.470597 ], [ 15.08791, 11.462891 ], [ 15.082701, 11.450531 ], [ 15.075955, 11.442656 ], [ 15.074962, 11.433195 ], [ 15.059509, 11.409612 ], [ 15.058641, 11.396301 ], [ 15.068414, 11.367237 ], [ 15.053259, 11.348851 ], [ 15.048297, 11.327146 ], [ 15.050358, 11.313889 ], [ 15.034724, 11.303341 ], [ 15.035529, 11.290084 ], [ 15.02759, 11.280856 ], [ 15.031876, 11.26923 ], [ 15.03036, 11.24655 ], [ 15.040206, 11.232154 ], [ 15.029123, 11.220469 ], [ 15.034808, 11.211359 ], [ 15.02957, 11.195906 ], [ 15.038285, 11.169416 ], [ 15.035223, 11.162233 ], [ 15.036034, 11.148492 ], [ 15.026675, 11.135065 ], [ 15.036285, 11.124354 ], [ 15.038544, 11.108747 ], [ 15.034593, 11.091213 ], [ 15.043072, 11.082812 ], [ 15.038518, 11.070648 ], [ 15.043599, 11.063333 ], [ 15.051602, 11.040036 ], [ 15.049059, 11.01564 ], [ 15.05123, 10.995842 ], [ 15.060099, 10.981365 ], [ 15.064262, 10.966205 ], [ 15.082633, 10.946449 ], [ 15.091951, 10.891997 ], [ 15.092675, 10.866856 ], [ 15.070572, 10.838009 ], [ 15.06954, 10.807094 ], [ 15.100878, 10.744286 ], [ 15.126114, 10.71169 ], [ 15.154629, 10.643741 ], [ 15.156413, 10.617423 ], [ 15.144161, 10.583937 ], [ 15.144143, 10.553345 ], [ 15.147104, 10.537784 ], [ 15.157454, 10.525023 ], [ 15.169264, 10.517052 ], [ 15.210743, 10.50036 ], [ 15.238717, 10.473007 ], [ 15.251962, 10.437862 ], [ 15.281474, 10.404031 ], [ 15.283395, 10.366071 ], [ 15.295299, 10.350179 ], [ 15.296763, 10.335992 ], [ 15.308782, 10.32324 ], [ 15.310653, 10.30944 ], [ 15.354396, 10.290708 ], [ 15.376432, 10.261507 ], [ 15.394565, 10.24921 ], [ 15.419515, 10.211369 ], [ 15.451909, 10.186354 ], [ 15.4627, 10.159639 ], [ 15.479579, 10.138296 ], [ 15.486006, 10.1213 ], [ 15.504828, 10.109548 ], [ 15.514582, 10.091517 ], [ 15.532438, 10.092493 ], [ 15.572094, 10.061221 ], [ 15.589931, 10.054567 ], [ 15.605905, 10.042365 ], [ 15.618682, 10.04125 ], [ 15.630611, 10.032668 ], [ 15.651011, 10.024296 ], [ 15.6753, 10.006262 ], [ 15.682002, 9.987251 ], [ 15.657372, 9.976156 ], [ 15.624479, 9.96985 ], [ 15.590012, 9.958014 ], [ 15.548135, 9.950806 ], [ 15.521257, 9.949483 ], [ 15.48547, 9.9379 ], [ 15.437187, 9.933761 ], [ 15.336518, 9.971323 ], [ 15.311615, 9.97414 ], [ 15.239862, 9.99491 ], [ 15.210317, 9.965589 ], [ 15.191454, 9.970364 ], [ 15.160696, 9.988553 ], [ 15.140086, 9.994287 ], [ 15.130723, 9.993084 ], [ 15.113025, 9.983271 ], [ 15.107896, 9.976966 ], [ 15.105324, 9.967592 ], [ 15.098273, 9.964458 ], [ 15.065005, 9.967872 ], [ 15.046015, 9.975 ], [ 15.015882, 9.99623 ], [ 15.002357, 10.000842 ], [ 14.988032, 10.000843 ], [ 14.949691, 9.986097 ], [ 14.917748, 9.978599 ], [ 14.889171, 9.960263 ], [ 14.866837, 9.939759 ], [ 14.847448, 9.928593 ], [ 14.835553, 9.924734 ], [ 14.818825, 9.924726 ], [ 14.798823, 9.928042 ], [ 14.75517, 9.948994 ], [ 14.704164, 9.950382 ], [ 14.645346, 9.966323 ], [ 14.632241, 9.973194 ], [ 14.590164, 9.983436 ], [ 14.572547, 9.989485 ], [ 14.543265, 9.99954 ], [ 14.514089, 10.005689 ], [ 14.483939, 10.009775 ], [ 14.457466, 10.005192 ], [ 14.380312, 10.004032 ], [ 14.346874, 9.997568 ], [ 14.305454, 10.003264 ], [ 14.23925, 9.997518 ], [ 14.20956, 9.988725 ], [ 14.200272, 9.980505 ], [ 14.193504, 9.966772 ], [ 14.176443, 9.89942 ], [ 14.110665, 9.810916 ], [ 14.104629, 9.802793 ], [ 14.084658, 9.783337 ], [ 14.077018, 9.76941 ], [ 14.050881, 9.75195 ], [ 14.038915, 9.737285 ], [ 14.02514, 9.704632 ], [ 14.020029, 9.669627 ], [ 14.022896, 9.648734 ], [ 14.046098, 9.625122 ], [ 14.063465, 9.588259 ], [ 14.09841, 9.552631 ], [ 14.110665, 9.538001 ], [ 14.133016, 9.511318 ], [ 14.16666, 9.485765 ], [ 14.189882, 9.477441 ], [ 14.197788, 9.450709 ], [ 14.224533, 9.43504 ], [ 14.252057, 9.39099 ], [ 14.279958, 9.372748 ], [ 14.317858, 9.364637 ], [ 14.338192, 9.328663 ], [ 14.351223, 9.311739 ], [ 14.384884, 9.288484 ], [ 14.392195, 9.26634 ], [ 14.389082, 9.247724 ], [ 14.378428, 9.220808 ], [ 14.377181, 9.208513 ], [ 14.379984, 9.1996 ], [ 14.430087, 9.151455 ], [ 14.447965, 9.12499 ], [ 14.472018, 9.111993 ], [ 14.490219, 9.094949 ], [ 14.492189, 9.087403 ], [ 14.485649, 9.077137 ], [ 14.485311, 9.070972 ], [ 14.506237, 9.03728 ], [ 14.514089, 9.030866 ], [ 14.536129, 9.02574 ], [ 14.560977, 9.010589 ], [ 14.572547, 8.999864 ], [ 14.626685, 8.949674 ], [ 14.682091, 8.889389 ], [ 14.717774, 8.862604 ], [ 14.755682, 8.819109 ], [ 14.766822, 8.813692 ], [ 14.808292, 8.810374 ], [ 14.824742, 8.801518 ], [ 14.849269, 8.803299 ], [ 14.856725, 8.809355 ], [ 14.866837, 8.810207 ], [ 14.873735, 8.814131 ], [ 14.898335, 8.807177 ], [ 14.907833, 8.784171 ], [ 14.922891, 8.769686 ], [ 14.914025, 8.759341 ], [ 14.914544, 8.753677 ], [ 14.926563, 8.747475 ], [ 14.949632, 8.746991 ], [ 14.958027, 8.739856 ], [ 14.976866, 8.732425 ], [ 14.984968, 8.724651 ], [ 14.988265, 8.716171 ], [ 14.983929, 8.688207 ], [ 14.988159, 8.679127 ], [ 15.008135, 8.678029 ], [ 15.043119, 8.670123 ], [ 15.058359, 8.672523 ], [ 15.108324, 8.672234 ], [ 15.156987, 8.646821 ], [ 15.189968, 8.615295 ], [ 15.208168, 8.607879 ], [ 15.212182, 8.573488 ], [ 15.220709, 8.545116 ], [ 15.230238, 8.525379 ], [ 15.251455, 8.451912 ], [ 15.286454, 8.309738 ], [ 15.396283, 8.091765 ], [ 15.3924, 8.037258 ], [ 15.399718, 8.016633 ], [ 15.415068, 8.000942 ], [ 15.422336, 7.987368 ], [ 15.454504, 7.892351 ], [ 15.466745, 7.868316 ], [ 15.469067, 7.863758 ], [ 15.511119, 7.796893 ], [ 15.525606, 7.790111 ], [ 15.588119, 7.776319 ], [ 15.596339, 7.767021 ], [ 15.591773, 7.745975 ], [ 15.59486, 7.73534 ], [ 15.597362, 7.687381 ], [ 15.594055, 7.674826 ], [ 15.583694, 7.65837 ], [ 15.586608, 7.642983 ], [ 15.582855, 7.62873 ], [ 15.569873, 7.607701 ], [ 15.572877, 7.59081 ], [ 15.540437, 7.557043 ], [ 15.523398, 7.54406 ], [ 15.516093, 7.532674 ], [ 15.50748, 7.52747 ], [ 15.49676, 7.51529 ], [ 15.495967, 7.50563 ], [ 15.485361, 7.499224 ], [ 15.479768, 7.487887 ], [ 15.465761, 7.479351 ], [ 15.466102, 7.469646 ], [ 15.460274, 7.456742 ], [ 15.447324, 7.449975 ], [ 15.441984, 7.436489 ], [ 15.429846, 7.427506 ], [ 15.42742, 7.415034 ], [ 15.399148, 7.393636 ], [ 15.381526, 7.375893 ], [ 15.369701, 7.369178 ], [ 15.3612, 7.358617 ], [ 15.348562, 7.352067 ], [ 15.337068, 7.340111 ], [ 15.305082, 7.317992 ], [ 15.263095, 7.277909 ], [ 15.251205, 7.273466 ], [ 15.238862, 7.249811 ], [ 15.224971, 7.239257 ], [ 15.223137, 7.23107 ], [ 15.217671, 7.224691 ], [ 15.228279, 7.221576 ], [ 15.237439, 7.214283 ], [ 15.213728, 7.175662 ], [ 15.216232, 7.145607 ], [ 15.224161, 7.135458 ], [ 15.209101, 7.105196 ], [ 15.197106, 7.071965 ], [ 15.192088, 7.070008 ], [ 15.183374, 7.072327 ], [ 15.168916, 7.065665 ], [ 15.161711, 7.045527 ], [ 15.148568, 7.026765 ], [ 15.140055, 6.967702 ], [ 15.143401, 6.945163 ], [ 15.13345, 6.935996 ], [ 15.119879, 6.913104 ], [ 15.113675, 6.891461 ], [ 15.10176, 6.87243 ], [ 15.089728, 6.836828 ], [ 15.074762, 6.814671 ], [ 15.07122, 6.787793 ], [ 15.067477, 6.778461 ], [ 15.050148, 6.760873 ], [ 15.020308, 6.765541 ], [ 15.0044, 6.75667 ], [ 14.971589, 6.748626 ], [ 14.967738, 6.744466 ], [ 14.866837, 6.51572 ], [ 14.814356, 6.410317 ], [ 14.809493, 6.386466 ], [ 14.814045, 6.357615 ], [ 14.803786, 6.338814 ], [ 14.750792, 6.261874 ], [ 14.739104, 6.251721 ], [ 14.72125, 6.243369 ], [ 14.621874, 6.206706 ], [ 14.572547, 6.192141 ], [ 14.560573, 6.188605 ], [ 14.534989, 6.168044 ], [ 14.514089, 6.139469 ], [ 14.506409, 6.128969 ], [ 14.478252, 6.106855 ], [ 14.47042, 6.097269 ], [ 14.445304, 6.086329 ], [ 14.427633, 6.083757 ], [ 14.429538, 6.069527 ], [ 14.421027, 6.03983 ], [ 14.437047, 6.002399 ], [ 14.469097, 5.971304 ], [ 14.4777, 5.948547 ], [ 14.489176, 5.933464 ], [ 14.493741, 5.915738 ], [ 14.505781, 5.903483 ], [ 14.514089, 5.900811 ], [ 14.523054, 5.897927 ], [ 14.55396, 5.904097 ], [ 14.56531, 5.900248 ], [ 14.572547, 5.905488 ], [ 14.589678, 5.91789 ], [ 14.5994, 5.919898 ], [ 14.610583, 5.915101 ], [ 14.620944, 5.895137 ], [ 14.62038, 5.846407 ], [ 14.627181, 5.811989 ], [ 14.628328, 5.704228 ], [ 14.612586, 5.659951 ], [ 14.610253, 5.642292 ], [ 14.59655, 5.601631 ], [ 14.595455, 5.588613 ], [ 14.597995, 5.575837 ], [ 14.607729, 5.558809 ], [ 14.613562, 5.535134 ], [ 14.629698, 5.507294 ], [ 14.619726, 5.49365 ], [ 14.61451, 5.47669 ], [ 14.605747, 5.466557 ], [ 14.606802, 5.453844 ], [ 14.602195, 5.432327 ], [ 14.602662, 5.403516 ], [ 14.578362, 5.385312 ], [ 14.576862, 5.367904 ], [ 14.572547, 5.360537 ], [ 14.558483, 5.336527 ], [ 14.549874, 5.313029 ], [ 14.55169, 5.301048 ], [ 14.541132, 5.293143 ], [ 14.529416, 5.275929 ], [ 14.535136, 5.263784 ], [ 14.572547, 5.231337 ], [ 14.576045, 5.228304 ], [ 14.589788, 5.225064 ], [ 14.602129, 5.218146 ], [ 14.626262, 5.216763 ], [ 14.650614, 5.210752 ], [ 14.671634, 5.189437 ], [ 14.677322, 5.175039 ], [ 14.694678, 5.098303 ], [ 14.691065, 5.089171 ], [ 14.680691, 5.081625 ], [ 14.678456, 5.074422 ], [ 14.690678, 5.024065 ], [ 14.680695, 5.006861 ], [ 14.682327, 4.999247 ], [ 14.679488, 4.988673 ], [ 14.694802, 4.96206 ], [ 14.692015, 4.9404 ], [ 14.687208, 4.926649 ], [ 14.694811, 4.915835 ], [ 14.706036, 4.882471 ], [ 14.706866, 4.879987 ], [ 14.715646, 4.86468 ], [ 14.708148, 4.853508 ], [ 14.709233, 4.840769 ], [ 14.71424, 4.832266 ], [ 14.721161, 4.803876 ], [ 14.720909, 4.788364 ], [ 14.718541, 4.781596 ], [ 14.714774, 4.770828 ], [ 14.703758, 4.762971 ], [ 14.720721, 4.737555 ], [ 14.725066, 4.696908 ], [ 14.724403, 4.641656 ], [ 14.733494, 4.62354 ], [ 14.732921, 4.609425 ], [ 14.740563, 4.604287 ], [ 14.748254, 4.599115 ], [ 14.758331, 4.581894 ], [ 14.771515, 4.578036 ], [ 14.793135, 4.549268 ], [ 14.807416, 4.537898 ], [ 14.815306, 4.525521 ], [ 14.829729, 4.519657 ], [ 14.836285, 4.511244 ], [ 14.854717, 4.507506 ], [ 14.859644, 4.496764 ], [ 14.86163, 4.495901 ], [ 14.874367, 4.490365 ], [ 14.890634, 4.467429 ], [ 14.908317, 4.463179 ], [ 14.942458, 4.445282 ], [ 14.948979, 4.434644 ], [ 14.972448, 4.434751 ], [ 14.982451, 4.431207 ], [ 14.988646, 4.421896 ], [ 15.015244, 4.416496 ], [ 15.022304, 4.397002 ], [ 15.023226, 4.386514 ], [ 15.032589, 4.364609 ], [ 15.03668, 4.362361 ], [ 15.042855, 4.365103 ], [ 15.047156, 4.362591 ], [ 15.049894, 4.357598 ], [ 15.049234, 4.350321 ], [ 15.061773, 4.336178 ], [ 15.06793, 4.322079 ], [ 15.078745, 4.308847 ], [ 15.086639, 4.305418 ], [ 15.089515, 4.29934 ], [ 15.092984, 4.292007 ], [ 15.095714, 4.264512 ], [ 15.101082, 4.256304 ], [ 15.097419, 4.23236 ], [ 15.10718, 4.2148 ], [ 15.10517, 4.208818 ], [ 15.102855, 4.201927 ], [ 15.106775, 4.177707 ], [ 15.112076, 4.17202 ], [ 15.112954, 4.148725 ], [ 15.107331, 4.136291 ], [ 15.113432, 4.12087 ], [ 15.117419, 4.115932 ], [ 15.125571, 4.113244 ], [ 15.136972, 4.100904 ], [ 15.150024, 4.065966 ], [ 15.175443, 4.068006 ], [ 15.178914, 4.065527 ], [ 15.182546, 4.055169 ], [ 15.177856, 4.049675 ], [ 15.155011, 4.042647 ], [ 15.14461, 4.033333 ], [ 15.103414, 4.025506 ], [ 15.067842, 4.012477 ], [ 15.061674, 4.006294 ], [ 15.058739, 3.998125 ], [ 15.091162, 3.993995 ], [ 15.097504, 3.981244 ], [ 15.108157, 3.943359 ], [ 15.186594, 3.814613 ], [ 15.247593, 3.714475 ], [ 15.46395, 3.483063 ], [ 15.509353, 3.438097 ], [ 15.604206, 3.327219 ], [ 15.647507, 3.272455 ], [ 15.658523, 3.262627 ], [ 15.699486, 3.212729 ], [ 15.717049, 3.197287 ], [ 15.746323, 3.158691 ], [ 15.802202, 3.096316 ], [ 15.805648, 3.09464 ], [ 15.813557, 3.101443 ], [ 15.827628, 3.100673 ], [ 15.839999, 3.107214 ], [ 15.859073, 3.108582 ], [ 15.866159, 3.106356 ], [ 15.871803, 3.098184 ], [ 15.886957, 3.096623 ], [ 15.901624, 3.080347 ], [ 15.925652, 3.036991 ], [ 15.934872, 3.031077 ], [ 15.968172, 2.989045 ], [ 15.973588, 2.988804 ], [ 15.977355, 2.996382 ], [ 15.982767, 2.99969 ], [ 16.003967, 3.000355 ], [ 16.014503, 2.991017 ], [ 16.017826, 2.981714 ], [ 16.035389, 2.973168 ], [ 16.036176, 2.960664 ], [ 16.052482, 2.937257 ], [ 16.059696, 2.915974 ], [ 16.073209, 2.902143 ], [ 16.086901, 2.860233 ], [ 16.090073, 2.834912 ], [ 16.086381, 2.817967 ], [ 16.07293, 2.802599 ], [ 16.054467, 2.794483 ], [ 16.051374, 2.789401 ], [ 16.059566, 2.760382 ], [ 16.064379, 2.752851 ], [ 16.064827, 2.732539 ], [ 16.060744, 2.726542 ], [ 16.064635, 2.720707 ], [ 16.061647, 2.713213 ], [ 16.069055, 2.708211 ], [ 16.083024, 2.706469 ], [ 16.088782, 2.699885 ], [ 16.075856, 2.676914 ], [ 16.067737, 2.640189 ], [ 16.070543, 2.625623 ], [ 16.084649, 2.595486 ], [ 16.082219, 2.568758 ], [ 16.067552, 2.526673 ], [ 16.069336, 2.516833 ], [ 16.082132, 2.500435 ], [ 16.084643, 2.493246 ], [ 16.082984, 2.478498 ], [ 16.076476, 2.463847 ], [ 16.085224, 2.442914 ], [ 16.103604, 2.427046 ], [ 16.107633, 2.416316 ], [ 16.116965, 2.391457 ], [ 16.147927, 2.350485 ], [ 16.151231, 2.329375 ], [ 16.170762, 2.274211 ], [ 16.164448, 2.254228 ], [ 16.164928, 2.246693 ], [ 16.19199, 2.22051 ] ] ], [ [ [ 8.767965, 4.63507 ], [ 8.772118, 4.647005 ], [ 8.80692, 4.660881 ], [ 8.815678, 4.670973 ], [ 8.818951, 4.662406 ], [ 8.815896, 4.630509 ], [ 8.83382, 4.604287 ], [ 8.84699, 4.585672 ], [ 8.852644, 4.572046 ], [ 8.866607, 4.539981 ], [ 8.868004, 4.527702 ], [ 8.862923, 4.522992 ], [ 8.84699, 4.530857 ], [ 8.839466, 4.538964 ], [ 8.836718, 4.547503 ], [ 8.822305, 4.557502 ], [ 8.80981, 4.572046 ], [ 8.794502, 4.58312 ], [ 8.779864, 4.604287 ], [ 8.773799, 4.613806 ], [ 8.767965, 4.63507 ] ] ], [ [ [ 9.444652, 4.013953 ], [ 9.444927, 4.016701 ], [ 9.453376, 4.019266 ], [ 9.465499, 4.020915 ], [ 9.472294, 4.02119 ], [ 9.471927, 4.023297 ], [ 9.460448, 4.023389 ], [ 9.455029, 4.027237 ], [ 9.457142, 4.039421 ], [ 9.455397, 4.054719 ], [ 9.455948, 4.058108 ], [ 9.458519, 4.059116 ], [ 9.465131, 4.055727 ], [ 9.469448, 4.05591 ], [ 9.478356, 4.059299 ], [ 9.483682, 4.053345 ], [ 9.490203, 4.049314 ], [ 9.490386, 4.045925 ], [ 9.486162, 4.040245 ], [ 9.480117, 4.038944 ], [ 9.480064, 4.037206 ], [ 9.486254, 4.035481 ], [ 9.490111, 4.031634 ], [ 9.495162, 4.030076 ], [ 9.501223, 4.021374 ], [ 9.500672, 4.017159 ], [ 9.494427, 4.014411 ], [ 9.490754, 4.009281 ], [ 9.489009, 4.004975 ], [ 9.484325, 4.005067 ], [ 9.481203, 4.00754 ], [ 9.475784, 4.003784 ], [ 9.480835, 3.995814 ], [ 9.47955, 3.99389 ], [ 9.468345, 3.986744 ], [ 9.462652, 3.990775 ], [ 9.459346, 3.991142 ], [ 9.452917, 3.994531 ], [ 9.453101, 4.00186 ], [ 9.449978, 4.007357 ], [ 9.444652, 4.013953 ] ] ], [ [ [ 9.473933, 3.980497 ], [ 9.482353, 3.990558 ], [ 9.485684, 3.995542 ], [ 9.485128, 4.000987 ], [ 9.490125, 4.001264 ], [ 9.493918, 4.004587 ], [ 9.494196, 4.008371 ], [ 9.505483, 4.016678 ], [ 9.506501, 4.019723 ], [ 9.51381, 4.018339 ], [ 9.515753, 4.015478 ], [ 9.515846, 4.010863 ], [ 9.522692, 4.014278 ], [ 9.527318, 4.008094 ], [ 9.527596, 3.996003 ], [ 9.530001, 3.993234 ], [ 9.531019, 3.988066 ], [ 9.532315, 3.972283 ], [ 9.529446, 3.970068 ], [ 9.526856, 3.96573 ], [ 9.527318, 3.960838 ], [ 9.520749, 3.961576 ], [ 9.515476, 3.96416 ], [ 9.505113, 3.962776 ], [ 9.50132, 3.964714 ], [ 9.48957, 3.973575 ], [ 9.484388, 3.971729 ], [ 9.476524, 3.976529 ], [ 9.473933, 3.980497 ] ] ], [ [ [ 8.531633, 4.741072 ], [ 8.531922, 4.747866 ], [ 8.533945, 4.759286 ], [ 8.537559, 4.774681 ], [ 8.541173, 4.773669 ], [ 8.542041, 4.771356 ], [ 8.541173, 4.764417 ], [ 8.541751, 4.757912 ], [ 8.545943, 4.748733 ], [ 8.545654, 4.736735 ], [ 8.542474, 4.730953 ], [ 8.53727, 4.730953 ], [ 8.532934, 4.736012 ], [ 8.531633, 4.741072 ] ] ], [ [ [ 8.539599, 4.77994 ], [ 8.54377, 4.794669 ], [ 8.548744, 4.799094 ], [ 8.552001, 4.799709 ], [ 8.558859, 4.797508 ], [ 8.564635, 4.797722 ], [ 8.561658, 4.791582 ], [ 8.552001, 4.784174 ], [ 8.542761, 4.777231 ], [ 8.539599, 4.77994 ] ] ], [ [ [ 8.551956, 4.805015 ], [ 8.556567, 4.81324 ], [ 8.561985, 4.818389 ], [ 8.56656, 4.817232 ], [ 8.569775, 4.81318 ], [ 8.571933, 4.804597 ], [ 8.559959, 4.799085 ], [ 8.552856, 4.803259 ], [ 8.551956, 4.805015 ] ] ], [ [ [ 8.811229, 4.454831 ], [ 8.813406, 4.458215 ], [ 8.812763, 4.462101 ], [ 8.820229, 4.471029 ], [ 8.82369, 4.467379 ], [ 8.824689, 4.461075 ], [ 8.819497, 4.454572 ], [ 8.81384, 4.451122 ], [ 8.811577, 4.451719 ], [ 8.811229, 4.454831 ] ] ], [ [ [ 9.502587, 4.033862 ], [ 9.503991, 4.035263 ], [ 9.510543, 4.034703 ], [ 9.519061, 4.032368 ], [ 9.521682, 4.025739 ], [ 9.518874, 4.021257 ], [ 9.515504, 4.022751 ], [ 9.514193, 4.025366 ], [ 9.510543, 4.025926 ], [ 9.50343, 4.030127 ], [ 9.502587, 4.033862 ] ] ], [ [ [ 9.462926, 4.064209 ], [ 9.463777, 4.06751 ], [ 9.468315, 4.070999 ], [ 9.473893, 4.070151 ], [ 9.474838, 4.067604 ], [ 9.471435, 4.063738 ], [ 9.468788, 4.058362 ], [ 9.466897, 4.058739 ], [ 9.462926, 4.064209 ] ] ], [ [ [ 9.189727, 3.974467 ], [ 9.190968, 3.980427 ], [ 9.195365, 3.977607 ], [ 9.192036, 3.970402 ], [ 9.189727, 3.974467 ] ] ], [ [ [ 8.856617, 4.576726 ], [ 8.859235, 4.579416 ], [ 8.861519, 4.571967 ], [ 8.860471, 4.568989 ], [ 8.858038, 4.571967 ], [ 8.856617, 4.576726 ] ] ], [ [ [ 9.25943, 3.953065 ], [ 9.26168, 3.954917 ], [ 9.265794, 3.951075 ], [ 9.263135, 3.948137 ], [ 9.25943, 3.953065 ] ] ], [ [ [ 8.55004, 4.746356 ], [ 8.554504, 4.746085 ], [ 8.553883, 4.739556 ], [ 8.552334, 4.739463 ], [ 8.55004, 4.746356 ] ] ] ] } }
]
}
