{
"type": "FeatureCollection",
"name": "Cape Verde",
"crs": { "type": "name", "properties": { "name": "urn:ogc:def:crs:OGC:1.3:CRS84" } },
"features": [
{ "type": "Feature", "properties": { "id": "CV", "CNTR_ID": "CV", "CNTR_NAME": "Cabo Verde", "NAME_ENGL": "Cape Verde", "ISO3_CODE": "CPV", "FID": "CV" }, "geometry": { "type": "MultiPolygon", "coordinates": [ [ [ [ -23.6947, 15.303948 ], [ -23.697694, 15.300192 ], [ -23.698617, 15.29743 ], [ -23.696924, 15.293313 ], [ -23.697614, 15.291011 ], [ -23.702098, 15.289364 ], [ -23.706061, 15.282212 ], [ -23.705527, 15.275331 ], [ -23.702397, 15.269391 ], [ -23.697166, 15.266683 ], [ -23.695238, 15.262798 ], [ -23.689966, 15.2555 ], [ -23.688278, 15.251842 ], [ -23.681636, 15.250295 ], [ -23.678748, 15.244811 ], [ -23.671905, 15.247397 ], [ -23.669531, 15.246501 ], [ -23.660952, 15.23992 ], [ -23.648387, 15.237735 ], [ -23.646242, 15.235918 ], [ -23.648305, 15.228094 ], [ -23.64567, 15.224445 ], [ -23.640211, 15.222656 ], [ -23.630055, 15.22527 ], [ -23.620979, 15.215709 ], [ -23.613081, 15.205217 ], [ -23.609747, 15.202722 ], [ -23.606824, 15.192875 ], [ -23.60275, 15.186712 ], [ -23.595831, 15.180115 ], [ -23.592716, 15.17555 ], [ -23.586317, 15.174457 ], [ -23.584141, 15.168966 ], [ -23.583119, 15.159791 ], [ -23.584485, 15.153122 ], [ -23.578784, 15.150645 ], [ -23.574548, 15.153438 ], [ -23.57076, 15.15324 ], [ -23.571416, 15.146806 ], [ -23.569505, 15.144527 ], [ -23.563629, 15.149398 ], [ -23.557974, 15.152431 ], [ -23.549434, 15.149749 ], [ -23.541305, 15.139487 ], [ -23.538656, 15.13377 ], [ -23.538363, 15.126885 ], [ -23.531718, 15.124415 ], [ -23.523902, 15.123333 ], [ -23.518017, 15.127056 ], [ -23.514471, 15.127545 ], [ -23.513272, 15.125489 ], [ -23.514181, 15.120889 ], [ -23.512207, 15.110804 ], [ -23.511685, 15.104608 ], [ -23.509751, 15.099574 ], [ -23.509232, 15.093838 ], [ -23.504229, 15.089518 ], [ -23.496337, 15.078793 ], [ -23.492288, 15.075382 ], [ -23.491774, 15.070106 ], [ -23.489369, 15.065075 ], [ -23.48462, 15.063048 ], [ -23.479127, 15.056434 ], [ -23.479321, 15.051151 ], [ -23.478112, 15.047718 ], [ -23.472656, 15.045697 ], [ -23.464617, 15.045992 ], [ -23.459856, 15.042357 ], [ -23.461491, 15.039589 ], [ -23.466459, 15.039777 ], [ -23.469993, 15.037912 ], [ -23.468778, 15.033788 ], [ -23.464518, 15.033365 ], [ -23.452474, 15.035988 ], [ -23.454101, 15.032072 ], [ -23.455909, 15.021495 ], [ -23.454451, 15.016456 ], [ -23.449701, 15.013969 ], [ -23.447139, 15.019041 ], [ -23.445478, 15.018366 ], [ -23.443773, 15.01195 ], [ -23.43972, 15.00785 ], [ -23.442314, 15.006911 ], [ -23.446584, 15.008484 ], [ -23.451758, 15.004767 ], [ -23.450559, 15.00271 ], [ -23.444872, 15.001151 ], [ -23.443199, 14.998866 ], [ -23.442448, 14.993362 ], [ -23.44432, 14.991051 ], [ -23.443579, 14.986924 ], [ -23.437866, 14.982148 ], [ -23.438786, 14.978696 ], [ -23.44326, 14.976363 ], [ -23.446355, 14.979094 ], [ -23.45157, 14.98043 ], [ -23.455855, 14.984297 ], [ -23.458457, 14.984276 ], [ -23.460789, 14.980124 ], [ -23.46028, 14.975306 ], [ -23.462628, 14.97322 ], [ -23.471845, 14.972455 ], [ -23.473949, 14.969454 ], [ -23.471784, 14.964878 ], [ -23.461352, 14.96129 ], [ -23.475196, 14.947629 ], [ -23.484301, 14.932856 ], [ -23.488447, 14.919044 ], [ -23.487858, 14.904352 ], [ -23.492807, 14.902244 ], [ -23.496364, 14.903592 ], [ -23.50109, 14.903323 ], [ -23.505591, 14.904434 ], [ -23.513914, 14.910564 ], [ -23.519567, 14.907991 ], [ -23.522129, 14.903146 ], [ -23.521373, 14.897412 ], [ -23.522287, 14.89327 ], [ -23.525115, 14.892328 ], [ -23.53082, 14.896184 ], [ -23.540062, 14.898861 ], [ -23.554503, 14.901264 ], [ -23.563492, 14.901877 ], [ -23.571054, 14.901583 ], [ -23.573934, 14.906609 ], [ -23.577987, 14.910708 ], [ -23.582934, 14.908599 ], [ -23.585966, 14.90375 ], [ -23.590956, 14.906692 ], [ -23.594034, 14.907125 ], [ -23.598506, 14.90479 ], [ -23.601592, 14.90637 ], [ -23.618179, 14.910819 ], [ -23.625625, 14.912028 ], [ -23.630442, 14.907266 ], [ -23.634703, 14.907688 ], [ -23.638266, 14.909723 ], [ -23.640909, 14.914752 ], [ -23.644718, 14.917704 ], [ -23.652534, 14.919472 ], [ -23.659653, 14.922623 ], [ -23.66778, 14.932654 ], [ -23.671825, 14.935833 ], [ -23.679393, 14.935995 ], [ -23.684134, 14.93733 ], [ -23.687205, 14.936844 ], [ -23.6896, 14.940496 ], [ -23.690844, 14.947603 ], [ -23.693449, 14.948039 ], [ -23.697517, 14.953743 ], [ -23.700122, 14.954179 ], [ -23.70223, 14.951634 ], [ -23.705296, 14.950917 ], [ -23.711029, 14.957524 ], [ -23.723003, 14.974636 ], [ -23.729161, 14.975729 ], [ -23.73462, 14.977975 ], [ -23.738226, 14.984602 ], [ -23.738505, 14.989421 ], [ -23.735241, 14.994733 ], [ -23.72889, 14.998694 ], [ -23.725387, 15.003548 ], [ -23.726134, 15.007904 ], [ -23.747392, 15.031359 ], [ -23.751662, 15.032927 ], [ -23.757535, 15.02828 ], [ -23.762959, 15.026394 ], [ -23.767237, 15.02865 ], [ -23.768715, 15.035295 ], [ -23.773498, 15.041221 ], [ -23.772109, 15.044449 ], [ -23.772399, 15.050415 ], [ -23.778621, 15.058394 ], [ -23.78266, 15.060422 ], [ -23.790466, 15.06035 ], [ -23.791672, 15.062863 ], [ -23.78986, 15.071835 ], [ -23.786112, 15.076003 ], [ -23.790436, 15.083081 ], [ -23.789312, 15.089749 ], [ -23.78064, 15.098785 ], [ -23.777148, 15.105017 ], [ -23.777234, 15.114658 ], [ -23.779178, 15.120151 ], [ -23.773116, 15.130309 ], [ -23.778377, 15.13646 ], [ -23.777469, 15.1406 ], [ -23.771572, 15.142721 ], [ -23.770172, 15.145031 ], [ -23.772558, 15.147076 ], [ -23.77587, 15.147044 ], [ -23.778493, 15.149315 ], [ -23.778777, 15.154592 ], [ -23.773839, 15.158083 ], [ -23.772678, 15.160389 ], [ -23.773887, 15.163363 ], [ -23.779357, 15.166296 ], [ -23.779378, 15.168821 ], [ -23.771604, 15.172797 ], [ -23.770929, 15.176477 ], [ -23.772382, 15.180365 ], [ -23.770547, 15.186811 ], [ -23.769207, 15.195547 ], [ -23.764795, 15.20523 ], [ -23.765057, 15.207983 ], [ -23.767938, 15.212547 ], [ -23.766579, 15.219217 ], [ -23.764479, 15.222681 ], [ -23.757889, 15.226873 ], [ -23.752097, 15.240931 ], [ -23.751712, 15.245617 ], [ -23.754071, 15.250095 ], [ -23.758833, 15.253035 ], [ -23.767593, 15.253183 ], [ -23.769477, 15.252248 ], [ -23.770452, 15.255223 ], [ -23.767191, 15.261221 ], [ -23.772712, 15.269663 ], [ -23.772504, 15.27288 ], [ -23.769916, 15.274741 ], [ -23.767833, 15.28004 ], [ -23.768343, 15.283937 ], [ -23.771442, 15.286434 ], [ -23.775937, 15.285932 ], [ -23.785887, 15.286758 ], [ -23.786387, 15.289508 ], [ -23.784302, 15.294807 ], [ -23.777709, 15.29877 ], [ -23.77271, 15.295833 ], [ -23.77013, 15.298382 ], [ -23.763743, 15.29913 ], [ -23.761412, 15.303948 ], [ -23.779147, 15.312745 ], [ -23.770387, 15.316768 ], [ -23.768018, 15.32367 ], [ -23.755164, 15.319923 ], [ -23.754113, 15.331288 ], [ -23.749961, 15.328459 ], [ -23.74837, 15.321358 ], [ -23.738937, 15.32122 ], [ -23.733811, 15.314042 ], [ -23.725589, 15.324397 ], [ -23.716836, 15.326914 ], [ -23.71461, 15.321245 ], [ -23.694939, 15.307841 ], [ -23.6947, 15.303948 ] ] ], [ [ [ -25.358728, 17.055124 ], [ -25.356502, 17.065692 ], [ -25.352575, 17.073993 ], [ -25.344735, 17.075712 ], [ -25.340953, 17.077827 ], [ -25.339916, 17.088148 ], [ -25.336403, 17.092321 ], [ -25.327609, 17.094053 ], [ -25.319309, 17.096923 ], [ -25.311518, 17.102074 ], [ -25.29757, 17.109833 ], [ -25.29258, 17.111051 ], [ -25.286867, 17.107605 ], [ -25.283222, 17.106836 ], [ -25.278496, 17.109651 ], [ -25.266706, 17.118523 ], [ -25.263655, 17.121773 ], [ -25.252677, 17.121014 ], [ -25.242936, 17.123215 ], [ -25.235828, 17.126295 ], [ -25.232528, 17.12886 ], [ -25.22558, 17.142927 ], [ -25.216499, 17.145574 ], [ -25.214731, 17.151096 ], [ -25.203776, 17.151939 ], [ -25.2002, 17.158505 ], [ -25.196746, 17.160509 ], [ -25.190071, 17.160605 ], [ -25.182424, 17.159338 ], [ -25.17104, 17.16362 ], [ -25.163354, 17.176321 ], [ -25.157642, 17.177088 ], [ -25.148814, 17.176754 ], [ -25.144349, 17.181396 ], [ -25.129924, 17.189839 ], [ -25.112119, 17.195353 ], [ -25.097119, 17.197163 ], [ -25.085171, 17.195267 ], [ -25.081292, 17.190741 ], [ -25.079077, 17.185964 ], [ -25.073104, 17.18513 ], [ -25.069471, 17.181059 ], [ -25.05363, 17.173722 ], [ -25.046972, 17.174956 ], [ -25.043204, 17.178442 ], [ -25.039365, 17.176663 ], [ -25.03339, 17.1756 ], [ -25.025948, 17.172036 ], [ -25.023259, 17.167266 ], [ -25.024588, 17.15992 ], [ -25.024935, 17.150529 ], [ -25.005265, 17.124462 ], [ -24.995932, 17.121842 ], [ -24.98365, 17.112848 ], [ -24.976973, 17.112707 ], [ -24.972422, 17.111166 ], [ -24.970473, 17.107986 ], [ -24.972559, 17.086205 ], [ -24.981262, 17.077615 ], [ -24.981212, 17.073952 ], [ -24.983055, 17.069119 ], [ -24.990616, 17.062104 ], [ -24.999481, 17.050349 ], [ -25.011311, 17.044006 ], [ -25.030727, 17.034811 ], [ -25.047501, 17.024276 ], [ -25.065539, 17.018991 ], [ -25.081938, 17.015787 ], [ -25.094239, 17.009435 ], [ -25.105078, 17.000582 ], [ -25.118199, 16.984827 ], [ -25.134356, 16.964905 ], [ -25.137898, 16.962565 ], [ -25.145026, 16.961319 ], [ -25.151665, 16.958935 ], [ -25.156858, 16.955657 ], [ -25.166343, 16.935827 ], [ -25.170283, 16.932141 ], [ -25.180156, 16.923706 ], [ -25.196566, 16.920123 ], [ -25.20508, 16.907934 ], [ -25.214589, 16.918081 ], [ -25.233204, 16.911622 ], [ -25.244451, 16.921435 ], [ -25.253325, 16.924154 ], [ -25.293624, 16.908625 ], [ -25.31604, 16.92614 ], [ -25.318982, 16.932141 ], [ -25.317924, 16.940064 ], [ -25.313794, 16.95066 ], [ -25.311309, 16.959858 ], [ -25.312569, 16.96442 ], [ -25.316448, 16.968946 ], [ -25.319139, 16.973716 ], [ -25.318386, 16.98701 ], [ -25.319813, 17.002792 ], [ -25.323556, 17.014189 ], [ -25.326985, 17.020323 ], [ -25.33322, 17.022979 ], [ -25.344422, 17.023044 ], [ -25.349766, 17.029835 ], [ -25.356382, 17.041877 ], [ -25.358728, 17.055124 ] ] ], [ [ [ -22.965021, 16.039912 ], [ -22.96321, 16.054833 ], [ -22.961124, 16.063332 ], [ -22.961255, 16.085351 ], [ -22.957492, 16.091567 ], [ -22.953003, 16.095495 ], [ -22.932362, 16.099523 ], [ -22.914848, 16.109727 ], [ -22.91015, 16.118928 ], [ -22.909781, 16.137278 ], [ -22.910554, 16.147594 ], [ -22.916332, 16.160861 ], [ -22.923542, 16.175262 ], [ -22.923582, 16.182143 ], [ -22.919332, 16.186526 ], [ -22.917703, 16.19227 ], [ -22.915342, 16.195035 ], [ -22.91562, 16.201914 ], [ -22.921585, 16.206005 ], [ -22.923039, 16.211039 ], [ -22.921886, 16.217239 ], [ -22.923349, 16.22365 ], [ -22.916231, 16.225071 ], [ -22.906701, 16.221004 ], [ -22.893594, 16.214433 ], [ -22.873072, 16.198736 ], [ -22.859361, 16.197143 ], [ -22.85619, 16.196775 ], [ -22.832198, 16.197607 ], [ -22.813936, 16.203447 ], [ -22.806115, 16.207392 ], [ -22.802103, 16.21246 ], [ -22.801169, 16.215217 ], [ -22.800982, 16.22485 ], [ -22.796129, 16.22732 ], [ -22.788373, 16.221942 ], [ -22.783831, 16.216924 ], [ -22.778126, 16.216498 ], [ -22.76816, 16.219077 ], [ -22.764823, 16.217261 ], [ -22.759328, 16.211331 ], [ -22.75169, 16.204724 ], [ -22.725315, 16.204415 ], [ -22.718151, 16.197574 ], [ -22.714361, 16.199659 ], [ -22.71289, 16.190723 ], [ -22.709779, 16.186383 ], [ -22.706879, 16.176538 ], [ -22.702307, 16.164866 ], [ -22.695125, 16.154129 ], [ -22.691074, 16.151627 ], [ -22.682032, 16.148466 ], [ -22.675797, 16.136574 ], [ -22.674328, 16.127638 ], [ -22.682168, 16.127825 ], [ -22.68287, 16.125528 ], [ -22.682292, 16.104889 ], [ -22.676089, 16.09919 ], [ -22.669431, 16.097849 ], [ -22.67153, 16.08981 ], [ -22.677096, 16.062257 ], [ -22.681794, 16.052139 ], [ -22.6884, 16.043388 ], [ -22.69598, 16.039447 ], [ -22.703328, 16.037112 ], [ -22.709241, 16.032263 ], [ -22.711597, 16.02858 ], [ -22.720363, 16.025091 ], [ -22.725339, 16.022415 ], [ -22.741912, 16.013501 ], [ -22.750765, 16.006626 ], [ -22.760123, 16.000093 ], [ -22.776493, 15.997707 ], [ -22.781074, 15.992362 ], [ -22.784987, 15.987795 ], [ -22.790639, 15.979043 ], [ -22.798159, 15.964778 ], [ -22.806502, 15.971153 ], [ -22.814945, 15.973818 ], [ -22.825272, 15.973795 ], [ -22.837367, 15.971658 ], [ -22.849947, 15.971583 ], [ -22.859361, 15.973861 ], [ -22.866588, 15.975611 ], [ -22.871555, 15.97214 ], [ -22.878674, 15.971637 ], [ -22.886754, 15.973423 ], [ -22.890848, 15.983262 ], [ -22.91031, 15.992362 ], [ -22.919414, 15.996619 ], [ -22.928927, 15.999541 ], [ -22.945581, 16.0054 ], [ -22.958474, 16.017474 ], [ -22.960602, 16.022415 ], [ -22.96281, 16.02754 ], [ -22.965021, 16.039912 ] ] ], [ [ [ -24.51716, 14.927153 ], [ -24.499014, 14.975362 ], [ -24.488165, 14.983942 ], [ -24.483933, 14.990856 ], [ -24.442664, 15.019063 ], [ -24.41982, 15.024627 ], [ -24.408944, 15.034909 ], [ -24.383451, 15.045395 ], [ -24.351019, 15.041227 ], [ -24.336958, 15.031043 ], [ -24.329066, 15.030677 ], [ -24.324237, 15.017426 ], [ -24.315161, 15.013421 ], [ -24.310001, 14.993323 ], [ -24.301946, 14.976426 ], [ -24.298809, 14.954105 ], [ -24.302081, 14.944972 ], [ -24.295267, 14.927663 ], [ -24.292474, 14.875674 ], [ -24.298189, 14.859571 ], [ -24.30875, 14.852677 ], [ -24.311768, 14.845118 ], [ -24.330286, 14.825631 ], [ -24.342599, 14.823308 ], [ -24.362876, 14.811396 ], [ -24.371377, 14.8131 ], [ -24.381118, 14.808259 ], [ -24.412132, 14.810172 ], [ -24.426921, 14.814602 ], [ -24.44864, 14.829909 ], [ -24.460732, 14.847072 ], [ -24.474043, 14.850571 ], [ -24.483933, 14.861806 ], [ -24.494193, 14.872097 ], [ -24.509562, 14.879778 ], [ -24.51716, 14.927153 ] ] ], [ [ [ -24.432152, 16.636698 ], [ -24.430281, 16.644362 ], [ -24.422789, 16.651484 ], [ -24.404853, 16.655934 ], [ -24.384234, 16.66662 ], [ -24.372124, 16.66469 ], [ -24.35582, 16.676924 ], [ -24.349112, 16.678443 ], [ -24.310609, 16.655552 ], [ -24.307063, 16.645443 ], [ -24.294256, 16.639938 ], [ -24.287404, 16.626539 ], [ -24.275865, 16.634987 ], [ -24.251632, 16.634893 ], [ -24.23141, 16.646045 ], [ -24.218262, 16.635474 ], [ -24.211273, 16.638932 ], [ -24.196256, 16.637656 ], [ -24.185025, 16.63167 ], [ -24.17998, 16.624764 ], [ -24.156447, 16.607535 ], [ -24.137582, 16.618937 ], [ -24.128185, 16.61424 ], [ -24.117246, 16.61804 ], [ -24.088553, 16.608006 ], [ -24.074, 16.606149 ], [ -24.055189, 16.597949 ], [ -24.049535, 16.585269 ], [ -24.023816, 16.577348 ], [ -24.020184, 16.567151 ], [ -24.026425, 16.55949 ], [ -24.025952, 16.55134 ], [ -24.031336, 16.54863 ], [ -24.047518, 16.547628 ], [ -24.063043, 16.555857 ], [ -24.079202, 16.547184 ], [ -24.099894, 16.553327 ], [ -24.118971, 16.549585 ], [ -24.131963, 16.560653 ], [ -24.154157, 16.57314 ], [ -24.17998, 16.58006 ], [ -24.190425, 16.586686 ], [ -24.214583, 16.586118 ], [ -24.227978, 16.590739 ], [ -24.240459, 16.591345 ], [ -24.249286, 16.585309 ], [ -24.255811, 16.576151 ], [ -24.270141, 16.576479 ], [ -24.277496, 16.565049 ], [ -24.286432, 16.559066 ], [ -24.291064, 16.540257 ], [ -24.313683, 16.503545 ], [ -24.315952, 16.495359 ], [ -24.313395, 16.483941 ], [ -24.319447, 16.483986 ], [ -24.322293, 16.479247 ], [ -24.327367, 16.483957 ], [ -24.332566, 16.481211 ], [ -24.336261, 16.485073 ], [ -24.332953, 16.493933 ], [ -24.33367, 16.503457 ], [ -24.356086, 16.532677 ], [ -24.359546, 16.544631 ], [ -24.36784, 16.552527 ], [ -24.366128, 16.563021 ], [ -24.3711, 16.573877 ], [ -24.378996, 16.581137 ], [ -24.400383, 16.582682 ], [ -24.426792, 16.601396 ], [ -24.431777, 16.608205 ], [ -24.432152, 16.636698 ] ] ], [ [ [ -23.130691, 15.303948 ], [ -23.128899, 15.302253 ], [ -23.120458, 15.29957 ], [ -23.119626, 15.284276 ], [ -23.113555, 15.267744 ], [ -23.119122, 15.262036 ], [ -23.11035, 15.24945 ], [ -23.111251, 15.237318 ], [ -23.106359, 15.231091 ], [ -23.107598, 15.205864 ], [ -23.100943, 15.183758 ], [ -23.103223, 15.173526 ], [ -23.100454, 15.168149 ], [ -23.112417, 15.158121 ], [ -23.124348, 15.138532 ], [ -23.14537, 15.133996 ], [ -23.165589, 15.113068 ], [ -23.176114, 15.111484 ], [ -23.19856, 15.11475 ], [ -23.232698, 15.136767 ], [ -23.244782, 15.140537 ], [ -23.252987, 15.162016 ], [ -23.240799, 15.196816 ], [ -23.244447, 15.21502 ], [ -23.228903, 15.229487 ], [ -23.232421, 15.25067 ], [ -23.244478, 15.251594 ], [ -23.244498, 15.259211 ], [ -23.240564, 15.270124 ], [ -23.228023, 15.275613 ], [ -23.213229, 15.294399 ], [ -23.211738, 15.301363 ], [ -23.21344, 15.303948 ], [ -23.216177, 15.308107 ], [ -23.201216, 15.308178 ], [ -23.200937, 15.312535 ], [ -23.205401, 15.31788 ], [ -23.195891, 15.328913 ], [ -23.193598, 15.318369 ], [ -23.189532, 15.314762 ], [ -23.183052, 15.316489 ], [ -23.17842, 15.325346 ], [ -23.174617, 15.326509 ], [ -23.171112, 15.322236 ], [ -23.173044, 15.311222 ], [ -23.170451, 15.307245 ], [ -23.159758, 15.303948 ], [ -23.154176, 15.302227 ], [ -23.149332, 15.303948 ], [ -23.14537, 15.305356 ], [ -23.135752, 15.308738 ], [ -23.130691, 15.303948 ] ] ], [ [ [ -25.096398, 16.823845 ], [ -25.092495, 16.83421 ], [ -25.09208, 16.838569 ], [ -25.093569, 16.842903 ], [ -25.090029, 16.845241 ], [ -25.084272, 16.859298 ], [ -25.068609, 16.863637 ], [ -25.065025, 16.862771 ], [ -25.067534, 16.871901 ], [ -25.065201, 16.875369 ], [ -25.056241, 16.882137 ], [ -25.048373, 16.881557 ], [ -25.045736, 16.880446 ], [ -25.039589, 16.883739 ], [ -25.031905, 16.879491 ], [ -25.028031, 16.87496 ], [ -25.024185, 16.872494 ], [ -25.016586, 16.874199 ], [ -25.007815, 16.877297 ], [ -25.003369, 16.879861 ], [ -25.000002, 16.883355 ], [ -25.000002, 16.90244 ], [ -24.996002, 16.901971 ], [ -24.995124, 16.907482 ], [ -24.992515, 16.908205 ], [ -24.971694, 16.919022 ], [ -24.968097, 16.917239 ], [ -24.971576, 16.910318 ], [ -24.966313, 16.908785 ], [ -24.967696, 16.90533 ], [ -24.96291, 16.903791 ], [ -24.953853, 16.903453 ], [ -24.948152, 16.904674 ], [ -24.943427, 16.907716 ], [ -24.941565, 16.910948 ], [ -24.942132, 16.917584 ], [ -24.937855, 16.918557 ], [ -24.935928, 16.916979 ], [ -24.9307, 16.917965 ], [ -24.928581, 16.919827 ], [ -24.922129, 16.918538 ], [ -24.91462, 16.909242 ], [ -24.910932, 16.900815 ], [ -24.912783, 16.896666 ], [ -24.918494, 16.896134 ], [ -24.919423, 16.894287 ], [ -24.916483, 16.88837 ], [ -24.918351, 16.885366 ], [ -24.923322, 16.88301 ], [ -24.92257, 16.880271 ], [ -24.91168, 16.867584 ], [ -24.896561, 16.859305 ], [ -24.887958, 16.857127 ], [ -24.875857, 16.860723 ], [ -24.871756, 16.856883 ], [ -24.869558, 16.852786 ], [ -24.874903, 16.842636 ], [ -24.874602, 16.837827 ], [ -24.871929, 16.833968 ], [ -24.868807, 16.831946 ], [ -24.870718, 16.814279 ], [ -24.872822, 16.811272 ], [ -24.883002, 16.806784 ], [ -24.895855, 16.806158 ], [ -24.905109, 16.803516 ], [ -24.91292, 16.799976 ], [ -24.921172, 16.793679 ], [ -24.928535, 16.792207 ], [ -24.940678, 16.792046 ], [ -24.956373, 16.790461 ], [ -24.968947, 16.786856 ], [ -24.980532, 16.780744 ], [ -24.984036, 16.775655 ], [ -24.984929, 16.771289 ], [ -24.990153, 16.770303 ], [ -24.998258, 16.770879 ], [ -25.00313, 16.778833 ], [ -25.010598, 16.785149 ], [ -25.020658, 16.789366 ], [ -25.02355, 16.791848 ], [ -25.029227, 16.789021 ], [ -25.035497, 16.794664 ], [ -25.041685, 16.794351 ], [ -25.044361, 16.798439 ], [ -25.049805, 16.796073 ], [ -25.052455, 16.798099 ], [ -25.052739, 16.801533 ], [ -25.055152, 16.803791 ], [ -25.0606, 16.801653 ], [ -25.066807, 16.802713 ], [ -25.075076, 16.814975 ], [ -25.075391, 16.820468 ], [ -25.077588, 16.824333 ], [ -25.082117, 16.824501 ], [ -25.093031, 16.8216 ], [ -25.096362, 16.821325 ], [ -25.096398, 16.823845 ] ] ], [ [ [ -22.994577, 16.799626 ], [ -22.99443, 16.814517 ], [ -22.986385, 16.823044 ], [ -22.968806, 16.830031 ], [ -22.962383, 16.830988 ], [ -22.959537, 16.832838 ], [ -22.952927, 16.842502 ], [ -22.949111, 16.841609 ], [ -22.943822, 16.833166 ], [ -22.936473, 16.83871 ], [ -22.926766, 16.848393 ], [ -22.918223, 16.853716 ], [ -22.913194, 16.848937 ], [ -22.911979, 16.84459 ], [ -22.913854, 16.839311 ], [ -22.909313, 16.836589 ], [ -22.90432, 16.837995 ], [ -22.90049, 16.834583 ], [ -22.895487, 16.834385 ], [ -22.889066, 16.835569 ], [ -22.888101, 16.833284 ], [ -22.889743, 16.829151 ], [ -22.894232, 16.82294 ], [ -22.898432, 16.808252 ], [ -22.906744, 16.804306 ], [ -22.9053, 16.801565 ], [ -22.901716, 16.799527 ], [ -22.893805, 16.790181 ], [ -22.890431, 16.783102 ], [ -22.892058, 16.776218 ], [ -22.88775, 16.772351 ], [ -22.885135, 16.773054 ], [ -22.882263, 16.770321 ], [ -22.88556, 16.764115 ], [ -22.885051, 16.758163 ], [ -22.897881, 16.75373 ], [ -22.898789, 16.746165 ], [ -22.895642, 16.737019 ], [ -22.895852, 16.732208 ], [ -22.89893, 16.729209 ], [ -22.895554, 16.721899 ], [ -22.89721, 16.719826 ], [ -22.894295, 16.709763 ], [ -22.891408, 16.704282 ], [ -22.883996, 16.698601 ], [ -22.878986, 16.696339 ], [ -22.880367, 16.688082 ], [ -22.880567, 16.681666 ], [ -22.876974, 16.677564 ], [ -22.870045, 16.672565 ], [ -22.878095, 16.665413 ], [ -22.885886, 16.654366 ], [ -22.887052, 16.650234 ], [ -22.887698, 16.638544 ], [ -22.892442, 16.635765 ], [ -22.896012, 16.635973 ], [ -22.898848, 16.632289 ], [ -22.899758, 16.62518 ], [ -22.898281, 16.61671 ], [ -22.889617, 16.599347 ], [ -22.886977, 16.595699 ], [ -22.886478, 16.591346 ], [ -22.890996, 16.591091 ], [ -22.897194, 16.593343 ], [ -22.906242, 16.594434 ], [ -22.909564, 16.593038 ], [ -22.915242, 16.587273 ], [ -22.92282, 16.581498 ], [ -22.925436, 16.58148 ], [ -22.927832, 16.584215 ], [ -22.929539, 16.591079 ], [ -22.928862, 16.597499 ], [ -22.929646, 16.609183 ], [ -22.932123, 16.625896 ], [ -22.934297, 16.63161 ], [ -22.940271, 16.635697 ], [ -22.948619, 16.638851 ], [ -22.950305, 16.642507 ], [ -22.943408, 16.643009 ], [ -22.947278, 16.653525 ], [ -22.943015, 16.656989 ], [ -22.937814, 16.662979 ], [ -22.938106, 16.671915 ], [ -22.941493, 16.681516 ], [ -22.947022, 16.690647 ], [ -22.953966, 16.697704 ], [ -22.96849, 16.69853 ], [ -22.973948, 16.695974 ], [ -22.977734, 16.692055 ], [ -22.982477, 16.689503 ], [ -22.987007, 16.690619 ], [ -22.989168, 16.693813 ], [ -22.990627, 16.698845 ], [ -22.988271, 16.702983 ], [ -22.977841, 16.709697 ], [ -22.980509, 16.717928 ], [ -22.986971, 16.723614 ], [ -22.98867, 16.72933 ], [ -22.984186, 16.735545 ], [ -22.984234, 16.743334 ], [ -22.979962, 16.745425 ], [ -22.975228, 16.750036 ], [ -22.97691, 16.752546 ], [ -22.983343, 16.753422 ], [ -22.988596, 16.755907 ], [ -22.990533, 16.761392 ], [ -22.98913, 16.765527 ], [ -22.98653, 16.76875 ], [ -22.990375, 16.774452 ], [ -22.991619, 16.783151 ], [ -22.991411, 16.78819 ], [ -22.994045, 16.790465 ], [ -22.994577, 16.799626 ] ] ], [ [ [ -24.762227, 14.837901 ], [ -24.760724, 14.839695 ], [ -24.756475, 14.840209 ], [ -24.753916, 14.843457 ], [ -24.755634, 14.848487 ], [ -24.759753, 14.856472 ], [ -24.759839, 14.86313 ], [ -24.755877, 14.867544 ], [ -24.747356, 14.866733 ], [ -24.745011, 14.868142 ], [ -24.746834, 14.881437 ], [ -24.744265, 14.883995 ], [ -24.736025, 14.886626 ], [ -24.734402, 14.889173 ], [ -24.731336, 14.889671 ], [ -24.724669, 14.885852 ], [ -24.721383, 14.88773 ], [ -24.706759, 14.890211 ], [ -24.703074, 14.898065 ], [ -24.700471, 14.897868 ], [ -24.698538, 14.894448 ], [ -24.691287, 14.897073 ], [ -24.690343, 14.89512 ], [ -24.692557, 14.888783 ], [ -24.686888, 14.889083 ], [ -24.685429, 14.885887 ], [ -24.689342, 14.877341 ], [ -24.687351, 14.86933 ], [ -24.682244, 14.857682 ], [ -24.678562, 14.846706 ], [ -24.678457, 14.838211 ], [ -24.68172, 14.834495 ], [ -24.677437, 14.832023 ], [ -24.679287, 14.828785 ], [ -24.679475, 14.824879 ], [ -24.677753, 14.819389 ], [ -24.680797, 14.817054 ], [ -24.688812, 14.815576 ], [ -24.69729, 14.813173 ], [ -24.702916, 14.809428 ], [ -24.709678, 14.802223 ], [ -24.712525, 14.803106 ], [ -24.715176, 14.807207 ], [ -24.725573, 14.807075 ], [ -24.735798, 14.812227 ], [ -24.73871, 14.818161 ], [ -24.741185, 14.827086 ], [ -24.758003, 14.830086 ], [ -24.761247, 14.833264 ], [ -24.762227, 14.837901 ] ] ], [ [ [ -24.799033, 16.777644 ], [ -24.797465, 16.781257 ], [ -24.794792, 16.793743 ], [ -24.788046, 16.796115 ], [ -24.784975, 16.800802 ], [ -24.782558, 16.800453 ], [ -24.776574, 16.79959 ], [ -24.756946, 16.790715 ], [ -24.75182, 16.77463 ], [ -24.739974, 16.766765 ], [ -24.729966, 16.749695 ], [ -24.720228, 16.746467 ], [ -24.708291, 16.753608 ], [ -24.699014, 16.755251 ], [ -24.690801, 16.75251 ], [ -24.689481, 16.747741 ], [ -24.697401, 16.738097 ], [ -24.708707, 16.736333 ], [ -24.713586, 16.732414 ], [ -24.719224, 16.734553 ], [ -24.725638, 16.730602 ], [ -24.749757, 16.730744 ], [ -24.75356, 16.73431 ], [ -24.756419, 16.747143 ], [ -24.779331, 16.760996 ], [ -24.782558, 16.761518 ], [ -24.792273, 16.763089 ], [ -24.797465, 16.772892 ], [ -24.799033, 16.777644 ] ] ], [ [ [ -24.613279, 16.614955 ], [ -24.613122, 16.621624 ], [ -24.610374, 16.625351 ], [ -24.60788, 16.622378 ], [ -24.601196, 16.626904 ], [ -24.589362, 16.630646 ], [ -24.583299, 16.622674 ], [ -24.587273, 16.61573 ], [ -24.5891, 16.609042 ], [ -24.588809, 16.604678 ], [ -24.596477, 16.607113 ], [ -24.608164, 16.606513 ], [ -24.609581, 16.605346 ], [ -24.613279, 16.614955 ] ] ], [ [ [ -24.694269, 16.663008 ], [ -24.692663, 16.667841 ], [ -24.689835, 16.669937 ], [ -24.686985, 16.670431 ], [ -24.685991, 16.667236 ], [ -24.68334, 16.664518 ], [ -24.675314, 16.661591 ], [ -24.670355, 16.653908 ], [ -24.667206, 16.649364 ], [ -24.666903, 16.644096 ], [ -24.668545, 16.642244 ], [ -24.673559, 16.643557 ], [ -24.679295, 16.645548 ], [ -24.681919, 16.645973 ], [ -24.684826, 16.650063 ], [ -24.691353, 16.658232 ], [ -24.694269, 16.663008 ] ] ], [ [ [ -24.711414, 14.960437 ], [ -24.709806, 14.964132 ], [ -24.707499, 14.968754 ], [ -24.703506, 14.971101 ], [ -24.696445, 14.973717 ], [ -24.694378, 14.97458 ], [ -24.691717, 14.974005 ], [ -24.692144, 14.970325 ], [ -24.694242, 14.967772 ], [ -24.696112, 14.965912 ], [ -24.697012, 14.962226 ], [ -24.698614, 14.958072 ], [ -24.701187, 14.955743 ], [ -24.704258, 14.955475 ], [ -24.708996, 14.956104 ], [ -24.711414, 14.960437 ] ] ], [ [ [ -22.94477, 16.168516 ], [ -22.942385, 16.17272 ], [ -22.938288, 16.172977 ], [ -22.932718, 16.168592 ], [ -22.927376, 16.161878 ], [ -22.926637, 16.159091 ], [ -22.933629, 16.159511 ], [ -22.937256, 16.161349 ], [ -22.94477, 16.168516 ] ] ], [ [ [ -24.65518, 14.964586 ], [ -24.652411, 14.970132 ], [ -24.648487, 14.974794 ], [ -24.647781, 14.978456 ], [ -24.645662, 14.979173 ], [ -24.643286, 14.978283 ], [ -24.641121, 14.975325 ], [ -24.640837, 14.971424 ], [ -24.642479, 14.970255 ], [ -24.64506, 14.968616 ], [ -24.647636, 14.966517 ], [ -24.64926, 14.96397 ], [ -24.652277, 14.95934 ], [ -24.654884, 14.959767 ], [ -24.65518, 14.964586 ] ] ] ] } }
]
}
