{
"type": "FeatureCollection",
"name": "Cayman Islands",
"crs": { "type": "name", "properties": { "name": "urn:ogc:def:crs:OGC:1.3:CRS84" } },
"features": [
{ "type": "Feature", "properties": { "id": "KY", "CNTR_ID": "KY", "CNTR_NAME": "Cayman Islands", "NAME_ENGL": "Cayman Islands", "ISO3_CODE": "CYM", "FID": "KY" }, "geometry": { "type": "MultiPolygon", "coordinates": [ [ [ [ -81.419727, 19.374892 ], [ -81.413669, 19.385993 ], [ -81.38859, 19.396387 ], [ -81.378268, 19.394449 ], [ -81.364824, 19.386197 ], [ -81.363263, 19.381774 ], [ -81.364824, 19.381034 ], [ -81.376618, 19.382711 ], [ -81.380837, 19.3768 ], [ -81.362237, 19.344864 ], [ -81.362501, 19.336565 ], [ -81.368807, 19.324331 ], [ -81.364824, 19.319465 ], [ -81.366366, 19.313809 ], [ -81.345378, 19.293332 ], [ -81.337682, 19.29725 ], [ -81.319871, 19.295178 ], [ -81.307351, 19.302578 ], [ -81.294391, 19.305639 ], [ -81.292561, 19.309348 ], [ -81.296624, 19.312137 ], [ -81.292414, 19.331378 ], [ -81.288697, 19.330445 ], [ -81.287887, 19.324156 ], [ -81.283902, 19.321681 ], [ -81.271519, 19.32571 ], [ -81.258898, 19.325546 ], [ -81.258533, 19.342323 ], [ -81.268782, 19.347314 ], [ -81.265305, 19.35773 ], [ -81.271554, 19.362548 ], [ -81.270272, 19.370474 ], [ -81.248599, 19.355844 ], [ -81.232987, 19.348963 ], [ -81.21051, 19.352598 ], [ -81.183968, 19.346537 ], [ -81.13097, 19.354911 ], [ -81.098943, 19.353302 ], [ -81.092173, 19.349284 ], [ -81.085458, 19.339608 ], [ -81.085068, 19.323876 ], [ -81.090117, 19.311306 ], [ -81.099694, 19.300606 ], [ -81.11432, 19.294271 ], [ -81.139205, 19.292483 ], [ -81.155331, 19.294309 ], [ -81.170104, 19.301312 ], [ -81.179004, 19.300927 ], [ -81.196893, 19.294774 ], [ -81.213983, 19.295595 ], [ -81.240337, 19.284707 ], [ -81.262968, 19.266427 ], [ -81.281062, 19.263113 ], [ -81.299814, 19.266227 ], [ -81.312736, 19.271868 ], [ -81.338063, 19.272456 ], [ -81.345186, 19.279261 ], [ -81.360607, 19.275331 ], [ -81.380048, 19.265809 ], [ -81.388842, 19.268142 ], [ -81.392691, 19.281212 ], [ -81.382946, 19.298034 ], [ -81.386668, 19.311072 ], [ -81.38199, 19.335386 ], [ -81.383629, 19.347603 ], [ -81.395003, 19.365054 ], [ -81.404274, 19.370031 ], [ -81.416519, 19.371262 ], [ -81.419727, 19.374892 ] ] ], [ [ [ -79.753701, 19.721992 ], [ -79.763639, 19.71844 ], [ -79.766878, 19.71842 ], [ -79.775694, 19.716001 ], [ -79.779922, 19.715571 ], [ -79.794135, 19.711433 ], [ -79.799173, 19.710496 ], [ -79.800962, 19.710163 ], [ -79.813847, 19.705146 ], [ -79.825302, 19.698948 ], [ -79.836586, 19.69521 ], [ -79.845313, 19.693111 ], [ -79.854508, 19.688543 ], [ -79.861975, 19.687753 ], [ -79.867123, 19.685884 ], [ -79.876119, 19.685924 ], [ -79.889243, 19.682756 ], [ -79.893631, 19.684555 ], [ -79.890272, 19.688633 ], [ -79.885385, 19.690512 ], [ -79.871391, 19.699998 ], [ -79.864614, 19.702657 ], [ -79.85078, 19.705745 ], [ -79.843313, 19.708294 ], [ -79.82865, 19.71767 ], [ -79.821013, 19.724337 ], [ -79.813847, 19.728525 ], [ -79.803481, 19.731074 ], [ -79.799173, 19.731736 ], [ -79.794505, 19.732453 ], [ -79.786289, 19.734722 ], [ -79.778842, 19.737941 ], [ -79.769896, 19.743168 ], [ -79.764859, 19.748466 ], [ -79.759561, 19.752334 ], [ -79.753701, 19.754255 ], [ -79.751844, 19.754863 ], [ -79.741949, 19.756752 ], [ -79.738091, 19.756752 ], [ -79.732413, 19.753984 ], [ -79.728275, 19.753834 ], [ -79.723017, 19.752134 ], [ -79.723787, 19.748296 ], [ -79.726446, 19.743538 ], [ -79.735902, 19.734592 ], [ -79.751505, 19.722778 ], [ -79.753701, 19.721992 ] ] ], [ [ [ -80.110678, 19.660574 ], [ -80.109895, 19.662689 ], [ -80.104466, 19.667026 ], [ -80.102434, 19.670429 ], [ -80.096697, 19.674585 ], [ -80.08962, 19.678114 ], [ -80.073623, 19.684185 ], [ -80.068636, 19.688512 ], [ -80.06712, 19.692248 ], [ -80.061339, 19.695577 ], [ -80.048981, 19.698851 ], [ -80.038886, 19.700852 ], [ -80.02339, 19.700825 ], [ -80.003239, 19.704764 ], [ -79.996973, 19.706451 ], [ -79.985506, 19.711599 ], [ -79.97676, 19.713349 ], [ -79.973906, 19.713192 ], [ -79.962848, 19.707724 ], [ -79.961874, 19.706151 ], [ -79.962593, 19.700819 ], [ -79.970357, 19.697024 ], [ -79.974201, 19.696999 ], [ -79.982229, 19.698627 ], [ -79.988847, 19.697979 ], [ -79.998349, 19.695644 ], [ -80.019731, 19.685913 ], [ -80.021727, 19.685901 ], [ -80.034104, 19.68014 ], [ -80.041898, 19.674383 ], [ -80.046233, 19.673157 ], [ -80.051634, 19.674784 ], [ -80.053238, 19.677099 ], [ -80.059862, 19.676182 ], [ -80.066508, 19.670486 ], [ -80.067492, 19.665914 ], [ -80.077208, 19.662196 ], [ -80.080749, 19.659183 ], [ -80.085209, 19.658225 ], [ -80.094033, 19.659726 ], [ -80.105923, 19.657729 ], [ -80.110678, 19.660574 ] ] ], [ [ [ -81.283869, 19.355787 ], [ -81.283239, 19.357307 ], [ -81.278941, 19.35663 ], [ -81.275022, 19.35819 ], [ -81.274324, 19.355909 ], [ -81.278488, 19.354428 ], [ -81.283869, 19.355787 ] ] ] ] } }
]
}
