{
"type": "FeatureCollection",
"name": "Central African Republic",
"crs": { "type": "name", "properties": { "name": "urn:ogc:def:crs:OGC:1.3:CRS84" } },
"features": [
{ "type": "Feature", "properties": { "id": "CF", "CNTR_ID": "CF", "CNTR_NAME": "République Centrafricaine-Ködörösêse Tî Bêafrîka", "NAME_ENGL": "Central African Republic", "ISO3_CODE": "CAF", "FID": "CF" }, "geometry": { "type": "MultiPolygon", "coordinates": [ [ [ [ 16.19199, 2.22051 ], [ 16.164928, 2.246693 ], [ 16.164448, 2.254228 ], [ 16.170762, 2.274211 ], [ 16.151231, 2.329375 ], [ 16.147927, 2.350485 ], [ 16.116965, 2.391457 ], [ 16.107633, 2.416316 ], [ 16.103604, 2.427046 ], [ 16.085224, 2.442914 ], [ 16.076476, 2.463847 ], [ 16.082984, 2.478498 ], [ 16.084643, 2.493246 ], [ 16.082132, 2.500435 ], [ 16.069336, 2.516833 ], [ 16.067552, 2.526673 ], [ 16.082219, 2.568758 ], [ 16.084649, 2.595486 ], [ 16.070543, 2.625623 ], [ 16.067737, 2.640189 ], [ 16.075856, 2.676914 ], [ 16.088782, 2.699885 ], [ 16.083024, 2.706469 ], [ 16.069055, 2.708211 ], [ 16.061647, 2.713213 ], [ 16.064635, 2.720707 ], [ 16.060744, 2.726542 ], [ 16.064827, 2.732539 ], [ 16.064379, 2.752851 ], [ 16.059566, 2.760382 ], [ 16.051374, 2.789401 ], [ 16.054467, 2.794483 ], [ 16.07293, 2.802599 ], [ 16.086381, 2.817967 ], [ 16.090073, 2.834912 ], [ 16.086901, 2.860233 ], [ 16.073209, 2.902143 ], [ 16.059696, 2.915974 ], [ 16.052482, 2.937257 ], [ 16.036176, 2.960664 ], [ 16.035389, 2.973168 ], [ 16.017826, 2.981714 ], [ 16.014503, 2.991017 ], [ 16.003967, 3.000355 ], [ 15.982767, 2.99969 ], [ 15.977355, 2.996382 ], [ 15.973588, 2.988804 ], [ 15.968172, 2.989045 ], [ 15.934872, 3.031077 ], [ 15.925652, 3.036991 ], [ 15.901624, 3.080347 ], [ 15.886957, 3.096623 ], [ 15.871803, 3.098184 ], [ 15.866159, 3.106356 ], [ 15.859073, 3.108582 ], [ 15.839999, 3.107214 ], [ 15.827628, 3.100673 ], [ 15.813557, 3.101443 ], [ 15.805648, 3.09464 ], [ 15.802202, 3.096316 ], [ 15.746323, 3.158691 ], [ 15.717049, 3.197287 ], [ 15.699486, 3.212729 ], [ 15.658523, 3.262627 ], [ 15.647507, 3.272455 ], [ 15.604206, 3.327219 ], [ 15.509353, 3.438097 ], [ 15.46395, 3.483063 ], [ 15.247593, 3.714475 ], [ 15.186594, 3.814613 ], [ 15.108157, 3.943359 ], [ 15.097504, 3.981244 ], [ 15.091162, 3.993995 ], [ 15.058739, 3.998125 ], [ 15.061674, 4.006294 ], [ 15.067842, 4.012477 ], [ 15.103414, 4.025506 ], [ 15.14461, 4.033333 ], [ 15.155011, 4.042647 ], [ 15.177856, 4.049675 ], [ 15.182546, 4.055169 ], [ 15.178914, 4.065527 ], [ 15.175443, 4.068006 ], [ 15.150024, 4.065966 ], [ 15.136972, 4.100904 ], [ 15.125571, 4.113244 ], [ 15.117419, 4.115932 ], [ 15.113432, 4.12087 ], [ 15.107331, 4.136291 ], [ 15.112954, 4.148725 ], [ 15.112076, 4.17202 ], [ 15.106775, 4.177707 ], [ 15.102855, 4.201927 ], [ 15.10517, 4.208818 ], [ 15.10718, 4.2148 ], [ 15.097419, 4.23236 ], [ 15.101082, 4.256304 ], [ 15.095714, 4.264512 ], [ 15.092984, 4.292007 ], [ 15.089515, 4.29934 ], [ 15.086639, 4.305418 ], [ 15.078745, 4.308847 ], [ 15.06793, 4.322079 ], [ 15.061773, 4.336178 ], [ 15.049234, 4.350321 ], [ 15.049894, 4.357598 ], [ 15.047156, 4.362591 ], [ 15.042855, 4.365103 ], [ 15.03668, 4.362361 ], [ 15.032589, 4.364609 ], [ 15.023226, 4.386514 ], [ 15.022304, 4.397002 ], [ 15.015244, 4.416496 ], [ 14.988646, 4.421896 ], [ 14.982451, 4.431207 ], [ 14.972448, 4.434751 ], [ 14.948979, 4.434644 ], [ 14.942458, 4.445282 ], [ 14.908317, 4.463179 ], [ 14.890634, 4.467429 ], [ 14.874367, 4.490365 ], [ 14.86163, 4.495901 ], [ 14.859644, 4.496764 ], [ 14.854717, 4.507506 ], [ 14.836285, 4.511244 ], [ 14.829729, 4.519657 ], [ 14.815306, 4.525521 ], [ 14.807416, 4.537898 ], [ 14.793135, 4.549268 ], [ 14.771515, 4.578036 ], [ 14.758331, 4.581894 ], [ 14.748254, 4.599115 ], [ 14.740563, 4.604287 ], [ 14.732921, 4.609425 ], [ 14.733494, 4.62354 ], [ 14.724403, 4.641656 ], [ 14.725066, 4.696908 ], [ 14.720721, 4.737555 ], [ 14.703758, 4.762971 ], [ 14.714774, 4.770828 ], [ 14.718541, 4.781596 ], [ 14.720909, 4.788364 ], [ 14.721161, 4.803876 ], [ 14.71424, 4.832266 ], [ 14.709233, 4.840769 ], [ 14.708148, 4.853508 ], [ 14.715646, 4.86468 ], [ 14.706866, 4.879987 ], [ 14.706036, 4.882471 ], [ 14.694811, 4.915835 ], [ 14.687208, 4.926649 ], [ 14.692015, 4.9404 ], [ 14.694802, 4.96206 ], [ 14.679488, 4.988673 ], [ 14.682327, 4.999247 ], [ 14.680695, 5.006861 ], [ 14.690678, 5.024065 ], [ 14.678456, 5.074422 ], [ 14.680691, 5.081625 ], [ 14.691065, 5.089171 ], [ 14.694678, 5.098303 ], [ 14.677322, 5.175039 ], [ 14.671634, 5.189437 ], [ 14.650614, 5.210752 ], [ 14.626262, 5.216763 ], [ 14.602129, 5.218146 ], [ 14.589788, 5.225064 ], [ 14.576045, 5.228304 ], [ 14.572547, 5.231337 ], [ 14.535136, 5.263784 ], [ 14.529416, 5.275929 ], [ 14.541132, 5.293143 ], [ 14.55169, 5.301048 ], [ 14.549874, 5.313029 ], [ 14.558483, 5.336527 ], [ 14.572547, 5.360537 ], [ 14.576862, 5.367904 ], [ 14.578362, 5.385312 ], [ 14.602662, 5.403516 ], [ 14.602195, 5.432327 ], [ 14.606802, 5.453844 ], [ 14.605747, 5.466557 ], [ 14.61451, 5.47669 ], [ 14.619726, 5.49365 ], [ 14.629698, 5.507294 ], [ 14.613562, 5.535134 ], [ 14.607729, 5.558809 ], [ 14.597995, 5.575837 ], [ 14.595455, 5.588613 ], [ 14.59655, 5.601631 ], [ 14.610253, 5.642292 ], [ 14.612586, 5.659951 ], [ 14.628328, 5.704228 ], [ 14.627181, 5.811989 ], [ 14.62038, 5.846407 ], [ 14.620944, 5.895137 ], [ 14.610583, 5.915101 ], [ 14.5994, 5.919898 ], [ 14.589678, 5.91789 ], [ 14.572547, 5.905488 ], [ 14.56531, 5.900248 ], [ 14.55396, 5.904097 ], [ 14.523054, 5.897927 ], [ 14.514089, 5.900811 ], [ 14.505781, 5.903483 ], [ 14.493741, 5.915738 ], [ 14.489176, 5.933464 ], [ 14.4777, 5.948547 ], [ 14.469097, 5.971304 ], [ 14.437047, 6.002399 ], [ 14.421027, 6.03983 ], [ 14.429538, 6.069527 ], [ 14.427633, 6.083757 ], [ 14.445304, 6.086329 ], [ 14.47042, 6.097269 ], [ 14.478252, 6.106855 ], [ 14.506409, 6.128969 ], [ 14.514089, 6.139469 ], [ 14.534989, 6.168044 ], [ 14.560573, 6.188605 ], [ 14.572547, 6.192141 ], [ 14.621874, 6.206706 ], [ 14.72125, 6.243369 ], [ 14.739104, 6.251721 ], [ 14.750792, 6.261874 ], [ 14.803786, 6.338814 ], [ 14.814045, 6.357615 ], [ 14.809493, 6.386466 ], [ 14.814356, 6.410317 ], [ 14.866837, 6.51572 ], [ 14.967738, 6.744466 ], [ 14.971589, 6.748626 ], [ 15.0044, 6.75667 ], [ 15.020308, 6.765541 ], [ 15.050148, 6.760873 ], [ 15.067477, 6.778461 ], [ 15.07122, 6.787793 ], [ 15.074762, 6.814671 ], [ 15.089728, 6.836828 ], [ 15.10176, 6.87243 ], [ 15.113675, 6.891461 ], [ 15.119879, 6.913104 ], [ 15.13345, 6.935996 ], [ 15.143401, 6.945163 ], [ 15.140055, 6.967702 ], [ 15.148568, 7.026765 ], [ 15.161711, 7.045527 ], [ 15.168916, 7.065665 ], [ 15.183374, 7.072327 ], [ 15.192088, 7.070008 ], [ 15.197106, 7.071965 ], [ 15.209101, 7.105196 ], [ 15.224161, 7.135458 ], [ 15.216232, 7.145607 ], [ 15.213728, 7.175662 ], [ 15.237439, 7.214283 ], [ 15.228279, 7.221576 ], [ 15.217671, 7.224691 ], [ 15.223137, 7.23107 ], [ 15.224971, 7.239257 ], [ 15.238862, 7.249811 ], [ 15.251205, 7.273466 ], [ 15.263095, 7.277909 ], [ 15.305082, 7.317992 ], [ 15.337068, 7.340111 ], [ 15.348562, 7.352067 ], [ 15.3612, 7.358617 ], [ 15.369701, 7.369178 ], [ 15.381526, 7.375893 ], [ 15.399148, 7.393636 ], [ 15.42742, 7.415034 ], [ 15.429846, 7.427506 ], [ 15.441984, 7.436489 ], [ 15.447324, 7.449975 ], [ 15.460274, 7.456742 ], [ 15.466102, 7.469646 ], [ 15.465761, 7.479351 ], [ 15.479768, 7.487887 ], [ 15.485361, 7.499224 ], [ 15.495967, 7.50563 ], [ 15.49676, 7.51529 ], [ 15.50748, 7.52747 ], [ 15.541813, 7.513478 ], [ 15.557136, 7.511078 ], [ 15.661128, 7.517447 ], [ 15.723904, 7.517927 ], [ 15.728089, 7.514455 ], [ 15.730295, 7.502376 ], [ 15.740014, 7.484703 ], [ 15.754849, 7.472918 ], [ 15.762489, 7.462535 ], [ 15.788158, 7.459647 ], [ 15.813366, 7.443384 ], [ 15.871824, 7.455678 ], [ 15.909499, 7.467511 ], [ 15.936214, 7.479437 ], [ 15.975275, 7.484907 ], [ 16.00549, 7.502883 ], [ 16.025077, 7.526022 ], [ 16.035765, 7.533401 ], [ 16.047321, 7.565525 ], [ 16.064156, 7.580351 ], [ 16.101003, 7.590572 ], [ 16.160583, 7.595746 ], [ 16.18, 7.610311 ], [ 16.189907, 7.614263 ], [ 16.240141, 7.60952 ], [ 16.285965, 7.63357 ], [ 16.304377, 7.65101 ], [ 16.355322, 7.665812 ], [ 16.375558, 7.667176 ], [ 16.391277, 7.672608 ], [ 16.406961, 7.687175 ], [ 16.426566, 7.71462 ], [ 16.417734, 7.732494 ], [ 16.423332, 7.748965 ], [ 16.415452, 7.768894 ], [ 16.437369, 7.80021 ], [ 16.452466, 7.800431 ], [ 16.461369, 7.786808 ], [ 16.487991, 7.792166 ], [ 16.49766, 7.80932 ], [ 16.51237, 7.82646 ], [ 16.520429, 7.843976 ], [ 16.543629, 7.854726 ], [ 16.557641, 7.856526 ], [ 16.567618, 7.868359 ], [ 16.591561, 7.875163 ], [ 16.595872, 7.868063 ], [ 16.587625, 7.851192 ], [ 16.585234, 7.836651 ], [ 16.597186, 7.802639 ], [ 16.59723, 7.769108 ], [ 16.612426, 7.759628 ], [ 16.634202, 7.759847 ], [ 16.665624, 7.73852 ], [ 16.669154, 7.729283 ], [ 16.665881, 7.706485 ], [ 16.669985, 7.667933 ], [ 16.690516, 7.651981 ], [ 16.728595, 7.646853 ], [ 16.739326, 7.633487 ], [ 16.772034, 7.608494 ], [ 16.791144, 7.58805 ], [ 16.796619, 7.576944 ], [ 16.798043, 7.561798 ], [ 16.808256, 7.550445 ], [ 16.815075, 7.537416 ], [ 16.823944, 7.532982 ], [ 16.844133, 7.531308 ], [ 16.865399, 7.538741 ], [ 16.870856, 7.550777 ], [ 16.876364, 7.555913 ], [ 16.883236, 7.556487 ], [ 16.895789, 7.552069 ], [ 16.906861, 7.559262 ], [ 16.906887, 7.56752 ], [ 16.89749, 7.577152 ], [ 16.903848, 7.593967 ], [ 16.899719, 7.608477 ], [ 16.90189, 7.614233 ], [ 16.924235, 7.60782 ], [ 16.930033, 7.622671 ], [ 16.955867, 7.634679 ], [ 16.975523, 7.629707 ], [ 16.986826, 7.634033 ], [ 17.037203, 7.635887 ], [ 17.048285, 7.65254 ], [ 17.066919, 7.65227 ], [ 17.088304, 7.660922 ], [ 17.090858, 7.668963 ], [ 17.088604, 7.685198 ], [ 17.093619, 7.690737 ], [ 17.113762, 7.686824 ], [ 17.125583, 7.66929 ], [ 17.132708, 7.664116 ], [ 17.143239, 7.662865 ], [ 17.157047, 7.666456 ], [ 17.171225, 7.688658 ], [ 17.168266, 7.703489 ], [ 17.216102, 7.726997 ], [ 17.219162, 7.743815 ], [ 17.230863, 7.76009 ], [ 17.240802, 7.760656 ], [ 17.255309, 7.747896 ], [ 17.262701, 7.749377 ], [ 17.268404, 7.762744 ], [ 17.266832, 7.783439 ], [ 17.280477, 7.792421 ], [ 17.28619, 7.802812 ], [ 17.300881, 7.808062 ], [ 17.308488, 7.825782 ], [ 17.315858, 7.827037 ], [ 17.332663, 7.82283 ], [ 17.34406, 7.838061 ], [ 17.357752, 7.841345 ], [ 17.36917, 7.848399 ], [ 17.390629, 7.849544 ], [ 17.40152, 7.845896 ], [ 17.408742, 7.863044 ], [ 17.420754, 7.86289 ], [ 17.422303, 7.873781 ], [ 17.431858, 7.875366 ], [ 17.439785, 7.86888 ], [ 17.445838, 7.868704 ], [ 17.451488, 7.881366 ], [ 17.470968, 7.892385 ], [ 17.51334, 7.871864 ], [ 17.52352, 7.887154 ], [ 17.536293, 7.891063 ], [ 17.540629, 7.907411 ], [ 17.548248, 7.919193 ], [ 17.55958, 7.920441 ], [ 17.571256, 7.911172 ], [ 17.597154, 7.930446 ], [ 17.616165, 7.929006 ], [ 17.631699, 7.942616 ], [ 17.648897, 7.948427 ], [ 17.656365, 7.959753 ], [ 17.660336, 7.973144 ], [ 17.673704, 7.981583 ], [ 17.691432, 7.980814 ], [ 17.704678, 7.972591 ], [ 17.717751, 7.977504 ], [ 17.734472, 7.977973 ], [ 17.925162, 7.959619 ], [ 17.947804, 7.965006 ], [ 17.989915, 7.988771 ], [ 18.005604, 7.99027 ], [ 18.040983, 8.009794 ], [ 18.265239, 8.021269 ], [ 18.331306, 8.028525 ], [ 18.387426, 8.032344 ], [ 18.591799, 8.046251 ], [ 18.614304, 8.052206 ], [ 18.622038, 8.059124 ], [ 18.626059, 8.073877 ], [ 18.635208, 8.089648 ], [ 18.629486, 8.128187 ], [ 18.630103, 8.142849 ], [ 18.652442, 8.177154 ], [ 18.663917, 8.201192 ], [ 18.68866, 8.220721 ], [ 18.704684, 8.228706 ], [ 18.773883, 8.247791 ], [ 18.799457, 8.259367 ], [ 18.837268, 8.290258 ], [ 18.849699, 8.305415 ], [ 18.854271, 8.316304 ], [ 18.853884, 8.344018 ], [ 18.872783, 8.343916 ], [ 18.887625, 8.36395 ], [ 18.901481, 8.369625 ], [ 18.911404, 8.385037 ], [ 18.923922, 8.395546 ], [ 18.920301, 8.408039 ], [ 18.922168, 8.418987 ], [ 18.936111, 8.439717 ], [ 18.952557, 8.455213 ], [ 18.968472, 8.465403 ], [ 18.974959, 8.481036 ], [ 18.992699, 8.496527 ], [ 18.993831, 8.513241 ], [ 19.028666, 8.534527 ], [ 19.042241, 8.559773 ], [ 19.047566, 8.596585 ], [ 19.061517, 8.616424 ], [ 19.067809, 8.635982 ], [ 19.119006, 8.671711 ], [ 19.101047, 8.699346 ], [ 19.082235, 8.709636 ], [ 19.058902, 8.717037 ], [ 19.04523, 8.725517 ], [ 19.032477, 8.737946 ], [ 19.01744, 8.761318 ], [ 18.965139, 8.785892 ], [ 18.949029, 8.808911 ], [ 18.938768, 8.809944 ], [ 18.923182, 8.803037 ], [ 18.913375, 8.806413 ], [ 18.90779, 8.816573 ], [ 18.905681, 8.841269 ], [ 18.902058, 8.847595 ], [ 18.890708, 8.849883 ], [ 18.87619, 8.843075 ], [ 18.866406, 8.851115 ], [ 18.867971, 8.871706 ], [ 18.887868, 8.88736 ], [ 18.891394, 8.898416 ], [ 18.905896, 8.901729 ], [ 18.925847, 8.925593 ], [ 18.962377, 8.931642 ], [ 18.975513, 8.94443 ], [ 18.984082, 8.967071 ], [ 18.990028, 8.974907 ], [ 19.009447, 8.980051 ], [ 19.026909, 8.99491 ], [ 19.058872, 8.997871 ], [ 19.072621, 9.004995 ], [ 19.080388, 9.014411 ], [ 19.088963, 9.018177 ], [ 19.09584, 9.017165 ], [ 19.107948, 9.008926 ], [ 19.134614, 9.005972 ], [ 19.16466, 9.01586 ], [ 19.176424, 9.02264 ], [ 19.193597, 9.022911 ], [ 19.218277, 9.029581 ], [ 19.250272, 9.025237 ], [ 19.27527, 9.012748 ], [ 19.304869, 9.008806 ], [ 19.336178, 9.018385 ], [ 19.369298, 9.014445 ], [ 19.391093, 9.018199 ], [ 19.405417, 9.025243 ], [ 19.437493, 9.029013 ], [ 19.453708, 9.025316 ], [ 19.464357, 9.018158 ], [ 19.480875, 9.016186 ], [ 19.49315, 9.020429 ], [ 19.499766, 9.029869 ], [ 19.504769, 9.032146 ], [ 19.510969, 9.02936 ], [ 19.517549, 9.019806 ], [ 19.525936, 9.017837 ], [ 19.538965, 9.021814 ], [ 19.557239, 9.035004 ], [ 19.572346, 9.038195 ], [ 19.604375, 9.020574 ], [ 19.62939, 9.019207 ], [ 19.650525, 9.023138 ], [ 19.668327, 9.021798 ], [ 19.684396, 9.02793 ], [ 19.702175, 9.029607 ], [ 19.723603, 9.04338 ], [ 19.740556, 9.046628 ], [ 19.759682, 9.049875 ], [ 19.778367, 9.05758 ], [ 19.802219, 9.057077 ], [ 19.820358, 9.061855 ], [ 19.830396, 9.048805 ], [ 19.838009, 9.045022 ], [ 19.866028, 9.063897 ], [ 19.888512, 9.062093 ], [ 19.90685, 9.066853 ], [ 19.925195, 9.063166 ], [ 19.933931, 9.080374 ], [ 19.939807, 9.08602 ], [ 19.981385, 9.093611 ], [ 19.997626, 9.112733 ], [ 20.007541, 9.106803 ], [ 20.014335, 9.124792 ], [ 20.03462, 9.129045 ], [ 20.051448, 9.1408 ], [ 20.05842, 9.140337 ], [ 20.071644, 9.133769 ], [ 20.079813, 9.134241 ], [ 20.102396, 9.154432 ], [ 20.118128, 9.143212 ], [ 20.135318, 9.138497 ], [ 20.185572, 9.139002 ], [ 20.206885, 9.149402 ], [ 20.221638, 9.15067 ], [ 20.237302, 9.145104 ], [ 20.248414, 9.132913 ], [ 20.261366, 9.12568 ], [ 20.300606, 9.121944 ], [ 20.320678, 9.124929 ], [ 20.324787, 9.126906 ], [ 20.33445, 9.131557 ], [ 20.353775, 9.12941 ], [ 20.392874, 9.149745 ], [ 20.4326, 9.154717 ], [ 20.442173, 9.159338 ], [ 20.455726, 9.174845 ], [ 20.470705, 9.220965 ], [ 20.495568, 9.268101 ], [ 20.494474, 9.301261 ], [ 20.498289, 9.305136 ], [ 20.511117, 9.304363 ], [ 20.522638, 9.308615 ], [ 20.526388, 9.316343 ], [ 20.526004, 9.329776 ], [ 20.528553, 9.334577 ], [ 20.549051, 9.335673 ], [ 20.564228, 9.3314 ], [ 20.580191, 9.340368 ], [ 20.604195, 9.318289 ], [ 20.634302, 9.318638 ], [ 20.637, 9.324043 ], [ 20.628032, 9.330101 ], [ 20.626266, 9.336174 ], [ 20.647769, 9.345066 ], [ 20.653504, 9.370225 ], [ 20.666736, 9.396223 ], [ 20.687883, 9.398618 ], [ 20.703168, 9.396552 ], [ 20.715817, 9.401077 ], [ 20.729583, 9.397951 ], [ 20.741552, 9.401185 ], [ 20.757529, 9.401187 ], [ 20.76738, 9.410025 ], [ 20.76991, 9.426341 ], [ 20.797936, 9.441935 ], [ 20.805217, 9.440609 ], [ 20.81664, 9.430559 ], [ 20.824607, 9.431614 ], [ 20.82867, 9.464055 ], [ 20.843334, 9.48178 ], [ 20.8633, 9.486685 ], [ 20.865598, 9.499546 ], [ 20.873991, 9.512319 ], [ 20.876645, 9.522194 ], [ 20.898824, 9.527412 ], [ 20.91699, 9.528396 ], [ 20.9202, 9.532886 ], [ 20.920316, 9.545685 ], [ 20.927455, 9.567991 ], [ 20.934231, 9.570173 ], [ 20.944743, 9.565895 ], [ 20.950821, 9.569717 ], [ 20.954566, 9.585613 ], [ 20.951293, 9.608941 ], [ 20.952825, 9.614911 ], [ 20.960531, 9.618587 ], [ 20.978949, 9.618464 ], [ 20.988052, 9.624313 ], [ 20.986612, 9.632073 ], [ 20.973456, 9.636521 ], [ 20.969654, 9.642324 ], [ 20.973613, 9.646255 ], [ 20.986991, 9.644997 ], [ 20.992972, 9.647887 ], [ 20.992863, 9.652975 ], [ 20.983044, 9.663361 ], [ 20.995684, 9.685618 ], [ 20.987797, 9.692937 ], [ 20.97306, 9.697275 ], [ 20.970167, 9.701638 ], [ 20.972673, 9.70422 ], [ 20.984701, 9.702016 ], [ 21.001458, 9.705501 ], [ 21.000749, 9.714318 ], [ 20.993345, 9.730292 ], [ 20.995047, 9.742551 ], [ 21.012435, 9.732339 ], [ 21.031081, 9.730446 ], [ 21.036881, 9.738978 ], [ 21.025291, 9.761196 ], [ 21.029478, 9.771828 ], [ 21.041888, 9.77483 ], [ 21.062294, 9.767579 ], [ 21.074678, 9.776986 ], [ 21.092937, 9.778023 ], [ 21.108407, 9.786759 ], [ 21.116092, 9.797794 ], [ 21.121557, 9.828848 ], [ 21.131436, 9.84496 ], [ 21.179513, 9.887475 ], [ 21.198998, 9.89725 ], [ 21.203482, 9.908537 ], [ 21.202479, 9.926575 ], [ 21.210896, 9.936901 ], [ 21.214117, 9.947413 ], [ 21.239421, 9.963507 ], [ 21.255623, 9.989429 ], [ 21.264394, 9.992069 ], [ 21.277232, 9.987551 ], [ 21.298184, 9.970634 ], [ 21.303817, 9.973547 ], [ 21.31173, 9.986856 ], [ 21.322161, 9.973486 ], [ 21.336606, 9.966593 ], [ 21.351568, 9.969668 ], [ 21.361416, 9.98534 ], [ 21.375468, 9.98598 ], [ 21.391179, 9.999322 ], [ 21.402447, 10.019673 ], [ 21.404227, 10.032945 ], [ 21.409264, 10.041482 ], [ 21.418206, 10.048224 ], [ 21.43292, 10.052535 ], [ 21.441359, 10.077901 ], [ 21.453642, 10.088 ], [ 21.451369, 10.122464 ], [ 21.467168, 10.13541 ], [ 21.470894, 10.152865 ], [ 21.487214, 10.166287 ], [ 21.494693, 10.184602 ], [ 21.509414, 10.191433 ], [ 21.522183, 10.213275 ], [ 21.530227, 10.221121 ], [ 21.543936, 10.225513 ], [ 21.560094, 10.212168 ], [ 21.590086, 10.213013 ], [ 21.608979, 10.218284 ], [ 21.623741, 10.229753 ], [ 21.637739, 10.228203 ], [ 21.650439, 10.232805 ], [ 21.668711, 10.233403 ], [ 21.672302, 10.235871 ], [ 21.672775, 10.240748 ], [ 21.663782, 10.253546 ], [ 21.678733, 10.262885 ], [ 21.677579, 10.275827 ], [ 21.706007, 10.278232 ], [ 21.725888, 10.299954 ], [ 21.735318, 10.31996 ], [ 21.725479, 10.33975 ], [ 21.725235, 10.349481 ], [ 21.729303, 10.354858 ], [ 21.739569, 10.357469 ], [ 21.744567, 10.381771 ], [ 21.764297, 10.402173 ], [ 21.769622, 10.412405 ], [ 21.768086, 10.41692 ], [ 21.756501, 10.424884 ], [ 21.757408, 10.442774 ], [ 21.750699, 10.461601 ], [ 21.731963, 10.48037 ], [ 21.718772, 10.509237 ], [ 21.721275, 10.525976 ], [ 21.729311, 10.540328 ], [ 21.7322, 10.552914 ], [ 21.727761, 10.594387 ], [ 21.732828, 10.613653 ], [ 21.734228, 10.650019 ], [ 21.739946, 10.653843 ], [ 21.750781, 10.645241 ], [ 21.759203, 10.644174 ], [ 21.77828, 10.658173 ], [ 21.786804, 10.669404 ], [ 21.788471, 10.690904 ], [ 21.784599, 10.705524 ], [ 21.78888, 10.732167 ], [ 21.785268, 10.752965 ], [ 21.789921, 10.775975 ], [ 21.79031, 10.794032 ], [ 21.812692, 10.810878 ], [ 21.830118, 10.835796 ], [ 21.840364, 10.839548 ], [ 21.847398, 10.846101 ], [ 21.865352, 10.8486 ], [ 21.882747, 10.868817 ], [ 21.901296, 10.864464 ], [ 21.917414, 10.871166 ], [ 21.931169, 10.857098 ], [ 21.938489, 10.85438 ], [ 21.944592, 10.865277 ], [ 21.957428, 10.859118 ], [ 21.961698, 10.861518 ], [ 21.964896, 10.868696 ], [ 21.979639, 10.865099 ], [ 22.018008, 10.884386 ], [ 22.039933, 10.884472 ], [ 22.074862, 10.894726 ], [ 22.085226, 10.892622 ], [ 22.104958, 10.881803 ], [ 22.154743, 10.877912 ], [ 22.173111, 10.884691 ], [ 22.184009, 10.899891 ], [ 22.197478, 10.90846 ], [ 22.224949, 10.914175 ], [ 22.246311, 10.924572 ], [ 22.266509, 10.924242 ], [ 22.285262, 10.9302 ], [ 22.327896, 10.954995 ], [ 22.36479, 10.958223 ], [ 22.376444, 10.966442 ], [ 22.386802, 10.96404 ], [ 22.403468, 10.970191 ], [ 22.423645, 10.971881 ], [ 22.442018, 10.986533 ], [ 22.457593, 10.989558 ], [ 22.473127, 10.999167 ], [ 22.492343, 10.998335 ], [ 22.511178, 11.007022 ], [ 22.524153, 11.005868 ], [ 22.568902, 10.985042 ], [ 22.6113, 10.996391 ], [ 22.656044, 10.980059 ], [ 22.682308, 10.979743 ], [ 22.708625, 10.972092 ], [ 22.735375, 10.973562 ], [ 22.753451, 10.963506 ], [ 22.761343, 10.950561 ], [ 22.768295, 10.945309 ], [ 22.817744, 10.934732 ], [ 22.857783, 10.932362 ], [ 22.87551, 10.931367 ], [ 22.874179, 10.922182 ], [ 22.878637, 10.911409 ], [ 22.90955, 10.885847 ], [ 22.92263, 10.850175 ], [ 22.936143, 10.825278 ], [ 22.969529, 10.775744 ], [ 22.985618, 10.761678 ], [ 23.007282, 10.709642 ], [ 23.04068, 10.695632 ], [ 23.057128, 10.685996 ], [ 23.087298, 10.661863 ], [ 23.115601, 10.648385 ], [ 23.132355, 10.628507 ], [ 23.151239, 10.593904 ], [ 23.172168, 10.582738 ], [ 23.182543, 10.574801 ], [ 23.195968, 10.558336 ], [ 23.232646, 10.535416 ], [ 23.270711, 10.49237 ], [ 23.318504, 10.463797 ], [ 23.466922, 10.227175 ], [ 23.671331, 9.901 ], [ 23.698658, 9.678569 ], [ 23.63144, 9.561083 ], [ 23.626133, 9.546775 ], [ 23.629731, 9.542492 ], [ 23.639392, 9.543584 ], [ 23.646542, 9.53799 ], [ 23.632139, 9.491463 ], [ 23.631894, 9.480312 ], [ 23.639795, 9.450236 ], [ 23.661849, 9.461481 ], [ 23.671427, 9.448809 ], [ 23.669473, 9.434288 ], [ 23.659385, 9.409654 ], [ 23.649036, 9.400828 ], [ 23.647113, 9.384921 ], [ 23.638694, 9.375714 ], [ 23.638464, 9.322808 ], [ 23.651939, 9.295461 ], [ 23.658756, 9.289554 ], [ 23.640065, 9.253038 ], [ 23.613932, 9.249048 ], [ 23.608644, 9.224865 ], [ 23.596563, 9.219901 ], [ 23.592928, 9.209329 ], [ 23.571609, 9.210767 ], [ 23.552677, 9.205377 ], [ 23.530585, 9.179284 ], [ 23.482104, 9.172328 ], [ 23.466922, 9.105702 ], [ 23.46221, 9.085023 ], [ 23.466129, 9.050546 ], [ 23.4605, 9.025775 ], [ 23.459588, 9.001 ], [ 23.452342, 8.979062 ], [ 23.466922, 8.971505 ], [ 23.504748, 8.9519 ], [ 23.511343, 8.950224 ], [ 23.53932, 8.95744 ], [ 23.549604, 8.985564 ], [ 23.552403, 9.003546 ], [ 23.568391, 9.029538 ], [ 23.57714, 9.033689 ], [ 23.582831, 9.024984 ], [ 23.58876, 8.97298 ], [ 23.525056, 8.845065 ], [ 23.49849, 8.808974 ], [ 23.506796, 8.777731 ], [ 23.519945, 8.755314 ], [ 23.522933, 8.740875 ], [ 23.523154, 8.734593 ], [ 23.514166, 8.714127 ], [ 23.517929, 8.704602 ], [ 23.527686, 8.698478 ], [ 23.545863, 8.700957 ], [ 23.592548, 8.738736 ], [ 23.625267, 8.754113 ], [ 23.677323, 8.725733 ], [ 23.714707, 8.727648 ], [ 23.733577, 8.713715 ], [ 23.776715, 8.707192 ], [ 23.854507, 8.729311 ], [ 23.871173, 8.718706 ], [ 23.906971, 8.72013 ], [ 23.925816, 8.71721 ], [ 23.948557, 8.713687 ], [ 23.96557, 8.697542 ], [ 23.964549, 8.655117 ], [ 23.968967, 8.639857 ], [ 23.972096, 8.637819 ], [ 23.984492, 8.639783 ], [ 24.00141, 8.665953 ], [ 24.013145, 8.669485 ], [ 24.052805, 8.693543 ], [ 24.11483, 8.690393 ], [ 24.142259, 8.682198 ], [ 24.166207, 8.702025 ], [ 24.197936, 8.68575 ], [ 24.230096, 8.699419 ], [ 24.254814, 8.697829 ], [ 24.263973, 8.690816 ], [ 24.263066, 8.681386 ], [ 24.239323, 8.661794 ], [ 24.223359, 8.642151 ], [ 24.230705, 8.622011 ], [ 24.254393, 8.593107 ], [ 24.255714, 8.577567 ], [ 24.232632, 8.563714 ], [ 24.215918, 8.534309 ], [ 24.203001, 8.50025 ], [ 24.182673, 8.488052 ], [ 24.17051, 8.486497 ], [ 24.163394, 8.480746 ], [ 24.170468, 8.458422 ], [ 24.164521, 8.444644 ], [ 24.165972, 8.424712 ], [ 24.151308, 8.396795 ], [ 24.155694, 8.370837 ], [ 24.171168, 8.353729 ], [ 24.18079, 8.334736 ], [ 24.194982, 8.320402 ], [ 24.203811, 8.305166 ], [ 24.229686, 8.290461 ], [ 24.2529, 8.28474 ], [ 24.287339, 8.271072 ], [ 24.341019, 8.261992 ], [ 24.360201, 8.251719 ], [ 24.383613, 8.260001 ], [ 24.397917, 8.271463 ], [ 24.415711, 8.276548 ], [ 24.480371, 8.283388 ], [ 24.486218, 8.256491 ], [ 24.495296, 8.235998 ], [ 24.499071, 8.234599 ], [ 24.515596, 8.228479 ], [ 24.538602, 8.209186 ], [ 24.550052, 8.211208 ], [ 24.560694, 8.202444 ], [ 24.593661, 8.214651 ], [ 24.644606, 8.221322 ], [ 24.683553, 8.208019 ], [ 24.728732, 8.208635 ], [ 24.748951, 8.184083 ], [ 24.751365, 8.169527 ], [ 24.770541, 8.184751 ], [ 24.790003, 8.182511 ], [ 24.80064, 8.175051 ], [ 24.832756, 8.169196 ], [ 24.859137, 8.173087 ], [ 24.888562, 8.119082 ], [ 24.901557, 8.051761 ], [ 24.92378, 8.039614 ], [ 24.94161, 8.035905 ], [ 24.9617, 8.008656 ], [ 24.968403, 7.981678 ], [ 24.97895, 7.95889 ], [ 25.005873, 7.96389 ], [ 25.035984, 7.948279 ], [ 25.085185, 7.895595 ], [ 25.169167, 7.913262 ], [ 25.178686, 7.905374 ], [ 25.193425, 7.89316 ], [ 25.200855, 7.882139 ], [ 25.207877, 7.879328 ], [ 25.218714, 7.880261 ], [ 25.224307, 7.868195 ], [ 25.23756, 7.853888 ], [ 25.254563, 7.810311 ], [ 25.266965, 7.796882 ], [ 25.283121, 7.794174 ], [ 25.285028, 7.7603 ], [ 25.278657, 7.738182 ], [ 25.280199, 7.708594 ], [ 25.295309, 7.678899 ], [ 25.286816, 7.656942 ], [ 25.264297, 7.640768 ], [ 25.229399, 7.630663 ], [ 25.195282, 7.605535 ], [ 25.178686, 7.590089 ], [ 25.167247, 7.579444 ], [ 25.178686, 7.571417 ], [ 25.180467, 7.570167 ], [ 25.182237, 7.557321 ], [ 25.192848, 7.545704 ], [ 25.195511, 7.535238 ], [ 25.186477, 7.528269 ], [ 25.202905, 7.493291 ], [ 25.230573, 7.484543 ], [ 25.253739, 7.48229 ], [ 25.280525, 7.472097 ], [ 25.289559, 7.452859 ], [ 25.30987, 7.431139 ], [ 25.333019, 7.426839 ], [ 25.335847, 7.413442 ], [ 25.330741, 7.402317 ], [ 25.343404, 7.392976 ], [ 25.345434, 7.374401 ], [ 25.358114, 7.346848 ], [ 25.389874, 7.329949 ], [ 25.393058, 7.333046 ], [ 25.394729, 7.334671 ], [ 25.397697, 7.347164 ], [ 25.409671, 7.34283 ], [ 25.435096, 7.314111 ], [ 25.448974, 7.306205 ], [ 25.499416, 7.30483 ], [ 25.510463, 7.291354 ], [ 25.536426, 7.279612 ], [ 25.5496, 7.258274 ], [ 25.566454, 7.259768 ], [ 25.574693, 7.241512 ], [ 25.580137, 7.239823 ], [ 25.588921, 7.242192 ], [ 25.62001, 7.219621 ], [ 25.64302, 7.217738 ], [ 25.662255, 7.201001 ], [ 25.676876, 7.19428 ], [ 25.695838, 7.195372 ], [ 25.716075, 7.184136 ], [ 25.755221, 7.175707 ], [ 25.787715, 7.151864 ], [ 25.801044, 7.15258 ], [ 25.821842, 7.153699 ], [ 25.83052, 7.145627 ], [ 25.822737, 7.132632 ], [ 25.82585, 7.119685 ], [ 25.838478, 7.108189 ], [ 25.857151, 7.105548 ], [ 25.864665, 7.100121 ], [ 25.857036, 7.092649 ], [ 25.863987, 7.083273 ], [ 25.869483, 7.081201 ], [ 25.880924, 7.087293 ], [ 25.89776, 7.091384 ], [ 25.905616, 7.083387 ], [ 25.901491, 7.074913 ], [ 25.902408, 7.069137 ], [ 25.932037, 7.063337 ], [ 25.936669, 7.04627 ], [ 25.941421, 7.041276 ], [ 25.961364, 7.035811 ], [ 25.971202, 7.041485 ], [ 25.981518, 7.039974 ], [ 25.988452, 7.018491 ], [ 25.999019, 7.00909 ], [ 26.038828, 7.004224 ], [ 26.044954, 6.99642 ], [ 26.047679, 6.984408 ], [ 26.045116, 6.977437 ], [ 26.037825, 6.971807 ], [ 26.04779, 6.947478 ], [ 26.037418, 6.927464 ], [ 26.055127, 6.922041 ], [ 26.062046, 6.90204 ], [ 26.084383, 6.898936 ], [ 26.070926, 6.830485 ], [ 26.095713, 6.824524 ], [ 26.109598, 6.811699 ], [ 26.117754, 6.812623 ], [ 26.131962, 6.81987 ], [ 26.152691, 6.818894 ], [ 26.171806, 6.811503 ], [ 26.176815, 6.801688 ], [ 26.174521, 6.792921 ], [ 26.185878, 6.775943 ], [ 26.192247, 6.766421 ], [ 26.206181, 6.759303 ], [ 26.208514, 6.747591 ], [ 26.257536, 6.738687 ], [ 26.260302, 6.732055 ], [ 26.255932, 6.714398 ], [ 26.26157, 6.707419 ], [ 26.275298, 6.700789 ], [ 26.302926, 6.707274 ], [ 26.320569, 6.704266 ], [ 26.338817, 6.693347 ], [ 26.360921, 6.694112 ], [ 26.364604, 6.684826 ], [ 26.411704, 6.653033 ], [ 26.411055, 6.635709 ], [ 26.402505, 6.622851 ], [ 26.385951, 6.606365 ], [ 26.394478, 6.589757 ], [ 26.379001, 6.581772 ], [ 26.354866, 6.582691 ], [ 26.34974, 6.544045 ], [ 26.337221, 6.540292 ], [ 26.329846, 6.534536 ], [ 26.329346, 6.517401 ], [ 26.320935, 6.509201 ], [ 26.322047, 6.499651 ], [ 26.298632, 6.486582 ], [ 26.290237, 6.476606 ], [ 26.285466, 6.461405 ], [ 26.286716, 6.459083 ], [ 26.30092, 6.45714 ], [ 26.304393, 6.445825 ], [ 26.314436, 6.433715 ], [ 26.311193, 6.419022 ], [ 26.297376, 6.407188 ], [ 26.307794, 6.382363 ], [ 26.33671, 6.380973 ], [ 26.349972, 6.36584 ], [ 26.352141, 6.356577 ], [ 26.360468, 6.346914 ], [ 26.363196, 6.336209 ], [ 26.378472, 6.327662 ], [ 26.393716, 6.305267 ], [ 26.436272, 6.305522 ], [ 26.47942, 6.275948 ], [ 26.484245, 6.267717 ], [ 26.472819, 6.23985 ], [ 26.476014, 6.217715 ], [ 26.489032, 6.219954 ], [ 26.501695, 6.216711 ], [ 26.517347, 6.234612 ], [ 26.532886, 6.232235 ], [ 26.533316, 6.197396 ], [ 26.527368, 6.176934 ], [ 26.518496, 6.160914 ], [ 26.492501, 6.145134 ], [ 26.458268, 6.11286 ], [ 26.444241, 6.084815 ], [ 26.451235, 6.071969 ], [ 26.457973, 6.074794 ], [ 26.483893, 6.101092 ], [ 26.516226, 6.113821 ], [ 26.530902, 6.101543 ], [ 26.531834, 6.087089 ], [ 26.539954, 6.076861 ], [ 26.53853, 6.065454 ], [ 26.544425, 6.05997 ], [ 26.553246, 6.058721 ], [ 26.555506, 6.038152 ], [ 26.574437, 6.027345 ], [ 26.611512, 6.023607 ], [ 26.646884, 6.009529 ], [ 26.661391, 5.996409 ], [ 26.672987, 5.992053 ], [ 26.688548, 5.99483 ], [ 26.699844, 6.003945 ], [ 26.729972, 6.008609 ], [ 26.754527, 6.004813 ], [ 26.784622, 6.009365 ], [ 26.805548, 6.004639 ], [ 26.819307, 5.991994 ], [ 26.841764, 5.986113 ], [ 26.845415, 5.982799 ], [ 26.84797, 5.958438 ], [ 26.851606, 5.949252 ], [ 26.85296, 5.924957 ], [ 26.856367, 5.915485 ], [ 26.866074, 5.902829 ], [ 26.877133, 5.897065 ], [ 26.906082, 5.892495 ], [ 26.924704, 5.885998 ], [ 26.939788, 5.872708 ], [ 26.954211, 5.865583 ], [ 26.98079, 5.865841 ], [ 26.994489, 5.855937 ], [ 27.017176, 5.847826 ], [ 27.025311, 5.837249 ], [ 27.025429, 5.818706 ], [ 27.031406, 5.813185 ], [ 27.046539, 5.809421 ], [ 27.047807, 5.797109 ], [ 27.052155, 5.791554 ], [ 27.061947, 5.795107 ], [ 27.073286, 5.788449 ], [ 27.083864, 5.7986 ], [ 27.103691, 5.800976 ], [ 27.108562, 5.787954 ], [ 27.118374, 5.791609 ], [ 27.120732, 5.777081 ], [ 27.129954, 5.777524 ], [ 27.136709, 5.771305 ], [ 27.151605, 5.772914 ], [ 27.160436, 5.76731 ], [ 27.162832, 5.763066 ], [ 27.160477, 5.759657 ], [ 27.14552, 5.755243 ], [ 27.147005, 5.748513 ], [ 27.188734, 5.727106 ], [ 27.217783, 5.687931 ], [ 27.215273, 5.671218 ], [ 27.23744, 5.642455 ], [ 27.237137, 5.626533 ], [ 27.231892, 5.611634 ], [ 27.236913, 5.604538 ], [ 27.239091, 5.590183 ], [ 27.242454, 5.588854 ], [ 27.250909, 5.596761 ], [ 27.260543, 5.600594 ], [ 27.278594, 5.592149 ], [ 27.283001, 5.585809 ], [ 27.275456, 5.572982 ], [ 27.273129, 5.569027 ], [ 27.27837, 5.535974 ], [ 27.259997, 5.506844 ], [ 27.254291, 5.48193 ], [ 27.236903, 5.446705 ], [ 27.232913, 5.426255 ], [ 27.239847, 5.385933 ], [ 27.256232, 5.363095 ], [ 27.254898, 5.35648 ], [ 27.24698, 5.348284 ], [ 27.249533, 5.328462 ], [ 27.261154, 5.311234 ], [ 27.274741, 5.282059 ], [ 27.294189, 5.262528 ], [ 27.303665, 5.225772 ], [ 27.324696, 5.200656 ], [ 27.35322, 5.19293 ], [ 27.361668, 5.177988 ], [ 27.395326, 5.154242 ], [ 27.400298, 5.146255 ], [ 27.407108, 5.119273 ], [ 27.409307, 5.116883 ], [ 27.434586, 5.0894 ], [ 27.44858, 5.081677 ], [ 27.453305, 5.075669 ], [ 27.454307, 5.039247 ], [ 27.450591, 5.025525 ], [ 27.443611, 5.019444 ], [ 27.441732, 5.042587 ], [ 27.446424, 5.060646 ], [ 27.438464, 5.073019 ], [ 27.425917, 5.082096 ], [ 27.403822, 5.089417 ], [ 27.385517, 5.09948 ], [ 27.360632, 5.10583 ], [ 27.319782, 5.129186 ], [ 27.292682, 5.133258 ], [ 27.259824, 5.150268 ], [ 27.230224, 5.153173 ], [ 27.214036, 5.162153 ], [ 27.185015, 5.185173 ], [ 27.149065, 5.201451 ], [ 27.093889, 5.208369 ], [ 27.075569, 5.205866 ], [ 27.029042, 5.188473 ], [ 26.950084, 5.14972 ], [ 26.929992, 5.142398 ], [ 26.921795, 5.124379 ], [ 26.911682, 5.117589 ], [ 26.900061, 5.097499 ], [ 26.873778, 5.0676 ], [ 26.868445, 5.047126 ], [ 26.861562, 5.041223 ], [ 26.854304, 5.041039 ], [ 26.843002, 5.052999 ], [ 26.827535, 5.05907 ], [ 26.823271, 5.058107 ], [ 26.817123, 5.050997 ], [ 26.803866, 5.051538 ], [ 26.788413, 5.065192 ], [ 26.782748, 5.07492 ], [ 26.782547, 5.084729 ], [ 26.768979, 5.089677 ], [ 26.76839, 5.102787 ], [ 26.763112, 5.105889 ], [ 26.744571, 5.105783 ], [ 26.730708, 5.102526 ], [ 26.723014, 5.104417 ], [ 26.717362, 5.099792 ], [ 26.708759, 5.104438 ], [ 26.701116, 5.09793 ], [ 26.690457, 5.094424 ], [ 26.680993, 5.099241 ], [ 26.675714, 5.088488 ], [ 26.665778, 5.082476 ], [ 26.655746, 5.083199 ], [ 26.639062, 5.089706 ], [ 26.630647, 5.084576 ], [ 26.628946, 5.074682 ], [ 26.624738, 5.071805 ], [ 26.615276, 5.082921 ], [ 26.613929, 5.090623 ], [ 26.593993, 5.081585 ], [ 26.583586, 5.086393 ], [ 26.572335, 5.08138 ], [ 26.564359, 5.071683 ], [ 26.554816, 5.0772 ], [ 26.546353, 5.072598 ], [ 26.532507, 5.070476 ], [ 26.520878, 5.049999 ], [ 26.511894, 5.053499 ], [ 26.502402, 5.050545 ], [ 26.49307, 5.057736 ], [ 26.483256, 5.05142 ], [ 26.477966, 5.062802 ], [ 26.46228, 5.062782 ], [ 26.456244, 5.067013 ], [ 26.451331, 5.094703 ], [ 26.447077, 5.098102 ], [ 26.437993, 5.097983 ], [ 26.438305, 5.107775 ], [ 26.43522, 5.113886 ], [ 26.419154, 5.117548 ], [ 26.412259, 5.12653 ], [ 26.410033, 5.134903 ], [ 26.40399, 5.13491 ], [ 26.394463, 5.126907 ], [ 26.391054, 5.132572 ], [ 26.390736, 5.14363 ], [ 26.386083, 5.149299 ], [ 26.364288, 5.144203 ], [ 26.349308, 5.157155 ], [ 26.338987, 5.150342 ], [ 26.326797, 5.152149 ], [ 26.321512, 5.142701 ], [ 26.309567, 5.157204 ], [ 26.306168, 5.149678 ], [ 26.297633, 5.144111 ], [ 26.293816, 5.161175 ], [ 26.279615, 5.165116 ], [ 26.282617, 5.170566 ], [ 26.280951, 5.17351 ], [ 26.250599, 5.177253 ], [ 26.256254, 5.189626 ], [ 26.248531, 5.200911 ], [ 26.243758, 5.200168 ], [ 26.236063, 5.19016 ], [ 26.230438, 5.20315 ], [ 26.232958, 5.212082 ], [ 26.223536, 5.210183 ], [ 26.217751, 5.204973 ], [ 26.213934, 5.206129 ], [ 26.20818, 5.214981 ], [ 26.214551, 5.220724 ], [ 26.209322, 5.225139 ], [ 26.207824, 5.23725 ], [ 26.20381, 5.243088 ], [ 26.198068, 5.241884 ], [ 26.19352, 5.23015 ], [ 26.186619, 5.226253 ], [ 26.183397, 5.24497 ], [ 26.16135, 5.238133 ], [ 26.15683, 5.245766 ], [ 26.15782, 5.259005 ], [ 26.132214, 5.26606 ], [ 26.129808, 5.255704 ], [ 26.112485, 5.238745 ], [ 26.107873, 5.238914 ], [ 26.100667, 5.245337 ], [ 26.090259, 5.242944 ], [ 26.094804, 5.230876 ], [ 26.091546, 5.213679 ], [ 26.087403, 5.212856 ], [ 26.077104, 5.219545 ], [ 26.068609, 5.218387 ], [ 26.05863, 5.198184 ], [ 26.048632, 5.208984 ], [ 26.046331, 5.221348 ], [ 26.033947, 5.210702 ], [ 26.010282, 5.211541 ], [ 26.00578, 5.215607 ], [ 26.006727, 5.227117 ], [ 26.003695, 5.235143 ], [ 25.995134, 5.236867 ], [ 25.986856, 5.229035 ], [ 25.980855, 5.24314 ], [ 25.976449, 5.245377 ], [ 25.964468, 5.232659 ], [ 25.956747, 5.215253 ], [ 25.958976, 5.199107 ], [ 25.954501, 5.198447 ], [ 25.945914, 5.205416 ], [ 25.934764, 5.209247 ], [ 25.921382, 5.202542 ], [ 25.906677, 5.204364 ], [ 25.904428, 5.196719 ], [ 25.911775, 5.180493 ], [ 25.907442, 5.174509 ], [ 25.900851, 5.171647 ], [ 25.891435, 5.198645 ], [ 25.878304, 5.209865 ], [ 25.881057, 5.218067 ], [ 25.878868, 5.22348 ], [ 25.861412, 5.225479 ], [ 25.847665, 5.219925 ], [ 25.841442, 5.213759 ], [ 25.836011, 5.198815 ], [ 25.828704, 5.194401 ], [ 25.812754, 5.220343 ], [ 25.802809, 5.222198 ], [ 25.81198, 5.249906 ], [ 25.805677, 5.250057 ], [ 25.790179, 5.241409 ], [ 25.783858, 5.242571 ], [ 25.792247, 5.259158 ], [ 25.79075, 5.270251 ], [ 25.785768, 5.276634 ], [ 25.778083, 5.277369 ], [ 25.768628, 5.268863 ], [ 25.769961, 5.265722 ], [ 25.778936, 5.263483 ], [ 25.776152, 5.256355 ], [ 25.758821, 5.247084 ], [ 25.741898, 5.242915 ], [ 25.735346, 5.268336 ], [ 25.716579, 5.271971 ], [ 25.704639, 5.300653 ], [ 25.677719, 5.307821 ], [ 25.668945, 5.313419 ], [ 25.65855, 5.310812 ], [ 25.65669, 5.32498 ], [ 25.646934, 5.330598 ], [ 25.63555, 5.326779 ], [ 25.633006, 5.319205 ], [ 25.635108, 5.308641 ], [ 25.628023, 5.306984 ], [ 25.617209, 5.321816 ], [ 25.601539, 5.323123 ], [ 25.59705, 5.326449 ], [ 25.604177, 5.337363 ], [ 25.617866, 5.345301 ], [ 25.618475, 5.350888 ], [ 25.610113, 5.352822 ], [ 25.590325, 5.350831 ], [ 25.579908, 5.360189 ], [ 25.58024, 5.371574 ], [ 25.57651, 5.377889 ], [ 25.568182, 5.380746 ], [ 25.549814, 5.380673 ], [ 25.532671, 5.390244 ], [ 25.529349, 5.386646 ], [ 25.530225, 5.379154 ], [ 25.541045, 5.363978 ], [ 25.537196, 5.358437 ], [ 25.516849, 5.354051 ], [ 25.500128, 5.345923 ], [ 25.489118, 5.356809 ], [ 25.477676, 5.36193 ], [ 25.467183, 5.345516 ], [ 25.450821, 5.344269 ], [ 25.433939, 5.338793 ], [ 25.428525, 5.327319 ], [ 25.421393, 5.321941 ], [ 25.420397, 5.31261 ], [ 25.403266, 5.313558 ], [ 25.397765, 5.323122 ], [ 25.39663, 5.333374 ], [ 25.391393, 5.336869 ], [ 25.386209, 5.319321 ], [ 25.363783, 5.314214 ], [ 25.358769, 5.31065 ], [ 25.35891, 5.302156 ], [ 25.370489, 5.302247 ], [ 25.373972, 5.29124 ], [ 25.364975, 5.282252 ], [ 25.353792, 5.282304 ], [ 25.343044, 5.273219 ], [ 25.334837, 5.257415 ], [ 25.328077, 5.209709 ], [ 25.309682, 5.189304 ], [ 25.315584, 5.165866 ], [ 25.323958, 5.154412 ], [ 25.343309, 5.152989 ], [ 25.346526, 5.149867 ], [ 25.341758, 5.108875 ], [ 25.321192, 5.075534 ], [ 25.324822, 5.046787 ], [ 25.321737, 5.040113 ], [ 25.309157, 5.031484 ], [ 25.269463, 5.025779 ], [ 25.251144, 5.026339 ], [ 25.238548, 5.016597 ], [ 25.226833, 5.012258 ], [ 25.201504, 5.013915 ], [ 25.18649, 5.000663 ], [ 25.168076, 5.004331 ], [ 25.158632, 5.023488 ], [ 25.149913, 5.027878 ], [ 25.141716, 5.018426 ], [ 25.123733, 5.011498 ], [ 25.12422, 5.000428 ], [ 25.120823, 4.988344 ], [ 25.08621, 4.976857 ], [ 25.061512, 4.928325 ], [ 25.048948, 4.932126 ], [ 25.041845, 4.942837 ], [ 25.024354, 4.956269 ], [ 25.012372, 4.959708 ], [ 24.998926, 4.959231 ], [ 24.984014, 4.976465 ], [ 24.968142, 4.984767 ], [ 24.956458, 4.986619 ], [ 24.923291, 4.97508 ], [ 24.915112, 4.957657 ], [ 24.909586, 4.952638 ], [ 24.878086, 4.950101 ], [ 24.863042, 4.952275 ], [ 24.860107, 4.947643 ], [ 24.860016, 4.936891 ], [ 24.847282, 4.925617 ], [ 24.815976, 4.928365 ], [ 24.801414, 4.925903 ], [ 24.777839, 4.896163 ], [ 24.768077, 4.897069 ], [ 24.767001, 4.90679 ], [ 24.763434, 4.909442 ], [ 24.750405, 4.898931 ], [ 24.72517, 4.896 ], [ 24.719219, 4.907011 ], [ 24.713648, 4.911119 ], [ 24.677354, 4.910059 ], [ 24.663744, 4.916959 ], [ 24.660271, 4.924519 ], [ 24.669511, 4.939538 ], [ 24.671999, 4.951126 ], [ 24.668655, 4.967663 ], [ 24.658616, 4.9757 ], [ 24.632916, 4.978668 ], [ 24.620671, 5.019642 ], [ 24.60355, 5.030257 ], [ 24.577393, 5.031854 ], [ 24.56604, 5.03692 ], [ 24.551413, 5.051763 ], [ 24.537433, 5.077089 ], [ 24.512604, 5.085411 ], [ 24.497328, 5.094647 ], [ 24.462025, 5.103069 ], [ 24.444465, 5.095639 ], [ 24.444601, 5.087161 ], [ 24.453375, 5.070055 ], [ 24.45125, 5.061766 ], [ 24.442505, 5.058092 ], [ 24.424075, 5.076912 ], [ 24.41663, 5.093042 ], [ 24.408371, 5.10158 ], [ 24.393078, 5.109574 ], [ 24.37786, 5.111994 ], [ 24.364755, 5.097627 ], [ 24.361412, 5.074392 ], [ 24.34668, 5.06638 ], [ 24.343357, 5.057464 ], [ 24.354469, 5.047134 ], [ 24.374755, 5.052414 ], [ 24.385297, 5.052117 ], [ 24.397707, 5.042288 ], [ 24.39759, 5.033581 ], [ 24.376381, 5.021957 ], [ 24.36483, 5.010275 ], [ 24.35193, 5.008457 ], [ 24.333115, 5.010928 ], [ 24.315671, 5.003287 ], [ 24.294684, 4.998623 ], [ 24.279853, 4.99098 ], [ 24.269956, 4.973675 ], [ 24.275927, 4.952364 ], [ 24.267868, 4.937603 ], [ 24.25087, 4.934634 ], [ 24.243888, 4.941503 ], [ 24.241835, 4.953508 ], [ 24.223342, 4.955803 ], [ 24.215142, 4.95249 ], [ 24.204588, 4.94217 ], [ 24.18041, 4.929893 ], [ 24.165917, 4.902067 ], [ 24.153086, 4.89498 ], [ 24.138052, 4.896841 ], [ 24.119272, 4.913338 ], [ 24.110407, 4.915995 ], [ 24.056198, 4.887278 ], [ 24.048219, 4.872269 ], [ 24.041082, 4.866407 ], [ 24.008895, 4.864948 ], [ 23.99295, 4.86744 ], [ 23.97236, 4.875438 ], [ 23.963606, 4.874953 ], [ 23.95551, 4.865989 ], [ 23.952452, 4.853319 ], [ 23.95973, 4.828401 ], [ 23.956904, 4.813208 ], [ 23.95337, 4.811875 ], [ 23.925816, 4.818155 ], [ 23.918565, 4.819822 ], [ 23.906259, 4.829699 ], [ 23.888601, 4.834466 ], [ 23.866953, 4.817945 ], [ 23.853967, 4.816828 ], [ 23.835884, 4.824208 ], [ 23.819445, 4.822048 ], [ 23.797273, 4.807986 ], [ 23.776334, 4.785756 ], [ 23.757991, 4.783328 ], [ 23.717453, 4.786482 ], [ 23.704816, 4.783076 ], [ 23.67366, 4.765538 ], [ 23.632423, 4.764734 ], [ 23.612855, 4.757867 ], [ 23.592646, 4.761264 ], [ 23.574724, 4.740434 ], [ 23.565287, 4.736479 ], [ 23.558414, 4.721575 ], [ 23.545215, 4.71276 ], [ 23.535892, 4.69783 ], [ 23.520231, 4.692485 ], [ 23.500209, 4.678592 ], [ 23.456879, 4.674235 ], [ 23.434661, 4.650204 ], [ 23.429395, 4.602385 ], [ 23.424997, 4.596339 ], [ 23.417125, 4.594032 ], [ 23.381401, 4.596165 ], [ 23.361649, 4.611668 ], [ 23.346765, 4.612274 ], [ 23.329508, 4.607127 ], [ 23.314502, 4.615588 ], [ 23.296498, 4.631167 ], [ 23.274725, 4.634584 ], [ 23.263309, 4.668677 ], [ 23.252039, 4.674965 ], [ 23.23358, 4.674661 ], [ 23.221488, 4.689274 ], [ 23.20718, 4.699815 ], [ 23.19457, 4.726633 ], [ 23.174733, 4.740798 ], [ 23.157792, 4.740081 ], [ 23.11195, 4.713353 ], [ 23.090606, 4.715155 ], [ 23.076462, 4.71983 ], [ 23.059029, 4.737636 ], [ 23.035799, 4.751668 ], [ 23.008648, 4.758528 ], [ 22.980818, 4.827575 ], [ 22.971331, 4.837262 ], [ 22.964759, 4.838295 ], [ 22.943634, 4.819542 ], [ 22.925443, 4.816468 ], [ 22.906823, 4.819685 ], [ 22.892367, 4.810721 ], [ 22.885876, 4.797409 ], [ 22.884191, 4.78207 ], [ 22.887202, 4.772532 ], [ 22.896139, 4.763111 ], [ 22.896775, 4.758482 ], [ 22.871064, 4.738656 ], [ 22.862288, 4.715398 ], [ 22.852021, 4.70652 ], [ 22.837896, 4.704349 ], [ 22.822682, 4.721613 ], [ 22.811949, 4.726441 ], [ 22.798296, 4.726577 ], [ 22.786152, 4.719807 ], [ 22.775753, 4.705254 ], [ 22.764216, 4.675829 ], [ 22.734383, 4.626926 ], [ 22.728493, 4.589234 ], [ 22.728773, 4.559525 ], [ 22.703851, 4.524005 ], [ 22.700697, 4.511966 ], [ 22.701839, 4.491183 ], [ 22.69788, 4.483506 ], [ 22.678361, 4.477358 ], [ 22.649126, 4.487726 ], [ 22.621331, 4.491532 ], [ 22.612425, 4.488585 ], [ 22.601673, 4.47669 ], [ 22.595096, 4.450826 ], [ 22.594739, 4.433036 ], [ 22.584558, 4.415668 ], [ 22.583516, 4.404584 ], [ 22.588775, 4.392911 ], [ 22.611954, 4.382194 ], [ 22.618785, 4.372054 ], [ 22.603227, 4.356192 ], [ 22.577321, 4.344023 ], [ 22.565061, 4.328004 ], [ 22.540552, 4.274263 ], [ 22.541036, 4.258274 ], [ 22.549482, 4.240192 ], [ 22.541462, 4.213703 ], [ 22.532577, 4.204073 ], [ 22.513824, 4.19254 ], [ 22.504998, 4.177783 ], [ 22.491412, 4.167196 ], [ 22.483141, 4.154914 ], [ 22.459851, 4.138194 ], [ 22.435876, 4.128984 ], [ 22.409723, 4.126014 ], [ 22.371928, 4.116897 ], [ 22.332063, 4.120873 ], [ 22.277614, 4.119293 ], [ 22.250759, 4.125262 ], [ 22.192989, 4.148438 ], [ 22.153224, 4.170511 ], [ 22.122762, 4.196421 ], [ 22.099825, 4.210411 ], [ 22.031062, 4.223402 ], [ 22.01055, 4.238655 ], [ 21.996635, 4.245302 ], [ 21.982398, 4.24446 ], [ 21.951952, 4.234257 ], [ 21.931099, 4.241158 ], [ 21.857255, 4.248605 ], [ 21.805929, 4.279106 ], [ 21.757748, 4.295414 ], [ 21.731155, 4.308775 ], [ 21.707224, 4.302166 ], [ 21.692025, 4.304438 ], [ 21.675189, 4.300746 ], [ 21.651637, 4.308913 ], [ 21.641644, 4.308737 ], [ 21.593702, 4.279537 ], [ 21.567961, 4.25641 ], [ 21.544058, 4.252197 ], [ 21.512116, 4.260046 ], [ 21.487151, 4.262681 ], [ 21.463974, 4.273704 ], [ 21.442063, 4.279713 ], [ 21.401133, 4.276461 ], [ 21.356443, 4.284752 ], [ 21.335407, 4.296028 ], [ 21.291886, 4.337014 ], [ 21.281207, 4.341893 ], [ 21.250061, 4.334662 ], [ 21.241352, 4.322774 ], [ 21.235711, 4.304249 ], [ 21.22561, 4.296072 ], [ 21.21398, 4.295321 ], [ 21.191343, 4.30953 ], [ 21.17145, 4.312264 ], [ 21.116652, 4.348652 ], [ 21.095954, 4.379859 ], [ 21.076161, 4.397041 ], [ 20.94033, 4.435696 ], [ 20.860249, 4.446395 ], [ 20.836504, 4.443853 ], [ 20.80573, 4.425552 ], [ 20.785328, 4.421081 ], [ 20.762602, 4.420814 ], [ 20.715282, 4.427989 ], [ 20.618843, 4.413605 ], [ 20.581963, 4.416705 ], [ 20.563367, 4.426242 ], [ 20.538821, 4.444344 ], [ 20.513335, 4.47513 ], [ 20.477768, 4.497985 ], [ 20.462903, 4.513459 ], [ 20.448309, 4.558763 ], [ 20.449604, 4.572949 ], [ 20.457329, 4.598591 ], [ 20.452264, 4.628359 ], [ 20.419255, 4.66028 ], [ 20.399025, 4.68765 ], [ 20.384182, 4.701451 ], [ 20.352819, 4.752781 ], [ 20.338318, 4.763209 ], [ 20.324787, 4.767902 ], [ 20.281816, 4.781596 ], [ 20.261122, 4.789248 ], [ 20.239224, 4.801532 ], [ 20.208522, 4.82519 ], [ 20.190529, 4.845951 ], [ 20.178339, 4.867783 ], [ 20.163892, 4.879302 ], [ 20.155537, 4.882471 ], [ 20.107528, 4.900682 ], [ 20.088899, 4.911447 ], [ 20.085303, 4.914084 ], [ 20.055641, 4.935837 ], [ 20.034669, 4.961539 ], [ 20.012382, 4.974289 ], [ 19.955992, 4.987645 ], [ 19.935654, 4.983683 ], [ 19.919788, 4.986403 ], [ 19.901359, 4.995787 ], [ 19.885252, 5.012485 ], [ 19.874132, 5.029461 ], [ 19.858195, 5.056795 ], [ 19.852413, 5.07231 ], [ 19.8293, 5.093799 ], [ 19.807535, 5.103677 ], [ 19.740556, 5.121844 ], [ 19.733006, 5.123891 ], [ 19.688744, 5.142087 ], [ 19.64701, 5.141475 ], [ 19.642215, 5.140374 ], [ 19.612133, 5.133467 ], [ 19.574018, 5.148544 ], [ 19.549784, 5.151867 ], [ 19.532834, 5.148469 ], [ 19.51314, 5.13609 ], [ 19.47961, 5.121873 ], [ 19.455388, 5.129351 ], [ 19.428601, 5.129476 ], [ 19.394533, 5.116867 ], [ 19.371839, 5.097446 ], [ 19.346619, 5.064374 ], [ 19.313577, 5.050486 ], [ 19.281512, 5.028552 ], [ 19.264904, 5.021808 ], [ 19.250674, 5.016292 ], [ 19.234654, 5.005824 ], [ 19.221138, 4.993604 ], [ 19.212185, 4.958029 ], [ 19.201866, 4.947673 ], [ 19.186822, 4.942888 ], [ 19.170114, 4.948341 ], [ 19.156537, 4.949009 ], [ 19.132964, 4.947083 ], [ 19.111301, 4.93734 ], [ 19.093999, 4.924528 ], [ 19.08109, 4.905081 ], [ 19.06853, 4.882471 ], [ 19.064009, 4.874332 ], [ 19.05979, 4.856326 ], [ 19.05151, 4.836365 ], [ 19.027641, 4.800228 ], [ 19.017876, 4.79576 ], [ 19.01235, 4.781596 ], [ 19.007027, 4.767954 ], [ 19.007605, 4.756838 ], [ 19.001811, 4.747938 ], [ 18.967297, 4.724672 ], [ 18.955058, 4.709989 ], [ 18.9378, 4.698585 ], [ 18.939892, 4.688479 ], [ 18.936849, 4.677831 ], [ 18.904118, 4.648506 ], [ 18.888953, 4.644228 ], [ 18.882057, 4.625099 ], [ 18.875176, 4.611388 ], [ 18.862463, 4.604287 ], [ 18.82774, 4.571714 ], [ 18.818719, 4.55094 ], [ 18.800337, 4.463392 ], [ 18.782753, 4.42564 ], [ 18.755691, 4.397005 ], [ 18.721237, 4.372247 ], [ 18.700499, 4.365094 ], [ 18.639617, 4.361195 ], [ 18.621811, 4.357038 ], [ 18.607929, 4.36884 ], [ 18.600205, 4.369685 ], [ 18.588165, 4.357011 ], [ 18.558121, 4.346437 ], [ 18.55236, 4.340529 ], [ 18.542929, 4.319447 ], [ 18.544958, 4.306113 ], [ 18.563889, 4.264206 ], [ 18.586297, 4.232612 ], [ 18.599996, 4.221678 ], [ 18.605048, 4.203355 ], [ 18.617451, 4.17687 ], [ 18.631248, 4.127397 ], [ 18.64325, 4.105027 ], [ 18.651921, 3.994328 ], [ 18.650769, 3.98007 ], [ 18.645855, 3.962292 ], [ 18.638657, 3.950622 ], [ 18.62291, 3.934361 ], [ 18.616974, 3.916271 ], [ 18.611108, 3.855053 ], [ 18.614737, 3.818317 ], [ 18.591082, 3.768988 ], [ 18.588044, 3.744169 ], [ 18.592358, 3.669748 ], [ 18.6047, 3.61943 ], [ 18.603727, 3.602843 ], [ 18.607536, 3.566 ], [ 18.606055, 3.533904 ], [ 18.613512, 3.510031 ], [ 18.623416, 3.491022 ], [ 18.625083, 3.471647 ], [ 18.603626, 3.473189 ], [ 18.595158, 3.478242 ], [ 18.575805, 3.528925 ], [ 18.558896, 3.548991 ], [ 18.552586, 3.56117 ], [ 18.540905, 3.601211 ], [ 18.534403, 3.610444 ], [ 18.514535, 3.624753 ], [ 18.489229, 3.651523 ], [ 18.479502, 3.650242 ], [ 18.467351, 3.631953 ], [ 18.456732, 3.623484 ], [ 18.453138, 3.608139 ], [ 18.44756, 3.601427 ], [ 18.438474, 3.600071 ], [ 18.422981, 3.607468 ], [ 18.41819, 3.606617 ], [ 18.408403, 3.579218 ], [ 18.387426, 3.590241 ], [ 18.344718, 3.606608 ], [ 18.333964, 3.603515 ], [ 18.309286, 3.588033 ], [ 18.278697, 3.592608 ], [ 18.268351, 3.590765 ], [ 18.264652, 3.585103 ], [ 18.260134, 3.551965 ], [ 18.251252, 3.519079 ], [ 18.24116, 3.500844 ], [ 18.227458, 3.489704 ], [ 18.189025, 3.481893 ], [ 18.180673, 3.484792 ], [ 18.175466, 3.490341 ], [ 18.163979, 3.525509 ], [ 18.152129, 3.54484 ], [ 18.135715, 3.559604 ], [ 18.119507, 3.567183 ], [ 18.07177, 3.574792 ], [ 18.045659, 3.569114 ], [ 18.00311, 3.577767 ], [ 17.998342, 3.556121 ], [ 17.991227, 3.552644 ], [ 17.965786, 3.564135 ], [ 17.951276, 3.580772 ], [ 17.943784, 3.598146 ], [ 17.937264, 3.600901 ], [ 17.932312, 3.597223 ], [ 17.916011, 3.570902 ], [ 17.902998, 3.560412 ], [ 17.887517, 3.554381 ], [ 17.868404, 3.535538 ], [ 17.861978, 3.533761 ], [ 17.846283, 3.562907 ], [ 17.839239, 3.607101 ], [ 17.833865, 3.620991 ], [ 17.828857, 3.625722 ], [ 17.797461, 3.629348 ], [ 17.784468, 3.635095 ], [ 17.759086, 3.63921 ], [ 17.734783, 3.650108 ], [ 17.703364, 3.635195 ], [ 17.686089, 3.641009 ], [ 17.652047, 3.639216 ], [ 17.604849, 3.641916 ], [ 17.597331, 3.645131 ], [ 17.584371, 3.659738 ], [ 17.558235, 3.669842 ], [ 17.540653, 3.686633 ], [ 17.507751, 3.691981 ], [ 17.491531, 3.701721 ], [ 17.475525, 3.702902 ], [ 17.452735, 3.694431 ], [ 17.438775, 3.680079 ], [ 17.407493, 3.669953 ], [ 17.395996, 3.662544 ], [ 17.367275, 3.613023 ], [ 17.360912, 3.607029 ], [ 17.345718, 3.606401 ], [ 17.317766, 3.618606 ], [ 17.304218, 3.628246 ], [ 17.295555, 3.628654 ], [ 17.252335, 3.609854 ], [ 17.248331, 3.603553 ], [ 17.248097, 3.585904 ], [ 17.240941, 3.580312 ], [ 17.176724, 3.56606 ], [ 17.153547, 3.573825 ], [ 17.116418, 3.560506 ], [ 17.096802, 3.559831 ], [ 17.064788, 3.549929 ], [ 17.059999, 3.547083 ], [ 17.050891, 3.529051 ], [ 17.034927, 3.514344 ], [ 17.02763, 3.51567 ], [ 17.013336, 3.527382 ], [ 17.003166, 3.545665 ], [ 16.978779, 3.540452 ], [ 16.956225, 3.558801 ], [ 16.932088, 3.552332 ], [ 16.911842, 3.550405 ], [ 16.897652, 3.552199 ], [ 16.886267, 3.558256 ], [ 16.875804, 3.557696 ], [ 16.870364, 3.550693 ], [ 16.873662, 3.536344 ], [ 16.872402, 3.527029 ], [ 16.862225, 3.513933 ], [ 16.855183, 3.511418 ], [ 16.820996, 3.522529 ], [ 16.799812, 3.544021 ], [ 16.753635, 3.55638 ], [ 16.724191, 3.548992 ], [ 16.670936, 3.54083 ], [ 16.649116, 3.52976 ], [ 16.612174, 3.49848 ], [ 16.597027, 3.477098 ], [ 16.582894, 3.414802 ], [ 16.576163, 3.340409 ], [ 16.572131, 3.329207 ], [ 16.553435, 3.299025 ], [ 16.550976, 3.283146 ], [ 16.557211, 3.25259 ], [ 16.540102, 3.226079 ], [ 16.532144, 3.20612 ], [ 16.510817, 3.173639 ], [ 16.506798, 3.162459 ], [ 16.513755, 3.117765 ], [ 16.52215, 3.099935 ], [ 16.538227, 3.079892 ], [ 16.543472, 3.0688 ], [ 16.531947, 3.050463 ], [ 16.503684, 3.021231 ], [ 16.493368, 3.00055 ], [ 16.490585, 2.91218 ], [ 16.500406, 2.900652 ], [ 16.521121, 2.885379 ], [ 16.523945, 2.875787 ], [ 16.519015, 2.840906 ], [ 16.330821, 2.485163 ], [ 16.297171, 2.416316 ], [ 16.29052, 2.402778 ], [ 16.286914, 2.398967 ], [ 16.27465, 2.374189 ], [ 16.27088, 2.369791 ], [ 16.265286, 2.356565 ], [ 16.213198, 2.257844 ], [ 16.208694, 2.246564 ], [ 16.195314, 2.223604 ], [ 16.19199, 2.22051 ] ] ] ] } }
]
}
