{
"type": "FeatureCollection",
"name": "Chad",
"crs": { "type": "name", "properties": { "name": "urn:ogc:def:crs:OGC:1.3:CRS84" } },
"features": [
{ "type": "Feature", "properties": { "id": "TD", "CNTR_ID": "TD", "CNTR_NAME": "تشاد-Tchad", "NAME_ENGL": "Chad", "ISO3_CODE": "TCD", "FID": "TD" }, "geometry": { "type": "MultiPolygon", "coordinates": [ [ [ [ 15.50748, 7.52747 ], [ 15.516093, 7.532674 ], [ 15.523398, 7.54406 ], [ 15.540437, 7.557043 ], [ 15.572877, 7.59081 ], [ 15.569873, 7.607701 ], [ 15.582855, 7.62873 ], [ 15.586608, 7.642983 ], [ 15.583694, 7.65837 ], [ 15.594055, 7.674826 ], [ 15.597362, 7.687381 ], [ 15.59486, 7.73534 ], [ 15.591773, 7.745975 ], [ 15.596339, 7.767021 ], [ 15.588119, 7.776319 ], [ 15.525606, 7.790111 ], [ 15.511119, 7.796893 ], [ 15.469067, 7.863758 ], [ 15.466745, 7.868316 ], [ 15.454504, 7.892351 ], [ 15.422336, 7.987368 ], [ 15.415068, 8.000942 ], [ 15.399718, 8.016633 ], [ 15.3924, 8.037258 ], [ 15.396283, 8.091765 ], [ 15.286454, 8.309738 ], [ 15.251455, 8.451912 ], [ 15.230238, 8.525379 ], [ 15.220709, 8.545116 ], [ 15.212182, 8.573488 ], [ 15.208168, 8.607879 ], [ 15.189968, 8.615295 ], [ 15.156987, 8.646821 ], [ 15.108324, 8.672234 ], [ 15.058359, 8.672523 ], [ 15.043119, 8.670123 ], [ 15.008135, 8.678029 ], [ 14.988159, 8.679127 ], [ 14.983929, 8.688207 ], [ 14.988265, 8.716171 ], [ 14.984968, 8.724651 ], [ 14.976866, 8.732425 ], [ 14.958027, 8.739856 ], [ 14.949632, 8.746991 ], [ 14.926563, 8.747475 ], [ 14.914544, 8.753677 ], [ 14.914025, 8.759341 ], [ 14.922891, 8.769686 ], [ 14.907833, 8.784171 ], [ 14.898335, 8.807177 ], [ 14.873735, 8.814131 ], [ 14.866837, 8.810207 ], [ 14.856725, 8.809355 ], [ 14.849269, 8.803299 ], [ 14.824742, 8.801518 ], [ 14.808292, 8.810374 ], [ 14.766822, 8.813692 ], [ 14.755682, 8.819109 ], [ 14.717774, 8.862604 ], [ 14.682091, 8.889389 ], [ 14.626685, 8.949674 ], [ 14.572547, 8.999864 ], [ 14.560977, 9.010589 ], [ 14.536129, 9.02574 ], [ 14.514089, 9.030866 ], [ 14.506237, 9.03728 ], [ 14.485311, 9.070972 ], [ 14.485649, 9.077137 ], [ 14.492189, 9.087403 ], [ 14.490219, 9.094949 ], [ 14.472018, 9.111993 ], [ 14.447965, 9.12499 ], [ 14.430087, 9.151455 ], [ 14.379984, 9.1996 ], [ 14.377181, 9.208513 ], [ 14.378428, 9.220808 ], [ 14.389082, 9.247724 ], [ 14.392195, 9.26634 ], [ 14.384884, 9.288484 ], [ 14.351223, 9.311739 ], [ 14.338192, 9.328663 ], [ 14.317858, 9.364637 ], [ 14.279958, 9.372748 ], [ 14.252057, 9.39099 ], [ 14.224533, 9.43504 ], [ 14.197788, 9.450709 ], [ 14.189882, 9.477441 ], [ 14.16666, 9.485765 ], [ 14.133016, 9.511318 ], [ 14.110665, 9.538001 ], [ 14.09841, 9.552631 ], [ 14.063465, 9.588259 ], [ 14.046098, 9.625122 ], [ 14.022896, 9.648734 ], [ 14.020029, 9.669627 ], [ 14.02514, 9.704632 ], [ 14.038915, 9.737285 ], [ 14.050881, 9.75195 ], [ 14.077018, 9.76941 ], [ 14.084658, 9.783337 ], [ 14.104629, 9.802793 ], [ 14.110665, 9.810916 ], [ 14.176443, 9.89942 ], [ 14.193504, 9.966772 ], [ 14.200272, 9.980505 ], [ 14.20956, 9.988725 ], [ 14.23925, 9.997518 ], [ 14.305454, 10.003264 ], [ 14.346874, 9.997568 ], [ 14.380312, 10.004032 ], [ 14.457466, 10.005192 ], [ 14.483939, 10.009775 ], [ 14.514089, 10.005689 ], [ 14.543265, 9.99954 ], [ 14.572547, 9.989485 ], [ 14.590164, 9.983436 ], [ 14.632241, 9.973194 ], [ 14.645346, 9.966323 ], [ 14.704164, 9.950382 ], [ 14.75517, 9.948994 ], [ 14.798823, 9.928042 ], [ 14.818825, 9.924726 ], [ 14.835553, 9.924734 ], [ 14.847448, 9.928593 ], [ 14.866837, 9.939759 ], [ 14.889171, 9.960263 ], [ 14.917748, 9.978599 ], [ 14.949691, 9.986097 ], [ 14.988032, 10.000843 ], [ 15.002357, 10.000842 ], [ 15.015882, 9.99623 ], [ 15.046015, 9.975 ], [ 15.065005, 9.967872 ], [ 15.098273, 9.964458 ], [ 15.105324, 9.967592 ], [ 15.107896, 9.976966 ], [ 15.113025, 9.983271 ], [ 15.130723, 9.993084 ], [ 15.140086, 9.994287 ], [ 15.160696, 9.988553 ], [ 15.191454, 9.970364 ], [ 15.210317, 9.965589 ], [ 15.239862, 9.99491 ], [ 15.311615, 9.97414 ], [ 15.336518, 9.971323 ], [ 15.437187, 9.933761 ], [ 15.48547, 9.9379 ], [ 15.521257, 9.949483 ], [ 15.548135, 9.950806 ], [ 15.590012, 9.958014 ], [ 15.624479, 9.96985 ], [ 15.657372, 9.976156 ], [ 15.682002, 9.987251 ], [ 15.6753, 10.006262 ], [ 15.651011, 10.024296 ], [ 15.630611, 10.032668 ], [ 15.618682, 10.04125 ], [ 15.605905, 10.042365 ], [ 15.589931, 10.054567 ], [ 15.572094, 10.061221 ], [ 15.532438, 10.092493 ], [ 15.514582, 10.091517 ], [ 15.504828, 10.109548 ], [ 15.486006, 10.1213 ], [ 15.479579, 10.138296 ], [ 15.4627, 10.159639 ], [ 15.451909, 10.186354 ], [ 15.419515, 10.211369 ], [ 15.394565, 10.24921 ], [ 15.376432, 10.261507 ], [ 15.354396, 10.290708 ], [ 15.310653, 10.30944 ], [ 15.308782, 10.32324 ], [ 15.296763, 10.335992 ], [ 15.295299, 10.350179 ], [ 15.283395, 10.366071 ], [ 15.281474, 10.404031 ], [ 15.251962, 10.437862 ], [ 15.238717, 10.473007 ], [ 15.210743, 10.50036 ], [ 15.169264, 10.517052 ], [ 15.157454, 10.525023 ], [ 15.147104, 10.537784 ], [ 15.144143, 10.553345 ], [ 15.144161, 10.583937 ], [ 15.156413, 10.617423 ], [ 15.154629, 10.643741 ], [ 15.126114, 10.71169 ], [ 15.100878, 10.744286 ], [ 15.06954, 10.807094 ], [ 15.070572, 10.838009 ], [ 15.092675, 10.866856 ], [ 15.091951, 10.891997 ], [ 15.082633, 10.946449 ], [ 15.064262, 10.966205 ], [ 15.060099, 10.981365 ], [ 15.05123, 10.995842 ], [ 15.049059, 11.01564 ], [ 15.051602, 11.040036 ], [ 15.043599, 11.063333 ], [ 15.038518, 11.070648 ], [ 15.043072, 11.082812 ], [ 15.034593, 11.091213 ], [ 15.038544, 11.108747 ], [ 15.036285, 11.124354 ], [ 15.026675, 11.135065 ], [ 15.036034, 11.148492 ], [ 15.035223, 11.162233 ], [ 15.038285, 11.169416 ], [ 15.02957, 11.195906 ], [ 15.034808, 11.211359 ], [ 15.029123, 11.220469 ], [ 15.040206, 11.232154 ], [ 15.03036, 11.24655 ], [ 15.031876, 11.26923 ], [ 15.02759, 11.280856 ], [ 15.035529, 11.290084 ], [ 15.034724, 11.303341 ], [ 15.050358, 11.313889 ], [ 15.048297, 11.327146 ], [ 15.053259, 11.348851 ], [ 15.068414, 11.367237 ], [ 15.058641, 11.396301 ], [ 15.059509, 11.409612 ], [ 15.074962, 11.433195 ], [ 15.075955, 11.442656 ], [ 15.082701, 11.450531 ], [ 15.08791, 11.462891 ], [ 15.097788, 11.470597 ], [ 15.098185, 11.480011 ], [ 15.107854, 11.493974 ], [ 15.13159, 11.510064 ], [ 15.142289, 11.542518 ], [ 15.141733, 11.556486 ], [ 15.137331, 11.563265 ], [ 15.126774, 11.570858 ], [ 15.105196, 11.579456 ], [ 15.100156, 11.584878 ], [ 15.10183, 11.608972 ], [ 15.090769, 11.619802 ], [ 15.081795, 11.639591 ], [ 15.084281, 11.656879 ], [ 15.07786, 11.668935 ], [ 15.078722, 11.685685 ], [ 15.068888, 11.69766 ], [ 15.066473, 11.714271 ], [ 15.068931, 11.724393 ], [ 15.07536, 11.730974 ], [ 15.082758, 11.732103 ], [ 15.096691, 11.727402 ], [ 15.102336, 11.730513 ], [ 15.098679, 11.74687 ], [ 15.083381, 11.75637 ], [ 15.081187, 11.76352 ], [ 15.089236, 11.772404 ], [ 15.111076, 11.778794 ], [ 15.117439, 11.787831 ], [ 15.118322, 11.793925 ], [ 15.098052, 11.817782 ], [ 15.093769, 11.84692 ], [ 15.078505, 11.859935 ], [ 15.075437, 11.846061 ], [ 15.072145, 11.842422 ], [ 15.064359, 11.842828 ], [ 15.055657, 11.850645 ], [ 15.046277, 11.88585 ], [ 15.043864, 11.890801 ], [ 15.042114, 11.898701 ], [ 15.042614, 11.903948 ], [ 15.044544, 11.909487 ], [ 15.046277, 11.911356 ], [ 15.059939, 11.920744 ], [ 15.064458, 11.93001 ], [ 15.063225, 11.942721 ], [ 15.053777, 11.960937 ], [ 15.053383, 11.969184 ], [ 15.060024, 11.97298 ], [ 15.076763, 11.971298 ], [ 15.082426, 11.977899 ], [ 15.086596, 11.990585 ], [ 15.081256, 11.999658 ], [ 15.057666, 12.004497 ], [ 15.046277, 12.017474 ], [ 15.042291, 12.01955 ], [ 15.039832, 12.023957 ], [ 15.040683, 12.026858 ], [ 15.04317, 12.028438 ], [ 15.046277, 12.028151 ], [ 15.05297, 12.027535 ], [ 15.055629, 12.02957 ], [ 15.061046, 12.041632 ], [ 15.054424, 12.059078 ], [ 15.050091, 12.064528 ], [ 15.046277, 12.065691 ], [ 15.035335, 12.070063 ], [ 15.038208, 12.094451 ], [ 15.027221, 12.104555 ], [ 15.010251, 12.11175 ], [ 15.001476, 12.111501 ], [ 14.994775, 12.107059 ], [ 14.988228, 12.095637 ], [ 14.980909, 12.091363 ], [ 14.966601, 12.092531 ], [ 14.932741, 12.115168 ], [ 14.904707, 12.148627 ], [ 14.896022, 12.152755 ], [ 14.892283, 12.159155 ], [ 14.89325, 12.167822 ], [ 14.909198, 12.182265 ], [ 14.90035, 12.203527 ], [ 14.90572, 12.223044 ], [ 14.904236, 12.239844 ], [ 14.908612, 12.272286 ], [ 14.900535, 12.302641 ], [ 14.90929, 12.328425 ], [ 14.910176, 12.379571 ], [ 14.904163, 12.397219 ], [ 14.886375, 12.426933 ], [ 14.879291, 12.461996 ], [ 14.872447, 12.462566 ], [ 14.866837, 12.455449 ], [ 14.863453, 12.451156 ], [ 14.858328, 12.448828 ], [ 14.848682, 12.458138 ], [ 14.84972, 12.470575 ], [ 14.857942, 12.484405 ], [ 14.852801, 12.502734 ], [ 14.856286, 12.514816 ], [ 14.853214, 12.530173 ], [ 14.854407, 12.550547 ], [ 14.85127, 12.564787 ], [ 14.837678, 12.595165 ], [ 14.83222, 12.626619 ], [ 14.818126, 12.634331 ], [ 14.790335, 12.630713 ], [ 14.773023, 12.631405 ], [ 14.767293, 12.634192 ], [ 14.762192, 12.641015 ], [ 14.757634, 12.673141 ], [ 14.752797, 12.682454 ], [ 14.747564, 12.685898 ], [ 14.736866, 12.681295 ], [ 14.724234, 12.658587 ], [ 14.715319, 12.659613 ], [ 14.707433, 12.669622 ], [ 14.706416, 12.67696 ], [ 14.722695, 12.703945 ], [ 14.716682, 12.717792 ], [ 14.704571, 12.724523 ], [ 14.686701, 12.720515 ], [ 14.663473, 12.720368 ], [ 14.636952, 12.738835 ], [ 14.622355, 12.739272 ], [ 14.620816, 12.746353 ], [ 14.624741, 12.763871 ], [ 14.622565, 12.769086 ], [ 14.617346, 12.767485 ], [ 14.598242, 12.746814 ], [ 14.592873, 12.745291 ], [ 14.585489, 12.748434 ], [ 14.575552, 12.774086 ], [ 14.572547, 12.774804 ], [ 14.560745, 12.777625 ], [ 14.551849, 12.787105 ], [ 14.555151, 12.809859 ], [ 14.567502, 12.835002 ], [ 14.558816, 12.8775 ], [ 14.563196, 12.886239 ], [ 14.567253, 12.888769 ], [ 14.568711, 12.891861 ], [ 14.56677, 12.901536 ], [ 14.561326, 12.914737 ], [ 14.554506, 12.918847 ], [ 14.55059, 12.930728 ], [ 14.553528, 12.941516 ], [ 14.552164, 12.95057 ], [ 14.543592, 12.956848 ], [ 14.540343, 12.960278 ], [ 14.533352, 12.968952 ], [ 14.514089, 12.996406 ], [ 14.512733, 12.998338 ], [ 14.490988, 13.027228 ], [ 14.487759, 13.034567 ], [ 14.473753, 13.053786 ], [ 14.45989, 13.074412 ], [ 14.453488, 13.074039 ], [ 14.441591, 13.07472 ], [ 14.370745, 13.07492 ], [ 14.364014, 13.076283 ], [ 14.358045, 13.075825 ], [ 14.325061, 13.074899 ], [ 14.318099, 13.076042 ], [ 14.298936, 13.076247 ], [ 14.288827, 13.075786 ], [ 14.213277, 13.077777 ], [ 14.187526, 13.07752 ], [ 14.179276, 13.077054 ], [ 14.134126, 13.077679 ], [ 14.110665, 13.077764 ], [ 14.08951, 13.07784 ], [ 14.08543, 13.07806 ], [ 14.064216, 13.104549 ], [ 14.047985, 13.124813 ], [ 14.024968, 13.15693 ], [ 13.891315, 13.34334 ], [ 13.797288, 13.482019 ], [ 13.717256, 13.593752 ], [ 13.711875, 13.605263 ], [ 13.663586, 13.664966 ], [ 13.63455, 13.71068 ], [ 13.633433, 13.713958 ], [ 13.626107, 13.745987 ], [ 13.623015, 13.755895 ], [ 13.620824, 13.771277 ], [ 13.618409, 13.777723 ], [ 13.614583, 13.796019 ], [ 13.607691, 13.826368 ], [ 13.601957, 13.851615 ], [ 13.594537, 13.879539 ], [ 13.590645, 13.902189 ], [ 13.585844, 13.921097 ], [ 13.567717, 13.999348 ], [ 13.563651, 14.014112 ], [ 13.560732, 14.03184 ], [ 13.557173, 14.048212 ], [ 13.551127, 14.073091 ], [ 13.535152, 14.14182 ], [ 13.53264, 14.156954 ], [ 13.518519, 14.215646 ], [ 13.501082, 14.292221 ], [ 13.49928, 14.304749 ], [ 13.49378, 14.321624 ], [ 13.488056, 14.345355 ], [ 13.485601, 14.358367 ], [ 13.479651, 14.379642 ], [ 13.476219, 14.407928 ], [ 13.473496, 14.442685 ], [ 13.475106, 14.452002 ], [ 13.478806, 14.459987 ], [ 13.493326, 14.474532 ], [ 13.499608, 14.477776 ], [ 13.519712, 14.485935 ], [ 13.544546, 14.494806 ], [ 13.571883, 14.5056 ], [ 13.586354, 14.504356 ], [ 13.592915, 14.502764 ], [ 13.600923, 14.502358 ], [ 13.607691, 14.504064 ], [ 13.64082, 14.513837 ], [ 13.695019, 14.550945 ], [ 13.691514, 14.583284 ], [ 13.692054, 14.612113 ], [ 13.678566, 14.627812 ], [ 13.678897, 14.637813 ], [ 13.744171, 14.696922 ], [ 13.76815, 14.69284 ], [ 13.794551, 14.709038 ], [ 13.810267, 14.723323 ], [ 13.809221, 14.746108 ], [ 13.792257, 14.803404 ], [ 13.790114, 14.863311 ], [ 13.797994, 14.887206 ], [ 13.851847, 15.009828 ], [ 13.868671, 15.041417 ], [ 13.970857, 15.157563 ], [ 14.024968, 15.234745 ], [ 14.174935, 15.448504 ], [ 14.235648, 15.53498 ], [ 14.297767, 15.616164 ], [ 14.307152, 15.623855 ], [ 14.3178, 15.643008 ], [ 14.383751, 15.730086 ], [ 14.514089, 15.861677 ], [ 14.572547, 15.92067 ], [ 14.576548, 15.924706 ], [ 14.610503, 15.956332 ], [ 14.641082, 15.994156 ], [ 14.694299, 16.044743 ], [ 14.81008, 16.165883 ], [ 14.866837, 16.227616 ], [ 14.957823, 16.326538 ], [ 15.262008, 16.644755 ], [ 15.326889, 16.70914 ], [ 15.505311, 16.898792 ], [ 15.514146, 17.102637 ], [ 15.519026, 17.156986 ], [ 15.520123, 17.169202 ], [ 15.520439, 17.242893 ], [ 15.52486, 17.291884 ], [ 15.525468, 17.306067 ], [ 15.525838, 17.314702 ], [ 15.538599, 17.612013 ], [ 15.54899, 17.779958 ], [ 15.552826, 17.841915 ], [ 15.553449, 17.913525 ], [ 15.570471, 18.249161 ], [ 15.583957, 18.514614 ], [ 15.587636, 18.596294 ], [ 15.586272, 18.618153 ], [ 15.589728, 18.64058 ], [ 15.593754, 18.730131 ], [ 15.631116, 19.029657 ], [ 15.650001, 19.16012 ], [ 15.655437, 19.180933 ], [ 15.654514, 19.210613 ], [ 15.658795, 19.22762 ], [ 15.689839, 19.477792 ], [ 15.697218, 19.517258 ], [ 15.711595, 19.653267 ], [ 15.715942, 19.668998 ], [ 15.715802, 19.684559 ], [ 15.719404, 19.695151 ], [ 15.727126, 19.754459 ], [ 15.725352, 19.764486 ], [ 15.731302, 19.784361 ], [ 15.740229, 19.844057 ], [ 15.746195, 19.911215 ], [ 15.754728, 19.949573 ], [ 15.837608, 20.082633 ], [ 15.994681, 20.347625 ], [ 15.925123, 20.412169 ], [ 15.865858, 20.461953 ], [ 15.744246, 20.631111 ], [ 15.697208, 20.679664 ], [ 15.619208, 20.741634 ], [ 15.590663, 20.774024 ], [ 15.556245, 20.847893 ], [ 15.548321, 20.875313 ], [ 15.54665, 20.881094 ], [ 15.552334, 20.896352 ], [ 15.562548, 20.911446 ], [ 15.576882, 20.925708 ], [ 15.619523, 20.957386 ], [ 15.624184, 20.964959 ], [ 15.474519, 21.169747 ], [ 15.289199, 21.431104 ], [ 15.198879, 21.491939 ], [ 15.195237, 21.527125 ], [ 15.197144, 21.53669 ], [ 15.192188, 21.916157 ], [ 15.190596, 21.978515 ], [ 15.191839, 21.989889 ], [ 15.150346, 22.21355 ], [ 15.14788, 22.238168 ], [ 15.143722, 22.248674 ], [ 15.138076, 22.288121 ], [ 15.123723, 22.357947 ], [ 15.122184, 22.371886 ], [ 15.114383, 22.404941 ], [ 15.05045, 22.72893 ], [ 15.029027, 22.840719 ], [ 15.029583, 22.845186 ], [ 15.005407, 22.96028 ], [ 15.006439, 22.965787 ], [ 14.998419, 22.997183 ], [ 15.99942, 23.438827 ], [ 16.467525, 23.210264 ], [ 16.802958, 23.045592 ], [ 17.58537, 22.660707 ], [ 17.918411, 22.496547 ], [ 18.387426, 22.265035 ], [ 18.973126, 21.975386 ], [ 19.093425, 21.916157 ], [ 19.18635, 21.870388 ], [ 19.642215, 21.646174 ], [ 19.740556, 21.597759 ], [ 20.085303, 21.427909 ], [ 20.324787, 21.309803 ], [ 20.341955, 21.301333 ], [ 20.980026, 20.987127 ], [ 21.20811, 20.875313 ], [ 21.984109, 20.494271 ], [ 22.473127, 20.253658 ], [ 22.5, 20.240425 ], [ 22.776427, 20.103976 ], [ 22.857783, 20.063889 ], [ 23.466922, 19.763418 ], [ 23.925816, 19.536683 ], [ 24.0, 19.5 ], [ 23.99954, 17.175332 ], [ 23.999254, 15.715719 ], [ 23.964091, 15.711593 ], [ 23.925816, 15.719029 ], [ 23.877215, 15.72847 ], [ 23.861205, 15.733204 ], [ 23.83512, 15.746084 ], [ 23.817724, 15.750252 ], [ 23.73572, 15.75202 ], [ 23.68707, 15.761675 ], [ 23.628494, 15.764978 ], [ 23.586072, 15.762394 ], [ 23.528683, 15.750622 ], [ 23.497513, 15.738772 ], [ 23.441387, 15.710314 ], [ 23.351872, 15.694588 ], [ 23.317198, 15.695715 ], [ 23.269633, 15.704765 ], [ 23.236139, 15.705273 ], [ 23.205264, 15.714226 ], [ 23.126335, 15.718338 ], [ 23.120663, 15.717522 ], [ 23.101021, 15.705424 ], [ 23.077107, 15.675296 ], [ 23.057762, 15.660853 ], [ 23.031848, 15.627713 ], [ 22.999562, 15.598488 ], [ 22.979689, 15.584685 ], [ 22.951248, 15.574266 ], [ 22.927943, 15.551449 ], [ 22.924432, 15.534569 ], [ 22.927129, 15.514685 ], [ 22.919781, 15.492301 ], [ 22.925498, 15.471812 ], [ 22.933542, 15.461169 ], [ 22.951367, 15.448504 ], [ 22.954235, 15.446466 ], [ 22.984982, 15.417343 ], [ 22.991181, 15.403826 ], [ 22.989059, 15.370519 ], [ 22.992273, 15.342407 ], [ 23.003174, 15.312096 ], [ 23.000813, 15.301521 ], [ 22.990776, 15.288065 ], [ 22.986617, 15.263127 ], [ 23.000908, 15.243644 ], [ 23.002717, 15.234904 ], [ 22.996597, 15.225969 ], [ 22.985157, 15.218128 ], [ 22.979414, 15.200025 ], [ 22.972608, 15.190611 ], [ 22.933695, 15.165755 ], [ 22.92931, 15.149112 ], [ 22.937053, 15.124398 ], [ 22.933734, 15.100317 ], [ 22.920835, 15.092664 ], [ 22.896391, 15.092469 ], [ 22.881503, 15.088487 ], [ 22.864052, 15.076459 ], [ 22.857285, 15.060627 ], [ 22.84511, 15.047957 ], [ 22.814115, 15.034811 ], [ 22.792972, 15.004433 ], [ 22.781157, 14.992999 ], [ 22.769629, 14.987235 ], [ 22.750658, 14.967344 ], [ 22.747497, 14.94927 ], [ 22.757236, 14.906435 ], [ 22.742201, 14.898914 ], [ 22.725133, 14.900519 ], [ 22.709777, 14.895937 ], [ 22.681993, 14.877869 ], [ 22.673211, 14.86627 ], [ 22.663999, 14.842213 ], [ 22.71088, 14.726345 ], [ 22.713752, 14.696851 ], [ 22.580778, 14.647314 ], [ 22.517022, 14.64164 ], [ 22.493697, 14.636484 ], [ 22.469214, 14.625676 ], [ 22.442755, 14.605854 ], [ 22.411905, 14.59873 ], [ 22.382869, 14.516046 ], [ 22.386534, 14.512654 ], [ 22.393496, 14.518305 ], [ 22.399946, 14.51675 ], [ 22.431426, 14.49667 ], [ 22.441781, 14.482793 ], [ 22.43353, 14.410965 ], [ 22.440134, 14.373841 ], [ 22.455556, 14.345081 ], [ 22.456463, 14.336006 ], [ 22.453508, 14.329404 ], [ 22.428545, 14.311753 ], [ 22.426686, 14.2915 ], [ 22.465028, 14.243658 ], [ 22.479216, 14.245433 ], [ 22.509667, 14.243337 ], [ 22.542908, 14.234846 ], [ 22.550216, 14.228344 ], [ 22.552015, 14.20531 ], [ 22.566465, 14.181139 ], [ 22.533632, 14.111213 ], [ 22.486148, 14.104241 ], [ 22.440393, 14.054062 ], [ 22.39479, 14.052752 ], [ 22.358191, 14.023047 ], [ 22.323228, 14.01143 ], [ 22.293672, 13.965558 ], [ 22.245769, 13.960189 ], [ 22.22884, 13.953237 ], [ 22.136924, 13.853824 ], [ 22.074055, 13.77997 ], [ 22.076328, 13.773919 ], [ 22.087831, 13.767988 ], [ 22.097029, 13.757485 ], [ 22.108061, 13.752058 ], [ 22.125454, 13.731485 ], [ 22.130542, 13.71847 ], [ 22.130776, 13.709859 ], [ 22.116021, 13.683284 ], [ 22.126575, 13.661965 ], [ 22.140106, 13.645787 ], [ 22.144949, 13.626286 ], [ 22.166666, 13.595675 ], [ 22.18967, 13.582585 ], [ 22.204513, 13.557215 ], [ 22.224376, 13.546746 ], [ 22.223848, 13.536078 ], [ 22.214215, 13.512425 ], [ 22.220321, 13.491345 ], [ 22.218576, 13.465992 ], [ 22.223753, 13.456279 ], [ 22.23421, 13.447913 ], [ 22.239711, 13.436473 ], [ 22.252481, 13.428199 ], [ 22.262273, 13.413654 ], [ 22.276443, 13.400433 ], [ 22.287944, 13.377456 ], [ 22.289312, 13.355011 ], [ 22.281947, 13.349778 ], [ 22.279289, 13.341489 ], [ 22.252066, 13.318126 ], [ 22.249991, 13.306003 ], [ 22.234713, 13.300582 ], [ 22.219739, 13.27759 ], [ 22.209169, 13.273251 ], [ 22.200544, 13.259632 ], [ 22.183305, 13.249629 ], [ 22.177813, 13.227364 ], [ 22.164454, 13.210959 ], [ 22.150274, 13.200552 ], [ 22.143668, 13.181972 ], [ 22.135962, 13.172445 ], [ 22.111494, 13.163502 ], [ 22.087649, 13.164794 ], [ 22.079765, 13.157979 ], [ 22.074979, 13.148197 ], [ 22.067928, 13.144259 ], [ 22.043601, 13.141316 ], [ 22.021057, 13.143871 ], [ 22.010755, 13.141722 ], [ 22.004779, 13.114619 ], [ 21.984379, 13.093436 ], [ 21.974227, 13.076391 ], [ 21.945515, 13.067778 ], [ 21.929476, 13.051402 ], [ 21.928744, 13.019662 ], [ 21.905765, 12.997836 ], [ 21.898747, 12.987049 ], [ 21.884165, 12.948762 ], [ 21.878829, 12.922481 ], [ 21.857289, 12.880818 ], [ 21.848014, 12.841061 ], [ 21.840044, 12.831037 ], [ 21.818347, 12.820279 ], [ 21.815127, 12.811295 ], [ 21.817053, 12.803651 ], [ 21.83122, 12.793146 ], [ 21.839829, 12.781369 ], [ 21.851758, 12.776666 ], [ 21.857674, 12.77107 ], [ 21.860229, 12.761171 ], [ 21.856164, 12.742476 ], [ 21.86138, 12.728988 ], [ 21.884211, 12.707726 ], [ 21.88757, 12.693794 ], [ 21.893693, 12.684557 ], [ 21.91127, 12.674883 ], [ 21.923205, 12.663461 ], [ 21.928577, 12.651329 ], [ 21.936659, 12.644905 ], [ 21.939488, 12.635196 ], [ 21.947615, 12.625693 ], [ 21.985511, 12.632739 ], [ 22.150731, 12.674269 ], [ 22.193986, 12.71085 ], [ 22.196538, 12.753764 ], [ 22.312513, 12.688002 ], [ 22.398987, 12.650535 ], [ 22.455905, 12.633136 ], [ 22.426436, 12.542152 ], [ 22.424649, 12.51559 ], [ 22.416088, 12.510513 ], [ 22.403333, 12.4945 ], [ 22.385421, 12.460876 ], [ 22.366485, 12.444923 ], [ 22.373526, 12.431547 ], [ 22.381855, 12.429082 ], [ 22.389015, 12.431232 ], [ 22.398842, 12.425042 ], [ 22.404666, 12.413878 ], [ 22.42925, 12.389517 ], [ 22.43391, 12.381064 ], [ 22.433414, 12.377009 ], [ 22.425633, 12.372832 ], [ 22.430813, 12.354973 ], [ 22.428893, 12.347638 ], [ 22.432448, 12.342119 ], [ 22.433936, 12.322634 ], [ 22.447329, 12.3003 ], [ 22.441853, 12.285115 ], [ 22.45262, 12.276717 ], [ 22.449636, 12.264524 ], [ 22.463601, 12.247775 ], [ 22.460315, 12.237816 ], [ 22.473127, 12.23679 ], [ 22.474262, 12.218278 ], [ 22.485282, 12.202033 ], [ 22.490812, 12.185983 ], [ 22.490292, 12.172766 ], [ 22.495569, 12.158669 ], [ 22.486243, 12.085525 ], [ 22.47793, 12.075415 ], [ 22.47939, 12.064062 ], [ 22.474421, 12.046728 ], [ 22.478345, 12.034172 ], [ 22.488282, 12.032313 ], [ 22.506338, 12.036279 ], [ 22.524539, 12.049401 ], [ 22.543484, 12.057956 ], [ 22.565516, 12.055545 ], [ 22.594001, 12.066297 ], [ 22.604005, 12.060805 ], [ 22.617301, 12.057942 ], [ 22.623445, 12.060948 ], [ 22.63194, 12.071599 ], [ 22.638957, 12.067926 ], [ 22.583252, 11.852404 ], [ 22.556334, 11.710018 ], [ 22.563278, 11.62908 ], [ 22.608249, 11.56261 ], [ 22.655464, 11.518501 ], [ 22.737422, 11.489107 ], [ 22.760444, 11.470503 ], [ 22.783666, 11.441479 ], [ 22.789103, 11.406979 ], [ 22.830621, 11.415135 ], [ 22.93989, 11.423439 ], [ 22.935168, 11.320926 ], [ 22.975445, 11.303362 ], [ 22.981088, 11.296255 ], [ 22.986434, 11.216206 ], [ 22.931397, 11.10076 ], [ 22.906719, 11.01906 ], [ 22.87551, 10.931367 ], [ 22.857783, 10.932362 ], [ 22.817744, 10.934732 ], [ 22.768295, 10.945309 ], [ 22.761343, 10.950561 ], [ 22.753451, 10.963506 ], [ 22.735375, 10.973562 ], [ 22.708625, 10.972092 ], [ 22.682308, 10.979743 ], [ 22.656044, 10.980059 ], [ 22.6113, 10.996391 ], [ 22.568902, 10.985042 ], [ 22.524153, 11.005868 ], [ 22.511178, 11.007022 ], [ 22.492343, 10.998335 ], [ 22.473127, 10.999167 ], [ 22.457593, 10.989558 ], [ 22.442018, 10.986533 ], [ 22.423645, 10.971881 ], [ 22.403468, 10.970191 ], [ 22.386802, 10.96404 ], [ 22.376444, 10.966442 ], [ 22.36479, 10.958223 ], [ 22.327896, 10.954995 ], [ 22.285262, 10.9302 ], [ 22.266509, 10.924242 ], [ 22.246311, 10.924572 ], [ 22.224949, 10.914175 ], [ 22.197478, 10.90846 ], [ 22.184009, 10.899891 ], [ 22.173111, 10.884691 ], [ 22.154743, 10.877912 ], [ 22.104958, 10.881803 ], [ 22.085226, 10.892622 ], [ 22.074862, 10.894726 ], [ 22.039933, 10.884472 ], [ 22.018008, 10.884386 ], [ 21.979639, 10.865099 ], [ 21.964896, 10.868696 ], [ 21.961698, 10.861518 ], [ 21.957428, 10.859118 ], [ 21.944592, 10.865277 ], [ 21.938489, 10.85438 ], [ 21.931169, 10.857098 ], [ 21.917414, 10.871166 ], [ 21.901296, 10.864464 ], [ 21.882747, 10.868817 ], [ 21.865352, 10.8486 ], [ 21.847398, 10.846101 ], [ 21.840364, 10.839548 ], [ 21.830118, 10.835796 ], [ 21.812692, 10.810878 ], [ 21.79031, 10.794032 ], [ 21.789921, 10.775975 ], [ 21.785268, 10.752965 ], [ 21.78888, 10.732167 ], [ 21.784599, 10.705524 ], [ 21.788471, 10.690904 ], [ 21.786804, 10.669404 ], [ 21.77828, 10.658173 ], [ 21.759203, 10.644174 ], [ 21.750781, 10.645241 ], [ 21.739946, 10.653843 ], [ 21.734228, 10.650019 ], [ 21.732828, 10.613653 ], [ 21.727761, 10.594387 ], [ 21.7322, 10.552914 ], [ 21.729311, 10.540328 ], [ 21.721275, 10.525976 ], [ 21.718772, 10.509237 ], [ 21.731963, 10.48037 ], [ 21.750699, 10.461601 ], [ 21.757408, 10.442774 ], [ 21.756501, 10.424884 ], [ 21.768086, 10.41692 ], [ 21.769622, 10.412405 ], [ 21.764297, 10.402173 ], [ 21.744567, 10.381771 ], [ 21.739569, 10.357469 ], [ 21.729303, 10.354858 ], [ 21.725235, 10.349481 ], [ 21.725479, 10.33975 ], [ 21.735318, 10.31996 ], [ 21.725888, 10.299954 ], [ 21.706007, 10.278232 ], [ 21.677579, 10.275827 ], [ 21.678733, 10.262885 ], [ 21.663782, 10.253546 ], [ 21.672775, 10.240748 ], [ 21.672302, 10.235871 ], [ 21.668711, 10.233403 ], [ 21.650439, 10.232805 ], [ 21.637739, 10.228203 ], [ 21.623741, 10.229753 ], [ 21.608979, 10.218284 ], [ 21.590086, 10.213013 ], [ 21.560094, 10.212168 ], [ 21.543936, 10.225513 ], [ 21.530227, 10.221121 ], [ 21.522183, 10.213275 ], [ 21.509414, 10.191433 ], [ 21.494693, 10.184602 ], [ 21.487214, 10.166287 ], [ 21.470894, 10.152865 ], [ 21.467168, 10.13541 ], [ 21.451369, 10.122464 ], [ 21.453642, 10.088 ], [ 21.441359, 10.077901 ], [ 21.43292, 10.052535 ], [ 21.418206, 10.048224 ], [ 21.409264, 10.041482 ], [ 21.404227, 10.032945 ], [ 21.402447, 10.019673 ], [ 21.391179, 9.999322 ], [ 21.375468, 9.98598 ], [ 21.361416, 9.98534 ], [ 21.351568, 9.969668 ], [ 21.336606, 9.966593 ], [ 21.322161, 9.973486 ], [ 21.31173, 9.986856 ], [ 21.303817, 9.973547 ], [ 21.298184, 9.970634 ], [ 21.277232, 9.987551 ], [ 21.264394, 9.992069 ], [ 21.255623, 9.989429 ], [ 21.239421, 9.963507 ], [ 21.214117, 9.947413 ], [ 21.210896, 9.936901 ], [ 21.202479, 9.926575 ], [ 21.203482, 9.908537 ], [ 21.198998, 9.89725 ], [ 21.179513, 9.887475 ], [ 21.131436, 9.84496 ], [ 21.121557, 9.828848 ], [ 21.116092, 9.797794 ], [ 21.108407, 9.786759 ], [ 21.092937, 9.778023 ], [ 21.074678, 9.776986 ], [ 21.062294, 9.767579 ], [ 21.041888, 9.77483 ], [ 21.029478, 9.771828 ], [ 21.025291, 9.761196 ], [ 21.036881, 9.738978 ], [ 21.031081, 9.730446 ], [ 21.012435, 9.732339 ], [ 20.995047, 9.742551 ], [ 20.993345, 9.730292 ], [ 21.000749, 9.714318 ], [ 21.001458, 9.705501 ], [ 20.984701, 9.702016 ], [ 20.972673, 9.70422 ], [ 20.970167, 9.701638 ], [ 20.97306, 9.697275 ], [ 20.987797, 9.692937 ], [ 20.995684, 9.685618 ], [ 20.983044, 9.663361 ], [ 20.992863, 9.652975 ], [ 20.992972, 9.647887 ], [ 20.986991, 9.644997 ], [ 20.973613, 9.646255 ], [ 20.969654, 9.642324 ], [ 20.973456, 9.636521 ], [ 20.986612, 9.632073 ], [ 20.988052, 9.624313 ], [ 20.978949, 9.618464 ], [ 20.960531, 9.618587 ], [ 20.952825, 9.614911 ], [ 20.951293, 9.608941 ], [ 20.954566, 9.585613 ], [ 20.950821, 9.569717 ], [ 20.944743, 9.565895 ], [ 20.934231, 9.570173 ], [ 20.927455, 9.567991 ], [ 20.920316, 9.545685 ], [ 20.9202, 9.532886 ], [ 20.91699, 9.528396 ], [ 20.898824, 9.527412 ], [ 20.876645, 9.522194 ], [ 20.873991, 9.512319 ], [ 20.865598, 9.499546 ], [ 20.8633, 9.486685 ], [ 20.843334, 9.48178 ], [ 20.82867, 9.464055 ], [ 20.824607, 9.431614 ], [ 20.81664, 9.430559 ], [ 20.805217, 9.440609 ], [ 20.797936, 9.441935 ], [ 20.76991, 9.426341 ], [ 20.76738, 9.410025 ], [ 20.757529, 9.401187 ], [ 20.741552, 9.401185 ], [ 20.729583, 9.397951 ], [ 20.715817, 9.401077 ], [ 20.703168, 9.396552 ], [ 20.687883, 9.398618 ], [ 20.666736, 9.396223 ], [ 20.653504, 9.370225 ], [ 20.647769, 9.345066 ], [ 20.626266, 9.336174 ], [ 20.628032, 9.330101 ], [ 20.637, 9.324043 ], [ 20.634302, 9.318638 ], [ 20.604195, 9.318289 ], [ 20.580191, 9.340368 ], [ 20.564228, 9.3314 ], [ 20.549051, 9.335673 ], [ 20.528553, 9.334577 ], [ 20.526004, 9.329776 ], [ 20.526388, 9.316343 ], [ 20.522638, 9.308615 ], [ 20.511117, 9.304363 ], [ 20.498289, 9.305136 ], [ 20.494474, 9.301261 ], [ 20.495568, 9.268101 ], [ 20.470705, 9.220965 ], [ 20.455726, 9.174845 ], [ 20.442173, 9.159338 ], [ 20.4326, 9.154717 ], [ 20.392874, 9.149745 ], [ 20.353775, 9.12941 ], [ 20.33445, 9.131557 ], [ 20.324787, 9.126906 ], [ 20.320678, 9.124929 ], [ 20.300606, 9.121944 ], [ 20.261366, 9.12568 ], [ 20.248414, 9.132913 ], [ 20.237302, 9.145104 ], [ 20.221638, 9.15067 ], [ 20.206885, 9.149402 ], [ 20.185572, 9.139002 ], [ 20.135318, 9.138497 ], [ 20.118128, 9.143212 ], [ 20.102396, 9.154432 ], [ 20.079813, 9.134241 ], [ 20.071644, 9.133769 ], [ 20.05842, 9.140337 ], [ 20.051448, 9.1408 ], [ 20.03462, 9.129045 ], [ 20.014335, 9.124792 ], [ 20.007541, 9.106803 ], [ 19.997626, 9.112733 ], [ 19.981385, 9.093611 ], [ 19.939807, 9.08602 ], [ 19.933931, 9.080374 ], [ 19.925195, 9.063166 ], [ 19.90685, 9.066853 ], [ 19.888512, 9.062093 ], [ 19.866028, 9.063897 ], [ 19.838009, 9.045022 ], [ 19.830396, 9.048805 ], [ 19.820358, 9.061855 ], [ 19.802219, 9.057077 ], [ 19.778367, 9.05758 ], [ 19.759682, 9.049875 ], [ 19.740556, 9.046628 ], [ 19.723603, 9.04338 ], [ 19.702175, 9.029607 ], [ 19.684396, 9.02793 ], [ 19.668327, 9.021798 ], [ 19.650525, 9.023138 ], [ 19.62939, 9.019207 ], [ 19.604375, 9.020574 ], [ 19.572346, 9.038195 ], [ 19.557239, 9.035004 ], [ 19.538965, 9.021814 ], [ 19.525936, 9.017837 ], [ 19.517549, 9.019806 ], [ 19.510969, 9.02936 ], [ 19.504769, 9.032146 ], [ 19.499766, 9.029869 ], [ 19.49315, 9.020429 ], [ 19.480875, 9.016186 ], [ 19.464357, 9.018158 ], [ 19.453708, 9.025316 ], [ 19.437493, 9.029013 ], [ 19.405417, 9.025243 ], [ 19.391093, 9.018199 ], [ 19.369298, 9.014445 ], [ 19.336178, 9.018385 ], [ 19.304869, 9.008806 ], [ 19.27527, 9.012748 ], [ 19.250272, 9.025237 ], [ 19.218277, 9.029581 ], [ 19.193597, 9.022911 ], [ 19.176424, 9.02264 ], [ 19.16466, 9.01586 ], [ 19.134614, 9.005972 ], [ 19.107948, 9.008926 ], [ 19.09584, 9.017165 ], [ 19.088963, 9.018177 ], [ 19.080388, 9.014411 ], [ 19.072621, 9.004995 ], [ 19.058872, 8.997871 ], [ 19.026909, 8.99491 ], [ 19.009447, 8.980051 ], [ 18.990028, 8.974907 ], [ 18.984082, 8.967071 ], [ 18.975513, 8.94443 ], [ 18.962377, 8.931642 ], [ 18.925847, 8.925593 ], [ 18.905896, 8.901729 ], [ 18.891394, 8.898416 ], [ 18.887868, 8.88736 ], [ 18.867971, 8.871706 ], [ 18.866406, 8.851115 ], [ 18.87619, 8.843075 ], [ 18.890708, 8.849883 ], [ 18.902058, 8.847595 ], [ 18.905681, 8.841269 ], [ 18.90779, 8.816573 ], [ 18.913375, 8.806413 ], [ 18.923182, 8.803037 ], [ 18.938768, 8.809944 ], [ 18.949029, 8.808911 ], [ 18.965139, 8.785892 ], [ 19.01744, 8.761318 ], [ 19.032477, 8.737946 ], [ 19.04523, 8.725517 ], [ 19.058902, 8.717037 ], [ 19.082235, 8.709636 ], [ 19.101047, 8.699346 ], [ 19.119006, 8.671711 ], [ 19.067809, 8.635982 ], [ 19.061517, 8.616424 ], [ 19.047566, 8.596585 ], [ 19.042241, 8.559773 ], [ 19.028666, 8.534527 ], [ 18.993831, 8.513241 ], [ 18.992699, 8.496527 ], [ 18.974959, 8.481036 ], [ 18.968472, 8.465403 ], [ 18.952557, 8.455213 ], [ 18.936111, 8.439717 ], [ 18.922168, 8.418987 ], [ 18.920301, 8.408039 ], [ 18.923922, 8.395546 ], [ 18.911404, 8.385037 ], [ 18.901481, 8.369625 ], [ 18.887625, 8.36395 ], [ 18.872783, 8.343916 ], [ 18.853884, 8.344018 ], [ 18.854271, 8.316304 ], [ 18.849699, 8.305415 ], [ 18.837268, 8.290258 ], [ 18.799457, 8.259367 ], [ 18.773883, 8.247791 ], [ 18.704684, 8.228706 ], [ 18.68866, 8.220721 ], [ 18.663917, 8.201192 ], [ 18.652442, 8.177154 ], [ 18.630103, 8.142849 ], [ 18.629486, 8.128187 ], [ 18.635208, 8.089648 ], [ 18.626059, 8.073877 ], [ 18.622038, 8.059124 ], [ 18.614304, 8.052206 ], [ 18.591799, 8.046251 ], [ 18.387426, 8.032344 ], [ 18.331306, 8.028525 ], [ 18.265239, 8.021269 ], [ 18.040983, 8.009794 ], [ 18.005604, 7.99027 ], [ 17.989915, 7.988771 ], [ 17.947804, 7.965006 ], [ 17.925162, 7.959619 ], [ 17.734472, 7.977973 ], [ 17.717751, 7.977504 ], [ 17.704678, 7.972591 ], [ 17.691432, 7.980814 ], [ 17.673704, 7.981583 ], [ 17.660336, 7.973144 ], [ 17.656365, 7.959753 ], [ 17.648897, 7.948427 ], [ 17.631699, 7.942616 ], [ 17.616165, 7.929006 ], [ 17.597154, 7.930446 ], [ 17.571256, 7.911172 ], [ 17.55958, 7.920441 ], [ 17.548248, 7.919193 ], [ 17.540629, 7.907411 ], [ 17.536293, 7.891063 ], [ 17.52352, 7.887154 ], [ 17.51334, 7.871864 ], [ 17.470968, 7.892385 ], [ 17.451488, 7.881366 ], [ 17.445838, 7.868704 ], [ 17.439785, 7.86888 ], [ 17.431858, 7.875366 ], [ 17.422303, 7.873781 ], [ 17.420754, 7.86289 ], [ 17.408742, 7.863044 ], [ 17.40152, 7.845896 ], [ 17.390629, 7.849544 ], [ 17.36917, 7.848399 ], [ 17.357752, 7.841345 ], [ 17.34406, 7.838061 ], [ 17.332663, 7.82283 ], [ 17.315858, 7.827037 ], [ 17.308488, 7.825782 ], [ 17.300881, 7.808062 ], [ 17.28619, 7.802812 ], [ 17.280477, 7.792421 ], [ 17.266832, 7.783439 ], [ 17.268404, 7.762744 ], [ 17.262701, 7.749377 ], [ 17.255309, 7.747896 ], [ 17.240802, 7.760656 ], [ 17.230863, 7.76009 ], [ 17.219162, 7.743815 ], [ 17.216102, 7.726997 ], [ 17.168266, 7.703489 ], [ 17.171225, 7.688658 ], [ 17.157047, 7.666456 ], [ 17.143239, 7.662865 ], [ 17.132708, 7.664116 ], [ 17.125583, 7.66929 ], [ 17.113762, 7.686824 ], [ 17.093619, 7.690737 ], [ 17.088604, 7.685198 ], [ 17.090858, 7.668963 ], [ 17.088304, 7.660922 ], [ 17.066919, 7.65227 ], [ 17.048285, 7.65254 ], [ 17.037203, 7.635887 ], [ 16.986826, 7.634033 ], [ 16.975523, 7.629707 ], [ 16.955867, 7.634679 ], [ 16.930033, 7.622671 ], [ 16.924235, 7.60782 ], [ 16.90189, 7.614233 ], [ 16.899719, 7.608477 ], [ 16.903848, 7.593967 ], [ 16.89749, 7.577152 ], [ 16.906887, 7.56752 ], [ 16.906861, 7.559262 ], [ 16.895789, 7.552069 ], [ 16.883236, 7.556487 ], [ 16.876364, 7.555913 ], [ 16.870856, 7.550777 ], [ 16.865399, 7.538741 ], [ 16.844133, 7.531308 ], [ 16.823944, 7.532982 ], [ 16.815075, 7.537416 ], [ 16.808256, 7.550445 ], [ 16.798043, 7.561798 ], [ 16.796619, 7.576944 ], [ 16.791144, 7.58805 ], [ 16.772034, 7.608494 ], [ 16.739326, 7.633487 ], [ 16.728595, 7.646853 ], [ 16.690516, 7.651981 ], [ 16.669985, 7.667933 ], [ 16.665881, 7.706485 ], [ 16.669154, 7.729283 ], [ 16.665624, 7.73852 ], [ 16.634202, 7.759847 ], [ 16.612426, 7.759628 ], [ 16.59723, 7.769108 ], [ 16.597186, 7.802639 ], [ 16.585234, 7.836651 ], [ 16.587625, 7.851192 ], [ 16.595872, 7.868063 ], [ 16.591561, 7.875163 ], [ 16.567618, 7.868359 ], [ 16.557641, 7.856526 ], [ 16.543629, 7.854726 ], [ 16.520429, 7.843976 ], [ 16.51237, 7.82646 ], [ 16.49766, 7.80932 ], [ 16.487991, 7.792166 ], [ 16.461369, 7.786808 ], [ 16.452466, 7.800431 ], [ 16.437369, 7.80021 ], [ 16.415452, 7.768894 ], [ 16.423332, 7.748965 ], [ 16.417734, 7.732494 ], [ 16.426566, 7.71462 ], [ 16.406961, 7.687175 ], [ 16.391277, 7.672608 ], [ 16.375558, 7.667176 ], [ 16.355322, 7.665812 ], [ 16.304377, 7.65101 ], [ 16.285965, 7.63357 ], [ 16.240141, 7.60952 ], [ 16.189907, 7.614263 ], [ 16.18, 7.610311 ], [ 16.160583, 7.595746 ], [ 16.101003, 7.590572 ], [ 16.064156, 7.580351 ], [ 16.047321, 7.565525 ], [ 16.035765, 7.533401 ], [ 16.025077, 7.526022 ], [ 16.00549, 7.502883 ], [ 15.975275, 7.484907 ], [ 15.936214, 7.479437 ], [ 15.909499, 7.467511 ], [ 15.871824, 7.455678 ], [ 15.813366, 7.443384 ], [ 15.788158, 7.459647 ], [ 15.762489, 7.462535 ], [ 15.754849, 7.472918 ], [ 15.740014, 7.484703 ], [ 15.730295, 7.502376 ], [ 15.728089, 7.514455 ], [ 15.723904, 7.517927 ], [ 15.661128, 7.517447 ], [ 15.557136, 7.511078 ], [ 15.541813, 7.513478 ], [ 15.50748, 7.52747 ] ] ] ] } }
]
}
