{
"type": "FeatureCollection",
"name": "Cocos (Keeling) Islands",
"crs": { "type": "name", "properties": { "name": "urn:ogc:def:crs:OGC:1.3:CRS84" } },
"features": [
{ "type": "Feature", "properties": { "id": "CC", "CNTR_ID": "CC", "CNTR_NAME": "Cocos Keeling Islands", "NAME_ENGL": "Cocos (Keeling) Islands", "ISO3_CODE": "CCK", "FID": "CC" }, "geometry": { "type": "MultiPolygon", "coordinates": [ [ [ [ 96.81679, -12.142276 ], [ 96.818667, -12.140936 ], [ 96.820093, -12.13516 ], [ 96.822251, -12.135497 ], [ 96.824494, -12.139709 ], [ 96.826774, -12.151482 ], [ 96.83076, -12.160771 ], [ 96.825709, -12.160772 ], [ 96.825564, -12.164037 ], [ 96.820918, -12.176876 ], [ 96.818681, -12.177493 ], [ 96.818003, -12.173937 ], [ 96.820976, -12.169194 ], [ 96.820817, -12.159167 ], [ 96.81679, -12.142276 ] ] ], [ [ [ 96.81696, -11.835706 ], [ 96.818175, -11.833003 ], [ 96.819867, -11.829064 ], [ 96.821867, -11.823808 ], [ 96.824472, -11.821651 ], [ 96.829102, -11.823038 ], [ 96.830989, -11.8263 ], [ 96.83121, -11.830192 ], [ 96.830989, -11.834949 ], [ 96.828799, -11.834806 ], [ 96.82889, -11.839166 ], [ 96.826681, -11.841761 ], [ 96.821047, -11.841761 ], [ 96.817844, -11.839166 ], [ 96.81696, -11.835706 ] ] ], [ [ [ 96.884673, -12.20024 ], [ 96.885609, -12.196151 ], [ 96.887895, -12.195844 ], [ 96.887312, -12.199852 ], [ 96.892152, -12.19983 ], [ 96.894837, -12.20315 ], [ 96.898627, -12.201757 ], [ 96.901091, -12.20583 ], [ 96.903018, -12.204867 ], [ 96.904206, -12.196961 ], [ 96.912115, -12.198866 ], [ 96.916685, -12.201888 ], [ 96.903421, -12.207889 ], [ 96.894258, -12.208962 ], [ 96.892891, -12.20583 ], [ 96.886521, -12.203233 ], [ 96.884673, -12.20024 ] ] ], [ [ [ 96.819456, -12.181384 ], [ 96.824174, -12.180947 ], [ 96.826346, -12.177904 ], [ 96.829651, -12.178263 ], [ 96.830193, -12.181633 ], [ 96.834049, -12.186091 ], [ 96.837839, -12.195372 ], [ 96.841992, -12.200672 ], [ 96.841609, -12.202514 ], [ 96.849142, -12.205645 ], [ 96.848274, -12.207374 ], [ 96.840531, -12.204769 ], [ 96.835223, -12.197099 ], [ 96.826889, -12.187142 ], [ 96.819642, -12.182825 ], [ 96.819456, -12.181384 ] ] ], [ [ [ 96.917305, -12.159803 ], [ 96.919613, -12.156653 ], [ 96.927134, -12.175239 ], [ 96.929783, -12.179326 ], [ 96.929596, -12.18387 ], [ 96.924853, -12.190503 ], [ 96.922223, -12.197526 ], [ 96.920314, -12.198632 ], [ 96.919264, -12.192982 ], [ 96.922904, -12.188001 ], [ 96.921871, -12.184742 ], [ 96.927341, -12.184123 ], [ 96.927604, -12.179979 ], [ 96.92466, -12.174963 ], [ 96.921954, -12.17295 ], [ 96.92134, -12.166426 ], [ 96.91777, -12.163975 ], [ 96.917305, -12.159803 ] ] ], [ [ [ 96.832401, -12.075205 ], [ 96.839767, -12.072287 ], [ 96.843007, -12.072698 ], [ 96.847995, -12.079376 ], [ 96.84641, -12.082043 ], [ 96.84345, -12.082248 ], [ 96.83972, -12.079399 ], [ 96.83606, -12.078898 ], [ 96.832401, -12.075205 ] ] ], [ [ [ 96.892376, -12.113124 ], [ 96.900335, -12.116256 ], [ 96.906453, -12.122534 ], [ 96.904252, -12.123918 ], [ 96.900627, -12.120856 ], [ 96.893753, -12.122071 ], [ 96.892376, -12.113124 ] ] ], [ [ [ 96.851949, -12.203401 ], [ 96.857853, -12.196026 ], [ 96.862858, -12.194653 ], [ 96.86439, -12.199443 ], [ 96.859514, -12.202803 ], [ 96.853031, -12.2043 ], [ 96.851949, -12.203401 ] ] ], [ [ [ 96.828173, -12.1712 ], [ 96.831074, -12.164233 ], [ 96.833341, -12.165416 ], [ 96.833146, -12.172947 ], [ 96.828173, -12.1712 ] ] ], [ [ [ 96.877937, -12.089341 ], [ 96.878767, -12.08762 ], [ 96.8843, -12.087534 ], [ 96.888676, -12.092206 ], [ 96.886884, -12.093274 ], [ 96.884048, -12.090214 ], [ 96.877937, -12.089341 ] ] ], [ [ [ 96.914094, -12.145489 ], [ 96.915659, -12.142914 ], [ 96.918997, -12.142242 ], [ 96.920865, -12.146425 ], [ 96.919698, -12.147613 ], [ 96.914094, -12.145489 ] ] ], [ [ [ 96.904684, -12.126339 ], [ 96.909744, -12.124903 ], [ 96.910683, -12.127695 ], [ 96.908849, -12.131276 ], [ 96.904684, -12.126339 ] ] ], [ [ [ 96.906964, -12.134434 ], [ 96.911824, -12.132657 ], [ 96.914145, -12.138055 ], [ 96.908927, -12.136689 ], [ 96.906964, -12.134434 ] ] ], [ [ [ 96.913024, -12.153045 ], [ 96.920833, -12.152385 ], [ 96.919797, -12.156225 ], [ 96.914311, -12.155147 ], [ 96.913024, -12.153045 ] ] ] ] } }
]
}
