{
"type": "FeatureCollection",
"name": "Colombia",
"crs": { "type": "name", "properties": { "name": "urn:ogc:def:crs:OGC:1.3:CRS84" } },
"features": [
{ "type": "Feature", "properties": { "id": "CO", "CNTR_ID": "CO", "CNTR_NAME": "Colombia", "NAME_ENGL": "Colombia", "ISO3_CODE": "COL", "FID": "CO" }, "geometry": { "type": "MultiPolygon", "coordinates": [ [ [ [ -71.324074, 11.845656 ], [ -71.326385, 11.847888 ], [ -71.334404, 11.854182 ], [ -71.377016, 11.837989 ], [ -71.384828, 11.830328 ], [ -71.387918, 11.824427 ], [ -71.386146, 11.814176 ], [ -71.390499, 11.8128 ], [ -71.43393, 11.799067 ], [ -71.438133, 11.797555 ], [ -71.464341, 11.788127 ], [ -71.495405, 11.778517 ], [ -71.499916, 11.778638 ], [ -71.512914, 11.774359 ], [ -71.561604, 11.761745 ], [ -71.610572, 11.747297 ], [ -71.645676, 11.735273 ], [ -71.672795, 11.726565 ], [ -71.691656, 11.720509 ], [ -71.720968, 11.710038 ], [ -71.729063, 11.707686 ], [ -71.753385, 11.701411 ], [ -71.777762, 11.69445 ], [ -71.870563, 11.672039 ], [ -71.893702, 11.666951 ], [ -71.91656, 11.662549 ], [ -71.942615, 11.654738 ], [ -71.966003, 11.650046 ], [ -71.971705, 11.640098 ], [ -72.00629, 11.5769 ], [ -72.197809, 11.22572 ], [ -72.237785, 11.152362 ], [ -72.245378, 11.145922 ], [ -72.26304, 11.141024 ], [ -72.301224, 11.14936 ], [ -72.320422, 11.146308 ], [ -72.332197, 11.156176 ], [ -72.341981, 11.157109 ], [ -72.365343, 11.143444 ], [ -72.403793, 11.135108 ], [ -72.43246, 11.117938 ], [ -72.439097, 11.129224 ], [ -72.46744, 11.110899 ], [ -72.484681, 11.095467 ], [ -72.488532, 11.088171 ], [ -72.480763, 11.072521 ], [ -72.477766, 11.057733 ], [ -72.48565, 11.053303 ], [ -72.500484, 11.03804 ], [ -72.505052, 11.027972 ], [ -72.51422, 11.017457 ], [ -72.521669, 11.000207 ], [ -72.539764, 10.978537 ], [ -72.561203, 10.936559 ], [ -72.574411, 10.921397 ], [ -72.598549, 10.904148 ], [ -72.610548, 10.890554 ], [ -72.632763, 10.889851 ], [ -72.643223, 10.881512 ], [ -72.667627, 10.82789 ], [ -72.676326, 10.801103 ], [ -72.680817, 10.774615 ], [ -72.707389, 10.751129 ], [ -72.713446, 10.73025 ], [ -72.713492, 10.705586 ], [ -72.729309, 10.6902 ], [ -72.734419, 10.672392 ], [ -72.735902, 10.667224 ], [ -72.750611, 10.642602 ], [ -72.78194, 10.617809 ], [ -72.793498, 10.593633 ], [ -72.821988, 10.572777 ], [ -72.834206, 10.548764 ], [ -72.837276, 10.541952 ], [ -72.835973, 10.525199 ], [ -72.843728, 10.492928 ], [ -72.863182, 10.469925 ], [ -72.884839, 10.460645 ], [ -72.889951, 10.453886 ], [ -72.893308, 10.415339 ], [ -72.88477, 10.390562 ], [ -72.887061, 10.382172 ], [ -72.899457, 10.362253 ], [ -72.903178, 10.34082 ], [ -72.897378, 10.315177 ], [ -72.904203, 10.273459 ], [ -72.904074, 10.233654 ], [ -72.89947, 10.213728 ], [ -72.907594, 10.205504 ], [ -72.909569, 10.175632 ], [ -72.91659, 10.155078 ], [ -72.918236, 10.141056 ], [ -72.914548, 10.109007 ], [ -72.927458, 10.086637 ], [ -72.948195, 10.061611 ], [ -72.953184, 10.047168 ], [ -72.952505, 10.023529 ], [ -72.961112, 9.998524 ], [ -72.970931, 9.988421 ], [ -72.976957, 9.976951 ], [ -72.989119, 9.931178 ], [ -72.989264, 9.917689 ], [ -72.981566, 9.893166 ], [ -72.989117, 9.881923 ], [ -72.950758, 9.85341 ], [ -72.947462, 9.847349 ], [ -72.947911, 9.841876 ], [ -72.96328, 9.818868 ], [ -72.988626, 9.793883 ], [ -72.995615, 9.781562 ], [ -73.006977, 9.744338 ], [ -73.050287, 9.682961 ], [ -73.060572, 9.646615 ], [ -73.073165, 9.622579 ], [ -73.081155, 9.567353 ], [ -73.093878, 9.561916 ], [ -73.122423, 9.560914 ], [ -73.134869, 9.555287 ], [ -73.146681, 9.543632 ], [ -73.171263, 9.509465 ], [ -73.176104, 9.487811 ], [ -73.187479, 9.476092 ], [ -73.194765, 9.441648 ], [ -73.214845, 9.430779 ], [ -73.233323, 9.412285 ], [ -73.254517, 9.377368 ], [ -73.268751, 9.340387 ], [ -73.315613, 9.240059 ], [ -73.323971, 9.235226 ], [ -73.344643, 9.237547 ], [ -73.355569, 9.233973 ], [ -73.372666, 9.181013 ], [ -73.368975, 9.176906 ], [ -73.345519, 9.182837 ], [ -73.3011, 9.177785 ], [ -73.279369, 9.16828 ], [ -73.252699, 9.165098 ], [ -73.217892, 9.184042 ], [ -73.172036, 9.184776 ], [ -73.153995, 9.200861 ], [ -73.147163, 9.213138 ], [ -73.128582, 9.232475 ], [ -73.088075, 9.236193 ], [ -73.075683, 9.246163 ], [ -73.069762, 9.261082 ], [ -73.046461, 9.267523 ], [ -73.031853, 9.286508 ], [ -73.009904, 9.294886 ], [ -73.002359, 9.291153 ], [ -73.001132, 9.283169 ], [ -72.993875, 9.275997 ], [ -72.992963, 9.265213 ], [ -72.98588, 9.256192 ], [ -72.986108, 9.238617 ], [ -72.990834, 9.226976 ], [ -72.970351, 9.215846 ], [ -72.96372, 9.204992 ], [ -72.963172, 9.165592 ], [ -72.982749, 9.14758 ], [ -72.969381, 9.13874 ], [ -72.956956, 9.118621 ], [ -72.946299, 9.109312 ], [ -72.942107, 9.095291 ], [ -72.925627, 9.0883 ], [ -72.914825, 9.096104 ], [ -72.891629, 9.105566 ], [ -72.883416, 9.113855 ], [ -72.882008, 9.128879 ], [ -72.877704, 9.134638 ], [ -72.84041, 9.131946 ], [ -72.823862, 9.127956 ], [ -72.817243, 9.141638 ], [ -72.808238, 9.135161 ], [ -72.80585, 9.12452 ], [ -72.796348, 9.121751 ], [ -72.793185, 9.111438 ], [ -72.779516, 9.115314 ], [ -72.771389, 9.108412 ], [ -72.771464, 9.101406 ], [ -72.76275, 9.084028 ], [ -72.755761, 9.048655 ], [ -72.742551, 9.010631 ], [ -72.651914, 8.624436 ], [ -72.645403, 8.614854 ], [ -72.633939, 8.61351 ], [ -72.627075, 8.608993 ], [ -72.585191, 8.568491 ], [ -72.428416, 8.39018 ], [ -72.414918, 8.388719 ], [ -72.406929, 8.371793 ], [ -72.394423, 8.363423 ], [ -72.393195, 8.333401 ], [ -72.381778, 8.319127 ], [ -72.390236, 8.261339 ], [ -72.369608, 8.208951 ], [ -72.369587, 8.198179 ], [ -72.355444, 8.168905 ], [ -72.356509, 8.16086 ], [ -72.363079, 8.149278 ], [ -72.360768, 8.128967 ], [ -72.372715, 8.109292 ], [ -72.368524, 8.09989 ], [ -72.354464, 8.094028 ], [ -72.350294, 8.087947 ], [ -72.346217, 8.049667 ], [ -72.349146, 8.017246 ], [ -72.35238, 8.011883 ], [ -72.358205, 8.00991 ], [ -72.383516, 8.039142 ], [ -72.41139, 8.037456 ], [ -72.411717, 8.02492 ], [ -72.420957, 7.993777 ], [ -72.427616, 7.987117 ], [ -72.438742, 7.982477 ], [ -72.447464, 7.961426 ], [ -72.474568, 7.954377 ], [ -72.485621, 7.935219 ], [ -72.481797, 7.927665 ], [ -72.465055, 7.914138 ], [ -72.459253, 7.885155 ], [ -72.451169, 7.862993 ], [ -72.449669, 7.831082 ], [ -72.470452, 7.792798 ], [ -72.474983, 7.776212 ], [ -72.47858, 7.73382 ], [ -72.475614, 7.706753 ], [ -72.478728, 7.689297 ], [ -72.478935, 7.627597 ], [ -72.457329, 7.560084 ], [ -72.463349, 7.537852 ], [ -72.476961, 7.516357 ], [ -72.479474, 7.486295 ], [ -72.465371, 7.474119 ], [ -72.454265, 7.458718 ], [ -72.449455, 7.446612 ], [ -72.444997, 7.412699 ], [ -72.436323, 7.400535 ], [ -72.394571, 7.393027 ], [ -72.382375, 7.39498 ], [ -72.36931, 7.391339 ], [ -72.359608, 7.392672 ], [ -72.348701, 7.386783 ], [ -72.339293, 7.377003 ], [ -72.332636, 7.374765 ], [ -72.319235, 7.376604 ], [ -72.305205, 7.387251 ], [ -72.260766, 7.376383 ], [ -72.230325, 7.390854 ], [ -72.219781, 7.389375 ], [ -72.202795, 7.379608 ], [ -72.166519, 7.326799 ], [ -72.166913, 7.314461 ], [ -72.175296, 7.285421 ], [ -72.171303, 7.248651 ], [ -72.031525, 7.022145 ], [ -72.019112, 7.011545 ], [ -72.00805, 7.009181 ], [ -71.967555, 7.008861 ], [ -71.921602, 7.010683 ], [ -71.904014, 7.013855 ], [ -71.873266, 7.009189 ], [ -71.839914, 7.008291 ], [ -71.832621, 7.012069 ], [ -71.823994, 7.02183 ], [ -71.823122, 7.037434 ], [ -71.819328, 7.045166 ], [ -71.796865, 7.056824 ], [ -71.78822, 7.066439 ], [ -71.78135, 7.056346 ], [ -71.777713, 7.055239 ], [ -71.768289, 7.068444 ], [ -71.763354, 7.070892 ], [ -71.760063, 7.068008 ], [ -71.757541, 7.051668 ], [ -71.743954, 7.059799 ], [ -71.736639, 7.060965 ], [ -71.73264, 7.056512 ], [ -71.728565, 7.041745 ], [ -71.724385, 7.037858 ], [ -71.684007, 7.036213 ], [ -71.664668, 7.023144 ], [ -71.660334, 7.02614 ], [ -71.659501, 7.04542 ], [ -71.6524, 7.050444 ], [ -71.623811, 7.039182 ], [ -71.605184, 7.046476 ], [ -71.598363, 7.046131 ], [ -71.593969, 7.041025 ], [ -71.592257, 7.027145 ], [ -71.58612, 7.020984 ], [ -71.550991, 7.028935 ], [ -71.508246, 7.025856 ], [ -71.491796, 7.01615 ], [ -71.473439, 7.029242 ], [ -71.463488, 7.012506 ], [ -71.443981, 7.020643 ], [ -71.438133, 7.028677 ], [ -71.422526, 7.032925 ], [ -71.405224, 7.032102 ], [ -71.39445, 7.02876 ], [ -71.390499, 7.026099 ], [ -71.378364, 7.018728 ], [ -71.332651, 7.013213 ], [ -71.275206, 7.027187 ], [ -71.24692, 7.014317 ], [ -71.228441, 7.020603 ], [ -71.187192, 7.020054 ], [ -71.154771, 7.028408 ], [ -71.142274, 7.028837 ], [ -71.133462, 7.024653 ], [ -71.12701, 7.011077 ], [ -71.111905, 7.005518 ], [ -71.115073, 6.998757 ], [ -71.112405, 6.994043 ], [ -71.094817, 6.984165 ], [ -71.017814, 6.979618 ], [ -70.987317, 6.993717 ], [ -70.971639, 6.982676 ], [ -70.96307, 6.98103 ], [ -70.953555, 6.986467 ], [ -70.943354, 7.00652 ], [ -70.928157, 7.021622 ], [ -70.915311, 7.024741 ], [ -70.905168, 7.031846 ], [ -70.901556, 7.04999 ], [ -70.896303, 7.055921 ], [ -70.886989, 7.057001 ], [ -70.862415, 7.0528 ], [ -70.848033, 7.069529 ], [ -70.829771, 7.068597 ], [ -70.801934, 7.077418 ], [ -70.782338, 7.076559 ], [ -70.759984, 7.087423 ], [ -70.733883, 7.084947 ], [ -70.692077, 7.090781 ], [ -70.635308, 7.06484 ], [ -70.603027, 7.064614 ], [ -70.575373, 7.074121 ], [ -70.559513, 7.074823 ], [ -70.546129, 7.064227 ], [ -70.537194, 7.042426 ], [ -70.520441, 7.031265 ], [ -70.499925, 7.006712 ], [ -70.47461, 6.998151 ], [ -70.461688, 7.0047 ], [ -70.453527, 7.005167 ], [ -70.440058, 7.000488 ], [ -70.422685, 6.984516 ], [ -70.386633, 6.980059 ], [ -70.361389, 6.954647 ], [ -70.338436, 6.940666 ], [ -70.318102, 6.933751 ], [ -70.271052, 6.941443 ], [ -70.239216, 6.964544 ], [ -70.224955, 6.970599 ], [ -70.180831, 6.9737 ], [ -70.15354, 6.980266 ], [ -70.129831, 6.978521 ], [ -70.097739, 6.998962 ], [ -70.088675, 7.000227 ], [ -70.080431, 6.993718 ], [ -70.004295, 6.886988 ], [ -69.958079, 6.830045 ], [ -69.448204, 6.117967 ], [ -69.439947, 6.115816 ], [ -69.410125, 6.126468 ], [ -69.387719, 6.130144 ], [ -69.361731, 6.146853 ], [ -69.33487, 6.151363 ], [ -69.317238, 6.143198 ], [ -69.295039, 6.108648 ], [ -69.280817, 6.096076 ], [ -69.23185, 6.088472 ], [ -69.217584, 6.089063 ], [ -69.192262, 6.104635 ], [ -69.108066, 6.185902 ], [ -69.081164, 6.202588 ], [ -69.048403, 6.211722 ], [ -69.030648, 6.209562 ], [ -69.006846, 6.198529 ], [ -68.973202, 6.193072 ], [ -68.928538, 6.176036 ], [ -68.871164, 6.17299 ], [ -68.832354, 6.181697 ], [ -68.789591, 6.16816 ], [ -68.737597, 6.160739 ], [ -68.671248, 6.135318 ], [ -68.651591, 6.133775 ], [ -68.617595, 6.140614 ], [ -68.583712, 6.165389 ], [ -68.570258, 6.165951 ], [ -68.539704, 6.161126 ], [ -68.51269, 6.172424 ], [ -68.501127, 6.17726 ], [ -68.457972, 6.189484 ], [ -68.418047, 6.186297 ], [ -68.344512, 6.167553 ], [ -68.302824, 6.171412 ], [ -68.221243, 6.200957 ], [ -68.196625, 6.20591 ], [ -68.145044, 6.223219 ], [ -68.118188, 6.222047 ], [ -68.040259, 6.206399 ], [ -67.971648, 6.211469 ], [ -67.926277, 6.234163 ], [ -67.860235, 6.291074 ], [ -67.838059, 6.300985 ], [ -67.79104, 6.296227 ], [ -67.722159, 6.283525 ], [ -67.633717, 6.279519 ], [ -67.552982, 6.249507 ], [ -67.475282, 6.191053 ], [ -67.472935, 6.17938 ], [ -67.488194, 6.15677 ], [ -67.492825, 6.137134 ], [ -67.492405, 6.125298 ], [ -67.484226, 6.10297 ], [ -67.483342, 6.08888 ], [ -67.477341, 6.077995 ], [ -67.461649, 6.060821 ], [ -67.434632, 6.041749 ], [ -67.42296, 6.004677 ], [ -67.429034, 5.989925 ], [ -67.463553, 5.948774 ], [ -67.488592, 5.926609 ], [ -67.521616, 5.902933 ], [ -67.55885, 5.864194 ], [ -67.577653, 5.8495 ], [ -67.610987, 5.801561 ], [ -67.622404, 5.756682 ], [ -67.641968, 5.706861 ], [ -67.64691, 5.660083 ], [ -67.63743, 5.594649 ], [ -67.62684, 5.564265 ], [ -67.614563, 5.546101 ], [ -67.614555, 5.533397 ], [ -67.634226, 5.518692 ], [ -67.646692, 5.480877 ], [ -67.659447, 5.46447 ], [ -67.701455, 5.432832 ], [ -67.725596, 5.422425 ], [ -67.775765, 5.393286 ], [ -67.807347, 5.365898 ], [ -67.839347, 5.315566 ], [ -67.848497, 5.294222 ], [ -67.849027, 5.277136 ], [ -67.822142, 5.200686 ], [ -67.811483, 5.145051 ], [ -67.797291, 5.101386 ], [ -67.797864, 5.063874 ], [ -67.795089, 5.04083 ], [ -67.803002, 5.012155 ], [ -67.807234, 4.978442 ], [ -67.822392, 4.941478 ], [ -67.828811, 4.909319 ], [ -67.827434, 4.877767 ], [ -67.818039, 4.827355 ], [ -67.827062, 4.732918 ], [ -67.83256, 4.710312 ], [ -67.850183, 4.664019 ], [ -67.853142, 4.608074 ], [ -67.862691, 4.567402 ], [ -67.874858, 4.545547 ], [ -67.877122, 4.532734 ], [ -67.875508, 4.522188 ], [ -67.870253, 4.513662 ], [ -67.833476, 4.490246 ], [ -67.823348, 4.47937 ], [ -67.817211, 4.463911 ], [ -67.814218, 4.439133 ], [ -67.79965, 4.419041 ], [ -67.803216, 4.391067 ], [ -67.799382, 4.381205 ], [ -67.783821, 4.341182 ], [ -67.787657, 4.323153 ], [ -67.805781, 4.273208 ], [ -67.808316, 4.251882 ], [ -67.806249, 4.222761 ], [ -67.783057, 4.164572 ], [ -67.750236, 4.136858 ], [ -67.734936, 4.114136 ], [ -67.715571, 4.053221 ], [ -67.701192, 4.021076 ], [ -67.690269, 3.959922 ], [ -67.679135, 3.918997 ], [ -67.654644, 3.881553 ], [ -67.643545, 3.855769 ], [ -67.63912, 3.818501 ], [ -67.625638, 3.777683 ], [ -67.607367, 3.752587 ], [ -67.588795, 3.738729 ], [ -67.569874, 3.736742 ], [ -67.51628, 3.746048 ], [ -67.507228, 3.74344 ], [ -67.492128, 3.731811 ], [ -67.472279, 3.68715 ], [ -67.447967, 3.658574 ], [ -67.444717, 3.632638 ], [ -67.427435, 3.580438 ], [ -67.388829, 3.494901 ], [ -67.381866, 3.484499 ], [ -67.377997, 3.481388 ], [ -67.368855, 3.474038 ], [ -67.328349, 3.45808 ], [ -67.319026, 3.449772 ], [ -67.31079, 3.433896 ], [ -67.303732, 3.398835 ], [ -67.309806, 3.379596 ], [ -67.33047, 3.351788 ], [ -67.346209, 3.324336 ], [ -67.384922, 3.288812 ], [ -67.392499, 3.252235 ], [ -67.399605, 3.249349 ], [ -67.437913, 3.243472 ], [ -67.703132, 3.002308 ], [ -67.723178, 2.987186 ], [ -67.851925, 2.871715 ], [ -67.855353, 2.86243 ], [ -67.856221, 2.844589 ], [ -67.858688, 2.793838 ], [ -67.85646, 2.792236 ], [ -67.839278, 2.798359 ], [ -67.831535, 2.808137 ], [ -67.824933, 2.82598 ], [ -67.816837, 2.832707 ], [ -67.809356, 2.834283 ], [ -67.78212, 2.830878 ], [ -67.741824, 2.839603 ], [ -67.736221, 2.836384 ], [ -67.730605, 2.822253 ], [ -67.713497, 2.812885 ], [ -67.655336, 2.801594 ], [ -67.647745, 2.802661 ], [ -67.628612, 2.812343 ], [ -67.615874, 2.811207 ], [ -67.588821, 2.778769 ], [ -67.584122, 2.751316 ], [ -67.568274, 2.729091 ], [ -67.571148, 2.683481 ], [ -67.566372, 2.671631 ], [ -67.557797, 2.667878 ], [ -67.545447, 2.679371 ], [ -67.529845, 2.683001 ], [ -67.519858, 2.681526 ], [ -67.495266, 2.670796 ], [ -67.484665, 2.65513 ], [ -67.484857, 2.633837 ], [ -67.478252, 2.621368 ], [ -67.434084, 2.593096 ], [ -67.418738, 2.575735 ], [ -67.392463, 2.566606 ], [ -67.377768, 2.536429 ], [ -67.367327, 2.529722 ], [ -67.34791, 2.523887 ], [ -67.337572, 2.515834 ], [ -67.319511, 2.485157 ], [ -67.290039, 2.455426 ], [ -67.276877, 2.437059 ], [ -67.230845, 2.420594 ], [ -67.192346, 2.386973 ], [ -67.173781, 2.34107 ], [ -67.185425, 2.31576 ], [ -67.20106, 2.303934 ], [ -67.204702, 2.297951 ], [ -67.204722, 2.273783 ], [ -67.210415, 2.247941 ], [ -67.198883, 2.222383 ], [ -67.183628, 2.169766 ], [ -67.157222, 2.122183 ], [ -67.145483, 2.117752 ], [ -67.123112, 2.120105 ], [ -67.113458, 2.110556 ], [ -67.112417, 2.092837 ], [ -67.104137, 2.055105 ], [ -67.111739, 2.025791 ], [ -67.124139, 2.003388 ], [ -67.124648, 1.98649 ], [ -67.118336, 1.975096 ], [ -67.091968, 1.947362 ], [ -67.078521, 1.928301 ], [ -67.050122, 1.864368 ], [ -67.039993, 1.821637 ], [ -67.03137, 1.785261 ], [ -67.019621, 1.761098 ], [ -67.005088, 1.71051 ], [ -66.977573, 1.647503 ], [ -66.974743, 1.631639 ], [ -66.976797, 1.597735 ], [ -66.97465, 1.587247 ], [ -66.952844, 1.548094 ], [ -66.930462, 1.480535 ], [ -66.926823, 1.456299 ], [ -66.928885, 1.435552 ], [ -66.925635, 1.418316 ], [ -66.898859, 1.384785 ], [ -66.885213, 1.359613 ], [ -66.878079, 1.318428 ], [ -66.878079, 1.314031 ], [ -66.889417, 1.295293 ], [ -66.893599, 1.274319 ], [ -66.887994, 1.253609 ], [ -66.878079, 1.238347 ], [ -66.86983, 1.22565 ], [ -66.878079, 1.223489 ], [ -67.086575, 1.168857 ], [ -67.0958, 1.212461 ], [ -67.098069, 1.291313 ], [ -67.085905, 1.332462 ], [ -67.08955, 1.39203 ], [ -67.069057, 1.444305 ], [ -67.072369, 1.48681 ], [ -67.062404, 1.529119 ], [ -67.080507, 1.57944 ], [ -67.079128, 1.612232 ], [ -67.085082, 1.637849 ], [ -67.103397, 1.691051 ], [ -67.113524, 1.731539 ], [ -67.143619, 1.770672 ], [ -67.157055, 1.805754 ], [ -67.172539, 1.821637 ], [ -67.195002, 1.844678 ], [ -67.21927, 1.889204 ], [ -67.230845, 1.902751 ], [ -67.257738, 1.934421 ], [ -67.276265, 1.970618 ], [ -67.296316, 1.995126 ], [ -67.346718, 2.110903 ], [ -67.353571, 2.120631 ], [ -67.401215, 2.143154 ], [ -67.432597, 2.147087 ], [ -67.445524, 2.142738 ], [ -67.470821, 2.124763 ], [ -67.496145, 2.120649 ], [ -67.508121, 2.115321 ], [ -67.543796, 2.080922 ], [ -67.573406, 2.068872 ], [ -67.641674, 2.008743 ], [ -67.674692, 1.968495 ], [ -67.698539, 1.91897 ], [ -67.725108, 1.899849 ], [ -67.7434, 1.8656 ], [ -67.75987, 1.843544 ], [ -67.8168, 1.782859 ], [ -67.886773, 1.753966 ], [ -67.932785, 1.746007 ], [ -67.969857, 1.747165 ], [ -67.987878, 1.754989 ], [ -68.014003, 1.773999 ], [ -68.047527, 1.814454 ], [ -68.084976, 1.881294 ], [ -68.093524, 1.902333 ], [ -68.099812, 1.938862 ], [ -68.108466, 1.955877 ], [ -68.119396, 1.96594 ], [ -68.12889, 1.96937 ], [ -68.171883, 1.971543 ], [ -68.178895, 1.974269 ], [ -68.186762, 1.986721 ], [ -68.192124, 2.02576 ], [ -68.19897, 2.032373 ], [ -68.20478, 2.029032 ], [ -68.208765, 2.019818 ], [ -68.209754, 1.984617 ], [ -68.215291, 1.9676 ], [ -68.243459, 1.923135 ], [ -68.246677, 1.898353 ], [ -68.251953, 1.882506 ], [ -68.280194, 1.847997 ], [ -68.27519, 1.843215 ], [ -68.284079, 1.831918 ], [ -68.276301, 1.830078 ], [ -68.272263, 1.819939 ], [ -68.229879, 1.824097 ], [ -68.237925, 1.80546 ], [ -68.242771, 1.780801 ], [ -68.238363, 1.772403 ], [ -68.230775, 1.778544 ], [ -68.218702, 1.772196 ], [ -68.200613, 1.780716 ], [ -68.192081, 1.778338 ], [ -68.181733, 1.769358 ], [ -68.179567, 1.764042 ], [ -68.187622, 1.754939 ], [ -68.190873, 1.742272 ], [ -68.19005, 1.72913 ], [ -68.51269, 1.72909 ], [ -68.583712, 1.729081 ], [ -68.637734, 1.729074 ], [ -68.649176, 1.729073 ], [ -69.347974, 1.728987 ], [ -69.388153, 1.728982 ], [ -69.40029, 1.731693 ], [ -69.409554, 1.740248 ], [ -69.431412, 1.739429 ], [ -69.437864, 1.7431 ], [ -69.448325, 1.74416 ], [ -69.456927, 1.750645 ], [ -69.475416, 1.744476 ], [ -69.49557, 1.758872 ], [ -69.507187, 1.758783 ], [ -69.52266, 1.76735 ], [ -69.531802, 1.764667 ], [ -69.532647, 1.771915 ], [ -69.538583, 1.775701 ], [ -69.559878, 1.770369 ], [ -69.571435, 1.758469 ], [ -69.589586, 1.753538 ], [ -69.603657, 1.740792 ], [ -69.621478, 1.734293 ], [ -69.631718, 1.723462 ], [ -69.643601, 1.725637 ], [ -69.655011, 1.719295 ], [ -69.664971, 1.727191 ], [ -69.673757, 1.724289 ], [ -69.678672, 1.731007 ], [ -69.688984, 1.727876 ], [ -69.703707, 1.733518 ], [ -69.732557, 1.731457 ], [ -69.749972, 1.724132 ], [ -69.752503, 1.714788 ], [ -69.760567, 1.716427 ], [ -69.765052, 1.714132 ], [ -69.776512, 1.705533 ], [ -69.781606, 1.697706 ], [ -69.78396, 1.694089 ], [ -69.801965, 1.702223 ], [ -69.809294, 1.696029 ], [ -69.815484, 1.696246 ], [ -69.827378, 1.709341 ], [ -69.835103, 1.711101 ], [ -69.839854, 1.715956 ], [ -69.843367, 1.713526 ], [ -69.844867, 1.080261 ], [ -69.831555, 1.078697 ], [ -69.819299, 1.066115 ], [ -69.809039, 1.064859 ], [ -69.800054, 1.071381 ], [ -69.788502, 1.090134 ], [ -69.781606, 1.094834 ], [ -69.768775, 1.103579 ], [ -69.741406, 1.113845 ], [ -69.722768, 1.109253 ], [ -69.706851, 1.117167 ], [ -69.701821, 1.113789 ], [ -69.705061, 1.095797 ], [ -69.703114, 1.077601 ], [ -69.6816, 1.070936 ], [ -69.673055, 1.0723 ], [ -69.662506, 1.082788 ], [ -69.645006, 1.088744 ], [ -69.631137, 1.086812 ], [ -69.622181, 1.094814 ], [ -69.61126, 1.097255 ], [ -69.599838, 1.094149 ], [ -69.575879, 1.076316 ], [ -69.562892, 1.072046 ], [ -69.525224, 1.070712 ], [ -69.486531, 1.078449 ], [ -69.47507, 1.072894 ], [ -69.46275, 1.076134 ], [ -69.438351, 1.072607 ], [ -69.433286, 1.06671 ], [ -69.430858, 1.04761 ], [ -69.416991, 1.042953 ], [ -69.416312, 1.042953 ], [ -69.404085, 1.048665 ], [ -69.382575, 1.073586 ], [ -69.37602, 1.085331 ], [ -69.370368, 1.081283 ], [ -69.364099, 1.082863 ], [ -69.355226, 1.080351 ], [ -69.347974, 1.081718 ], [ -69.321593, 1.086692 ], [ -69.307274, 1.074506 ], [ -69.301168, 1.064571 ], [ -69.29039, 1.060989 ], [ -69.286326, 1.053901 ], [ -69.24658, 1.055177 ], [ -69.242498, 1.042953 ], [ -69.207078, 1.009429 ], [ -69.204631, 0.994332 ], [ -69.215359, 0.980406 ], [ -69.215149, 0.973475 ], [ -69.202101, 0.962215 ], [ -69.174565, 0.950678 ], [ -69.168035, 0.942474 ], [ -69.169561, 0.936551 ], [ -69.182644, 0.934611 ], [ -69.189118, 0.928033 ], [ -69.190286, 0.919349 ], [ -69.184374, 0.901299 ], [ -69.171286, 0.895222 ], [ -69.153306, 0.881432 ], [ -69.140723, 0.879651 ], [ -69.137668, 0.874989 ], [ -69.136958, 0.863791 ], [ -69.142436, 0.850078 ], [ -69.147997, 0.84724 ], [ -69.160755, 0.847039 ], [ -69.166288, 0.83927 ], [ -69.166037, 0.820238 ], [ -69.153255, 0.800328 ], [ -69.147881, 0.781344 ], [ -69.148758, 0.768992 ], [ -69.159728, 0.757651 ], [ -69.175646, 0.756644 ], [ -69.187272, 0.738668 ], [ -69.179156, 0.71777 ], [ -69.156813, 0.708536 ], [ -69.141671, 0.690908 ], [ -69.119217, 0.654861 ], [ -69.117315, 0.643204 ], [ -69.120879, 0.636194 ], [ -69.124888, 0.635741 ], [ -69.138806, 0.644569 ], [ -69.186095, 0.650949 ], [ -69.195165, 0.645656 ], [ -69.201107, 0.6347 ], [ -69.202689, 0.608331 ], [ -69.214605, 0.608511 ], [ -69.232391, 0.603752 ], [ -69.248222, 0.607936 ], [ -69.275401, 0.602878 ], [ -69.291472, 0.605829 ], [ -69.285702, 0.621155 ], [ -69.288547, 0.634471 ], [ -69.287367, 0.645488 ], [ -69.290769, 0.647966 ], [ -69.304094, 0.643266 ], [ -69.317721, 0.629822 ], [ -69.323682, 0.637946 ], [ -69.334714, 0.639963 ], [ -69.347306, 0.619434 ], [ -69.354569, 0.617715 ], [ -69.399887, 0.661533 ], [ -69.414168, 0.684936 ], [ -69.432157, 0.697566 ], [ -69.43693, 0.711669 ], [ -69.453066, 0.718874 ], [ -69.464409, 0.733165 ], [ -69.474175, 0.734365 ], [ -69.526607, 0.704866 ], [ -69.53725, 0.681676 ], [ -69.565608, 0.678279 ], [ -69.585067, 0.658883 ], [ -69.590779, 0.640882 ], [ -69.603712, 0.632018 ], [ -69.608442, 0.620433 ], [ -69.620487, 0.631342 ], [ -69.631533, 0.633415 ], [ -69.649369, 0.660607 ], [ -69.67619, 0.66513 ], [ -69.684918, 0.661721 ], [ -69.690942, 0.652697 ], [ -69.706271, 0.64683 ], [ -69.726644, 0.614729 ], [ -69.737177, 0.611156 ], [ -69.751392, 0.614643 ], [ -69.78394, 0.592729 ], [ -69.802375, 0.575344 ], [ -69.815126, 0.585472 ], [ -69.824951, 0.589426 ], [ -69.850907, 0.585512 ], [ -69.861698, 0.579687 ], [ -69.882191, 0.578339 ], [ -69.912722, 0.585742 ], [ -69.921476, 0.570106 ], [ -69.93625, 0.555939 ], [ -69.956214, 0.561143 ], [ -69.966916, 0.571275 ], [ -69.976751, 0.574911 ], [ -69.994369, 0.569895 ], [ -69.996122, 0.554204 ], [ -70.005795, 0.546038 ], [ -70.018484, 0.546753 ], [ -70.024734, 0.557671 ], [ -70.034379, 0.563223 ], [ -70.0404, 0.562339 ], [ -70.043385, 0.555651 ], [ -70.044016, -0.101281 ], [ -70.046569, -0.130467 ], [ -70.057103, -0.150967 ], [ -70.053039, -0.175002 ], [ -70.030494, -0.202787 ], [ -70.002235, -0.222774 ], [ -69.990508, -0.24218 ], [ -69.968471, -0.267921 ], [ -69.954217, -0.278745 ], [ -69.938218, -0.296585 ], [ -69.930685, -0.310101 ], [ -69.915391, -0.327646 ], [ -69.896273, -0.337297 ], [ -69.880231, -0.336778 ], [ -69.843628, -0.341602 ], [ -69.832772, -0.356315 ], [ -69.826489, -0.37086 ], [ -69.809013, -0.37596 ], [ -69.786159, -0.39223 ], [ -69.767724, -0.398829 ], [ -69.754546, -0.41009 ], [ -69.735675, -0.435575 ], [ -69.725866, -0.444292 ], [ -69.676802, -0.465516 ], [ -69.66008, -0.469736 ], [ -69.647556, -0.478874 ], [ -69.637437, -0.492007 ], [ -69.611911, -0.502705 ], [ -69.611155, -0.532523 ], [ -69.59887, -0.547709 ], [ -69.593931, -0.559132 ], [ -69.599319, -0.595379 ], [ -69.584195, -0.614477 ], [ -69.57546, -0.620228 ], [ -69.566352, -0.638056 ], [ -69.584556, -0.678789 ], [ -69.598877, -0.693002 ], [ -69.606461, -0.716799 ], [ -69.619238, -0.731089 ], [ -69.619135, -0.744362 ], [ -69.599534, -0.780627 ], [ -69.588356, -0.786835 ], [ -69.574622, -0.804865 ], [ -69.562886, -0.813414 ], [ -69.561601, -0.820771 ], [ -69.568937, -0.833485 ], [ -69.567981, -0.841249 ], [ -69.527023, -0.869801 ], [ -69.52404, -0.890341 ], [ -69.530206, -0.906826 ], [ -69.525161, -0.923787 ], [ -69.498869, -0.945349 ], [ -69.486637, -0.949638 ], [ -69.471551, -0.960388 ], [ -69.4648, -0.969333 ], [ -69.461684, -0.987074 ], [ -69.451402, -0.994019 ], [ -69.43818, -0.996303 ], [ -69.429303, -1.008058 ], [ -69.428597, -1.013439 ], [ -69.439707, -1.030871 ], [ -69.426448, -1.0471 ], [ -69.427335, -1.074649 ], [ -69.404694, -1.10539 ], [ -69.396504, -1.128317 ], [ -69.399064, -1.140468 ], [ -69.411569, -1.157803 ], [ -69.416184, -1.184891 ], [ -69.425868, -1.209354 ], [ -69.428865, -1.225184 ], [ -69.424857, -1.248711 ], [ -69.409421, -1.285001 ], [ -69.407796, -1.323236 ], [ -69.399471, -1.361603 ], [ -69.404532, -1.369394 ], [ -69.422285, -1.38141 ], [ -69.429935, -1.392776 ], [ -69.435875, -1.409671 ], [ -69.43916, -1.445377 ], [ -69.458366, -1.489799 ], [ -69.458893, -1.506471 ], [ -69.452181, -1.528092 ], [ -69.453312, -1.553151 ], [ -69.737714, -3.127118 ], [ -69.928764, -4.200419 ], [ -69.934677, -4.218987 ], [ -69.95342, -4.23049 ], [ -69.964928, -4.20495 ], [ -70.033078, -4.127957 ], [ -70.090813, -4.032283 ], [ -70.109511, -4.018523 ], [ -70.133258, -4.008943 ], [ -70.151721, -3.984811 ], [ -70.168774, -3.946009 ], [ -70.187009, -3.891818 ], [ -70.220231, -3.881272 ], [ -70.242811, -3.870349 ], [ -70.295776, -3.812818 ], [ -70.319453, -3.804782 ], [ -70.345774, -3.804433 ], [ -70.358025, -3.806988 ], [ -70.372872, -3.816888 ], [ -70.405729, -3.85232 ], [ -70.432311, -3.86231 ], [ -70.462357, -3.879615 ], [ -70.485719, -3.884227 ], [ -70.521604, -3.878793 ], [ -70.539135, -3.86744 ], [ -70.566479, -3.836968 ], [ -70.578314, -3.832972 ], [ -70.590791, -3.833877 ], [ -70.613559, -3.842544 ], [ -70.628937, -3.830778 ], [ -70.651454, -3.827794 ], [ -70.664243, -3.809265 ], [ -70.677995, -3.796986 ], [ -70.691649, -3.793117 ], [ -70.702305, -3.793441 ], [ -70.036647, -2.764625 ], [ -70.035546, -2.743597 ], [ -70.052603, -2.742498 ], [ -70.068698, -2.730818 ], [ -70.072178, -2.710907 ], [ -70.072192, -2.67206 ], [ -70.077769, -2.660363 ], [ -70.091422, -2.646305 ], [ -70.099063, -2.646847 ], [ -70.103124, -2.651609 ], [ -70.110653, -2.678026 ], [ -70.119971, -2.694644 ], [ -70.139198, -2.704718 ], [ -70.153069, -2.702621 ], [ -70.161583, -2.691959 ], [ -70.162996, -2.680751 ], [ -70.159598, -2.655989 ], [ -70.164017, -2.640526 ], [ -70.169575, -2.633658 ], [ -70.182032, -2.631457 ], [ -70.190806, -2.646689 ], [ -70.198272, -2.652351 ], [ -70.206383, -2.652547 ], [ -70.214121, -2.64769 ], [ -70.224265, -2.624138 ], [ -70.23251, -2.564965 ], [ -70.247274, -2.547234 ], [ -70.255533, -2.544167 ], [ -70.270883, -2.544838 ], [ -70.291672, -2.562612 ], [ -70.314721, -2.574775 ], [ -70.334347, -2.574927 ], [ -70.348578, -2.567525 ], [ -70.356534, -2.553379 ], [ -70.350665, -2.542227 ], [ -70.334747, -2.535886 ], [ -70.312841, -2.533686 ], [ -70.300901, -2.525153 ], [ -70.29883, -2.512 ], [ -70.306998, -2.499676 ], [ -70.3234, -2.501002 ], [ -70.352493, -2.494086 ], [ -70.366764, -2.494258 ], [ -70.386581, -2.503933 ], [ -70.409501, -2.52214 ], [ -70.419075, -2.523786 ], [ -70.436055, -2.509383 ], [ -70.444532, -2.480856 ], [ -70.461463, -2.457116 ], [ -70.46966, -2.455858 ], [ -70.488918, -2.468449 ], [ -70.505196, -2.465591 ], [ -70.521097, -2.453143 ], [ -70.539215, -2.426513 ], [ -70.550106, -2.419227 ], [ -70.560932, -2.416043 ], [ -70.57663, -2.418786 ], [ -70.582365, -2.427542 ], [ -70.557015, -2.449175 ], [ -70.550958, -2.460048 ], [ -70.551308, -2.46892 ], [ -70.581759, -2.483394 ], [ -70.597216, -2.482854 ], [ -70.614973, -2.476239 ], [ -70.625856, -2.463954 ], [ -70.627929, -2.45545 ], [ -70.619491, -2.412118 ], [ -70.621334, -2.400147 ], [ -70.625089, -2.399362 ], [ -70.638476, -2.408145 ], [ -70.647591, -2.41038 ], [ -70.658403, -2.407658 ], [ -70.666783, -2.397902 ], [ -70.667172, -2.389222 ], [ -70.6564, -2.36536 ], [ -70.65978, -2.350746 ], [ -70.675231, -2.340771 ], [ -70.718567, -2.331724 ], [ -70.737638, -2.323156 ], [ -70.746284, -2.314214 ], [ -70.755928, -2.297043 ], [ -70.765843, -2.28789 ], [ -70.799573, -2.290642 ], [ -70.819782, -2.283683 ], [ -70.827667, -2.274198 ], [ -70.842081, -2.229245 ], [ -70.847973, -2.221879 ], [ -70.856616, -2.218037 ], [ -70.879628, -2.21678 ], [ -70.888969, -2.223084 ], [ -70.902712, -2.238664 ], [ -70.913488, -2.243761 ], [ -70.925255, -2.245059 ], [ -70.941136, -2.236055 ], [ -70.951094, -2.217779 ], [ -70.959802, -2.208948 ], [ -70.990891, -2.205673 ], [ -71.000258, -2.217478 ], [ -71.002895, -2.227716 ], [ -70.978978, -2.280335 ], [ -70.97914, -2.289627 ], [ -70.985511, -2.296208 ], [ -70.996147, -2.294933 ], [ -71.027022, -2.268676 ], [ -71.04861, -2.264094 ], [ -71.062177, -2.266003 ], [ -71.081305, -2.274416 ], [ -71.114202, -2.283429 ], [ -71.12092, -2.288168 ], [ -71.12666, -2.300728 ], [ -71.115, -2.325459 ], [ -71.115553, -2.335186 ], [ -71.121346, -2.339548 ], [ -71.136221, -2.336474 ], [ -71.148615, -2.339754 ], [ -71.152525, -2.345525 ], [ -71.157751, -2.367575 ], [ -71.164136, -2.374211 ], [ -71.17394, -2.37397 ], [ -71.184586, -2.368668 ], [ -71.20301, -2.347585 ], [ -71.211485, -2.342219 ], [ -71.220846, -2.342385 ], [ -71.239798, -2.349024 ], [ -71.264812, -2.338386 ], [ -71.278455, -2.338162 ], [ -71.290598, -2.347076 ], [ -71.29781, -2.366581 ], [ -71.30459, -2.37467 ], [ -71.339276, -2.37912 ], [ -71.36536, -2.397041 ], [ -71.372737, -2.397777 ], [ -71.381689, -2.393803 ], [ -71.385515, -2.382125 ], [ -71.377033, -2.356208 ], [ -71.377124, -2.345866 ], [ -71.390499, -2.330747 ], [ -71.411757, -2.306715 ], [ -71.422392, -2.288093 ], [ -71.444819, -2.263325 ], [ -71.45178, -2.260804 ], [ -71.464304, -2.263913 ], [ -71.472087, -2.269776 ], [ -71.475859, -2.272619 ], [ -71.476978, -2.291279 ], [ -71.472087, -2.303026 ], [ -71.46289, -2.325115 ], [ -71.472087, -2.335665 ], [ -71.482663, -2.335776 ], [ -71.492589, -2.324709 ], [ -71.496642, -2.315434 ], [ -71.500275, -2.29609 ], [ -71.499122, -2.253068 ], [ -71.50688, -2.239822 ], [ -71.522672, -2.238264 ], [ -71.575678, -2.223937 ], [ -71.591891, -2.216262 ], [ -71.615958, -2.197521 ], [ -71.629414, -2.191338 ], [ -71.661138, -2.196621 ], [ -71.691625, -2.216268 ], [ -71.70036, -2.216695 ], [ -71.711449, -2.209928 ], [ -71.715624, -2.200713 ], [ -71.705713, -2.16318 ], [ -71.705906, -2.150081 ], [ -71.70994, -2.135874 ], [ -71.721186, -2.129327 ], [ -71.734911, -2.136636 ], [ -71.742935, -2.154866 ], [ -71.749263, -2.161936 ], [ -71.774715, -2.173517 ], [ -71.794133, -2.193542 ], [ -71.800246, -2.193491 ], [ -71.813759, -2.186214 ], [ -71.8223, -2.188783 ], [ -71.841488, -2.238252 ], [ -71.852332, -2.279316 ], [ -71.863816, -2.302162 ], [ -71.877507, -2.308834 ], [ -71.905121, -2.30478 ], [ -71.918269, -2.312373 ], [ -71.919167, -2.325902 ], [ -71.903431, -2.359983 ], [ -71.906871, -2.371394 ], [ -71.915348, -2.372435 ], [ -71.926115, -2.356947 ], [ -71.932548, -2.353241 ], [ -71.972644, -2.36464 ], [ -71.983669, -2.362996 ], [ -72.020351, -2.333531 ], [ -72.033831, -2.331625 ], [ -72.065011, -2.372153 ], [ -72.091673, -2.393373 ], [ -72.109019, -2.412337 ], [ -72.115226, -2.425154 ], [ -72.117735, -2.454251 ], [ -72.122078, -2.463348 ], [ -72.12856, -2.468223 ], [ -72.136746, -2.468539 ], [ -72.141867, -2.46505 ], [ -72.144849, -2.456125 ], [ -72.14534, -2.437751 ], [ -72.154665, -2.428622 ], [ -72.162014, -2.429299 ], [ -72.175693, -2.440733 ], [ -72.184582, -2.443705 ], [ -72.225083, -2.433956 ], [ -72.239832, -2.438922 ], [ -72.239708, -2.453036 ], [ -72.243651, -2.458995 ], [ -72.259756, -2.45775 ], [ -72.281284, -2.47601 ], [ -72.344617, -2.489498 ], [ -72.353463, -2.482292 ], [ -72.363066, -2.446219 ], [ -72.376631, -2.431179 ], [ -72.384446, -2.417163 ], [ -72.390454, -2.420295 ], [ -72.398803, -2.434615 ], [ -72.409552, -2.440542 ], [ -72.423088, -2.438832 ], [ -72.441971, -2.431633 ], [ -72.519786, -2.432343 ], [ -72.557275, -2.424998 ], [ -72.587864, -2.397635 ], [ -72.613362, -2.395691 ], [ -72.626453, -2.399995 ], [ -72.624688, -2.418331 ], [ -72.626736, -2.427478 ], [ -72.646062, -2.444086 ], [ -72.656441, -2.471925 ], [ -72.670913, -2.484819 ], [ -72.677558, -2.484081 ], [ -72.681527, -2.477938 ], [ -72.677306, -2.454004 ], [ -72.680816, -2.440264 ], [ -72.692319, -2.425066 ], [ -72.707035, -2.416803 ], [ -72.719045, -2.425481 ], [ -72.723681, -2.450523 ], [ -72.730758, -2.457123 ], [ -72.741178, -2.454946 ], [ -72.753174, -2.426018 ], [ -72.760954, -2.42086 ], [ -72.766706, -2.420467 ], [ -72.772652, -2.423991 ], [ -72.788647, -2.446153 ], [ -72.800885, -2.453616 ], [ -72.820084, -2.460223 ], [ -72.843241, -2.47611 ], [ -72.855948, -2.479052 ], [ -72.878267, -2.477986 ], [ -72.904689, -2.494215 ], [ -72.920666, -2.498738 ], [ -72.923572, -2.490621 ], [ -72.915974, -2.473906 ], [ -72.915879, -2.4646 ], [ -72.92074, -2.457228 ], [ -72.937564, -2.443178 ], [ -72.945252, -2.41685 ], [ -72.960991, -2.384529 ], [ -72.968535, -2.384478 ], [ -72.983646, -2.394858 ], [ -72.99163, -2.394714 ], [ -73.006065, -2.378298 ], [ -73.012742, -2.357453 ], [ -73.018122, -2.355117 ], [ -73.027346, -2.362596 ], [ -73.035552, -2.395465 ], [ -73.03961, -2.398397 ], [ -73.045805, -2.397797 ], [ -73.054807, -2.388714 ], [ -73.056284, -2.360219 ], [ -73.060875, -2.353118 ], [ -73.068787, -2.353068 ], [ -73.092821, -2.364878 ], [ -73.10402, -2.363873 ], [ -73.110523, -2.360176 ], [ -73.112533, -2.352986 ], [ -73.110897, -2.331273 ], [ -73.128277, -2.308537 ], [ -73.140863, -2.297623 ], [ -73.151956, -2.275159 ], [ -73.155582, -2.245526 ], [ -73.153466, -2.234584 ], [ -73.144658, -2.226953 ], [ -73.128769, -2.226961 ], [ -73.121597, -2.223238 ], [ -73.112932, -2.207639 ], [ -73.100311, -2.168434 ], [ -73.065341, -2.142628 ], [ -73.05946, -2.126751 ], [ -73.063829, -2.117246 ], [ -73.084417, -2.117194 ], [ -73.086969, -2.115524 ], [ -73.095368, -2.110028 ], [ -73.095457, -2.100152 ], [ -73.0869, -2.079165 ], [ -73.086521, -2.065546 ], [ -73.092188, -2.058321 ], [ -73.105878, -2.051796 ], [ -73.11082, -2.043028 ], [ -73.112657, -2.03187 ], [ -73.104064, -1.98546 ], [ -73.105148, -1.955603 ], [ -73.100546, -1.924389 ], [ -73.107425, -1.905791 ], [ -73.130053, -1.901815 ], [ -73.141153, -1.89325 ], [ -73.139939, -1.848766 ], [ -73.143746, -1.833994 ], [ -73.152734, -1.82858 ], [ -73.172227, -1.82607 ], [ -73.183183, -1.818937 ], [ -73.193846, -1.808511 ], [ -73.213278, -1.778346 ], [ -73.219579, -1.774874 ], [ -73.228107, -1.778546 ], [ -73.232473, -1.785371 ], [ -73.22806, -1.810957 ], [ -73.234344, -1.825229 ], [ -73.242331, -1.830088 ], [ -73.250688, -1.828942 ], [ -73.245262, -1.813222 ], [ -73.249751, -1.805147 ], [ -73.279092, -1.808589 ], [ -73.293342, -1.804387 ], [ -73.30135, -1.810226 ], [ -73.304924, -1.818168 ], [ -73.297939, -1.842083 ], [ -73.299424, -1.853668 ], [ -73.314471, -1.853712 ], [ -73.328854, -1.834195 ], [ -73.384639, -1.808083 ], [ -73.394916, -1.809588 ], [ -73.411651, -1.819803 ], [ -73.420826, -1.819196 ], [ -73.438415, -1.784906 ], [ -73.463061, -1.767077 ], [ -73.486214, -1.766408 ], [ -73.500246, -1.761445 ], [ -73.523226, -1.743288 ], [ -73.531501, -1.733156 ], [ -73.532133, -1.718679 ], [ -73.5156, -1.692431 ], [ -73.503964, -1.657884 ], [ -73.495909, -1.646788 ], [ -73.462985, -1.617228 ], [ -73.459957, -1.603083 ], [ -73.465551, -1.59738 ], [ -73.481056, -1.602294 ], [ -73.490717, -1.596602 ], [ -73.492, -1.583847 ], [ -73.482389, -1.557589 ], [ -73.48459, -1.549765 ], [ -73.495221, -1.537517 ], [ -73.490366, -1.516832 ], [ -73.495034, -1.510952 ], [ -73.515652, -1.503223 ], [ -73.525472, -1.494598 ], [ -73.532759, -1.478306 ], [ -73.538187, -1.455294 ], [ -73.569508, -1.453156 ], [ -73.584042, -1.445921 ], [ -73.58037, -1.439827 ], [ -73.557624, -1.43807 ], [ -73.553267, -1.432746 ], [ -73.553419, -1.424598 ], [ -73.558937, -1.408824 ], [ -73.579381, -1.378043 ], [ -73.575472, -1.341985 ], [ -73.580954, -1.341137 ], [ -73.596489, -1.349076 ], [ -73.609887, -1.346597 ], [ -73.616142, -1.340599 ], [ -73.623039, -1.315875 ], [ -73.621909, -1.294453 ], [ -73.625325, -1.282634 ], [ -73.631831, -1.280088 ], [ -73.641678, -1.286344 ], [ -73.649089, -1.286783 ], [ -73.682639, -1.258712 ], [ -73.707096, -1.269917 ], [ -73.73061, -1.267036 ], [ -73.740679, -1.25643 ], [ -73.745338, -1.22519 ], [ -73.748819, -1.221545 ], [ -73.754568, -1.226026 ], [ -73.761875, -1.265341 ], [ -73.76692, -1.272584 ], [ -73.773822, -1.275768 ], [ -73.783702, -1.273311 ], [ -73.790759, -1.261312 ], [ -73.8106, -1.265822 ], [ -73.831636, -1.251715 ], [ -73.862217, -1.248659 ], [ -73.871444, -1.237901 ], [ -73.875532, -1.222421 ], [ -73.895574, -1.189117 ], [ -73.901397, -1.156797 ], [ -73.906244, -1.148835 ], [ -73.922324, -1.140139 ], [ -73.947779, -1.150876 ], [ -73.965783, -1.145547 ], [ -73.969877, -1.13872 ], [ -73.958167, -1.116633 ], [ -73.964035, -1.106128 ], [ -73.974416, -1.110746 ], [ -73.993486, -1.128476 ], [ -74.004979, -1.126764 ], [ -74.012719, -1.121459 ], [ -74.027434, -1.083674 ], [ -74.027488, -1.043056 ], [ -74.034284, -1.029278 ], [ -74.042602, -1.030182 ], [ -74.048717, -1.039446 ], [ -74.056436, -1.074734 ], [ -74.060565, -1.076024 ], [ -74.074128, -1.08026 ], [ -74.12634, -1.058167 ], [ -74.158482, -1.036367 ], [ -74.188885, -1.029906 ], [ -74.206562, -1.030486 ], [ -74.22271, -1.031281 ], [ -74.271213, -1.002312 ], [ -74.278856, -0.989931 ], [ -74.275689, -0.983022 ], [ -74.266498, -0.975771 ], [ -74.264201, -0.96935 ], [ -74.27115, -0.952359 ], [ -74.275602, -0.930783 ], [ -74.279544, -0.924229 ], [ -74.288393, -0.918301 ], [ -74.310909, -0.915002 ], [ -74.3157, -0.909166 ], [ -74.317308, -0.899286 ], [ -74.313657, -0.889435 ], [ -74.303876, -0.884575 ], [ -74.290922, -0.888733 ], [ -74.27716, -0.898997 ], [ -74.270785, -0.898003 ], [ -74.268315, -0.891638 ], [ -74.267873, -0.869725 ], [ -74.25852, -0.853287 ], [ -74.257564, -0.844753 ], [ -74.26095, -0.84219 ], [ -74.279093, -0.847207 ], [ -74.285649, -0.845772 ], [ -74.291793, -0.833451 ], [ -74.283764, -0.804805 ], [ -74.285628, -0.797951 ], [ -74.290175, -0.796303 ], [ -74.296799, -0.798656 ], [ -74.307136, -0.811348 ], [ -74.31477, -0.808324 ], [ -74.318636, -0.802265 ], [ -74.31503, -0.781276 ], [ -74.317603, -0.774518 ], [ -74.34939, -0.773614 ], [ -74.377557, -0.74552 ], [ -74.375047, -0.732285 ], [ -74.35489, -0.725659 ], [ -74.3463, -0.716715 ], [ -74.341519, -0.699947 ], [ -74.348091, -0.687685 ], [ -74.36585, -0.676764 ], [ -74.371556, -0.669312 ], [ -74.371953, -0.66237 ], [ -74.364357, -0.637625 ], [ -74.368286, -0.627723 ], [ -74.387857, -0.60159 ], [ -74.38855, -0.570848 ], [ -74.392899, -0.556088 ], [ -74.399837, -0.554128 ], [ -74.411552, -0.566034 ], [ -74.418925, -0.564705 ], [ -74.421776, -0.55903 ], [ -74.423289, -0.537029 ], [ -74.421733, -0.516291 ], [ -74.42634, -0.510584 ], [ -74.442204, -0.506058 ], [ -74.478784, -0.48638 ], [ -74.493335, -0.494339 ], [ -74.495321, -0.490801 ], [ -74.494231, -0.477315 ], [ -74.497523, -0.473146 ], [ -74.515148, -0.480017 ], [ -74.52082, -0.478219 ], [ -74.533281, -0.463735 ], [ -74.5501, -0.433484 ], [ -74.566708, -0.421853 ], [ -74.574317, -0.400926 ], [ -74.581319, -0.396739 ], [ -74.599114, -0.395395 ], [ -74.605439, -0.391341 ], [ -74.606839, -0.386017 ], [ -74.60216, -0.372201 ], [ -74.604782, -0.365595 ], [ -74.622822, -0.365669 ], [ -74.632004, -0.361612 ], [ -74.647099, -0.348963 ], [ -74.660806, -0.331403 ], [ -74.704152, -0.328927 ], [ -74.730845, -0.306868 ], [ -74.760603, -0.306347 ], [ -74.799124, -0.291139 ], [ -74.800441, -0.286704 ], [ -74.797848, -0.280952 ], [ -74.785772, -0.274319 ], [ -74.777384, -0.265108 ], [ -74.775621, -0.250518 ], [ -74.781009, -0.212725 ], [ -74.797912, -0.181092 ], [ -74.804422, -0.162556 ], [ -74.813986, -0.151948 ], [ -74.830449, -0.1424 ], [ -74.840241, -0.142334 ], [ -74.854564, -0.164409 ], [ -74.875239, -0.187599 ], [ -74.885534, -0.19336 ], [ -74.907228, -0.193703 ], [ -74.918225, -0.187866 ], [ -74.935544, -0.169185 ], [ -74.957095, -0.166559 ], [ -74.965188, -0.161711 ], [ -74.981969, -0.144679 ], [ -75.005843, -0.113195 ], [ -75.020443, -0.099907 ], [ -75.041131, -0.087844 ], [ -75.068989, -0.071602 ], [ -75.114301, -0.039243 ], [ -75.12367, -0.035642 ], [ -75.141781, -0.037677 ], [ -75.16582, -0.033115 ], [ -75.206229, -0.013404 ], [ -75.220335, -0.0154 ], [ -75.234447, -0.021472 ], [ -75.241308, -0.031132 ], [ -75.24781, -0.058025 ], [ -75.252526, -0.066259 ], [ -75.270542, -0.083727 ], [ -75.2882, -0.093691 ], [ -75.341705, -0.083022 ], [ -75.364706, -0.074853 ], [ -75.414451, -0.077261 ], [ -75.440543, -0.066806 ], [ -75.532869, -0.014483 ], [ -75.560772, -0.013706 ], [ -75.574916, -0.012949 ], [ -75.579941, -0.005422 ], [ -75.573718, 0.042167 ], [ -75.584019, 0.055024 ], [ -75.599792, 0.065791 ], [ -75.619935, 0.07291 ], [ -75.667211, 0.065461 ], [ -75.733607, 0.064706 ], [ -75.761534, 0.071291 ], [ -75.800022, 0.091922 ], [ -75.832427, 0.122978 ], [ -75.882199, 0.15625 ], [ -75.903513, 0.176387 ], [ -75.926425, 0.203971 ], [ -75.958167, 0.25259 ], [ -75.987478, 0.279551 ], [ -76.000134, 0.305924 ], [ -76.014559, 0.325776 ], [ -76.040106, 0.349144 ], [ -76.051923, 0.354845 ], [ -76.060177, 0.355532 ], [ -76.085742, 0.345987 ], [ -76.096179, 0.347098 ], [ -76.101362, 0.353116 ], [ -76.10662, 0.370735 ], [ -76.119471, 0.386036 ], [ -76.139679, 0.394817 ], [ -76.179139, 0.393903 ], [ -76.20984, 0.39866 ], [ -76.270165, 0.440385 ], [ -76.296214, 0.438786 ], [ -76.316767, 0.429221 ], [ -76.34334, 0.401867 ], [ -76.384736, 0.396673 ], [ -76.400073, 0.387194 ], [ -76.403966, 0.365704 ], [ -76.397969, 0.262893 ], [ -76.399284, 0.254734 ], [ -76.404382, 0.24925 ], [ -76.426566, 0.24759 ], [ -76.439749, 0.260271 ], [ -76.452716, 0.253087 ], [ -76.494861, 0.247719 ], [ -76.504941, 0.248613 ], [ -76.526874, 0.256507 ], [ -76.542333, 0.257836 ], [ -76.557919, 0.253872 ], [ -76.595944, 0.234068 ], [ -76.61684, 0.243516 ], [ -76.627125, 0.258015 ], [ -76.637848, 0.264296 ], [ -76.644186, 0.264834 ], [ -76.646213, 0.263971 ], [ -76.655619, 0.259964 ], [ -76.671332, 0.274988 ], [ -76.691894, 0.279539 ], [ -76.695248, 0.280282 ], [ -76.714033, 0.277805 ], [ -76.727481, 0.284703 ], [ -76.757406, 0.273915 ], [ -76.758644, 0.269396 ], [ -76.754261, 0.26086 ], [ -76.759219, 0.255231 ], [ -76.7804, 0.252864 ], [ -76.791124, 0.260775 ], [ -76.8073, 0.264156 ], [ -76.830303, 0.254271 ], [ -76.839863, 0.2447 ], [ -76.847098, 0.242531 ], [ -76.874685, 0.24771 ], [ -76.897236, 0.248745 ], [ -76.905739, 0.249135 ], [ -76.958128, 0.266099 ], [ -76.990281, 0.268547 ], [ -77.013254, 0.279739 ], [ -77.032393, 0.273707 ], [ -77.05243, 0.284176 ], [ -77.079549, 0.287932 ], [ -77.085968, 0.296199 ], [ -77.08349, 0.310034 ], [ -77.085019, 0.316226 ], [ -77.096326, 0.330091 ], [ -77.111294, 0.357339 ], [ -77.128634, 0.373131 ], [ -77.181214, 0.374391 ], [ -77.205749, 0.361526 ], [ -77.253902, 0.352423 ], [ -77.37358, 0.386182 ], [ -77.382775, 0.380488 ], [ -77.391084, 0.362281 ], [ -77.402162, 0.361906 ], [ -77.429754, 0.385477 ], [ -77.449562, 0.38922 ], [ -77.4654, 0.3987 ], [ -77.478967, 0.445854 ], [ -77.483807, 0.497097 ], [ -77.492669, 0.529946 ], [ -77.480638, 0.600191 ], [ -77.483159, 0.60739 ], [ -77.50217, 0.631871 ], [ -77.521485, 0.645695 ], [ -77.536375, 0.649967 ], [ -77.55681, 0.647207 ], [ -77.598394, 0.667003 ], [ -77.650799, 0.714958 ], [ -77.686043, 0.720469 ], [ -77.695325, 0.727446 ], [ -77.700849, 0.741173 ], [ -77.698183, 0.750689 ], [ -77.657267, 0.781618 ], [ -77.652705, 0.791673 ], [ -77.656114, 0.801773 ], [ -77.67334, 0.816558 ], [ -77.70622, 0.837334 ], [ -77.716095, 0.838777 ], [ -77.736394, 0.830649 ], [ -77.765658, 0.830832 ], [ -77.793611, 0.824312 ], [ -77.817631, 0.804259 ], [ -77.842895, 0.797202 ], [ -77.960289, 0.812419 ], [ -77.974905, 0.819183 ], [ -78.014581, 0.852874 ], [ -78.060786, 0.872627 ], [ -78.120708, 0.913348 ], [ -78.156454, 0.94522 ], [ -78.183109, 0.978318 ], [ -78.199522, 0.993119 ], [ -78.250381, 1.015697 ], [ -78.315747, 1.030563 ], [ -78.355813, 1.050772 ], [ -78.374322, 1.064985 ], [ -78.408409, 1.100301 ], [ -78.419638, 1.124175 ], [ -78.422388, 1.130024 ], [ -78.435498, 1.148218 ], [ -78.454457, 1.15838 ], [ -78.487878, 1.182515 ], [ -78.532423, 1.19407 ], [ -78.550277, 1.195032 ], [ -78.568976, 1.218548 ], [ -78.585043, 1.230008 ], [ -78.609234, 1.240247 ], [ -78.625969, 1.256374 ], [ -78.642728, 1.265514 ], [ -78.657467, 1.277736 ], [ -78.673831, 1.2951 ], [ -78.691561, 1.339376 ], [ -78.698656, 1.345546 ], [ -78.723967, 1.355773 ], [ -78.734401, 1.376345 ], [ -78.750896, 1.388821 ], [ -78.760461, 1.394385 ], [ -78.769567, 1.391626 ], [ -78.776619, 1.393014 ], [ -78.780935, 1.420479 ], [ -78.784486, 1.419507 ], [ -78.784548, 1.410972 ], [ -78.792013, 1.411095 ], [ -78.796641, 1.4261 ], [ -78.794379, 1.43844 ], [ -78.789202, 1.446835 ], [ -78.799016, 1.451248 ], [ -78.807199, 1.4453 ], [ -78.810983, 1.455358 ], [ -78.814657, 1.45737 ], [ -78.823275, 1.452104 ], [ -78.831235, 1.451529 ], [ -78.833117, 1.455324 ], [ -78.829861, 1.460006 ], [ -78.817179, 1.467017 ], [ -78.814052, 1.473331 ], [ -78.844075, 1.477191 ], [ -78.859381, 1.487221 ], [ -78.870785, 1.508122 ], [ -78.868078, 1.528581 ], [ -78.87495, 1.549308 ], [ -78.881263, 1.550953 ], [ -78.893351, 1.546118 ], [ -78.901437, 1.546178 ], [ -78.914639, 1.55882 ], [ -78.933996, 1.568059 ], [ -78.959769, 1.591256 ], [ -78.988648, 1.6041 ], [ -79.000931, 1.624888 ], [ -79.003731, 1.651401 ], [ -78.990666, 1.666638 ], [ -78.958034, 1.685239 ], [ -78.927241, 1.735767 ], [ -78.871682, 1.791952 ], [ -78.836705, 1.813574 ], [ -78.817836, 1.811975 ], [ -78.805564, 1.815733 ], [ -78.787071, 1.805211 ], [ -78.762088, 1.80742 ], [ -78.737744, 1.790316 ], [ -78.723022, 1.753138 ], [ -78.719326, 1.758574 ], [ -78.718489, 1.780007 ], [ -78.715776, 1.78594 ], [ -78.698788, 1.777911 ], [ -78.687043, 1.784389 ], [ -78.638884, 1.792535 ], [ -78.604959, 1.791723 ], [ -78.597936, 1.772851 ], [ -78.569902, 1.756466 ], [ -78.564101, 1.757648 ], [ -78.559399, 1.788659 ], [ -78.546809, 1.807166 ], [ -78.547268, 1.826811 ], [ -78.542953, 1.862765 ], [ -78.556715, 1.89364 ], [ -78.572738, 1.897269 ], [ -78.58985, 1.896 ], [ -78.596982, 1.901564 ], [ -78.600522, 1.940675 ], [ -78.589586, 1.968127 ], [ -78.601233, 1.988504 ], [ -78.630365, 1.997971 ], [ -78.653084, 1.979279 ], [ -78.662729, 1.976732 ], [ -78.6685, 1.979771 ], [ -78.667429, 2.010457 ], [ -78.670253, 2.040237 ], [ -78.680079, 2.067138 ], [ -78.685348, 2.09768 ], [ -78.679895, 2.104269 ], [ -78.668107, 2.100218 ], [ -78.665113, 2.103299 ], [ -78.676678, 2.120646 ], [ -78.694505, 2.118149 ], [ -78.701367, 2.121796 ], [ -78.708658, 2.150036 ], [ -78.70886, 2.171553 ], [ -78.705608, 2.186064 ], [ -78.695067, 2.203337 ], [ -78.686627, 2.231338 ], [ -78.662336, 2.253025 ], [ -78.661635, 2.277504 ], [ -78.62156, 2.33988 ], [ -78.61971, 2.349711 ], [ -78.622019, 2.355835 ], [ -78.614076, 2.383886 ], [ -78.577522, 2.436407 ], [ -78.559257, 2.449442 ], [ -78.552357, 2.474651 ], [ -78.545369, 2.488463 ], [ -78.528886, 2.498829 ], [ -78.509457, 2.498047 ], [ -78.499221, 2.529962 ], [ -78.485345, 2.546394 ], [ -78.466194, 2.561631 ], [ -78.445199, 2.594869 ], [ -78.423533, 2.603103 ], [ -78.400008, 2.606341 ], [ -78.370146, 2.634646 ], [ -78.342112, 2.648098 ], [ -78.336141, 2.649365 ], [ -78.333197, 2.645571 ], [ -78.335819, 2.625399 ], [ -78.324786, 2.60581 ], [ -78.305541, 2.598509 ], [ -78.295744, 2.601983 ], [ -78.291218, 2.612388 ], [ -78.301341, 2.641605 ], [ -78.298737, 2.658786 ], [ -78.281028, 2.657685 ], [ -78.246497, 2.661184 ], [ -78.23556, 2.63467 ], [ -78.184816, 2.592168 ], [ -78.183579, 2.597085 ], [ -78.190634, 2.621141 ], [ -78.192218, 2.638958 ], [ -78.202973, 2.664691 ], [ -78.19305, 2.671205 ], [ -78.151065, 2.678643 ], [ -78.139389, 2.664761 ], [ -78.137838, 2.648623 ], [ -78.119053, 2.630336 ], [ -78.110998, 2.631483 ], [ -78.098785, 2.643837 ], [ -78.092658, 2.642654 ], [ -78.085288, 2.636751 ], [ -78.063425, 2.597298 ], [ -78.067198, 2.580113 ], [ -78.066322, 2.570181 ], [ -78.060246, 2.563088 ], [ -78.051852, 2.560625 ], [ -78.038051, 2.565741 ], [ -78.032712, 2.57236 ], [ -78.034566, 2.574905 ], [ -78.051946, 2.566427 ], [ -78.057772, 2.568833 ], [ -78.060649, 2.573497 ], [ -78.045905, 2.589869 ], [ -78.051939, 2.619083 ], [ -78.043669, 2.634913 ], [ -78.031948, 2.644782 ], [ -78.0178, 2.646065 ], [ -78.002554, 2.652834 ], [ -77.976308, 2.65779 ], [ -77.969453, 2.652597 ], [ -77.964088, 2.640866 ], [ -77.953925, 2.633657 ], [ -77.93894, 2.627136 ], [ -77.929555, 2.634581 ], [ -77.921033, 2.635922 ], [ -77.904399, 2.617801 ], [ -77.891742, 2.614358 ], [ -77.88913, 2.618404 ], [ -77.89625, 2.622443 ], [ -77.902634, 2.633011 ], [ -77.909314, 2.660297 ], [ -77.90751, 2.672393 ], [ -77.896874, 2.679533 ], [ -77.883921, 2.679046 ], [ -77.871442, 2.69204 ], [ -77.850442, 2.694138 ], [ -77.839374, 2.699231 ], [ -77.81082, 2.685132 ], [ -77.793397, 2.644353 ], [ -77.788645, 2.643844 ], [ -77.782059, 2.647635 ], [ -77.780739, 2.651882 ], [ -77.787093, 2.662071 ], [ -77.786025, 2.688211 ], [ -77.794507, 2.70572 ], [ -77.796654, 2.736393 ], [ -77.793293, 2.751403 ], [ -77.786816, 2.757206 ], [ -77.756816, 2.765314 ], [ -77.737032, 2.776215 ], [ -77.73699, 2.783756 ], [ -77.753972, 2.79159 ], [ -77.756072, 2.801199 ], [ -77.740607, 2.81774 ], [ -77.719703, 2.82745 ], [ -77.702619, 2.856497 ], [ -77.691747, 2.858664 ], [ -77.677915, 2.855425 ], [ -77.673477, 2.857563 ], [ -77.683413, 2.871299 ], [ -77.694746, 2.897258 ], [ -77.681713, 2.927908 ], [ -77.661925, 2.937793 ], [ -77.659846, 2.9489 ], [ -77.667163, 2.964477 ], [ -77.670323, 2.980349 ], [ -77.680735, 2.98519 ], [ -77.692256, 2.979596 ], [ -77.695767, 2.980758 ], [ -77.670373, 3.035687 ], [ -77.647077, 3.063725 ], [ -77.619119, 3.086169 ], [ -77.576852, 3.141949 ], [ -77.558067, 3.175978 ], [ -77.545733, 3.20517 ], [ -77.537897, 3.242493 ], [ -77.504275, 3.289729 ], [ -77.484831, 3.307383 ], [ -77.470886, 3.326022 ], [ -77.443187, 3.350694 ], [ -77.411317, 3.367685 ], [ -77.371541, 3.437542 ], [ -77.363421, 3.482013 ], [ -77.338314, 3.5108 ], [ -77.312028, 3.551288 ], [ -77.263972, 3.575062 ], [ -77.226277, 3.586541 ], [ -77.199756, 3.610558 ], [ -77.183701, 3.648121 ], [ -77.15717, 3.647206 ], [ -77.170909, 3.686677 ], [ -77.176346, 3.688963 ], [ -77.184928, 3.686284 ], [ -77.188129, 3.688944 ], [ -77.193995, 3.73796 ], [ -77.18783, 3.747872 ], [ -77.155686, 3.754678 ], [ -77.145617, 3.759718 ], [ -77.139095, 3.778072 ], [ -77.144712, 3.778487 ], [ -77.156165, 3.768492 ], [ -77.168164, 3.769257 ], [ -77.177793, 3.804349 ], [ -77.15769, 3.802369 ], [ -77.143245, 3.791043 ], [ -77.141883, 3.800777 ], [ -77.132467, 3.802869 ], [ -77.127456, 3.811847 ], [ -77.113704, 3.820952 ], [ -77.104373, 3.844179 ], [ -77.088899, 3.854255 ], [ -77.070301, 3.860716 ], [ -77.059773, 3.869367 ], [ -77.058339, 3.876043 ], [ -77.069312, 3.879816 ], [ -77.073777, 3.888443 ], [ -77.056538, 3.892873 ], [ -77.051122, 3.900041 ], [ -77.056768, 3.905168 ], [ -77.073945, 3.903789 ], [ -77.091965, 3.907638 ], [ -77.096862, 3.902253 ], [ -77.097167, 3.886881 ], [ -77.100252, 3.880195 ], [ -77.117365, 3.877654 ], [ -77.18527, 3.836576 ], [ -77.246725, 3.832551 ], [ -77.273711, 3.840034 ], [ -77.297885, 3.867587 ], [ -77.290751, 3.88384 ], [ -77.289778, 3.89405 ], [ -77.317538, 3.910898 ], [ -77.313037, 3.947257 ], [ -77.302493, 3.96079 ], [ -77.29941, 3.970645 ], [ -77.281373, 3.979492 ], [ -77.262621, 3.977919 ], [ -77.253016, 3.970062 ], [ -77.240985, 3.973451 ], [ -77.241589, 3.987803 ], [ -77.213382, 4.010692 ], [ -77.207327, 4.022143 ], [ -77.21919, 4.029558 ], [ -77.202938, 4.032682 ], [ -77.195482, 4.053804 ], [ -77.214475, 4.062822 ], [ -77.248061, 4.058952 ], [ -77.252431, 4.066593 ], [ -77.271293, 4.052894 ], [ -77.283482, 4.051994 ], [ -77.293352, 4.046579 ], [ -77.317295, 4.007516 ], [ -77.32533, 3.980061 ], [ -77.336117, 3.963622 ], [ -77.345483, 3.941681 ], [ -77.357136, 3.934047 ], [ -77.376848, 3.959607 ], [ -77.386354, 3.978743 ], [ -77.411884, 3.992743 ], [ -77.430914, 4.012234 ], [ -77.434426, 4.033824 ], [ -77.428556, 4.052948 ], [ -77.434207, 4.06964 ], [ -77.440368, 4.072291 ], [ -77.453651, 4.070022 ], [ -77.466559, 4.075916 ], [ -77.485584, 4.091355 ], [ -77.523294, 4.137414 ], [ -77.522408, 4.189251 ], [ -77.528152, 4.215963 ], [ -77.523606, 4.251487 ], [ -77.516619, 4.270474 ], [ -77.502141, 4.286252 ], [ -77.491075, 4.288911 ], [ -77.487003, 4.281983 ], [ -77.489636, 4.2674 ], [ -77.481483, 4.263802 ], [ -77.449356, 4.283065 ], [ -77.447369, 4.295977 ], [ -77.423968, 4.299896 ], [ -77.429025, 4.314304 ], [ -77.426353, 4.323147 ], [ -77.405282, 4.354293 ], [ -77.372842, 4.376504 ], [ -77.361936, 4.400285 ], [ -77.347551, 4.422152 ], [ -77.348079, 4.443431 ], [ -77.340698, 4.497245 ], [ -77.326232, 4.524317 ], [ -77.333479, 4.544678 ], [ -77.327135, 4.577408 ], [ -77.326172, 4.650785 ], [ -77.32166, 4.662182 ], [ -77.310835, 4.650188 ], [ -77.306824, 4.65569 ], [ -77.308767, 4.673841 ], [ -77.32513, 4.692072 ], [ -77.325239, 4.729514 ], [ -77.317687, 4.740127 ], [ -77.300812, 4.738426 ], [ -77.295097, 4.741704 ], [ -77.314366, 4.774956 ], [ -77.336691, 4.782414 ], [ -77.335191, 4.800932 ], [ -77.347745, 4.810586 ], [ -77.357349, 4.854142 ], [ -77.353385, 4.865523 ], [ -77.343352, 4.863208 ], [ -77.340705, 4.867708 ], [ -77.346865, 4.884387 ], [ -77.358874, 4.899875 ], [ -77.363229, 4.917726 ], [ -77.353898, 4.953612 ], [ -77.367113, 4.957572 ], [ -77.375036, 4.972617 ], [ -77.377972, 5.069765 ], [ -77.367109, 5.0938 ], [ -77.379284, 5.115683 ], [ -77.383321, 5.140189 ], [ -77.377178, 5.146337 ], [ -77.354676, 5.142035 ], [ -77.350726, 5.146895 ], [ -77.360323, 5.150213 ], [ -77.366503, 5.157233 ], [ -77.373541, 5.175559 ], [ -77.372893, 5.190672 ], [ -77.37843, 5.187123 ], [ -77.387079, 5.165849 ], [ -77.390586, 5.16556 ], [ -77.392765, 5.16999 ], [ -77.386276, 5.24537 ], [ -77.387126, 5.278772 ], [ -77.380306, 5.277304 ], [ -77.370689, 5.266354 ], [ -77.367307, 5.266321 ], [ -77.366461, 5.269557 ], [ -77.367322, 5.293948 ], [ -77.374839, 5.317665 ], [ -77.395084, 5.321007 ], [ -77.401321, 5.327339 ], [ -77.391588, 5.348509 ], [ -77.401811, 5.358972 ], [ -77.408806, 5.398714 ], [ -77.405775, 5.404089 ], [ -77.398529, 5.407386 ], [ -77.39852, 5.413816 ], [ -77.392912, 5.424072 ], [ -77.392723, 5.434002 ], [ -77.408982, 5.44778 ], [ -77.423886, 5.44027 ], [ -77.434416, 5.468051 ], [ -77.455539, 5.48432 ], [ -77.473835, 5.48417 ], [ -77.493591, 5.475022 ], [ -77.524769, 5.482014 ], [ -77.531043, 5.487955 ], [ -77.510678, 5.526644 ], [ -77.504781, 5.57389 ], [ -77.492886, 5.598221 ], [ -77.485496, 5.601306 ], [ -77.472676, 5.598905 ], [ -77.454887, 5.600363 ], [ -77.424001, 5.621482 ], [ -77.407741, 5.627214 ], [ -77.391891, 5.625315 ], [ -77.378001, 5.61421 ], [ -77.369126, 5.611056 ], [ -77.34097, 5.621774 ], [ -77.316215, 5.662312 ], [ -77.298409, 5.675135 ], [ -77.265212, 5.717345 ], [ -77.255904, 5.746189 ], [ -77.253484, 5.768437 ], [ -77.245594, 5.772456 ], [ -77.247461, 5.789268 ], [ -77.259412, 5.801544 ], [ -77.277756, 5.836335 ], [ -77.289893, 5.850159 ], [ -77.303078, 5.878501 ], [ -77.309249, 5.918423 ], [ -77.320222, 5.9422 ], [ -77.3346, 5.993235 ], [ -77.346719, 6.0171 ], [ -77.351946, 6.038349 ], [ -77.355943, 6.040155 ], [ -77.354636, 6.01462 ], [ -77.357651, 6.008291 ], [ -77.378531, 6.048546 ], [ -77.419099, 6.09068 ], [ -77.453105, 6.13377 ], [ -77.47046, 6.164348 ], [ -77.479205, 6.190223 ], [ -77.464872, 6.279225 ], [ -77.434072, 6.264285 ], [ -77.410208, 6.234092 ], [ -77.403646, 6.233622 ], [ -77.398237, 6.239473 ], [ -77.39454, 6.256259 ], [ -77.3831, 6.282405 ], [ -77.372593, 6.349378 ], [ -77.379335, 6.362895 ], [ -77.396905, 6.372778 ], [ -77.406096, 6.383991 ], [ -77.400581, 6.389212 ], [ -77.372657, 6.390762 ], [ -77.363238, 6.397122 ], [ -77.362884, 6.408153 ], [ -77.369021, 6.427126 ], [ -77.355023, 6.462397 ], [ -77.356019, 6.485376 ], [ -77.339278, 6.510445 ], [ -77.328648, 6.551734 ], [ -77.33167, 6.561294 ], [ -77.338451, 6.570276 ], [ -77.368037, 6.585322 ], [ -77.376506, 6.603396 ], [ -77.396529, 6.622848 ], [ -77.402404, 6.642672 ], [ -77.400134, 6.664321 ], [ -77.402951, 6.677059 ], [ -77.407498, 6.683775 ], [ -77.424911, 6.689505 ], [ -77.447357, 6.7036 ], [ -77.488532, 6.703266 ], [ -77.496472, 6.699402 ], [ -77.501332, 6.692788 ], [ -77.510552, 6.660536 ], [ -77.527229, 6.658604 ], [ -77.53438, 6.669116 ], [ -77.536126, 6.701072 ], [ -77.549447, 6.740525 ], [ -77.561099, 6.763299 ], [ -77.57057, 6.7927 ], [ -77.587946, 6.816114 ], [ -77.621866, 6.843431 ], [ -77.652528, 6.856693 ], [ -77.669969, 6.872397 ], [ -77.681089, 6.868636 ], [ -77.689772, 6.843555 ], [ -77.692459, 6.840966 ], [ -77.695647, 6.841975 ], [ -77.707973, 6.877728 ], [ -77.705369, 6.903033 ], [ -77.691999, 6.939504 ], [ -77.679572, 6.950522 ], [ -77.665346, 6.957648 ], [ -77.658628, 6.971862 ], [ -77.662609, 6.993366 ], [ -77.678781, 7.021792 ], [ -77.683896, 7.039384 ], [ -77.701713, 7.059288 ], [ -77.709686, 7.076874 ], [ -77.721097, 7.081 ], [ -77.743204, 7.100884 ], [ -77.764296, 7.106393 ], [ -77.792547, 7.140853 ], [ -77.821039, 7.151739 ], [ -77.843456, 7.181688 ], [ -77.862523, 7.196014 ], [ -77.88079, 7.215608 ], [ -77.893005, 7.221751 ], [ -77.793211, 7.477505 ], [ -77.763109, 7.461359 ], [ -77.746712, 7.460971 ], [ -77.704128, 7.507731 ], [ -77.704407, 7.521064 ], [ -77.735261, 7.578705 ], [ -77.737544, 7.601459 ], [ -77.747407, 7.613602 ], [ -77.742558, 7.634475 ], [ -77.7465, 7.651874 ], [ -77.740144, 7.68413 ], [ -77.727787, 7.695151 ], [ -77.718623, 7.695469 ], [ -77.67864, 7.679695 ], [ -77.671489, 7.669913 ], [ -77.647202, 7.653777 ], [ -77.638657, 7.610411 ], [ -77.626923, 7.590498 ], [ -77.622226, 7.575263 ], [ -77.611233, 7.559857 ], [ -77.609944, 7.542565 ], [ -77.594633, 7.53467 ], [ -77.588319, 7.521509 ], [ -77.573065, 7.506516 ], [ -77.565743, 7.506456 ], [ -77.547346, 7.525757 ], [ -77.5296, 7.55431 ], [ -77.526565, 7.569276 ], [ -77.521762, 7.575054 ], [ -77.517838, 7.5759 ], [ -77.494845, 7.567847 ], [ -77.491948, 7.569251 ], [ -77.487936, 7.577073 ], [ -77.480261, 7.61363 ], [ -77.466124, 7.635425 ], [ -77.46858, 7.653848 ], [ -77.450266, 7.658061 ], [ -77.443089, 7.66299 ], [ -77.437615, 7.683316 ], [ -77.390968, 7.757935 ], [ -77.37228, 7.768035 ], [ -77.34927, 7.765623 ], [ -77.343445, 7.768411 ], [ -77.340222, 7.782973 ], [ -77.345624, 7.788772 ], [ -77.357365, 7.791379 ], [ -77.356127, 7.80672 ], [ -77.362055, 7.814276 ], [ -77.365018, 7.825564 ], [ -77.361188, 7.83723 ], [ -77.346399, 7.85092 ], [ -77.337048, 7.865348 ], [ -77.334433, 7.87622 ], [ -77.336948, 7.888818 ], [ -77.335157, 7.894386 ], [ -77.316006, 7.898769 ], [ -77.300406, 7.911161 ], [ -77.27995, 7.908285 ], [ -77.258389, 7.91668 ], [ -77.211367, 7.919918 ], [ -77.188602, 7.924636 ], [ -77.177399, 7.935775 ], [ -77.174775, 7.945335 ], [ -77.176782, 7.956829 ], [ -77.16627, 7.968903 ], [ -77.205631, 8.007685 ], [ -77.232165, 8.022764 ], [ -77.226612, 8.030284 ], [ -77.226962, 8.060287 ], [ -77.218576, 8.088082 ], [ -77.230476, 8.106128 ], [ -77.234754, 8.125705 ], [ -77.24699, 8.146417 ], [ -77.256096, 8.148763 ], [ -77.269749, 8.157265 ], [ -77.266396, 8.164125 ], [ -77.249574, 8.172924 ], [ -77.250287, 8.182308 ], [ -77.260417, 8.194194 ], [ -77.260373, 8.20806 ], [ -77.265859, 8.215387 ], [ -77.293964, 8.216966 ], [ -77.298184, 8.230026 ], [ -77.289912, 8.247916 ], [ -77.294932, 8.263617 ], [ -77.302268, 8.273163 ], [ -77.316006, 8.271091 ], [ -77.336727, 8.275607 ], [ -77.35025, 8.298447 ], [ -77.354644, 8.318004 ], [ -77.350217, 8.340254 ], [ -77.355272, 8.350172 ], [ -77.363669, 8.35823 ], [ -77.357202, 8.389969 ], [ -77.384601, 8.430121 ], [ -77.39582, 8.458822 ], [ -77.405369, 8.469236 ], [ -77.417355, 8.47567 ], [ -77.436875, 8.471606 ], [ -77.446835, 8.474408 ], [ -77.449498, 8.497126 ], [ -77.45504, 8.507748 ], [ -77.442256, 8.521398 ], [ -77.436824, 8.553114 ], [ -77.420501, 8.565091 ], [ -77.416535, 8.586736 ], [ -77.401836, 8.602983 ], [ -77.402665, 8.622151 ], [ -77.408019, 8.635112 ], [ -77.407925, 8.644122 ], [ -77.393475, 8.648505 ], [ -77.374582, 8.638744 ], [ -77.369258, 8.63858 ], [ -77.367242, 8.642207 ], [ -77.369785, 8.657682 ], [ -77.367513, 8.672848 ], [ -77.360537, 8.670734 ], [ -77.363549, 8.65787 ], [ -77.348177, 8.648555 ], [ -77.341457, 8.62492 ], [ -77.327698, 8.617404 ], [ -77.319802, 8.599839 ], [ -77.285344, 8.566266 ], [ -77.279602, 8.555261 ], [ -77.271074, 8.522233 ], [ -77.272171, 8.504891 ], [ -77.255314, 8.489514 ], [ -77.247516, 8.472395 ], [ -77.193113, 8.439273 ], [ -77.16529, 8.433132 ], [ -77.156373, 8.42388 ], [ -77.133042, 8.410897 ], [ -77.126289, 8.39658 ], [ -77.116472, 8.38503 ], [ -77.113439, 8.367235 ], [ -77.079271, 8.323705 ], [ -77.072011, 8.303772 ], [ -77.048156, 8.274905 ], [ -77.037586, 8.257188 ], [ -77.010512, 8.251167 ], [ -76.970176, 8.256241 ], [ -76.955422, 8.25253 ], [ -76.956243, 8.241695 ], [ -76.964905, 8.240274 ], [ -76.967021, 8.236095 ], [ -76.9658, 8.209501 ], [ -76.95947, 8.192361 ], [ -76.940025, 8.18218 ], [ -76.936337, 8.18692 ], [ -76.931942, 8.185784 ], [ -76.921363, 8.193019 ], [ -76.914113, 8.19019 ], [ -76.914445, 8.180571 ], [ -76.928564, 8.172202 ], [ -76.93372, 8.16355 ], [ -76.942762, 8.161329 ], [ -76.949206, 8.14437 ], [ -76.949914, 8.127422 ], [ -76.938721, 8.113061 ], [ -76.93358, 8.096752 ], [ -76.921912, 8.093934 ], [ -76.90107, 8.104033 ], [ -76.897236, 8.108363 ], [ -76.890116, 8.116404 ], [ -76.885193, 8.130482 ], [ -76.8404, 8.137576 ], [ -76.822906, 8.133578 ], [ -76.829467, 8.127524 ], [ -76.848941, 8.120155 ], [ -76.853083, 8.11479 ], [ -76.85033, 8.093475 ], [ -76.84493, 8.090972 ], [ -76.834776, 8.091753 ], [ -76.834217, 8.086782 ], [ -76.867441, 8.068993 ], [ -76.862162, 8.063082 ], [ -76.844698, 8.059533 ], [ -76.837563, 8.054752 ], [ -76.837837, 8.04752 ], [ -76.853244, 8.054478 ], [ -76.866509, 8.049846 ], [ -76.857397, 8.035958 ], [ -76.844224, 8.026897 ], [ -76.841816, 8.021667 ], [ -76.870992, 8.024808 ], [ -76.88311, 8.040532 ], [ -76.893445, 8.044489 ], [ -76.897236, 8.043439 ], [ -76.911012, 8.039621 ], [ -76.922619, 8.024022 ], [ -76.931747, 7.945395 ], [ -76.929406, 7.932036 ], [ -76.924217, 7.922764 ], [ -76.906686, 7.911853 ], [ -76.897236, 7.909971 ], [ -76.859784, 7.90251 ], [ -76.807756, 7.904567 ], [ -76.766648, 7.912612 ], [ -76.75358, 7.920728 ], [ -76.748923, 7.936508 ], [ -76.741994, 7.946502 ], [ -76.742267, 7.962102 ], [ -76.729851, 7.980617 ], [ -76.739359, 8.014416 ], [ -76.731879, 8.026354 ], [ -76.729935, 8.035332 ], [ -76.720103, 8.044239 ], [ -76.717291, 8.058621 ], [ -76.723242, 8.078358 ], [ -76.72975, 8.084808 ], [ -76.733758, 8.082789 ], [ -76.736597, 8.069895 ], [ -76.739724, 8.068639 ], [ -76.742012, 8.071141 ], [ -76.74105, 8.107058 ], [ -76.743986, 8.112626 ], [ -76.750248, 8.115763 ], [ -76.752018, 8.121023 ], [ -76.743466, 8.14359 ], [ -76.741136, 8.172462 ], [ -76.757282, 8.241014 ], [ -76.77164, 8.264591 ], [ -76.754716, 8.326078 ], [ -76.755268, 8.339645 ], [ -76.760155, 8.356654 ], [ -76.760221, 8.393881 ], [ -76.770845, 8.414271 ], [ -76.788588, 8.425712 ], [ -76.802966, 8.46264 ], [ -76.813334, 8.480642 ], [ -76.827137, 8.496194 ], [ -76.855339, 8.512886 ], [ -76.897236, 8.528756 ], [ -76.926938, 8.531167 ], [ -76.934834, 8.543312 ], [ -76.933017, 8.554531 ], [ -76.897236, 8.588619 ], [ -76.893094, 8.59255 ], [ -76.880609, 8.621275 ], [ -76.772293, 8.635582 ], [ -76.691894, 8.655545 ], [ -76.651461, 8.672661 ], [ -76.637522, 8.689561 ], [ -76.635793, 8.709914 ], [ -76.625259, 8.730805 ], [ -76.561457, 8.754463 ], [ -76.529559, 8.770744 ], [ -76.515353, 8.783324 ], [ -76.502182, 8.807636 ], [ -76.474427, 8.82824 ], [ -76.426745, 8.85649 ], [ -76.416475, 8.870262 ], [ -76.407968, 8.890098 ], [ -76.335256, 8.924301 ], [ -76.325584, 8.937027 ], [ -76.316134, 8.959243 ], [ -76.268897, 8.998128 ], [ -76.261408, 9.033239 ], [ -76.252188, 9.053048 ], [ -76.214031, 9.089723 ], [ -76.188819, 9.120487 ], [ -76.179871, 9.14985 ], [ -76.177667, 9.1858 ], [ -76.166584, 9.227326 ], [ -76.124257, 9.252635 ], [ -76.110426, 9.264739 ], [ -76.104104, 9.27981 ], [ -76.107849, 9.294496 ], [ -76.106268, 9.303027 ], [ -76.080826, 9.331886 ], [ -76.018184, 9.355147 ], [ -75.970621, 9.384727 ], [ -75.960409, 9.401089 ], [ -75.965457, 9.419071 ], [ -75.948695, 9.438732 ], [ -75.924626, 9.444087 ], [ -75.905326, 9.432604 ], [ -75.880699, 9.425458 ], [ -75.802542, 9.428433 ], [ -75.799725, 9.425702 ], [ -75.798545, 9.415672 ], [ -75.821603, 9.414164 ], [ -75.828756, 9.409206 ], [ -75.830313, 9.401275 ], [ -75.824145, 9.397767 ], [ -75.807812, 9.400554 ], [ -75.785589, 9.396511 ], [ -75.737676, 9.418654 ], [ -75.674974, 9.407679 ], [ -75.639649, 9.427447 ], [ -75.62361, 9.445612 ], [ -75.604198, 9.4775 ], [ -75.579326, 9.546493 ], [ -75.57304, 9.581348 ], [ -75.574717, 9.616074 ], [ -75.582507, 9.641456 ], [ -75.61517, 9.690715 ], [ -75.656967, 9.705705 ], [ -75.692005, 9.709951 ], [ -75.67547, 9.733858 ], [ -75.646601, 9.759463 ], [ -75.641096, 9.776727 ], [ -75.624833, 9.806218 ], [ -75.615692, 9.840428 ], [ -75.616244, 9.871536 ], [ -75.599776, 9.902895 ], [ -75.592884, 9.933364 ], [ -75.581564, 9.95408 ], [ -75.577114, 9.969956 ], [ -75.580736, 9.997854 ], [ -75.573273, 10.019459 ], [ -75.571376, 10.067758 ], [ -75.578133, 10.119639 ], [ -75.574817, 10.123966 ], [ -75.562445, 10.129237 ], [ -75.53877, 10.157298 ], [ -75.537917, 10.16212 ], [ -75.54247, 10.170601 ], [ -75.54129, 10.181063 ], [ -75.531475, 10.178211 ], [ -75.523924, 10.182276 ], [ -75.522745, 10.195022 ], [ -75.526884, 10.218146 ], [ -75.533986, 10.223682 ], [ -75.5413, 10.224218 ], [ -75.532039, 10.237057 ], [ -75.538348, 10.240687 ], [ -75.545166, 10.240126 ], [ -75.559453, 10.229559 ], [ -75.579931, 10.219887 ], [ -75.602392, 10.202289 ], [ -75.624521, 10.191969 ], [ -75.63657, 10.182339 ], [ -75.652391, 10.158079 ], [ -75.670636, 10.140337 ], [ -75.689827, 10.134289 ], [ -75.698449, 10.139923 ], [ -75.682027, 10.156168 ], [ -75.65947, 10.165139 ], [ -75.652042, 10.176308 ], [ -75.630948, 10.195462 ], [ -75.607815, 10.226927 ], [ -75.593937, 10.231693 ], [ -75.595558, 10.236519 ], [ -75.608547, 10.243521 ], [ -75.615544, 10.252135 ], [ -75.610773, 10.258193 ], [ -75.594513, 10.265872 ], [ -75.592732, 10.280727 ], [ -75.586812, 10.292648 ], [ -75.582028, 10.292976 ], [ -75.576853, 10.277949 ], [ -75.561925, 10.267306 ], [ -75.552267, 10.275095 ], [ -75.535691, 10.28111 ], [ -75.527913, 10.298107 ], [ -75.517738, 10.298377 ], [ -75.506969, 10.304844 ], [ -75.509304, 10.329674 ], [ -75.507637, 10.346606 ], [ -75.511734, 10.375685 ], [ -75.518073, 10.383288 ], [ -75.528517, 10.389382 ], [ -75.529142, 10.402575 ], [ -75.539684, 10.409749 ], [ -75.549058, 10.422037 ], [ -75.511628, 10.457341 ], [ -75.495195, 10.483823 ], [ -75.500327, 10.50586 ], [ -75.498046, 10.538662 ], [ -75.510966, 10.559885 ], [ -75.508809, 10.570658 ], [ -75.479094, 10.582099 ], [ -75.46494, 10.590811 ], [ -75.458721, 10.600037 ], [ -75.449046, 10.62645 ], [ -75.406362, 10.65862 ], [ -75.389878, 10.680728 ], [ -75.356621, 10.69012 ], [ -75.311703, 10.697099 ], [ -75.281489, 10.712335 ], [ -75.271686, 10.738561 ], [ -75.269222, 10.777251 ], [ -75.260426, 10.79556 ], [ -75.224754, 10.799101 ], [ -75.203892, 10.817337 ], [ -75.17769, 10.828916 ], [ -75.155871, 10.834635 ], [ -75.131783, 10.8587 ], [ -75.107469, 10.866788 ], [ -75.079573, 10.884985 ], [ -75.054753, 10.895134 ], [ -75.041459, 10.910031 ], [ -75.02988, 10.940198 ], [ -75.033614, 10.947576 ], [ -75.045221, 10.943612 ], [ -75.046932, 10.945666 ], [ -75.022647, 10.967836 ], [ -75.005899, 10.977993 ], [ -74.977263, 10.984102 ], [ -74.961965, 10.990601 ], [ -74.947821, 11.01076 ], [ -74.925043, 11.028767 ], [ -74.91686, 11.043179 ], [ -74.880131, 11.045699 ], [ -74.852907, 11.055928 ], [ -74.84648, 11.068092 ], [ -74.848981, 11.103496 ], [ -74.765159, 11.074252 ], [ -74.603528, 11.010307 ], [ -74.540171, 10.992612 ], [ -74.483337, 10.980833 ], [ -74.43991, 10.976027 ], [ -74.346514, 10.977639 ], [ -74.310689, 10.984421 ], [ -74.27296, 11.003614 ], [ -74.247155, 11.02446 ], [ -74.238515, 11.041128 ], [ -74.21767, 11.06963 ], [ -74.221734, 11.096691 ], [ -74.23125, 11.118748 ], [ -74.228114, 11.150205 ], [ -74.237849, 11.178396 ], [ -74.230666, 11.202904 ], [ -74.236011, 11.219264 ], [ -74.220672, 11.23732 ], [ -74.212707, 11.254212 ], [ -74.1955, 11.264793 ], [ -74.202923, 11.275879 ], [ -74.193867, 11.290753 ], [ -74.191501, 11.299994 ], [ -74.173013, 11.304719 ], [ -74.164715, 11.297577 ], [ -74.152122, 11.299171 ], [ -74.149858, 11.304221 ], [ -74.156516, 11.321045 ], [ -74.155549, 11.324653 ], [ -74.144379, 11.332288 ], [ -74.133086, 11.319568 ], [ -74.128352, 11.321835 ], [ -74.123512, 11.330692 ], [ -74.107199, 11.322914 ], [ -74.105961, 11.327643 ], [ -74.109301, 11.339287 ], [ -74.107498, 11.342577 ], [ -74.098947, 11.336192 ], [ -74.095703, 11.321932 ], [ -74.084619, 11.318503 ], [ -74.079076, 11.320648 ], [ -74.077352, 11.334345 ], [ -74.072704, 11.34076 ], [ -74.065949, 11.341446 ], [ -74.060565, 11.331939 ], [ -74.05628, 11.330099 ], [ -74.05207, 11.332525 ], [ -74.05157, 11.341117 ], [ -74.045577, 11.346631 ], [ -74.037365, 11.341667 ], [ -74.026848, 11.344406 ], [ -73.978449, 11.33834 ], [ -73.949028, 11.31639 ], [ -73.928204, 11.309143 ], [ -73.89639, 11.298665 ], [ -73.859301, 11.275251 ], [ -73.789444, 11.256621 ], [ -73.777635, 11.257608 ], [ -73.769346, 11.262948 ], [ -73.760041, 11.264544 ], [ -73.717765, 11.253987 ], [ -73.709509, 11.254303 ], [ -73.696643, 11.259738 ], [ -73.659731, 11.252732 ], [ -73.590449, 11.262514 ], [ -73.533462, 11.251924 ], [ -73.483305, 11.262895 ], [ -73.437545, 11.257907 ], [ -73.414744, 11.262479 ], [ -73.355491, 11.263253 ], [ -73.29938, 11.277901 ], [ -73.266986, 11.291544 ], [ -73.24884, 11.309357 ], [ -73.222863, 11.323892 ], [ -73.198593, 11.342022 ], [ -73.191932, 11.351673 ], [ -73.187533, 11.366015 ], [ -73.158987, 11.385119 ], [ -73.143419, 11.405496 ], [ -73.109822, 11.417319 ], [ -73.095388, 11.425593 ], [ -73.032141, 11.488082 ], [ -72.993162, 11.511849 ], [ -72.964473, 11.521976 ], [ -72.934493, 11.541315 ], [ -72.880733, 11.566977 ], [ -72.868343, 11.5875 ], [ -72.843296, 11.613513 ], [ -72.832875, 11.629172 ], [ -72.794267, 11.655846 ], [ -72.767015, 11.679531 ], [ -72.734419, 11.693895 ], [ -72.720081, 11.700213 ], [ -72.684712, 11.706197 ], [ -72.658344, 11.71717 ], [ -72.641686, 11.717031 ], [ -72.624224, 11.720962 ], [ -72.592952, 11.74508 ], [ -72.582949, 11.74594 ], [ -72.569748, 11.742728 ], [ -72.55593, 11.746209 ], [ -72.544647, 11.752642 ], [ -72.532711, 11.768012 ], [ -72.518094, 11.774536 ], [ -72.473376, 11.777644 ], [ -72.458667, 11.776085 ], [ -72.415988, 11.791049 ], [ -72.380939, 11.81736 ], [ -72.350631, 11.829513 ], [ -72.34829, 11.830452 ], [ -72.318443, 11.848508 ], [ -72.297143, 11.856177 ], [ -72.252133, 11.887951 ], [ -72.248417, 11.887812 ], [ -72.251126, 11.879787 ], [ -72.248713, 11.877584 ], [ -72.229212, 11.887128 ], [ -72.224167, 11.893466 ], [ -72.223541, 11.899063 ], [ -72.235542, 11.892654 ], [ -72.239067, 11.896481 ], [ -72.226018, 11.911506 ], [ -72.215469, 11.929875 ], [ -72.199034, 11.975746 ], [ -72.197809, 11.977576 ], [ -72.18432, 11.997726 ], [ -72.178021, 12.019056 ], [ -72.162905, 12.046991 ], [ -72.139378, 12.103317 ], [ -72.143526, 12.1722 ], [ -72.148089, 12.196932 ], [ -72.155474, 12.205496 ], [ -72.177974, 12.207715 ], [ -72.175255, 12.216385 ], [ -72.139685, 12.238725 ], [ -72.082736, 12.232798 ], [ -72.034579, 12.242075 ], [ -72.015515, 12.242135 ], [ -71.974018, 12.255392 ], [ -71.964069, 12.255872 ], [ -71.958128, 12.248552 ], [ -71.968806, 12.22329 ], [ -71.986344, 12.210923 ], [ -71.988934, 12.199604 ], [ -71.995105, 12.197405 ], [ -71.998824, 12.187159 ], [ -71.982927, 12.173424 ], [ -71.984302, 12.150311 ], [ -71.973484, 12.15479 ], [ -71.962986, 12.146934 ], [ -71.929521, 12.152089 ], [ -71.919948, 12.167085 ], [ -71.919793, 12.181219 ], [ -71.911748, 12.183091 ], [ -71.897376, 12.1922 ], [ -71.868459, 12.192229 ], [ -71.864659, 12.196201 ], [ -71.861667, 12.211388 ], [ -71.864164, 12.219023 ], [ -71.877932, 12.234053 ], [ -71.871671, 12.246919 ], [ -71.878744, 12.251672 ], [ -71.889318, 12.252288 ], [ -71.89031, 12.261333 ], [ -71.887464, 12.268286 ], [ -71.892836, 12.275393 ], [ -71.899521, 12.277312 ], [ -71.938104, 12.2749 ], [ -71.94839, 12.267681 ], [ -71.953029, 12.272785 ], [ -71.9405, 12.282322 ], [ -71.927824, 12.297046 ], [ -71.909411, 12.308977 ], [ -71.860836, 12.354943 ], [ -71.841479, 12.352942 ], [ -71.828174, 12.361705 ], [ -71.820957, 12.371459 ], [ -71.811246, 12.371039 ], [ -71.808888, 12.366066 ], [ -71.83609, 12.345494 ], [ -71.838755, 12.338878 ], [ -71.830606, 12.320896 ], [ -71.814607, 12.307843 ], [ -71.801241, 12.306965 ], [ -71.79792, 12.319934 ], [ -71.791265, 12.328375 ], [ -71.757129, 12.333125 ], [ -71.741866, 12.34854 ], [ -71.737377, 12.362263 ], [ -71.741204, 12.374695 ], [ -71.757026, 12.381406 ], [ -71.741273, 12.389491 ], [ -71.73166, 12.398036 ], [ -71.729629, 12.4062 ], [ -71.734878, 12.413887 ], [ -71.728623, 12.427611 ], [ -71.715819, 12.437926 ], [ -71.692538, 12.44533 ], [ -71.668489, 12.457591 ], [ -71.646516, 12.452896 ], [ -71.62465, 12.440892 ], [ -71.610183, 12.437322 ], [ -71.580934, 12.435875 ], [ -71.571093, 12.440226 ], [ -71.556724, 12.435354 ], [ -71.542073, 12.439237 ], [ -71.523436, 12.435254 ], [ -71.479762, 12.4179 ], [ -71.461071, 12.406933 ], [ -71.449674, 12.392197 ], [ -71.438133, 12.382534 ], [ -71.42639, 12.384532 ], [ -71.39942, 12.382458 ], [ -71.390499, 12.379526 ], [ -71.354053, 12.367549 ], [ -71.322886, 12.349211 ], [ -71.310202, 12.354402 ], [ -71.299473, 12.351743 ], [ -71.271693, 12.335673 ], [ -71.227624, 12.296944 ], [ -71.225088, 12.292749 ], [ -71.223928, 12.272971 ], [ -71.218363, 12.258805 ], [ -71.117372, 12.08907 ], [ -71.114692, 12.046513 ], [ -71.121895, 12.024849 ], [ -71.136011, 12.004548 ], [ -71.18137, 11.981068 ], [ -71.194535, 11.977848 ], [ -71.217107, 11.964587 ], [ -71.249583, 11.939503 ], [ -71.27293, 11.911512 ], [ -71.280927, 11.908028 ], [ -71.289438, 11.911072 ], [ -71.294587, 11.909222 ], [ -71.303113, 11.889497 ], [ -71.320164, 11.862972 ], [ -71.324074, 11.845656 ] ] ], [ [ [ -81.735202, 12.492541 ], [ -81.730637, 12.504136 ], [ -81.729441, 12.519254 ], [ -81.730136, 12.524851 ], [ -81.735002, 12.530512 ], [ -81.732029, 12.555343 ], [ -81.723658, 12.566998 ], [ -81.721611, 12.579316 ], [ -81.71089, 12.591108 ], [ -81.70454, 12.594256 ], [ -81.699322, 12.590774 ], [ -81.685472, 12.589552 ], [ -81.68076, 12.579899 ], [ -81.682643, 12.572498 ], [ -81.69162, 12.569915 ], [ -81.697126, 12.533136 ], [ -81.704567, 12.520665 ], [ -81.71089, 12.501275 ], [ -81.718386, 12.488867 ], [ -81.723771, 12.487214 ], [ -81.728581, 12.481188 ], [ -81.732255, 12.482165 ], [ -81.735202, 12.492541 ] ] ], [ [ [ -81.396262, 13.339346 ], [ -81.394303, 13.34704 ], [ -81.392126, 13.35909 ], [ -81.388444, 13.365569 ], [ -81.384535, 13.370494 ], [ -81.379214, 13.371751 ], [ -81.377797, 13.369704 ], [ -81.372059, 13.371014 ], [ -81.37007, 13.373839 ], [ -81.369643, 13.380623 ], [ -81.372916, 13.379427 ], [ -81.37763, 13.380257 ], [ -81.380281, 13.38343 ], [ -81.380524, 13.388183 ], [ -81.376356, 13.393387 ], [ -81.371478, 13.393577 ], [ -81.369418, 13.385517 ], [ -81.370107, 13.383005 ], [ -81.366808, 13.383357 ], [ -81.364396, 13.385858 ], [ -81.362314, 13.380143 ], [ -81.356249, 13.379299 ], [ -81.35347, 13.36992 ], [ -81.354028, 13.362776 ], [ -81.353087, 13.360742 ], [ -81.349971, 13.361893 ], [ -81.349601, 13.353199 ], [ -81.352326, 13.348775 ], [ -81.35547, 13.330307 ], [ -81.359843, 13.326313 ], [ -81.379618, 13.317877 ], [ -81.384992, 13.316851 ], [ -81.389479, 13.318375 ], [ -81.39141, 13.320868 ], [ -81.394467, 13.338183 ], [ -81.396262, 13.339346 ] ] ], [ [ [ -75.593548, 10.347624 ], [ -75.59082, 10.351656 ], [ -75.59082, 10.35457 ], [ -75.59082, 10.358523 ], [ -75.580993, 10.368869 ], [ -75.575559, 10.380387 ], [ -75.560071, 10.367183 ], [ -75.541757, 10.362224 ], [ -75.540383, 10.358915 ], [ -75.545856, 10.35385 ], [ -75.539425, 10.348399 ], [ -75.549387, 10.336936 ], [ -75.558502, 10.344942 ], [ -75.562557, 10.339714 ], [ -75.565803, 10.343461 ], [ -75.570797, 10.34153 ], [ -75.578069, 10.33373 ], [ -75.575658, 10.326983 ], [ -75.581885, 10.319553 ], [ -75.59082, 10.324467 ], [ -75.59095, 10.326237 ], [ -75.593381, 10.331764 ], [ -75.591055, 10.339575 ], [ -75.593548, 10.347624 ] ] ], [ [ [ -78.202248, 2.936908 ], [ -78.197848, 2.942958 ], [ -78.197234, 2.957043 ], [ -78.187993, 2.983617 ], [ -78.182373, 2.991038 ], [ -78.171653, 3.002091 ], [ -78.166635, 3.00247 ], [ -78.172131, 2.964011 ], [ -78.182373, 2.947426 ], [ -78.196773, 2.936545 ], [ -78.202248, 2.936908 ] ] ], [ [ [ -81.616211, 3.963779 ], [ -81.614563, 3.969228 ], [ -81.609795, 3.974895 ], [ -81.603966, 3.976799 ], [ -81.60231, 3.979525 ], [ -81.601295, 3.988321 ], [ -81.5961, 3.991269 ], [ -81.590469, 3.990449 ], [ -81.585052, 3.992351 ], [ -81.58213, 3.991523 ], [ -81.578545, 3.978137 ], [ -81.5802, 3.976038 ], [ -81.584778, 3.974558 ], [ -81.588936, 3.970357 ], [ -81.594147, 3.970759 ], [ -81.606194, 3.960253 ], [ -81.61161, 3.95898 ], [ -81.615158, 3.961271 ], [ -81.616211, 3.963779 ] ] ], [ [ [ -78.75558, 1.811759 ], [ -78.754936, 1.818944 ], [ -78.747078, 1.821748 ], [ -78.744227, 1.823077 ], [ -78.73555, 1.830383 ], [ -78.730418, 1.830757 ], [ -78.723427, 1.826294 ], [ -78.722263, 1.82426 ], [ -78.726876, 1.820284 ], [ -78.733484, 1.816887 ], [ -78.738811, 1.807281 ], [ -78.744014, 1.806876 ], [ -78.747078, 1.805021 ], [ -78.754023, 1.807157 ], [ -78.75558, 1.811759 ] ] ], [ [ [ -75.857423, 9.795553 ], [ -75.855048, 9.797161 ], [ -75.856185, 9.799391 ], [ -75.852656, 9.803639 ], [ -75.847343, 9.799053 ], [ -75.828332, 9.796226 ], [ -75.826598, 9.79412 ], [ -75.828339, 9.789997 ], [ -75.832941, 9.790527 ], [ -75.839898, 9.789658 ], [ -75.850572, 9.789835 ], [ -75.856772, 9.788779 ], [ -75.857423, 9.795553 ] ] ], [ [ [ -76.19037, 9.384142 ], [ -76.189218, 9.392475 ], [ -76.183984, 9.396342 ], [ -76.175487, 9.398763 ], [ -76.172621, 9.396737 ], [ -76.174656, 9.395234 ], [ -76.173468, 9.3874 ], [ -76.176595, 9.384986 ], [ -76.176226, 9.380982 ], [ -76.178594, 9.377944 ], [ -76.185762, 9.380065 ], [ -76.187284, 9.38284 ], [ -76.19037, 9.384142 ] ] ], [ [ [ -75.756617, 10.174669 ], [ -75.748889, 10.179913 ], [ -75.74906, 10.182555 ], [ -75.738304, 10.180361 ], [ -75.735826, 10.182349 ], [ -75.729938, 10.181141 ], [ -75.726154, 10.182392 ], [ -75.723616, 10.181136 ], [ -75.726291, 10.178028 ], [ -75.734559, 10.175898 ], [ -75.737688, 10.171923 ], [ -75.744349, 10.170821 ], [ -75.747465, 10.172386 ], [ -75.747805, 10.174911 ], [ -75.750814, 10.176093 ], [ -75.754171, 10.17346 ], [ -75.756617, 10.174669 ] ] ], [ [ [ -75.566249, 10.396642 ], [ -75.561446, 10.399905 ], [ -75.559073, 10.401692 ], [ -75.552566, 10.408761 ], [ -75.551423, 10.415646 ], [ -75.549697, 10.416243 ], [ -75.54669, 10.41178 ], [ -75.551074, 10.405542 ], [ -75.55368, 10.397654 ], [ -75.546007, 10.392184 ], [ -75.54845, 10.391149 ], [ -75.555357, 10.394533 ], [ -75.558877, 10.392853 ], [ -75.561446, 10.39396 ], [ -75.566249, 10.396642 ] ] ], [ [ [ -77.473088, 4.072058 ], [ -77.469529, 4.073039 ], [ -77.468657, 4.068596 ], [ -77.464059, 4.070959 ], [ -77.462882, 4.069132 ], [ -77.461948, 4.060374 ], [ -77.456204, 4.056609 ], [ -77.453069, 4.051383 ], [ -77.449801, 4.048521 ], [ -77.450187, 4.046816 ], [ -77.457483, 4.048632 ], [ -77.464272, 4.057238 ], [ -77.473088, 4.072058 ] ] ], [ [ [ -68.184719, 1.729498 ], [ -68.182168, 1.733645 ], [ -68.178729, 1.731991 ], [ -68.176155, 1.733231 ], [ -68.173858, 1.741175 ], [ -68.171981, 1.743096 ], [ -68.167138, 1.741062 ], [ -68.166515, 1.733321 ], [ -68.164314, 1.728618 ], [ -68.183814, 1.72862 ], [ -68.184719, 1.729498 ] ] ], [ [ [ -76.943261, 8.210095 ], [ -76.937198, 8.208698 ], [ -76.934917, 8.204929 ], [ -76.929439, 8.202385 ], [ -76.927274, 8.199199 ], [ -76.932443, 8.190282 ], [ -76.934032, 8.190263 ], [ -76.934825, 8.195502 ], [ -76.933491, 8.197621 ], [ -76.938232, 8.199575 ], [ -76.939095, 8.203157 ], [ -76.942471, 8.206764 ], [ -76.943261, 8.210095 ] ] ], [ [ [ -77.726651, 7.070694 ], [ -77.722586, 7.071924 ], [ -77.715876, 7.066234 ], [ -77.714489, 7.062858 ], [ -77.707234, 7.062369 ], [ -77.70398, 7.052626 ], [ -77.706776, 7.05245 ], [ -77.726651, 7.070694 ] ] ], [ [ [ -77.3632, 3.910826 ], [ -77.359525, 3.913283 ], [ -77.356101, 3.912243 ], [ -77.35255, 3.913914 ], [ -77.352411, 3.908306 ], [ -77.3553, 3.898109 ], [ -77.361659, 3.904202 ], [ -77.3632, 3.910826 ] ] ], [ [ [ -77.757935, 7.096971 ], [ -77.755838, 7.097616 ], [ -77.749007, 7.091989 ], [ -77.746372, 7.094472 ], [ -77.742606, 7.092125 ], [ -77.742834, 7.087882 ], [ -77.741316, 7.087196 ], [ -77.73784, 7.090539 ], [ -77.735503, 7.084286 ], [ -77.739635, 7.084897 ], [ -77.741394, 7.081663 ], [ -77.747492, 7.088062 ], [ -77.74923, 7.087239 ], [ -77.753466, 7.092766 ], [ -77.757935, 7.096971 ] ] ], [ [ [ -75.796229, 10.165095 ], [ -75.78684, 10.166705 ], [ -75.787435, 10.163928 ], [ -75.782941, 10.159489 ], [ -75.785455, 10.15741 ], [ -75.790483, 10.156561 ], [ -75.793339, 10.159368 ], [ -75.796229, 10.165095 ] ] ], [ [ [ -77.382381, 4.377681 ], [ -77.378474, 4.384793 ], [ -77.374493, 4.390079 ], [ -77.371748, 4.390585 ], [ -77.371981, 4.385572 ], [ -77.37571, 4.378787 ], [ -77.381216, 4.376846 ], [ -77.382381, 4.377681 ] ] ], [ [ [ -78.774899, 1.817824 ], [ -78.768388, 1.822452 ], [ -78.7614, 1.824578 ], [ -78.758971, 1.819489 ], [ -78.76066, 1.815627 ], [ -78.763647, 1.817081 ], [ -78.764896, 1.820141 ], [ -78.767825, 1.820954 ], [ -78.769441, 1.816047 ], [ -78.774899, 1.817824 ] ] ], [ [ [ -78.631884, 2.33028 ], [ -78.629841, 2.335896 ], [ -78.626884, 2.348251 ], [ -78.624273, 2.348594 ], [ -78.624069, 2.341521 ], [ -78.625423, 2.337106 ], [ -78.630222, 2.329758 ], [ -78.631884, 2.33028 ] ] ], [ [ [ -77.703958, 7.049016 ], [ -77.701681, 7.050064 ], [ -77.694979, 7.043438 ], [ -77.687526, 7.038026 ], [ -77.691046, 7.036099 ], [ -77.696347, 7.039828 ], [ -77.703958, 7.049016 ] ] ], [ [ [ -69.428296, -1.004579 ], [ -69.423866, -1.003294 ], [ -69.42021, -0.998287 ], [ -69.417824, -0.999862 ], [ -69.417621, -1.00512 ], [ -69.420023, -1.007822 ], [ -69.425098, -1.008115 ], [ -69.428296, -1.004579 ] ] ], [ [ [ -74.200614, 11.319025 ], [ -74.199826, 11.321845 ], [ -74.195403, 11.32311 ], [ -74.194885, 11.320549 ], [ -74.190902, 11.318728 ], [ -74.192035, 11.316435 ], [ -74.189833, 11.312061 ], [ -74.191676, 11.310413 ], [ -74.19465, 11.312234 ], [ -74.193988, 11.316435 ], [ -74.200614, 11.319025 ] ] ], [ [ [ -77.371845, 4.944672 ], [ -77.370685, 4.946761 ], [ -77.366528, 4.944945 ], [ -77.368203, 4.94209 ], [ -77.365993, 4.940283 ], [ -77.367527, 4.935077 ], [ -77.369639, 4.935261 ], [ -77.371563, 4.940263 ], [ -77.371845, 4.944672 ] ] ], [ [ [ -81.612111, 4.0 ], [ -81.610265, 4.003698 ], [ -81.605787, 4.008457 ], [ -81.603548, 4.008709 ], [ -81.604547, 4.001459 ], [ -81.609267, 3.999085 ], [ -81.612111, 4.0 ] ] ], [ [ [ -76.927186, 8.211692 ], [ -76.926304, 8.213314 ], [ -76.916402, 8.212583 ], [ -76.918761, 8.208984 ], [ -76.921983, 8.20738 ], [ -76.926358, 8.208829 ], [ -76.927186, 8.211692 ] ] ], [ [ [ -78.218964, 2.937113 ], [ -78.21352, 2.93909 ], [ -78.213025, 2.943933 ], [ -78.208275, 2.942747 ], [ -78.215467, 2.933629 ], [ -78.218964, 2.937113 ] ] ], [ [ [ -75.876696, 9.780522 ], [ -75.875484, 9.783436 ], [ -75.869607, 9.784012 ], [ -75.868271, 9.781359 ], [ -75.872121, 9.779674 ], [ -75.876696, 9.780522 ] ] ], [ [ [ -76.915201, 8.199599 ], [ -76.912477, 8.203683 ], [ -76.909553, 8.199044 ], [ -76.912205, 8.195966 ], [ -76.915201, 8.199599 ] ] ], [ [ [ -75.753229, 9.738158 ], [ -75.752059, 9.739074 ], [ -75.744715, 9.736445 ], [ -75.745812, 9.734537 ], [ -75.749755, 9.734771 ], [ -75.753229, 9.738158 ] ] ], [ [ [ -78.058396, 2.66759 ], [ -78.055741, 2.66991 ], [ -78.05281, 2.663743 ], [ -78.056108, 2.662947 ], [ -78.058396, 2.66759 ] ] ], [ [ [ -77.079263, 3.86946 ], [ -77.075571, 3.873937 ], [ -77.071933, 3.871093 ], [ -77.073758, 3.868848 ], [ -77.079263, 3.86946 ] ] ], [ [ [ -77.352762, 3.919811 ], [ -77.349626, 3.920717 ], [ -77.348057, 3.918016 ], [ -77.349608, 3.914426 ], [ -77.351839, 3.914845 ], [ -77.352762, 3.919811 ] ] ], [ [ [ -77.318033, 3.992242 ], [ -77.316117, 3.994785 ], [ -77.311984, 3.996519 ], [ -77.310945, 3.99409 ], [ -77.316117, 3.990777 ], [ -77.318033, 3.992242 ] ] ], [ [ [ -77.243618, 4.026049 ], [ -77.239799, 4.028801 ], [ -77.237047, 4.023873 ], [ -77.242509, 4.023574 ], [ -77.243618, 4.026049 ] ] ], [ [ [ -77.215813, 4.05067 ], [ -77.215308, 4.052184 ], [ -77.210141, 4.050647 ], [ -77.210022, 4.048564 ], [ -77.214299, 4.046693 ], [ -77.215813, 4.05067 ] ] ], [ [ [ -77.350973, 5.975172 ], [ -77.349068, 5.979445 ], [ -77.346138, 5.977735 ], [ -77.346253, 5.972638 ], [ -77.350973, 5.975172 ] ] ], [ [ [ -77.353672, 5.986009 ], [ -77.349828, 5.987086 ], [ -77.347162, 5.981504 ], [ -77.350601, 5.981457 ], [ -77.353672, 5.986009 ] ] ], [ [ [ -77.735965, 7.077665 ], [ -77.733642, 7.078844 ], [ -77.727359, 7.073099 ], [ -77.728641, 7.071538 ], [ -77.735965, 7.077665 ] ] ], [ [ [ -77.857656, 7.182203 ], [ -77.85589, 7.183982 ], [ -77.851619, 7.183279 ], [ -77.851735, 7.17965 ], [ -77.855253, 7.179579 ], [ -77.857656, 7.182203 ] ] ], [ [ [ -76.934824, 8.209687 ], [ -76.931028, 8.210983 ], [ -76.927099, 8.208429 ], [ -76.932156, 8.205997 ], [ -76.934824, 8.209687 ] ] ], [ [ [ -76.94892, 8.251392 ], [ -76.943253, 8.251361 ], [ -76.942323, 8.247647 ], [ -76.946379, 8.247083 ], [ -76.94892, 8.251392 ] ] ], [ [ [ -76.343807, 9.027769 ], [ -76.340803, 9.03072 ], [ -76.338319, 9.025915 ], [ -76.341895, 9.023828 ], [ -76.343807, 9.027769 ] ] ], [ [ [ -75.70735, 9.692178 ], [ -75.704887, 9.694611 ], [ -75.701329, 9.694198 ], [ -75.702368, 9.690261 ], [ -75.706797, 9.690261 ], [ -75.70735, 9.692178 ] ] ], [ [ [ -75.670276, 10.166305 ], [ -75.668659, 10.168977 ], [ -75.663782, 10.17011 ], [ -75.662916, 10.168711 ], [ -75.667502, 10.165019 ], [ -75.670276, 10.166305 ] ] ], [ [ [ -75.742405, 10.235063 ], [ -75.741902, 10.236575 ], [ -75.735331, 10.235587 ], [ -75.737347, 10.23233 ], [ -75.741378, 10.233067 ], [ -75.742405, 10.235063 ] ] ], [ [ [ -75.56155, 10.33541 ], [ -75.561138, 10.338848 ], [ -75.557824, 10.339526 ], [ -75.555913, 10.336381 ], [ -75.557689, 10.33448 ], [ -75.56155, 10.33541 ] ] ], [ [ [ -74.222382, 11.252255 ], [ -74.218261, 11.256085 ], [ -74.216842, 11.251664 ], [ -74.22147, 11.249285 ], [ -74.222382, 11.252255 ] ] ], [ [ [ -81.857688, 12.187866 ], [ -81.854018, 12.18989 ], [ -81.850993, 12.186027 ], [ -81.852155, 12.184729 ], [ -81.85719, 12.186081 ], [ -81.857688, 12.187866 ] ] ] ] } }
]
}
