{
"type": "FeatureCollection",
"name": "Comoros",
"crs": { "type": "name", "properties": { "name": "urn:ogc:def:crs:OGC:1.3:CRS84" } },
"features": [
{ "type": "Feature", "properties": { "id": "KM", "CNTR_ID": "KM", "CNTR_NAME": "جزر القمر-Comores-Komori", "NAME_ENGL": "Comoros", "ISO3_CODE": "COM", "FID": "KM" }, "geometry": { "type": "MultiPolygon", "coordinates": [ [ [ [ 43.452975, -11.743403 ], [ 43.454725, -11.748965 ], [ 43.457178, -11.77503 ], [ 43.453822, -11.784287 ], [ 43.468576, -11.822561 ], [ 43.475407, -11.828402 ], [ 43.486766, -11.853423 ], [ 43.491549, -11.856713 ], [ 43.49945, -11.870906 ], [ 43.509545, -11.87619 ], [ 43.512211, -11.888272 ], [ 43.516911, -11.890199 ], [ 43.516911, -11.89476 ], [ 43.499365, -11.909064 ], [ 43.50056, -11.917588 ], [ 43.49694, -11.923835 ], [ 43.488771, -11.924943 ], [ 43.487368, -11.930244 ], [ 43.472215, -11.936999 ], [ 43.459416, -11.936894 ], [ 43.436202, -11.923136 ], [ 43.426318, -11.907426 ], [ 43.419344, -11.905466 ], [ 43.398729, -11.889008 ], [ 43.388755, -11.875947 ], [ 43.383468, -11.863076 ], [ 43.3726, -11.858133 ], [ 43.358588, -11.855982 ], [ 43.33686, -11.859452 ], [ 43.312714, -11.857856 ], [ 43.291246, -11.847695 ], [ 43.279864, -11.837937 ], [ 43.268611, -11.819759 ], [ 43.262054, -11.797911 ], [ 43.252288, -11.787563 ], [ 43.240539, -11.780639 ], [ 43.238214, -11.766278 ], [ 43.240042, -11.76111 ], [ 43.233872, -11.755288 ], [ 43.231036, -11.743403 ], [ 43.229286, -11.736072 ], [ 43.230587, -11.729446 ], [ 43.242515, -11.710036 ], [ 43.250782, -11.702911 ], [ 43.253984, -11.684778 ], [ 43.265696, -11.672666 ], [ 43.260646, -11.645176 ], [ 43.262655, -11.636699 ], [ 43.260933, -11.59881 ], [ 43.270096, -11.565714 ], [ 43.267139, -11.557707 ], [ 43.266358, -11.535814 ], [ 43.277644, -11.50377 ], [ 43.276253, -11.491109 ], [ 43.271357, -11.479295 ], [ 43.271316, -11.466536 ], [ 43.26422, -11.44946 ], [ 43.271326, -11.416092 ], [ 43.27935, -11.396962 ], [ 43.302163, -11.380219 ], [ 43.313099, -11.3785 ], [ 43.342205, -11.36626 ], [ 43.354856, -11.365511 ], [ 43.367474, -11.371209 ], [ 43.383729, -11.371905 ], [ 43.39455, -11.376002 ], [ 43.399955, -11.398089 ], [ 43.409279, -11.408955 ], [ 43.415746, -11.435769 ], [ 43.40682, -11.474726 ], [ 43.399497, -11.487831 ], [ 43.400085, -11.504206 ], [ 43.407314, -11.515204 ], [ 43.403388, -11.540559 ], [ 43.404358, -11.56068 ], [ 43.402893, -11.568688 ], [ 43.398188, -11.572968 ], [ 43.394354, -11.595812 ], [ 43.396274, -11.604479 ], [ 43.391723, -11.610996 ], [ 43.399612, -11.635248 ], [ 43.396278, -11.645176 ], [ 43.402859, -11.658727 ], [ 43.419372, -11.672549 ], [ 43.421712, -11.682075 ], [ 43.432442, -11.692713 ], [ 43.438897, -11.717616 ], [ 43.44941, -11.732067 ], [ 43.452975, -11.743403 ] ] ], [ [ [ 44.20553, -12.170093 ], [ 44.21013, -12.169698 ], [ 44.21302, -12.166872 ], [ 44.219299, -12.168693 ], [ 44.224019, -12.166774 ], [ 44.227941, -12.168975 ], [ 44.23318, -12.168603 ], [ 44.237627, -12.170548 ], [ 44.240485, -12.178286 ], [ 44.245974, -12.182166 ], [ 44.249118, -12.181916 ], [ 44.261158, -12.184525 ], [ 44.268256, -12.184898 ], [ 44.271975, -12.18668 ], [ 44.277913, -12.187146 ], [ 44.278085, -12.184739 ], [ 44.28768, -12.184624 ], [ 44.289697, -12.18795 ], [ 44.287731, -12.18846 ], [ 44.2889, -12.192328 ], [ 44.292823, -12.191522 ], [ 44.294356, -12.195003 ], [ 44.300054, -12.194467 ], [ 44.307745, -12.197142 ], [ 44.310106, -12.195731 ], [ 44.310376, -12.19264 ], [ 44.316919, -12.19446 ], [ 44.316931, -12.19008 ], [ 44.318503, -12.189568 ], [ 44.320175, -12.194778 ], [ 44.328552, -12.194254 ], [ 44.335727, -12.187174 ], [ 44.339957, -12.186945 ], [ 44.343557, -12.188405 ], [ 44.350018, -12.186927 ], [ 44.35099, -12.188687 ], [ 44.357538, -12.185797 ], [ 44.363597, -12.185755 ], [ 44.376404, -12.182491 ], [ 44.384537, -12.176583 ], [ 44.385595, -12.174559 ], [ 44.392146, -12.170416 ], [ 44.391774, -12.166593 ], [ 44.394775, -12.165784 ], [ 44.3995, -12.161156 ], [ 44.399769, -12.157807 ], [ 44.407367, -12.156535 ], [ 44.412077, -12.158091 ], [ 44.417846, -12.155011 ], [ 44.421531, -12.146259 ], [ 44.42128, -12.141363 ], [ 44.422733, -12.134924 ], [ 44.422089, -12.130542 ], [ 44.426546, -12.127975 ], [ 44.433419, -12.120037 ], [ 44.432468, -12.113558 ], [ 44.427895, -12.109426 ], [ 44.420121, -12.100199 ], [ 44.419811, -12.093949 ], [ 44.420862, -12.092148 ], [ 44.427939, -12.088813 ], [ 44.43169, -12.085585 ], [ 44.433996, -12.086002 ], [ 44.438862, -12.08333 ], [ 44.450901, -12.075399 ], [ 44.451413, -12.073479 ], [ 44.457048, -12.070056 ], [ 44.464561, -12.067885 ], [ 44.471477, -12.069722 ], [ 44.477189, -12.07448 ], [ 44.480846, -12.078868 ], [ 44.484498, -12.085831 ], [ 44.487374, -12.087898 ], [ 44.489719, -12.094086 ], [ 44.492201, -12.096668 ], [ 44.491399, -12.105427 ], [ 44.488382, -12.108513 ], [ 44.485884, -12.113662 ], [ 44.486791, -12.118817 ], [ 44.491236, -12.122433 ], [ 44.493856, -12.121922 ], [ 44.493065, -12.124755 ], [ 44.49461, -12.130584 ], [ 44.497242, -12.131204 ], [ 44.499066, -12.136103 ], [ 44.49801, -12.140739 ], [ 44.499829, -12.148473 ], [ 44.501267, -12.149506 ], [ 44.50034, -12.155431 ], [ 44.50282, -12.159042 ], [ 44.502943, -12.163681 ], [ 44.510252, -12.177092 ], [ 44.51339, -12.179417 ], [ 44.514429, -12.184314 ], [ 44.517828, -12.187928 ], [ 44.517686, -12.193338 ], [ 44.520691, -12.197724 ], [ 44.520683, -12.202362 ], [ 44.51924, -12.203132 ], [ 44.51923, -12.208801 ], [ 44.520536, -12.211123 ], [ 44.5217, -12.21937 ], [ 44.524579, -12.220663 ], [ 44.525099, -12.223241 ], [ 44.528499, -12.226339 ], [ 44.526787, -12.230716 ], [ 44.530309, -12.23974 ], [ 44.53294, -12.255483 ], [ 44.530515, -12.257909 ], [ 44.533493, -12.259293 ], [ 44.53268, -12.264754 ], [ 44.528668, -12.269772 ], [ 44.5286, -12.274537 ], [ 44.525702, -12.276436 ], [ 44.523894, -12.281567 ], [ 44.524065, -12.285898 ], [ 44.52837, -12.298743 ], [ 44.529659, -12.310597 ], [ 44.531883, -12.31189 ], [ 44.530963, -12.314207 ], [ 44.531466, -12.32606 ], [ 44.529479, -12.337394 ], [ 44.531177, -12.341262 ], [ 44.534578, -12.344618 ], [ 44.536413, -12.344363 ], [ 44.535575, -12.348221 ], [ 44.531806, -12.355693 ], [ 44.530561, -12.36677 ], [ 44.531915, -12.368061 ], [ 44.530071, -12.373339 ], [ 44.526525, -12.377585 ], [ 44.527437, -12.380549 ], [ 44.524815, -12.380931 ], [ 44.521059, -12.383924 ], [ 44.509083, -12.383608 ], [ 44.491404, -12.376233 ], [ 44.49037, -12.369016 ], [ 44.493659, -12.362581 ], [ 44.493541, -12.355624 ], [ 44.487401, -12.346079 ], [ 44.480592, -12.34336 ], [ 44.475886, -12.33807 ], [ 44.47432, -12.334459 ], [ 44.468569, -12.32762 ], [ 44.465166, -12.325423 ], [ 44.465121, -12.322792 ], [ 44.453256, -12.318958 ], [ 44.451822, -12.315476 ], [ 44.443696, -12.31662 ], [ 44.435062, -12.310418 ], [ 44.432981, -12.303328 ], [ 44.430234, -12.301132 ], [ 44.429982, -12.296236 ], [ 44.425932, -12.291332 ], [ 44.41782, -12.286548 ], [ 44.411529, -12.287823 ], [ 44.404333, -12.283556 ], [ 44.400677, -12.278137 ], [ 44.397028, -12.269627 ], [ 44.39272, -12.263176 ], [ 44.387358, -12.259299 ], [ 44.386191, -12.254271 ], [ 44.373648, -12.249158 ], [ 44.357343, -12.241275 ], [ 44.341039, -12.236579 ], [ 44.333831, -12.240101 ], [ 44.317184, -12.238424 ], [ 44.305856, -12.232386 ], [ 44.300021, -12.228528 ], [ 44.290925, -12.225005 ], [ 44.275308, -12.215277 ], [ 44.266383, -12.213432 ], [ 44.25866, -12.208064 ], [ 44.255742, -12.20387 ], [ 44.243042, -12.199006 ], [ 44.237293, -12.19554 ], [ 44.234684, -12.192054 ], [ 44.222791, -12.188102 ], [ 44.217947, -12.183376 ], [ 44.206971, -12.175357 ], [ 44.20553, -12.170093 ] ] ], [ [ [ 43.622513, -12.285652 ], [ 43.624882, -12.283603 ], [ 43.623596, -12.278959 ], [ 43.62532, -12.274845 ], [ 43.623896, -12.271746 ], [ 43.62694, -12.265578 ], [ 43.626301, -12.262483 ], [ 43.62998, -12.26044 ], [ 43.63157, -12.256841 ], [ 43.635765, -12.256217 ], [ 43.642835, -12.256897 ], [ 43.645479, -12.252015 ], [ 43.650992, -12.249723 ], [ 43.654648, -12.25206 ], [ 43.6565, -12.248462 ], [ 43.661198, -12.251834 ], [ 43.660131, -12.255694 ], [ 43.668248, -12.256635 ], [ 43.673761, -12.254214 ], [ 43.677675, -12.257453 ], [ 43.680294, -12.257466 ], [ 43.691543, -12.260869 ], [ 43.696785, -12.260379 ], [ 43.701399, -12.26276 ], [ 43.70592, -12.267379 ], [ 43.71612, -12.271034 ], [ 43.725806, -12.272625 ], [ 43.733938, -12.270602 ], [ 43.737592, -12.273582 ], [ 43.738093, -12.278222 ], [ 43.746973, -12.284189 ], [ 43.751157, -12.286012 ], [ 43.753754, -12.290919 ], [ 43.756368, -12.292219 ], [ 43.770252, -12.292797 ], [ 43.773767, -12.297709 ], [ 43.773357, -12.301314 ], [ 43.775962, -12.304676 ], [ 43.780151, -12.305338 ], [ 43.784854, -12.308451 ], [ 43.786693, -12.307428 ], [ 43.791923, -12.309642 ], [ 43.796345, -12.316876 ], [ 43.79818, -12.316884 ], [ 43.80052, -12.320888 ], [ 43.803402, -12.32103 ], [ 43.807058, -12.323751 ], [ 43.812572, -12.321328 ], [ 43.814396, -12.323655 ], [ 43.823556, -12.326399 ], [ 43.829048, -12.328871 ], [ 43.832456, -12.328628 ], [ 43.84028, -12.337164 ], [ 43.848384, -12.341965 ], [ 43.853102, -12.341857 ], [ 43.855434, -12.347793 ], [ 43.858505, -12.348265 ], [ 43.858044, -12.35038 ], [ 43.860921, -12.351681 ], [ 43.860641, -12.355802 ], [ 43.86326, -12.356328 ], [ 43.864288, -12.360971 ], [ 43.868739, -12.362278 ], [ 43.869484, -12.371815 ], [ 43.870654, -12.373881 ], [ 43.868406, -12.378509 ], [ 43.867061, -12.386492 ], [ 43.868355, -12.390362 ], [ 43.864682, -12.39112 ], [ 43.857367, -12.385549 ], [ 43.847403, -12.38628 ], [ 43.844793, -12.383821 ], [ 43.8406, -12.383674 ], [ 43.837724, -12.381987 ], [ 43.836145, -12.383269 ], [ 43.832223, -12.381191 ], [ 43.825938, -12.379875 ], [ 43.824898, -12.377938 ], [ 43.817824, -12.377263 ], [ 43.815657, -12.378186 ], [ 43.815741, -12.374163 ], [ 43.808408, -12.372971 ], [ 43.789012, -12.373014 ], [ 43.787445, -12.371719 ], [ 43.77619, -12.368577 ], [ 43.776036, -12.373214 ], [ 43.777601, -12.375024 ], [ 43.778233, -12.380051 ], [ 43.776137, -12.379913 ], [ 43.770956, -12.366749 ], [ 43.764139, -12.367362 ], [ 43.756301, -12.362045 ], [ 43.752104, -12.362799 ], [ 43.749236, -12.359694 ], [ 43.743979, -12.362761 ], [ 43.745852, -12.365888 ], [ 43.743155, -12.370745 ], [ 43.740558, -12.365837 ], [ 43.735601, -12.361047 ], [ 43.732971, -12.362968 ], [ 43.727216, -12.36075 ], [ 43.720408, -12.359302 ], [ 43.722957, -12.368988 ], [ 43.721141, -12.370255 ], [ 43.716953, -12.369077 ], [ 43.707832, -12.358469 ], [ 43.69952, -12.357258 ], [ 43.695574, -12.360331 ], [ 43.694012, -12.358134 ], [ 43.691902, -12.360829 ], [ 43.685613, -12.36067 ], [ 43.685443, -12.362248 ], [ 43.678005, -12.362308 ], [ 43.674591, -12.363709 ], [ 43.670922, -12.356692 ], [ 43.662555, -12.359656 ], [ 43.661006, -12.35514 ], [ 43.663931, -12.352399 ], [ 43.664635, -12.349501 ], [ 43.667785, -12.348486 ], [ 43.666499, -12.343584 ], [ 43.668859, -12.343338 ], [ 43.666537, -12.336112 ], [ 43.663033, -12.329396 ], [ 43.660555, -12.327194 ], [ 43.656359, -12.327818 ], [ 43.654678, -12.323429 ], [ 43.649574, -12.322374 ], [ 43.649582, -12.320828 ], [ 43.645119, -12.32248 ], [ 43.639519, -12.319081 ], [ 43.638873, -12.314076 ], [ 43.637043, -12.313294 ], [ 43.635135, -12.302205 ], [ 43.633717, -12.297818 ], [ 43.629925, -12.296253 ], [ 43.628122, -12.290318 ], [ 43.622513, -12.285652 ] ] ], [ [ [ 43.700324, -12.394008 ], [ 43.701911, -12.39067 ], [ 43.705052, -12.390685 ], [ 43.70982, -12.393218 ], [ 43.706198, -12.397124 ], [ 43.708269, -12.401765 ], [ 43.709016, -12.409488 ], [ 43.70782, -12.413341 ], [ 43.709363, -12.41901 ], [ 43.707268, -12.419 ], [ 43.70428, -12.414354 ], [ 43.706433, -12.402528 ], [ 43.702389, -12.399936 ], [ 43.702404, -12.396848 ], [ 43.700324, -12.394008 ] ] ], [ [ [ 43.665017, -12.399614 ], [ 43.67314, -12.393952 ], [ 43.675559, -12.395688 ], [ 43.672578, -12.398326 ], [ 43.670503, -12.408393 ], [ 43.672911, -12.412383 ], [ 43.672312, -12.415157 ], [ 43.666833, -12.413944 ], [ 43.667807, -12.408115 ], [ 43.667033, -12.40095 ], [ 43.665017, -12.399614 ] ] ], [ [ [ 43.654818, -12.406409 ], [ 43.659896, -12.400071 ], [ 43.66195, -12.401096 ], [ 43.660113, -12.407918 ], [ 43.657932, -12.410184 ], [ 43.654818, -12.406409 ] ] ], [ [ [ 43.720897, -12.410438 ], [ 43.726232, -12.411098 ], [ 43.726505, -12.416071 ], [ 43.721296, -12.416339 ], [ 43.720897, -12.410438 ] ] ], [ [ [ 43.638421, -12.40259 ], [ 43.640679, -12.398208 ], [ 43.645431, -12.397682 ], [ 43.64668, -12.399061 ], [ 43.643448, -12.40289 ], [ 43.638421, -12.40259 ] ] ], [ [ [ 43.715469, -12.402612 ], [ 43.7186, -12.402967 ], [ 43.720847, -12.408945 ], [ 43.72008, -12.410682 ], [ 43.715542, -12.407428 ], [ 43.715469, -12.402612 ] ] ], [ [ [ 44.198619, -12.164093 ], [ 44.200285, -12.162199 ], [ 44.203245, -12.161641 ], [ 44.205487, -12.16164 ], [ 44.206032, -12.163543 ], [ 44.203245, -12.166205 ], [ 44.201038, -12.166052 ], [ 44.198619, -12.164093 ] ] ], [ [ [ 43.631509, -12.32093 ], [ 43.633027, -12.317622 ], [ 43.63829, -12.319414 ], [ 43.635433, -12.322897 ], [ 43.631509, -12.32093 ] ] ], [ [ [ 43.670045, -12.416853 ], [ 43.674701, -12.416155 ], [ 43.675307, -12.421121 ], [ 43.672813, -12.422113 ], [ 43.670045, -12.416853 ] ] ] ] } }
]
}
