{
"type": "FeatureCollection",
"name": "Congo",
"crs": { "type": "name", "properties": { "name": "urn:ogc:def:crs:OGC:1.3:CRS84" } },
"features": [
{ "type": "Feature", "properties": { "id": "CG", "CNTR_ID": "CG", "CNTR_NAME": "Congo-Kongo-Kongó", "NAME_ENGL": "Congo", "ISO3_CODE": "COG", "FID": "CG" }, "geometry": { "type": "MultiPolygon", "coordinates": [ [ [ [ 11.989245, -4.999317 ], [ 11.952782, -4.948836 ], [ 11.904239, -4.890735 ], [ 11.898058, -4.883338 ], [ 11.888909, -4.860467 ], [ 11.824838, -4.788432 ], [ 11.825344, -4.786143 ], [ 11.832226, -4.784717 ], [ 11.842174, -4.790654 ], [ 11.847163, -4.789351 ], [ 11.851073, -4.781595 ], [ 11.852756, -4.760313 ], [ 11.847658, -4.744515 ], [ 11.8359, -4.729492 ], [ 11.791038, -4.690217 ], [ 11.781493, -4.66701 ], [ 11.783338, -4.659681 ], [ 11.799393, -4.659964 ], [ 11.804935, -4.656953 ], [ 11.82455, -4.627078 ], [ 11.825874, -4.613573 ], [ 11.822963, -4.604589 ], [ 11.798245, -4.564518 ], [ 11.754009, -4.515921 ], [ 11.739616, -4.503712 ], [ 11.720444, -4.487448 ], [ 11.709895, -4.478499 ], [ 11.708736, -4.471886 ], [ 11.608135, -4.391084 ], [ 11.51108, -4.305054 ], [ 11.394341, -4.212278 ], [ 11.373999, -4.179934 ], [ 11.375425, -4.154185 ], [ 11.373276, -4.146256 ], [ 11.343509, -4.109032 ], [ 11.284767, -4.054993 ], [ 11.248165, -4.027273 ], [ 11.201031, -3.991575 ], [ 11.212088, -3.955606 ], [ 11.213847, -3.932486 ], [ 11.226695, -3.90792 ], [ 11.224496, -3.878914 ], [ 11.227821, -3.86015 ], [ 11.248165, -3.825909 ], [ 11.249643, -3.823422 ], [ 11.251217, -3.810426 ], [ 11.248165, -3.777604 ], [ 11.245084, -3.744468 ], [ 11.248165, -3.727459 ], [ 11.249863, -3.718085 ], [ 11.268811, -3.689953 ], [ 11.302862, -3.657221 ], [ 11.333435, -3.615137 ], [ 11.34512, -3.60405 ], [ 11.36205, -3.595218 ], [ 11.392138, -3.587297 ], [ 11.438587, -3.589778 ], [ 11.456813, -3.584363 ], [ 11.486156, -3.55727 ], [ 11.518534, -3.519762 ], [ 11.528602, -3.513516 ], [ 11.536684, -3.513991 ], [ 11.60829, -3.551156 ], [ 11.631457, -3.570492 ], [ 11.646536, -3.591251 ], [ 11.670796, -3.634532 ], [ 11.696303, -3.670415 ], [ 11.704955, -3.678586 ], [ 11.715717, -3.684945 ], [ 11.720444, -3.68647 ], [ 11.739616, -3.692652 ], [ 11.785791, -3.70754 ], [ 11.862276, -3.746978 ], [ 11.874431, -3.749897 ], [ 11.880695, -3.748592 ], [ 11.895473, -3.734385 ], [ 11.913377, -3.704005 ], [ 11.947331, -3.62578 ], [ 11.94075, -3.615976 ], [ 11.891306, -3.591944 ], [ 11.879446, -3.57868 ], [ 11.877137, -3.564288 ], [ 11.881214, -3.534775 ], [ 11.887727, -3.522714 ], [ 11.898581, -3.510837 ], [ 11.943156, -3.489227 ], [ 11.959517, -3.477265 ], [ 12.008041, -3.413485 ], [ 12.045509, -3.351689 ], [ 12.047951, -3.338918 ], [ 12.043405, -3.324125 ], [ 12.002192, -3.243166 ], [ 11.965948, -3.214968 ], [ 11.944041, -3.204133 ], [ 11.935559, -3.188308 ], [ 11.939588, -3.178614 ], [ 11.946821, -3.172531 ], [ 11.991454, -3.159342 ], [ 12.002159, -3.152873 ], [ 12.010301, -3.142621 ], [ 12.013664, -3.13314 ], [ 12.018687, -3.087437 ], [ 12.04948, -3.013628 ], [ 12.065766, -2.985781 ], [ 12.068026, -2.977225 ], [ 12.065935, -2.969393 ], [ 12.054152, -2.960569 ], [ 12.008699, -2.947807 ], [ 11.895419, -2.900603 ], [ 11.865066, -2.891417 ], [ 11.797039, -2.861697 ], [ 11.739616, -2.846908 ], [ 11.720444, -2.841849 ], [ 11.672508, -2.829202 ], [ 11.62496, -2.800325 ], [ 11.617164, -2.785896 ], [ 11.619893, -2.772036 ], [ 11.632713, -2.740459 ], [ 11.643067, -2.697625 ], [ 11.657232, -2.689505 ], [ 11.685157, -2.691957 ], [ 11.696259, -2.690366 ], [ 11.701381, -2.685054 ], [ 11.703198, -2.670713 ], [ 11.695826, -2.646615 ], [ 11.662438, -2.59218 ], [ 11.653063, -2.560046 ], [ 11.636691, -2.52154 ], [ 11.637576, -2.501363 ], [ 11.652623, -2.445425 ], [ 11.653025, -2.430546 ], [ 11.64925, -2.418709 ], [ 11.610885, -2.359769 ], [ 11.607381, -2.327203 ], [ 11.612275, -2.320761 ], [ 11.623161, -2.321339 ], [ 11.647619, -2.3385 ], [ 11.666251, -2.344776 ], [ 11.678956, -2.353683 ], [ 11.699497, -2.375386 ], [ 11.720444, -2.410503 ], [ 11.73101, -2.428216 ], [ 11.739616, -2.435338 ], [ 11.759046, -2.451414 ], [ 11.770996, -2.456523 ], [ 11.776323, -2.455063 ], [ 11.793312, -2.436602 ], [ 11.819551, -2.389669 ], [ 11.829807, -2.381759 ], [ 11.847252, -2.378422 ], [ 11.860794, -2.371579 ], [ 11.89228, -2.378021 ], [ 11.90534, -2.378044 ], [ 11.972823, -2.342267 ], [ 11.993523, -2.340088 ], [ 12.005601, -2.342778 ], [ 12.02034, -2.352986 ], [ 12.057231, -2.386067 ], [ 12.077358, -2.424579 ], [ 12.093524, -2.439064 ], [ 12.156926, -2.425782 ], [ 12.178128, -2.42134 ], [ 12.30442, -2.419981 ], [ 12.466111, -2.421254 ], [ 12.495931, -2.423734 ], [ 12.502372, -2.421795 ], [ 12.505742, -2.411987 ], [ 12.502346, -2.378281 ], [ 12.521019, -2.345809 ], [ 12.52864, -2.326483 ], [ 12.525137, -2.316586 ], [ 12.498862, -2.280291 ], [ 12.497319, -2.270453 ], [ 12.504645, -2.254435 ], [ 12.527767, -2.223164 ], [ 12.531705, -2.21395 ], [ 12.527053, -2.186392 ], [ 12.511222, -2.15937 ], [ 12.518303, -2.130821 ], [ 12.521844, -2.116541 ], [ 12.523349, -2.095728 ], [ 12.519132, -2.086015 ], [ 12.511935, -2.07818 ], [ 12.493263, -2.057848 ], [ 12.476053, -2.021119 ], [ 12.470864, -1.992901 ], [ 12.467404, -1.944699 ], [ 12.444873, -1.876541 ], [ 12.447247, -1.870204 ], [ 12.464249, -1.87101 ], [ 12.486204, -1.888804 ], [ 12.524088, -1.901197 ], [ 12.534785, -1.900581 ], [ 12.543569, -1.895842 ], [ 12.545072, -1.892425 ], [ 12.556673, -1.866038 ], [ 12.564103, -1.859184 ], [ 12.572359, -1.858697 ], [ 12.586065, -1.862914 ], [ 12.624827, -1.878627 ], [ 12.64914, -1.881789 ], [ 12.681634, -1.876888 ], [ 12.720687, -1.864846 ], [ 12.732573, -1.864983 ], [ 12.761568, -1.880163 ], [ 12.827321, -1.925001 ], [ 12.842462, -1.941722 ], [ 12.86839, -2.01046 ], [ 12.875965, -2.058813 ], [ 12.880713, -2.07818 ], [ 12.886177, -2.10047 ], [ 12.908705, -2.130821 ], [ 12.913597, -2.137412 ], [ 12.929833, -2.15417 ], [ 12.966148, -2.180532 ], [ 12.977551, -2.185935 ], [ 13.00068, -2.196894 ], [ 13.008089, -2.203778 ], [ 13.025541, -2.230236 ], [ 13.033402, -2.250904 ], [ 13.034484, -2.262175 ], [ 13.027289, -2.312992 ], [ 13.031455, -2.324559 ], [ 13.046422, -2.335885 ], [ 13.072229, -2.342811 ], [ 13.090073, -2.343331 ], [ 13.120157, -2.353357 ], [ 13.166265, -2.378441 ], [ 13.175102, -2.379099 ], [ 13.182527, -2.375643 ], [ 13.207846, -2.341852 ], [ 13.21608, -2.338542 ], [ 13.223471, -2.342976 ], [ 13.237295, -2.365064 ], [ 13.249964, -2.373922 ], [ 13.264518, -2.379293 ], [ 13.318411, -2.386841 ], [ 13.3316, -2.392417 ], [ 13.373769, -2.420321 ], [ 13.388374, -2.425581 ], [ 13.400112, -2.425915 ], [ 13.429508, -2.415741 ], [ 13.444339, -2.414283 ], [ 13.468514, -2.420344 ], [ 13.490257, -2.432558 ], [ 13.50241, -2.431159 ], [ 13.583449, -2.325203 ], [ 13.679916, -2.210286 ], [ 13.726542, -2.159821 ], [ 13.743543, -2.130821 ], [ 13.752503, -2.115537 ], [ 13.758786, -2.113847 ], [ 13.771556, -2.11875 ], [ 13.786025, -2.130821 ], [ 13.814907, -2.155808 ], [ 13.83774, -2.197877 ], [ 13.866167, -2.240139 ], [ 13.879123, -2.260174 ], [ 13.888575, -2.305762 ], [ 13.915786, -2.335825 ], [ 13.917979, -2.344827 ], [ 13.914191, -2.360265 ], [ 13.88384, -2.393281 ], [ 13.872023, -2.411233 ], [ 13.869519, -2.426968 ], [ 13.875474, -2.439062 ], [ 13.891613, -2.453217 ], [ 13.922638, -2.464009 ], [ 13.943928, -2.461725 ], [ 13.969877, -2.447029 ], [ 13.986865, -2.444207 ], [ 13.999665, -2.4488 ], [ 14.025093, -2.470206 ], [ 14.047497, -2.456513 ], [ 14.080788, -2.479748 ], [ 14.102352, -2.473078 ], [ 14.110665, -2.461158 ], [ 14.120796, -2.446631 ], [ 14.168143, -2.35728 ], [ 14.180482, -2.341141 ], [ 14.212694, -2.314406 ], [ 14.219833, -2.302137 ], [ 14.21558, -2.283266 ], [ 14.159995, -2.200223 ], [ 14.158607, -2.188728 ], [ 14.16734, -2.175757 ], [ 14.196564, -2.165297 ], [ 14.209416, -2.157815 ], [ 14.22619, -2.127001 ], [ 14.252198, -2.105567 ], [ 14.254973, -2.085617 ], [ 14.254126, -2.07818 ], [ 14.247533, -2.020249 ], [ 14.250647, -1.998362 ], [ 14.256128, -1.986439 ], [ 14.291243, -1.94905 ], [ 14.310134, -1.933394 ], [ 14.384611, -1.886523 ], [ 14.399338, -1.872911 ], [ 14.404225, -1.832622 ], [ 14.413774, -1.801798 ], [ 14.420785, -1.730975 ], [ 14.449776, -1.692578 ], [ 14.447006, -1.683588 ], [ 14.439008, -1.674784 ], [ 14.404502, -1.655652 ], [ 14.392096, -1.644464 ], [ 14.380242, -1.627256 ], [ 14.37564, -1.607836 ], [ 14.38271, -1.598292 ], [ 14.451826, -1.56519 ], [ 14.471898, -1.553296 ], [ 14.479111, -1.545388 ], [ 14.484768, -1.532956 ], [ 14.484789, -1.518099 ], [ 14.481051, -1.506147 ], [ 14.465341, -1.478612 ], [ 14.463637, -1.468218 ], [ 14.46858, -1.457565 ], [ 14.493602, -1.438248 ], [ 14.501136, -1.423012 ], [ 14.49653, -1.408715 ], [ 14.459573, -1.37748 ], [ 14.453066, -1.361626 ], [ 14.454678, -1.337863 ], [ 14.481333, -1.285694 ], [ 14.484558, -1.257867 ], [ 14.465077, -1.184406 ], [ 14.42462, -1.007548 ], [ 14.419416, -0.944918 ], [ 14.411359, -0.908766 ], [ 14.416517, -0.888621 ], [ 14.430448, -0.871503 ], [ 14.442083, -0.848569 ], [ 14.45821, -0.801565 ], [ 14.470479, -0.744208 ], [ 14.486368, -0.715422 ], [ 14.497521, -0.683197 ], [ 14.498969, -0.654545 ], [ 14.494011, -0.622603 ], [ 14.480382, -0.584938 ], [ 14.462153, -0.551269 ], [ 14.431329, -0.519463 ], [ 14.411901, -0.490717 ], [ 14.395183, -0.474639 ], [ 14.363218, -0.461182 ], [ 14.312601, -0.456608 ], [ 14.251614, -0.433538 ], [ 14.228318, -0.433368 ], [ 14.192633, -0.44098 ], [ 14.180485, -0.439581 ], [ 14.173359, -0.421141 ], [ 14.172178, -0.367879 ], [ 14.168228, -0.346103 ], [ 14.161777, -0.329394 ], [ 14.146599, -0.31018 ], [ 14.110665, -0.285352 ], [ 14.099824, -0.277861 ], [ 14.017814, -0.235676 ], [ 13.98753, -0.224389 ], [ 13.969731, -0.222537 ], [ 13.962314, -0.224404 ], [ 13.946488, -0.245605 ], [ 13.936724, -0.24734 ], [ 13.91034, -0.228766 ], [ 13.899452, -0.216873 ], [ 13.88718, -0.182134 ], [ 13.889474, -0.154818 ], [ 13.915227, -0.114937 ], [ 13.929808, -0.067448 ], [ 13.93439, -0.033652 ], [ 13.934307, -0.003889 ], [ 13.94928, 0.007723 ], [ 13.957376, 0.035684 ], [ 13.950938, 0.045618 ], [ 13.929566, 0.047056 ], [ 13.923859, 0.054027 ], [ 13.915972, 0.088094 ], [ 13.924199, 0.107735 ], [ 13.926246, 0.12849 ], [ 13.917162, 0.153124 ], [ 13.907072, 0.167917 ], [ 13.903445, 0.18163 ], [ 13.891831, 0.200239 ], [ 13.897827, 0.210544 ], [ 13.894849, 0.220361 ], [ 13.896699, 0.22958 ], [ 13.897982, 0.235971 ], [ 13.917688, 0.251238 ], [ 13.926469, 0.262457 ], [ 13.938848, 0.268688 ], [ 13.935909, 0.284696 ], [ 13.941413, 0.29047 ], [ 13.94075, 0.297394 ], [ 13.946215, 0.306136 ], [ 13.944559, 0.318381 ], [ 13.94925, 0.325131 ], [ 13.966848, 0.338366 ], [ 13.976337, 0.35894 ], [ 13.987933, 0.373391 ], [ 14.007341, 0.38619 ], [ 14.023966, 0.392783 ], [ 14.038262, 0.403557 ], [ 14.052117, 0.408921 ], [ 14.069967, 0.426472 ], [ 14.076067, 0.448179 ], [ 14.091301, 0.471339 ], [ 14.088332, 0.47734 ], [ 14.074587, 0.488692 ], [ 14.072949, 0.497615 ], [ 14.08363, 0.521616 ], [ 14.107217, 0.549416 ], [ 14.110665, 0.551428 ], [ 14.120557, 0.557202 ], [ 14.137196, 0.557281 ], [ 14.154793, 0.553822 ], [ 14.17864, 0.544424 ], [ 14.204546, 0.549434 ], [ 14.21735, 0.540137 ], [ 14.227471, 0.536947 ], [ 14.236905, 0.538104 ], [ 14.258931, 0.547194 ], [ 14.284717, 0.544997 ], [ 14.285752, 0.557689 ], [ 14.298289, 0.582016 ], [ 14.309986, 0.590236 ], [ 14.32341, 0.594986 ], [ 14.338581, 0.608383 ], [ 14.351373, 0.612991 ], [ 14.365826, 0.628037 ], [ 14.380452, 0.636633 ], [ 14.372716, 0.656869 ], [ 14.361851, 0.672377 ], [ 14.366697, 0.692963 ], [ 14.379694, 0.705845 ], [ 14.394158, 0.72637 ], [ 14.412329, 0.74082 ], [ 14.417096, 0.755347 ], [ 14.430048, 0.773267 ], [ 14.440219, 0.780496 ], [ 14.461255, 0.78872 ], [ 14.47305, 0.811277 ], [ 14.485561, 0.823018 ], [ 14.482076, 0.850892 ], [ 14.468032, 0.871994 ], [ 14.49066, 0.881677 ], [ 14.500695, 0.904515 ], [ 14.500479, 0.910829 ], [ 14.495784, 0.927802 ], [ 14.478853, 0.937648 ], [ 14.466117, 0.950994 ], [ 14.446954, 0.960724 ], [ 14.439359, 0.969041 ], [ 14.401474, 1.055025 ], [ 14.400898, 1.074024 ], [ 14.396939, 1.090806 ], [ 14.349409, 1.143725 ], [ 14.342926, 1.176985 ], [ 14.33103, 1.199771 ], [ 14.297784, 1.233939 ], [ 14.296586, 1.244332 ], [ 14.304686, 1.268038 ], [ 14.305461, 1.294252 ], [ 14.278138, 1.340089 ], [ 14.250032, 1.359372 ], [ 14.226897, 1.369767 ], [ 14.206763, 1.375074 ], [ 14.186565, 1.39391 ], [ 14.165291, 1.391745 ], [ 14.128305, 1.393711 ], [ 14.119338, 1.390604 ], [ 14.110665, 1.382518 ], [ 14.108049, 1.380079 ], [ 14.099862, 1.376787 ], [ 14.069143, 1.380827 ], [ 14.06004, 1.385192 ], [ 14.034428, 1.40727 ], [ 14.026232, 1.428084 ], [ 14.014301, 1.435413 ], [ 14.005637, 1.43144 ], [ 13.997065, 1.420296 ], [ 13.98508, 1.417294 ], [ 13.967791, 1.421368 ], [ 13.927487, 1.418009 ], [ 13.893762, 1.43154 ], [ 13.866167, 1.426673 ], [ 13.853226, 1.433103 ], [ 13.837335, 1.428617 ], [ 13.817461, 1.428906 ], [ 13.807721, 1.436017 ], [ 13.80176, 1.424961 ], [ 13.807695, 1.420823 ], [ 13.808798, 1.411879 ], [ 13.798847, 1.405881 ], [ 13.792916, 1.396641 ], [ 13.786035, 1.394331 ], [ 13.788265, 1.373005 ], [ 13.780749, 1.363517 ], [ 13.768265, 1.359898 ], [ 13.760196, 1.35408 ], [ 13.744069, 1.361702 ], [ 13.741321, 1.368531 ], [ 13.732741, 1.369614 ], [ 13.704954, 1.350801 ], [ 13.690543, 1.352661 ], [ 13.685067, 1.349957 ], [ 13.668718, 1.352571 ], [ 13.65583, 1.347025 ], [ 13.643872, 1.347418 ], [ 13.635056, 1.343274 ], [ 13.632341, 1.330502 ], [ 13.609563, 1.328412 ], [ 13.602729, 1.320765 ], [ 13.592528, 1.316368 ], [ 13.588497, 1.305818 ], [ 13.571119, 1.287932 ], [ 13.555527, 1.27936 ], [ 13.536651, 1.282042 ], [ 13.515985, 1.274234 ], [ 13.512184, 1.268185 ], [ 13.500146, 1.274127 ], [ 13.493547, 1.270404 ], [ 13.487892, 1.270911 ], [ 13.432046, 1.298915 ], [ 13.413783, 1.295927 ], [ 13.397343, 1.283675 ], [ 13.375089, 1.28928 ], [ 13.36739, 1.278647 ], [ 13.372379, 1.270051 ], [ 13.370886, 1.266248 ], [ 13.353874, 1.265485 ], [ 13.343606, 1.259147 ], [ 13.333714, 1.262235 ], [ 13.32454, 1.261565 ], [ 13.323682, 1.239718 ], [ 13.315259, 1.237056 ], [ 13.312768, 1.226421 ], [ 13.308988, 1.222573 ], [ 13.299057, 1.228522 ], [ 13.290215, 1.228959 ], [ 13.260352, 1.22463 ], [ 13.253653, 1.226945 ], [ 13.242105, 1.224598 ], [ 13.218272, 1.226174 ], [ 13.196846, 1.219356 ], [ 13.181658, 1.228207 ], [ 13.157692, 1.235994 ], [ 13.158405, 1.240954 ], [ 13.166538, 1.248671 ], [ 13.178796, 1.249678 ], [ 13.17833, 1.261651 ], [ 13.188621, 1.290938 ], [ 13.19251, 1.292035 ], [ 13.199067, 1.28804 ], [ 13.212405, 1.290162 ], [ 13.225132, 1.286821 ], [ 13.228903, 1.291059 ], [ 13.231595, 1.302205 ], [ 13.256475, 1.31655 ], [ 13.262903, 1.335515 ], [ 13.260278, 1.340576 ], [ 13.250786, 1.338172 ], [ 13.245226, 1.343226 ], [ 13.245883, 1.348779 ], [ 13.252658, 1.357184 ], [ 13.247685, 1.368364 ], [ 13.255618, 1.389585 ], [ 13.250316, 1.393991 ], [ 13.250923, 1.406454 ], [ 13.238309, 1.419496 ], [ 13.234616, 1.436376 ], [ 13.222486, 1.444996 ], [ 13.221733, 1.459561 ], [ 13.217702, 1.466129 ], [ 13.218105, 1.477455 ], [ 13.208919, 1.482661 ], [ 13.20488, 1.488399 ], [ 13.195976, 1.489358 ], [ 13.19746, 1.496972 ], [ 13.194116, 1.502043 ], [ 13.196353, 1.512664 ], [ 13.183134, 1.529306 ], [ 13.180152, 1.53306 ], [ 13.175601, 1.534032 ], [ 13.167809, 1.529306 ], [ 13.164744, 1.527447 ], [ 13.161711, 1.529306 ], [ 13.159694, 1.530542 ], [ 13.153655, 1.541455 ], [ 13.152799, 1.549782 ], [ 13.139205, 1.561298 ], [ 13.139904, 1.57675 ], [ 13.132384, 1.586798 ], [ 13.134205, 1.589941 ], [ 13.144353, 1.591602 ], [ 13.143873, 1.610298 ], [ 13.149872, 1.62364 ], [ 13.147632, 1.631851 ], [ 13.149216, 1.639296 ], [ 13.141022, 1.652448 ], [ 13.142149, 1.671472 ], [ 13.137426, 1.690571 ], [ 13.138262, 1.701169 ], [ 13.157128, 1.724046 ], [ 13.159966, 1.740609 ], [ 13.171319, 1.746541 ], [ 13.180234, 1.755153 ], [ 13.182374, 1.790373 ], [ 13.194257, 1.791621 ], [ 13.199947, 1.80499 ], [ 13.191875, 1.820933 ], [ 13.194884, 1.831464 ], [ 13.19232, 1.851475 ], [ 13.186597, 1.857132 ], [ 13.172731, 1.860545 ], [ 13.170269, 1.86909 ], [ 13.15932, 1.878579 ], [ 13.159019, 1.892705 ], [ 13.163297, 1.900651 ], [ 13.173013, 1.902111 ], [ 13.180418, 1.906923 ], [ 13.191867, 1.929253 ], [ 13.214751, 1.946117 ], [ 13.208671, 1.968282 ], [ 13.210321, 1.980253 ], [ 13.233151, 1.997724 ], [ 13.239004, 2.011896 ], [ 13.244971, 2.018485 ], [ 13.255462, 2.023993 ], [ 13.272426, 2.026094 ], [ 13.286097, 2.04076 ], [ 13.283027, 2.050835 ], [ 13.289382, 2.052539 ], [ 13.294073, 2.061995 ], [ 13.29404, 2.084569 ], [ 13.298321, 2.098778 ], [ 13.297685, 2.105746 ], [ 13.291917, 2.115953 ], [ 13.293601, 2.127293 ], [ 13.289509, 2.133612 ], [ 13.29724, 2.141805 ], [ 13.292669, 2.15648 ], [ 13.29897, 2.17056 ], [ 13.407647, 2.168496 ], [ 13.495601, 2.171274 ], [ 13.679916, 2.170926 ], [ 13.862477, 2.172551 ], [ 13.866167, 2.172468 ], [ 13.998621, 2.169481 ], [ 14.024968, 2.171352 ], [ 14.027834, 2.171555 ], [ 14.110665, 2.171606 ], [ 14.245671, 2.17169 ], [ 14.256097, 2.172957 ], [ 14.270195, 2.184907 ], [ 14.309924, 2.190227 ], [ 14.348115, 2.183386 ], [ 14.364084, 2.184941 ], [ 14.395745, 2.182661 ], [ 14.410882, 2.174383 ], [ 14.42556, 2.157276 ], [ 14.431653, 2.156048 ], [ 14.485224, 2.174402 ], [ 14.525175, 2.188089 ], [ 14.545635, 2.197441 ], [ 14.556546, 2.21026 ], [ 14.571461, 2.203247 ], [ 14.584682, 2.210415 ], [ 14.591794, 2.201922 ], [ 14.602151, 2.19675 ], [ 14.610473, 2.192594 ], [ 14.630326, 2.157404 ], [ 14.647263, 2.15107 ], [ 14.648781, 2.146301 ], [ 14.646444, 2.137472 ], [ 14.651653, 2.129244 ], [ 14.687413, 2.129769 ], [ 14.698027, 2.120497 ], [ 14.703293, 2.1097 ], [ 14.723961, 2.104096 ], [ 14.726722, 2.106509 ], [ 14.723505, 2.119262 ], [ 14.729676, 2.121628 ], [ 14.755734, 2.102179 ], [ 14.75456, 2.095642 ], [ 14.743812, 2.094112 ], [ 14.744844, 2.088013 ], [ 14.750252, 2.087438 ], [ 14.762384, 2.094614 ], [ 14.773652, 2.093695 ], [ 14.776896, 2.083473 ], [ 14.770768, 2.067676 ], [ 14.775709, 2.061875 ], [ 14.78069, 2.061992 ], [ 14.795934, 2.071421 ], [ 14.809782, 2.059066 ], [ 14.815282, 2.058053 ], [ 14.828437, 2.0634 ], [ 14.842776, 2.080318 ], [ 14.850794, 2.082204 ], [ 14.86163, 2.080696 ], [ 14.866387, 2.080034 ], [ 14.86871, 2.085708 ], [ 14.862966, 2.101721 ], [ 14.871346, 2.107657 ], [ 14.877412, 2.107471 ], [ 14.880902, 2.10179 ], [ 14.880877, 2.08153 ], [ 14.884005, 2.07145 ], [ 14.891103, 2.06628 ], [ 14.913484, 2.059992 ], [ 14.916713, 2.056169 ], [ 14.913478, 2.03666 ], [ 14.898578, 2.018257 ], [ 14.911834, 2.003683 ], [ 14.922887, 1.998034 ], [ 14.954678, 2.000644 ], [ 14.968305, 2.004944 ], [ 14.973956, 2.009958 ], [ 14.980474, 2.026535 ], [ 14.987267, 2.032103 ], [ 15.009037, 2.013346 ], [ 15.032358, 2.000502 ], [ 15.035702, 1.984799 ], [ 15.043207, 1.977545 ], [ 15.050797, 1.979754 ], [ 15.068566, 2.000823 ], [ 15.07533, 1.99632 ], [ 15.076255, 1.980555 ], [ 15.105291, 1.978332 ], [ 15.111932, 1.985709 ], [ 15.115072, 1.999533 ], [ 15.121809, 2.010535 ], [ 15.137581, 2.007778 ], [ 15.145304, 2.012283 ], [ 15.152381, 2.038218 ], [ 15.162248, 2.038923 ], [ 15.171901, 2.019378 ], [ 15.176907, 2.015146 ], [ 15.186594, 2.024392 ], [ 15.196033, 2.033402 ], [ 15.212912, 2.035637 ], [ 15.250434, 2.026059 ], [ 15.250828, 2.02046 ], [ 15.244697, 2.009533 ], [ 15.260041, 2.005741 ], [ 15.269354, 1.994622 ], [ 15.281491, 1.990234 ], [ 15.290764, 1.982745 ], [ 15.306008, 1.96316 ], [ 15.307092, 1.935125 ], [ 15.319263, 1.931004 ], [ 15.334746, 1.93856 ], [ 15.335579, 1.926404 ], [ 15.345635, 1.911735 ], [ 15.392649, 1.935499 ], [ 15.408869, 1.939046 ], [ 15.432116, 1.956256 ], [ 15.477618, 1.968956 ], [ 15.49048, 1.975365 ], [ 15.526909, 1.953678 ], [ 15.539079, 1.960084 ], [ 15.545451, 1.960512 ], [ 15.566198, 1.947155 ], [ 15.591771, 1.952526 ], [ 15.610166, 1.94299 ], [ 15.652668, 1.932838 ], [ 15.670328, 1.92977 ], [ 15.68899, 1.932227 ], [ 15.721079, 1.920728 ], [ 15.730945, 1.912868 ], [ 15.743252, 1.916035 ], [ 15.751424, 1.915058 ], [ 15.759569, 1.910148 ], [ 15.769143, 1.904378 ], [ 15.788388, 1.881723 ], [ 15.795589, 1.864858 ], [ 15.806898, 1.853418 ], [ 15.833323, 1.842588 ], [ 15.847565, 1.827762 ], [ 15.870213, 1.822808 ], [ 15.882364, 1.79132 ], [ 15.881921, 1.780298 ], [ 15.887071, 1.780499 ], [ 15.898185, 1.789176 ], [ 15.908746, 1.789352 ], [ 15.918353, 1.775146 ], [ 15.935915, 1.773081 ], [ 15.959882, 1.762355 ], [ 15.995733, 1.761135 ], [ 16.023491, 1.765362 ], [ 16.03162, 1.762556 ], [ 16.034114, 1.750611 ], [ 16.018405, 1.717975 ], [ 16.026336, 1.702824 ], [ 16.023261, 1.677723 ], [ 16.031619, 1.658451 ], [ 16.059524, 1.652885 ], [ 16.065745, 1.655055 ], [ 16.08605, 1.686281 ], [ 16.120977, 1.695776 ], [ 16.126508, 1.694278 ], [ 16.135951, 1.68537 ], [ 16.144114, 1.682965 ], [ 16.148664, 1.689136 ], [ 16.152417, 1.703493 ], [ 16.14016, 1.726193 ], [ 16.140014, 1.742848 ], [ 16.146606, 1.763504 ], [ 16.140112, 1.797435 ], [ 16.127503, 1.81615 ], [ 16.115874, 1.854503 ], [ 16.112928, 1.869137 ], [ 16.114363, 1.886087 ], [ 16.109524, 1.889083 ], [ 16.09744, 1.887069 ], [ 16.090167, 1.8917 ], [ 16.079954, 1.944982 ], [ 16.055889, 1.971388 ], [ 16.057868, 1.98046 ], [ 16.056485, 2.0021 ], [ 16.063236, 2.012598 ], [ 16.077711, 2.025903 ], [ 16.084303, 2.040463 ], [ 16.082869, 2.047604 ], [ 16.06965, 2.05629 ], [ 16.066221, 2.062755 ], [ 16.07051, 2.06917 ], [ 16.083303, 2.076542 ], [ 16.088834, 2.086155 ], [ 16.089231, 2.102177 ], [ 16.080454, 2.124829 ], [ 16.084983, 2.185518 ], [ 16.087456, 2.192609 ], [ 16.09651, 2.198004 ], [ 16.128583, 2.196954 ], [ 16.13504, 2.192678 ], [ 16.141288, 2.176722 ], [ 16.147485, 2.175685 ], [ 16.162415, 2.191252 ], [ 16.181613, 2.200138 ], [ 16.189423, 2.210641 ], [ 16.19199, 2.22051 ], [ 16.195314, 2.223604 ], [ 16.208694, 2.246564 ], [ 16.213198, 2.257844 ], [ 16.265286, 2.356565 ], [ 16.27088, 2.369791 ], [ 16.27465, 2.374189 ], [ 16.286914, 2.398967 ], [ 16.29052, 2.402778 ], [ 16.297171, 2.416316 ], [ 16.330821, 2.485163 ], [ 16.519015, 2.840906 ], [ 16.523945, 2.875787 ], [ 16.521121, 2.885379 ], [ 16.500406, 2.900652 ], [ 16.490585, 2.91218 ], [ 16.493368, 3.00055 ], [ 16.503684, 3.021231 ], [ 16.531947, 3.050463 ], [ 16.543472, 3.0688 ], [ 16.538227, 3.079892 ], [ 16.52215, 3.099935 ], [ 16.513755, 3.117765 ], [ 16.506798, 3.162459 ], [ 16.510817, 3.173639 ], [ 16.532144, 3.20612 ], [ 16.540102, 3.226079 ], [ 16.557211, 3.25259 ], [ 16.550976, 3.283146 ], [ 16.553435, 3.299025 ], [ 16.572131, 3.329207 ], [ 16.576163, 3.340409 ], [ 16.582894, 3.414802 ], [ 16.597027, 3.477098 ], [ 16.612174, 3.49848 ], [ 16.649116, 3.52976 ], [ 16.670936, 3.54083 ], [ 16.724191, 3.548992 ], [ 16.753635, 3.55638 ], [ 16.799812, 3.544021 ], [ 16.820996, 3.522529 ], [ 16.855183, 3.511418 ], [ 16.862225, 3.513933 ], [ 16.872402, 3.527029 ], [ 16.873662, 3.536344 ], [ 16.870364, 3.550693 ], [ 16.875804, 3.557696 ], [ 16.886267, 3.558256 ], [ 16.897652, 3.552199 ], [ 16.911842, 3.550405 ], [ 16.932088, 3.552332 ], [ 16.956225, 3.558801 ], [ 16.978779, 3.540452 ], [ 17.003166, 3.545665 ], [ 17.013336, 3.527382 ], [ 17.02763, 3.51567 ], [ 17.034927, 3.514344 ], [ 17.050891, 3.529051 ], [ 17.059999, 3.547083 ], [ 17.064788, 3.549929 ], [ 17.096802, 3.559831 ], [ 17.116418, 3.560506 ], [ 17.153547, 3.573825 ], [ 17.176724, 3.56606 ], [ 17.240941, 3.580312 ], [ 17.248097, 3.585904 ], [ 17.248331, 3.603553 ], [ 17.252335, 3.609854 ], [ 17.295555, 3.628654 ], [ 17.304218, 3.628246 ], [ 17.317766, 3.618606 ], [ 17.345718, 3.606401 ], [ 17.360912, 3.607029 ], [ 17.367275, 3.613023 ], [ 17.395996, 3.662544 ], [ 17.407493, 3.669953 ], [ 17.438775, 3.680079 ], [ 17.452735, 3.694431 ], [ 17.475525, 3.702902 ], [ 17.491531, 3.701721 ], [ 17.507751, 3.691981 ], [ 17.540653, 3.686633 ], [ 17.558235, 3.669842 ], [ 17.584371, 3.659738 ], [ 17.597331, 3.645131 ], [ 17.604849, 3.641916 ], [ 17.652047, 3.639216 ], [ 17.686089, 3.641009 ], [ 17.703364, 3.635195 ], [ 17.734783, 3.650108 ], [ 17.759086, 3.63921 ], [ 17.784468, 3.635095 ], [ 17.797461, 3.629348 ], [ 17.828857, 3.625722 ], [ 17.833865, 3.620991 ], [ 17.839239, 3.607101 ], [ 17.846283, 3.562907 ], [ 17.861978, 3.533761 ], [ 17.868404, 3.535538 ], [ 17.887517, 3.554381 ], [ 17.902998, 3.560412 ], [ 17.916011, 3.570902 ], [ 17.932312, 3.597223 ], [ 17.937264, 3.600901 ], [ 17.943784, 3.598146 ], [ 17.951276, 3.580772 ], [ 17.965786, 3.564135 ], [ 17.991227, 3.552644 ], [ 17.998342, 3.556121 ], [ 18.00311, 3.577767 ], [ 18.045659, 3.569114 ], [ 18.07177, 3.574792 ], [ 18.119507, 3.567183 ], [ 18.135715, 3.559604 ], [ 18.152129, 3.54484 ], [ 18.163979, 3.525509 ], [ 18.175466, 3.490341 ], [ 18.180673, 3.484792 ], [ 18.189025, 3.481893 ], [ 18.227458, 3.489704 ], [ 18.24116, 3.500844 ], [ 18.251252, 3.519079 ], [ 18.260134, 3.551965 ], [ 18.264652, 3.585103 ], [ 18.268351, 3.590765 ], [ 18.278697, 3.592608 ], [ 18.309286, 3.588033 ], [ 18.333964, 3.603515 ], [ 18.344718, 3.606608 ], [ 18.387426, 3.590241 ], [ 18.408403, 3.579218 ], [ 18.41819, 3.606617 ], [ 18.422981, 3.607468 ], [ 18.438474, 3.600071 ], [ 18.44756, 3.601427 ], [ 18.453138, 3.608139 ], [ 18.456732, 3.623484 ], [ 18.467351, 3.631953 ], [ 18.479502, 3.650242 ], [ 18.489229, 3.651523 ], [ 18.514535, 3.624753 ], [ 18.534403, 3.610444 ], [ 18.540905, 3.601211 ], [ 18.552586, 3.56117 ], [ 18.558896, 3.548991 ], [ 18.575805, 3.528925 ], [ 18.595158, 3.478242 ], [ 18.603626, 3.473189 ], [ 18.625083, 3.471647 ], [ 18.635865, 3.428066 ], [ 18.634573, 3.399445 ], [ 18.629561, 3.385577 ], [ 18.636388, 3.364016 ], [ 18.6435, 3.318632 ], [ 18.646862, 3.272297 ], [ 18.643815, 3.261055 ], [ 18.646541, 3.242425 ], [ 18.639998, 3.232157 ], [ 18.63861, 3.21139 ], [ 18.629039, 3.184998 ], [ 18.604909, 3.137695 ], [ 18.590861, 3.103118 ], [ 18.563165, 3.083474 ], [ 18.548111, 3.07841 ], [ 18.522289, 3.045705 ], [ 18.518795, 3.037403 ], [ 18.526773, 3.028762 ], [ 18.524188, 3.015006 ], [ 18.492268, 2.974825 ], [ 18.473757, 2.924326 ], [ 18.450608, 2.885985 ], [ 18.446222, 2.836223 ], [ 18.4283, 2.797183 ], [ 18.42437, 2.777617 ], [ 18.425454, 2.766509 ], [ 18.422326, 2.758178 ], [ 18.402446, 2.725887 ], [ 18.387426, 2.705891 ], [ 18.381761, 2.698351 ], [ 18.364927, 2.684221 ], [ 18.35245, 2.66015 ], [ 18.343823, 2.652396 ], [ 18.343838, 2.626554 ], [ 18.322282, 2.592071 ], [ 18.311593, 2.583936 ], [ 18.301893, 2.566867 ], [ 18.293372, 2.559772 ], [ 18.292719, 2.548446 ], [ 18.271398, 2.537224 ], [ 18.266198, 2.53163 ], [ 18.249241, 2.491804 ], [ 18.243737, 2.47045 ], [ 18.220248, 2.441925 ], [ 18.217685, 2.430003 ], [ 18.208002, 2.416316 ], [ 18.202606, 2.40869 ], [ 18.19965, 2.387584 ], [ 18.183635, 2.37025 ], [ 18.1869, 2.35253 ], [ 18.185595, 2.344504 ], [ 18.13981, 2.301882 ], [ 18.116507, 2.293779 ], [ 18.094652, 2.270837 ], [ 18.092046, 2.245287 ], [ 18.09378, 2.222705 ], [ 18.087797, 2.202705 ], [ 18.087897, 2.18967 ], [ 18.077582, 2.142957 ], [ 18.081028, 2.077357 ], [ 18.076611, 2.060766 ], [ 18.080144, 2.026295 ], [ 18.077127, 2.009366 ], [ 18.080285, 1.994259 ], [ 18.076488, 1.984158 ], [ 18.078456, 1.980477 ], [ 18.092304, 1.972583 ], [ 18.096193, 1.963035 ], [ 18.09149, 1.947056 ], [ 18.090879, 1.930632 ], [ 18.082282, 1.921058 ], [ 18.073588, 1.898335 ], [ 18.061494, 1.888658 ], [ 18.056143, 1.866368 ], [ 18.059005, 1.857702 ], [ 18.053042, 1.826624 ], [ 18.054669, 1.812554 ], [ 18.067469, 1.789453 ], [ 18.061869, 1.781862 ], [ 18.062316, 1.774467 ], [ 18.070572, 1.767666 ], [ 18.074294, 1.752744 ], [ 18.069924, 1.714602 ], [ 18.073467, 1.694139 ], [ 18.069455, 1.676825 ], [ 18.07872, 1.659099 ], [ 18.079574, 1.643903 ], [ 18.07179, 1.625763 ], [ 18.071156, 1.603858 ], [ 18.074962, 1.591709 ], [ 18.06656, 1.574399 ], [ 18.074351, 1.557333 ], [ 18.069516, 1.525201 ], [ 18.057073, 1.505118 ], [ 18.044038, 1.450603 ], [ 18.023898, 1.429144 ], [ 18.002422, 1.414255 ], [ 18.00223, 1.396762 ], [ 17.974773, 1.353015 ], [ 17.972987, 1.334455 ], [ 17.957864, 1.324361 ], [ 17.95255, 1.31735 ], [ 17.947716, 1.297687 ], [ 17.951886, 1.280626 ], [ 17.941775, 1.26505 ], [ 17.939678, 1.240447 ], [ 17.943118, 1.228158 ], [ 17.930284, 1.20893 ], [ 17.927275, 1.191994 ], [ 17.920239, 1.178229 ], [ 17.915109, 1.156712 ], [ 17.917939, 1.142302 ], [ 17.916389, 1.128205 ], [ 17.882635, 1.095392 ], [ 17.878573, 1.08015 ], [ 17.862375, 1.058861 ], [ 17.861223, 1.037582 ], [ 17.85055, 1.019996 ], [ 17.852333, 0.993846 ], [ 17.842109, 0.967149 ], [ 17.840622, 0.93489 ], [ 17.84739, 0.893316 ], [ 17.855488, 0.880107 ], [ 17.867847, 0.868951 ], [ 17.875309, 0.8515 ], [ 17.867598, 0.751252 ], [ 17.870442, 0.725753 ], [ 17.866364, 0.705327 ], [ 17.875288, 0.692567 ], [ 17.877033, 0.68515 ], [ 17.869863, 0.661301 ], [ 17.877094, 0.636272 ], [ 17.873049, 0.579645 ], [ 17.879725, 0.564372 ], [ 17.887826, 0.554897 ], [ 17.922723, 0.54086 ], [ 17.930284, 0.53489 ], [ 17.943455, 0.523312 ], [ 17.949595, 0.495392 ], [ 17.959105, 0.480299 ], [ 17.949997, 0.411796 ], [ 17.962341, 0.387488 ], [ 17.959183, 0.377344 ], [ 17.944181, 0.359052 ], [ 17.936357, 0.343635 ], [ 17.930284, 0.337582 ], [ 17.916838, 0.32418 ], [ 17.919013, 0.314111 ], [ 17.915371, 0.304992 ], [ 17.884397, 0.279943 ], [ 17.845743, 0.259611 ], [ 17.824765, 0.240994 ], [ 17.820549, 0.22958 ], [ 17.809464, 0.199574 ], [ 17.776985, 0.147867 ], [ 17.767881, 0.114217 ], [ 17.76814, 0.087095 ], [ 17.763471, 0.072363 ], [ 17.759706, 0.03364 ], [ 17.750073, -0.014323 ], [ 17.747976, -0.046578 ], [ 17.75072, -0.066914 ], [ 17.734586, -0.088686 ], [ 17.701944, -0.120436 ], [ 17.673918, -0.177867 ], [ 17.672982, -0.191507 ], [ 17.67985, -0.219245 ], [ 17.677738, -0.252087 ], [ 17.672573, -0.263333 ], [ 17.669729, -0.28387 ], [ 17.681628, -0.313209 ], [ 17.695048, -0.325658 ], [ 17.697938, -0.338115 ], [ 17.712509, -0.350986 ], [ 17.718361, -0.365635 ], [ 17.713826, -0.42154 ], [ 17.705279, -0.464309 ], [ 17.705373, -0.490039 ], [ 17.710227, -0.519453 ], [ 17.703643, -0.581267 ], [ 17.694452, -0.600062 ], [ 17.680542, -0.61723 ], [ 17.659943, -0.656913 ], [ 17.639828, -0.671866 ], [ 17.62171, -0.675325 ], [ 17.584068, -0.688711 ], [ 17.567645, -0.700993 ], [ 17.565932, -0.702275 ], [ 17.551274, -0.729447 ], [ 17.499089, -0.754624 ], [ 17.473658, -0.792803 ], [ 17.44953, -0.80627 ], [ 17.436414, -0.824036 ], [ 17.426165, -0.85905 ], [ 17.413185, -0.887981 ], [ 17.393899, -0.903366 ], [ 17.35374, -0.983944 ], [ 17.341991, -0.987826 ], [ 17.283579, -0.990912 ], [ 17.267015, -0.997711 ], [ 17.237508, -1.023039 ], [ 17.19697, -1.049291 ], [ 17.174077, -1.053321 ], [ 17.155005, -1.053359 ], [ 17.108761, -1.065238 ], [ 17.010567, -1.126156 ], [ 16.994026, -1.144145 ], [ 16.840824, -1.260166 ], [ 16.751306, -1.396305 ], [ 16.718781, -1.445767 ], [ 16.637064, -1.628575 ], [ 16.591617, -1.709473 ], [ 16.573836, -1.733407 ], [ 16.570493, -1.77263 ], [ 16.561038, -1.800314 ], [ 16.556536, -1.840358 ], [ 16.545554, -1.853686 ], [ 16.514435, -1.871557 ], [ 16.418124, -1.942674 ], [ 16.339886, -2.050588 ], [ 16.303506, -2.07984 ], [ 16.221838, -2.126116 ], [ 16.214054, -2.153311 ], [ 16.188442, -2.187017 ], [ 16.175643, -2.266105 ], [ 16.181213, -2.404201 ], [ 16.220283, -2.566478 ], [ 16.233544, -2.60016 ], [ 16.227991, -2.656549 ], [ 16.217351, -2.687029 ], [ 16.202881, -2.711544 ], [ 16.193938, -2.757923 ], [ 16.197985, -2.794033 ], [ 16.176463, -2.868577 ], [ 16.173845, -2.924093 ], [ 16.178486, -2.959666 ], [ 16.192743, -3.013323 ], [ 16.18503, -3.035777 ], [ 16.181767, -3.058803 ], [ 16.172102, -3.077876 ], [ 16.171574, -3.126243 ], [ 16.187199, -3.191876 ], [ 16.177261, -3.225461 ], [ 16.179628, -3.253979 ], [ 16.187713, -3.26548 ], [ 16.209947, -3.280229 ], [ 16.214993, -3.308637 ], [ 16.207273, -3.321064 ], [ 16.194798, -3.368368 ], [ 16.180151, -3.38873 ], [ 16.161142, -3.425783 ], [ 16.123423, -3.472876 ], [ 16.116004, -3.50297 ], [ 16.090977, -3.557252 ], [ 16.050412, -3.605916 ], [ 16.03707, -3.629251 ], [ 16.029973, -3.653878 ], [ 16.012695, -3.685979 ], [ 15.986885, -3.744502 ], [ 15.966964, -3.772062 ], [ 15.950869, -3.81002 ], [ 15.926503, -3.855958 ], [ 15.915079, -3.909649 ], [ 15.904812, -3.929859 ], [ 15.8939, -3.94554 ], [ 15.880793, -3.956747 ], [ 15.849542, -3.964721 ], [ 15.813183, -3.978544 ], [ 15.759569, -3.983937 ], [ 15.738155, -3.986091 ], [ 15.680294, -3.995849 ], [ 15.573623, -4.029179 ], [ 15.556941, -4.037241 ], [ 15.51967, -4.073368 ], [ 15.510764, -4.088197 ], [ 15.505778, -4.104675 ], [ 15.4749, -4.14936 ], [ 15.482196, -4.176857 ], [ 15.479021, -4.202301 ], [ 15.474711, -4.213885 ], [ 15.476622, -4.229488 ], [ 15.431652, -4.273181 ], [ 15.400477, -4.284719 ], [ 15.327899, -4.270523 ], [ 15.276678, -4.293116 ], [ 15.256037, -4.313453 ], [ 15.232168, -4.318889 ], [ 15.215704, -4.327084 ], [ 15.204622, -4.324211 ], [ 15.195623, -4.326045 ], [ 15.18858, -4.334762 ], [ 15.182546, -4.356548 ], [ 15.17622, -4.366468 ], [ 15.173932, -4.389875 ], [ 15.140209, -4.422736 ], [ 15.104752, -4.482922 ], [ 15.073968, -4.510338 ], [ 15.063238, -4.517134 ], [ 15.053801, -4.523111 ], [ 15.04285, -4.536349 ], [ 15.028293, -4.54249 ], [ 14.990616, -4.587291 ], [ 14.981955, -4.60738 ], [ 14.903515, -4.681837 ], [ 14.891045, -4.704927 ], [ 14.883894, -4.728279 ], [ 14.869875, -4.751629 ], [ 14.863258, -4.778765 ], [ 14.852037, -4.790876 ], [ 14.844671, -4.810637 ], [ 14.831653, -4.825409 ], [ 14.816346, -4.83469 ], [ 14.797673, -4.837452 ], [ 14.766622, -4.851458 ], [ 14.716121, -4.890735 ], [ 14.689622, -4.911429 ], [ 14.660012, -4.919659 ], [ 14.646204, -4.921313 ], [ 14.607066, -4.903353 ], [ 14.602151, -4.902869 ], [ 14.588272, -4.901503 ], [ 14.583977, -4.898082 ], [ 14.582522, -4.890735 ], [ 14.581632, -4.886241 ], [ 14.55866, -4.864171 ], [ 14.550323, -4.861294 ], [ 14.527688, -4.86226 ], [ 14.503178, -4.855384 ], [ 14.492361, -4.844435 ], [ 14.485224, -4.845295 ], [ 14.474953, -4.846533 ], [ 14.461062, -4.865419 ], [ 14.448505, -4.873424 ], [ 14.439206, -4.87581 ], [ 14.422167, -4.890735 ], [ 14.42005, -4.89259 ], [ 14.415043, -4.893614 ], [ 14.414096, -4.890735 ], [ 14.398561, -4.856644 ], [ 14.404515, -4.835028 ], [ 14.39727, -4.804438 ], [ 14.400301, -4.797654 ], [ 14.408956, -4.790674 ], [ 14.413141, -4.780318 ], [ 14.404512, -4.757825 ], [ 14.403443, -4.744202 ], [ 14.407058, -4.706187 ], [ 14.413723, -4.683932 ], [ 14.418214, -4.649183 ], [ 14.411442, -4.640649 ], [ 14.39757, -4.638119 ], [ 14.391576, -4.633612 ], [ 14.386248, -4.619782 ], [ 14.383246, -4.598657 ], [ 14.352758, -4.553286 ], [ 14.361205, -4.5375 ], [ 14.367412, -4.536411 ], [ 14.381853, -4.540208 ], [ 14.386864, -4.528566 ], [ 14.401126, -4.517583 ], [ 14.406138, -4.517134 ], [ 14.4321, -4.509456 ], [ 14.437013, -4.492748 ], [ 14.460989, -4.466179 ], [ 14.478875, -4.434827 ], [ 14.475587, -4.429921 ], [ 14.450216, -4.416562 ], [ 14.425489, -4.396751 ], [ 14.395869, -4.358596 ], [ 14.395665, -4.34224 ], [ 14.391839, -4.3344 ], [ 14.402687, -4.320254 ], [ 14.407128, -4.307287 ], [ 14.40867, -4.289464 ], [ 14.406246, -4.282578 ], [ 14.399439, -4.279917 ], [ 14.356033, -4.294464 ], [ 14.355086, -4.308879 ], [ 14.348853, -4.316262 ], [ 14.34072, -4.317082 ], [ 14.328814, -4.313704 ], [ 14.321047, -4.316984 ], [ 14.314075, -4.315641 ], [ 14.310004, -4.32411 ], [ 14.306193, -4.325912 ], [ 14.28688, -4.322897 ], [ 14.259997, -4.344948 ], [ 14.248711, -4.364179 ], [ 14.238175, -4.368028 ], [ 14.225327, -4.367565 ], [ 14.210417, -4.380659 ], [ 14.194855, -4.380167 ], [ 14.189554, -4.389839 ], [ 14.177435, -4.396116 ], [ 14.163637, -4.398675 ], [ 14.157474, -4.392395 ], [ 14.151933, -4.391725 ], [ 14.139797, -4.399026 ], [ 14.099398, -4.413782 ], [ 14.074661, -4.405878 ], [ 14.051575, -4.411331 ], [ 14.008593, -4.441689 ], [ 13.997397, -4.466936 ], [ 13.966369, -4.499491 ], [ 13.957978, -4.502809 ], [ 13.948859, -4.513625 ], [ 13.920362, -4.515495 ], [ 13.904688, -4.504271 ], [ 13.881737, -4.507641 ], [ 13.856673, -4.494989 ], [ 13.858586, -4.466713 ], [ 13.855783, -4.465244 ], [ 13.849191, -4.468381 ], [ 13.839078, -4.458758 ], [ 13.838826, -4.4423 ], [ 13.82453, -4.428124 ], [ 13.821312, -4.426231 ], [ 13.812693, -4.428203 ], [ 13.804423, -4.423347 ], [ 13.780671, -4.424271 ], [ 13.759017, -4.44369 ], [ 13.733161, -4.445818 ], [ 13.724312, -4.455799 ], [ 13.722695, -4.489037 ], [ 13.732315, -4.50357 ], [ 13.73169, -4.517134 ], [ 13.735162, -4.523341 ], [ 13.729716, -4.530347 ], [ 13.731544, -4.547278 ], [ 13.725638, -4.556616 ], [ 13.730161, -4.565659 ], [ 13.728976, -4.588408 ], [ 13.717609, -4.609464 ], [ 13.709114, -4.613485 ], [ 13.712808, -4.6262 ], [ 13.71826, -4.631573 ], [ 13.717455, -4.636284 ], [ 13.704674, -4.641511 ], [ 13.694174, -4.641822 ], [ 13.690795, -4.651988 ], [ 13.692574, -4.658208 ], [ 13.710162, -4.672962 ], [ 13.722935, -4.679275 ], [ 13.725123, -4.687665 ], [ 13.721917, -4.695962 ], [ 13.722968, -4.705136 ], [ 13.712112, -4.711724 ], [ 13.68967, -4.704423 ], [ 13.67609, -4.708178 ], [ 13.677356, -4.718274 ], [ 13.698231, -4.745048 ], [ 13.695409, -4.749191 ], [ 13.690138, -4.747939 ], [ 13.683981, -4.752035 ], [ 13.684478, -4.761743 ], [ 13.681472, -4.767012 ], [ 13.676874, -4.765727 ], [ 13.673825, -4.758084 ], [ 13.663117, -4.75704 ], [ 13.657028, -4.750095 ], [ 13.647421, -4.736278 ], [ 13.640467, -4.73618 ], [ 13.629923, -4.740716 ], [ 13.622304, -4.738099 ], [ 13.622913, -4.742025 ], [ 13.634991, -4.753919 ], [ 13.62528, -4.758 ], [ 13.622373, -4.762161 ], [ 13.621816, -4.782756 ], [ 13.60717, -4.795662 ], [ 13.596625, -4.795235 ], [ 13.589713, -4.80346 ], [ 13.584876, -4.804938 ], [ 13.577693, -4.802712 ], [ 13.559989, -4.788008 ], [ 13.555086, -4.777404 ], [ 13.549307, -4.77303 ], [ 13.543262, -4.754921 ], [ 13.536334, -4.752143 ], [ 13.529127, -4.761004 ], [ 13.517682, -4.749026 ], [ 13.513486, -4.747884 ], [ 13.507442, -4.753079 ], [ 13.503649, -4.772654 ], [ 13.519416, -4.786375 ], [ 13.514412, -4.795794 ], [ 13.520634, -4.808453 ], [ 13.511357, -4.813415 ], [ 13.511674, -4.825886 ], [ 13.491208, -4.828123 ], [ 13.482278, -4.845242 ], [ 13.470871, -4.846827 ], [ 13.468365, -4.85514 ], [ 13.454533, -4.850756 ], [ 13.43912, -4.862672 ], [ 13.415774, -4.861603 ], [ 13.413017, -4.870669 ], [ 13.408901, -4.872484 ], [ 13.401538, -4.86743 ], [ 13.394339, -4.852891 ], [ 13.384976, -4.847205 ], [ 13.370291, -4.821806 ], [ 13.371797, -4.816627 ], [ 13.381547, -4.814939 ], [ 13.38236, -4.805679 ], [ 13.379204, -4.800268 ], [ 13.359819, -4.795456 ], [ 13.338514, -4.78439 ], [ 13.331297, -4.786995 ], [ 13.323613, -4.783257 ], [ 13.307674, -4.783504 ], [ 13.302666, -4.779948 ], [ 13.298483, -4.7737 ], [ 13.285078, -4.769244 ], [ 13.275779, -4.76187 ], [ 13.266083, -4.744413 ], [ 13.255287, -4.740019 ], [ 13.249049, -4.725323 ], [ 13.251035, -4.711648 ], [ 13.247622, -4.705807 ], [ 13.235184, -4.699163 ], [ 13.219296, -4.678587 ], [ 13.205367, -4.677117 ], [ 13.19686, -4.656463 ], [ 13.18465, -4.640386 ], [ 13.168705, -4.627132 ], [ 13.153203, -4.622249 ], [ 13.140826, -4.595273 ], [ 13.131937, -4.586621 ], [ 13.119146, -4.583318 ], [ 13.106413, -4.597345 ], [ 13.104194, -4.617034 ], [ 13.096422, -4.6201 ], [ 13.100006, -4.631441 ], [ 13.099774, -4.654172 ], [ 13.108404, -4.664962 ], [ 13.110047, -4.674183 ], [ 13.101758, -4.685052 ], [ 13.094057, -4.677205 ], [ 13.093436, -4.673212 ], [ 13.091602, -4.671813 ], [ 13.087363, -4.67146 ], [ 13.084147, -4.665512 ], [ 13.066985, -4.655164 ], [ 13.063943, -4.651285 ], [ 13.058031, -4.648847 ], [ 13.053496, -4.644788 ], [ 13.045884, -4.642494 ], [ 13.033793, -4.633597 ], [ 13.018211, -4.619007 ], [ 13.008738, -4.612211 ], [ 13.00579, -4.606174 ], [ 13.002289, -4.605643 ], [ 12.991997, -4.592759 ], [ 12.984014, -4.585192 ], [ 12.977551, -4.584298 ], [ 12.971416, -4.579816 ], [ 12.977551, -4.573919 ], [ 12.981359, -4.570006 ], [ 12.989462, -4.571815 ], [ 12.992279, -4.568494 ], [ 12.980581, -4.553659 ], [ 12.980003, -4.550588 ], [ 12.977551, -4.547315 ], [ 12.972266, -4.54026 ], [ 12.970328, -4.535014 ], [ 12.961906, -4.529915 ], [ 12.93882, -4.502316 ], [ 12.936062, -4.500409 ], [ 12.925083, -4.495251 ], [ 12.913836, -4.480986 ], [ 12.893801, -4.465393 ], [ 12.886611, -4.45553 ], [ 12.853441, -4.430151 ], [ 12.84355, -4.415771 ], [ 12.834572, -4.419065 ], [ 12.832838, -4.443347 ], [ 12.813569, -4.435418 ], [ 12.795931, -4.413929 ], [ 12.771289, -4.390553 ], [ 12.763765, -4.389422 ], [ 12.757134, -4.394895 ], [ 12.762755, -4.412052 ], [ 12.759964, -4.416771 ], [ 12.746239, -4.416652 ], [ 12.734121, -4.411422 ], [ 12.724564, -4.399226 ], [ 12.721661, -4.400233 ], [ 12.72064, -4.406381 ], [ 12.73208, -4.427548 ], [ 12.780653, -4.488445 ], [ 12.779932, -4.492086 ], [ 12.769538, -4.496128 ], [ 12.766489, -4.506006 ], [ 12.739955, -4.491542 ], [ 12.732292, -4.490949 ], [ 12.71063, -4.478115 ], [ 12.701432, -4.478408 ], [ 12.694785, -4.483974 ], [ 12.688064, -4.497052 ], [ 12.673716, -4.501638 ], [ 12.673366, -4.528706 ], [ 12.659214, -4.535925 ], [ 12.657001, -4.544105 ], [ 12.647936, -4.543806 ], [ 12.648727, -4.551018 ], [ 12.643103, -4.556115 ], [ 12.643082, -4.562098 ], [ 12.582017, -4.563104 ], [ 12.56315, -4.563739 ], [ 12.557798, -4.576964 ], [ 12.558785, -4.594516 ], [ 12.552039, -4.598958 ], [ 12.545072, -4.599857 ], [ 12.537507, -4.600833 ], [ 12.525047, -4.606596 ], [ 12.521307, -4.612319 ], [ 12.510623, -4.605598 ], [ 12.499252, -4.60451 ], [ 12.48595, -4.591474 ], [ 12.478418, -4.590905 ], [ 12.470447, -4.595411 ], [ 12.456971, -4.588239 ], [ 12.450881, -4.593494 ], [ 12.450129, -4.601617 ], [ 12.437621, -4.598483 ], [ 12.42684, -4.606546 ], [ 12.415079, -4.605954 ], [ 12.392621, -4.610155 ], [ 12.38817, -4.623438 ], [ 12.388405, -4.634123 ], [ 12.391399, -4.641612 ], [ 12.397401, -4.646063 ], [ 12.397114, -4.667237 ], [ 12.384656, -4.681453 ], [ 12.383472, -4.689568 ], [ 12.386068, -4.697362 ], [ 12.373287, -4.706469 ], [ 12.371661, -4.733443 ], [ 12.361603, -4.740939 ], [ 12.349499, -4.760481 ], [ 12.339368, -4.767649 ], [ 12.337046, -4.780855 ], [ 12.323237, -4.79657 ], [ 12.315694, -4.801298 ], [ 12.305706, -4.803546 ], [ 12.300413, -4.796422 ], [ 12.2963, -4.795214 ], [ 12.279045, -4.804279 ], [ 12.270713, -4.795764 ], [ 12.261173, -4.79821 ], [ 12.242323, -4.813027 ], [ 12.237806, -4.808131 ], [ 12.228118, -4.783199 ], [ 12.221424, -4.778733 ], [ 12.223641, -4.771608 ], [ 12.217954, -4.757638 ], [ 12.215763, -4.755991 ], [ 12.214077, -4.757953 ], [ 12.161802, -4.86981 ], [ 12.156926, -4.873469 ], [ 12.133923, -4.890735 ], [ 11.989245, -4.999317 ] ] ], [ [ [ 11.823394, -4.777946 ], [ 11.823858, -4.773269 ], [ 11.827533, -4.773866 ], [ 11.828993, -4.778114 ], [ 11.823394, -4.777946 ] ] ] ] } }
]
}
