{
"type": "FeatureCollection",
"name": "Cook Islands",
"crs": { "type": "name", "properties": { "name": "urn:ogc:def:crs:OGC:1.3:CRS84" } },
"features": [
{ "type": "Feature", "properties": { "id": "CK", "CNTR_ID": "CK", "CNTR_NAME": "Cook Islands-Kūki 'Āirani", "NAME_ENGL": "Cook Islands", "ISO3_CODE": "COK", "FID": "CK" }, "geometry": { "type": "MultiPolygon", "coordinates": [ [ [ [ -159.831389, -21.219864 ], [ -159.830655, -21.216961 ], [ -159.826682, -21.211 ], [ -159.816808, -21.201372 ], [ -159.810806, -21.199712 ], [ -159.804705, -21.200506 ], [ -159.800866, -21.198716 ], [ -159.79471, -21.198873 ], [ -159.775365, -21.206238 ], [ -159.763224, -21.203001 ], [ -159.757549, -21.202757 ], [ -159.752079, -21.203968 ], [ -159.744978, -21.209475 ], [ -159.734178, -21.216291 ], [ -159.732872, -21.218416 ], [ -159.73187, -21.225733 ], [ -159.72743, -21.239006 ], [ -159.723864, -21.245602 ], [ -159.725672, -21.251561 ], [ -159.729033, -21.250847 ], [ -159.728663, -21.255698 ], [ -159.73158, -21.258531 ], [ -159.732642, -21.262288 ], [ -159.736016, -21.267671 ], [ -159.744765, -21.271706 ], [ -159.755702, -21.273007 ], [ -159.762486, -21.271602 ], [ -159.767948, -21.26804 ], [ -159.777479, -21.265912 ], [ -159.786686, -21.265475 ], [ -159.794477, -21.26417 ], [ -159.804599, -21.259095 ], [ -159.818607, -21.256421 ], [ -159.826885, -21.243182 ], [ -159.828609, -21.23233 ], [ -159.831389, -21.219864 ] ] ], [ [ [ -157.960948, -21.935992 ], [ -157.958822, -21.924645 ], [ -157.953792, -21.914052 ], [ -157.950004, -21.903466 ], [ -157.948369, -21.900622 ], [ -157.941224, -21.896326 ], [ -157.918636, -21.890254 ], [ -157.908401, -21.890315 ], [ -157.904385, -21.895184 ], [ -157.89659, -21.90851 ], [ -157.888137, -21.919007 ], [ -157.876561, -21.930718 ], [ -157.874435, -21.935894 ], [ -157.874078, -21.94877 ], [ -157.875026, -21.951831 ], [ -157.879862, -21.955807 ], [ -157.883206, -21.956322 ], [ -157.898826, -21.953668 ], [ -157.918904, -21.955574 ], [ -157.925012, -21.955758 ], [ -157.931928, -21.958474 ], [ -157.937191, -21.95619 ], [ -157.948567, -21.948793 ], [ -157.956047, -21.945492 ], [ -157.957855, -21.943701 ], [ -157.960948, -21.935992 ] ] ], [ [ [ -158.142558, -19.993301 ], [ -158.141472, -19.982469 ], [ -158.138192, -19.971839 ], [ -158.133581, -19.965741 ], [ -158.122382, -19.964966 ], [ -158.115905, -19.966783 ], [ -158.107776, -19.970038 ], [ -158.099105, -19.978992 ], [ -158.091178, -19.986116 ], [ -158.083748, -19.996455 ], [ -158.081445, -20.005941 ], [ -158.086836, -20.012498 ], [ -158.093052, -20.015992 ], [ -158.099978, -20.017525 ], [ -158.105581, -20.020331 ], [ -158.117665, -20.029364 ], [ -158.119928, -20.028869 ], [ -158.129584, -20.013892 ], [ -158.140051, -20.003601 ], [ -158.141631, -20.000257 ], [ -158.142558, -19.993301 ] ] ], [ [ [ -157.70584, -19.8401 ], [ -157.685731, -19.846559 ], [ -157.681011, -19.851934 ], [ -157.679442, -19.858969 ], [ -157.680839, -19.878595 ], [ -157.68498, -19.886418 ], [ -157.70584, -19.895816 ], [ -157.71, -19.895806 ], [ -157.716973, -19.890754 ], [ -157.723327, -19.874048 ], [ -157.719329, -19.845347 ], [ -157.715778, -19.841968 ], [ -157.70584, -19.8401 ] ] ], [ [ [ -157.360607, -20.150913 ], [ -157.358334, -20.146251 ], [ -157.355461, -20.133847 ], [ -157.353327, -20.132644 ], [ -157.342879, -20.13605 ], [ -157.334918, -20.1401 ], [ -157.326971, -20.142862 ], [ -157.323916, -20.147732 ], [ -157.321761, -20.157767 ], [ -157.322696, -20.172474 ], [ -157.323739, -20.177125 ], [ -157.330333, -20.183738 ], [ -157.33714, -20.188082 ], [ -157.340408, -20.189015 ], [ -157.344301, -20.187604 ], [ -157.352773, -20.181783 ], [ -157.358745, -20.172298 ], [ -157.359594, -20.169469 ], [ -157.360607, -20.150913 ] ] ], [ [ [ -159.801882, -18.870657 ], [ -159.800919, -18.86553 ], [ -159.795521, -18.857969 ], [ -159.79398, -18.853102 ], [ -159.795049, -18.846854 ], [ -159.792795, -18.844217 ], [ -159.783716, -18.837029 ], [ -159.778221, -18.830383 ], [ -159.777475, -18.827162 ], [ -159.774809, -18.824671 ], [ -159.76921, -18.824241 ], [ -159.766964, -18.825735 ], [ -159.762148, -18.832139 ], [ -159.75792, -18.839836 ], [ -159.754653, -18.848602 ], [ -159.755576, -18.851762 ], [ -159.760042, -18.850764 ], [ -159.761255, -18.847081 ], [ -159.759454, -18.845418 ], [ -159.761075, -18.839601 ], [ -159.766013, -18.832168 ], [ -159.767476, -18.832213 ], [ -159.76756, -18.836749 ], [ -159.773005, -18.845988 ], [ -159.777244, -18.856775 ], [ -159.775095, -18.859614 ], [ -159.776995, -18.864589 ], [ -159.774714, -18.871801 ], [ -159.775366, -18.873407 ], [ -159.7733, -18.879532 ], [ -159.77384, -18.881746 ], [ -159.778666, -18.888154 ], [ -159.78513, -18.892242 ], [ -159.791817, -18.892615 ], [ -159.795752, -18.88061 ], [ -159.801882, -18.870657 ] ] ], [ [ [ -158.937582, -19.263217 ], [ -158.933442, -19.256519 ], [ -158.928523, -19.252752 ], [ -158.923603, -19.25366 ], [ -158.915398, -19.262223 ], [ -158.91382, -19.266579 ], [ -158.912931, -19.274423 ], [ -158.915663, -19.279486 ], [ -158.918943, -19.279877 ], [ -158.925779, -19.277025 ], [ -158.930781, -19.273706 ], [ -158.927968, -19.271574 ], [ -158.927014, -19.267939 ], [ -158.937029, -19.264042 ], [ -158.937582, -19.263217 ] ] ], [ [ [ -161.012921, -10.375987 ], [ -161.011179, -10.370922 ], [ -161.007492, -10.369904 ], [ -161.004086, -10.371878 ], [ -160.986121, -10.399843 ], [ -160.981686, -10.405337 ], [ -160.967038, -10.417662 ], [ -160.95813, -10.422923 ], [ -160.954082, -10.427373 ], [ -160.954098, -10.431648 ], [ -160.955885, -10.431804 ], [ -160.956711, -10.427357 ], [ -160.976345, -10.41318 ], [ -160.982879, -10.406892 ], [ -160.990449, -10.397994 ], [ -160.99644, -10.389106 ], [ -160.999038, -10.384144 ], [ -161.005939, -10.373818 ], [ -161.01008, -10.376042 ], [ -161.012921, -10.375987 ] ] ], [ [ [ -158.971286, -19.2697 ], [ -158.970877, -19.265811 ], [ -158.965964, -19.262569 ], [ -158.961596, -19.261921 ], [ -158.957364, -19.264512 ], [ -158.958863, -19.271254 ], [ -158.958315, -19.27955 ], [ -158.952853, -19.285512 ], [ -158.948368, -19.28643 ], [ -158.949575, -19.288751 ], [ -158.955856, -19.286809 ], [ -158.964596, -19.276699 ], [ -158.969375, -19.272811 ], [ -158.971286, -19.2697 ] ] ], [ [ [ -161.105973, -10.032137 ], [ -161.103617, -10.029695 ], [ -161.100331, -10.030651 ], [ -161.100254, -10.027646 ], [ -161.097379, -10.027147 ], [ -161.096865, -10.029478 ], [ -161.093741, -10.029498 ], [ -161.092714, -10.032302 ], [ -161.08747, -10.028503 ], [ -161.085843, -10.024139 ], [ -161.083239, -10.025014 ], [ -161.084665, -10.031913 ], [ -161.089646, -10.036248 ], [ -161.096399, -10.036983 ], [ -161.102305, -10.03574 ], [ -161.105973, -10.032137 ] ] ], [ [ [ -165.85032, -10.911446 ], [ -165.845096, -10.910612 ], [ -165.843111, -10.912143 ], [ -165.838592, -10.910681 ], [ -165.837582, -10.908558 ], [ -165.842278, -10.90172 ], [ -165.84056, -10.900066 ], [ -165.836395, -10.905409 ], [ -165.830512, -10.910646 ], [ -165.832355, -10.914509 ], [ -165.844423, -10.915762 ], [ -165.847028, -10.915432 ], [ -165.85032, -10.911446 ] ] ], [ [ [ -158.298029, -19.811544 ], [ -158.29075, -19.807664 ], [ -158.286825, -19.806851 ], [ -158.283172, -19.808032 ], [ -158.280774, -19.810944 ], [ -158.281732, -19.816127 ], [ -158.292399, -19.815506 ], [ -158.298029, -19.811544 ] ] ], [ [ [ -163.128206, -18.034112 ], [ -163.12703, -18.031806 ], [ -163.119562, -18.031732 ], [ -163.115192, -18.034768 ], [ -163.114139, -18.039847 ], [ -163.117527, -18.043406 ], [ -163.116469, -18.046507 ], [ -163.119655, -18.048069 ], [ -163.122339, -18.046564 ], [ -163.119671, -18.042918 ], [ -163.123794, -18.035936 ], [ -163.128206, -18.034112 ] ] ], [ [ [ -165.849517, -10.850416 ], [ -165.838452, -10.846079 ], [ -165.83451, -10.845764 ], [ -165.832791, -10.847343 ], [ -165.836215, -10.85442 ], [ -165.841215, -10.859093 ], [ -165.842574, -10.857424 ], [ -165.841356, -10.852927 ], [ -165.845918, -10.852421 ], [ -165.848796, -10.853791 ], [ -165.849517, -10.850416 ] ] ], [ [ [ -165.421634, -11.558233 ], [ -165.419445, -11.555991 ], [ -165.413887, -11.55484 ], [ -165.409513, -11.558146 ], [ -165.407471, -11.561452 ], [ -165.410135, -11.566063 ], [ -165.415219, -11.565475 ], [ -165.421634, -11.558233 ] ] ], [ [ [ -158.008144, -9.028234 ], [ -158.006193, -9.025981 ], [ -158.001448, -9.028873 ], [ -157.99315, -9.036811 ], [ -157.988056, -9.044759 ], [ -157.985562, -9.052496 ], [ -157.988034, -9.05272 ], [ -157.991799, -9.042646 ], [ -157.993676, -9.039732 ], [ -158.0001, -9.033646 ], [ -158.008144, -9.028234 ] ] ], [ [ [ -158.036439, -9.008574 ], [ -158.034791, -9.007935 ], [ -158.03004, -9.014459 ], [ -158.029213, -9.017712 ], [ -158.022373, -9.024745 ], [ -158.023502, -9.027395 ], [ -158.029192, -9.025306 ], [ -158.032215, -9.017177 ], [ -158.036439, -9.008574 ] ] ], [ [ [ -157.920858, -8.979077 ], [ -157.916919, -8.979195 ], [ -157.916018, -8.983565 ], [ -157.908198, -8.994456 ], [ -157.909281, -8.995984 ], [ -157.91398, -8.993297 ], [ -157.917408, -8.988738 ], [ -157.920858, -8.979077 ] ] ], [ [ [ -159.736188, -18.93676 ], [ -159.731074, -18.932223 ], [ -159.731167, -18.920802 ], [ -159.728319, -18.92189 ], [ -159.727747, -18.932057 ], [ -159.728721, -18.937095 ], [ -159.73444, -18.938674 ], [ -159.736188, -18.93676 ] ] ], [ [ [ -161.038764, -10.441455 ], [ -161.035635, -10.425465 ], [ -161.032867, -10.424083 ], [ -161.03431, -10.431513 ], [ -161.032847, -10.437205 ], [ -161.03126, -10.43774 ], [ -161.034018, -10.442074 ], [ -161.038764, -10.441455 ] ] ], [ [ [ -163.165578, -17.990672 ], [ -163.160403, -17.989658 ], [ -163.154783, -17.994247 ], [ -163.153687, -17.998278 ], [ -163.164313, -17.99672 ], [ -163.163671, -17.993962 ], [ -163.165578, -17.990672 ] ] ], [ [ [ -157.892753, -9.022157 ], [ -157.890745, -9.018637 ], [ -157.888895, -9.01877 ], [ -157.886533, -9.023189 ], [ -157.882481, -9.025448 ], [ -157.881685, -9.028058 ], [ -157.88298, -9.03407 ], [ -157.887123, -9.034749 ], [ -157.885877, -9.031989 ], [ -157.885897, -9.025588 ], [ -157.892753, -9.022157 ] ] ], [ [ [ -157.973513, -8.930273 ], [ -157.972273, -8.929535 ], [ -157.965817, -8.932082 ], [ -157.957573, -8.937206 ], [ -157.952685, -8.937781 ], [ -157.953849, -8.939967 ], [ -157.958629, -8.939453 ], [ -157.96501, -8.935775 ], [ -157.969526, -8.934468 ], [ -157.973513, -8.930273 ] ] ], [ [ [ -157.977089, -9.067864 ], [ -157.97544, -9.067422 ], [ -157.965157, -9.08133 ], [ -157.964729, -9.085322 ], [ -157.968546, -9.083509 ], [ -157.977089, -9.067864 ] ] ], [ [ [ -161.007831, -10.457333 ], [ -161.002267, -10.456577 ], [ -161.000369, -10.45833 ], [ -160.993876, -10.460144 ], [ -160.993897, -10.46187 ], [ -161.000903, -10.46309 ], [ -161.003377, -10.459763 ], [ -161.006647, -10.459947 ], [ -161.007831, -10.457333 ] ] ], [ [ [ -163.178026, -18.079597 ], [ -163.177789, -18.076224 ], [ -163.174815, -18.075418 ], [ -163.174232, -18.079302 ], [ -163.172055, -18.08006 ], [ -163.17334, -18.086945 ], [ -163.177024, -18.084776 ], [ -163.178026, -18.079597 ] ] ], [ [ [ -158.006646, -8.919984 ], [ -158.004974, -8.918352 ], [ -157.995846, -8.916679 ], [ -157.985873, -8.920668 ], [ -157.987154, -8.922333 ], [ -157.991528, -8.920281 ], [ -157.997724, -8.919094 ], [ -158.005257, -8.920854 ], [ -158.006646, -8.919984 ] ] ], [ [ [ -158.056757, -8.978642 ], [ -158.056076, -8.974238 ], [ -158.052202, -8.973953 ], [ -158.053298, -8.978083 ], [ -158.052184, -8.981107 ], [ -158.047741, -8.986598 ], [ -158.04892, -8.988912 ], [ -158.056757, -8.978642 ] ] ], [ [ [ -161.034908, -10.421856 ], [ -161.032492, -10.406276 ], [ -161.02975, -10.404787 ], [ -161.032631, -10.423195 ], [ -161.034908, -10.421856 ] ] ], [ [ [ -159.75554, -18.856758 ], [ -159.751676, -18.855724 ], [ -159.749641, -18.862818 ], [ -159.748707, -18.869907 ], [ -159.750912, -18.869766 ], [ -159.752944, -18.861755 ], [ -159.75554, -18.856758 ] ] ], [ [ [ -163.194551, -18.056408 ], [ -163.194197, -18.053986 ], [ -163.187947, -18.052625 ], [ -163.186521, -18.058864 ], [ -163.191145, -18.059428 ], [ -163.194551, -18.056408 ] ] ], [ [ [ -157.904372, -8.999891 ], [ -157.903493, -8.99811 ], [ -157.898105, -9.003862 ], [ -157.895025, -9.011239 ], [ -157.89664, -9.012061 ], [ -157.904372, -8.999891 ] ] ], [ [ [ -165.876587, -10.893367 ], [ -165.871398, -10.891274 ], [ -165.868276, -10.891419 ], [ -165.864388, -10.894417 ], [ -165.865218, -10.895925 ], [ -165.871276, -10.894942 ], [ -165.875632, -10.89552 ], [ -165.876587, -10.893367 ] ] ], [ [ [ -159.733839, -18.903162 ], [ -159.730571, -18.901537 ], [ -159.72741, -18.905524 ], [ -159.727984, -18.912423 ], [ -159.73095, -18.911298 ], [ -159.731645, -18.905325 ], [ -159.733839, -18.903162 ] ] ], [ [ [ -163.201873, -13.272257 ], [ -163.199634, -13.269753 ], [ -163.193674, -13.274271 ], [ -163.191537, -13.277988 ], [ -163.195891, -13.279398 ], [ -163.197339, -13.274712 ], [ -163.201873, -13.272257 ] ] ], [ [ [ -163.163875, -18.085927 ], [ -163.159127, -18.08479 ], [ -163.154503, -18.086633 ], [ -163.156083, -18.092782 ], [ -163.163875, -18.085927 ] ] ], [ [ [ -160.959582, -10.445103 ], [ -160.956428, -10.440236 ], [ -160.953581, -10.442571 ], [ -160.953994, -10.446175 ], [ -160.956236, -10.448042 ], [ -160.959582, -10.445103 ] ] ], [ [ [ -157.951369, -8.93846 ], [ -157.941209, -8.93546 ], [ -157.940044, -8.936601 ], [ -157.945248, -8.939903 ], [ -157.95092, -8.939919 ], [ -157.951369, -8.93846 ] ] ], [ [ [ -161.01468, -10.44955 ], [ -161.009214, -10.451228 ], [ -161.007385, -10.455274 ], [ -161.008795, -10.456342 ], [ -161.013924, -10.452293 ], [ -161.01468, -10.44955 ] ] ], [ [ [ -157.927217, -8.956572 ], [ -157.925334, -8.955884 ], [ -157.921358, -8.962888 ], [ -157.923886, -8.964649 ], [ -157.927217, -8.956572 ] ] ], [ [ [ -163.051135, -13.286774 ], [ -163.047397, -13.283653 ], [ -163.045287, -13.286935 ], [ -163.047596, -13.290735 ], [ -163.051135, -13.286774 ] ] ], [ [ [ -158.052816, -8.930094 ], [ -158.048817, -8.929516 ], [ -158.047378, -8.934058 ], [ -158.051021, -8.935503 ], [ -158.052816, -8.930094 ] ] ], [ [ [ -158.047148, -8.920328 ], [ -158.044331, -8.918976 ], [ -158.039659, -8.922894 ], [ -158.044719, -8.924166 ], [ -158.047148, -8.920328 ] ] ], [ [ [ -157.984537, -8.925911 ], [ -157.98269, -8.923312 ], [ -157.976614, -8.927441 ], [ -157.977729, -8.929301 ], [ -157.984537, -8.925911 ] ] ], [ [ [ -158.036755, -8.925999 ], [ -158.035286, -8.924853 ], [ -158.029402, -8.926524 ], [ -158.029764, -8.928755 ], [ -158.034555, -8.928878 ], [ -158.036755, -8.925999 ] ] ], [ [ [ -158.050296, -8.936875 ], [ -158.04569, -8.938015 ], [ -158.045166, -8.942429 ], [ -158.049095, -8.942099 ], [ -158.050296, -8.936875 ] ] ], [ [ [ -157.931373, -8.946597 ], [ -157.929854, -8.942218 ], [ -157.925808, -8.946581 ], [ -157.929297, -8.949379 ], [ -157.931373, -8.946597 ] ] ], [ [ [ -158.051871, -8.965058 ], [ -158.047833, -8.962706 ], [ -158.045367, -8.967392 ], [ -158.049112, -8.968374 ], [ -158.051871, -8.965058 ] ] ], [ [ [ -158.042614, -8.997903 ], [ -158.040223, -8.997576 ], [ -158.035943, -9.005729 ], [ -158.037607, -9.006621 ], [ -158.042614, -8.997903 ] ] ], [ [ [ -158.021263, -9.026671 ], [ -158.018704, -9.02265 ], [ -158.015608, -9.027032 ], [ -158.018036, -9.02974 ], [ -158.021263, -9.026671 ] ] ], [ [ [ -157.928616, -9.081194 ], [ -157.922542, -9.07945 ], [ -157.9221, -9.082038 ], [ -157.924844, -9.084204 ], [ -157.92803, -9.083495 ], [ -157.928616, -9.081194 ] ] ], [ [ [ -157.962463, -9.083922 ], [ -157.961586, -9.079018 ], [ -157.959544, -9.078957 ], [ -157.957627, -9.08245 ], [ -157.961284, -9.085668 ], [ -157.962463, -9.083922 ] ] ], [ [ [ -161.028056, -10.398662 ], [ -161.02443, -10.391915 ], [ -161.022157, -10.392896 ], [ -161.025457, -10.399646 ], [ -161.028056, -10.398662 ] ] ], [ [ [ -161.031432, -10.441319 ], [ -161.029793, -10.438917 ], [ -161.025215, -10.439756 ], [ -161.025866, -10.444313 ], [ -161.031432, -10.441319 ] ] ], [ [ [ -160.966145, -10.453805 ], [ -160.965071, -10.448905 ], [ -160.962719, -10.448403 ], [ -160.960906, -10.45048 ], [ -160.96223, -10.453571 ], [ -160.966145, -10.453805 ] ] ], [ [ [ -160.991948, -10.458517 ], [ -160.986612, -10.453918 ], [ -160.983774, -10.456975 ], [ -160.990445, -10.459495 ], [ -160.991948, -10.458517 ] ] ], [ [ [ -163.129284, -13.228409 ], [ -163.128247, -13.223517 ], [ -163.125746, -13.223028 ], [ -163.124339, -13.228675 ], [ -163.129284, -13.228409 ] ] ], [ [ [ -163.184614, -13.237851 ], [ -163.181769, -13.237133 ], [ -163.176736, -13.243378 ], [ -163.179942, -13.243401 ], [ -163.184614, -13.237851 ] ] ], [ [ [ -163.138423, -18.069157 ], [ -163.137105, -18.066409 ], [ -163.132901, -18.068369 ], [ -163.132507, -18.0727 ], [ -163.138423, -18.069157 ] ] ], [ [ [ -159.744097, -18.894092 ], [ -159.74381, -18.891057 ], [ -159.740666, -18.890854 ], [ -159.738539, -18.894946 ], [ -159.739825, -18.896146 ], [ -159.744097, -18.894092 ] ] ], [ [ [ -159.838874, -18.914247 ], [ -159.83209, -18.912571 ], [ -159.831097, -18.915794 ], [ -159.835739, -18.916754 ], [ -159.838874, -18.914247 ] ] ], [ [ [ -159.734826, -18.950623 ], [ -159.733853, -18.94564 ], [ -159.730984, -18.944903 ], [ -159.73182, -18.952546 ], [ -159.734826, -18.950623 ] ] ], [ [ [ -158.94418, -19.280418 ], [ -158.941288, -19.278028 ], [ -158.940441, -19.28515 ], [ -158.943262, -19.285716 ], [ -158.94418, -19.280418 ] ] ] ] } }
]
}
