{
"type": "FeatureCollection",
"name": "Costa Rica",
"crs": { "type": "name", "properties": { "name": "urn:ogc:def:crs:OGC:1.3:CRS84" } },
"features": [
{ "type": "Feature", "properties": { "id": "CR", "CNTR_ID": "CR", "CNTR_NAME": "Costa Rica", "NAME_ENGL": "Costa Rica", "ISO3_CODE": "CRI", "FID": "CR" }, "geometry": { "type": "MultiPolygon", "coordinates": [ [ [ [ -83.69285, 10.938897 ], [ -83.672232, 10.933696 ], [ -83.648298, 10.917201 ], [ -83.638564, 10.907136 ], [ -83.620762, 10.877908 ], [ -83.587352, 10.799888 ], [ -83.577206, 10.738781 ], [ -83.547805, 10.65241 ], [ -83.523136, 10.58779 ], [ -83.486386, 10.511795 ], [ -83.441995, 10.432996 ], [ -83.399404, 10.368932 ], [ -83.308035, 10.256202 ], [ -83.271111, 10.216124 ], [ -83.208868, 10.136137 ], [ -83.186626, 10.113171 ], [ -83.121385, 10.025196 ], [ -83.103549, 10.006979 ], [ -83.086061, 10.000668 ], [ -83.078373, 10.000849 ], [ -83.076252, 10.011299 ], [ -83.064726, 10.014175 ], [ -83.06069, 10.009523 ], [ -83.047581, 10.011266 ], [ -83.026136, 10.001198 ], [ -83.0235, 9.991846 ], [ -83.028726, 9.98858 ], [ -83.030649, 9.982116 ], [ -83.024063, 9.962833 ], [ -82.954701, 9.871096 ], [ -82.933707, 9.843326 ], [ -82.891528, 9.793249 ], [ -82.868366, 9.758879 ], [ -82.851828, 9.743344 ], [ -82.841149, 9.740475 ], [ -82.834972, 9.735679 ], [ -82.826744, 9.736208 ], [ -82.816004, 9.748923 ], [ -82.810416, 9.745442 ], [ -82.815175, 9.726971 ], [ -82.813102, 9.714932 ], [ -82.793598, 9.680403 ], [ -82.778067, 9.662534 ], [ -82.774547, 9.660895 ], [ -82.761064, 9.654614 ], [ -82.753155, 9.658844 ], [ -82.746874, 9.658621 ], [ -82.727153, 9.644899 ], [ -82.6999, 9.638258 ], [ -82.685411, 9.642943 ], [ -82.668867, 9.63202 ], [ -82.660064, 9.632523 ], [ -82.648679, 9.63901 ], [ -82.625667, 9.635785 ], [ -82.619268, 9.630343 ], [ -82.61873, 9.614414 ], [ -82.604936, 9.597529 ], [ -82.589572, 9.585432 ], [ -82.564637, 9.571953 ], [ -82.564129, 9.561515 ], [ -82.552835, 9.549077 ], [ -82.554754, 9.542374 ], [ -82.564098, 9.541566 ], [ -82.579037, 9.556351 ], [ -82.599726, 9.557785 ], [ -82.602897, 9.552094 ], [ -82.598714, 9.534587 ], [ -82.603578, 9.522063 ], [ -82.604067, 9.50928 ], [ -82.609109, 9.502239 ], [ -82.614942, 9.499742 ], [ -82.62521, 9.50116 ], [ -82.633859, 9.495434 ], [ -82.640207, 9.49477 ], [ -82.650233, 9.499569 ], [ -82.655907, 9.508942 ], [ -82.668423, 9.496257 ], [ -82.671541, 9.504607 ], [ -82.685162, 9.507922 ], [ -82.688633, 9.517869 ], [ -82.699547, 9.526193 ], [ -82.690163, 9.532921 ], [ -82.695055, 9.543453 ], [ -82.698188, 9.543712 ], [ -82.704629, 9.536795 ], [ -82.709457, 9.546341 ], [ -82.721798, 9.551476 ], [ -82.726379, 9.557596 ], [ -82.736755, 9.557086 ], [ -82.736534, 9.564626 ], [ -82.743814, 9.572345 ], [ -82.740785, 9.580367 ], [ -82.744216, 9.587317 ], [ -82.74805, 9.587496 ], [ -82.753878, 9.581359 ], [ -82.764732, 9.589247 ], [ -82.774547, 9.588037 ], [ -82.793035, 9.599991 ], [ -82.81119, 9.59705 ], [ -82.825562, 9.610101 ], [ -82.840057, 9.611731 ], [ -82.854641, 9.619134 ], [ -82.8591, 9.613373 ], [ -82.861381, 9.593771 ], [ -82.87548, 9.591479 ], [ -82.877167, 9.57973 ], [ -82.883401, 9.565397 ], [ -82.878245, 9.555828 ], [ -82.8678, 9.549956 ], [ -82.872868, 9.536838 ], [ -82.870784, 9.524278 ], [ -82.864599, 9.519208 ], [ -82.855375, 9.518166 ], [ -82.854626, 9.512386 ], [ -82.847336, 9.511796 ], [ -82.842821, 9.504355 ], [ -82.842326, 9.497315 ], [ -82.935588, 9.473031 ], [ -82.935985, 9.084344 ], [ -82.935155, 9.078373 ], [ -82.927961, 9.075343 ], [ -82.890194, 9.086051 ], [ -82.872444, 9.056328 ], [ -82.859712, 9.053765 ], [ -82.835942, 9.034089 ], [ -82.817539, 9.027513 ], [ -82.800509, 9.004466 ], [ -82.774547, 9.002065 ], [ -82.750171, 8.99013 ], [ -82.74079, 8.982611 ], [ -82.737796, 8.975865 ], [ -82.738698, 8.964023 ], [ -82.718368, 8.944923 ], [ -82.712925, 8.923442 ], [ -82.745504, 8.907803 ], [ -82.748402, 8.900751 ], [ -82.749591, 8.895879 ], [ -82.763702, 8.883492 ], [ -82.774547, 8.878646 ], [ -82.780516, 8.875978 ], [ -82.79374, 8.877449 ], [ -82.805271, 8.874585 ], [ -82.814492, 8.863915 ], [ -82.823472, 8.859357 ], [ -82.846406, 8.854304 ], [ -82.854666, 8.855416 ], [ -82.868084, 8.846 ], [ -82.871784, 8.841649 ], [ -82.884198, 8.82705 ], [ -82.880818, 8.820252 ], [ -82.865132, 8.813658 ], [ -82.86653, 8.804674 ], [ -82.88929, 8.791432 ], [ -82.893654, 8.781469 ], [ -82.893622, 8.771542 ], [ -82.908744, 8.773747 ], [ -82.916275, 8.764777 ], [ -82.910638, 8.756074 ], [ -82.918182, 8.74884 ], [ -82.917045, 8.743716 ], [ -82.903525, 8.733143 ], [ -82.899636, 8.720508 ], [ -82.885429, 8.70251 ], [ -82.86343, 8.692135 ], [ -82.863277, 8.677169 ], [ -82.85458, 8.661917 ], [ -82.837491, 8.646093 ], [ -82.830328, 8.632805 ], [ -82.829099, 8.615377 ], [ -82.836976, 8.611486 ], [ -82.827788, 8.600927 ], [ -82.832141, 8.591205 ], [ -82.823322, 8.565506 ], [ -82.839041, 8.543106 ], [ -82.831825, 8.503188 ], [ -82.839845, 8.479165 ], [ -82.867965, 8.440283 ], [ -82.913156, 8.42957 ], [ -82.930501, 8.434106 ], [ -82.935723, 8.424163 ], [ -82.954628, 8.412081 ], [ -82.962387, 8.39626 ], [ -82.982719, 8.373068 ], [ -82.989838, 8.373082 ], [ -83.00839, 8.354346 ], [ -83.037385, 8.347502 ], [ -83.04511, 8.341241 ], [ -83.046496, 8.335545 ], [ -83.052068, 8.332537 ], [ -83.045012, 8.319039 ], [ -83.03584, 8.317792 ], [ -83.032947, 8.312848 ], [ -83.026606, 8.313319 ], [ -83.024028, 8.3036 ], [ -83.004104, 8.294194 ], [ -82.990086, 8.270776 ], [ -82.986015, 8.272264 ], [ -82.980329, 8.28506 ], [ -82.976747, 8.287127 ], [ -82.967276, 8.277755 ], [ -82.956781, 8.277879 ], [ -82.951744, 8.266844 ], [ -82.944128, 8.270146 ], [ -82.941504, 8.268776 ], [ -82.937773, 8.259556 ], [ -82.938204, 8.250123 ], [ -82.929088, 8.240303 ], [ -82.935288, 8.209692 ], [ -82.926951, 8.206672 ], [ -82.918015, 8.19421 ], [ -82.911656, 8.193907 ], [ -82.911707, 8.177429 ], [ -82.904582, 8.173202 ], [ -82.909602, 8.166593 ], [ -82.909059, 8.145214 ], [ -82.899217, 8.124108 ], [ -82.886897, 8.107031 ], [ -82.892166, 8.101084 ], [ -82.88838, 8.07845 ], [ -82.89621, 8.059791 ], [ -82.891777, 8.050149 ], [ -82.900395, 8.039779 ], [ -82.908308, 8.049268 ], [ -82.912098, 8.061003 ], [ -82.902808, 8.088856 ], [ -82.905399, 8.11469 ], [ -82.935447, 8.181889 ], [ -82.969964, 8.235305 ], [ -82.995256, 8.2604 ], [ -83.03968, 8.291634 ], [ -83.11608, 8.338345 ], [ -83.141723, 8.368619 ], [ -83.142752, 8.378473 ], [ -83.13951, 8.387902 ], [ -83.112223, 8.416802 ], [ -83.097376, 8.452146 ], [ -83.109116, 8.481685 ], [ -83.1339, 8.515091 ], [ -83.140612, 8.529463 ], [ -83.137152, 8.531519 ], [ -83.126485, 8.519261 ], [ -83.121445, 8.523002 ], [ -83.117163, 8.519266 ], [ -83.110683, 8.526019 ], [ -83.11207, 8.541641 ], [ -83.12083, 8.552694 ], [ -83.138014, 8.562202 ], [ -83.146283, 8.563187 ], [ -83.153433, 8.571947 ], [ -83.126338, 8.597199 ], [ -83.125942, 8.600289 ], [ -83.170609, 8.636554 ], [ -83.175523, 8.63634 ], [ -83.181571, 8.629512 ], [ -83.188483, 8.626706 ], [ -83.223955, 8.636414 ], [ -83.237363, 8.635021 ], [ -83.260176, 8.654219 ], [ -83.297623, 8.661185 ], [ -83.325028, 8.682903 ], [ -83.330887, 8.712298 ], [ -83.338734, 8.725473 ], [ -83.348125, 8.732667 ], [ -83.369788, 8.741239 ], [ -83.377904, 8.742014 ], [ -83.401995, 8.733116 ], [ -83.425419, 8.71917 ], [ -83.462114, 8.72186 ], [ -83.478218, 8.712129 ], [ -83.479507, 8.702923 ], [ -83.464622, 8.690571 ], [ -83.440214, 8.662969 ], [ -83.432731, 8.633287 ], [ -83.420791, 8.615636 ], [ -83.398626, 8.594892 ], [ -83.377087, 8.580978 ], [ -83.327374, 8.566118 ], [ -83.293224, 8.530679 ], [ -83.288235, 8.498068 ], [ -83.276132, 8.468565 ], [ -83.279187, 8.447606 ], [ -83.275667, 8.424267 ], [ -83.281209, 8.391114 ], [ -83.299309, 8.38051 ], [ -83.442663, 8.435713 ], [ -83.497151, 8.446979 ], [ -83.557856, 8.44297 ], [ -83.583812, 8.458453 ], [ -83.605264, 8.486112 ], [ -83.646905, 8.521756 ], [ -83.693455, 8.571927 ], [ -83.725231, 8.590595 ], [ -83.733307, 8.60873 ], [ -83.730789, 8.632594 ], [ -83.71619, 8.654828 ], [ -83.708821, 8.680769 ], [ -83.69208, 8.691837 ], [ -83.666122, 8.694885 ], [ -83.654436, 8.704484 ], [ -83.643542, 8.738892 ], [ -83.641163, 8.764661 ], [ -83.624224, 8.778114 ], [ -83.618006, 8.790574 ], [ -83.620101, 8.79332 ], [ -83.628445, 8.787418 ], [ -83.636937, 8.786638 ], [ -83.642623, 8.793537 ], [ -83.640881, 8.801763 ], [ -83.615203, 8.822891 ], [ -83.597503, 8.831292 ], [ -83.590336, 8.840534 ], [ -83.5777, 8.848974 ], [ -83.605584, 8.879933 ], [ -83.602971, 8.886657 ], [ -83.587292, 8.886984 ], [ -83.583017, 8.890817 ], [ -83.598739, 8.913048 ], [ -83.616005, 8.920789 ], [ -83.620675, 8.925787 ], [ -83.631079, 8.986836 ], [ -83.632906, 9.012753 ], [ -83.646491, 9.042937 ], [ -83.649122, 9.059703 ], [ -83.673869, 9.081971 ], [ -83.694404, 9.109589 ], [ -83.725027, 9.140375 ], [ -83.754992, 9.155972 ], [ -83.782566, 9.193552 ], [ -83.7979, 9.203818 ], [ -83.833722, 9.220107 ], [ -83.851994, 9.241118 ], [ -83.908436, 9.286891 ], [ -83.96417, 9.319205 ], [ -84.081527, 9.366991 ], [ -84.116713, 9.373936 ], [ -84.129684, 9.380972 ], [ -84.141342, 9.382809 ], [ -84.168002, 9.396556 ], [ -84.170147, 9.401238 ], [ -84.166581, 9.412781 ], [ -84.170049, 9.430005 ], [ -84.184755, 9.443645 ], [ -84.203629, 9.454773 ], [ -84.205291, 9.461539 ], [ -84.247202, 9.47295 ], [ -84.262449, 9.481933 ], [ -84.29638, 9.484973 ], [ -84.352619, 9.496731 ], [ -84.466204, 9.525891 ], [ -84.534205, 9.52331 ], [ -84.611044, 9.578448 ], [ -84.620572, 9.588966 ], [ -84.629834, 9.608676 ], [ -84.654389, 9.628277 ], [ -84.660342, 9.645304 ], [ -84.673568, 9.658026 ], [ -84.670505, 9.695773 ], [ -84.651162, 9.724812 ], [ -84.636282, 9.740851 ], [ -84.632893, 9.767941 ], [ -84.653511, 9.807204 ], [ -84.666911, 9.826043 ], [ -84.693927, 9.85442 ], [ -84.704759, 9.871349 ], [ -84.72371, 9.891689 ], [ -84.723763, 9.905433 ], [ -84.715984, 9.921993 ], [ -84.73312, 9.942769 ], [ -84.744703, 9.965616 ], [ -84.801356, 9.984368 ], [ -84.837897, 9.990538 ], [ -84.88155, 10.011305 ], [ -84.95758, 10.064285 ], [ -84.968913, 10.085883 ], [ -85.000555, 10.104823 ], [ -85.025913, 10.128967 ], [ -85.042799, 10.136328 ], [ -85.061813, 10.136245 ], [ -85.076363, 10.141196 ], [ -85.087428, 10.154187 ], [ -85.090095, 10.165456 ], [ -85.093929, 10.169488 ], [ -85.116181, 10.173128 ], [ -85.135286, 10.165076 ], [ -85.145257, 10.163857 ], [ -85.212495, 10.184842 ], [ -85.227193, 10.202379 ], [ -85.231675, 10.229595 ], [ -85.239378, 10.244144 ], [ -85.274032, 10.268011 ], [ -85.284431, 10.292173 ], [ -85.292892, 10.297507 ], [ -85.283484, 10.269153 ], [ -85.256239, 10.249236 ], [ -85.245733, 10.23367 ], [ -85.245551, 10.165429 ], [ -85.242457, 10.134936 ], [ -85.235351, 10.107563 ], [ -85.221953, 10.092725 ], [ -85.198927, 10.080373 ], [ -85.176907, 10.055033 ], [ -85.156168, 10.044352 ], [ -85.158954, 10.037039 ], [ -85.174806, 10.037433 ], [ -85.173953, 10.031528 ], [ -85.14253, 10.000797 ], [ -85.106551, 9.97856 ], [ -85.07236, 9.97227 ], [ -85.073387, 9.981652 ], [ -85.078177, 9.988124 ], [ -85.068147, 9.993384 ], [ -85.056401, 9.992124 ], [ -85.043639, 9.981979 ], [ -85.06655, 9.980172 ], [ -85.068851, 9.977168 ], [ -85.065973, 9.972178 ], [ -85.046851, 9.970024 ], [ -85.028177, 9.959452 ], [ -85.006302, 9.942258 ], [ -84.959319, 9.938125 ], [ -84.929197, 9.925348 ], [ -84.920585, 9.907306 ], [ -84.929527, 9.895299 ], [ -84.932875, 9.88308 ], [ -84.914666, 9.856994 ], [ -84.93079, 9.843456 ], [ -84.934293, 9.835117 ], [ -84.918956, 9.827177 ], [ -84.889606, 9.831911 ], [ -84.877197, 9.830434 ], [ -84.87233, 9.826213 ], [ -84.874086, 9.821964 ], [ -84.885383, 9.814407 ], [ -84.906465, 9.812103 ], [ -84.907732, 9.800503 ], [ -84.920336, 9.789238 ], [ -84.933757, 9.763646 ], [ -84.951321, 9.753308 ], [ -84.95785, 9.733276 ], [ -84.971062, 9.733697 ], [ -84.994126, 9.744306 ], [ -85.008919, 9.737585 ], [ -85.014689, 9.721522 ], [ -85.003076, 9.708848 ], [ -85.002916, 9.698794 ], [ -85.011823, 9.690355 ], [ -85.03792, 9.678628 ], [ -85.063417, 9.656348 ], [ -85.073809, 9.637807 ], [ -85.09317, 9.577652 ], [ -85.111791, 9.565046 ], [ -85.137932, 9.581725 ], [ -85.151547, 9.62245 ], [ -85.19751, 9.672921 ], [ -85.229204, 9.734409 ], [ -85.267376, 9.759391 ], [ -85.270494, 9.778592 ], [ -85.292199, 9.806574 ], [ -85.325844, 9.816605 ], [ -85.344121, 9.834095 ], [ -85.382283, 9.84793 ], [ -85.415548, 9.851825 ], [ -85.443542, 9.860158 ], [ -85.470703, 9.854463 ], [ -85.490305, 9.866364 ], [ -85.507261, 9.866132 ], [ -85.521373, 9.876453 ], [ -85.542084, 9.875012 ], [ -85.568714, 9.878928 ], [ -85.595752, 9.888449 ], [ -85.621002, 9.893182 ], [ -85.641798, 9.905687 ], [ -85.662528, 9.907701 ], [ -85.664293, 9.926409 ], [ -85.681816, 9.970879 ], [ -85.702525, 9.995307 ], [ -85.738992, 10.02939 ], [ -85.788345, 10.098958 ], [ -85.803204, 10.145607 ], [ -85.833593, 10.200982 ], [ -85.839192, 10.227464 ], [ -85.849174, 10.252032 ], [ -85.848169, 10.269549 ], [ -85.843034, 10.281057 ], [ -85.849006, 10.289024 ], [ -85.842278, 10.305604 ], [ -85.842949, 10.320174 ], [ -85.853953, 10.338283 ], [ -85.866813, 10.348664 ], [ -85.869797, 10.3546 ], [ -85.863851, 10.364329 ], [ -85.846876, 10.376222 ], [ -85.826515, 10.402224 ], [ -85.812145, 10.403114 ], [ -85.801128, 10.408645 ], [ -85.793716, 10.421913 ], [ -85.792058, 10.437341 ], [ -85.781832, 10.442134 ], [ -85.775659, 10.449037 ], [ -85.776776, 10.464509 ], [ -85.793945, 10.486142 ], [ -85.800268, 10.515557 ], [ -85.789562, 10.522769 ], [ -85.775888, 10.537907 ], [ -85.751677, 10.534016 ], [ -85.718728, 10.550575 ], [ -85.700415, 10.555032 ], [ -85.6921, 10.570239 ], [ -85.682391, 10.576748 ], [ -85.673839, 10.587944 ], [ -85.653139, 10.594001 ], [ -85.632918, 10.620119 ], [ -85.631802, 10.626838 ], [ -85.635077, 10.632828 ], [ -85.651939, 10.640248 ], [ -85.671189, 10.630005 ], [ -85.683293, 10.613489 ], [ -85.690378, 10.613069 ], [ -85.685513, 10.628172 ], [ -85.677643, 10.638296 ], [ -85.678157, 10.647171 ], [ -85.675187, 10.653428 ], [ -85.650818, 10.674098 ], [ -85.660851, 10.719875 ], [ -85.66093, 10.764466 ], [ -85.684502, 10.8001 ], [ -85.736793, 10.814783 ], [ -85.764893, 10.807774 ], [ -85.784992, 10.814855 ], [ -85.791949, 10.819183 ], [ -85.797451, 10.828607 ], [ -85.786401, 10.843554 ], [ -85.789062, 10.852706 ], [ -85.812392, 10.851117 ], [ -85.846702, 10.855794 ], [ -85.875464, 10.87946 ], [ -85.923398, 10.899556 ], [ -85.915566, 10.90622 ], [ -85.895936, 10.913314 ], [ -85.869736, 10.92735 ], [ -85.866954, 10.935737 ], [ -85.87308, 10.944122 ], [ -85.87087, 10.946962 ], [ -85.821156, 10.941422 ], [ -85.81583, 10.93556 ], [ -85.813063, 10.922253 ], [ -85.794037, 10.911925 ], [ -85.787675, 10.916116 ], [ -85.791853, 10.930602 ], [ -85.776874, 10.936871 ], [ -85.730318, 10.934897 ], [ -85.71912, 10.926042 ], [ -85.713419, 10.927085 ], [ -85.701906, 10.939517 ], [ -85.707872, 10.954544 ], [ -85.694843, 10.965768 ], [ -85.693265, 10.975167 ], [ -85.713462, 10.996425 ], [ -85.742587, 11.013756 ], [ -85.748771, 11.023701 ], [ -85.73067, 11.044376 ], [ -85.722471, 11.04203 ], [ -85.706473, 11.029345 ], [ -85.689261, 11.029482 ], [ -85.675603, 11.036386 ], [ -85.670319, 11.047269 ], [ -85.671993, 11.058079 ], [ -85.694817, 11.080328 ], [ -85.681806, 11.103514 ], [ -85.665047, 11.129129 ], [ -85.660833, 11.138412 ], [ -85.62612, 11.192994 ], [ -85.621811, 11.201056 ], [ -85.618537, 11.213501 ], [ -85.614696, 11.216548 ], [ -85.609688, 11.216801 ], [ -85.572047, 11.211091 ], [ -85.566544, 11.210256 ], [ -85.558756, 11.208168 ], [ -85.551093, 11.200745 ], [ -85.532786, 11.177476 ], [ -85.525943, 11.166495 ], [ -85.519602, 11.162278 ], [ -85.416272, 11.124779 ], [ -85.356107, 11.12346 ], [ -85.207416, 11.05012 ], [ -85.175341, 11.038532 ], [ -84.988948, 10.972185 ], [ -84.941021, 10.952431 ], [ -84.914246, 10.941394 ], [ -84.853113, 10.976691 ], [ -84.680299, 11.078846 ], [ -84.60873, 11.039237 ], [ -84.572362, 11.048814 ], [ -84.560842, 11.031232 ], [ -84.507791, 11.011274 ], [ -84.488982, 11.000998 ], [ -84.455048, 10.965433 ], [ -84.440644, 10.957268 ], [ -84.427085, 10.9554 ], [ -84.41928, 10.957931 ], [ -84.400876, 10.971764 ], [ -84.379285, 10.978458 ], [ -84.364129, 10.991554 ], [ -84.359346, 10.992084 ], [ -84.345778, 10.972853 ], [ -84.35061, 10.948093 ], [ -84.34092, 10.938213 ], [ -84.328841, 10.916057 ], [ -84.301395, 10.909664 ], [ -84.293668, 10.903361 ], [ -84.284578, 10.889881 ], [ -84.253863, 10.882953 ], [ -84.224101, 10.864772 ], [ -84.219676, 10.834398 ], [ -84.224477, 10.823261 ], [ -84.237232, 10.817421 ], [ -84.238736, 10.81389 ], [ -84.228051, 10.802476 ], [ -84.209906, 10.793917 ], [ -84.202738, 10.781562 ], [ -84.189703, 10.78682 ], [ -84.172753, 10.784161 ], [ -84.135999, 10.787711 ], [ -84.123178, 10.769401 ], [ -84.116875, 10.768865 ], [ -84.10238, 10.773587 ], [ -84.07212, 10.763864 ], [ -84.064561, 10.766509 ], [ -84.055724, 10.77857 ], [ -84.040066, 10.777156 ], [ -84.03463, 10.787015 ], [ -84.02643, 10.788493 ], [ -84.018391, 10.781866 ], [ -84.006474, 10.763691 ], [ -83.977555, 10.7461 ], [ -83.9686, 10.730584 ], [ -83.946209, 10.723053 ], [ -83.936868, 10.710484 ], [ -83.929797, 10.708233 ], [ -83.911518, 10.713451 ], [ -83.899723, 10.720016 ], [ -83.867123, 10.719329 ], [ -83.852001, 10.73069 ], [ -83.841314, 10.743146 ], [ -83.814738, 10.746683 ], [ -83.793333, 10.766664 ], [ -83.763622, 10.768821 ], [ -83.746332, 10.77902 ], [ -83.717855, 10.788725 ], [ -83.700352, 10.787024 ], [ -83.686341, 10.789989 ], [ -83.677666, 10.794993 ], [ -83.667961, 10.809013 ], [ -83.665507, 10.821535 ], [ -83.67362, 10.84853 ], [ -83.671953, 10.880149 ], [ -83.680013, 10.896169 ], [ -83.678869, 10.912259 ], [ -83.692624, 10.930411 ], [ -83.69285, 10.938897 ] ] ], [ [ [ -85.197647, 10.113992 ], [ -85.194303, 10.119938 ], [ -85.173325, 10.125647 ], [ -85.161498, 10.125887 ], [ -85.106126, 10.107729 ], [ -85.112735, 10.103322 ], [ -85.120679, 10.105252 ], [ -85.124713, 10.102865 ], [ -85.12171, 10.101397 ], [ -85.118398, 10.092292 ], [ -85.101806, 10.097443 ], [ -85.093857, 10.095127 ], [ -85.096966, 10.088157 ], [ -85.102525, 10.083886 ], [ -85.135542, 10.073962 ], [ -85.156349, 10.073928 ], [ -85.173325, 10.079057 ], [ -85.183126, 10.085421 ], [ -85.191585, 10.106689 ], [ -85.197647, 10.113992 ] ] ], [ [ [ -87.094686, 5.519399 ], [ -87.090818, 5.522575 ], [ -87.091835, 5.526082 ], [ -87.089755, 5.526488 ], [ -87.088715, 5.532693 ], [ -87.086058, 5.533295 ], [ -87.08312, 5.53662 ], [ -87.082648, 5.539562 ], [ -87.079083, 5.540962 ], [ -87.073601, 5.540128 ], [ -87.071112, 5.542979 ], [ -87.069157, 5.541545 ], [ -87.061773, 5.541444 ], [ -87.057286, 5.543564 ], [ -87.057501, 5.546787 ], [ -87.061748, 5.54789 ], [ -87.058434, 5.550905 ], [ -87.054257, 5.549487 ], [ -87.049639, 5.552315 ], [ -87.050922, 5.556135 ], [ -87.047921, 5.55716 ], [ -87.044858, 5.553644 ], [ -87.045767, 5.549963 ], [ -87.043068, 5.548076 ], [ -87.036998, 5.551409 ], [ -87.033019, 5.54927 ], [ -87.03124, 5.543221 ], [ -87.028023, 5.537303 ], [ -87.027677, 5.532355 ], [ -87.03041, 5.527026 ], [ -87.035124, 5.524329 ], [ -87.03967, 5.524695 ], [ -87.042515, 5.522647 ], [ -87.045592, 5.517868 ], [ -87.047984, 5.519115 ], [ -87.051551, 5.518218 ], [ -87.056616, 5.513206 ], [ -87.063174, 5.510578 ], [ -87.067432, 5.511856 ], [ -87.067732, 5.508523 ], [ -87.071842, 5.504878 ], [ -87.073573, 5.499078 ], [ -87.079046, 5.501185 ], [ -87.079459, 5.504368 ], [ -87.083151, 5.50637 ], [ -87.08399, 5.508965 ], [ -87.088022, 5.512667 ], [ -87.091317, 5.5127 ], [ -87.091814, 5.518036 ], [ -87.094686, 5.519399 ] ] ], [ [ [ -83.177487, 8.603839 ], [ -83.17364, 8.608563 ], [ -83.167697, 8.613391 ], [ -83.163939, 8.608663 ], [ -83.157721, 8.607196 ], [ -83.160205, 8.601929 ], [ -83.156115, 8.595906 ], [ -83.165484, 8.585379 ], [ -83.17364, 8.593361 ], [ -83.177487, 8.603839 ] ] ], [ [ [ -84.919714, 9.943175 ], [ -84.905438, 9.944942 ], [ -84.902691, 9.949405 ], [ -84.908364, 9.950829 ], [ -84.908358, 9.952541 ], [ -84.902957, 9.953852 ], [ -84.897131, 9.951864 ], [ -84.896987, 9.942698 ], [ -84.892275, 9.936754 ], [ -84.898328, 9.932636 ], [ -84.910353, 9.932411 ], [ -84.917277, 9.934883 ], [ -84.919714, 9.943175 ] ] ], [ [ [ -85.011995, 9.993394 ], [ -85.009161, 9.99561 ], [ -84.996614, 9.993522 ], [ -84.991046, 9.994366 ], [ -84.986737, 9.990412 ], [ -84.961644, 9.985178 ], [ -84.960132, 9.982624 ], [ -84.964454, 9.980439 ], [ -84.980111, 9.981786 ], [ -84.996614, 9.988919 ], [ -85.011995, 9.993394 ] ] ], [ [ [ -83.893308, 8.705847 ], [ -83.885069, 8.71128 ], [ -83.882113, 8.710334 ], [ -83.877186, 8.713058 ], [ -83.874422, 8.712684 ], [ -83.869621, 8.715014 ], [ -83.868146, 8.713911 ], [ -83.869295, 8.709249 ], [ -83.868016, 8.704868 ], [ -83.869437, 8.701679 ], [ -83.871686, 8.702324 ], [ -83.878378, 8.699175 ], [ -83.880521, 8.701045 ], [ -83.884568, 8.700304 ], [ -83.890618, 8.701938 ], [ -83.893308, 8.705847 ] ] ], [ [ [ -84.89411, 9.841412 ], [ -84.891581, 9.844652 ], [ -84.887026, 9.843133 ], [ -84.889133, 9.840199 ], [ -84.884506, 9.838886 ], [ -84.88147, 9.840204 ], [ -84.881187, 9.844118 ], [ -84.883007, 9.846991 ], [ -84.882461, 9.849853 ], [ -84.877475, 9.849438 ], [ -84.876369, 9.851209 ], [ -84.867695, 9.851886 ], [ -84.868028, 9.847941 ], [ -84.871437, 9.848761 ], [ -84.874876, 9.845382 ], [ -84.876211, 9.842136 ], [ -84.874909, 9.840003 ], [ -84.878062, 9.839668 ], [ -84.884383, 9.836846 ], [ -84.889402, 9.836104 ], [ -84.891784, 9.840571 ], [ -84.89411, 9.841412 ] ] ], [ [ [ -84.850692, 9.97672 ], [ -84.837093, 9.980011 ], [ -84.824091, 9.979404 ], [ -84.815629, 9.982264 ], [ -84.814107, 9.979947 ], [ -84.824091, 9.97722 ], [ -84.840385, 9.974191 ], [ -84.847929, 9.974374 ], [ -84.850692, 9.97672 ] ] ], [ [ [ -85.046072, 10.004113 ], [ -85.043271, 10.005582 ], [ -85.031623, 10.002094 ], [ -85.030297, 10.002614 ], [ -85.023422, 10.000074 ], [ -85.018258, 9.999732 ], [ -85.017712, 9.997643 ], [ -85.020574, 9.995417 ], [ -85.02667, 9.995956 ], [ -85.040915, 10.000186 ], [ -85.046072, 10.004113 ] ] ], [ [ [ -84.90062, 9.770752 ], [ -84.89936, 9.772984 ], [ -84.895541, 9.773808 ], [ -84.884732, 9.771357 ], [ -84.88816, 9.767099 ], [ -84.890677, 9.766832 ], [ -84.890275, 9.763864 ], [ -84.895228, 9.763436 ], [ -84.897662, 9.768332 ], [ -84.90062, 9.770752 ] ] ], [ [ [ -85.872699, 10.841003 ], [ -85.86971, 10.845254 ], [ -85.864589, 10.846165 ], [ -85.862417, 10.847892 ], [ -85.857028, 10.847075 ], [ -85.8592, 10.844013 ], [ -85.867838, 10.840848 ], [ -85.872699, 10.841003 ] ] ], [ [ [ -84.905286, 9.777339 ], [ -84.902994, 9.77916 ], [ -84.903882, 9.78381 ], [ -84.900134, 9.7851 ], [ -84.897191, 9.776597 ], [ -84.902686, 9.773389 ], [ -84.905286, 9.777339 ] ] ], [ [ [ -85.919172, 10.85858 ], [ -85.918361, 10.860962 ], [ -85.912201, 10.861998 ], [ -85.912222, 10.856702 ], [ -85.909019, 10.852985 ], [ -85.913844, 10.852082 ], [ -85.919172, 10.85858 ] ] ], [ [ [ -84.864784, 9.819516 ], [ -84.858489, 9.823801 ], [ -84.851474, 9.822873 ], [ -84.8495, 9.821231 ], [ -84.855662, 9.819664 ], [ -84.863495, 9.816419 ], [ -84.864784, 9.819516 ] ] ], [ [ [ -85.898342, 10.872423 ], [ -85.895424, 10.874676 ], [ -85.888927, 10.875981 ], [ -85.887766, 10.873739 ], [ -85.895424, 10.869554 ], [ -85.898342, 10.872423 ] ] ], [ [ [ -84.677404, 9.625928 ], [ -84.676422, 9.6288 ], [ -84.670914, 9.631486 ], [ -84.667463, 9.628164 ], [ -84.677404, 9.625928 ] ] ], [ [ [ -84.841084, 9.824514 ], [ -84.840099, 9.825513 ], [ -84.833924, 9.824974 ], [ -84.833191, 9.8229 ], [ -84.838477, 9.821287 ], [ -84.841084, 9.824514 ] ] ], [ [ [ -85.699476, 10.640466 ], [ -85.695876, 10.642876 ], [ -85.692313, 10.64147 ], [ -85.695272, 10.637266 ], [ -85.699476, 10.640466 ] ] ], [ [ [ -84.928518, 9.887661 ], [ -84.927684, 9.891548 ], [ -84.924985, 9.889527 ], [ -84.921474, 9.889495 ], [ -84.924156, 9.885777 ], [ -84.928518, 9.887661 ] ] ], [ [ [ -83.288211, 8.541605 ], [ -83.283748, 8.542031 ], [ -83.284485, 8.535634 ], [ -83.286334, 8.535468 ], [ -83.288211, 8.541605 ] ] ], [ [ [ -84.150322, 9.38012 ], [ -84.146266, 9.380887 ], [ -84.1435, 9.376299 ], [ -84.14884, 9.376494 ], [ -84.150322, 9.38012 ] ] ], [ [ [ -84.831911, 9.822897 ], [ -84.825816, 9.823996 ], [ -84.824656, 9.820619 ], [ -84.830062, 9.819849 ], [ -84.831911, 9.822897 ] ] ], [ [ [ -85.516964, 9.859443 ], [ -85.516661, 9.862485 ], [ -85.513545, 9.865751 ], [ -85.512261, 9.861536 ], [ -85.513943, 9.858927 ], [ -85.516964, 9.859443 ] ] ], [ [ [ -84.904264, 9.922295 ], [ -84.903417, 9.926188 ], [ -84.898575, 9.926202 ], [ -84.898039, 9.922896 ], [ -84.904264, 9.922295 ] ] ], [ [ [ -83.014614, 9.994714 ], [ -83.01055, 9.996953 ], [ -83.008432, 9.992374 ], [ -83.010102, 9.990356 ], [ -83.014614, 9.994714 ] ] ], [ [ [ -85.80616, 10.447716 ], [ -85.804394, 10.451026 ], [ -85.800118, 10.449604 ], [ -85.802269, 10.445123 ], [ -85.80616, 10.447716 ] ] ], [ [ [ -85.691193, 10.642527 ], [ -85.687782, 10.645647 ], [ -85.685684, 10.644388 ], [ -85.685699, 10.639153 ], [ -85.691193, 10.642527 ] ] ], [ [ [ -85.934159, 10.855671 ], [ -85.929176, 10.856884 ], [ -85.929217, 10.851482 ], [ -85.93203, 10.851285 ], [ -85.934159, 10.855671 ] ] ], [ [ [ -85.925666, 10.853957 ], [ -85.923284, 10.857671 ], [ -85.919465, 10.856617 ], [ -85.920493, 10.852478 ], [ -85.925666, 10.853957 ] ] ], [ [ [ -85.908158, 10.85966 ], [ -85.906286, 10.860761 ], [ -85.902776, 10.857608 ], [ -85.90416, 10.854563 ], [ -85.906641, 10.855067 ], [ -85.908158, 10.85966 ] ] ], [ [ [ -85.717809, 10.982482 ], [ -85.714448, 10.983879 ], [ -85.712231, 10.979668 ], [ -85.714448, 10.976778 ], [ -85.717809, 10.982482 ] ] ], [ [ [ -85.712683, 11.049817 ], [ -85.711394, 11.051249 ], [ -85.705391, 11.047915 ], [ -85.709931, 11.045436 ], [ -85.712683, 11.049817 ] ] ] ] } }
]
}
