{
"type": "FeatureCollection",
"name": "Curaçao",
"crs": { "type": "name", "properties": { "name": "urn:ogc:def:crs:OGC:1.3:CRS84" } },
"features": [
{ "type": "Feature", "properties": { "id": "CW", "CNTR_ID": "CW", "CNTR_NAME": "Curaçao", "NAME_ENGL": "Curaçao", "ISO3_CODE": "CUW", "FID": "CW" }, "geometry": { "type": "MultiPolygon", "coordinates": [ [ [ [ -69.16164, 12.380639 ], [ -69.153518, 12.391991 ], [ -69.14543, 12.389164 ], [ -69.114925, 12.368622 ], [ -69.096014, 12.359857 ], [ -69.080204, 12.357017 ], [ -69.072942, 12.352057 ], [ -69.054954, 12.322756 ], [ -69.053969, 12.306254 ], [ -69.049142, 12.275018 ], [ -69.028226, 12.240583 ], [ -68.980034, 12.200028 ], [ -68.951979, 12.188973 ], [ -68.926058, 12.187366 ], [ -68.905472, 12.178789 ], [ -68.852869, 12.174193 ], [ -68.813449, 12.146135 ], [ -68.800996, 12.118517 ], [ -68.78664, 12.096325 ], [ -68.759383, 12.06387 ], [ -68.74078, 12.049233 ], [ -68.73814, 12.044167 ], [ -68.74569, 12.044954 ], [ -68.753296, 12.041143 ], [ -68.775422, 12.043923 ], [ -68.791148, 12.034602 ], [ -68.803134, 12.037192 ], [ -68.829636, 12.04861 ], [ -68.83669, 12.058295 ], [ -68.851152, 12.064521 ], [ -68.858653, 12.064086 ], [ -68.865547, 12.076514 ], [ -68.875069, 12.071806 ], [ -68.912645, 12.095192 ], [ -68.960502, 12.11307 ], [ -68.971901, 12.124802 ], [ -68.996805, 12.139692 ], [ -69.005004, 12.160304 ], [ -69.012667, 12.168295 ], [ -69.020549, 12.188115 ], [ -69.026692, 12.194326 ], [ -69.044869, 12.200512 ], [ -69.060727, 12.187504 ], [ -69.077197, 12.19487 ], [ -69.085531, 12.205621 ], [ -69.086469, 12.21812 ], [ -69.09155, 12.222044 ], [ -69.097017, 12.233914 ], [ -69.104306, 12.236576 ], [ -69.106152, 12.245964 ], [ -69.127875, 12.26722 ], [ -69.138747, 12.270229 ], [ -69.150141, 12.284052 ], [ -69.155685, 12.296175 ], [ -69.145664, 12.306254 ], [ -69.151174, 12.316262 ], [ -69.151093, 12.329375 ], [ -69.154125, 12.336652 ], [ -69.152415, 12.352605 ], [ -69.156383, 12.361209 ], [ -69.154148, 12.368792 ], [ -69.16164, 12.380639 ] ] ] ] } }
]
}
