{
"type": "FeatureCollection",
"name": "Côte D’Ivoire",
"crs": { "type": "name", "properties": { "name": "urn:ogc:def:crs:OGC:1.3:CRS84" } },
"features": [
{ "type": "Feature", "properties": { "id": "CI", "CNTR_ID": "CI", "CNTR_NAME": "Côte D’Ivoire", "NAME_ENGL": "Côte D’Ivoire", "ISO3_CODE": "CIV", "FID": "CI" }, "geometry": { "type": "MultiPolygon", "coordinates": [ [ [ [ -7.523134, 4.361726 ], [ -7.524235, 4.367608 ], [ -7.551314, 4.385003 ], [ -7.557472, 4.395518 ], [ -7.554834, 4.40561 ], [ -7.539119, 4.429002 ], [ -7.541666, 4.435271 ], [ -7.555677, 4.44626 ], [ -7.56007, 4.455224 ], [ -7.560453, 4.468252 ], [ -7.552045, 4.4889 ], [ -7.550246, 4.50963 ], [ -7.560295, 4.532014 ], [ -7.553603, 4.542627 ], [ -7.556082, 4.551987 ], [ -7.554217, 4.562668 ], [ -7.567795, 4.583465 ], [ -7.565032, 4.588752 ], [ -7.553371, 4.593002 ], [ -7.547008, 4.60882 ], [ -7.554703, 4.645034 ], [ -7.567259, 4.651043 ], [ -7.570397, 4.65554 ], [ -7.566851, 4.663161 ], [ -7.555963, 4.668035 ], [ -7.564763, 4.685587 ], [ -7.56252, 4.689809 ], [ -7.554696, 4.691823 ], [ -7.552899, 4.698351 ], [ -7.557738, 4.719085 ], [ -7.555477, 4.737262 ], [ -7.562378, 4.768062 ], [ -7.558661, 4.783987 ], [ -7.562714, 4.788947 ], [ -7.581504, 4.794533 ], [ -7.590147, 4.80482 ], [ -7.591722, 4.820056 ], [ -7.580602, 4.831426 ], [ -7.58797, 4.84783 ], [ -7.585788, 4.859858 ], [ -7.588265, 4.865797 ], [ -7.587764, 4.882336 ], [ -7.596377, 4.895311 ], [ -7.591856, 4.904833 ], [ -7.583985, 4.909874 ], [ -7.564166, 4.907142 ], [ -7.559136, 4.917868 ], [ -7.553588, 4.922079 ], [ -7.537519, 4.91741 ], [ -7.527647, 4.91911 ], [ -7.524784, 4.922346 ], [ -7.525454, 4.928459 ], [ -7.536077, 4.941348 ], [ -7.535531, 4.95585 ], [ -7.544454, 4.966206 ], [ -7.555929, 4.973615 ], [ -7.543532, 4.989848 ], [ -7.540528, 4.998712 ], [ -7.551709, 5.019076 ], [ -7.549847, 5.028799 ], [ -7.543592, 5.03982 ], [ -7.548377, 5.057215 ], [ -7.555307, 5.06923 ], [ -7.552995, 5.075832 ], [ -7.543269, 5.086783 ], [ -7.523658, 5.103733 ], [ -7.516234, 5.105002 ], [ -7.507148, 5.094336 ], [ -7.501104, 5.096423 ], [ -7.482288, 5.124594 ], [ -7.471224, 5.150596 ], [ -7.468516, 5.177145 ], [ -7.471284, 5.188253 ], [ -7.466775, 5.199249 ], [ -7.474679, 5.222847 ], [ -7.46333, 5.236136 ], [ -7.459457, 5.250302 ], [ -7.462665, 5.260178 ], [ -7.471012, 5.26649 ], [ -7.467717, 5.279171 ], [ -7.456097, 5.272457 ], [ -7.447547, 5.28215 ], [ -7.435076, 5.285288 ], [ -7.422356, 5.295809 ], [ -7.414505, 5.296878 ], [ -7.411417, 5.292611 ], [ -7.413314, 5.285384 ], [ -7.424265, 5.277537 ], [ -7.419278, 5.266564 ], [ -7.421323, 5.256924 ], [ -7.415105, 5.255273 ], [ -7.406287, 5.26384 ], [ -7.400171, 5.277818 ], [ -7.390584, 5.287009 ], [ -7.38904, 5.307736 ], [ -7.379325, 5.307937 ], [ -7.36577, 5.327326 ], [ -7.36646, 5.331906 ], [ -7.376604, 5.337636 ], [ -7.379701, 5.348349 ], [ -7.376173, 5.381974 ], [ -7.379936, 5.382908 ], [ -7.384631, 5.379682 ], [ -7.391473, 5.36117 ], [ -7.397635, 5.359387 ], [ -7.404121, 5.367448 ], [ -7.420627, 5.377534 ], [ -7.430031, 5.401715 ], [ -7.443965, 5.420162 ], [ -7.445792, 5.426863 ], [ -7.440705, 5.43653 ], [ -7.429565, 5.427269 ], [ -7.421611, 5.425079 ], [ -7.41743, 5.427046 ], [ -7.413869, 5.440605 ], [ -7.422373, 5.466291 ], [ -7.421275, 5.477259 ], [ -7.415932, 5.483309 ], [ -7.403859, 5.487575 ], [ -7.399228, 5.501204 ], [ -7.390623, 5.505571 ], [ -7.391559, 5.50998 ], [ -7.400676, 5.516211 ], [ -7.40142, 5.519674 ], [ -7.384164, 5.518706 ], [ -7.379408, 5.523019 ], [ -7.380821, 5.529375 ], [ -7.395835, 5.544084 ], [ -7.393128, 5.555106 ], [ -7.395219, 5.572152 ], [ -7.391245, 5.579137 ], [ -7.376725, 5.578249 ], [ -7.372558, 5.581328 ], [ -7.378119, 5.597402 ], [ -7.375673, 5.614844 ], [ -7.379558, 5.62384 ], [ -7.395394, 5.633861 ], [ -7.408521, 5.657685 ], [ -7.414508, 5.679009 ], [ -7.417585, 5.689966 ], [ -7.42778, 5.696927 ], [ -7.429177, 5.718649 ], [ -7.440419, 5.752664 ], [ -7.427972, 5.773739 ], [ -7.429238, 5.781136 ], [ -7.439003, 5.798989 ], [ -7.43113, 5.816806 ], [ -7.429582, 5.830864 ], [ -7.423134, 5.837942 ], [ -7.423332, 5.842759 ], [ -7.435119, 5.846192 ], [ -7.444968, 5.860074 ], [ -7.452249, 5.857639 ], [ -7.465031, 5.860051 ], [ -7.468208, 5.85495 ], [ -7.46968, 5.832288 ], [ -7.475439, 5.812656 ], [ -7.483155, 5.811843 ], [ -7.490604, 5.817513 ], [ -7.50338, 5.836737 ], [ -7.518099, 5.84006 ], [ -7.511257, 5.849861 ], [ -7.516059, 5.85735 ], [ -7.519753, 5.857908 ], [ -7.529278, 5.850292 ], [ -7.536936, 5.848992 ], [ -7.539582, 5.836248 ], [ -7.545735, 5.836189 ], [ -7.558287, 5.86102 ], [ -7.571085, 5.867852 ], [ -7.568309, 5.872537 ], [ -7.55487, 5.870042 ], [ -7.553503, 5.873795 ], [ -7.575958, 5.897367 ], [ -7.591224, 5.900655 ], [ -7.600077, 5.88931 ], [ -7.604955, 5.897893 ], [ -7.61105, 5.898072 ], [ -7.614824, 5.906911 ], [ -7.637368, 5.909093 ], [ -7.648206, 5.916651 ], [ -7.658685, 5.916136 ], [ -7.657888, 5.93825 ], [ -7.661742, 5.949944 ], [ -7.669139, 5.946911 ], [ -7.680893, 5.926919 ], [ -7.6765, 5.906156 ], [ -7.682835, 5.900994 ], [ -7.695679, 5.90681 ], [ -7.712265, 5.918517 ], [ -7.723037, 5.93161 ], [ -7.740025, 5.938532 ], [ -7.756293, 5.951636 ], [ -7.76539, 5.973369 ], [ -7.785837, 5.982394 ], [ -7.790194, 5.989709 ], [ -7.789259, 5.995148 ], [ -7.780602, 6.006107 ], [ -7.783073, 6.017706 ], [ -7.771554, 6.026279 ], [ -7.769188, 6.031303 ], [ -7.774277, 6.040915 ], [ -7.791755, 6.054413 ], [ -7.79257, 6.060621 ], [ -7.787337, 6.072387 ], [ -7.788977, 6.077675 ], [ -7.801744, 6.091397 ], [ -7.805573, 6.09068 ], [ -7.808505, 6.083811 ], [ -7.825652, 6.092721 ], [ -7.831052, 6.089995 ], [ -7.835277, 6.07634 ], [ -7.841352, 6.073152 ], [ -7.843547, 6.074558 ], [ -7.842419, 6.085916 ], [ -7.848111, 6.095596 ], [ -7.846002, 6.143671 ], [ -7.832351, 6.159975 ], [ -7.834551, 6.175579 ], [ -7.839532, 6.184745 ], [ -7.835553, 6.187953 ], [ -7.822106, 6.188865 ], [ -7.820456, 6.192723 ], [ -7.853072, 6.228191 ], [ -7.874521, 6.239611 ], [ -7.881509, 6.248213 ], [ -7.889587, 6.2529 ], [ -7.901483, 6.278867 ], [ -7.905942, 6.27857 ], [ -7.912065, 6.271078 ], [ -7.918509, 6.286782 ], [ -7.921614, 6.287134 ], [ -7.926046, 6.277321 ], [ -7.928998, 6.276164 ], [ -7.939416, 6.286191 ], [ -7.945124, 6.291686 ], [ -7.956591, 6.280993 ], [ -7.962585, 6.280652 ], [ -7.968977, 6.292033 ], [ -7.975232, 6.289496 ], [ -7.982831, 6.294308 ], [ -7.989794, 6.291272 ], [ -7.99784, 6.308928 ], [ -8.006176, 6.314662 ], [ -8.0396, 6.308728 ], [ -8.050473, 6.302752 ], [ -8.064573, 6.300668 ], [ -8.068541, 6.298726 ], [ -8.073508, 6.296294 ], [ -8.090252, 6.300253 ], [ -8.098449, 6.289695 ], [ -8.10856, 6.288309 ], [ -8.121204, 6.279903 ], [ -8.133556, 6.28059 ], [ -8.16911, 6.275408 ], [ -8.175645, 6.286564 ], [ -8.193647, 6.303263 ], [ -8.200997, 6.300768 ], [ -8.206377, 6.307691 ], [ -8.216455, 6.303962 ], [ -8.241202, 6.318043 ], [ -8.276007, 6.320391 ], [ -8.278298, 6.324332 ], [ -8.268112, 6.331343 ], [ -8.268667, 6.337332 ], [ -8.275351, 6.339436 ], [ -8.282805, 6.346896 ], [ -8.295127, 6.347852 ], [ -8.301153, 6.343436 ], [ -8.308173, 6.356592 ], [ -8.31582, 6.355672 ], [ -8.323024, 6.36078 ], [ -8.338354, 6.370564 ], [ -8.345803, 6.362918 ], [ -8.359115, 6.357663 ], [ -8.370222, 6.362429 ], [ -8.389396, 6.34717 ], [ -8.407953, 6.364013 ], [ -8.408866, 6.367173 ], [ -8.38836, 6.374694 ], [ -8.384635, 6.378649 ], [ -8.392268, 6.395457 ], [ -8.398093, 6.41906 ], [ -8.407116, 6.425673 ], [ -8.404182, 6.430888 ], [ -8.390265, 6.437061 ], [ -8.387598, 6.444059 ], [ -8.413676, 6.459838 ], [ -8.439961, 6.482221 ], [ -8.450553, 6.487525 ], [ -8.456606, 6.485581 ], [ -8.458944, 6.463007 ], [ -8.466836, 6.45058 ], [ -8.470914, 6.434662 ], [ -8.485138, 6.431223 ], [ -8.505537, 6.447141 ], [ -8.541254, 6.491687 ], [ -8.569737, 6.497864 ], [ -8.585591, 6.496717 ], [ -8.593096, 6.499977 ], [ -8.597736, 6.507008 ], [ -8.588622, 6.52478 ], [ -8.576528, 6.519513 ], [ -8.568173, 6.521688 ], [ -8.556247, 6.544993 ], [ -8.562165, 6.552812 ], [ -8.559197, 6.561062 ], [ -8.549679, 6.562348 ], [ -8.538724, 6.557825 ], [ -8.529537, 6.567246 ], [ -8.532562, 6.599771 ], [ -8.530508, 6.605483 ], [ -8.523732, 6.603007 ], [ -8.519876, 6.592785 ], [ -8.508145, 6.591485 ], [ -8.50175, 6.612658 ], [ -8.494843, 6.614664 ], [ -8.49031, 6.60972 ], [ -8.486273, 6.610057 ], [ -8.48291, 6.622303 ], [ -8.472647, 6.631087 ], [ -8.464469, 6.629634 ], [ -8.44985, 6.637147 ], [ -8.444793, 6.65673 ], [ -8.432143, 6.656871 ], [ -8.424498, 6.669463 ], [ -8.415177, 6.670712 ], [ -8.404961, 6.679644 ], [ -8.405044, 6.705627 ], [ -8.390601, 6.712909 ], [ -8.38747, 6.720626 ], [ -8.37748, 6.720508 ], [ -8.3767, 6.723673 ], [ -8.380644, 6.729275 ], [ -8.366533, 6.742805 ], [ -8.358874, 6.743928 ], [ -8.354059, 6.759599 ], [ -8.340044, 6.759339 ], [ -8.341598, 6.786332 ], [ -8.328573, 6.798989 ], [ -8.323024, 6.809083 ], [ -8.317911, 6.810809 ], [ -8.322884, 6.827764 ], [ -8.307642, 6.849689 ], [ -8.308807, 6.8609 ], [ -8.317873, 6.855828 ], [ -8.323024, 6.864933 ], [ -8.331439, 6.879805 ], [ -8.329713, 6.88641 ], [ -8.324064, 6.891444 ], [ -8.324962, 6.897679 ], [ -8.323024, 6.898153 ], [ -8.313606, 6.90046 ], [ -8.309098, 6.907498 ], [ -8.315627, 6.924263 ], [ -8.323024, 6.961546 ], [ -8.323024, 6.967216 ], [ -8.320617, 6.969627 ], [ -8.302143, 6.974311 ], [ -8.286708, 6.986434 ], [ -8.283193, 6.997091 ], [ -8.274215, 7.007 ], [ -8.277485, 7.017414 ], [ -8.286687, 7.024049 ], [ -8.287959, 7.039337 ], [ -8.294983, 7.060151 ], [ -8.299357, 7.085288 ], [ -8.292021, 7.117011 ], [ -8.293546, 7.136876 ], [ -8.276393, 7.15556 ], [ -8.276878, 7.181597 ], [ -8.28118, 7.185061 ], [ -8.289924, 7.182137 ], [ -8.300966, 7.187834 ], [ -8.303895, 7.193418 ], [ -8.314839, 7.200988 ], [ -8.323024, 7.201692 ], [ -8.326294, 7.201974 ], [ -8.333437, 7.214468 ], [ -8.336673, 7.220129 ], [ -8.346039, 7.229256 ], [ -8.357365, 7.235284 ], [ -8.360086, 7.242628 ], [ -8.352, 7.258935 ], [ -8.351922, 7.270008 ], [ -8.35954, 7.275351 ], [ -8.36179, 7.283491 ], [ -8.375918, 7.306214 ], [ -8.385959, 7.319504 ], [ -8.389856, 7.328762 ], [ -8.395836, 7.372309 ], [ -8.393739, 7.385201 ], [ -8.393929, 7.393747 ], [ -8.398911, 7.409184 ], [ -8.409767, 7.428931 ], [ -8.40447, 7.445962 ], [ -8.40556, 7.456295 ], [ -8.40957, 7.469104 ], [ -8.408025, 7.476027 ], [ -8.413631, 7.48568 ], [ -8.414143, 7.493779 ], [ -8.433956, 7.517105 ], [ -8.456823, 7.526682 ], [ -8.464495, 7.536477 ], [ -8.47218, 7.55459 ], [ -8.419201, 7.606109 ], [ -8.39673, 7.611443 ], [ -8.385493, 7.606075 ], [ -8.379394, 7.581028 ], [ -8.369749, 7.57402 ], [ -8.347255, 7.57908 ], [ -8.322914, 7.59804 ], [ -8.303585, 7.599551 ], [ -8.291146, 7.579438 ], [ -8.254416, 7.565332 ], [ -8.214502, 7.535897 ], [ -8.205217, 7.536914 ], [ -8.196201, 7.543571 ], [ -8.174994, 7.578655 ], [ -8.169783, 7.622512 ], [ -8.158251, 7.641871 ], [ -8.144442, 7.657317 ], [ -8.138321, 7.693348 ], [ -8.123524, 7.709427 ], [ -8.103721, 7.715798 ], [ -8.096288, 7.721465 ], [ -8.086691, 7.764697 ], [ -8.072467, 7.790612 ], [ -8.07401, 7.809135 ], [ -8.111561, 7.8429 ], [ -8.11619, 7.860348 ], [ -8.107967, 7.882446 ], [ -8.082723, 7.917007 ], [ -8.068541, 7.952134 ], [ -8.066052, 7.958298 ], [ -8.055171, 7.99586 ], [ -8.061224, 8.010094 ], [ -8.059594, 8.017334 ], [ -8.042652, 8.030861 ], [ -8.013502, 8.032331 ], [ -7.999843, 8.037423 ], [ -7.990169, 8.032738 ], [ -7.98988, 8.019752 ], [ -7.984084, 8.013518 ], [ -7.970648, 8.015218 ], [ -7.952553, 8.008939 ], [ -7.946904, 8.014778 ], [ -7.948157, 8.037751 ], [ -7.949839, 8.042175 ], [ -7.963661, 8.049783 ], [ -7.970504, 8.060775 ], [ -7.980884, 8.077448 ], [ -8.00709, 8.09272 ], [ -8.012439, 8.100232 ], [ -8.01389, 8.124396 ], [ -8.008594, 8.140618 ], [ -8.008496, 8.160642 ], [ -7.994189, 8.184212 ], [ -7.994518, 8.191156 ], [ -7.998084, 8.196179 ], [ -8.004786, 8.196859 ], [ -8.020803, 8.189088 ], [ -8.033065, 8.201388 ], [ -8.039305, 8.20296 ], [ -8.057288, 8.173547 ], [ -8.064486, 8.165731 ], [ -8.068541, 8.164591 ], [ -8.073365, 8.163235 ], [ -8.088626, 8.168094 ], [ -8.106698, 8.185262 ], [ -8.123508, 8.194248 ], [ -8.164009, 8.196605 ], [ -8.177927, 8.199986 ], [ -8.215394, 8.231366 ], [ -8.223391, 8.232312 ], [ -8.233245, 8.227886 ], [ -8.245239, 8.233199 ], [ -8.247156, 8.255135 ], [ -8.231147, 8.281202 ], [ -8.231466, 8.301266 ], [ -8.236874, 8.326671 ], [ -8.226664, 8.357387 ], [ -8.236183, 8.393998 ], [ -8.243521, 8.443928 ], [ -8.237624, 8.462264 ], [ -8.223227, 8.460771 ], [ -8.220363, 8.469737 ], [ -8.205415, 8.483254 ], [ -8.193157, 8.501308 ], [ -8.178563, 8.499491 ], [ -8.168766, 8.49434 ], [ -8.160169, 8.49472 ], [ -8.153581, 8.487118 ], [ -8.140219, 8.492742 ], [ -8.11758, 8.483715 ], [ -8.105797, 8.491055 ], [ -8.094079, 8.503492 ], [ -8.080745, 8.499487 ], [ -8.068541, 8.502704 ], [ -8.062086, 8.504405 ], [ -8.043269, 8.495661 ], [ -8.025433, 8.494723 ], [ -8.011047, 8.489145 ], [ -7.98728, 8.485574 ], [ -7.971107, 8.496719 ], [ -7.953664, 8.494498 ], [ -7.939416, 8.499641 ], [ -7.915705, 8.484556 ], [ -7.920837, 8.478286 ], [ -7.912284, 8.46119 ], [ -7.919046, 8.460594 ], [ -7.920827, 8.449925 ], [ -7.910992, 8.447009 ], [ -7.906098, 8.435891 ], [ -7.886127, 8.433327 ], [ -7.88662, 8.421426 ], [ -7.883729, 8.418663 ], [ -7.851473, 8.420991 ], [ -7.833534, 8.43331 ], [ -7.831909, 8.439884 ], [ -7.836979, 8.470165 ], [ -7.833828, 8.482095 ], [ -7.827539, 8.488025 ], [ -7.820405, 8.482147 ], [ -7.805627, 8.477884 ], [ -7.788729, 8.463003 ], [ -7.75345, 8.383277 ], [ -7.746635, 8.375328 ], [ -7.693993, 8.371556 ], [ -7.652222, 8.374886 ], [ -7.643209, 8.379036 ], [ -7.653146, 8.398136 ], [ -7.66663, 8.411357 ], [ -7.680505, 8.445313 ], [ -7.678915, 8.455626 ], [ -7.660778, 8.486189 ], [ -7.661783, 8.506049 ], [ -7.687922, 8.546994 ], [ -7.724133, 8.659858 ], [ -7.768801, 8.762455 ], [ -7.784816, 8.771851 ], [ -7.821908, 8.766437 ], [ -7.84494, 8.776048 ], [ -7.85739, 8.777338 ], [ -7.87511, 8.774826 ], [ -7.90048, 8.765988 ], [ -7.9165, 8.766295 ], [ -7.939416, 8.780015 ], [ -7.941943, 8.781528 ], [ -7.961047, 8.812129 ], [ -7.961918, 8.824995 ], [ -7.954195, 8.8711 ], [ -7.939416, 8.915466 ], [ -7.931919, 8.937967 ], [ -7.918556, 8.965027 ], [ -7.918871, 8.999503 ], [ -7.908291, 9.015738 ], [ -7.894775, 9.028201 ], [ -7.86591, 9.040886 ], [ -7.853572, 9.058879 ], [ -7.841733, 9.06968 ], [ -7.818245, 9.079947 ], [ -7.764246, 9.066843 ], [ -7.751449, 9.069334 ], [ -7.738325, 9.077689 ], [ -7.741942, 9.083126 ], [ -7.761291, 9.095215 ], [ -7.787303, 9.106407 ], [ -7.809923, 9.12783 ], [ -7.814609, 9.141215 ], [ -7.836435, 9.15125 ], [ -7.833016, 9.168654 ], [ -7.837113, 9.176492 ], [ -7.853824, 9.176787 ], [ -7.883006, 9.159343 ], [ -7.90863, 9.174065 ], [ -7.920235, 9.189578 ], [ -7.924776, 9.217908 ], [ -7.888117, 9.289582 ], [ -7.885262, 9.304624 ], [ -7.887354, 9.344036 ], [ -7.866124, 9.377868 ], [ -7.855714, 9.422497 ], [ -7.849927, 9.428952 ], [ -7.850347, 9.434705 ], [ -7.881014, 9.434914 ], [ -7.892952, 9.417701 ], [ -7.917563, 9.418242 ], [ -7.939416, 9.409078 ], [ -7.970923, 9.395865 ], [ -7.983403, 9.395035 ], [ -8.013227, 9.401344 ], [ -8.058543, 9.402259 ], [ -8.068541, 9.412417 ], [ -8.0813, 9.42538 ], [ -8.111631, 9.466428 ], [ -8.133519, 9.504123 ], [ -8.136666, 9.514807 ], [ -8.135118, 9.525217 ], [ -8.148552, 9.534859 ], [ -8.150959, 9.564229 ], [ -8.145479, 9.575363 ], [ -8.148347, 9.582418 ], [ -8.151755, 9.5908 ], [ -8.144911, 9.613104 ], [ -8.150459, 9.623792 ], [ -8.134686, 9.637078 ], [ -8.128604, 9.654235 ], [ -8.129314, 9.661027 ], [ -8.134304, 9.666621 ], [ -8.130763, 9.672921 ], [ -8.135198, 9.690488 ], [ -8.132247, 9.699201 ], [ -8.123949, 9.708297 ], [ -8.128085, 9.742403 ], [ -8.125132, 9.752793 ], [ -8.127706, 9.758524 ], [ -8.115334, 9.765278 ], [ -8.120294, 9.786879 ], [ -8.110991, 9.797295 ], [ -8.117228, 9.807504 ], [ -8.114631, 9.810302 ], [ -8.106244, 9.810633 ], [ -8.102741, 9.829322 ], [ -8.111309, 9.839002 ], [ -8.108456, 9.855482 ], [ -8.112153, 9.865123 ], [ -8.120026, 9.868379 ], [ -8.135865, 9.866479 ], [ -8.142547, 9.871139 ], [ -8.140109, 9.883802 ], [ -8.129471, 9.883593 ], [ -8.125733, 9.898084 ], [ -8.134834, 9.915788 ], [ -8.141519, 9.916195 ], [ -8.15617, 9.910387 ], [ -8.160146, 9.913283 ], [ -8.163923, 9.925578 ], [ -8.154472, 9.937819 ], [ -8.164653, 9.946766 ], [ -8.163842, 9.949392 ], [ -8.147789, 9.9496 ], [ -8.119425, 9.957754 ], [ -8.117951, 9.968638 ], [ -8.121178, 9.974426 ], [ -8.127801, 9.975339 ], [ -8.140542, 9.96988 ], [ -8.150319, 9.97724 ], [ -8.148692, 9.984668 ], [ -8.137895, 9.993552 ], [ -8.135209, 10.005126 ], [ -8.128907, 10.016954 ], [ -8.100593, 10.051182 ], [ -8.068541, 10.064105 ], [ -8.046396, 10.073034 ], [ -8.020255, 10.093573 ], [ -7.97855, 10.17511 ], [ -7.965448, 10.174795 ], [ -7.946363, 10.168191 ], [ -7.939416, 10.169239 ], [ -7.927575, 10.171024 ], [ -7.911755, 10.180483 ], [ -7.893326, 10.197143 ], [ -7.856219, 10.205721 ], [ -7.837685, 10.22474 ], [ -7.814686, 10.238372 ], [ -7.794601, 10.273916 ], [ -7.766833, 10.29213 ], [ -7.75898, 10.301572 ], [ -7.760409, 10.30669 ], [ -7.772178, 10.309514 ], [ -7.774576, 10.314114 ], [ -7.771121, 10.320256 ], [ -7.759188, 10.323958 ], [ -7.756647, 10.340601 ], [ -7.75027, 10.344437 ], [ -7.734967, 10.346469 ], [ -7.729188, 10.351823 ], [ -7.729923, 10.365516 ], [ -7.737374, 10.374323 ], [ -7.730313, 10.380745 ], [ -7.729735, 10.388577 ], [ -7.742567, 10.397545 ], [ -7.735774, 10.416622 ], [ -7.725018, 10.42657 ], [ -7.688575, 10.435925 ], [ -7.676352, 10.442003 ], [ -7.662653, 10.45591 ], [ -7.656774, 10.467127 ], [ -7.648149, 10.483582 ], [ -7.641795, 10.486963 ], [ -7.630523, 10.482152 ], [ -7.623815, 10.475609 ], [ -7.62227, 10.467127 ], [ -7.620165, 10.455575 ], [ -7.616458, 10.450706 ], [ -7.607209, 10.449413 ], [ -7.585491, 10.452756 ], [ -7.563049, 10.442383 ], [ -7.551682, 10.445105 ], [ -7.531449, 10.467127 ], [ -7.528898, 10.469904 ], [ -7.50997, 10.478393 ], [ -7.487359, 10.477533 ], [ -7.457992, 10.469665 ], [ -7.4553, 10.467127 ], [ -7.448741, 10.460941 ], [ -7.437588, 10.41095 ], [ -7.427695, 10.392894 ], [ -7.403526, 10.37789 ], [ -7.374685, 10.368193 ], [ -7.365792, 10.360859 ], [ -7.364579, 10.333422 ], [ -7.370829, 10.307664 ], [ -7.38264, 10.284628 ], [ -7.379028, 10.276243 ], [ -7.358063, 10.275893 ], [ -7.334476, 10.270011 ], [ -7.317388, 10.281244 ], [ -7.297592, 10.287124 ], [ -7.281407, 10.265485 ], [ -7.248564, 10.268701 ], [ -7.215271, 10.257444 ], [ -7.175939, 10.255872 ], [ -7.159287, 10.242476 ], [ -7.137413, 10.240838 ], [ -7.118079, 10.230481 ], [ -7.089181, 10.223611 ], [ -7.080154, 10.213552 ], [ -7.064025, 10.181338 ], [ -7.050901, 10.16605 ], [ -7.041274, 10.160532 ], [ -7.03138, 10.161582 ], [ -7.007581, 10.175897 ], [ -6.979839, 10.192582 ], [ -6.968544, 10.205244 ], [ -6.965693, 10.220814 ], [ -6.968004, 10.240077 ], [ -6.972581, 10.252817 ], [ -6.99405, 10.287503 ], [ -6.996382, 10.304277 ], [ -6.993547, 10.313164 ], [ -6.978628, 10.336629 ], [ -6.950468, 10.366975 ], [ -6.932057, 10.365264 ], [ -6.898845, 10.369385 ], [ -6.856963, 10.362953 ], [ -6.836669, 10.375709 ], [ -6.764004, 10.390349 ], [ -6.725224, 10.37527 ], [ -6.710195, 10.361086 ], [ -6.70211, 10.357539 ], [ -6.687944, 10.357686 ], [ -6.672013, 10.366537 ], [ -6.65378, 10.398282 ], [ -6.637507, 10.415399 ], [ -6.631017, 10.435461 ], [ -6.633272, 10.441431 ], [ -6.64402, 10.44403 ], [ -6.646966, 10.454457 ], [ -6.6631, 10.456618 ], [ -6.677034, 10.467127 ], [ -6.67861, 10.468315 ], [ -6.677422, 10.482614 ], [ -6.68339, 10.490879 ], [ -6.678463, 10.506975 ], [ -6.680823, 10.520149 ], [ -6.679421, 10.529866 ], [ -6.665498, 10.537896 ], [ -6.670013, 10.555147 ], [ -6.66782, 10.591253 ], [ -6.676312, 10.601277 ], [ -6.673124, 10.620876 ], [ -6.667429, 10.629408 ], [ -6.649282, 10.637197 ], [ -6.649432, 10.640287 ], [ -6.655936, 10.642038 ], [ -6.657142, 10.645761 ], [ -6.651632, 10.658686 ], [ -6.642531, 10.670091 ], [ -6.622351, 10.666096 ], [ -6.616064, 10.658432 ], [ -6.609937, 10.63887 ], [ -6.598032, 10.624955 ], [ -6.56645, 10.6131 ], [ -6.539654, 10.587271 ], [ -6.511725, 10.576804 ], [ -6.490418, 10.577602 ], [ -6.463097, 10.565822 ], [ -6.447083, 10.565612 ], [ -6.43071, 10.573819 ], [ -6.402121, 10.598488 ], [ -6.397155, 10.607665 ], [ -6.401083, 10.619208 ], [ -6.42009, 10.62926 ], [ -6.42126, 10.677391 ], [ -6.415344, 10.70034 ], [ -6.398383, 10.710038 ], [ -6.383059, 10.711947 ], [ -6.357876, 10.707457 ], [ -6.347836, 10.696416 ], [ -6.256774, 10.735825 ], [ -6.222685, 10.7275 ], [ -6.217134, 10.723647 ], [ -6.220081, 10.711954 ], [ -6.231462, 10.699725 ], [ -6.226919, 10.684604 ], [ -6.233736, 10.6711 ], [ -6.234193, 10.664326 ], [ -6.229942, 10.658371 ], [ -6.218322, 10.654928 ], [ -6.209657, 10.644786 ], [ -6.192268, 10.63856 ], [ -6.190034, 10.633785 ], [ -6.19882, 10.622689 ], [ -6.215682, 10.620498 ], [ -6.222928, 10.614007 ], [ -6.221738, 10.600815 ], [ -6.211298, 10.597399 ], [ -6.21466, 10.586235 ], [ -6.211067, 10.580656 ], [ -6.211701, 10.573826 ], [ -6.225357, 10.556243 ], [ -6.244314, 10.544732 ], [ -6.249748, 10.524225 ], [ -6.24556, 10.517426 ], [ -6.236719, 10.51458 ], [ -6.219749, 10.523066 ], [ -6.208485, 10.512065 ], [ -6.204692, 10.497937 ], [ -6.179979, 10.497272 ], [ -6.169529, 10.492309 ], [ -6.166788, 10.484692 ], [ -6.186961, 10.467127 ], [ -6.188304, 10.446401 ], [ -6.183362, 10.437812 ], [ -6.167929, 10.426879 ], [ -6.163701, 10.4183 ], [ -6.168435, 10.410929 ], [ -6.178007, 10.411476 ], [ -6.183001, 10.408829 ], [ -6.190034, 10.3893 ], [ -6.183436, 10.373726 ], [ -6.170074, 10.363478 ], [ -6.195397, 10.341207 ], [ -6.196227, 10.332746 ], [ -6.187886, 10.318936 ], [ -6.193501, 10.30712 ], [ -6.198797, 10.30495 ], [ -6.206447, 10.312367 ], [ -6.215631, 10.313206 ], [ -6.230892, 10.305321 ], [ -6.236308, 10.296561 ], [ -6.226589, 10.281295 ], [ -6.221207, 10.260484 ], [ -6.198841, 10.254591 ], [ -6.190802, 10.235762 ], [ -6.174169, 10.224335 ], [ -6.150663, 10.220731 ], [ -6.119865, 10.205062 ], [ -6.112001, 10.202896 ], [ -6.100282, 10.199669 ], [ -6.084153, 10.198971 ], [ -6.055812, 10.203279 ], [ -6.024959, 10.199793 ], [ -6.011635, 10.204577 ], [ -5.986825, 10.229108 ], [ -5.97701, 10.253131 ], [ -5.972975, 10.276952 ], [ -5.942182, 10.282207 ], [ -5.921625, 10.276816 ], [ -5.909361, 10.281809 ], [ -5.908954, 10.311189 ], [ -5.896796, 10.328033 ], [ -5.887355, 10.363649 ], [ -5.884487, 10.372049 ], [ -5.872402, 10.379299 ], [ -5.859476, 10.379601 ], [ -5.84665, 10.384255 ], [ -5.83091, 10.396802 ], [ -5.825911, 10.41047 ], [ -5.819182, 10.419332 ], [ -5.779742, 10.438988 ], [ -5.772181, 10.439334 ], [ -5.757878, 10.432233 ], [ -5.74785, 10.431768 ], [ -5.733538, 10.437442 ], [ -5.705947, 10.442475 ], [ -5.676224, 10.46184 ], [ -5.625627, 10.453678 ], [ -5.59991, 10.452975 ], [ -5.568155, 10.464132 ], [ -5.561067, 10.461607 ], [ -5.534849, 10.439276 ], [ -5.527568, 10.436531 ], [ -5.51892, 10.43327 ], [ -5.516381, 10.42617 ], [ -5.510407, 10.422449 ], [ -5.495425, 10.400368 ], [ -5.485685, 10.377433 ], [ -5.473662, 10.375291 ], [ -5.469801, 10.372132 ], [ -5.466911, 10.362731 ], [ -5.470179, 10.352969 ], [ -5.468716, 10.348358 ], [ -5.449838, 10.338757 ], [ -5.441268, 10.323056 ], [ -5.428083, 10.32024 ], [ -5.420711, 10.307812 ], [ -5.404544, 10.295939 ], [ -5.383261, 10.293158 ], [ -5.368972, 10.286996 ], [ -5.358702, 10.302398 ], [ -5.354456, 10.304637 ], [ -5.32979, 10.295023 ], [ -5.305226, 10.307036 ], [ -5.304892, 10.315543 ], [ -5.300381, 10.318062 ], [ -5.28513, 10.310984 ], [ -5.276044, 10.314133 ], [ -5.263488, 10.311339 ], [ -5.246556, 10.313371 ], [ -5.235606, 10.314685 ], [ -5.223771, 10.311653 ], [ -5.209107, 10.319638 ], [ -5.204766, 10.309324 ], [ -5.190308, 10.299392 ], [ -5.189254, 10.290629 ], [ -5.185454, 10.287176 ], [ -5.175944, 10.289212 ], [ -5.159002, 10.285765 ], [ -5.156638, 10.285284 ], [ -5.146044, 10.290412 ], [ -5.131299, 10.304586 ], [ -5.123212, 10.300828 ], [ -5.114773, 10.301462 ], [ -5.118679, 10.28144 ], [ -5.105407, 10.275234 ], [ -5.101626, 10.270208 ], [ -5.11875, 10.252002 ], [ -5.117992, 10.243003 ], [ -5.109224, 10.233665 ], [ -5.118531, 10.214503 ], [ -5.105994, 10.216912 ], [ -5.09541, 10.223663 ], [ -5.090953, 10.220052 ], [ -5.089351, 10.213974 ], [ -5.097206, 10.191971 ], [ -5.109645, 10.184601 ], [ -5.11129, 10.180693 ], [ -5.102871, 10.176736 ], [ -5.076525, 10.180294 ], [ -5.080181, 10.157411 ], [ -5.07897, 10.14417 ], [ -5.06793, 10.135572 ], [ -5.050872, 10.130747 ], [ -5.046663, 10.124928 ], [ -5.048575, 10.120631 ], [ -5.053922, 10.118882 ], [ -5.066092, 10.122854 ], [ -5.076541, 10.122077 ], [ -5.080147, 10.116603 ], [ -5.079363, 10.111098 ], [ -5.073298, 10.107116 ], [ -5.050962, 10.104801 ], [ -5.06303, 10.087626 ], [ -5.062449, 10.08358 ], [ -5.058489, 10.081766 ], [ -5.046172, 10.082692 ], [ -5.027269, 10.097852 ], [ -5.008944, 10.102424 ], [ -5.01962, 10.077808 ], [ -5.019271, 10.069372 ], [ -5.014626, 10.065317 ], [ -5.00407, 10.064385 ], [ -4.995014, 10.060156 ], [ -4.985277, 10.048346 ], [ -4.972753, 10.0408 ], [ -4.964256, 10.02455 ], [ -4.966651, 10.006892 ], [ -4.983848, 10.009811 ], [ -4.986906, 10.005126 ], [ -4.988691, 10.002391 ], [ -4.985762, 9.984654 ], [ -4.968339, 9.973746 ], [ -4.961002, 9.961841 ], [ -4.949418, 9.951839 ], [ -4.962681, 9.938998 ], [ -4.962515, 9.921556 ], [ -4.97084, 9.906992 ], [ -4.965975, 9.892176 ], [ -4.955557, 9.883562 ], [ -4.936321, 9.876005 ], [ -4.926186, 9.886237 ], [ -4.911429, 9.890886 ], [ -4.879576, 9.872361 ], [ -4.866089, 9.871223 ], [ -4.856228, 9.866098 ], [ -4.844514, 9.867016 ], [ -4.834244, 9.864142 ], [ -4.822727, 9.845619 ], [ -4.804797, 9.843508 ], [ -4.793447, 9.836013 ], [ -4.78929, 9.829428 ], [ -4.793701, 9.81886 ], [ -4.79528, 9.804226 ], [ -4.790958, 9.786496 ], [ -4.795434, 9.783983 ], [ -4.814002, 9.784421 ], [ -4.811207, 9.772819 ], [ -4.80192, 9.767332 ], [ -4.798013, 9.756984 ], [ -4.788379, 9.753907 ], [ -4.783739, 9.742841 ], [ -4.777884, 9.738217 ], [ -4.772406, 9.739578 ], [ -4.767554, 9.752702 ], [ -4.751622, 9.752443 ], [ -4.742202, 9.749209 ], [ -4.73653, 9.737282 ], [ -4.726273, 9.725922 ], [ -4.710847, 9.693377 ], [ -4.698324, 9.685827 ], [ -4.691768, 9.678263 ], [ -4.683288, 9.679598 ], [ -4.674576, 9.688816 ], [ -4.664321, 9.691381 ], [ -4.660053, 9.697604 ], [ -4.657988, 9.70837 ], [ -4.654002, 9.71236 ], [ -4.628176, 9.703446 ], [ -4.616072, 9.721057 ], [ -4.601045, 9.712354 ], [ -4.586533, 9.692005 ], [ -4.579231, 9.688287 ], [ -4.569924, 9.688648 ], [ -4.557046, 9.699851 ], [ -4.546724, 9.717634 ], [ -4.547588, 9.721798 ], [ -4.556988, 9.730173 ], [ -4.559319, 9.736677 ], [ -4.557776, 9.740729 ], [ -4.547785, 9.745385 ], [ -4.52032, 9.745567 ], [ -4.510921, 9.742197 ], [ -4.506158, 9.734454 ], [ -4.507714, 9.721201 ], [ -4.521342, 9.704302 ], [ -4.522898, 9.690925 ], [ -4.519055, 9.664414 ], [ -4.51859, 9.661211 ], [ -4.510333, 9.649904 ], [ -4.503838, 9.647848 ], [ -4.466803, 9.653201 ], [ -4.433537, 9.661364 ], [ -4.418312, 9.647859 ], [ -4.404378, 9.607771 ], [ -4.389417, 9.595405 ], [ -4.381308, 9.594667 ], [ -4.375632, 9.597273 ], [ -4.370378, 9.617911 ], [ -4.358367, 9.625734 ], [ -4.349173, 9.624203 ], [ -4.318056, 9.601882 ], [ -4.30088, 9.621854 ], [ -4.291043, 9.639322 ], [ -4.288914, 9.664414 ], [ -4.288555, 9.66864 ], [ -4.281384, 9.683271 ], [ -4.282778, 9.692102 ], [ -4.275509, 9.702535 ], [ -4.266975, 9.731996 ], [ -4.267965, 9.736042 ], [ -4.276198, 9.740448 ], [ -4.27109, 9.754926 ], [ -4.238039, 9.754664 ], [ -4.227583, 9.761094 ], [ -4.207509, 9.763059 ], [ -4.200732, 9.766157 ], [ -4.18364, 9.77397 ], [ -4.173927, 9.782557 ], [ -4.165788, 9.797495 ], [ -4.146677, 9.811552 ], [ -4.139236, 9.824197 ], [ -4.132121, 9.830316 ], [ -4.12135, 9.829948 ], [ -4.075921, 9.803776 ], [ -4.062207, 9.799768 ], [ -4.047465, 9.801325 ], [ -4.043204, 9.819185 ], [ -4.033314, 9.831505 ], [ -4.010599, 9.835587 ], [ -3.993838, 9.830049 ], [ -3.984107, 9.831876 ], [ -3.974615, 9.841863 ], [ -3.977102, 9.853435 ], [ -3.971898, 9.868678 ], [ -3.963435, 9.872409 ], [ -3.939487, 9.871783 ], [ -3.928416, 9.878307 ], [ -3.919254, 9.879888 ], [ -3.90492, 9.8941 ], [ -3.899707, 9.899269 ], [ -3.811711, 9.88877 ], [ -3.787715, 9.912094 ], [ -3.754283, 9.930453 ], [ -3.707856, 9.9419 ], [ -3.674517, 9.940599 ], [ -3.642706, 9.955976 ], [ -3.629823, 9.950277 ], [ -3.597875, 9.920567 ], [ -3.551709, 9.926067 ], [ -3.492503, 9.923217 ], [ -3.469834, 9.924586 ], [ -3.420557, 9.912286 ], [ -3.394729, 9.91525 ], [ -3.366563, 9.903715 ], [ -3.346993, 9.891663 ], [ -3.31711, 9.901049 ], [ -3.311988, 9.895787 ], [ -3.310652, 9.889049 ], [ -3.318533, 9.863552 ], [ -3.316248, 9.857828 ], [ -3.30935, 9.85388 ], [ -3.280142, 9.853735 ], [ -3.252507, 9.877524 ], [ -3.239616, 9.894402 ], [ -3.22205, 9.902637 ], [ -3.211786, 9.921801 ], [ -3.196594, 9.925713 ], [ -3.192754, 9.912796 ], [ -3.194144, 9.859165 ], [ -3.188634, 9.847634 ], [ -3.18251, 9.843337 ], [ -3.168845, 9.842572 ], [ -3.137674, 9.847539 ], [ -3.123558, 9.841787 ], [ -3.109371, 9.812072 ], [ -3.095989, 9.79188 ], [ -3.090798, 9.761224 ], [ -3.062658, 9.721852 ], [ -3.046609, 9.720574 ], [ -3.017617, 9.741906 ], [ -3.007364, 9.737305 ], [ -2.994204, 9.716985 ], [ -2.973036, 9.664414 ], [ -2.965709, 9.646215 ], [ -2.929585, 9.581572 ], [ -2.902043, 9.532364 ], [ -2.868891, 9.490474 ], [ -2.797462, 9.418261 ], [ -2.773338, 9.403225 ], [ -2.761591, 9.402623 ], [ -2.752852, 9.410574 ], [ -2.707295, 9.4745 ], [ -2.686919, 9.490736 ], [ -2.68475, 9.4805 ], [ -2.689486, 9.453785 ], [ -2.688552, 9.436116 ], [ -2.677176, 9.406385 ], [ -2.67464, 9.380042 ], [ -2.677577, 9.368631 ], [ -2.684005, 9.358755 ], [ -2.702565, 9.341195 ], [ -2.718777, 9.33331 ], [ -2.720747, 9.314864 ], [ -2.716701, 9.300096 ], [ -2.711635, 9.292898 ], [ -2.700417, 9.286437 ], [ -2.681427, 9.283856 ], [ -2.660273, 9.261422 ], [ -2.658659, 9.250751 ], [ -2.666457, 9.239174 ], [ -2.69224, 9.225556 ], [ -2.712625, 9.207342 ], [ -2.724705, 9.172914 ], [ -2.733629, 9.160432 ], [ -2.745319, 9.15347 ], [ -2.762792, 9.150078 ], [ -2.771535, 9.143329 ], [ -2.772722, 9.136647 ], [ -2.765434, 9.120631 ], [ -2.761433, 9.092624 ], [ -2.76509, 9.082109 ], [ -2.777221, 9.067585 ], [ -2.778856, 9.061602 ], [ -2.772473, 9.048508 ], [ -2.753468, 9.034327 ], [ -2.732932, 9.030751 ], [ -2.721156, 9.031752 ], [ -2.69216, 9.024532 ], [ -2.673722, 9.023269 ], [ -2.663742, 9.018201 ], [ -2.656603, 9.008796 ], [ -2.657716, 8.982361 ], [ -2.651559, 8.945653 ], [ -2.644177, 8.935864 ], [ -2.618765, 8.9199 ], [ -2.617392, 8.910151 ], [ -2.6221, 8.876965 ], [ -2.598087, 8.830211 ], [ -2.600356, 8.822142 ], [ -2.62153, 8.807976 ], [ -2.628165, 8.794998 ], [ -2.613698, 8.783681 ], [ -2.591326, 8.787275 ], [ -2.585881, 8.78191 ], [ -2.4943, 8.208657 ], [ -2.547161, 8.169537 ], [ -2.565332, 8.166986 ], [ -2.580452, 8.172113 ], [ -2.587419, 8.1717 ], [ -2.60854, 8.149579 ], [ -2.611847, 8.133769 ], [ -2.581714, 8.076579 ], [ -2.584892, 8.060775 ], [ -2.597355, 8.041606 ], [ -2.609571, 8.035742 ], [ -2.623838, 8.038165 ], [ -2.674646, 8.02526 ], [ -2.684721, 8.015161 ], [ -2.697841, 7.991116 ], [ -2.732124, 7.955544 ], [ -2.747544, 7.925813 ], [ -2.753626, 7.927937 ], [ -2.768543, 7.946993 ], [ -2.773945, 7.94888 ], [ -2.778518, 7.946388 ], [ -2.790163, 7.860838 ], [ -2.826462, 7.823448 ], [ -2.826905, 7.805104 ], [ -2.844184, 7.783352 ], [ -2.848933, 7.76445 ], [ -2.863005, 7.739651 ], [ -2.919837, 7.612131 ], [ -2.929895, 7.513734 ], [ -2.931298, 7.500013 ], [ -2.947432, 7.450932 ], [ -2.971134, 7.329673 ], [ -2.975736, 7.270514 ], [ -2.957579, 7.240069 ], [ -2.956962, 7.233357 ], [ -3.022322, 7.143358 ], [ -3.032537, 7.073856 ], [ -3.054103, 7.066322 ], [ -3.09077, 7.047997 ], [ -3.226962, 6.822046 ], [ -3.229588, 6.772526 ], [ -3.223304, 6.761885 ], [ -3.210126, 6.749982 ], [ -3.206016, 6.735252 ], [ -3.196892, 6.718477 ], [ -3.208246, 6.702876 ], [ -3.218263, 6.694613 ], [ -3.228563, 6.66813 ], [ -3.248716, 6.643887 ], [ -3.250375, 6.636588 ], [ -3.254347, 6.61911 ], [ -3.250858, 6.609396 ], [ -3.233595, 6.595821 ], [ -3.233701, 6.537662 ], [ -3.172079, 6.301488 ], [ -3.169728, 6.265886 ], [ -3.171892, 6.25218 ], [ -3.150566, 6.243797 ], [ -3.102582, 6.151912 ], [ -3.072239, 5.989182 ], [ -3.020789, 5.854464 ], [ -3.025656, 5.713344 ], [ -2.956168, 5.713689 ], [ -2.964274, 5.642031 ], [ -2.956862, 5.63488 ], [ -2.9447, 5.630524 ], [ -2.932449, 5.616433 ], [ -2.924978, 5.616208 ], [ -2.914255, 5.623324 ], [ -2.895161, 5.628 ], [ -2.857051, 5.649605 ], [ -2.814937, 5.627824 ], [ -2.798635, 5.624199 ], [ -2.787693, 5.625787 ], [ -2.783462, 5.618168 ], [ -2.772748, 5.614417 ], [ -2.770907, 5.605292 ], [ -2.761634, 5.596842 ], [ -2.767769, 5.545725 ], [ -2.748421, 5.440185 ], [ -2.725224, 5.386607 ], [ -2.726716, 5.346798 ], [ -2.728302, 5.343921 ], [ -2.753835, 5.345766 ], [ -2.765588, 5.354883 ], [ -2.769352, 5.352861 ], [ -2.774146, 5.34602 ], [ -2.767047, 5.318446 ], [ -2.768663, 5.301926 ], [ -2.772138, 5.295395 ], [ -2.781911, 5.29262 ], [ -2.784143, 5.287053 ], [ -2.774725, 5.271976 ], [ -2.771349, 5.260856 ], [ -2.756035, 5.252273 ], [ -2.757318, 5.246517 ], [ -2.762969, 5.241119 ], [ -2.756766, 5.229402 ], [ -2.761541, 5.212746 ], [ -2.75737, 5.204396 ], [ -2.747729, 5.196899 ], [ -2.742366, 5.180504 ], [ -2.743763, 5.167059 ], [ -2.740471, 5.156351 ], [ -2.729586, 5.148937 ], [ -2.72542, 5.139653 ], [ -2.72846, 5.132788 ], [ -2.737526, 5.126648 ], [ -2.740697, 5.118073 ], [ -2.753086, 5.114927 ], [ -2.758528, 5.104493 ], [ -2.775268, 5.110809 ], [ -2.815003, 5.107259 ], [ -2.831227, 5.120187 ], [ -2.837222, 5.117386 ], [ -2.841135, 5.110735 ], [ -2.845406, 5.11004 ], [ -2.862748, 5.122354 ], [ -2.876219, 5.126979 ], [ -2.896243, 5.121662 ], [ -2.937564, 5.124879 ], [ -2.941308, 5.116611 ], [ -2.93347, 5.099194 ], [ -2.956493, 5.087101 ], [ -2.978736, 5.091185 ], [ -3.002939, 5.111446 ], [ -3.018751, 5.118447 ], [ -3.052104, 5.118273 ], [ -3.064592, 5.121499 ], [ -3.077607, 5.113967 ], [ -3.103908, 5.112675 ], [ -3.10583, 5.090864 ], [ -3.270866, 5.122638 ], [ -3.281699, 5.129049 ], [ -3.293545, 5.127378 ], [ -3.419516, 5.150624 ], [ -3.520928, 5.166061 ], [ -3.588992, 5.17116 ], [ -3.726351, 5.191419 ], [ -3.799597, 5.206437 ], [ -3.8745, 5.233156 ], [ -3.90492, 5.238618 ], [ -3.949897, 5.246693 ], [ -3.977772, 5.254935 ], [ -3.997291, 5.253226 ], [ -4.00905, 5.243265 ], [ -4.061024, 5.240701 ], [ -4.200732, 5.222249 ], [ -4.214746, 5.220399 ], [ -4.547751, 5.186507 ], [ -4.649234, 5.172975 ], [ -4.694334, 5.165205 ], [ -4.760344, 5.154157 ], [ -5.159002, 5.126113 ], [ -5.170141, 5.125329 ], [ -5.246556, 5.11805 ], [ -5.331699, 5.10994 ], [ -5.527568, 5.086752 ], [ -5.580279, 5.080511 ], [ -5.632015, 5.068505 ], [ -5.832268, 5.03928 ], [ -5.887355, 5.022636 ], [ -5.913643, 5.014694 ], [ -5.931747, 5.005586 ], [ -5.969441, 4.995996 ], [ -5.97605, 4.992172 ], [ -5.981263, 4.984266 ], [ -6.024148, 4.969805 ], [ -6.072993, 4.961455 ], [ -6.080032, 4.954493 ], [ -6.082177, 4.946453 ], [ -6.088284, 4.941896 ], [ -6.112001, 4.929105 ], [ -6.115665, 4.927129 ], [ -6.17476, 4.902487 ], [ -6.183752, 4.893291 ], [ -6.19792, 4.885626 ], [ -6.227002, 4.879156 ], [ -6.237102, 4.870209 ], [ -6.248606, 4.865269 ], [ -6.274353, 4.859936 ], [ -6.350485, 4.831931 ], [ -6.391745, 4.82468 ], [ -6.410435, 4.816793 ], [ -6.435999, 4.8106 ], [ -6.442899, 4.805308 ], [ -6.445044, 4.796051 ], [ -6.451557, 4.792361 ], [ -6.584542, 4.764505 ], [ -6.597625, 4.756343 ], [ -6.6015, 4.748131 ], [ -6.608403, 4.742764 ], [ -6.61875, 4.747646 ], [ -6.61987, 4.735786 ], [ -6.631089, 4.725358 ], [ -6.696653, 4.709279 ], [ -6.708918, 4.694516 ], [ -6.849021, 4.676412 ], [ -6.90999, 4.664086 ], [ -6.919884, 4.655056 ], [ -6.920337, 4.641513 ], [ -6.957654, 4.621561 ], [ -6.979612, 4.601871 ], [ -6.984069, 4.594543 ], [ -7.007581, 4.579872 ], [ -7.013724, 4.576039 ], [ -7.024066, 4.566167 ], [ -7.034161, 4.548491 ], [ -7.060435, 4.538278 ], [ -7.183655, 4.520691 ], [ -7.198955, 4.509427 ], [ -7.23865, 4.489935 ], [ -7.251283, 4.466453 ], [ -7.301808, 4.452316 ], [ -7.322632, 4.429887 ], [ -7.349701, 4.418894 ], [ -7.359185, 4.408526 ], [ -7.391635, 4.394771 ], [ -7.405614, 4.383771 ], [ -7.446261, 4.374765 ], [ -7.457921, 4.367756 ], [ -7.472895, 4.363623 ], [ -7.523134, 4.361726 ] ] ] ] } }
]
}
