{
"type": "FeatureCollection",
"name": "Democratic Republic of The Congo",
"crs": { "type": "name", "properties": { "name": "urn:ogc:def:crs:OGC:1.3:CRS84" } },
"features": [
{ "type": "Feature", "properties": { "id": "CD", "CNTR_ID": "CD", "CNTR_NAME": "République Démocratique du Congo-Kongo-Kongó-Kongu-Kongo", "NAME_ENGL": "Democratic Republic of The Congo", "ISO3_CODE": "COD", "FID": "CD" }, "geometry": { "type": "MultiPolygon", "coordinates": [ [ [ [ 23.999528, -10.887249 ], [ 23.97783, -10.899222 ], [ 23.961904, -10.93586 ], [ 23.945633, -10.953807 ], [ 23.925816, -10.965769 ], [ 23.893759, -10.985119 ], [ 23.872973, -11.01642 ], [ 23.852171, -11.027456 ], [ 23.830785, -11.02977 ], [ 23.815446, -11.027583 ], [ 23.767284, -10.999345 ], [ 23.745713, -10.992582 ], [ 23.736931, -10.993455 ], [ 23.709426, -11.007235 ], [ 23.692432, -11.005067 ], [ 23.672347, -11.007879 ], [ 23.651444, -11.003075 ], [ 23.629149, -10.990992 ], [ 23.585779, -10.993055 ], [ 23.575487, -10.988632 ], [ 23.540801, -10.959922 ], [ 23.508528, -10.947403 ], [ 23.466922, -10.939964 ], [ 23.460272, -10.938775 ], [ 23.436368, -10.938377 ], [ 23.415344, -10.946545 ], [ 23.361302, -10.98248 ], [ 23.337812, -11.003378 ], [ 23.289149, -11.031102 ], [ 23.251488, -11.059881 ], [ 23.225098, -11.087122 ], [ 23.203456, -11.101817 ], [ 23.190875, -11.103572 ], [ 23.149951, -11.093787 ], [ 23.140257, -11.096533 ], [ 23.10275, -11.11853 ], [ 23.084388, -11.12363 ], [ 23.071977, -11.122326 ], [ 23.035563, -11.110611 ], [ 23.012938, -11.100146 ], [ 22.975923, -11.100493 ], [ 22.958184, -11.097944 ], [ 22.90455, -11.08148 ], [ 22.879417, -11.066721 ], [ 22.864214, -11.061827 ], [ 22.857783, -11.063027 ], [ 22.835747, -11.079427 ], [ 22.811562, -11.084404 ], [ 22.800894, -11.104463 ], [ 22.792586, -11.110938 ], [ 22.747983, -11.113643 ], [ 22.725521, -11.110226 ], [ 22.69808, -11.101844 ], [ 22.65484, -11.083039 ], [ 22.611453, -11.056942 ], [ 22.585264, -11.036421 ], [ 22.573795, -11.031511 ], [ 22.561379, -11.031248 ], [ 22.534313, -11.040591 ], [ 22.510615, -11.043117 ], [ 22.497249, -11.052707 ], [ 22.489605, -11.069128 ], [ 22.490431, -11.0819 ], [ 22.497354, -11.099883 ], [ 22.493997, -11.121155 ], [ 22.487035, -11.131338 ], [ 22.473127, -11.140219 ], [ 22.467046, -11.144101 ], [ 22.439739, -11.172093 ], [ 22.423299, -11.178455 ], [ 22.371281, -11.176115 ], [ 22.35005, -11.177965 ], [ 22.334532, -11.206544 ], [ 22.299188, -11.244055 ], [ 22.276452, -11.26119 ], [ 22.251012, -11.266465 ], [ 22.248815, -11.25396 ], [ 22.254848, -11.236308 ], [ 22.25562, -11.212902 ], [ 22.268746, -11.192162 ], [ 22.268336, -11.179506 ], [ 22.262789, -11.159729 ], [ 22.249292, -11.136582 ], [ 22.225376, -11.121346 ], [ 22.217826, -11.109572 ], [ 22.212336, -11.079561 ], [ 22.217771, -11.027022 ], [ 22.210018, -11.010034 ], [ 22.205157, -10.98463 ], [ 22.20453, -10.93592 ], [ 22.189927, -10.916983 ], [ 22.187437, -10.905945 ], [ 22.18083, -10.901133 ], [ 22.180521, -10.887468 ], [ 22.169629, -10.875457 ], [ 22.167977, -10.86469 ], [ 22.171844, -10.853894 ], [ 22.181137, -10.849272 ], [ 22.195684, -10.831442 ], [ 22.215287, -10.816962 ], [ 22.232008, -10.809292 ], [ 22.239436, -10.802067 ], [ 22.26175, -10.793727 ], [ 22.273067, -10.785263 ], [ 22.305963, -10.780503 ], [ 22.32952, -10.751297 ], [ 22.333082, -10.737247 ], [ 22.321272, -10.722712 ], [ 22.323891, -10.707317 ], [ 22.321625, -10.689258 ], [ 22.316402, -10.679536 ], [ 22.309705, -10.675492 ], [ 22.307774, -10.668381 ], [ 22.314134, -10.648478 ], [ 22.309938, -10.616463 ], [ 22.313721, -10.601332 ], [ 22.309831, -10.585015 ], [ 22.314693, -10.563851 ], [ 22.30778, -10.547693 ], [ 22.306582, -10.531679 ], [ 22.28773, -10.517183 ], [ 22.276144, -10.512975 ], [ 22.27306, -10.507387 ], [ 22.282677, -10.497364 ], [ 22.283934, -10.486455 ], [ 22.291011, -10.47165 ], [ 22.291323, -10.459567 ], [ 22.302042, -10.448221 ], [ 22.307569, -10.424555 ], [ 22.317209, -10.412801 ], [ 22.318142, -10.402091 ], [ 22.325084, -10.394585 ], [ 22.326958, -10.385754 ], [ 22.322987, -10.375403 ], [ 22.31574, -10.369007 ], [ 22.313763, -10.356607 ], [ 22.304903, -10.348881 ], [ 22.308074, -10.340569 ], [ 22.302643, -10.331133 ], [ 22.300822, -10.321048 ], [ 22.294152, -10.318161 ], [ 22.290581, -10.30935 ], [ 22.281351, -10.30193 ], [ 22.280282, -10.295718 ], [ 22.283595, -10.284731 ], [ 22.276623, -10.261715 ], [ 22.256525, -10.247523 ], [ 22.255394, -10.230288 ], [ 22.239045, -10.219434 ], [ 22.232423, -10.198727 ], [ 22.228566, -10.173143 ], [ 22.216411, -10.158406 ], [ 22.218753, -10.131887 ], [ 22.212037, -10.091817 ], [ 22.217093, -10.067173 ], [ 22.206636, -10.03416 ], [ 22.212455, -10.015318 ], [ 22.197651, -9.99996 ], [ 22.201209, -9.974638 ], [ 22.196808, -9.959376 ], [ 22.189165, -9.946193 ], [ 22.190226, -9.934736 ], [ 22.186908, -9.924762 ], [ 22.177816, -9.91312 ], [ 22.148925, -9.887681 ], [ 22.129056, -9.888056 ], [ 22.120359, -9.876781 ], [ 22.112318, -9.873446 ], [ 22.091602, -9.879649 ], [ 22.070066, -9.873724 ], [ 22.063802, -9.862666 ], [ 22.049858, -9.850769 ], [ 22.039088, -9.830622 ], [ 22.032824, -9.827966 ], [ 22.02426, -9.830938 ], [ 22.015139, -9.821389 ], [ 22.008998, -9.790822 ], [ 21.998803, -9.780033 ], [ 22.00075, -9.760961 ], [ 21.997773, -9.751724 ], [ 21.993981, -9.750307 ], [ 21.98432, -9.758382 ], [ 21.97691, -9.758309 ], [ 21.966498, -9.726889 ], [ 21.948557, -9.711159 ], [ 21.936014, -9.705484 ], [ 21.933652, -9.685267 ], [ 21.917821, -9.679375 ], [ 21.908032, -9.66946 ], [ 21.896259, -9.667306 ], [ 21.8961, -9.659034 ], [ 21.892747, -9.653238 ], [ 21.875134, -9.648358 ], [ 21.873724, -9.629523 ], [ 21.865946, -9.622127 ], [ 21.869449, -9.607788 ], [ 21.861464, -9.594375 ], [ 21.86463, -9.561155 ], [ 21.855405, -9.540071 ], [ 21.843637, -9.529537 ], [ 21.839935, -9.516163 ], [ 21.831539, -9.505745 ], [ 21.827192, -9.480196 ], [ 21.829806, -9.457933 ], [ 21.816562, -9.439213 ], [ 21.80583, -9.433442 ], [ 21.791426, -9.415054 ], [ 21.792063, -9.406427 ], [ 21.798419, -9.396588 ], [ 21.803631, -9.377867 ], [ 21.808365, -9.372082 ], [ 21.805561, -9.365887 ], [ 21.809229, -9.357873 ], [ 21.806131, -9.35038 ], [ 21.809244, -9.331503 ], [ 21.821692, -9.315222 ], [ 21.825421, -9.28916 ], [ 21.838208, -9.274641 ], [ 21.841542, -9.250898 ], [ 21.857841, -9.227408 ], [ 21.855157, -9.208923 ], [ 21.860656, -9.195447 ], [ 21.860506, -9.18729 ], [ 21.855787, -9.175299 ], [ 21.856362, -9.164332 ], [ 21.851826, -9.150945 ], [ 21.842217, -9.140848 ], [ 21.835982, -9.088806 ], [ 21.839184, -9.074642 ], [ 21.836021, -9.063 ], [ 21.85433, -9.042977 ], [ 21.848582, -9.030255 ], [ 21.846095, -9.024751 ], [ 21.849787, -9.012842 ], [ 21.848489, -9.002787 ], [ 21.847148, -8.992394 ], [ 21.859581, -8.919589 ], [ 21.855509, -8.902115 ], [ 21.867224, -8.875145 ], [ 21.861702, -8.853215 ], [ 21.86679, -8.843391 ], [ 21.876813, -8.83576 ], [ 21.873504, -8.824045 ], [ 21.884751, -8.814258 ], [ 21.886327, -8.804009 ], [ 21.89408, -8.7868 ], [ 21.893278, -8.776505 ], [ 21.897542, -8.764519 ], [ 21.892434, -8.740269 ], [ 21.892612, -8.704506 ], [ 21.899866, -8.694713 ], [ 21.906658, -8.668653 ], [ 21.912222, -8.662867 ], [ 21.907789, -8.631906 ], [ 21.911919, -8.623469 ], [ 21.922811, -8.615422 ], [ 21.935357, -8.598377 ], [ 21.93347, -8.593198 ], [ 21.921328, -8.589288 ], [ 21.927976, -8.581996 ], [ 21.926167, -8.567988 ], [ 21.935306, -8.560462 ], [ 21.942371, -8.541807 ], [ 21.931241, -8.526481 ], [ 21.951904, -8.503077 ], [ 21.943686, -8.476133 ], [ 21.944228, -8.460206 ], [ 21.948439, -8.449343 ], [ 21.947661, -8.439416 ], [ 21.93465, -8.412138 ], [ 21.919314, -8.392226 ], [ 21.922795, -8.374466 ], [ 21.914979, -8.348897 ], [ 21.926615, -8.337451 ], [ 21.929739, -8.334377 ], [ 21.930908, -8.32306 ], [ 21.924946, -8.308567 ], [ 21.907729, -8.305418 ], [ 21.899808, -8.300278 ], [ 21.893312, -8.292015 ], [ 21.890939, -8.283545 ], [ 21.889237, -8.274634 ], [ 21.891024, -8.251171 ], [ 21.881098, -8.229719 ], [ 21.880758, -8.217745 ], [ 21.872479, -8.194399 ], [ 21.874321, -8.188676 ], [ 21.883458, -8.18364 ], [ 21.883451, -8.177041 ], [ 21.867537, -8.163596 ], [ 21.859486, -8.147608 ], [ 21.849095, -8.142133 ], [ 21.844474, -8.124106 ], [ 21.839365, -8.117362 ], [ 21.838203, -8.10762 ], [ 21.827058, -8.089978 ], [ 21.823734, -8.071109 ], [ 21.80614, -8.053718 ], [ 21.80279, -8.045826 ], [ 21.793688, -8.04261 ], [ 21.788559, -8.033968 ], [ 21.780905, -8.032085 ], [ 21.775952, -8.027436 ], [ 21.775791, -8.014553 ], [ 21.763604, -7.998577 ], [ 21.768526, -7.968055 ], [ 21.751728, -7.940439 ], [ 21.75591, -7.926652 ], [ 21.771423, -7.914945 ], [ 21.776401, -7.907901 ], [ 21.773071, -7.899364 ], [ 21.777826, -7.880822 ], [ 21.768958, -7.851863 ], [ 21.770213, -7.835406 ], [ 21.777344, -7.828916 ], [ 21.77997, -7.811448 ], [ 21.773857, -7.802822 ], [ 21.776229, -7.77337 ], [ 21.789455, -7.758547 ], [ 21.78941, -7.748452 ], [ 21.800978, -7.733698 ], [ 21.798951, -7.72227 ], [ 21.806498, -7.708966 ], [ 21.816207, -7.680304 ], [ 21.814081, -7.663504 ], [ 21.819124, -7.658991 ], [ 21.825748, -7.657109 ], [ 21.829864, -7.65594 ], [ 21.834882, -7.641903 ], [ 21.833241, -7.627111 ], [ 21.850684, -7.60849 ], [ 21.852161, -7.601093 ], [ 21.846777, -7.587589 ], [ 21.847035, -7.581236 ], [ 21.854596, -7.572853 ], [ 21.858461, -7.560501 ], [ 21.844091, -7.534451 ], [ 21.842051, -7.523467 ], [ 21.844604, -7.508352 ], [ 21.856982, -7.493636 ], [ 21.861096, -7.47727 ], [ 21.858774, -7.470509 ], [ 21.849373, -7.466777 ], [ 21.846881, -7.46117 ], [ 21.848701, -7.456703 ], [ 21.859821, -7.448437 ], [ 21.854622, -7.436616 ], [ 21.858362, -7.428222 ], [ 21.855789, -7.425087 ], [ 21.844985, -7.422126 ], [ 21.834064, -7.40558 ], [ 21.834294, -7.398442 ], [ 21.84413, -7.390496 ], [ 21.843142, -7.374779 ], [ 21.835942, -7.364139 ], [ 21.833157, -7.348238 ], [ 21.82716, -7.338026 ], [ 21.80645, -7.317262 ], [ 21.792072, -7.312092 ], [ 21.788907, -7.30584 ], [ 21.786067, -7.282886 ], [ 20.557155, -7.282105 ], [ 20.551668, -7.274116 ], [ 20.557488, -7.261003 ], [ 20.551903, -7.249752 ], [ 20.554183, -7.240167 ], [ 20.548552, -7.227073 ], [ 20.558292, -7.218142 ], [ 20.554797, -7.206478 ], [ 20.560412, -7.194527 ], [ 20.555968, -7.183338 ], [ 20.561858, -7.166878 ], [ 20.557547, -7.158718 ], [ 20.547225, -7.152131 ], [ 20.546482, -7.14747 ], [ 20.558724, -7.133947 ], [ 20.564404, -7.112088 ], [ 20.574556, -7.10242 ], [ 20.583114, -7.088477 ], [ 20.594843, -7.061697 ], [ 20.592888, -7.034799 ], [ 20.603053, -7.023484 ], [ 20.601152, -7.013179 ], [ 20.610564, -7.008537 ], [ 20.612341, -6.991321 ], [ 20.619033, -6.981377 ], [ 20.623824, -6.962642 ], [ 20.625388, -6.950307 ], [ 20.62267, -6.932308 ], [ 20.630929, -6.922409 ], [ 20.625421, -6.916569 ], [ 20.324787, -6.916748 ], [ 20.315934, -6.924448 ], [ 20.310027, -6.948675 ], [ 20.311069, -6.962619 ], [ 20.305818, -6.973079 ], [ 20.306295, -6.982901 ], [ 20.300897, -6.99318 ], [ 20.301496, -6.998253 ], [ 20.298479, -6.999819 ], [ 19.551195, -7.002321 ], [ 19.55113, -7.027125 ], [ 19.560819, -7.044726 ], [ 19.561798, -7.05274 ], [ 19.541246, -7.078652 ], [ 19.523656, -7.110794 ], [ 19.511585, -7.148692 ], [ 19.500857, -7.164905 ], [ 19.504516, -7.185641 ], [ 19.501608, -7.218749 ], [ 19.503937, -7.22879 ], [ 19.500375, -7.240553 ], [ 19.502296, -7.252038 ], [ 19.494175, -7.268971 ], [ 19.494343, -7.284824 ], [ 19.486601, -7.311472 ], [ 19.504258, -7.34742 ], [ 19.497046, -7.364218 ], [ 19.502515, -7.380356 ], [ 19.509138, -7.389318 ], [ 19.521086, -7.396276 ], [ 19.51841, -7.420123 ], [ 19.528191, -7.429124 ], [ 19.53214, -7.442756 ], [ 19.540821, -7.447898 ], [ 19.543916, -7.456745 ], [ 19.528884, -7.465648 ], [ 19.51432, -7.486506 ], [ 19.48729, -7.503472 ], [ 19.49182, -7.522018 ], [ 19.484974, -7.540903 ], [ 19.483435, -7.56092 ], [ 19.477731, -7.568908 ], [ 19.388542, -7.572721 ], [ 19.36944, -7.590341 ], [ 19.371271, -7.612579 ], [ 19.386227, -7.632402 ], [ 19.399367, -7.677126 ], [ 19.409312, -7.694274 ], [ 19.389439, -7.751911 ], [ 19.389652, -7.767799 ], [ 19.386306, -7.782799 ], [ 19.374184, -7.79462 ], [ 19.363915, -7.811168 ], [ 19.363758, -7.830051 ], [ 19.366915, -7.845079 ], [ 19.365504, -7.859748 ], [ 19.356723, -7.880989 ], [ 19.349895, -7.887201 ], [ 19.343537, -7.900242 ], [ 19.3564, -7.910228 ], [ 19.358383, -7.921761 ], [ 19.35531, -7.930851 ], [ 19.359881, -7.953636 ], [ 19.372514, -7.982681 ], [ 19.380281, -7.991218 ], [ 19.379456, -7.996943 ], [ 18.802537, -7.998956 ], [ 18.796911, -7.996491 ], [ 18.787799, -7.982918 ], [ 18.783002, -7.967833 ], [ 18.77617, -7.958291 ], [ 18.778755, -7.934 ], [ 18.769784, -7.916892 ], [ 18.538206, -7.916181 ], [ 18.533151, -7.919026 ], [ 18.531344, -7.930616 ], [ 18.534078, -7.956342 ], [ 18.527674, -7.998216 ], [ 18.441832, -7.998092 ], [ 18.187384, -7.997726 ], [ 18.172127, -8.007801 ], [ 18.151567, -8.015437 ], [ 18.137849, -8.036253 ], [ 18.122924, -8.039422 ], [ 18.114877, -8.032633 ], [ 18.105525, -8.033191 ], [ 18.094325, -8.05861 ], [ 18.103103, -8.085232 ], [ 18.097886, -8.095692 ], [ 17.966247, -8.095946 ], [ 17.929486, -8.085489 ], [ 17.866328, -8.079688 ], [ 17.827589, -8.091803 ], [ 17.811549, -8.104909 ], [ 17.797197, -8.110591 ], [ 17.748736, -8.09838 ], [ 17.682996, -8.10213 ], [ 17.616567, -8.128792 ], [ 17.573077, -8.125989 ], [ 17.546842, -8.116316 ], [ 17.527716, -8.092193 ], [ 17.51155, -8.083392 ], [ 17.505595, -8.07703 ], [ 17.507446, -8.062972 ], [ 17.517503, -8.048348 ], [ 17.526875, -8.044936 ], [ 17.527516, -8.040341 ], [ 17.513902, -8.018921 ], [ 17.497771, -8.004808 ], [ 17.483571, -7.998174 ], [ 17.480488, -7.956284 ], [ 17.470602, -7.952737 ], [ 17.46384, -7.943478 ], [ 17.454302, -7.939604 ], [ 17.450173, -7.929573 ], [ 17.441847, -7.919682 ], [ 17.438732, -7.906608 ], [ 17.448511, -7.887328 ], [ 17.445834, -7.87077 ], [ 17.440709, -7.867133 ], [ 17.428952, -7.86687 ], [ 17.423581, -7.864019 ], [ 17.422923, -7.842553 ], [ 17.418967, -7.835637 ], [ 17.410593, -7.833817 ], [ 17.396476, -7.838169 ], [ 17.39423, -7.832992 ], [ 17.397046, -7.820705 ], [ 17.379508, -7.818255 ], [ 17.377954, -7.809425 ], [ 17.382664, -7.789944 ], [ 17.379712, -7.781499 ], [ 17.336789, -7.778752 ], [ 17.330426, -7.766218 ], [ 17.320559, -7.756147 ], [ 17.328705, -7.71925 ], [ 17.318297, -7.712417 ], [ 17.312076, -7.701359 ], [ 17.301697, -7.697433 ], [ 17.29384, -7.690306 ], [ 17.298743, -7.675459 ], [ 17.297141, -7.65723 ], [ 17.300874, -7.639941 ], [ 17.298463, -7.630335 ], [ 17.290291, -7.621958 ], [ 17.243831, -7.601113 ], [ 17.217501, -7.576954 ], [ 17.195452, -7.533993 ], [ 17.199632, -7.51221 ], [ 17.196564, -7.501007 ], [ 17.184529, -7.490623 ], [ 17.16394, -7.485127 ], [ 17.151938, -7.472108 ], [ 17.150877, -7.463632 ], [ 17.156281, -7.453909 ], [ 17.179842, -7.440773 ], [ 17.178254, -7.429931 ], [ 17.16873, -7.423065 ], [ 17.153324, -7.41866 ], [ 17.139257, -7.407347 ], [ 17.135209, -7.40949 ], [ 17.127764, -7.42241 ], [ 17.114927, -7.423835 ], [ 17.106732, -7.420955 ], [ 17.103119, -7.413342 ], [ 17.108522, -7.395372 ], [ 17.105297, -7.377971 ], [ 17.108057, -7.358109 ], [ 17.104723, -7.349486 ], [ 17.089389, -7.341957 ], [ 17.068478, -7.338056 ], [ 17.056784, -7.327123 ], [ 17.03618, -7.315177 ], [ 17.021846, -7.295421 ], [ 16.997691, -7.296207 ], [ 16.981767, -7.291656 ], [ 16.977316, -7.284342 ], [ 16.974841, -7.264631 ], [ 16.951393, -7.247507 ], [ 16.942878, -7.236218 ], [ 16.942914, -7.227044 ], [ 16.952345, -7.213533 ], [ 16.953456, -7.203199 ], [ 16.938647, -7.18119 ], [ 16.937436, -7.164239 ], [ 16.922724, -7.133756 ], [ 16.918103, -7.107035 ], [ 16.924524, -7.102372 ], [ 16.938804, -7.115997 ], [ 16.950358, -7.114637 ], [ 16.955439, -7.101636 ], [ 16.956563, -7.08396 ], [ 16.96561, -7.066626 ], [ 16.966314, -7.057472 ], [ 16.959834, -7.050118 ], [ 16.943941, -7.04384 ], [ 16.931398, -7.023137 ], [ 16.913006, -7.024984 ], [ 16.904569, -7.01935 ], [ 16.899715, -6.992662 ], [ 16.911156, -6.970354 ], [ 16.904242, -6.945403 ], [ 16.909656, -6.928036 ], [ 16.908467, -6.909252 ], [ 16.898728, -6.895858 ], [ 16.877584, -6.880369 ], [ 16.867797, -6.878643 ], [ 16.852182, -6.883696 ], [ 16.840173, -6.876846 ], [ 16.842933, -6.854641 ], [ 16.840427, -6.825192 ], [ 16.831924, -6.817272 ], [ 16.815636, -6.812129 ], [ 16.808622, -6.801979 ], [ 16.800185, -6.779143 ], [ 16.800365, -6.747085 ], [ 16.796866, -6.729849 ], [ 16.77576, -6.719974 ], [ 16.763562, -6.705577 ], [ 16.76013, -6.689975 ], [ 16.761167, -6.669866 ], [ 16.75369, -6.641141 ], [ 16.755437, -6.605028 ], [ 16.751031, -6.595498 ], [ 16.736966, -6.58702 ], [ 16.732739, -6.577448 ], [ 16.737177, -6.550563 ], [ 16.747334, -6.534657 ], [ 16.749218, -6.521994 ], [ 16.742163, -6.51048 ], [ 16.723512, -6.497703 ], [ 16.70955, -6.479992 ], [ 16.709355, -6.473318 ], [ 16.717704, -6.464575 ], [ 16.718443, -6.456564 ], [ 16.713397, -6.444589 ], [ 16.698597, -6.424777 ], [ 16.702891, -6.418016 ], [ 16.718043, -6.41156 ], [ 16.720627, -6.402484 ], [ 16.709323, -6.390161 ], [ 16.686344, -6.390192 ], [ 16.680536, -6.384444 ], [ 16.692301, -6.351883 ], [ 16.689738, -6.344834 ], [ 16.680747, -6.338496 ], [ 16.679918, -6.334871 ], [ 16.689866, -6.331411 ], [ 16.709495, -6.337563 ], [ 16.718541, -6.327712 ], [ 16.71509, -6.294098 ], [ 16.705582, -6.267337 ], [ 16.714905, -6.227608 ], [ 16.705443, -6.206262 ], [ 16.721129, -6.18952 ], [ 16.727489, -6.16463 ], [ 16.717021, -6.153941 ], [ 16.712078, -6.130921 ], [ 16.691981, -6.113268 ], [ 16.667118, -6.105832 ], [ 16.658775, -6.093191 ], [ 16.639174, -6.093527 ], [ 16.646634, -6.0781 ], [ 16.641667, -6.065959 ], [ 16.622141, -6.061409 ], [ 16.606066, -6.060957 ], [ 16.601018, -6.057666 ], [ 16.601747, -6.050787 ], [ 16.615706, -6.046216 ], [ 16.621457, -6.033821 ], [ 16.614774, -6.027589 ], [ 16.595824, -6.032065 ], [ 16.591236, -6.030342 ], [ 16.596335, -6.017798 ], [ 16.596808, -6.001242 ], [ 16.601336, -5.986058 ], [ 16.589529, -5.965695 ], [ 16.600756, -5.950435 ], [ 16.596566, -5.944667 ], [ 16.584371, -5.943716 ], [ 16.579289, -5.939582 ], [ 16.584336, -5.890242 ], [ 16.577983, -5.875379 ], [ 16.569957, -5.871746 ], [ 16.545058, -5.869037 ], [ 16.527345, -5.857104 ], [ 16.491291, -5.845459 ], [ 16.470045, -5.852651 ], [ 16.460549, -5.850274 ], [ 16.444318, -5.867049 ], [ 16.420669, -5.870107 ], [ 16.397761, -5.86611 ], [ 16.381131, -5.855862 ], [ 16.359815, -5.853152 ], [ 16.218482, -5.852608 ], [ 16.0983, -5.859329 ], [ 15.928235, -5.861524 ], [ 15.814728, -5.869353 ], [ 15.759569, -5.864393 ], [ 15.679358, -5.857182 ], [ 15.081108, -5.862757 ], [ 14.715029, -5.880381 ], [ 14.602151, -5.906098 ], [ 14.594343, -5.907895 ], [ 14.485224, -5.900953 ], [ 14.242944, -5.885539 ], [ 14.110665, -5.869932 ], [ 14.081186, -5.866454 ], [ 14.024968, -5.854506 ], [ 13.997643, -5.848637 ], [ 13.973275, -5.836423 ], [ 13.832647, -5.853587 ], [ 13.82878, -5.854059 ], [ 13.808486, -5.85654 ], [ 13.759722, -5.862501 ], [ 13.657028, -5.863576 ], [ 13.542488, -5.864696 ], [ 13.512696, -5.854217 ], [ 13.456736, -5.848712 ], [ 13.429635, -5.852015 ], [ 13.426657, -5.863637 ], [ 13.421505, -5.867924 ], [ 13.40299, -5.872667 ], [ 13.385322, -5.870771 ], [ 13.377466, -5.872941 ], [ 13.362127, -5.906054 ], [ 13.357298, -5.9098 ], [ 13.339557, -5.900315 ], [ 13.302666, -5.888773 ], [ 13.288929, -5.879367 ], [ 13.25668, -5.86849 ], [ 13.221178, -5.862084 ], [ 13.149668, -5.883205 ], [ 13.138319, -5.894199 ], [ 13.118811, -5.90445 ], [ 13.110666, -5.901042 ], [ 13.099293, -5.886293 ], [ 13.096282, -5.874474 ], [ 13.082925, -5.864044 ], [ 13.040218, -5.858338 ], [ 12.991742, -5.857642 ], [ 12.977551, -5.853286 ], [ 12.956328, -5.846771 ], [ 12.927589, -5.840897 ], [ 12.905132, -5.839638 ], [ 12.903804, -5.841337 ], [ 12.906128, -5.84254 ], [ 12.962199, -5.851814 ], [ 12.967949, -5.856036 ], [ 12.95778, -5.860394 ], [ 12.958574, -5.865989 ], [ 12.950367, -5.868265 ], [ 12.914092, -5.860652 ], [ 12.891098, -5.847938 ], [ 12.861238, -5.857425 ], [ 12.837718, -5.869118 ], [ 12.818967, -5.871551 ], [ 12.80412, -5.880399 ], [ 12.79501, -5.892073 ], [ 12.784542, -5.899974 ], [ 12.762141, -5.908733 ], [ 12.733078, -5.947261 ], [ 12.730298, -5.970729 ], [ 12.726033, -5.978996 ], [ 12.700368, -5.996389 ], [ 12.674112, -6.001977 ], [ 12.645437, -6.00078 ], [ 12.629785, -5.99474 ], [ 12.632356, -5.987411 ], [ 12.65199, -5.975106 ], [ 12.659357, -5.962931 ], [ 12.654907, -5.960239 ], [ 12.647234, -5.963756 ], [ 12.636422, -5.95593 ], [ 12.63298, -5.94305 ], [ 12.617522, -5.925455 ], [ 12.622343, -5.913974 ], [ 12.620906, -5.907548 ], [ 12.609244, -5.903364 ], [ 12.601091, -5.904589 ], [ 12.578605, -5.916734 ], [ 12.545072, -5.925559 ], [ 12.514168, -5.941298 ], [ 12.500965, -5.944 ], [ 12.484118, -5.964658 ], [ 12.472106, -5.972337 ], [ 12.442407, -5.979166 ], [ 12.420967, -5.980966 ], [ 12.402983, -5.98737 ], [ 12.399316, -5.990916 ], [ 12.396655, -6.001772 ], [ 12.336005, -5.927912 ], [ 12.294828, -5.891547 ], [ 12.236899, -5.824034 ], [ 12.195455, -5.763877 ], [ 12.205732, -5.754622 ], [ 12.212556, -5.755651 ], [ 12.217954, -5.752328 ], [ 12.248649, -5.752942 ], [ 12.263383, -5.745302 ], [ 12.288119, -5.737696 ], [ 12.536182, -5.736476 ], [ 12.536665, -5.187869 ], [ 12.5322, -5.181342 ], [ 12.527697, -5.171621 ], [ 12.531731, -5.16236 ], [ 12.532157, -5.142344 ], [ 12.524948, -5.139694 ], [ 12.517575, -5.131627 ], [ 12.501596, -5.141756 ], [ 12.497961, -5.141378 ], [ 12.479436, -5.119931 ], [ 12.471863, -5.120664 ], [ 12.475775, -5.108519 ], [ 12.462088, -5.100037 ], [ 12.463639, -5.093585 ], [ 12.470493, -5.088851 ], [ 12.464809, -5.081061 ], [ 12.497265, -5.063945 ], [ 12.503381, -5.048364 ], [ 12.52363, -5.047236 ], [ 12.542886, -5.053611 ], [ 12.545072, -5.051191 ], [ 12.556864, -5.038131 ], [ 12.564435, -5.046509 ], [ 12.567405, -5.036573 ], [ 12.582017, -5.02774 ], [ 12.587274, -5.023079 ], [ 12.601751, -5.026143 ], [ 12.607182, -5.024467 ], [ 12.605373, -5.018767 ], [ 12.607484, -5.01207 ], [ 12.616972, -5.001958 ], [ 12.62644, -4.982897 ], [ 12.627655, -4.971177 ], [ 12.623628, -4.959267 ], [ 12.627437, -4.950015 ], [ 12.63504, -4.952101 ], [ 12.644712, -4.946091 ], [ 12.652257, -4.946103 ], [ 12.660583, -4.949088 ], [ 12.66986, -4.959542 ], [ 12.680826, -4.959153 ], [ 12.687888, -4.953338 ], [ 12.702617, -4.950628 ], [ 12.711696, -4.955702 ], [ 12.720517, -4.950012 ], [ 12.728699, -4.932536 ], [ 12.72907, -4.911241 ], [ 12.739961, -4.894633 ], [ 12.743952, -4.890735 ], [ 12.759617, -4.875432 ], [ 12.768047, -4.876029 ], [ 12.777558, -4.871838 ], [ 12.786743, -4.873988 ], [ 12.792942, -4.863492 ], [ 12.795638, -4.851538 ], [ 12.805668, -4.849628 ], [ 12.814462, -4.841005 ], [ 12.812763, -4.83514 ], [ 12.806506, -4.836109 ], [ 12.80863, -4.827004 ], [ 12.820087, -4.817624 ], [ 12.831161, -4.792673 ], [ 12.828687, -4.782941 ], [ 12.836579, -4.774023 ], [ 12.846719, -4.770754 ], [ 12.853395, -4.757529 ], [ 12.85295, -4.75158 ], [ 12.857618, -4.752495 ], [ 12.865455, -4.76222 ], [ 12.871279, -4.763728 ], [ 12.874404, -4.760788 ], [ 12.871227, -4.750266 ], [ 12.879407, -4.743958 ], [ 12.895434, -4.735935 ], [ 12.903029, -4.735582 ], [ 12.909951, -4.738086 ], [ 12.9136, -4.745491 ], [ 12.921908, -4.747489 ], [ 12.936062, -4.730475 ], [ 12.943293, -4.723799 ], [ 12.955533, -4.723097 ], [ 12.970551, -4.717696 ], [ 12.977551, -4.710468 ], [ 12.98229, -4.705575 ], [ 13.007912, -4.70657 ], [ 13.030185, -4.714464 ], [ 13.035454, -4.698843 ], [ 13.050927, -4.676092 ], [ 13.07774, -4.689222 ], [ 13.086668, -4.686755 ], [ 13.096051, -4.691166 ], [ 13.101758, -4.685052 ], [ 13.110047, -4.674183 ], [ 13.108404, -4.664962 ], [ 13.099774, -4.654172 ], [ 13.100006, -4.631441 ], [ 13.096422, -4.6201 ], [ 13.104194, -4.617034 ], [ 13.106413, -4.597345 ], [ 13.119146, -4.583318 ], [ 13.131937, -4.586621 ], [ 13.140826, -4.595273 ], [ 13.153203, -4.622249 ], [ 13.168705, -4.627132 ], [ 13.18465, -4.640386 ], [ 13.19686, -4.656463 ], [ 13.205367, -4.677117 ], [ 13.219296, -4.678587 ], [ 13.235184, -4.699163 ], [ 13.247622, -4.705807 ], [ 13.251035, -4.711648 ], [ 13.249049, -4.725323 ], [ 13.255287, -4.740019 ], [ 13.266083, -4.744413 ], [ 13.275779, -4.76187 ], [ 13.285078, -4.769244 ], [ 13.298483, -4.7737 ], [ 13.302666, -4.779948 ], [ 13.307674, -4.783504 ], [ 13.323613, -4.783257 ], [ 13.331297, -4.786995 ], [ 13.338514, -4.78439 ], [ 13.359819, -4.795456 ], [ 13.379204, -4.800268 ], [ 13.38236, -4.805679 ], [ 13.381547, -4.814939 ], [ 13.371797, -4.816627 ], [ 13.370291, -4.821806 ], [ 13.384976, -4.847205 ], [ 13.394339, -4.852891 ], [ 13.401538, -4.86743 ], [ 13.408901, -4.872484 ], [ 13.413017, -4.870669 ], [ 13.415774, -4.861603 ], [ 13.43912, -4.862672 ], [ 13.454533, -4.850756 ], [ 13.468365, -4.85514 ], [ 13.470871, -4.846827 ], [ 13.482278, -4.845242 ], [ 13.491208, -4.828123 ], [ 13.511674, -4.825886 ], [ 13.511357, -4.813415 ], [ 13.520634, -4.808453 ], [ 13.514412, -4.795794 ], [ 13.519416, -4.786375 ], [ 13.503649, -4.772654 ], [ 13.507442, -4.753079 ], [ 13.513486, -4.747884 ], [ 13.517682, -4.749026 ], [ 13.529127, -4.761004 ], [ 13.536334, -4.752143 ], [ 13.543262, -4.754921 ], [ 13.549307, -4.77303 ], [ 13.555086, -4.777404 ], [ 13.559989, -4.788008 ], [ 13.577693, -4.802712 ], [ 13.584876, -4.804938 ], [ 13.589713, -4.80346 ], [ 13.596625, -4.795235 ], [ 13.60717, -4.795662 ], [ 13.621816, -4.782756 ], [ 13.622373, -4.762161 ], [ 13.62528, -4.758 ], [ 13.634991, -4.753919 ], [ 13.622913, -4.742025 ], [ 13.622304, -4.738099 ], [ 13.629923, -4.740716 ], [ 13.640467, -4.73618 ], [ 13.647421, -4.736278 ], [ 13.657028, -4.750095 ], [ 13.663117, -4.75704 ], [ 13.673825, -4.758084 ], [ 13.676874, -4.765727 ], [ 13.681472, -4.767012 ], [ 13.684478, -4.761743 ], [ 13.683981, -4.752035 ], [ 13.690138, -4.747939 ], [ 13.695409, -4.749191 ], [ 13.698231, -4.745048 ], [ 13.677356, -4.718274 ], [ 13.67609, -4.708178 ], [ 13.68967, -4.704423 ], [ 13.712112, -4.711724 ], [ 13.722968, -4.705136 ], [ 13.721917, -4.695962 ], [ 13.725123, -4.687665 ], [ 13.722935, -4.679275 ], [ 13.710162, -4.672962 ], [ 13.692574, -4.658208 ], [ 13.690795, -4.651988 ], [ 13.694174, -4.641822 ], [ 13.704674, -4.641511 ], [ 13.717455, -4.636284 ], [ 13.71826, -4.631573 ], [ 13.712808, -4.6262 ], [ 13.709114, -4.613485 ], [ 13.717609, -4.609464 ], [ 13.728976, -4.588408 ], [ 13.730161, -4.565659 ], [ 13.725638, -4.556616 ], [ 13.731544, -4.547278 ], [ 13.729716, -4.530347 ], [ 13.735162, -4.523341 ], [ 13.73169, -4.517134 ], [ 13.732315, -4.50357 ], [ 13.722695, -4.489037 ], [ 13.724312, -4.455799 ], [ 13.733161, -4.445818 ], [ 13.759017, -4.44369 ], [ 13.780671, -4.424271 ], [ 13.804423, -4.423347 ], [ 13.812693, -4.428203 ], [ 13.821312, -4.426231 ], [ 13.82453, -4.428124 ], [ 13.838826, -4.4423 ], [ 13.839078, -4.458758 ], [ 13.849191, -4.468381 ], [ 13.855783, -4.465244 ], [ 13.858586, -4.466713 ], [ 13.856673, -4.494989 ], [ 13.881737, -4.507641 ], [ 13.904688, -4.504271 ], [ 13.920362, -4.515495 ], [ 13.948859, -4.513625 ], [ 13.957978, -4.502809 ], [ 13.966369, -4.499491 ], [ 13.997397, -4.466936 ], [ 14.008593, -4.441689 ], [ 14.051575, -4.411331 ], [ 14.074661, -4.405878 ], [ 14.099398, -4.413782 ], [ 14.139797, -4.399026 ], [ 14.151933, -4.391725 ], [ 14.157474, -4.392395 ], [ 14.163637, -4.398675 ], [ 14.177435, -4.396116 ], [ 14.189554, -4.389839 ], [ 14.194855, -4.380167 ], [ 14.210417, -4.380659 ], [ 14.225327, -4.367565 ], [ 14.238175, -4.368028 ], [ 14.248711, -4.364179 ], [ 14.259997, -4.344948 ], [ 14.28688, -4.322897 ], [ 14.306193, -4.325912 ], [ 14.310004, -4.32411 ], [ 14.314075, -4.315641 ], [ 14.321047, -4.316984 ], [ 14.328814, -4.313704 ], [ 14.34072, -4.317082 ], [ 14.348853, -4.316262 ], [ 14.355086, -4.308879 ], [ 14.356033, -4.294464 ], [ 14.399439, -4.279917 ], [ 14.406246, -4.282578 ], [ 14.40867, -4.289464 ], [ 14.407128, -4.307287 ], [ 14.402687, -4.320254 ], [ 14.391839, -4.3344 ], [ 14.395665, -4.34224 ], [ 14.395869, -4.358596 ], [ 14.425489, -4.396751 ], [ 14.450216, -4.416562 ], [ 14.475587, -4.429921 ], [ 14.478875, -4.434827 ], [ 14.460989, -4.466179 ], [ 14.437013, -4.492748 ], [ 14.4321, -4.509456 ], [ 14.406138, -4.517134 ], [ 14.401126, -4.517583 ], [ 14.386864, -4.528566 ], [ 14.381853, -4.540208 ], [ 14.367412, -4.536411 ], [ 14.361205, -4.5375 ], [ 14.352758, -4.553286 ], [ 14.383246, -4.598657 ], [ 14.386248, -4.619782 ], [ 14.391576, -4.633612 ], [ 14.39757, -4.638119 ], [ 14.411442, -4.640649 ], [ 14.418214, -4.649183 ], [ 14.413723, -4.683932 ], [ 14.407058, -4.706187 ], [ 14.403443, -4.744202 ], [ 14.404512, -4.757825 ], [ 14.413141, -4.780318 ], [ 14.408956, -4.790674 ], [ 14.400301, -4.797654 ], [ 14.39727, -4.804438 ], [ 14.404515, -4.835028 ], [ 14.398561, -4.856644 ], [ 14.414096, -4.890735 ], [ 14.415043, -4.893614 ], [ 14.42005, -4.89259 ], [ 14.422167, -4.890735 ], [ 14.439206, -4.87581 ], [ 14.448505, -4.873424 ], [ 14.461062, -4.865419 ], [ 14.474953, -4.846533 ], [ 14.485224, -4.845295 ], [ 14.492361, -4.844435 ], [ 14.503178, -4.855384 ], [ 14.527688, -4.86226 ], [ 14.550323, -4.861294 ], [ 14.55866, -4.864171 ], [ 14.581632, -4.886241 ], [ 14.582522, -4.890735 ], [ 14.583977, -4.898082 ], [ 14.588272, -4.901503 ], [ 14.602151, -4.902869 ], [ 14.607066, -4.903353 ], [ 14.646204, -4.921313 ], [ 14.660012, -4.919659 ], [ 14.689622, -4.911429 ], [ 14.716121, -4.890735 ], [ 14.766622, -4.851458 ], [ 14.797673, -4.837452 ], [ 14.816346, -4.83469 ], [ 14.831653, -4.825409 ], [ 14.844671, -4.810637 ], [ 14.852037, -4.790876 ], [ 14.863258, -4.778765 ], [ 14.869875, -4.751629 ], [ 14.883894, -4.728279 ], [ 14.891045, -4.704927 ], [ 14.903515, -4.681837 ], [ 14.981955, -4.60738 ], [ 14.990616, -4.587291 ], [ 15.028293, -4.54249 ], [ 15.04285, -4.536349 ], [ 15.053801, -4.523111 ], [ 15.063238, -4.517134 ], [ 15.073968, -4.510338 ], [ 15.104752, -4.482922 ], [ 15.140209, -4.422736 ], [ 15.173932, -4.389875 ], [ 15.17622, -4.366468 ], [ 15.182546, -4.356548 ], [ 15.18858, -4.334762 ], [ 15.195623, -4.326045 ], [ 15.204622, -4.324211 ], [ 15.215704, -4.327084 ], [ 15.232168, -4.318889 ], [ 15.256037, -4.313453 ], [ 15.276678, -4.293116 ], [ 15.327899, -4.270523 ], [ 15.400477, -4.284719 ], [ 15.431652, -4.273181 ], [ 15.476622, -4.229488 ], [ 15.474711, -4.213885 ], [ 15.479021, -4.202301 ], [ 15.482196, -4.176857 ], [ 15.4749, -4.14936 ], [ 15.505778, -4.104675 ], [ 15.510764, -4.088197 ], [ 15.51967, -4.073368 ], [ 15.556941, -4.037241 ], [ 15.573623, -4.029179 ], [ 15.680294, -3.995849 ], [ 15.738155, -3.986091 ], [ 15.759569, -3.983937 ], [ 15.813183, -3.978544 ], [ 15.849542, -3.964721 ], [ 15.880793, -3.956747 ], [ 15.8939, -3.94554 ], [ 15.904812, -3.929859 ], [ 15.915079, -3.909649 ], [ 15.926503, -3.855958 ], [ 15.950869, -3.81002 ], [ 15.966964, -3.772062 ], [ 15.986885, -3.744502 ], [ 16.012695, -3.685979 ], [ 16.029973, -3.653878 ], [ 16.03707, -3.629251 ], [ 16.050412, -3.605916 ], [ 16.090977, -3.557252 ], [ 16.116004, -3.50297 ], [ 16.123423, -3.472876 ], [ 16.161142, -3.425783 ], [ 16.180151, -3.38873 ], [ 16.194798, -3.368368 ], [ 16.207273, -3.321064 ], [ 16.214993, -3.308637 ], [ 16.209947, -3.280229 ], [ 16.187713, -3.26548 ], [ 16.179628, -3.253979 ], [ 16.177261, -3.225461 ], [ 16.187199, -3.191876 ], [ 16.171574, -3.126243 ], [ 16.172102, -3.077876 ], [ 16.181767, -3.058803 ], [ 16.18503, -3.035777 ], [ 16.192743, -3.013323 ], [ 16.178486, -2.959666 ], [ 16.173845, -2.924093 ], [ 16.176463, -2.868577 ], [ 16.197985, -2.794033 ], [ 16.193938, -2.757923 ], [ 16.202881, -2.711544 ], [ 16.217351, -2.687029 ], [ 16.227991, -2.656549 ], [ 16.233544, -2.60016 ], [ 16.220283, -2.566478 ], [ 16.181213, -2.404201 ], [ 16.175643, -2.266105 ], [ 16.188442, -2.187017 ], [ 16.214054, -2.153311 ], [ 16.221838, -2.126116 ], [ 16.303506, -2.07984 ], [ 16.339886, -2.050588 ], [ 16.418124, -1.942674 ], [ 16.514435, -1.871557 ], [ 16.545554, -1.853686 ], [ 16.556536, -1.840358 ], [ 16.561038, -1.800314 ], [ 16.570493, -1.77263 ], [ 16.573836, -1.733407 ], [ 16.591617, -1.709473 ], [ 16.637064, -1.628575 ], [ 16.718781, -1.445767 ], [ 16.751306, -1.396305 ], [ 16.840824, -1.260166 ], [ 16.994026, -1.144145 ], [ 17.010567, -1.126156 ], [ 17.108761, -1.065238 ], [ 17.155005, -1.053359 ], [ 17.174077, -1.053321 ], [ 17.19697, -1.049291 ], [ 17.237508, -1.023039 ], [ 17.267015, -0.997711 ], [ 17.283579, -0.990912 ], [ 17.341991, -0.987826 ], [ 17.35374, -0.983944 ], [ 17.393899, -0.903366 ], [ 17.413185, -0.887981 ], [ 17.426165, -0.85905 ], [ 17.436414, -0.824036 ], [ 17.44953, -0.80627 ], [ 17.473658, -0.792803 ], [ 17.499089, -0.754624 ], [ 17.551274, -0.729447 ], [ 17.565932, -0.702275 ], [ 17.567645, -0.700993 ], [ 17.584068, -0.688711 ], [ 17.62171, -0.675325 ], [ 17.639828, -0.671866 ], [ 17.659943, -0.656913 ], [ 17.680542, -0.61723 ], [ 17.694452, -0.600062 ], [ 17.703643, -0.581267 ], [ 17.710227, -0.519453 ], [ 17.705373, -0.490039 ], [ 17.705279, -0.464309 ], [ 17.713826, -0.42154 ], [ 17.718361, -0.365635 ], [ 17.712509, -0.350986 ], [ 17.697938, -0.338115 ], [ 17.695048, -0.325658 ], [ 17.681628, -0.313209 ], [ 17.669729, -0.28387 ], [ 17.672573, -0.263333 ], [ 17.677738, -0.252087 ], [ 17.67985, -0.219245 ], [ 17.672982, -0.191507 ], [ 17.673918, -0.177867 ], [ 17.701944, -0.120436 ], [ 17.734586, -0.088686 ], [ 17.75072, -0.066914 ], [ 17.747976, -0.046578 ], [ 17.750073, -0.014323 ], [ 17.759706, 0.03364 ], [ 17.763471, 0.072363 ], [ 17.76814, 0.087095 ], [ 17.767881, 0.114217 ], [ 17.776985, 0.147867 ], [ 17.809464, 0.199574 ], [ 17.820549, 0.22958 ], [ 17.824765, 0.240994 ], [ 17.845743, 0.259611 ], [ 17.884397, 0.279943 ], [ 17.915371, 0.304992 ], [ 17.919013, 0.314111 ], [ 17.916838, 0.32418 ], [ 17.930284, 0.337582 ], [ 17.936357, 0.343635 ], [ 17.944181, 0.359052 ], [ 17.959183, 0.377344 ], [ 17.962341, 0.387488 ], [ 17.949997, 0.411796 ], [ 17.959105, 0.480299 ], [ 17.949595, 0.495392 ], [ 17.943455, 0.523312 ], [ 17.930284, 0.53489 ], [ 17.922723, 0.54086 ], [ 17.887826, 0.554897 ], [ 17.879725, 0.564372 ], [ 17.873049, 0.579645 ], [ 17.877094, 0.636272 ], [ 17.869863, 0.661301 ], [ 17.877033, 0.68515 ], [ 17.875288, 0.692567 ], [ 17.866364, 0.705327 ], [ 17.870442, 0.725753 ], [ 17.867598, 0.751252 ], [ 17.875309, 0.8515 ], [ 17.867847, 0.868951 ], [ 17.855488, 0.880107 ], [ 17.84739, 0.893316 ], [ 17.840622, 0.93489 ], [ 17.842109, 0.967149 ], [ 17.852333, 0.993846 ], [ 17.85055, 1.019996 ], [ 17.861223, 1.037582 ], [ 17.862375, 1.058861 ], [ 17.878573, 1.08015 ], [ 17.882635, 1.095392 ], [ 17.916389, 1.128205 ], [ 17.917939, 1.142302 ], [ 17.915109, 1.156712 ], [ 17.920239, 1.178229 ], [ 17.927275, 1.191994 ], [ 17.930284, 1.20893 ], [ 17.943118, 1.228158 ], [ 17.939678, 1.240447 ], [ 17.941775, 1.26505 ], [ 17.951886, 1.280626 ], [ 17.947716, 1.297687 ], [ 17.95255, 1.31735 ], [ 17.957864, 1.324361 ], [ 17.972987, 1.334455 ], [ 17.974773, 1.353015 ], [ 18.00223, 1.396762 ], [ 18.002422, 1.414255 ], [ 18.023898, 1.429144 ], [ 18.044038, 1.450603 ], [ 18.057073, 1.505118 ], [ 18.069516, 1.525201 ], [ 18.074351, 1.557333 ], [ 18.06656, 1.574399 ], [ 18.074962, 1.591709 ], [ 18.071156, 1.603858 ], [ 18.07179, 1.625763 ], [ 18.079574, 1.643903 ], [ 18.07872, 1.659099 ], [ 18.069455, 1.676825 ], [ 18.073467, 1.694139 ], [ 18.069924, 1.714602 ], [ 18.074294, 1.752744 ], [ 18.070572, 1.767666 ], [ 18.062316, 1.774467 ], [ 18.061869, 1.781862 ], [ 18.067469, 1.789453 ], [ 18.054669, 1.812554 ], [ 18.053042, 1.826624 ], [ 18.059005, 1.857702 ], [ 18.056143, 1.866368 ], [ 18.061494, 1.888658 ], [ 18.073588, 1.898335 ], [ 18.082282, 1.921058 ], [ 18.090879, 1.930632 ], [ 18.09149, 1.947056 ], [ 18.096193, 1.963035 ], [ 18.092304, 1.972583 ], [ 18.078456, 1.980477 ], [ 18.076488, 1.984158 ], [ 18.080285, 1.994259 ], [ 18.077127, 2.009366 ], [ 18.080144, 2.026295 ], [ 18.076611, 2.060766 ], [ 18.081028, 2.077357 ], [ 18.077582, 2.142957 ], [ 18.087897, 2.18967 ], [ 18.087797, 2.202705 ], [ 18.09378, 2.222705 ], [ 18.092046, 2.245287 ], [ 18.094652, 2.270837 ], [ 18.116507, 2.293779 ], [ 18.13981, 2.301882 ], [ 18.185595, 2.344504 ], [ 18.1869, 2.35253 ], [ 18.183635, 2.37025 ], [ 18.19965, 2.387584 ], [ 18.202606, 2.40869 ], [ 18.208002, 2.416316 ], [ 18.217685, 2.430003 ], [ 18.220248, 2.441925 ], [ 18.243737, 2.47045 ], [ 18.249241, 2.491804 ], [ 18.266198, 2.53163 ], [ 18.271398, 2.537224 ], [ 18.292719, 2.548446 ], [ 18.293372, 2.559772 ], [ 18.301893, 2.566867 ], [ 18.311593, 2.583936 ], [ 18.322282, 2.592071 ], [ 18.343838, 2.626554 ], [ 18.343823, 2.652396 ], [ 18.35245, 2.66015 ], [ 18.364927, 2.684221 ], [ 18.381761, 2.698351 ], [ 18.387426, 2.705891 ], [ 18.402446, 2.725887 ], [ 18.422326, 2.758178 ], [ 18.425454, 2.766509 ], [ 18.42437, 2.777617 ], [ 18.4283, 2.797183 ], [ 18.446222, 2.836223 ], [ 18.450608, 2.885985 ], [ 18.473757, 2.924326 ], [ 18.492268, 2.974825 ], [ 18.524188, 3.015006 ], [ 18.526773, 3.028762 ], [ 18.518795, 3.037403 ], [ 18.522289, 3.045705 ], [ 18.548111, 3.07841 ], [ 18.563165, 3.083474 ], [ 18.590861, 3.103118 ], [ 18.604909, 3.137695 ], [ 18.629039, 3.184998 ], [ 18.63861, 3.21139 ], [ 18.639998, 3.232157 ], [ 18.646541, 3.242425 ], [ 18.643815, 3.261055 ], [ 18.646862, 3.272297 ], [ 18.6435, 3.318632 ], [ 18.636388, 3.364016 ], [ 18.629561, 3.385577 ], [ 18.634573, 3.399445 ], [ 18.635865, 3.428066 ], [ 18.625083, 3.471647 ], [ 18.623416, 3.491022 ], [ 18.613512, 3.510031 ], [ 18.606055, 3.533904 ], [ 18.607536, 3.566 ], [ 18.603727, 3.602843 ], [ 18.6047, 3.61943 ], [ 18.592358, 3.669748 ], [ 18.588044, 3.744169 ], [ 18.591082, 3.768988 ], [ 18.614737, 3.818317 ], [ 18.611108, 3.855053 ], [ 18.616974, 3.916271 ], [ 18.62291, 3.934361 ], [ 18.638657, 3.950622 ], [ 18.645855, 3.962292 ], [ 18.650769, 3.98007 ], [ 18.651921, 3.994328 ], [ 18.64325, 4.105027 ], [ 18.631248, 4.127397 ], [ 18.617451, 4.17687 ], [ 18.605048, 4.203355 ], [ 18.599996, 4.221678 ], [ 18.586297, 4.232612 ], [ 18.563889, 4.264206 ], [ 18.544958, 4.306113 ], [ 18.542929, 4.319447 ], [ 18.55236, 4.340529 ], [ 18.558121, 4.346437 ], [ 18.588165, 4.357011 ], [ 18.600205, 4.369685 ], [ 18.607929, 4.36884 ], [ 18.621811, 4.357038 ], [ 18.639617, 4.361195 ], [ 18.700499, 4.365094 ], [ 18.721237, 4.372247 ], [ 18.755691, 4.397005 ], [ 18.782753, 4.42564 ], [ 18.800337, 4.463392 ], [ 18.818719, 4.55094 ], [ 18.82774, 4.571714 ], [ 18.862463, 4.604287 ], [ 18.875176, 4.611388 ], [ 18.882057, 4.625099 ], [ 18.888953, 4.644228 ], [ 18.904118, 4.648506 ], [ 18.936849, 4.677831 ], [ 18.939892, 4.688479 ], [ 18.9378, 4.698585 ], [ 18.955058, 4.709989 ], [ 18.967297, 4.724672 ], [ 19.001811, 4.747938 ], [ 19.007605, 4.756838 ], [ 19.007027, 4.767954 ], [ 19.01235, 4.781596 ], [ 19.017876, 4.79576 ], [ 19.027641, 4.800228 ], [ 19.05151, 4.836365 ], [ 19.05979, 4.856326 ], [ 19.064009, 4.874332 ], [ 19.06853, 4.882471 ], [ 19.08109, 4.905081 ], [ 19.093999, 4.924528 ], [ 19.111301, 4.93734 ], [ 19.132964, 4.947083 ], [ 19.156537, 4.949009 ], [ 19.170114, 4.948341 ], [ 19.186822, 4.942888 ], [ 19.201866, 4.947673 ], [ 19.212185, 4.958029 ], [ 19.221138, 4.993604 ], [ 19.234654, 5.005824 ], [ 19.250674, 5.016292 ], [ 19.264904, 5.021808 ], [ 19.281512, 5.028552 ], [ 19.313577, 5.050486 ], [ 19.346619, 5.064374 ], [ 19.371839, 5.097446 ], [ 19.394533, 5.116867 ], [ 19.428601, 5.129476 ], [ 19.455388, 5.129351 ], [ 19.47961, 5.121873 ], [ 19.51314, 5.13609 ], [ 19.532834, 5.148469 ], [ 19.549784, 5.151867 ], [ 19.574018, 5.148544 ], [ 19.612133, 5.133467 ], [ 19.642215, 5.140374 ], [ 19.64701, 5.141475 ], [ 19.688744, 5.142087 ], [ 19.733006, 5.123891 ], [ 19.740556, 5.121844 ], [ 19.807535, 5.103677 ], [ 19.8293, 5.093799 ], [ 19.852413, 5.07231 ], [ 19.858195, 5.056795 ], [ 19.874132, 5.029461 ], [ 19.885252, 5.012485 ], [ 19.901359, 4.995787 ], [ 19.919788, 4.986403 ], [ 19.935654, 4.983683 ], [ 19.955992, 4.987645 ], [ 20.012382, 4.974289 ], [ 20.034669, 4.961539 ], [ 20.055641, 4.935837 ], [ 20.085303, 4.914084 ], [ 20.088899, 4.911447 ], [ 20.107528, 4.900682 ], [ 20.155537, 4.882471 ], [ 20.163892, 4.879302 ], [ 20.178339, 4.867783 ], [ 20.190529, 4.845951 ], [ 20.208522, 4.82519 ], [ 20.239224, 4.801532 ], [ 20.261122, 4.789248 ], [ 20.281816, 4.781596 ], [ 20.324787, 4.767902 ], [ 20.338318, 4.763209 ], [ 20.352819, 4.752781 ], [ 20.384182, 4.701451 ], [ 20.399025, 4.68765 ], [ 20.419255, 4.66028 ], [ 20.452264, 4.628359 ], [ 20.457329, 4.598591 ], [ 20.449604, 4.572949 ], [ 20.448309, 4.558763 ], [ 20.462903, 4.513459 ], [ 20.477768, 4.497985 ], [ 20.513335, 4.47513 ], [ 20.538821, 4.444344 ], [ 20.563367, 4.426242 ], [ 20.581963, 4.416705 ], [ 20.618843, 4.413605 ], [ 20.715282, 4.427989 ], [ 20.762602, 4.420814 ], [ 20.785328, 4.421081 ], [ 20.80573, 4.425552 ], [ 20.836504, 4.443853 ], [ 20.860249, 4.446395 ], [ 20.94033, 4.435696 ], [ 21.076161, 4.397041 ], [ 21.095954, 4.379859 ], [ 21.116652, 4.348652 ], [ 21.17145, 4.312264 ], [ 21.191343, 4.30953 ], [ 21.21398, 4.295321 ], [ 21.22561, 4.296072 ], [ 21.235711, 4.304249 ], [ 21.241352, 4.322774 ], [ 21.250061, 4.334662 ], [ 21.281207, 4.341893 ], [ 21.291886, 4.337014 ], [ 21.335407, 4.296028 ], [ 21.356443, 4.284752 ], [ 21.401133, 4.276461 ], [ 21.442063, 4.279713 ], [ 21.463974, 4.273704 ], [ 21.487151, 4.262681 ], [ 21.512116, 4.260046 ], [ 21.544058, 4.252197 ], [ 21.567961, 4.25641 ], [ 21.593702, 4.279537 ], [ 21.641644, 4.308737 ], [ 21.651637, 4.308913 ], [ 21.675189, 4.300746 ], [ 21.692025, 4.304438 ], [ 21.707224, 4.302166 ], [ 21.731155, 4.308775 ], [ 21.757748, 4.295414 ], [ 21.805929, 4.279106 ], [ 21.857255, 4.248605 ], [ 21.931099, 4.241158 ], [ 21.951952, 4.234257 ], [ 21.982398, 4.24446 ], [ 21.996635, 4.245302 ], [ 22.01055, 4.238655 ], [ 22.031062, 4.223402 ], [ 22.099825, 4.210411 ], [ 22.122762, 4.196421 ], [ 22.153224, 4.170511 ], [ 22.192989, 4.148438 ], [ 22.250759, 4.125262 ], [ 22.277614, 4.119293 ], [ 22.332063, 4.120873 ], [ 22.371928, 4.116897 ], [ 22.409723, 4.126014 ], [ 22.435876, 4.128984 ], [ 22.459851, 4.138194 ], [ 22.483141, 4.154914 ], [ 22.491412, 4.167196 ], [ 22.504998, 4.177783 ], [ 22.513824, 4.19254 ], [ 22.532577, 4.204073 ], [ 22.541462, 4.213703 ], [ 22.549482, 4.240192 ], [ 22.541036, 4.258274 ], [ 22.540552, 4.274263 ], [ 22.565061, 4.328004 ], [ 22.577321, 4.344023 ], [ 22.603227, 4.356192 ], [ 22.618785, 4.372054 ], [ 22.611954, 4.382194 ], [ 22.588775, 4.392911 ], [ 22.583516, 4.404584 ], [ 22.584558, 4.415668 ], [ 22.594739, 4.433036 ], [ 22.595096, 4.450826 ], [ 22.601673, 4.47669 ], [ 22.612425, 4.488585 ], [ 22.621331, 4.491532 ], [ 22.649126, 4.487726 ], [ 22.678361, 4.477358 ], [ 22.69788, 4.483506 ], [ 22.701839, 4.491183 ], [ 22.700697, 4.511966 ], [ 22.703851, 4.524005 ], [ 22.728773, 4.559525 ], [ 22.728493, 4.589234 ], [ 22.734383, 4.626926 ], [ 22.764216, 4.675829 ], [ 22.775753, 4.705254 ], [ 22.786152, 4.719807 ], [ 22.798296, 4.726577 ], [ 22.811949, 4.726441 ], [ 22.822682, 4.721613 ], [ 22.837896, 4.704349 ], [ 22.852021, 4.70652 ], [ 22.862288, 4.715398 ], [ 22.871064, 4.738656 ], [ 22.896775, 4.758482 ], [ 22.896139, 4.763111 ], [ 22.887202, 4.772532 ], [ 22.884191, 4.78207 ], [ 22.885876, 4.797409 ], [ 22.892367, 4.810721 ], [ 22.906823, 4.819685 ], [ 22.925443, 4.816468 ], [ 22.943634, 4.819542 ], [ 22.964759, 4.838295 ], [ 22.971331, 4.837262 ], [ 22.980818, 4.827575 ], [ 23.008648, 4.758528 ], [ 23.035799, 4.751668 ], [ 23.059029, 4.737636 ], [ 23.076462, 4.71983 ], [ 23.090606, 4.715155 ], [ 23.11195, 4.713353 ], [ 23.157792, 4.740081 ], [ 23.174733, 4.740798 ], [ 23.19457, 4.726633 ], [ 23.20718, 4.699815 ], [ 23.221488, 4.689274 ], [ 23.23358, 4.674661 ], [ 23.252039, 4.674965 ], [ 23.263309, 4.668677 ], [ 23.274725, 4.634584 ], [ 23.296498, 4.631167 ], [ 23.314502, 4.615588 ], [ 23.329508, 4.607127 ], [ 23.346765, 4.612274 ], [ 23.361649, 4.611668 ], [ 23.381401, 4.596165 ], [ 23.417125, 4.594032 ], [ 23.424997, 4.596339 ], [ 23.429395, 4.602385 ], [ 23.434661, 4.650204 ], [ 23.456879, 4.674235 ], [ 23.500209, 4.678592 ], [ 23.520231, 4.692485 ], [ 23.535892, 4.69783 ], [ 23.545215, 4.71276 ], [ 23.558414, 4.721575 ], [ 23.565287, 4.736479 ], [ 23.574724, 4.740434 ], [ 23.592646, 4.761264 ], [ 23.612855, 4.757867 ], [ 23.632423, 4.764734 ], [ 23.67366, 4.765538 ], [ 23.704816, 4.783076 ], [ 23.717453, 4.786482 ], [ 23.757991, 4.783328 ], [ 23.776334, 4.785756 ], [ 23.797273, 4.807986 ], [ 23.819445, 4.822048 ], [ 23.835884, 4.824208 ], [ 23.853967, 4.816828 ], [ 23.866953, 4.817945 ], [ 23.888601, 4.834466 ], [ 23.906259, 4.829699 ], [ 23.918565, 4.819822 ], [ 23.925816, 4.818155 ], [ 23.95337, 4.811875 ], [ 23.956904, 4.813208 ], [ 23.95973, 4.828401 ], [ 23.952452, 4.853319 ], [ 23.95551, 4.865989 ], [ 23.963606, 4.874953 ], [ 23.97236, 4.875438 ], [ 23.99295, 4.86744 ], [ 24.008895, 4.864948 ], [ 24.041082, 4.866407 ], [ 24.048219, 4.872269 ], [ 24.056198, 4.887278 ], [ 24.110407, 4.915995 ], [ 24.119272, 4.913338 ], [ 24.138052, 4.896841 ], [ 24.153086, 4.89498 ], [ 24.165917, 4.902067 ], [ 24.18041, 4.929893 ], [ 24.204588, 4.94217 ], [ 24.215142, 4.95249 ], [ 24.223342, 4.955803 ], [ 24.241835, 4.953508 ], [ 24.243888, 4.941503 ], [ 24.25087, 4.934634 ], [ 24.267868, 4.937603 ], [ 24.275927, 4.952364 ], [ 24.269956, 4.973675 ], [ 24.279853, 4.99098 ], [ 24.294684, 4.998623 ], [ 24.315671, 5.003287 ], [ 24.333115, 5.010928 ], [ 24.35193, 5.008457 ], [ 24.36483, 5.010275 ], [ 24.376381, 5.021957 ], [ 24.39759, 5.033581 ], [ 24.397707, 5.042288 ], [ 24.385297, 5.052117 ], [ 24.374755, 5.052414 ], [ 24.354469, 5.047134 ], [ 24.343357, 5.057464 ], [ 24.34668, 5.06638 ], [ 24.361412, 5.074392 ], [ 24.364755, 5.097627 ], [ 24.37786, 5.111994 ], [ 24.393078, 5.109574 ], [ 24.408371, 5.10158 ], [ 24.41663, 5.093042 ], [ 24.424075, 5.076912 ], [ 24.442505, 5.058092 ], [ 24.45125, 5.061766 ], [ 24.453375, 5.070055 ], [ 24.444601, 5.087161 ], [ 24.444465, 5.095639 ], [ 24.462025, 5.103069 ], [ 24.497328, 5.094647 ], [ 24.512604, 5.085411 ], [ 24.537433, 5.077089 ], [ 24.551413, 5.051763 ], [ 24.56604, 5.03692 ], [ 24.577393, 5.031854 ], [ 24.60355, 5.030257 ], [ 24.620671, 5.019642 ], [ 24.632916, 4.978668 ], [ 24.658616, 4.9757 ], [ 24.668655, 4.967663 ], [ 24.671999, 4.951126 ], [ 24.669511, 4.939538 ], [ 24.660271, 4.924519 ], [ 24.663744, 4.916959 ], [ 24.677354, 4.910059 ], [ 24.713648, 4.911119 ], [ 24.719219, 4.907011 ], [ 24.72517, 4.896 ], [ 24.750405, 4.898931 ], [ 24.763434, 4.909442 ], [ 24.767001, 4.90679 ], [ 24.768077, 4.897069 ], [ 24.777839, 4.896163 ], [ 24.801414, 4.925903 ], [ 24.815976, 4.928365 ], [ 24.847282, 4.925617 ], [ 24.860016, 4.936891 ], [ 24.860107, 4.947643 ], [ 24.863042, 4.952275 ], [ 24.878086, 4.950101 ], [ 24.909586, 4.952638 ], [ 24.915112, 4.957657 ], [ 24.923291, 4.97508 ], [ 24.956458, 4.986619 ], [ 24.968142, 4.984767 ], [ 24.984014, 4.976465 ], [ 24.998926, 4.959231 ], [ 25.012372, 4.959708 ], [ 25.024354, 4.956269 ], [ 25.041845, 4.942837 ], [ 25.048948, 4.932126 ], [ 25.061512, 4.928325 ], [ 25.08621, 4.976857 ], [ 25.120823, 4.988344 ], [ 25.12422, 5.000428 ], [ 25.123733, 5.011498 ], [ 25.141716, 5.018426 ], [ 25.149913, 5.027878 ], [ 25.158632, 5.023488 ], [ 25.168076, 5.004331 ], [ 25.18649, 5.000663 ], [ 25.201504, 5.013915 ], [ 25.226833, 5.012258 ], [ 25.238548, 5.016597 ], [ 25.251144, 5.026339 ], [ 25.269463, 5.025779 ], [ 25.309157, 5.031484 ], [ 25.321737, 5.040113 ], [ 25.324822, 5.046787 ], [ 25.321192, 5.075534 ], [ 25.341758, 5.108875 ], [ 25.346526, 5.149867 ], [ 25.343309, 5.152989 ], [ 25.323958, 5.154412 ], [ 25.315584, 5.165866 ], [ 25.309682, 5.189304 ], [ 25.328077, 5.209709 ], [ 25.334837, 5.257415 ], [ 25.343044, 5.273219 ], [ 25.353792, 5.282304 ], [ 25.364975, 5.282252 ], [ 25.373972, 5.29124 ], [ 25.370489, 5.302247 ], [ 25.35891, 5.302156 ], [ 25.358769, 5.31065 ], [ 25.363783, 5.314214 ], [ 25.386209, 5.319321 ], [ 25.391393, 5.336869 ], [ 25.39663, 5.333374 ], [ 25.397765, 5.323122 ], [ 25.403266, 5.313558 ], [ 25.420397, 5.31261 ], [ 25.421393, 5.321941 ], [ 25.428525, 5.327319 ], [ 25.433939, 5.338793 ], [ 25.450821, 5.344269 ], [ 25.467183, 5.345516 ], [ 25.477676, 5.36193 ], [ 25.489118, 5.356809 ], [ 25.500128, 5.345923 ], [ 25.516849, 5.354051 ], [ 25.537196, 5.358437 ], [ 25.541045, 5.363978 ], [ 25.530225, 5.379154 ], [ 25.529349, 5.386646 ], [ 25.532671, 5.390244 ], [ 25.549814, 5.380673 ], [ 25.568182, 5.380746 ], [ 25.57651, 5.377889 ], [ 25.58024, 5.371574 ], [ 25.579908, 5.360189 ], [ 25.590325, 5.350831 ], [ 25.610113, 5.352822 ], [ 25.618475, 5.350888 ], [ 25.617866, 5.345301 ], [ 25.604177, 5.337363 ], [ 25.59705, 5.326449 ], [ 25.601539, 5.323123 ], [ 25.617209, 5.321816 ], [ 25.628023, 5.306984 ], [ 25.635108, 5.308641 ], [ 25.633006, 5.319205 ], [ 25.63555, 5.326779 ], [ 25.646934, 5.330598 ], [ 25.65669, 5.32498 ], [ 25.65855, 5.310812 ], [ 25.668945, 5.313419 ], [ 25.677719, 5.307821 ], [ 25.704639, 5.300653 ], [ 25.716579, 5.271971 ], [ 25.735346, 5.268336 ], [ 25.741898, 5.242915 ], [ 25.758821, 5.247084 ], [ 25.776152, 5.256355 ], [ 25.778936, 5.263483 ], [ 25.769961, 5.265722 ], [ 25.768628, 5.268863 ], [ 25.778083, 5.277369 ], [ 25.785768, 5.276634 ], [ 25.79075, 5.270251 ], [ 25.792247, 5.259158 ], [ 25.783858, 5.242571 ], [ 25.790179, 5.241409 ], [ 25.805677, 5.250057 ], [ 25.81198, 5.249906 ], [ 25.802809, 5.222198 ], [ 25.812754, 5.220343 ], [ 25.828704, 5.194401 ], [ 25.836011, 5.198815 ], [ 25.841442, 5.213759 ], [ 25.847665, 5.219925 ], [ 25.861412, 5.225479 ], [ 25.878868, 5.22348 ], [ 25.881057, 5.218067 ], [ 25.878304, 5.209865 ], [ 25.891435, 5.198645 ], [ 25.900851, 5.171647 ], [ 25.907442, 5.174509 ], [ 25.911775, 5.180493 ], [ 25.904428, 5.196719 ], [ 25.906677, 5.204364 ], [ 25.921382, 5.202542 ], [ 25.934764, 5.209247 ], [ 25.945914, 5.205416 ], [ 25.954501, 5.198447 ], [ 25.958976, 5.199107 ], [ 25.956747, 5.215253 ], [ 25.964468, 5.232659 ], [ 25.976449, 5.245377 ], [ 25.980855, 5.24314 ], [ 25.986856, 5.229035 ], [ 25.995134, 5.236867 ], [ 26.003695, 5.235143 ], [ 26.006727, 5.227117 ], [ 26.00578, 5.215607 ], [ 26.010282, 5.211541 ], [ 26.033947, 5.210702 ], [ 26.046331, 5.221348 ], [ 26.048632, 5.208984 ], [ 26.05863, 5.198184 ], [ 26.068609, 5.218387 ], [ 26.077104, 5.219545 ], [ 26.087403, 5.212856 ], [ 26.091546, 5.213679 ], [ 26.094804, 5.230876 ], [ 26.090259, 5.242944 ], [ 26.100667, 5.245337 ], [ 26.107873, 5.238914 ], [ 26.112485, 5.238745 ], [ 26.129808, 5.255704 ], [ 26.132214, 5.26606 ], [ 26.15782, 5.259005 ], [ 26.15683, 5.245766 ], [ 26.16135, 5.238133 ], [ 26.183397, 5.24497 ], [ 26.186619, 5.226253 ], [ 26.19352, 5.23015 ], [ 26.198068, 5.241884 ], [ 26.20381, 5.243088 ], [ 26.207824, 5.23725 ], [ 26.209322, 5.225139 ], [ 26.214551, 5.220724 ], [ 26.20818, 5.214981 ], [ 26.213934, 5.206129 ], [ 26.217751, 5.204973 ], [ 26.223536, 5.210183 ], [ 26.232958, 5.212082 ], [ 26.230438, 5.20315 ], [ 26.236063, 5.19016 ], [ 26.243758, 5.200168 ], [ 26.248531, 5.200911 ], [ 26.256254, 5.189626 ], [ 26.250599, 5.177253 ], [ 26.280951, 5.17351 ], [ 26.282617, 5.170566 ], [ 26.279615, 5.165116 ], [ 26.293816, 5.161175 ], [ 26.297633, 5.144111 ], [ 26.306168, 5.149678 ], [ 26.309567, 5.157204 ], [ 26.321512, 5.142701 ], [ 26.326797, 5.152149 ], [ 26.338987, 5.150342 ], [ 26.349308, 5.157155 ], [ 26.364288, 5.144203 ], [ 26.386083, 5.149299 ], [ 26.390736, 5.14363 ], [ 26.391054, 5.132572 ], [ 26.394463, 5.126907 ], [ 26.40399, 5.13491 ], [ 26.410033, 5.134903 ], [ 26.412259, 5.12653 ], [ 26.419154, 5.117548 ], [ 26.43522, 5.113886 ], [ 26.438305, 5.107775 ], [ 26.437993, 5.097983 ], [ 26.447077, 5.098102 ], [ 26.451331, 5.094703 ], [ 26.456244, 5.067013 ], [ 26.46228, 5.062782 ], [ 26.477966, 5.062802 ], [ 26.483256, 5.05142 ], [ 26.49307, 5.057736 ], [ 26.502402, 5.050545 ], [ 26.511894, 5.053499 ], [ 26.520878, 5.049999 ], [ 26.532507, 5.070476 ], [ 26.546353, 5.072598 ], [ 26.554816, 5.0772 ], [ 26.564359, 5.071683 ], [ 26.572335, 5.08138 ], [ 26.583586, 5.086393 ], [ 26.593993, 5.081585 ], [ 26.613929, 5.090623 ], [ 26.615276, 5.082921 ], [ 26.624738, 5.071805 ], [ 26.628946, 5.074682 ], [ 26.630647, 5.084576 ], [ 26.639062, 5.089706 ], [ 26.655746, 5.083199 ], [ 26.665778, 5.082476 ], [ 26.675714, 5.088488 ], [ 26.680993, 5.099241 ], [ 26.690457, 5.094424 ], [ 26.701116, 5.09793 ], [ 26.708759, 5.104438 ], [ 26.717362, 5.099792 ], [ 26.723014, 5.104417 ], [ 26.730708, 5.102526 ], [ 26.744571, 5.105783 ], [ 26.763112, 5.105889 ], [ 26.76839, 5.102787 ], [ 26.768979, 5.089677 ], [ 26.782547, 5.084729 ], [ 26.782748, 5.07492 ], [ 26.788413, 5.065192 ], [ 26.803866, 5.051538 ], [ 26.817123, 5.050997 ], [ 26.823271, 5.058107 ], [ 26.827535, 5.05907 ], [ 26.843002, 5.052999 ], [ 26.854304, 5.041039 ], [ 26.861562, 5.041223 ], [ 26.868445, 5.047126 ], [ 26.873778, 5.0676 ], [ 26.900061, 5.097499 ], [ 26.911682, 5.117589 ], [ 26.921795, 5.124379 ], [ 26.929992, 5.142398 ], [ 26.950084, 5.14972 ], [ 27.029042, 5.188473 ], [ 27.075569, 5.205866 ], [ 27.093889, 5.208369 ], [ 27.149065, 5.201451 ], [ 27.185015, 5.185173 ], [ 27.214036, 5.162153 ], [ 27.230224, 5.153173 ], [ 27.259824, 5.150268 ], [ 27.292682, 5.133258 ], [ 27.319782, 5.129186 ], [ 27.360632, 5.10583 ], [ 27.385517, 5.09948 ], [ 27.403822, 5.089417 ], [ 27.425917, 5.082096 ], [ 27.438464, 5.073019 ], [ 27.446424, 5.060646 ], [ 27.441732, 5.042587 ], [ 27.443611, 5.019444 ], [ 27.458676, 5.015693 ], [ 27.485752, 5.000491 ], [ 27.491849, 4.995981 ], [ 27.499569, 4.983163 ], [ 27.515105, 4.978545 ], [ 27.520069, 4.975448 ], [ 27.525331, 4.965223 ], [ 27.526004, 4.942515 ], [ 27.530018, 4.935051 ], [ 27.539287, 4.920573 ], [ 27.558324, 4.91175 ], [ 27.568582, 4.897246 ], [ 27.580692, 4.88695 ], [ 27.60076, 4.894156 ], [ 27.657152, 4.892368 ], [ 27.669421, 4.883939 ], [ 27.69308, 4.859253 ], [ 27.700771, 4.833012 ], [ 27.709379, 4.81556 ], [ 27.702949, 4.800848 ], [ 27.713373, 4.788851 ], [ 27.727479, 4.786251 ], [ 27.743269, 4.791489 ], [ 27.755779, 4.791516 ], [ 27.767674, 4.785611 ], [ 27.787645, 4.736998 ], [ 27.787383, 4.704303 ], [ 27.77523, 4.695416 ], [ 27.773727, 4.691444 ], [ 27.776362, 4.679151 ], [ 27.77817, 4.670715 ], [ 27.776156, 4.656849 ], [ 27.779426, 4.647892 ], [ 27.787352, 4.626181 ], [ 27.781509, 4.604809 ], [ 27.784437, 4.598341 ], [ 27.794708, 4.594447 ], [ 27.80514, 4.600572 ], [ 27.81057, 4.600262 ], [ 27.81803, 4.588619 ], [ 27.831345, 4.584952 ], [ 27.833922, 4.575972 ], [ 27.844769, 4.572614 ], [ 27.854891, 4.559488 ], [ 27.869216, 4.549119 ], [ 27.912831, 4.549594 ], [ 27.93058, 4.545015 ], [ 27.941292, 4.567829 ], [ 27.973293, 4.550922 ], [ 27.979574, 4.555321 ], [ 28.010788, 4.550685 ], [ 28.021047, 4.546479 ], [ 28.035695, 4.551095 ], [ 28.03991, 4.549832 ], [ 28.042682, 4.543687 ], [ 28.035068, 4.524495 ], [ 28.03377, 4.476868 ], [ 28.041183, 4.455653 ], [ 28.061942, 4.444132 ], [ 28.075597, 4.412318 ], [ 28.079998, 4.41204 ], [ 28.084266, 4.416687 ], [ 28.0867, 4.430878 ], [ 28.098028, 4.432947 ], [ 28.111755, 4.44179 ], [ 28.121099, 4.433454 ], [ 28.133159, 4.436129 ], [ 28.14102, 4.430807 ], [ 28.143209, 4.42066 ], [ 28.131928, 4.402687 ], [ 28.133168, 4.394572 ], [ 28.176288, 4.376593 ], [ 28.203377, 4.348439 ], [ 28.254262, 4.342389 ], [ 28.268367, 4.354643 ], [ 28.281045, 4.350905 ], [ 28.285673, 4.351949 ], [ 28.294917, 4.354034 ], [ 28.318836, 4.353984 ], [ 28.330299, 4.349332 ], [ 28.336868, 4.346666 ], [ 28.351579, 4.349421 ], [ 28.355338, 4.337893 ], [ 28.367594, 4.323045 ], [ 28.370597, 4.300643 ], [ 28.367335, 4.286607 ], [ 28.372894, 4.278458 ], [ 28.377499, 4.276395 ], [ 28.392591, 4.280463 ], [ 28.406045, 4.273816 ], [ 28.412413, 4.273535 ], [ 28.437674, 4.284055 ], [ 28.457643, 4.285699 ], [ 28.469731, 4.304388 ], [ 28.485573, 4.31245 ], [ 28.488195, 4.318885 ], [ 28.487102, 4.333127 ], [ 28.49537, 4.339011 ], [ 28.497617, 4.352608 ], [ 28.509938, 4.360609 ], [ 28.511948, 4.369161 ], [ 28.551023, 4.379495 ], [ 28.579658, 4.375949 ], [ 28.590962, 4.387766 ], [ 28.592945, 4.401618 ], [ 28.599896, 4.413456 ], [ 28.617641, 4.416027 ], [ 28.628535, 4.412092 ], [ 28.662584, 4.42051 ], [ 28.672918, 4.445497 ], [ 28.696939, 4.484528 ], [ 28.690715, 4.503674 ], [ 28.696059, 4.507703 ], [ 28.711621, 4.511105 ], [ 28.717878, 4.521547 ], [ 28.712505, 4.527178 ], [ 28.713492, 4.531843 ], [ 28.72546, 4.537851 ], [ 28.753952, 4.538728 ], [ 28.77081, 4.554028 ], [ 28.779673, 4.558416 ], [ 28.789183, 4.556922 ], [ 28.806137, 4.532707 ], [ 28.810052, 4.516609 ], [ 28.805702, 4.492853 ], [ 28.830529, 4.47469 ], [ 28.856288, 4.477324 ], [ 28.869955, 4.488028 ], [ 28.902437, 4.472821 ], [ 28.913256, 4.476829 ], [ 28.927501, 4.473594 ], [ 28.948321, 4.478612 ], [ 28.957322, 4.477751 ], [ 28.975519, 4.47601 ], [ 28.991786, 4.479015 ], [ 29.009803, 4.492439 ], [ 29.017668, 4.491004 ], [ 29.037318, 4.48124 ], [ 29.040898, 4.464251 ], [ 29.046973, 4.458051 ], [ 29.080386, 4.453447 ], [ 29.082198, 4.448275 ], [ 29.077831, 4.436078 ], [ 29.078815, 4.430659 ], [ 29.098105, 4.428427 ], [ 29.115911, 4.430096 ], [ 29.133502, 4.42561 ], [ 29.133872, 4.408755 ], [ 29.145388, 4.401844 ], [ 29.15231, 4.391564 ], [ 29.165386, 4.38247 ], [ 29.175106, 4.37049 ], [ 29.189609, 4.361149 ], [ 29.204269, 4.341139 ], [ 29.218053, 4.338271 ], [ 29.245688, 4.345332 ], [ 29.254363, 4.366817 ], [ 29.248466, 4.379289 ], [ 29.249922, 4.38733 ], [ 29.265799, 4.392777 ], [ 29.287785, 4.387376 ], [ 29.296571, 4.379969 ], [ 29.306564, 4.378984 ], [ 29.322286, 4.385574 ], [ 29.341566, 4.406329 ], [ 29.349975, 4.444131 ], [ 29.358454, 4.461122 ], [ 29.368492, 4.468372 ], [ 29.391906, 4.472584 ], [ 29.408437, 4.483298 ], [ 29.437606, 4.522534 ], [ 29.441929, 4.538438 ], [ 29.442819, 4.562585 ], [ 29.450719, 4.573744 ], [ 29.472987, 4.593578 ], [ 29.472455, 4.604124 ], [ 29.466982, 4.616441 ], [ 29.468665, 4.638279 ], [ 29.466642, 4.647892 ], [ 29.463404, 4.663277 ], [ 29.46581, 4.668123 ], [ 29.476383, 4.668025 ], [ 29.483917, 4.671323 ], [ 29.490747, 4.679151 ], [ 29.499201, 4.688841 ], [ 29.509107, 4.679151 ], [ 29.519346, 4.669135 ], [ 29.524137, 4.657213 ], [ 29.527782, 4.654976 ], [ 29.551982, 4.666229 ], [ 29.558685, 4.66022 ], [ 29.573657, 4.662762 ], [ 29.581588, 4.658777 ], [ 29.588993, 4.650435 ], [ 29.595113, 4.648985 ], [ 29.611286, 4.660105 ], [ 29.616239, 4.660285 ], [ 29.618291, 4.658839 ], [ 29.628755, 4.651462 ], [ 29.644571, 4.647892 ], [ 29.649606, 4.646755 ], [ 29.660974, 4.636399 ], [ 29.681372, 4.625998 ], [ 29.708567, 4.617214 ], [ 29.732109, 4.578693 ], [ 29.73924, 4.572614 ], [ 29.747808, 4.572198 ], [ 29.759741, 4.580911 ], [ 29.76749, 4.582854 ], [ 29.785213, 4.565272 ], [ 29.817695, 4.562027 ], [ 29.824545, 4.552607 ], [ 29.821862, 4.540083 ], [ 29.798848, 4.520513 ], [ 29.793156, 4.509767 ], [ 29.804681, 4.493041 ], [ 29.806212, 4.485004 ], [ 29.795948, 4.439934 ], [ 29.799169, 4.425 ], [ 29.796153, 4.408534 ], [ 29.799502, 4.396708 ], [ 29.79614, 4.382434 ], [ 29.800207, 4.367138 ], [ 29.822492, 4.354802 ], [ 29.84194, 4.337815 ], [ 29.873999, 4.33878 ], [ 29.897644, 4.346882 ], [ 29.943028, 4.314936 ], [ 29.961735, 4.29099 ], [ 29.963864, 4.280653 ], [ 29.944577, 4.243858 ], [ 29.947626, 4.237739 ], [ 29.956429, 4.232997 ], [ 29.985864, 4.228595 ], [ 30.038207, 4.189998 ], [ 30.042694, 4.180475 ], [ 30.048474, 4.150774 ], [ 30.059619, 4.13173 ], [ 30.078597, 4.116319 ], [ 30.125872, 4.113959 ], [ 30.151219, 4.103351 ], [ 30.156535, 4.097984 ], [ 30.159023, 4.092847 ], [ 30.15817, 4.064837 ], [ 30.160304, 4.055034 ], [ 30.165543, 4.047928 ], [ 30.173417, 4.043702 ], [ 30.185374, 4.028154 ], [ 30.203954, 4.003995 ], [ 30.201854, 3.966459 ], [ 30.207782, 3.952473 ], [ 30.224823, 3.939267 ], [ 30.265292, 3.95651 ], [ 30.27465, 3.956806 ], [ 30.283096, 3.952718 ], [ 30.299039, 3.933523 ], [ 30.309903, 3.932769 ], [ 30.330598, 3.931606 ], [ 30.354851, 3.915486 ], [ 30.385439, 3.910858 ], [ 30.412203, 3.883426 ], [ 30.422911, 3.879204 ], [ 30.434897, 3.887423 ], [ 30.43916, 3.887075 ], [ 30.448824, 3.882663 ], [ 30.466259, 3.863988 ], [ 30.482277, 3.85752 ], [ 30.49519, 3.858193 ], [ 30.51535, 3.868536 ], [ 30.532916, 3.872032 ], [ 30.545023, 3.869379 ], [ 30.552375, 3.863532 ], [ 30.555248, 3.852256 ], [ 30.552831, 3.82139 ], [ 30.566997, 3.783381 ], [ 30.585002, 3.683441 ], [ 30.576359, 3.658247 ], [ 30.574149, 3.641799 ], [ 30.558662, 3.611759 ], [ 30.556992, 3.602568 ], [ 30.561117, 3.596413 ], [ 30.569805, 3.593089 ], [ 30.595281, 3.595979 ], [ 30.629661, 3.611433 ], [ 30.64735, 3.624675 ], [ 30.67324, 3.638058 ], [ 30.689296, 3.634057 ], [ 30.712631, 3.623279 ], [ 30.725932, 3.622621 ], [ 30.743749, 3.632866 ], [ 30.758262, 3.669745 ], [ 30.765252, 3.673893 ], [ 30.774553, 3.673307 ], [ 30.784963, 3.658021 ], [ 30.785427, 3.627289 ], [ 30.790846, 3.605288 ], [ 30.804313, 3.587137 ], [ 30.806717, 3.585235 ], [ 30.809242, 3.583236 ], [ 30.855741, 3.569557 ], [ 30.861683, 3.564309 ], [ 30.86195, 3.553238 ], [ 30.851981, 3.530906 ], [ 30.846431, 3.510165 ], [ 30.847783, 3.497242 ], [ 30.85453, 3.487471 ], [ 30.880424, 3.498137 ], [ 30.900329, 3.523898 ], [ 30.908892, 3.52545 ], [ 30.917778, 3.520997 ], [ 30.927756, 3.504537 ], [ 30.928544, 3.492077 ], [ 30.922219, 3.457598 ], [ 30.934552, 3.428223 ], [ 30.934717, 3.411673 ], [ 30.928728, 3.397451 ], [ 30.915048, 3.383451 ], [ 30.911246, 3.366002 ], [ 30.893553, 3.357061 ], [ 30.88314, 3.326325 ], [ 30.869967, 3.31703 ], [ 30.866886, 3.300859 ], [ 30.862503, 3.29315 ], [ 30.857001, 3.288813 ], [ 30.837171, 3.282331 ], [ 30.829326, 3.273643 ], [ 30.824774, 3.228185 ], [ 30.806717, 3.187234 ], [ 30.803071, 3.178966 ], [ 30.793783, 3.148066 ], [ 30.782788, 3.129692 ], [ 30.778888, 3.09955 ], [ 30.76411, 3.06694 ], [ 30.763533, 3.04609 ], [ 30.767451, 3.034324 ], [ 30.772807, 3.028867 ], [ 30.806717, 3.011894 ], [ 30.811726, 3.009386 ], [ 30.825694, 2.987935 ], [ 30.846443, 2.970867 ], [ 30.85351, 2.960559 ], [ 30.863683, 2.924981 ], [ 30.878807, 2.891189 ], [ 30.879233, 2.881165 ], [ 30.874744, 2.870411 ], [ 30.877489, 2.843767 ], [ 30.873788, 2.833171 ], [ 30.860047, 2.817608 ], [ 30.857429, 2.797007 ], [ 30.853204, 2.787291 ], [ 30.816648, 2.766075 ], [ 30.816619, 2.738804 ], [ 30.808315, 2.720393 ], [ 30.806717, 2.711187 ], [ 30.804234, 2.696889 ], [ 30.787016, 2.673497 ], [ 30.774963, 2.621167 ], [ 30.760704, 2.607766 ], [ 30.755358, 2.597877 ], [ 30.751528, 2.557438 ], [ 30.755227, 2.515837 ], [ 30.751375, 2.505241 ], [ 30.732822, 2.479656 ], [ 30.730694, 2.450349 ], [ 30.806717, 2.443069 ], [ 30.824499, 2.441366 ], [ 30.826235, 2.399465 ], [ 30.847146, 2.37831 ], [ 30.86795, 2.346209 ], [ 30.881388, 2.337597 ], [ 30.896715, 2.335593 ], [ 30.91474, 2.341171 ], [ 30.924194, 2.354828 ], [ 30.933322, 2.388268 ], [ 30.941637, 2.404052 ], [ 30.955252, 2.41103 ], [ 30.970717, 2.4116 ], [ 30.986974, 2.407799 ], [ 31.000315, 2.398779 ], [ 31.041161, 2.354276 ], [ 31.068646, 2.33552 ], [ 31.069046, 2.326846 ], [ 31.051768, 2.310794 ], [ 31.052932, 2.30346 ], [ 31.087264, 2.295933 ], [ 31.108474, 2.282559 ], [ 31.120857, 2.278762 ], [ 31.137035, 2.288178 ], [ 31.163738, 2.289825 ], [ 31.180499, 2.300026 ], [ 31.195434, 2.304005 ], [ 31.203982, 2.22925 ], [ 31.247767, 2.198486 ], [ 31.296848, 2.163999 ], [ 31.310403, 2.116313 ], [ 31.247767, 2.021507 ], [ 31.232288, 1.998077 ], [ 31.030296, 1.751089 ], [ 30.806717, 1.575108 ], [ 30.712238, 1.500738 ], [ 30.626603, 1.418241 ], [ 30.463424, 1.261033 ], [ 30.450804, 1.255401 ], [ 30.443121, 1.241698 ], [ 30.426599, 1.230678 ], [ 30.412199, 1.227526 ], [ 30.395434, 1.214241 ], [ 30.365525, 1.207035 ], [ 30.342604, 1.177207 ], [ 30.336825, 1.152141 ], [ 30.330355, 1.151444 ], [ 30.322567, 1.155834 ], [ 30.314406, 1.153265 ], [ 30.309787, 1.166049 ], [ 30.300413, 1.163751 ], [ 30.291083, 1.171302 ], [ 30.273858, 1.160897 ], [ 30.26297, 1.146236 ], [ 30.248274, 1.141851 ], [ 30.238329, 1.133358 ], [ 30.235576, 1.125895 ], [ 30.239774, 1.113032 ], [ 30.238889, 1.093977 ], [ 30.22801, 1.077176 ], [ 30.225693, 1.062525 ], [ 30.228173, 1.056213 ], [ 30.221603, 1.049433 ], [ 30.228921, 1.040721 ], [ 30.224033, 1.021827 ], [ 30.227626, 1.010879 ], [ 30.22524, 1.004124 ], [ 30.232449, 1.001175 ], [ 30.225743, 0.996372 ], [ 30.226342, 0.986233 ], [ 30.212136, 0.981251 ], [ 30.215187, 0.975173 ], [ 30.203054, 0.976139 ], [ 30.201768, 0.967106 ], [ 30.19458, 0.969645 ], [ 30.193218, 0.965134 ], [ 30.188834, 0.962806 ], [ 30.192138, 0.95762 ], [ 30.18839, 0.954531 ], [ 30.189664, 0.949936 ], [ 30.182429, 0.952316 ], [ 30.18349, 0.945203 ], [ 30.17667, 0.940906 ], [ 30.17027, 0.922844 ], [ 30.173162, 0.910406 ], [ 30.165723, 0.901514 ], [ 30.156231, 0.899491 ], [ 30.153518, 0.886913 ], [ 30.143984, 0.887454 ], [ 30.137578, 0.884036 ], [ 30.133695, 0.889695 ], [ 30.127494, 0.887557 ], [ 30.117447, 0.894079 ], [ 30.107518, 0.893628 ], [ 30.085053, 0.880153 ], [ 30.068156, 0.878054 ], [ 30.060482, 0.869513 ], [ 30.046037, 0.868794 ], [ 30.027798, 0.856189 ], [ 30.013299, 0.855311 ], [ 30.003292, 0.846443 ], [ 29.993789, 0.84637 ], [ 29.988453, 0.842363 ], [ 29.985792, 0.832104 ], [ 29.973651, 0.811557 ], [ 29.972169, 0.794999 ], [ 29.965635, 0.778414 ], [ 29.96809, 0.761978 ], [ 29.975584, 0.750823 ], [ 29.976659, 0.739631 ], [ 29.969539, 0.717566 ], [ 29.972624, 0.695342 ], [ 29.964944, 0.677881 ], [ 29.958442, 0.652427 ], [ 29.960866, 0.632878 ], [ 29.96817, 0.611757 ], [ 29.980853, 0.594528 ], [ 29.97108, 0.581889 ], [ 29.970234, 0.552915 ], [ 29.944061, 0.520015 ], [ 29.948404, 0.447566 ], [ 29.870724, 0.378059 ], [ 29.820157, 0.168054 ], [ 29.813205, 0.164911 ], [ 29.780451, 0.167409 ], [ 29.772034, 0.163469 ], [ 29.761817, 0.142752 ], [ 29.741037, 0.124081 ], [ 29.73315, 0.099029 ], [ 29.732447, 0.083717 ], [ 29.719806, 0.069336 ], [ 29.719788, 0.032958 ], [ 29.726709, 0.016997 ], [ 29.725429, 0.009369 ], [ 29.733416, -0.01852 ], [ 29.741612, -0.028132 ], [ 29.738656, -0.03487 ], [ 29.730614, -0.04032 ], [ 29.728243, -0.048822 ], [ 29.704829, -0.273444 ], [ 29.685837, -0.455644 ], [ 29.682292, -0.468816 ], [ 29.682956, -0.48306 ], [ 29.67961, -0.490867 ], [ 29.680867, -0.496702 ], [ 29.67264, -0.510753 ], [ 29.672818, -0.53798 ], [ 29.668494, -0.540889 ], [ 29.660293, -0.539485 ], [ 29.655168, -0.551098 ], [ 29.655516, -0.564637 ], [ 29.665841, -0.576967 ], [ 29.651323, -0.596921 ], [ 29.661794, -0.626936 ], [ 29.652117, -0.643065 ], [ 29.649228, -0.659397 ], [ 29.637672, -0.678178 ], [ 29.62628, -0.720412 ], [ 29.631013, -0.73466 ], [ 29.63014, -0.757684 ], [ 29.632816, -0.768577 ], [ 29.627975, -0.793008 ], [ 29.639795, -0.826478 ], [ 29.627046, -0.858306 ], [ 29.627969, -0.887408 ], [ 29.624844, -0.892888 ], [ 29.617383, -0.90597 ], [ 29.586276, -0.912048 ], [ 29.589548, -0.941596 ], [ 29.596758, -0.972412 ], [ 29.588156, -0.997007 ], [ 29.586942, -1.017309 ], [ 29.589661, -1.040489 ], [ 29.602687, -1.067255 ], [ 29.613597, -1.101904 ], [ 29.599521, -1.118827 ], [ 29.595868, -1.137856 ], [ 29.578083, -1.156989 ], [ 29.574603, -1.185838 ], [ 29.624844, -1.240655 ], [ 29.643086, -1.260559 ], [ 29.624844, -1.295291 ], [ 29.605112, -1.332858 ], [ 29.589509, -1.386621 ], [ 29.555565, -1.393725 ], [ 29.526671, -1.412865 ], [ 29.451292, -1.505468 ], [ 29.361167, -1.507205 ], [ 29.255111, -1.659254 ], [ 29.242852, -1.668902 ], [ 29.243293, -1.699476 ], [ 29.232171, -1.715029 ], [ 29.199995, -1.745459 ], [ 29.15032, -1.804356 ], [ 29.13999, -1.822533 ], [ 29.1276, -1.859372 ], [ 29.12402, -1.910682 ], [ 29.128146, -1.948742 ], [ 29.13542, -1.976522 ], [ 29.165888, -2.06281 ], [ 29.170393, -2.088677 ], [ 29.168139, -2.125092 ], [ 29.159426, -2.155571 ], [ 29.115053, -2.247684 ], [ 29.099914, -2.267516 ], [ 29.074605, -2.279317 ], [ 29.058005, -2.280998 ], [ 29.019789, -2.278559 ], [ 28.995123, -2.284835 ], [ 28.988692, -2.29575 ], [ 28.987997, -2.330487 ], [ 28.968004, -2.342117 ], [ 28.957322, -2.361634 ], [ 28.93736, -2.368843 ], [ 28.89892, -2.363747 ], [ 28.882764, -2.372383 ], [ 28.871713, -2.388578 ], [ 28.865493, -2.404741 ], [ 28.862773, -2.436266 ], [ 28.867869, -2.453255 ], [ 28.883806, -2.468364 ], [ 28.892213, -2.486632 ], [ 28.88867, -2.503703 ], [ 28.867863, -2.51594 ], [ 28.862845, -2.529483 ], [ 28.877618, -2.549314 ], [ 28.892814, -2.561744 ], [ 28.894917, -2.567158 ], [ 28.899151, -2.583341 ], [ 28.8985, -2.59636 ], [ 28.905427, -2.643059 ], [ 28.90332, -2.648953 ], [ 28.897584, -2.653471 ], [ 28.897577, -2.657652 ], [ 28.909483, -2.665576 ], [ 28.919071, -2.679623 ], [ 28.936476, -2.682044 ], [ 28.945633, -2.690101 ], [ 28.957322, -2.693405 ], [ 28.967359, -2.701559 ], [ 28.980578, -2.694532 ], [ 28.997324, -2.700419 ], [ 29.021297, -2.720194 ], [ 29.040641, -2.743844 ], [ 29.038082, -2.759772 ], [ 29.027001, -2.761015 ], [ 29.002933, -2.783362 ], [ 29.001423, -2.798536 ], [ 29.00358, -2.811293 ], [ 29.011985, -2.819453 ], [ 29.022706, -2.821156 ], [ 29.028407, -2.825263 ], [ 29.045756, -2.819406 ], [ 29.050434, -2.820673 ], [ 29.068554, -2.847554 ], [ 29.07019, -2.862939 ], [ 29.091914, -2.873369 ], [ 29.09434, -2.881775 ], [ 29.090743, -2.891581 ], [ 29.09087, -2.903465 ], [ 29.099381, -2.921 ], [ 29.130181, -2.930742 ], [ 29.143722, -2.945843 ], [ 29.155542, -2.947695 ], [ 29.167652, -2.959529 ], [ 29.167039, -2.97109 ], [ 29.171714, -2.982438 ], [ 29.167488, -2.991779 ], [ 29.168622, -2.995541 ], [ 29.17976, -2.993274 ], [ 29.184942, -2.999564 ], [ 29.185821, -3.007456 ], [ 29.19336, -3.009166 ], [ 29.20421, -3.022074 ], [ 29.225661, -3.020174 ], [ 29.230127, -3.02497 ], [ 29.235716, -3.025834 ], [ 29.233789, -3.033476 ], [ 29.240514, -3.036529 ], [ 29.24187, -3.041648 ], [ 29.252901, -3.050464 ], [ 29.251014, -3.061533 ], [ 29.258353, -3.069033 ], [ 29.254893, -3.092199 ], [ 29.250087, -3.097124 ], [ 29.253604, -3.101929 ], [ 29.251969, -3.108652 ], [ 29.257423, -3.116861 ], [ 29.253693, -3.123975 ], [ 29.246376, -3.125459 ], [ 29.243675, -3.140891 ], [ 29.234266, -3.15351 ], [ 29.232582, -3.169397 ], [ 29.225563, -3.179661 ], [ 29.230892, -3.18436 ], [ 29.223351, -3.197034 ], [ 29.23429, -3.211343 ], [ 29.226514, -3.228983 ], [ 29.232685, -3.258289 ], [ 29.240079, -3.26778 ], [ 29.239891, -3.275319 ], [ 29.228947, -3.284235 ], [ 29.223669, -3.293785 ], [ 29.213768, -3.296022 ], [ 29.211688, -3.304305 ], [ 29.218945, -3.329312 ], [ 29.213229, -3.340196 ], [ 29.231694, -3.421816 ], [ 29.237837, -3.461996 ], [ 29.246806, -3.591936 ], [ 29.240085, -3.692699 ], [ 29.223965, -3.789353 ], [ 29.232504, -3.884547 ], [ 29.239342, -3.921422 ], [ 29.309274, -4.000506 ], [ 29.335927, -4.036551 ], [ 29.346863, -4.056435 ], [ 29.378568, -4.134492 ], [ 29.388792, -4.167594 ], [ 29.392533, -4.191785 ], [ 29.3978, -4.297939 ], [ 29.407611, -4.369528 ], [ 29.423334, -4.447501 ], [ 29.426941, -4.455833 ], [ 29.430275, -4.501112 ], [ 29.429722, -4.54507 ], [ 29.420277, -4.578334 ], [ 29.397778, -4.638055 ], [ 29.371804, -4.701667 ], [ 29.358747, -4.729723 ], [ 29.347774, -4.763334 ], [ 29.34139, -4.797779 ], [ 29.341575, -4.826715 ], [ 29.341901, -4.877463 ], [ 29.341942, -4.883889 ], [ 29.344245, -4.90183 ], [ 29.347914, -4.930417 ], [ 29.351385, -4.951389 ], [ 29.360977, -4.987474 ], [ 29.363052, -4.995278 ], [ 29.367285, -5.00643 ], [ 29.403333, -5.10139 ], [ 29.404867, -5.104775 ], [ 29.414165, -5.125279 ], [ 29.429998, -5.1475 ], [ 29.440331, -5.1599 ], [ 29.454305, -5.176668 ], [ 29.47611, -5.236666 ], [ 29.48722, -5.293611 ], [ 29.503801, -5.351382 ], [ 29.51361, -5.385556 ], [ 29.534442, -5.448056 ], [ 29.543887, -5.466389 ], [ 29.55099, -5.478012 ], [ 29.562222, -5.496389 ], [ 29.577576, -5.532418 ], [ 29.5975, -5.579167 ], [ 29.624844, -5.680841 ], [ 29.626112, -5.685557 ], [ 29.631666, -5.721944 ], [ 29.629999, -5.754862 ], [ 29.624844, -5.767566 ], [ 29.608751, -5.807222 ], [ 29.604772, -5.812294 ], [ 29.592082, -5.828472 ], [ 29.57, -5.851945 ], [ 29.53833, -5.89 ], [ 29.516388, -5.923056 ], [ 29.50472, -5.945834 ], [ 29.497776, -5.979723 ], [ 29.494999, -6.00889 ], [ 29.498332, -6.056389 ], [ 29.540833, -6.263056 ], [ 29.550279, -6.295279 ], [ 29.567222, -6.33125 ], [ 29.613052, -6.399723 ], [ 29.624844, -6.423956 ], [ 29.639959, -6.455017 ], [ 29.703888, -6.58639 ], [ 29.720416, -6.611807 ], [ 29.739164, -6.634585 ], [ 29.761386, -6.653889 ], [ 29.885417, -6.750834 ], [ 29.914721, -6.766111 ], [ 29.984166, -6.792778 ], [ 29.988535, -6.795029 ], [ 30.002499, -6.802222 ], [ 30.037153, -6.822639 ], [ 30.064854, -6.845767 ], [ 30.141666, -6.919168 ], [ 30.17208, -6.944168 ], [ 30.188332, -6.962501 ], [ 30.22134, -7.008397 ], [ 30.240272, -7.034721 ], [ 30.246667, -7.043612 ], [ 30.279472, -7.091688 ], [ 30.299861, -7.121568 ], [ 30.314998, -7.14375 ], [ 30.354443, -7.220278 ], [ 30.379166, -7.279723 ], [ 30.409443, -7.364306 ], [ 30.424361, -7.421116 ], [ 30.426111, -7.427778 ], [ 30.43194, -7.485 ], [ 30.439722, -7.530001 ], [ 30.455829, -7.580279 ], [ 30.471389, -7.613473 ], [ 30.494639, -7.65349 ], [ 30.50972, -7.679446 ], [ 30.577501, -7.778057 ], [ 30.592153, -7.798587 ], [ 30.617849, -7.834595 ], [ 30.650552, -7.880417 ], [ 30.668888, -7.915001 ], [ 30.696941, -7.970278 ], [ 30.707223, -7.995 ], [ 30.717972, -8.025879 ], [ 30.75944, -8.145 ], [ 30.771242, -8.192248 ], [ 30.580844, -8.274352 ], [ 30.54407, -8.255502 ], [ 30.450597, -8.269307 ], [ 30.438836, -8.268771 ], [ 30.367586, -8.281142 ], [ 30.240272, -8.296387 ], [ 30.122306, -8.312435 ], [ 29.999631, -8.316772 ], [ 29.860588, -8.341138 ], [ 29.740516, -8.355559 ], [ 29.715731, -8.372767 ], [ 29.699095, -8.390294 ], [ 29.68513, -8.390367 ], [ 29.669343, -8.397232 ], [ 29.652232, -8.400025 ], [ 29.637847, -8.400403 ], [ 29.62916, -8.381817 ], [ 29.624844, -8.381151 ], [ 29.594735, -8.376507 ], [ 29.003349, -8.459734 ], [ 28.993957, -8.496426 ], [ 28.980937, -8.52952 ], [ 28.972243, -8.551618 ], [ 28.960189, -8.574015 ], [ 28.960243, -8.621873 ], [ 28.957322, -8.653324 ], [ 28.956958, -8.657243 ], [ 28.941299, -8.714319 ], [ 28.926041, -8.74447 ], [ 28.864199, -8.842351 ], [ 28.747505, -8.982632 ], [ 28.72721, -9.002787 ], [ 28.699549, -9.030255 ], [ 28.695568, -9.034208 ], [ 28.64739, -9.071271 ], [ 28.616703, -9.087299 ], [ 28.482282, -9.171522 ], [ 28.417577, -9.222264 ], [ 28.394562, -9.244675 ], [ 28.384528, -9.258523 ], [ 28.387566, -9.270327 ], [ 28.411721, -9.28767 ], [ 28.452659, -9.308583 ], [ 28.496644, -9.326974 ], [ 28.511863, -9.340096 ], [ 28.528039, -9.363264 ], [ 28.533649, -9.382327 ], [ 28.531115, -9.395567 ], [ 28.520781, -9.414038 ], [ 28.515202, -9.433329 ], [ 28.515618, -9.442087 ], [ 28.520804, -9.450403 ], [ 28.532012, -9.458851 ], [ 28.536075, -9.469551 ], [ 28.539515, -9.476569 ], [ 28.560789, -9.481688 ], [ 28.56945, -9.490894 ], [ 28.574039, -9.546545 ], [ 28.578503, -9.557852 ], [ 28.590756, -9.563559 ], [ 28.615413, -9.553508 ], [ 28.622236, -9.556125 ], [ 28.618846, -9.56804 ], [ 28.609184, -9.572463 ], [ 28.595651, -9.57377 ], [ 28.586958, -9.579506 ], [ 28.602097, -9.587282 ], [ 28.61528, -9.603721 ], [ 28.612327, -9.632137 ], [ 28.626052, -9.654793 ], [ 28.629039, -9.66674 ], [ 28.62899, -9.705375 ], [ 28.623219, -9.72008 ], [ 28.624104, -9.729309 ], [ 28.636508, -9.748342 ], [ 28.668565, -9.75739 ], [ 28.673215, -9.776729 ], [ 28.687836, -9.789569 ], [ 28.696526, -9.80469 ], [ 28.693604, -9.812962 ], [ 28.675751, -9.815835 ], [ 28.672152, -9.819952 ], [ 28.670872, -9.840932 ], [ 28.657193, -9.873586 ], [ 28.654713, -9.894432 ], [ 28.642519, -9.914633 ], [ 28.625702, -9.955623 ], [ 28.632132, -9.988828 ], [ 28.630088, -10.000068 ], [ 28.635856, -10.021576 ], [ 28.629257, -10.037072 ], [ 28.631632, -10.051156 ], [ 28.624694, -10.073003 ], [ 28.621525, -10.156391 ], [ 28.609342, -10.170768 ], [ 28.604922, -10.186139 ], [ 28.582824, -10.211466 ], [ 28.577625, -10.230051 ], [ 28.580659, -10.23872 ], [ 28.598021, -10.257351 ], [ 28.613451, -10.283904 ], [ 28.630075, -10.296188 ], [ 28.636047, -10.306234 ], [ 28.63639, -10.316672 ], [ 28.624151, -10.357232 ], [ 28.621899, -10.375308 ], [ 28.626416, -10.397784 ], [ 28.63745, -10.419966 ], [ 28.642762, -10.438618 ], [ 28.642675, -10.450343 ], [ 28.636394, -10.4724 ], [ 28.639051, -10.490199 ], [ 28.634359, -10.519022 ], [ 28.638377, -10.530429 ], [ 28.663818, -10.549835 ], [ 28.670952, -10.560602 ], [ 28.672401, -10.569072 ], [ 28.664876, -10.596884 ], [ 28.665515, -10.617273 ], [ 28.669239, -10.62445 ], [ 28.690979, -10.643279 ], [ 28.696381, -10.662229 ], [ 28.689547, -10.678796 ], [ 28.673759, -10.68661 ], [ 28.669145, -10.69256 ], [ 28.667222, -10.710963 ], [ 28.663723, -10.717482 ], [ 28.655298, -10.718963 ], [ 28.630057, -10.715616 ], [ 28.618616, -10.718781 ], [ 28.611002, -10.725227 ], [ 28.606714, -10.736647 ], [ 28.607305, -10.757708 ], [ 28.603483, -10.767483 ], [ 28.582655, -10.792368 ], [ 28.575984, -10.807312 ], [ 28.561185, -10.820953 ], [ 28.553818, -10.832327 ], [ 28.544722, -10.86573 ], [ 28.538353, -10.94061 ], [ 28.532534, -10.950668 ], [ 28.514879, -10.962524 ], [ 28.509044, -10.973339 ], [ 28.507632, -10.987853 ], [ 28.510239, -11.015256 ], [ 28.507945, -11.02914 ], [ 28.495236, -11.054312 ], [ 28.49166, -11.084963 ], [ 28.476622, -11.104959 ], [ 28.479086, -11.116737 ], [ 28.495213, -11.148157 ], [ 28.497531, -11.159623 ], [ 28.496247, -11.183025 ], [ 28.482105, -11.218719 ], [ 28.486488, -11.243817 ], [ 28.474641, -11.266043 ], [ 28.470163, -11.284046 ], [ 28.456112, -11.294714 ], [ 28.449111, -11.324806 ], [ 28.44969, -11.333524 ], [ 28.455618, -11.346189 ], [ 28.456992, -11.372551 ], [ 28.450173, -11.378201 ], [ 28.432175, -11.382072 ], [ 28.426804, -11.386916 ], [ 28.425125, -11.395438 ], [ 28.428238, -11.414968 ], [ 28.42025, -11.432538 ], [ 28.41842, -11.445767 ], [ 28.395167, -11.474409 ], [ 28.397822, -11.504515 ], [ 28.389218, -11.528211 ], [ 28.381309, -11.575662 ], [ 28.383309, -11.587621 ], [ 28.39858, -11.609852 ], [ 28.402353, -11.615344 ], [ 28.424058, -11.634447 ], [ 28.430432, -11.646218 ], [ 28.43035, -11.65773 ], [ 28.41872, -11.677674 ], [ 28.422188, -11.686122 ], [ 28.431617, -11.694881 ], [ 28.433324, -11.701321 ], [ 28.428813, -11.711383 ], [ 28.418329, -11.719826 ], [ 28.41548, -11.726552 ], [ 28.418236, -11.731909 ], [ 28.436588, -11.745868 ], [ 28.446004, -11.76583 ], [ 28.445425, -11.782113 ], [ 28.436886, -11.808906 ], [ 28.438107, -11.826724 ], [ 28.443748, -11.830969 ], [ 28.472052, -11.826782 ], [ 28.482458, -11.828412 ], [ 28.489601, -11.835289 ], [ 28.499548, -11.854637 ], [ 28.507033, -11.880574 ], [ 28.537033, -11.896327 ], [ 28.563291, -11.901793 ], [ 28.577987, -11.91049 ], [ 28.612927, -11.912671 ], [ 28.618888, -11.918925 ], [ 28.629361, -11.939961 ], [ 28.638853, -11.950427 ], [ 28.664831, -11.962226 ], [ 28.699365, -11.983312 ], [ 28.721505, -11.990181 ], [ 28.747653, -11.984989 ], [ 28.760458, -11.991968 ], [ 28.763898, -11.997858 ], [ 28.765399, -12.018796 ], [ 28.778974, -12.054989 ], [ 28.805799, -12.075399 ], [ 28.830053, -12.098871 ], [ 28.856886, -12.138954 ], [ 28.910473, -12.178342 ], [ 28.947287, -12.212661 ], [ 28.997147, -12.285654 ], [ 29.005755, -12.323111 ], [ 29.023619, -12.348694 ], [ 29.035107, -12.373104 ], [ 29.046651, -12.383974 ], [ 29.061219, -12.388208 ], [ 29.086258, -12.386152 ], [ 29.104675, -12.37999 ], [ 29.120186, -12.392855 ], [ 29.129299, -12.394563 ], [ 29.185378, -12.371944 ], [ 29.234886, -12.374179 ], [ 29.266867, -12.36535 ], [ 29.276924, -12.371216 ], [ 29.29373, -12.387796 ], [ 29.295867, -12.40647 ], [ 29.30253, -12.412586 ], [ 29.331203, -12.417977 ], [ 29.354471, -12.41287 ], [ 29.367514, -12.413734 ], [ 29.472505, -12.469818 ], [ 29.497918, -12.469457 ], [ 29.515031, -12.456971 ], [ 29.525938, -12.444568 ], [ 29.535072, -12.429518 ], [ 29.537044, -12.418088 ], [ 29.53566, -12.406561 ], [ 29.530174, -12.399981 ], [ 29.502012, -12.396431 ], [ 29.492674, -12.390481 ], [ 29.480102, -12.375632 ], [ 29.456727, -12.332875 ], [ 29.456532, -12.318961 ], [ 29.467743, -12.274074 ], [ 29.479499, -12.251066 ], [ 29.488903, -12.239733 ], [ 29.512508, -12.223839 ], [ 29.540986, -12.215039 ], [ 29.576346, -12.193326 ], [ 29.595952, -12.193417 ], [ 29.624844, -12.203149 ], [ 29.634376, -12.20636 ], [ 29.667851, -12.206691 ], [ 29.721035, -12.190801 ], [ 29.739959, -12.174748 ], [ 29.761643, -12.161362 ], [ 29.785445, -12.160821 ], [ 29.801532, -12.156585 ], [ 29.806978, -12.158546 ], [ 29.810156, -12.193791 ], [ 29.808897, -12.9964 ], [ 29.8087, -13.122266 ], [ 29.811058, -13.247608 ], [ 29.808138, -13.452472 ], [ 29.785324, -13.44005 ], [ 29.771375, -13.437264 ], [ 29.762577, -13.438496 ], [ 29.736109, -13.450694 ], [ 29.71091, -13.454611 ], [ 29.700146, -13.449774 ], [ 29.676434, -13.430468 ], [ 29.667732, -13.430583 ], [ 29.654081, -13.437444 ], [ 29.646636, -13.436492 ], [ 29.624844, -13.419284 ], [ 29.612344, -13.409412 ], [ 29.608558, -13.395717 ], [ 29.612871, -13.381524 ], [ 29.606147, -13.370219 ], [ 29.605815, -13.364262 ], [ 29.612311, -13.360033 ], [ 29.624844, -13.358104 ], [ 29.644186, -13.355126 ], [ 29.652581, -13.34895 ], [ 29.658391, -13.337538 ], [ 29.662672, -13.315244 ], [ 29.654756, -13.296988 ], [ 29.654683, -13.289068 ], [ 29.661239, -13.281049 ], [ 29.678498, -13.269672 ], [ 29.681244, -13.262427 ], [ 29.675077, -13.24953 ], [ 29.676516, -13.235419 ], [ 29.671193, -13.228201 ], [ 29.664501, -13.228392 ], [ 29.644967, -13.23838 ], [ 29.637938, -13.238567 ], [ 29.624844, -13.234197 ], [ 29.6193, -13.232346 ], [ 29.585046, -13.213951 ], [ 29.57646, -13.215714 ], [ 29.560459, -13.226643 ], [ 29.538513, -13.225701 ], [ 29.525667, -13.22993 ], [ 29.503687, -13.246951 ], [ 29.491839, -13.268968 ], [ 29.476306, -13.275553 ], [ 29.441421, -13.313307 ], [ 29.386498, -13.326957 ], [ 29.366386, -13.327156 ], [ 29.359309, -13.333085 ], [ 29.353696, -13.34383 ], [ 29.347252, -13.347549 ], [ 29.338685, -13.346042 ], [ 29.315893, -13.334308 ], [ 29.311595, -13.34208 ], [ 29.308456, -13.362741 ], [ 29.30051, -13.373466 ], [ 29.248851, -13.393157 ], [ 29.233103, -13.406497 ], [ 29.211403, -13.417513 ], [ 29.186943, -13.440977 ], [ 29.179667, -13.439557 ], [ 29.168904, -13.41447 ], [ 29.144591, -13.383461 ], [ 29.132852, -13.374529 ], [ 29.119979, -13.370037 ], [ 29.108104, -13.37024 ], [ 29.088499, -13.377338 ], [ 29.040392, -13.403143 ], [ 29.020922, -13.416519 ], [ 29.003673, -13.414806 ], [ 28.998336, -13.408735 ], [ 28.992563, -13.39423 ], [ 28.999191, -13.382568 ], [ 28.998268, -13.372649 ], [ 28.991832, -13.369739 ], [ 28.977886, -13.37503 ], [ 28.970006, -13.366454 ], [ 28.967354, -13.34174 ], [ 28.946931, -13.306913 ], [ 28.940953, -13.270732 ], [ 28.90399, -13.164202 ], [ 28.89658, -13.159323 ], [ 28.877888, -13.162227 ], [ 28.869893, -13.152167 ], [ 28.856033, -13.154522 ], [ 28.848512, -13.146233 ], [ 28.849261, -13.12376 ], [ 28.846633, -13.107673 ], [ 28.832603, -13.085339 ], [ 28.845127, -13.079478 ], [ 28.846783, -13.06974 ], [ 28.835044, -13.054721 ], [ 28.833745, -13.028653 ], [ 28.826268, -13.00962 ], [ 28.81853, -12.9964 ], [ 28.793909, -12.967911 ], [ 28.788824, -12.94683 ], [ 28.780312, -12.941776 ], [ 28.765609, -12.942172 ], [ 28.757461, -12.937956 ], [ 28.739697, -12.910556 ], [ 28.73291, -12.887636 ], [ 28.724765, -12.87549 ], [ 28.707785, -12.859044 ], [ 28.681218, -12.843289 ], [ 28.666043, -12.826884 ], [ 28.654225, -12.820129 ], [ 28.63596, -12.818275 ], [ 28.623168, -12.824075 ], [ 28.604042, -12.844904 ], [ 28.587293, -12.884772 ], [ 28.579848, -12.891136 ], [ 28.572416, -12.889983 ], [ 28.565106, -12.876171 ], [ 28.545082, -12.85547 ], [ 28.538207, -12.822394 ], [ 28.529002, -12.802791 ], [ 28.479018, -12.75173 ], [ 28.465765, -12.733709 ], [ 28.455817, -12.710627 ], [ 28.457182, -12.699267 ], [ 28.465563, -12.690418 ], [ 28.476819, -12.685134 ], [ 28.500423, -12.681668 ], [ 28.511166, -12.674796 ], [ 28.521942, -12.634267 ], [ 28.517035, -12.620742 ], [ 28.489871, -12.593702 ], [ 28.446533, -12.56274 ], [ 28.444099, -12.553371 ], [ 28.448339, -12.528727 ], [ 28.442317, -12.518303 ], [ 28.401834, -12.498559 ], [ 28.326031, -12.425481 ], [ 28.313651, -12.419859 ], [ 28.281409, -12.420074 ], [ 28.262404, -12.413505 ], [ 28.242784, -12.421366 ], [ 28.234046, -12.421592 ], [ 28.216259, -12.408128 ], [ 28.190589, -12.400762 ], [ 28.181745, -12.385378 ], [ 28.176024, -12.383395 ], [ 28.164249, -12.388502 ], [ 28.149185, -12.404285 ], [ 28.145412, -12.412754 ], [ 28.144154, -12.427323 ], [ 28.124354, -12.43411 ], [ 28.1167, -12.427159 ], [ 28.088721, -12.363191 ], [ 28.077323, -12.354088 ], [ 28.059952, -12.350053 ], [ 28.014483, -12.34941 ], [ 27.990362, -12.339804 ], [ 27.963422, -12.351816 ], [ 27.951837, -12.350721 ], [ 27.949029, -12.341018 ], [ 27.952069, -12.312737 ], [ 27.933692, -12.277313 ], [ 27.9248, -12.248205 ], [ 27.91803, -12.241533 ], [ 27.864343, -12.243524 ], [ 27.819208, -12.231093 ], [ 27.814863, -12.23557 ], [ 27.818844, -12.251787 ], [ 27.816317, -12.259063 ], [ 27.778407, -12.272863 ], [ 27.758601, -12.288083 ], [ 27.713656, -12.281873 ], [ 27.695553, -12.285369 ], [ 27.673542, -12.283441 ], [ 27.654728, -12.286187 ], [ 27.644632, -12.282834 ], [ 27.630991, -12.273407 ], [ 27.619676, -12.235023 ], [ 27.613335, -12.225232 ], [ 27.601391, -12.218892 ], [ 27.577184, -12.215221 ], [ 27.565824, -12.210138 ], [ 27.530729, -12.178315 ], [ 27.515435, -12.157418 ], [ 27.509287, -12.139117 ], [ 27.506998, -12.100582 ], [ 27.498075, -12.070213 ], [ 27.491237, -12.061579 ], [ 27.475016, -12.051937 ], [ 27.467537, -12.033627 ], [ 27.464842, -12.012757 ], [ 27.471699, -11.95874 ], [ 27.468306, -11.939149 ], [ 27.461805, -11.926709 ], [ 27.438389, -11.907023 ], [ 27.408499, -11.895303 ], [ 27.395678, -11.876689 ], [ 27.350843, -11.851911 ], [ 27.295164, -11.812773 ], [ 27.271774, -11.803864 ], [ 27.246473, -11.799957 ], [ 27.231954, -11.785529 ], [ 27.227936, -11.772205 ], [ 27.22569, -11.652615 ], [ 27.216921, -11.609852 ], [ 27.210481, -11.578442 ], [ 27.204621, -11.569482 ], [ 27.198806, -11.570308 ], [ 27.18481, -11.583002 ], [ 27.15779, -11.599019 ], [ 27.120986, -11.595781 ], [ 27.090254, -11.605157 ], [ 27.044872, -11.603463 ], [ 27.03372, -11.609852 ], [ 27.02766, -11.613324 ], [ 27.024849, -11.620833 ], [ 27.025299, -11.650664 ], [ 27.043807, -11.67918 ], [ 27.047837, -11.702742 ], [ 27.044311, -11.713158 ], [ 27.032417, -11.723594 ], [ 27.023866, -11.741576 ], [ 27.013548, -11.753634 ], [ 27.008783, -11.766225 ], [ 27.005726, -11.795922 ], [ 26.999623, -11.814758 ], [ 27.008182, -11.835071 ], [ 27.007392, -11.845366 ], [ 27.001853, -11.852798 ], [ 26.987844, -11.861504 ], [ 26.980093, -11.875182 ], [ 26.970748, -11.882067 ], [ 26.962612, -11.903359 ], [ 26.952415, -11.919854 ], [ 26.911939, -11.951865 ], [ 26.897017, -11.973691 ], [ 26.883242, -11.98368 ], [ 26.856104, -11.98151 ], [ 26.826692, -11.991787 ], [ 26.815669, -11.985102 ], [ 26.796946, -11.967159 ], [ 26.775287, -11.964074 ], [ 26.754665, -11.97434 ], [ 26.720044, -12.006644 ], [ 26.71045, -12.008426 ], [ 26.688145, -11.991598 ], [ 26.663105, -11.985873 ], [ 26.635651, -11.985038 ], [ 26.602198, -11.972448 ], [ 26.57979, -11.980795 ], [ 26.562226, -11.979861 ], [ 26.535289, -11.961513 ], [ 26.510295, -11.950318 ], [ 26.483063, -11.927515 ], [ 26.466857, -11.920018 ], [ 26.440417, -11.915115 ], [ 26.427291, -11.91519 ], [ 26.407809, -11.92082 ], [ 26.366418, -11.943212 ], [ 26.348391, -11.956722 ], [ 26.327731, -11.96559 ], [ 26.310878, -11.962222 ], [ 26.285246, -11.94729 ], [ 26.250878, -11.942852 ], [ 26.216134, -11.930025 ], [ 26.211204, -11.928205 ], [ 26.201902, -11.929395 ], [ 26.192577, -11.937308 ], [ 26.186388, -11.938903 ], [ 26.168262, -11.935748 ], [ 26.13564, -11.939966 ], [ 26.072225, -11.94275 ], [ 25.98967, -11.940023 ], [ 25.982612, -11.937159 ], [ 25.979744, -11.932584 ], [ 25.989631, -11.911814 ], [ 25.985073, -11.896471 ], [ 25.974917, -11.8866 ], [ 25.960947, -11.878806 ], [ 25.934259, -11.879772 ], [ 25.91752, -11.872463 ], [ 25.899365, -11.848554 ], [ 25.888938, -11.810744 ], [ 25.878329, -11.800242 ], [ 25.865852, -11.801054 ], [ 25.839005, -11.821556 ], [ 25.822284, -11.827639 ], [ 25.794824, -11.826241 ], [ 25.719123, -11.814663 ], [ 25.709153, -11.807507 ], [ 25.697229, -11.792181 ], [ 25.677261, -11.779587 ], [ 25.656664, -11.737361 ], [ 25.647837, -11.730489 ], [ 25.631573, -11.737014 ], [ 25.609709, -11.734361 ], [ 25.597935, -11.735723 ], [ 25.577179, -11.759789 ], [ 25.560838, -11.762104 ], [ 25.534725, -11.775125 ], [ 25.507331, -11.784606 ], [ 25.497994, -11.784259 ], [ 25.489921, -11.77949 ], [ 25.485046, -11.771656 ], [ 25.485015, -11.764199 ], [ 25.494724, -11.742999 ], [ 25.495973, -11.726704 ], [ 25.492473, -11.709512 ], [ 25.482108, -11.693122 ], [ 25.462122, -11.681822 ], [ 25.42698, -11.675075 ], [ 25.388556, -11.651245 ], [ 25.364353, -11.642837 ], [ 25.337991, -11.626772 ], [ 25.330675, -11.61221 ], [ 25.330288, -11.609852 ], [ 25.326904, -11.589227 ], [ 25.307258, -11.569523 ], [ 25.308449, -11.531988 ], [ 25.292459, -11.517267 ], [ 25.296696, -11.510576 ], [ 25.321364, -11.502068 ], [ 25.324908, -11.496143 ], [ 25.30639, -11.473466 ], [ 25.304976, -11.445466 ], [ 25.299337, -11.427641 ], [ 25.300499, -11.413803 ], [ 25.290204, -11.396822 ], [ 25.279786, -11.368389 ], [ 25.283518, -11.360156 ], [ 25.303561, -11.35313 ], [ 25.312277, -11.343839 ], [ 25.312292, -11.330705 ], [ 25.300242, -11.316442 ], [ 25.297846, -11.306613 ], [ 25.303408, -11.30024 ], [ 25.327039, -11.292264 ], [ 25.332984, -11.285191 ], [ 25.333064, -11.27856 ], [ 25.322366, -11.263855 ], [ 25.321164, -11.25661 ], [ 25.334224, -11.224742 ], [ 25.349031, -11.206496 ], [ 25.348335, -11.19715 ], [ 25.301253, -11.192669 ], [ 25.273058, -11.202456 ], [ 25.22481, -11.227227 ], [ 25.178686, -11.234857 ], [ 25.138516, -11.23807 ], [ 25.100626, -11.250743 ], [ 25.071545, -11.25431 ], [ 25.048686, -11.24999 ], [ 24.989419, -11.250348 ], [ 24.962723, -11.258626 ], [ 24.945795, -11.255565 ], [ 24.932123, -11.256497 ], [ 24.904751, -11.269148 ], [ 24.873398, -11.263354 ], [ 24.867565, -11.267862 ], [ 24.860008, -11.284969 ], [ 24.851254, -11.292516 ], [ 24.82105, -11.29649 ], [ 24.800165, -11.303516 ], [ 24.774208, -11.300195 ], [ 24.73827, -11.30697 ], [ 24.734319, -11.311707 ], [ 24.735073, -11.322457 ], [ 24.732426, -11.327241 ], [ 24.71082, -11.329048 ], [ 24.699962, -11.33373 ], [ 24.686402, -11.346879 ], [ 24.666029, -11.359016 ], [ 24.645591, -11.391401 ], [ 24.63511, -11.402614 ], [ 24.59954, -11.418889 ], [ 24.593613, -11.429524 ], [ 24.591774, -11.446892 ], [ 24.584447, -11.454886 ], [ 24.575755, -11.455315 ], [ 24.553756, -11.447786 ], [ 24.545519, -11.447591 ], [ 24.521715, -11.461609 ], [ 24.47412, -11.460701 ], [ 24.444896, -11.474134 ], [ 24.437514, -11.466574 ], [ 24.433143, -11.445192 ], [ 24.38185, -11.40938 ], [ 24.368149, -11.405578 ], [ 24.344087, -11.409675 ], [ 24.31794, -11.406952 ], [ 24.301862, -11.400777 ], [ 24.288993, -11.385907 ], [ 24.290535, -11.378886 ], [ 24.297296, -11.374489 ], [ 24.336587, -11.371427 ], [ 24.350307, -11.364756 ], [ 24.365013, -11.341328 ], [ 24.376451, -11.309834 ], [ 24.394083, -11.281998 ], [ 24.398158, -11.263676 ], [ 24.400553, -11.198545 ], [ 24.387446, -11.175293 ], [ 24.39109, -11.115009 ], [ 24.382326, -11.092269 ], [ 24.322761, -11.054213 ], [ 24.286664, -11.043627 ], [ 24.252706, -11.044585 ], [ 24.190517, -11.029751 ], [ 24.179751, -11.032702 ], [ 24.165664, -11.04379 ], [ 24.142633, -11.036421 ], [ 24.134575, -11.029598 ], [ 24.132131, -11.023259 ], [ 24.142415, -10.994608 ], [ 24.145116, -10.974905 ], [ 24.142112, -10.967439 ], [ 24.123043, -10.947571 ], [ 24.129534, -10.922536 ], [ 24.123724, -10.910113 ], [ 24.11586, -10.905193 ], [ 24.094502, -10.904608 ], [ 24.074846, -10.89356 ], [ 24.060974, -10.890019 ], [ 24.012691, -10.885608 ], [ 23.999528, -10.887249 ] ] ], [ [ [ 12.977551, -5.892059 ], [ 12.961689, -5.899129 ], [ 12.936288, -5.903199 ], [ 12.921978, -5.903434 ], [ 12.903404, -5.897343 ], [ 12.875736, -5.901658 ], [ 12.844805, -5.919625 ], [ 12.824883, -5.94981 ], [ 12.796138, -5.965573 ], [ 12.749867, -5.961745 ], [ 12.746514, -5.95614 ], [ 12.738331, -5.960356 ], [ 12.746241, -5.943401 ], [ 12.750899, -5.940408 ], [ 12.755948, -5.942301 ], [ 12.761352, -5.928354 ], [ 12.769179, -5.920283 ], [ 12.798929, -5.908916 ], [ 12.810106, -5.885425 ], [ 12.818108, -5.878659 ], [ 12.852841, -5.879825 ], [ 12.860207, -5.876236 ], [ 12.871177, -5.862296 ], [ 12.877837, -5.860686 ], [ 12.955534, -5.878533 ], [ 12.977551, -5.867417 ], [ 12.982123, -5.864707 ], [ 12.990344, -5.862834 ], [ 13.001092, -5.864771 ], [ 13.001485, -5.866357 ], [ 12.985579, -5.878687 ], [ 12.986063, -5.881719 ], [ 12.982123, -5.887157 ], [ 12.977551, -5.892059 ] ] ], [ [ [ 12.410709, -6.009837 ], [ 12.413632, -6.002623 ], [ 12.432549, -5.989611 ], [ 12.461579, -5.982924 ], [ 12.47854, -5.985423 ], [ 12.48653, -5.982112 ], [ 12.489285, -5.983208 ], [ 12.490143, -5.985597 ], [ 12.490143, -5.988669 ], [ 12.492202, -5.990716 ], [ 12.494432, -5.99447 ], [ 12.491344, -6.001807 ], [ 12.4898, -6.003854 ], [ 12.48653, -6.005127 ], [ 12.468103, -6.015632 ], [ 12.464433, -6.014283 ], [ 12.463059, -6.009583 ], [ 12.440184, -6.02284 ], [ 12.428769, -6.016976 ], [ 12.415712, -6.024533 ], [ 12.410709, -6.009837 ] ] ], [ [ [ 12.55718, -6.002337 ], [ 12.560771, -5.991206 ], [ 12.571767, -5.989541 ], [ 12.575622, -5.986103 ], [ 12.578406, -5.989115 ], [ 12.571767, -5.991891 ], [ 12.571767, -5.993919 ], [ 12.578887, -5.994747 ], [ 12.580661, -5.997081 ], [ 12.576844, -6.003633 ], [ 12.572045, -6.000174 ], [ 12.571767, -6.004541 ], [ 12.565151, -6.002078 ], [ 12.558222, -6.003232 ], [ 12.55718, -6.002337 ] ] ], [ [ [ 12.732328, -5.993557 ], [ 12.737126, -5.983658 ], [ 12.75257, -5.979597 ], [ 12.754245, -5.981461 ], [ 12.75257, -5.98928 ], [ 12.73346, -5.994532 ], [ 12.732328, -5.993557 ] ] ], [ [ [ 12.603156, -5.993031 ], [ 12.605106, -5.990797 ], [ 12.613208, -5.992302 ], [ 12.61692, -5.989123 ], [ 12.620877, -5.989721 ], [ 12.619414, -5.995728 ], [ 12.61692, -5.997234 ], [ 12.606227, -5.996966 ], [ 12.603156, -5.993031 ] ] ], [ [ [ 12.54707, -6.014345 ], [ 12.549001, -6.012068 ], [ 12.556571, -6.009399 ], [ 12.562497, -6.012398 ], [ 12.566208, -6.006561 ], [ 12.569135, -6.006482 ], [ 12.567355, -6.012419 ], [ 12.563828, -6.016456 ], [ 12.560044, -6.017655 ], [ 12.559791, -6.013736 ], [ 12.554936, -6.01304 ], [ 12.549795, -6.015719 ], [ 12.54707, -6.014345 ] ] ], [ [ [ 12.588863, -5.970257 ], [ 12.59014, -5.967726 ], [ 12.595464, -5.969157 ], [ 12.595473, -5.964449 ], [ 12.600279, -5.967008 ], [ 12.601279, -5.969551 ], [ 12.595859, -5.971978 ], [ 12.59208, -5.976091 ], [ 12.589356, -5.973556 ], [ 12.588863, -5.970257 ] ] ], [ [ [ 12.987577, -5.886004 ], [ 12.988472, -5.882564 ], [ 12.996412, -5.87533 ], [ 12.998072, -5.87858 ], [ 12.994442, -5.882993 ], [ 12.989055, -5.886733 ], [ 12.987577, -5.886004 ] ] ], [ [ [ 12.846616, -5.869111 ], [ 12.854294, -5.864901 ], [ 12.853163, -5.873736 ], [ 12.848599, -5.873718 ], [ 12.846616, -5.869111 ] ] ], [ [ [ 12.877057, -5.909535 ], [ 12.880766, -5.905204 ], [ 12.889847, -5.907621 ], [ 12.889847, -5.910361 ], [ 12.877057, -5.909535 ] ] ], [ [ [ 12.73955, -5.999942 ], [ 12.743109, -5.996719 ], [ 12.752554, -5.993381 ], [ 12.752554, -5.995158 ], [ 12.741999, -6.000937 ], [ 12.73955, -5.999942 ] ] ], [ [ [ 12.434791, -6.04295 ], [ 12.43744, -6.040513 ], [ 12.439479, -6.051253 ], [ 12.437336, -6.050952 ], [ 12.434791, -6.04295 ] ] ], [ [ [ 12.550051, -6.003053 ], [ 12.551505, -6.00019 ], [ 12.556734, -6.004019 ], [ 12.554352, -6.006683 ], [ 12.550051, -6.003053 ] ] ], [ [ [ 12.867306, -5.91009 ], [ 12.869349, -5.907555 ], [ 12.874718, -5.905719 ], [ 12.874087, -5.908606 ], [ 12.869749, -5.911271 ], [ 12.867306, -5.91009 ] ] ], [ [ [ 12.584823, -5.917088 ], [ 12.587591, -5.913931 ], [ 12.5912, -5.917677 ], [ 12.588274, -5.920287 ], [ 12.584823, -5.917088 ] ] ], [ [ [ 12.62852, -5.967262 ], [ 12.630354, -5.965395 ], [ 12.634429, -5.965624 ], [ 12.634942, -5.967317 ], [ 12.630542, -5.97059 ], [ 12.62852, -5.967262 ] ] ], [ [ [ 12.438626, -6.057363 ], [ 12.441143, -6.053453 ], [ 12.44372, -6.054327 ], [ 12.44415, -6.059538 ], [ 12.438626, -6.057363 ] ] ] ] } }
]
}
