{
"type": "FeatureCollection",
"name": "Dominica",
"crs": { "type": "name", "properties": { "name": "urn:ogc:def:crs:OGC:1.3:CRS84" } },
"features": [
{ "type": "Feature", "properties": { "id": "DM", "CNTR_ID": "DM", "CNTR_NAME": "Dominica-Dominique", "NAME_ENGL": "Dominica", "ISO3_CODE": "DMA", "FID": "DM" }, "geometry": { "type": "MultiPolygon", "coordinates": [ [ [ [ -61.478758, 15.536559 ], [ -61.4751, 15.544357 ], [ -61.462428, 15.554843 ], [ -61.4572, 15.569468 ], [ -61.460789, 15.580945 ], [ -61.466989, 15.583937 ], [ -61.475725, 15.58284 ], [ -61.478088, 15.585666 ], [ -61.475901, 15.589501 ], [ -61.467589, 15.591054 ], [ -61.463002, 15.596757 ], [ -61.466097, 15.619166 ], [ -61.461124, 15.633869 ], [ -61.457909, 15.63625 ], [ -61.433001, 15.639089 ], [ -61.418727, 15.635418 ], [ -61.388073, 15.595702 ], [ -61.376961, 15.594504 ], [ -61.364943, 15.598651 ], [ -61.353888, 15.593718 ], [ -61.337471, 15.595107 ], [ -61.32517, 15.587436 ], [ -61.305765, 15.585208 ], [ -61.30434, 15.573057 ], [ -61.291696, 15.548269 ], [ -61.272705, 15.537733 ], [ -61.273332, 15.520866 ], [ -61.258158, 15.515768 ], [ -61.258039, 15.504863 ], [ -61.249565, 15.491175 ], [ -61.243693, 15.466983 ], [ -61.25617, 15.436391 ], [ -61.249958, 15.430879 ], [ -61.247852, 15.41681 ], [ -61.252848, 15.405252 ], [ -61.244035, 15.402342 ], [ -61.241851, 15.397602 ], [ -61.251578, 15.388221 ], [ -61.246517, 15.379254 ], [ -61.251924, 15.368689 ], [ -61.249645, 15.349236 ], [ -61.241865, 15.330071 ], [ -61.245351, 15.314814 ], [ -61.248437, 15.301924 ], [ -61.246209, 15.289891 ], [ -61.25409, 15.282017 ], [ -61.258373, 15.256483 ], [ -61.262217, 15.250176 ], [ -61.275753, 15.243437 ], [ -61.307487, 15.243674 ], [ -61.312237, 15.238866 ], [ -61.316175, 15.22818 ], [ -61.328653, 15.22088 ], [ -61.333477, 15.212771 ], [ -61.354817, 15.208411 ], [ -61.366067, 15.212946 ], [ -61.361683, 15.22943 ], [ -61.372927, 15.244527 ], [ -61.377018, 15.258969 ], [ -61.375906, 15.284234 ], [ -61.389842, 15.299864 ], [ -61.389676, 15.314814 ], [ -61.395417, 15.328019 ], [ -61.393046, 15.339665 ], [ -61.395937, 15.357829 ], [ -61.413227, 15.384784 ], [ -61.425444, 15.394405 ], [ -61.428656, 15.41694 ], [ -61.4374, 15.43268 ], [ -61.448672, 15.443493 ], [ -61.448268, 15.453713 ], [ -61.469495, 15.496154 ], [ -61.468064, 15.510359 ], [ -61.478758, 15.536559 ] ] ] ] } }
]
}
