{
"type": "FeatureCollection",
"name": "Ecuador",
"crs": { "type": "name", "properties": { "name": "urn:ogc:def:crs:OGC:1.3:CRS84" } },
"features": [
{ "type": "Feature", "properties": { "id": "EC", "CNTR_ID": "EC", "CNTR_NAME": "Ikwadur-Ecuador", "NAME_ENGL": "Ecuador", "ISO3_CODE": "ECU", "FID": "EC" }, "geometry": { "type": "MultiPolygon", "coordinates": [ [ [ [ -80.219995, -3.440662 ], [ -80.209402, -3.439154 ], [ -80.186018, -3.442311 ], [ -80.174961, -3.437991 ], [ -80.164345, -3.429441 ], [ -80.145699, -3.423071 ], [ -80.101489, -3.42386 ], [ -80.078184, -3.418274 ], [ -80.11171, -3.407038 ], [ -80.131959, -3.408662 ], [ -80.155862, -3.415191 ], [ -80.18055, -3.396805 ], [ -80.196023, -3.396893 ], [ -80.218654, -3.35336 ], [ -80.217416, -3.343204 ], [ -80.21219, -3.340494 ], [ -80.171764, -3.342872 ], [ -80.168969, -3.347293 ], [ -80.170695, -3.364067 ], [ -80.159152, -3.370851 ], [ -80.151245, -3.368484 ], [ -80.165751, -3.363646 ], [ -80.157173, -3.340366 ], [ -80.142576, -3.335482 ], [ -80.104383, -3.334274 ], [ -80.097372, -3.341554 ], [ -80.093841, -3.36441 ], [ -80.090716, -3.366233 ], [ -80.08872, -3.355416 ], [ -80.093056, -3.336853 ], [ -80.105654, -3.322847 ], [ -80.0671, -3.288698 ], [ -80.043407, -3.228715 ], [ -80.034043, -3.216403 ], [ -80.029282, -3.214244 ], [ -80.014705, -3.263466 ], [ -80.026258, -3.282714 ], [ -80.033665, -3.303525 ], [ -80.038622, -3.342042 ], [ -80.036247, -3.362492 ], [ -80.058644, -3.386142 ], [ -80.060321, -3.399422 ], [ -80.047291, -3.379964 ], [ -80.032552, -3.36687 ], [ -80.023422, -3.362947 ], [ -80.030345, -3.343521 ], [ -80.02925, -3.327522 ], [ -80.005475, -3.276 ], [ -79.99464, -3.23141 ], [ -79.970954, -3.205315 ], [ -79.93211, -3.170115 ], [ -79.916794, -3.163917 ], [ -79.909358, -3.156376 ], [ -79.901507, -3.129474 ], [ -79.89291, -3.074658 ], [ -79.888656, -3.071088 ], [ -79.874126, -3.068284 ], [ -79.847631, -3.020259 ], [ -79.846124, -2.997063 ], [ -79.852223, -2.961133 ], [ -79.850804, -2.889437 ], [ -79.826627, -2.844856 ], [ -79.817529, -2.804653 ], [ -79.802266, -2.777642 ], [ -79.791084, -2.729324 ], [ -79.781601, -2.714462 ], [ -79.786791, -2.702694 ], [ -79.785227, -2.673902 ], [ -79.767528, -2.656538 ], [ -79.735915, -2.641567 ], [ -79.720094, -2.610252 ], [ -79.720618, -2.581695 ], [ -79.715802, -2.568518 ], [ -79.727424, -2.53036 ], [ -79.726801, -2.514885 ], [ -79.723525, -2.506039 ], [ -79.730117, -2.505824 ], [ -79.740702, -2.516938 ], [ -79.749152, -2.520877 ], [ -79.765058, -2.518928 ], [ -79.777395, -2.50981 ], [ -79.792376, -2.484681 ], [ -79.802449, -2.436761 ], [ -79.828358, -2.39592 ], [ -79.829083, -2.355442 ], [ -79.835579, -2.348388 ], [ -79.845353, -2.349748 ], [ -79.85244, -2.358969 ], [ -79.858774, -2.38877 ], [ -79.859886, -2.441928 ], [ -79.893601, -2.555486 ], [ -79.910843, -2.581823 ], [ -79.920975, -2.586394 ], [ -79.932386, -2.582233 ], [ -79.946482, -2.551549 ], [ -79.958214, -2.542428 ], [ -79.972226, -2.536218 ], [ -79.977893, -2.522762 ], [ -79.972525, -2.515536 ], [ -79.95123, -2.516237 ], [ -79.938863, -2.512312 ], [ -79.931139, -2.499827 ], [ -79.927568, -2.480915 ], [ -79.900933, -2.469501 ], [ -79.893076, -2.455754 ], [ -79.894885, -2.451341 ], [ -79.903084, -2.459219 ], [ -79.912043, -2.461443 ], [ -79.918872, -2.458186 ], [ -79.925186, -2.44964 ], [ -79.930462, -2.4178 ], [ -79.930136, -2.375385 ], [ -79.933398, -2.378413 ], [ -79.93539, -2.393664 ], [ -79.943512, -2.408723 ], [ -79.935818, -2.42348 ], [ -79.932534, -2.456154 ], [ -79.945955, -2.499867 ], [ -79.953777, -2.500647 ], [ -79.972264, -2.481379 ], [ -79.989911, -2.474532 ], [ -80.003957, -2.478814 ], [ -80.02277, -2.495228 ], [ -80.028958, -2.495028 ], [ -80.030654, -2.471798 ], [ -80.021304, -2.438049 ], [ -79.991024, -2.434828 ], [ -79.995765, -2.426993 ], [ -79.998524, -2.413091 ], [ -79.974513, -2.40642 ], [ -79.964185, -2.391625 ], [ -79.966381, -2.389736 ], [ -79.98324, -2.402069 ], [ -80.000206, -2.400714 ], [ -80.006982, -2.389525 ], [ -80.00203, -2.371987 ], [ -79.974324, -2.357288 ], [ -79.932418, -2.318061 ], [ -79.915204, -2.311895 ], [ -79.903674, -2.290002 ], [ -79.912547, -2.271822 ], [ -79.927677, -2.266692 ], [ -79.920432, -2.285044 ], [ -79.921389, -2.298844 ], [ -79.950882, -2.309167 ], [ -79.962053, -2.306605 ], [ -79.963332, -2.285539 ], [ -79.971912, -2.260781 ], [ -79.967517, -2.248859 ], [ -79.969404, -2.246515 ], [ -79.974818, -2.251489 ], [ -79.977001, -2.258744 ], [ -79.970297, -2.282795 ], [ -79.972213, -2.30232 ], [ -79.96667, -2.317898 ], [ -79.967733, -2.327698 ], [ -79.981981, -2.340953 ], [ -80.007971, -2.344033 ], [ -80.020852, -2.350947 ], [ -80.033147, -2.385173 ], [ -80.048768, -2.411334 ], [ -80.064292, -2.452772 ], [ -80.074303, -2.466111 ], [ -80.084043, -2.472225 ], [ -80.088621, -2.494205 ], [ -80.110328, -2.529937 ], [ -80.142869, -2.563317 ], [ -80.160281, -2.563722 ], [ -80.165473, -2.576741 ], [ -80.178184, -2.594675 ], [ -80.207564, -2.607748 ], [ -80.223781, -2.628354 ], [ -80.238682, -2.639304 ], [ -80.24641, -2.640692 ], [ -80.249258, -2.634725 ], [ -80.25196, -2.63569 ], [ -80.255595, -2.648673 ], [ -80.254291, -2.666537 ], [ -80.244362, -2.715645 ], [ -80.249231, -2.728845 ], [ -80.258703, -2.736921 ], [ -80.264351, -2.737498 ], [ -80.290351, -2.728576 ], [ -80.317039, -2.7126 ], [ -80.362823, -2.674986 ], [ -80.391465, -2.645405 ], [ -80.417368, -2.642625 ], [ -80.445157, -2.63187 ], [ -80.500616, -2.569131 ], [ -80.562995, -2.507925 ], [ -80.646922, -2.43028 ], [ -80.668376, -2.414021 ], [ -80.721916, -2.393289 ], [ -80.778942, -2.386879 ], [ -80.80902, -2.372153 ], [ -80.869539, -2.328232 ], [ -80.894201, -2.328705 ], [ -80.901389, -2.310603 ], [ -80.92122, -2.279256 ], [ -80.987887, -2.210523 ], [ -80.999603, -2.190003 ], [ -80.992572, -2.18774 ], [ -80.975516, -2.199634 ], [ -80.953096, -2.205916 ], [ -80.930985, -2.217706 ], [ -80.909048, -2.217469 ], [ -80.855063, -2.194609 ], [ -80.83911, -2.18301 ], [ -80.819923, -2.161717 ], [ -80.790573, -2.150099 ], [ -80.761566, -2.122476 ], [ -80.740687, -2.077824 ], [ -80.736282, -2.056823 ], [ -80.738483, -2.027044 ], [ -80.75005, -2.007663 ], [ -80.75875, -1.976558 ], [ -80.754927, -1.971766 ], [ -80.739749, -1.965124 ], [ -80.731682, -1.954093 ], [ -80.727554, -1.927177 ], [ -80.733012, -1.894156 ], [ -80.756881, -1.823888 ], [ -80.760393, -1.799036 ], [ -80.77451, -1.750792 ], [ -80.791945, -1.721515 ], [ -80.804764, -1.705824 ], [ -80.821775, -1.659808 ], [ -80.841214, -1.626828 ], [ -80.849762, -1.601446 ], [ -80.837184, -1.566488 ], [ -80.819323, -1.560095 ], [ -80.814267, -1.554715 ], [ -80.812854, -1.510962 ], [ -80.796226, -1.493888 ], [ -80.79035, -1.483156 ], [ -80.777988, -1.481099 ], [ -80.768312, -1.471754 ], [ -80.764815, -1.457293 ], [ -80.764893, -1.439536 ], [ -80.753847, -1.421016 ], [ -80.757963, -1.389924 ], [ -80.743619, -1.371058 ], [ -80.740936, -1.357244 ], [ -80.762901, -1.312172 ], [ -80.856667, -1.19325 ], [ -80.879634, -1.149883 ], [ -80.907741, -1.054293 ], [ -80.900026, -1.038946 ], [ -80.877729, -1.020926 ], [ -80.860557, -0.997183 ], [ -80.824155, -0.958631 ], [ -80.793854, -0.957187 ], [ -80.761536, -0.944605 ], [ -80.738575, -0.940561 ], [ -80.716871, -0.946621 ], [ -80.700189, -0.946603 ], [ -80.662242, -0.932472 ], [ -80.645685, -0.940046 ], [ -80.62447, -0.943011 ], [ -80.606246, -0.937342 ], [ -80.578931, -0.920172 ], [ -80.558696, -0.898138 ], [ -80.543019, -0.871968 ], [ -80.501611, -0.726279 ], [ -80.471391, -0.645529 ], [ -80.445137, -0.60862 ], [ -80.425763, -0.601467 ], [ -80.414875, -0.634519 ], [ -80.404729, -0.644589 ], [ -80.384376, -0.654617 ], [ -80.376836, -0.654985 ], [ -80.370337, -0.650761 ], [ -80.351542, -0.657983 ], [ -80.33962, -0.651699 ], [ -80.318109, -0.648345 ], [ -80.322192, -0.644661 ], [ -80.343188, -0.639942 ], [ -80.381926, -0.640026 ], [ -80.391011, -0.633469 ], [ -80.401733, -0.619104 ], [ -80.415471, -0.583432 ], [ -80.436168, -0.560509 ], [ -80.457142, -0.467775 ], [ -80.463925, -0.453138 ], [ -80.479364, -0.432587 ], [ -80.489225, -0.408192 ], [ -80.491316, -0.387403 ], [ -80.488917, -0.375777 ], [ -80.484314, -0.369083 ], [ -80.467499, -0.363327 ], [ -80.437242, -0.340842 ], [ -80.409122, -0.309793 ], [ -80.395587, -0.285181 ], [ -80.377814, -0.234404 ], [ -80.345968, -0.207361 ], [ -80.329817, -0.182373 ], [ -80.307775, -0.185428 ], [ -80.29494, -0.183382 ], [ -80.232846, -0.135541 ], [ -80.17948, -0.079695 ], [ -80.144305, -0.049004 ], [ -80.105289, 0.006261 ], [ -80.088222, 0.0425 ], [ -80.064334, 0.062004 ], [ -80.043585, 0.117469 ], [ -80.032904, 0.175764 ], [ -80.031533, 0.227236 ], [ -80.040115, 0.348423 ], [ -80.035262, 0.362608 ], [ -80.028426, 0.361975 ], [ -80.01402, 0.350407 ], [ -80.004064, 0.336227 ], [ -79.998624, 0.322321 ], [ -79.992816, 0.285088 ], [ -79.999271, 0.235867 ], [ -79.995185, 0.22427 ], [ -79.990663, 0.221064 ], [ -79.982179, 0.222263 ], [ -79.978785, 0.237871 ], [ -79.966867, 0.247648 ], [ -79.960824, 0.24694 ], [ -79.954807, 0.22738 ], [ -79.960808, 0.216691 ], [ -79.969959, 0.211828 ], [ -79.970471, 0.193719 ], [ -79.966508, 0.191483 ], [ -79.949417, 0.205635 ], [ -79.941396, 0.225478 ], [ -79.941976, 0.234881 ], [ -79.94794, 0.248335 ], [ -79.944785, 0.2615 ], [ -79.967051, 0.276902 ], [ -79.982188, 0.297482 ], [ -79.984943, 0.33023 ], [ -79.981929, 0.364184 ], [ -79.987622, 0.386728 ], [ -79.998162, 0.400364 ], [ -80.017476, 0.411028 ], [ -80.033113, 0.426668 ], [ -80.043307, 0.442139 ], [ -80.049172, 0.459065 ], [ -80.043942, 0.492451 ], [ -80.021141, 0.515085 ], [ -80.006968, 0.542721 ], [ -80.008029, 0.549465 ], [ -80.002886, 0.554601 ], [ -80.005956, 0.567239 ], [ -80.02879, 0.605884 ], [ -80.031803, 0.617369 ], [ -80.023605, 0.61552 ], [ -80.011886, 0.605151 ], [ -80.01127, 0.607522 ], [ -80.0308, 0.627548 ], [ -80.067046, 0.649389 ], [ -80.087194, 0.656241 ], [ -80.098182, 0.677922 ], [ -80.100368, 0.691442 ], [ -80.094944, 0.7597 ], [ -80.076678, 0.794499 ], [ -80.053299, 0.818074 ], [ -79.971521, 0.821716 ], [ -79.951304, 0.829003 ], [ -79.918472, 0.852939 ], [ -79.902335, 0.857221 ], [ -79.882187, 0.867641 ], [ -79.856268, 0.870922 ], [ -79.809056, 0.896822 ], [ -79.776116, 0.9299 ], [ -79.73726, 0.96271 ], [ -79.703288, 0.971991 ], [ -79.659703, 0.990338 ], [ -79.649704, 0.987503 ], [ -79.634079, 0.963508 ], [ -79.621425, 0.988162 ], [ -79.591242, 0.987054 ], [ -79.549377, 0.997113 ], [ -79.408377, 1.077305 ], [ -79.396153, 1.079595 ], [ -79.379109, 1.072761 ], [ -79.354693, 1.070695 ], [ -79.31006, 1.079422 ], [ -79.266785, 1.083495 ], [ -79.242648, 1.076126 ], [ -79.166369, 1.096664 ], [ -79.128585, 1.124175 ], [ -79.125401, 1.126532 ], [ -79.087105, 1.17162 ], [ -79.068323, 1.2028 ], [ -79.051737, 1.223255 ], [ -79.043954, 1.239929 ], [ -79.01056, 1.265963 ], [ -78.998897, 1.265523 ], [ -78.990235, 1.254755 ], [ -78.959973, 1.22797 ], [ -78.932713, 1.229461 ], [ -78.938253, 1.240075 ], [ -78.958226, 1.25233 ], [ -78.968973, 1.265156 ], [ -78.978862, 1.272252 ], [ -78.981548, 1.281466 ], [ -78.976226, 1.295805 ], [ -78.963845, 1.315732 ], [ -78.945481, 1.332159 ], [ -78.935197, 1.33421 ], [ -78.926687, 1.35075 ], [ -78.911527, 1.368904 ], [ -78.897127, 1.365258 ], [ -78.884153, 1.313995 ], [ -78.87691, 1.301953 ], [ -78.869373, 1.298476 ], [ -78.850263, 1.298043 ], [ -78.830629, 1.290446 ], [ -78.817014, 1.2902 ], [ -78.805938, 1.298683 ], [ -78.792851, 1.301218 ], [ -78.792028, 1.302757 ], [ -78.803781, 1.308353 ], [ -78.816, 1.301042 ], [ -78.823644, 1.299531 ], [ -78.832086, 1.309959 ], [ -78.848279, 1.306485 ], [ -78.871302, 1.312788 ], [ -78.875049, 1.318736 ], [ -78.875969, 1.337852 ], [ -78.871017, 1.35378 ], [ -78.859988, 1.365033 ], [ -78.848016, 1.369002 ], [ -78.844403, 1.366961 ], [ -78.846406, 1.357916 ], [ -78.843851, 1.357453 ], [ -78.827665, 1.380052 ], [ -78.835634, 1.385439 ], [ -78.835176, 1.400263 ], [ -78.814194, 1.405598 ], [ -78.805635, 1.41929 ], [ -78.776197, 1.392545 ], [ -78.750896, 1.388821 ], [ -78.734401, 1.376345 ], [ -78.723967, 1.355773 ], [ -78.698656, 1.345546 ], [ -78.691561, 1.339376 ], [ -78.673831, 1.2951 ], [ -78.657467, 1.277736 ], [ -78.642728, 1.265514 ], [ -78.625969, 1.256374 ], [ -78.609234, 1.240247 ], [ -78.585043, 1.230008 ], [ -78.568976, 1.218548 ], [ -78.550277, 1.195032 ], [ -78.532423, 1.19407 ], [ -78.487878, 1.182515 ], [ -78.454457, 1.15838 ], [ -78.435498, 1.148218 ], [ -78.422388, 1.130024 ], [ -78.419638, 1.124175 ], [ -78.408409, 1.100301 ], [ -78.374322, 1.064985 ], [ -78.355813, 1.050772 ], [ -78.315747, 1.030563 ], [ -78.250381, 1.015697 ], [ -78.199522, 0.993119 ], [ -78.183109, 0.978318 ], [ -78.156454, 0.94522 ], [ -78.120708, 0.913348 ], [ -78.060786, 0.872627 ], [ -78.014581, 0.852874 ], [ -77.974905, 0.819183 ], [ -77.960289, 0.812419 ], [ -77.842895, 0.797202 ], [ -77.817631, 0.804259 ], [ -77.793611, 0.824312 ], [ -77.765658, 0.830832 ], [ -77.736394, 0.830649 ], [ -77.716095, 0.838777 ], [ -77.70622, 0.837334 ], [ -77.67334, 0.816558 ], [ -77.656114, 0.801773 ], [ -77.652705, 0.791673 ], [ -77.657267, 0.781618 ], [ -77.698183, 0.750689 ], [ -77.700849, 0.741173 ], [ -77.695325, 0.727446 ], [ -77.686043, 0.720469 ], [ -77.650799, 0.714958 ], [ -77.598394, 0.667003 ], [ -77.55681, 0.647207 ], [ -77.536375, 0.649967 ], [ -77.521485, 0.645695 ], [ -77.50217, 0.631871 ], [ -77.483159, 0.60739 ], [ -77.480638, 0.600191 ], [ -77.492669, 0.529946 ], [ -77.483807, 0.497097 ], [ -77.478967, 0.445854 ], [ -77.4654, 0.3987 ], [ -77.449562, 0.38922 ], [ -77.429754, 0.385477 ], [ -77.402162, 0.361906 ], [ -77.391084, 0.362281 ], [ -77.382775, 0.380488 ], [ -77.37358, 0.386182 ], [ -77.253902, 0.352423 ], [ -77.205749, 0.361526 ], [ -77.181214, 0.374391 ], [ -77.128634, 0.373131 ], [ -77.111294, 0.357339 ], [ -77.096326, 0.330091 ], [ -77.085019, 0.316226 ], [ -77.08349, 0.310034 ], [ -77.085968, 0.296199 ], [ -77.079549, 0.287932 ], [ -77.05243, 0.284176 ], [ -77.032393, 0.273707 ], [ -77.013254, 0.279739 ], [ -76.990281, 0.268547 ], [ -76.958128, 0.266099 ], [ -76.905739, 0.249135 ], [ -76.897236, 0.248745 ], [ -76.874685, 0.24771 ], [ -76.847098, 0.242531 ], [ -76.839863, 0.2447 ], [ -76.830303, 0.254271 ], [ -76.8073, 0.264156 ], [ -76.791124, 0.260775 ], [ -76.7804, 0.252864 ], [ -76.759219, 0.255231 ], [ -76.754261, 0.26086 ], [ -76.758644, 0.269396 ], [ -76.757406, 0.273915 ], [ -76.727481, 0.284703 ], [ -76.714033, 0.277805 ], [ -76.695248, 0.280282 ], [ -76.691894, 0.279539 ], [ -76.671332, 0.274988 ], [ -76.655619, 0.259964 ], [ -76.646213, 0.263971 ], [ -76.644186, 0.264834 ], [ -76.637848, 0.264296 ], [ -76.627125, 0.258015 ], [ -76.61684, 0.243516 ], [ -76.595944, 0.234068 ], [ -76.557919, 0.253872 ], [ -76.542333, 0.257836 ], [ -76.526874, 0.256507 ], [ -76.504941, 0.248613 ], [ -76.494861, 0.247719 ], [ -76.452716, 0.253087 ], [ -76.439749, 0.260271 ], [ -76.426566, 0.24759 ], [ -76.404382, 0.24925 ], [ -76.399284, 0.254734 ], [ -76.397969, 0.262893 ], [ -76.403966, 0.365704 ], [ -76.400073, 0.387194 ], [ -76.384736, 0.396673 ], [ -76.34334, 0.401867 ], [ -76.316767, 0.429221 ], [ -76.296214, 0.438786 ], [ -76.270165, 0.440385 ], [ -76.20984, 0.39866 ], [ -76.179139, 0.393903 ], [ -76.139679, 0.394817 ], [ -76.119471, 0.386036 ], [ -76.10662, 0.370735 ], [ -76.101362, 0.353116 ], [ -76.096179, 0.347098 ], [ -76.085742, 0.345987 ], [ -76.060177, 0.355532 ], [ -76.051923, 0.354845 ], [ -76.040106, 0.349144 ], [ -76.014559, 0.325776 ], [ -76.000134, 0.305924 ], [ -75.987478, 0.279551 ], [ -75.958167, 0.25259 ], [ -75.926425, 0.203971 ], [ -75.903513, 0.176387 ], [ -75.882199, 0.15625 ], [ -75.832427, 0.122978 ], [ -75.800022, 0.091922 ], [ -75.761534, 0.071291 ], [ -75.733607, 0.064706 ], [ -75.667211, 0.065461 ], [ -75.619935, 0.07291 ], [ -75.599792, 0.065791 ], [ -75.584019, 0.055024 ], [ -75.573718, 0.042167 ], [ -75.579941, -0.005422 ], [ -75.574916, -0.012949 ], [ -75.560772, -0.013706 ], [ -75.532869, -0.014483 ], [ -75.440543, -0.066806 ], [ -75.414451, -0.077261 ], [ -75.364706, -0.074853 ], [ -75.341705, -0.083022 ], [ -75.2882, -0.093691 ], [ -75.291817, -0.108777 ], [ -75.304455, -0.133068 ], [ -75.308378, -0.133178 ], [ -75.316612, -0.125475 ], [ -75.327504, -0.134466 ], [ -75.349309, -0.136104 ], [ -75.359495, -0.141049 ], [ -75.36301, -0.138368 ], [ -75.364107, -0.127027 ], [ -75.370724, -0.125232 ], [ -75.375572, -0.141649 ], [ -75.387748, -0.148396 ], [ -75.412055, -0.148188 ], [ -75.436128, -0.136798 ], [ -75.457515, -0.138545 ], [ -75.465678, -0.128301 ], [ -75.478644, -0.118979 ], [ -75.498467, -0.116758 ], [ -75.511192, -0.110664 ], [ -75.523033, -0.113648 ], [ -75.53412, -0.111368 ], [ -75.537046, -0.116489 ], [ -75.543137, -0.117798 ], [ -75.546963, -0.122455 ], [ -75.557302, -0.124039 ], [ -75.560772, -0.123539 ], [ -75.577926, -0.115528 ], [ -75.600245, -0.116382 ], [ -75.61498, -0.108139 ], [ -75.620641, -0.109694 ], [ -75.625834, -0.249412 ], [ -75.618453, -0.265878 ], [ -75.560772, -0.306589 ], [ -75.535462, -0.326357 ], [ -75.50052, -0.333804 ], [ -75.471595, -0.324958 ], [ -75.449091, -0.329335 ], [ -75.424407, -0.385106 ], [ -75.413548, -0.424149 ], [ -75.397511, -0.435358 ], [ -75.382087, -0.435802 ], [ -75.37451, -0.451786 ], [ -75.364648, -0.450319 ], [ -75.357514, -0.442811 ], [ -75.351804, -0.442434 ], [ -75.348274, -0.450839 ], [ -75.341039, -0.455353 ], [ -75.336524, -0.462972 ], [ -75.336345, -0.480266 ], [ -75.323495, -0.483953 ], [ -75.317385, -0.491119 ], [ -75.313243, -0.490153 ], [ -75.306602, -0.48219 ], [ -75.300908, -0.483642 ], [ -75.294301, -0.491876 ], [ -75.285886, -0.515342 ], [ -75.28172, -0.515037 ], [ -75.272499, -0.505013 ], [ -75.268066, -0.504048 ], [ -75.260243, -0.517517 ], [ -75.260551, -0.527959 ], [ -75.244972, -0.536237 ], [ -75.244301, -0.553801 ], [ -75.253511, -0.564958 ], [ -75.252682, -0.580423 ], [ -75.250482, -0.584908 ], [ -75.243012, -0.587339 ], [ -75.244967, -0.59493 ], [ -75.235334, -0.60851 ], [ -75.244167, -0.616107 ], [ -75.244863, -0.62595 ], [ -75.25932, -0.626061 ], [ -75.268979, -0.630138 ], [ -75.273485, -0.641233 ], [ -75.280083, -0.64756 ], [ -75.280996, -0.653841 ], [ -75.277727, -0.662068 ], [ -75.258245, -0.681642 ], [ -75.275024, -0.69746 ], [ -75.27933, -0.704546 ], [ -75.27979, -0.712162 ], [ -75.273806, -0.730793 ], [ -75.25157, -0.752898 ], [ -75.260395, -0.777298 ], [ -75.242067, -0.788043 ], [ -75.237559, -0.794863 ], [ -75.235894, -0.802192 ], [ -75.241451, -0.824871 ], [ -75.220218, -0.853365 ], [ -75.215147, -0.869878 ], [ -75.216229, -0.898429 ], [ -75.225785, -0.916114 ], [ -75.226329, -0.931843 ], [ -75.216217, -0.945707 ], [ -75.197263, -0.958017 ], [ -75.185659, -0.971087 ], [ -75.189922, -0.975307 ], [ -75.198706, -0.975939 ], [ -75.25705, -0.972134 ], [ -75.279804, -0.979941 ], [ -75.301272, -0.979753 ], [ -75.320408, -0.970432 ], [ -75.34473, -0.94754 ], [ -75.353029, -0.944815 ], [ -75.359843, -0.948727 ], [ -75.364972, -0.958097 ], [ -75.425397, -1.155014 ], [ -75.53855, -1.535985 ], [ -75.548455, -1.544069 ], [ -75.560772, -1.543808 ], [ -75.57775, -1.548886 ], [ -75.61937, -1.586703 ], [ -76.035108, -2.115524 ], [ -76.043757, -2.126523 ], [ -76.072126, -2.151361 ], [ -76.633835, -2.593431 ], [ -76.646213, -2.597691 ], [ -76.897236, -2.684084 ], [ -77.099184, -2.753582 ], [ -77.758976, -2.972649 ], [ -77.83613, -3.005325 ], [ -77.994952, -3.134407 ], [ -78.018903, -3.163484 ], [ -78.056421, -3.220304 ], [ -78.063883, -3.223333 ], [ -78.080371, -3.218669 ], [ -78.08919, -3.220877 ], [ -78.093764, -3.231607 ], [ -78.097524, -3.2624 ], [ -78.108623, -3.282833 ], [ -78.139956, -3.317375 ], [ -78.172663, -3.339462 ], [ -78.190362, -3.35717 ], [ -78.194951, -3.373661 ], [ -78.189828, -3.390048 ], [ -78.175702, -3.412229 ], [ -78.131219, -3.46626 ], [ -78.123116, -3.480823 ], [ -78.121727, -3.491405 ], [ -78.124363, -3.505428 ], [ -78.140226, -3.523611 ], [ -78.158697, -3.526129 ], [ -78.180445, -3.514999 ], [ -78.190217, -3.512951 ], [ -78.198658, -3.516966 ], [ -78.215913, -3.534105 ], [ -78.225215, -3.535138 ], [ -78.234108, -3.53191 ], [ -78.240447, -3.525058 ], [ -78.24341, -3.514806 ], [ -78.240884, -3.454548 ], [ -78.243192, -3.441037 ], [ -78.249447, -3.428874 ], [ -78.26553, -3.415668 ], [ -78.281615, -3.411455 ], [ -78.297981, -3.414331 ], [ -78.313913, -3.424776 ], [ -78.327929, -3.441827 ], [ -78.336858, -3.465215 ], [ -78.34833, -3.547499 ], [ -78.34753, -3.644313 ], [ -78.350544, -3.677636 ], [ -78.365472, -3.749607 ], [ -78.376569, -3.784953 ], [ -78.399899, -3.823858 ], [ -78.473682, -3.9071 ], [ -78.498311, -3.948066 ], [ -78.523186, -4.009555 ], [ -78.5501, -4.066238 ], [ -78.570751, -4.129246 ], [ -78.575049, -4.158763 ], [ -78.568671, -4.234931 ], [ -78.571725, -4.253685 ], [ -78.579647, -4.264727 ], [ -78.614599, -4.290794 ], [ -78.626483, -4.316544 ], [ -78.630684, -4.347273 ], [ -78.628146, -4.371592 ], [ -78.612739, -4.42179 ], [ -78.609398, -4.446618 ], [ -78.610935, -4.466816 ], [ -78.619014, -4.491801 ], [ -78.647236, -4.543053 ], [ -78.676152, -4.585526 ], [ -78.732802, -4.650313 ], [ -78.751033, -4.658738 ], [ -78.791302, -4.663122 ], [ -78.837732, -4.680645 ], [ -78.86559, -4.701682 ], [ -78.884251, -4.725371 ], [ -78.918284, -4.795465 ], [ -78.918965, -4.80304 ], [ -78.913216, -4.825548 ], [ -78.94071, -4.854279 ], [ -78.962968, -4.885273 ], [ -78.978057, -4.918364 ], [ -78.986802, -4.960337 ], [ -78.992952, -4.972565 ], [ -79.000838, -4.979728 ], [ -79.017094, -4.985164 ], [ -79.035889, -4.997906 ], [ -79.044058, -4.987298 ], [ -79.06533, -4.983991 ], [ -79.066894, -4.972175 ], [ -79.071146, -4.970335 ], [ -79.105112, -4.974736 ], [ -79.140605, -4.962538 ], [ -79.173744, -4.960902 ], [ -79.258701, -4.967108 ], [ -79.292986, -4.918857 ], [ -79.298211, -4.900128 ], [ -79.320028, -4.887185 ], [ -79.341934, -4.88427 ], [ -79.349944, -4.870567 ], [ -79.357902, -4.839721 ], [ -79.369509, -4.832815 ], [ -79.387274, -4.832646 ], [ -79.404995, -4.811502 ], [ -79.415581, -4.798871 ], [ -79.425554, -4.74142 ], [ -79.451214, -4.703071 ], [ -79.457283, -4.658738 ], [ -79.458958, -4.646504 ], [ -79.461569, -4.643068 ], [ -79.479554, -4.619404 ], [ -79.486992, -4.580837 ], [ -79.474269, -4.567128 ], [ -79.472481, -4.558008 ], [ -79.482279, -4.528765 ], [ -79.489486, -4.521793 ], [ -79.507233, -4.513947 ], [ -79.518761, -4.522425 ], [ -79.540553, -4.526532 ], [ -79.543878, -4.512065 ], [ -79.548704, -4.509341 ], [ -79.557284, -4.510517 ], [ -79.569107, -4.497561 ], [ -79.576219, -4.494267 ], [ -79.578161, -4.48514 ], [ -79.579938, -4.483294 ], [ -79.588399, -4.474506 ], [ -79.598953, -4.455504 ], [ -79.607206, -4.453051 ], [ -79.615483, -4.441518 ], [ -79.639938, -4.4326 ], [ -79.652078, -4.434818 ], [ -79.679938, -4.450385 ], [ -79.688781, -4.460519 ], [ -79.702869, -4.468185 ], [ -79.718136, -4.468493 ], [ -79.738868, -4.479035 ], [ -79.752347, -4.479974 ], [ -79.758573, -4.483294 ], [ -79.762073, -4.485161 ], [ -79.810533, -4.486347 ], [ -79.813824, -4.483294 ], [ -79.848032, -4.451567 ], [ -79.851771, -4.44423 ], [ -79.853486, -4.428923 ], [ -79.859216, -4.41996 ], [ -79.867943, -4.410998 ], [ -79.893192, -4.394966 ], [ -79.914581, -4.382599 ], [ -79.931552, -4.391312 ], [ -79.935815, -4.393501 ], [ -79.960136, -4.391391 ], [ -79.974548, -4.376735 ], [ -79.990904, -4.375835 ], [ -80.004224, -4.36783 ], [ -80.015136, -4.35412 ], [ -80.026811, -4.34864 ], [ -80.041085, -4.331368 ], [ -80.049022, -4.326665 ], [ -80.060447, -4.306854 ], [ -80.074047, -4.305143 ], [ -80.100539, -4.294317 ], [ -80.109021, -4.297805 ], [ -80.11954, -4.294634 ], [ -80.131457, -4.29669 ], [ -80.13596, -4.286277 ], [ -80.155092, -4.302733 ], [ -80.159595, -4.301513 ], [ -80.164885, -4.294151 ], [ -80.169803, -4.295312 ], [ -80.174441, -4.303878 ], [ -80.180775, -4.315573 ], [ -80.181192, -4.336782 ], [ -80.190614, -4.338588 ], [ -80.192173, -4.344713 ], [ -80.199546, -4.345375 ], [ -80.205516, -4.350451 ], [ -80.213423, -4.349306 ], [ -80.218316, -4.371846 ], [ -80.225642, -4.370016 ], [ -80.245681, -4.397311 ], [ -80.251844, -4.399318 ], [ -80.256208, -4.405287 ], [ -80.260402, -4.406241 ], [ -80.270752, -4.401885 ], [ -80.276577, -4.40525 ], [ -80.284959, -4.418116 ], [ -80.284196, -4.42914 ], [ -80.287333, -4.434491 ], [ -80.297193, -4.436374 ], [ -80.305738, -4.445866 ], [ -80.31664, -4.448537 ], [ -80.335152, -4.469625 ], [ -80.348321, -4.472529 ], [ -80.358293, -4.479327 ], [ -80.372195, -4.477123 ], [ -80.38274, -4.482649 ], [ -80.388211, -4.482172 ], [ -80.395436, -4.469744 ], [ -80.40789, -4.45814 ], [ -80.41185, -4.45743 ], [ -80.417243, -4.46163 ], [ -80.44233, -4.437823 ], [ -80.446407, -4.405732 ], [ -80.442795, -4.370398 ], [ -80.42406, -4.349704 ], [ -80.414197, -4.322805 ], [ -80.383996, -4.29389 ], [ -80.368088, -4.282588 ], [ -80.362406, -4.268499 ], [ -80.354091, -4.262058 ], [ -80.349545, -4.251908 ], [ -80.332167, -4.229382 ], [ -80.311886, -4.210041 ], [ -80.305691, -4.199751 ], [ -80.312609, -4.195748 ], [ -80.322845, -4.202838 ], [ -80.337213, -4.203529 ], [ -80.35202, -4.21137 ], [ -80.367255, -4.197607 ], [ -80.376471, -4.20223 ], [ -80.38802, -4.20225 ], [ -80.40534, -4.21173 ], [ -80.422031, -4.195855 ], [ -80.442595, -4.194332 ], [ -80.445612, -4.154881 ], [ -80.444734, -4.122496 ], [ -80.459884, -4.126131 ], [ -80.462688, -4.108707 ], [ -80.475308, -4.096356 ], [ -80.480849, -4.083434 ], [ -80.479269, -4.079509 ], [ -80.46887, -4.073944 ], [ -80.475264, -4.054967 ], [ -80.461951, -4.038172 ], [ -80.448789, -4.030566 ], [ -80.446259, -4.021153 ], [ -80.439462, -4.011965 ], [ -80.438833, -3.99864 ], [ -80.429972, -3.992269 ], [ -80.398245, -3.984734 ], [ -80.362917, -3.984249 ], [ -80.339278, -3.996707 ], [ -80.326613, -3.99903 ], [ -80.314225, -4.011751 ], [ -80.287515, -4.01733 ], [ -80.270752, -4.009867 ], [ -80.268654, -4.009407 ], [ -80.258126, -3.998884 ], [ -80.250817, -3.987456 ], [ -80.248183, -3.974538 ], [ -80.237707, -3.962827 ], [ -80.234778, -3.951795 ], [ -80.231082, -3.950045 ], [ -80.21282, -3.952712 ], [ -80.203361, -3.945995 ], [ -80.196829, -3.943344 ], [ -80.183528, -3.929432 ], [ -80.174441, -3.926094 ], [ -80.163223, -3.920972 ], [ -80.155349, -3.910526 ], [ -80.153991, -3.90428 ], [ -80.159488, -3.8847 ], [ -80.161211, -3.878565 ], [ -80.162568, -3.80756 ], [ -80.166482, -3.798416 ], [ -80.174441, -3.795056 ], [ -80.181579, -3.779429 ], [ -80.189287, -3.771115 ], [ -80.188859, -3.751113 ], [ -80.184151, -3.748162 ], [ -80.181726, -3.742115 ], [ -80.180924, -3.729161 ], [ -80.184152, -3.718507 ], [ -80.192244, -3.710147 ], [ -80.195549, -3.69237 ], [ -80.186681, -3.663735 ], [ -80.186368, -3.639333 ], [ -80.195872, -3.621591 ], [ -80.191844, -3.6015 ], [ -80.196123, -3.595538 ], [ -80.20837, -3.591705 ], [ -80.212456, -3.586262 ], [ -80.215367, -3.574875 ], [ -80.207303, -3.54889 ], [ -80.214504, -3.526046 ], [ -80.21486, -3.504742 ], [ -80.217459, -3.500536 ], [ -80.224579, -3.499066 ], [ -80.232762, -3.487799 ], [ -80.238326, -3.466576 ], [ -80.233295, -3.453611 ], [ -80.219995, -3.440662 ] ] ], [ [ [ -90.792933, -0.772553 ], [ -90.8004, -0.784956 ], [ -90.82398, -0.790901 ], [ -90.83011, -0.829323 ], [ -90.839005, -0.83639 ], [ -90.839635, -0.859021 ], [ -90.84589, -0.86589 ], [ -90.845163, -0.87826 ], [ -90.851095, -0.884128 ], [ -90.846684, -0.905753 ], [ -90.850082, -0.915202 ], [ -90.860759, -0.918244 ], [ -90.88383, -0.916272 ], [ -90.889195, -0.929523 ], [ -90.908826, -0.955374 ], [ -90.941776, -0.964988 ], [ -90.950691, -0.960541 ], [ -90.960856, -0.962186 ], [ -90.97112, -0.957266 ], [ -90.993837, -0.96012 ], [ -90.998073, -0.970454 ], [ -91.017454, -0.988283 ], [ -91.035137, -0.990903 ], [ -91.049929, -1.000582 ], [ -91.059429, -1.001249 ], [ -91.062483, -1.011171 ], [ -91.071883, -1.006607 ], [ -91.073942, -1.005608 ], [ -91.093998, -1.010275 ], [ -91.101306, -1.014081 ], [ -91.111197, -1.014625 ], [ -91.116176, -1.018602 ], [ -91.12189, -1.017969 ], [ -91.128828, -1.024386 ], [ -91.136844, -1.0228 ], [ -91.140437, -1.032079 ], [ -91.158115, -1.037257 ], [ -91.163381, -1.03593 ], [ -91.161131, -1.043396 ], [ -91.162691, -1.049617 ], [ -91.17089, -1.053625 ], [ -91.18351, -1.045482 ], [ -91.212876, -1.046355 ], [ -91.22379, -1.033062 ], [ -91.229593, -1.030617 ], [ -91.237031, -1.03201 ], [ -91.294684, -1.019151 ], [ -91.319914, -1.016546 ], [ -91.337514, -1.018193 ], [ -91.34834, -1.015693 ], [ -91.380936, -1.022325 ], [ -91.400469, -1.01805 ], [ -91.409312, -1.011697 ], [ -91.419147, -1.011744 ], [ -91.425353, -1.006033 ], [ -91.43954, -1.000799 ], [ -91.445728, -0.991688 ], [ -91.445307, -0.975624 ], [ -91.449401, -0.955997 ], [ -91.455247, -0.949813 ], [ -91.468645, -0.947763 ], [ -91.484965, -0.940749 ], [ -91.502687, -0.924664 ], [ -91.512328, -0.903111 ], [ -91.50933, -0.8821 ], [ -91.498552, -0.860663 ], [ -91.470863, -0.832675 ], [ -91.454985, -0.821384 ], [ -91.434716, -0.795708 ], [ -91.434042, -0.789121 ], [ -91.422469, -0.783874 ], [ -91.419147, -0.784325 ], [ -91.402309, -0.767052 ], [ -91.385021, -0.76323 ], [ -91.378162, -0.756128 ], [ -91.372408, -0.754934 ], [ -91.366523, -0.741803 ], [ -91.35704, -0.737631 ], [ -91.349291, -0.727371 ], [ -91.337524, -0.718537 ], [ -91.329358, -0.715793 ], [ -91.327519, -0.710644 ], [ -91.329689, -0.702067 ], [ -91.320265, -0.692707 ], [ -91.303324, -0.695182 ], [ -91.289486, -0.691941 ], [ -91.272065, -0.693247 ], [ -91.263523, -0.688574 ], [ -91.254321, -0.690475 ], [ -91.25011, -0.687683 ], [ -91.2454, -0.676497 ], [ -91.216591, -0.668829 ], [ -91.203085, -0.678826 ], [ -91.190061, -0.681083 ], [ -91.184424, -0.689125 ], [ -91.17068, -0.687928 ], [ -91.16575, -0.680817 ], [ -91.152285, -0.675936 ], [ -91.1421, -0.666804 ], [ -91.145745, -0.662537 ], [ -91.142801, -0.6566 ], [ -91.12335, -0.652397 ], [ -91.115082, -0.638931 ], [ -91.109113, -0.637203 ], [ -91.10346, -0.641489 ], [ -91.095734, -0.64185 ], [ -91.088659, -0.635651 ], [ -91.088824, -0.629373 ], [ -91.07989, -0.618864 ], [ -91.072534, -0.614913 ], [ -91.078726, -0.603359 ], [ -91.075202, -0.595554 ], [ -91.082039, -0.594045 ], [ -91.086371, -0.586635 ], [ -91.095734, -0.58815 ], [ -91.102899, -0.571184 ], [ -91.126234, -0.560118 ], [ -91.153627, -0.536687 ], [ -91.173793, -0.514101 ], [ -91.184829, -0.509065 ], [ -91.211973, -0.488602 ], [ -91.223807, -0.469363 ], [ -91.227155, -0.447579 ], [ -91.224977, -0.395521 ], [ -91.226899, -0.393642 ], [ -91.237444, -0.395117 ], [ -91.240313, -0.389272 ], [ -91.254321, -0.383206 ], [ -91.260186, -0.382804 ], [ -91.283401, -0.355161 ], [ -91.321298, -0.342481 ], [ -91.333305, -0.334598 ], [ -91.337839, -0.32548 ], [ -91.34601, -0.319468 ], [ -91.357589, -0.302087 ], [ -91.358016, -0.295071 ], [ -91.363511, -0.289846 ], [ -91.366133, -0.275337 ], [ -91.370345, -0.269958 ], [ -91.370106, -0.260798 ], [ -91.37999, -0.26764 ], [ -91.386872, -0.260302 ], [ -91.392829, -0.223544 ], [ -91.390563, -0.211699 ], [ -91.383198, -0.20832 ], [ -91.382008, -0.205041 ], [ -91.384422, -0.194318 ], [ -91.404104, -0.164829 ], [ -91.405052, -0.13663 ], [ -91.405307, -0.129028 ], [ -91.403124, -0.119154 ], [ -91.407696, -0.073658 ], [ -91.405669, -0.061051 ], [ -91.410868, -0.043659 ], [ -91.419147, -0.030763 ], [ -91.438964, -0.018312 ], [ -91.472217, -0.015944 ], [ -91.515232, -0.038212 ], [ -91.533666, -0.040287 ], [ -91.547979, -0.0505 ], [ -91.556962, -0.049549 ], [ -91.56103, -0.053968 ], [ -91.567296, -0.048555 ], [ -91.578799, -0.024666 ], [ -91.59324, -0.010377 ], [ -91.586463, 0.004676 ], [ -91.576066, 0.007819 ], [ -91.570368, 0.013933 ], [ -91.535229, 0.027452 ], [ -91.521531, 0.036398 ], [ -91.516477, 0.045678 ], [ -91.509408, 0.051581 ], [ -91.506587, 0.061195 ], [ -91.498817, 0.065955 ], [ -91.497684, 0.073113 ], [ -91.491833, 0.080047 ], [ -91.49306, 0.084628 ], [ -91.488637, 0.098297 ], [ -91.47338, 0.106582 ], [ -91.46576, 0.105761 ], [ -91.453817, 0.109605 ], [ -91.440232, 0.107532 ], [ -91.419147, 0.117648 ], [ -91.410195, 0.118923 ], [ -91.398853, 0.125059 ], [ -91.38908, 0.125418 ], [ -91.384979, 0.133403 ], [ -91.379688, 0.135503 ], [ -91.370148, 0.146697 ], [ -91.360963, 0.161798 ], [ -91.353449, 0.158166 ], [ -91.346239, 0.161775 ], [ -91.337577, 0.160406 ], [ -91.327473, 0.139197 ], [ -91.312644, 0.133088 ], [ -91.304995, 0.118481 ], [ -91.298327, 0.087622 ], [ -91.287906, 0.066904 ], [ -91.289462, 0.061992 ], [ -91.279622, 0.055841 ], [ -91.273703, 0.043772 ], [ -91.256156, 0.025459 ], [ -91.247012, 0.021941 ], [ -91.237807, 0.006366 ], [ -91.219987, -0.002525 ], [ -91.212573, -0.019469 ], [ -91.204401, -0.019263 ], [ -91.199441, -0.022701 ], [ -91.185708, -0.09282 ], [ -91.185456, -0.109736 ], [ -91.189219, -0.129028 ], [ -91.188896, -0.13663 ], [ -91.188777, -0.139413 ], [ -91.193052, -0.151837 ], [ -91.189751, -0.159851 ], [ -91.184153, -0.201701 ], [ -91.176006, -0.221118 ], [ -91.159586, -0.235807 ], [ -91.147215, -0.252386 ], [ -91.11657, -0.275284 ], [ -91.111446, -0.284867 ], [ -91.110685, -0.294782 ], [ -91.100821, -0.301511 ], [ -91.101348, -0.305448 ], [ -91.109054, -0.307952 ], [ -91.095734, -0.316878 ], [ -91.080346, -0.324009 ], [ -91.071883, -0.329993 ], [ -91.054409, -0.342351 ], [ -91.043365, -0.345666 ], [ -91.018893, -0.365872 ], [ -90.999894, -0.382762 ], [ -90.986382, -0.404288 ], [ -90.964122, -0.428228 ], [ -90.950418, -0.425047 ], [ -90.948863, -0.429992 ], [ -90.954037, -0.436224 ], [ -90.95262, -0.444777 ], [ -90.955507, -0.450742 ], [ -90.946141, -0.460981 ], [ -90.942737, -0.472534 ], [ -90.946393, -0.49297 ], [ -90.943588, -0.504066 ], [ -90.952084, -0.514642 ], [ -90.949435, -0.517984 ], [ -90.949479, -0.543587 ], [ -90.956471, -0.560634 ], [ -90.968735, -0.564259 ], [ -90.974268, -0.574101 ], [ -90.959983, -0.575082 ], [ -90.95367, -0.581418 ], [ -90.959636, -0.601969 ], [ -90.955859, -0.611532 ], [ -90.951344, -0.61812 ], [ -90.943394, -0.616736 ], [ -90.933698, -0.626529 ], [ -90.921525, -0.625158 ], [ -90.895045, -0.608334 ], [ -90.891526, -0.623522 ], [ -90.881954, -0.629076 ], [ -90.881465, -0.641679 ], [ -90.872839, -0.650192 ], [ -90.86601, -0.648379 ], [ -90.856514, -0.660769 ], [ -90.859215, -0.673013 ], [ -90.851552, -0.676904 ], [ -90.848793, -0.683205 ], [ -90.841725, -0.685964 ], [ -90.852222, -0.702518 ], [ -90.843442, -0.706352 ], [ -90.836124, -0.703572 ], [ -90.827402, -0.707219 ], [ -90.822633, -0.715413 ], [ -90.829896, -0.71886 ], [ -90.828055, -0.725275 ], [ -90.807198, -0.726333 ], [ -90.80571, -0.73291 ], [ -90.811874, -0.737194 ], [ -90.79958, -0.743393 ], [ -90.792933, -0.743108 ], [ -90.786736, -0.744226 ], [ -90.782291, -0.758181 ], [ -90.784445, -0.766581 ], [ -90.792933, -0.772553 ] ] ], [ [ [ -90.548861, -0.627095 ], [ -90.537765, -0.605325 ], [ -90.539547, -0.597579 ], [ -90.531431, -0.583434 ], [ -90.534513, -0.566151 ], [ -90.516582, -0.555124 ], [ -90.511709, -0.544095 ], [ -90.512817, -0.534791 ], [ -90.490454, -0.530081 ], [ -90.476263, -0.518626 ], [ -90.470202, -0.521741 ], [ -90.455636, -0.513841 ], [ -90.452934, -0.512376 ], [ -90.443578, -0.511809 ], [ -90.428933, -0.512637 ], [ -90.413755, -0.505242 ], [ -90.405318, -0.504705 ], [ -90.392434, -0.508613 ], [ -90.390099, -0.511834 ], [ -90.373356, -0.510126 ], [ -90.364854, -0.515577 ], [ -90.359412, -0.510306 ], [ -90.360734, -0.497791 ], [ -90.355882, -0.494172 ], [ -90.339261, -0.493306 ], [ -90.336941, -0.494484 ], [ -90.332165, -0.496908 ], [ -90.316262, -0.496607 ], [ -90.304175, -0.492453 ], [ -90.296339, -0.496258 ], [ -90.278665, -0.487952 ], [ -90.265836, -0.489608 ], [ -90.25079, -0.483309 ], [ -90.2359, -0.522403 ], [ -90.226933, -0.533575 ], [ -90.178457, -0.562485 ], [ -90.169272, -0.57422 ], [ -90.1833, -0.608972 ], [ -90.178195, -0.631036 ], [ -90.18013, -0.642681 ], [ -90.186853, -0.654524 ], [ -90.186033, -0.659498 ], [ -90.17721, -0.666626 ], [ -90.178862, -0.670958 ], [ -90.194976, -0.681607 ], [ -90.194246, -0.691822 ], [ -90.205089, -0.701158 ], [ -90.211407, -0.700731 ], [ -90.217638, -0.694456 ], [ -90.221912, -0.695986 ], [ -90.224191, -0.701433 ], [ -90.22207, -0.705596 ], [ -90.232092, -0.718414 ], [ -90.2334, -0.731589 ], [ -90.238687, -0.744262 ], [ -90.248182, -0.747499 ], [ -90.278665, -0.746601 ], [ -90.309873, -0.743122 ], [ -90.312199, -0.757793 ], [ -90.305629, -0.761875 ], [ -90.3121, -0.767052 ], [ -90.31537, -0.767052 ], [ -90.332515, -0.761818 ], [ -90.336941, -0.76233 ], [ -90.350588, -0.763911 ], [ -90.355125, -0.767052 ], [ -90.35527, -0.772782 ], [ -90.358678, -0.774809 ], [ -90.37312, -0.767052 ], [ -90.374283, -0.764944 ], [ -90.378686, -0.767052 ], [ -90.396454, -0.773891 ], [ -90.410475, -0.768533 ], [ -90.415907, -0.759431 ], [ -90.433467, -0.753709 ], [ -90.439325, -0.747649 ], [ -90.443578, -0.746826 ], [ -90.448957, -0.747622 ], [ -90.455636, -0.739179 ], [ -90.468205, -0.72329 ], [ -90.483293, -0.722637 ], [ -90.484923, -0.717042 ], [ -90.501199, -0.709525 ], [ -90.513499, -0.70933 ], [ -90.523008, -0.705721 ], [ -90.534237, -0.696911 ], [ -90.535453, -0.686415 ], [ -90.540484, -0.682286 ], [ -90.536023, -0.673553 ], [ -90.546866, -0.64866 ], [ -90.543855, -0.637281 ], [ -90.548861, -0.627095 ] ] ], [ [ [ -80.27028, -2.999594 ], [ -80.262466, -2.959802 ], [ -80.261669, -2.863554 ], [ -80.256661, -2.8341 ], [ -80.246783, -2.817126 ], [ -80.236708, -2.788355 ], [ -80.219064, -2.767724 ], [ -80.215875, -2.739554 ], [ -80.206261, -2.732595 ], [ -80.189872, -2.73002 ], [ -80.173952, -2.720754 ], [ -80.153372, -2.717074 ], [ -80.129696, -2.708654 ], [ -80.111157, -2.694662 ], [ -80.095529, -2.688715 ], [ -80.074268, -2.686561 ], [ -80.058859, -2.680138 ], [ -80.037647, -2.676513 ], [ -80.016451, -2.679816 ], [ -79.98479, -2.695355 ], [ -79.982421, -2.699193 ], [ -79.988297, -2.709086 ], [ -79.9751, -2.709348 ], [ -79.966339, -2.715031 ], [ -79.949418, -2.718618 ], [ -79.904943, -2.738508 ], [ -79.900758, -2.745709 ], [ -79.910519, -2.774921 ], [ -79.931552, -2.791608 ], [ -79.969504, -2.795834 ], [ -79.996859, -2.811634 ], [ -80.024299, -2.854399 ], [ -80.033115, -2.860439 ], [ -80.033853, -2.871691 ], [ -80.057906, -2.910704 ], [ -80.07704, -2.900867 ], [ -80.096424, -2.898099 ], [ -80.105776, -2.888401 ], [ -80.109521, -2.874994 ], [ -80.097417, -2.863939 ], [ -80.097017, -2.849235 ], [ -80.112246, -2.849769 ], [ -80.118851, -2.842216 ], [ -80.127907, -2.840015 ], [ -80.137327, -2.84567 ], [ -80.142046, -2.845207 ], [ -80.144329, -2.857528 ], [ -80.143285, -2.858574 ], [ -80.139778, -2.855046 ], [ -80.135326, -2.853849 ], [ -80.1331, -2.85573 ], [ -80.131901, -2.850258 ], [ -80.127963, -2.844443 ], [ -80.12608, -2.844443 ], [ -80.121607, -2.848249 ], [ -80.120589, -2.851633 ], [ -80.125566, -2.854362 ], [ -80.121792, -2.855898 ], [ -80.119467, -2.852282 ], [ -80.10277, -2.854187 ], [ -80.101741, -2.857096 ], [ -80.102427, -2.862916 ], [ -80.11288, -2.870104 ], [ -80.114594, -2.873014 ], [ -80.114765, -2.879175 ], [ -80.111183, -2.889258 ], [ -80.11261, -2.890234 ], [ -80.118707, -2.884994 ], [ -80.127618, -2.881229 ], [ -80.1331, -2.876594 ], [ -80.138408, -2.868214 ], [ -80.143832, -2.862633 ], [ -80.145361, -2.863095 ], [ -80.146488, -2.869176 ], [ -80.133704, -2.890731 ], [ -80.118067, -2.906973 ], [ -80.116046, -2.93184 ], [ -80.098002, -2.944683 ], [ -80.094687, -2.955256 ], [ -80.098543, -2.973191 ], [ -80.120304, -3.006814 ], [ -80.124466, -3.019068 ], [ -80.142101, -3.024123 ], [ -80.165278, -3.017135 ], [ -80.1751, -3.031192 ], [ -80.196742, -3.040798 ], [ -80.216729, -3.032315 ], [ -80.224279, -3.034419 ], [ -80.228205, -3.03082 ], [ -80.254841, -3.027748 ], [ -80.259953, -3.024192 ], [ -80.27028, -2.999594 ] ] ], [ [ [ -91.660759, -0.315419 ], [ -91.656153, -0.306324 ], [ -91.644397, -0.301356 ], [ -91.619186, -0.297654 ], [ -91.575336, -0.298418 ], [ -91.549665, -0.294971 ], [ -91.533023, -0.285928 ], [ -91.508422, -0.282366 ], [ -91.487073, -0.266356 ], [ -91.471148, -0.262367 ], [ -91.458628, -0.262096 ], [ -91.447849, -0.265357 ], [ -91.439996, -0.273866 ], [ -91.42826, -0.277357 ], [ -91.419147, -0.286366 ], [ -91.412964, -0.288116 ], [ -91.408713, -0.292936 ], [ -91.40654, -0.301944 ], [ -91.394363, -0.322274 ], [ -91.394199, -0.329304 ], [ -91.385641, -0.337618 ], [ -91.386484, -0.345419 ], [ -91.380995, -0.350307 ], [ -91.381599, -0.374741 ], [ -91.377269, -0.392924 ], [ -91.384992, -0.409792 ], [ -91.385259, -0.420721 ], [ -91.393833, -0.431823 ], [ -91.390028, -0.437696 ], [ -91.388862, -0.447579 ], [ -91.388006, -0.455311 ], [ -91.400836, -0.472916 ], [ -91.419147, -0.488584 ], [ -91.42991, -0.495017 ], [ -91.442904, -0.494426 ], [ -91.50604, -0.506617 ], [ -91.538947, -0.494546 ], [ -91.598923, -0.486295 ], [ -91.608813, -0.480561 ], [ -91.611765, -0.476494 ], [ -91.611713, -0.468707 ], [ -91.625282, -0.45146 ], [ -91.631816, -0.430599 ], [ -91.645673, -0.410203 ], [ -91.649806, -0.398524 ], [ -91.652251, -0.344637 ], [ -91.657597, -0.332977 ], [ -91.660759, -0.315419 ] ] ], [ [ [ -90.792933, -0.328697 ], [ -90.803179, -0.335099 ], [ -90.819105, -0.328822 ], [ -90.831132, -0.330856 ], [ -90.833458, -0.326067 ], [ -90.833259, -0.297583 ], [ -90.837657, -0.292681 ], [ -90.844084, -0.290832 ], [ -90.84423, -0.282336 ], [ -90.849903, -0.275181 ], [ -90.854661, -0.272888 ], [ -90.860863, -0.274801 ], [ -90.869123, -0.269805 ], [ -90.870201, -0.265677 ], [ -90.8675, -0.245484 ], [ -90.862997, -0.242075 ], [ -90.85485, -0.241313 ], [ -90.844179, -0.221531 ], [ -90.831062, -0.207805 ], [ -90.829464, -0.201051 ], [ -90.834574, -0.194049 ], [ -90.837219, -0.178651 ], [ -90.835409, -0.175478 ], [ -90.827547, -0.171034 ], [ -90.816705, -0.157205 ], [ -90.805099, -0.151054 ], [ -90.792933, -0.149244 ], [ -90.781476, -0.14754 ], [ -90.766931, -0.152058 ], [ -90.7492, -0.151888 ], [ -90.735651, -0.165801 ], [ -90.704186, -0.172599 ], [ -90.697029, -0.187538 ], [ -90.680348, -0.188669 ], [ -90.670925, -0.196243 ], [ -90.646943, -0.196564 ], [ -90.643788, -0.203697 ], [ -90.631842, -0.209277 ], [ -90.625105, -0.208454 ], [ -90.616867, -0.215397 ], [ -90.604049, -0.219245 ], [ -90.605586, -0.222554 ], [ -90.604049, -0.224146 ], [ -90.59233, -0.229623 ], [ -90.583161, -0.238951 ], [ -90.572945, -0.269237 ], [ -90.573411, -0.280828 ], [ -90.565798, -0.28441 ], [ -90.564114, -0.291207 ], [ -90.550436, -0.30148 ], [ -90.546791, -0.316837 ], [ -90.549179, -0.320986 ], [ -90.560423, -0.323335 ], [ -90.567221, -0.329762 ], [ -90.582238, -0.370235 ], [ -90.584838, -0.37103 ], [ -90.586416, -0.36824 ], [ -90.604049, -0.375341 ], [ -90.616282, -0.370208 ], [ -90.630526, -0.369644 ], [ -90.637083, -0.365687 ], [ -90.65323, -0.363069 ], [ -90.65749, -0.357023 ], [ -90.667392, -0.353768 ], [ -90.67094, -0.348104 ], [ -90.674962, -0.353331 ], [ -90.685502, -0.352454 ], [ -90.692969, -0.357009 ], [ -90.702718, -0.353308 ], [ -90.714784, -0.358726 ], [ -90.724344, -0.356026 ], [ -90.732333, -0.359875 ], [ -90.740599, -0.359966 ], [ -90.766931, -0.343083 ], [ -90.771876, -0.335567 ], [ -90.783351, -0.337642 ], [ -90.791185, -0.327605 ], [ -90.792933, -0.328697 ] ] ], [ [ [ -89.627308, -0.917491 ], [ -89.622863, -0.903219 ], [ -89.61424, -0.900651 ], [ -89.61077, -0.898619 ], [ -89.610628, -0.888754 ], [ -89.583895, -0.874304 ], [ -89.569832, -0.861415 ], [ -89.543478, -0.845518 ], [ -89.539038, -0.83276 ], [ -89.539609, -0.819094 ], [ -89.531198, -0.818897 ], [ -89.519757, -0.824371 ], [ -89.48144, -0.817176 ], [ -89.469625, -0.802493 ], [ -89.470956, -0.788095 ], [ -89.459504, -0.767382 ], [ -89.462133, -0.759971 ], [ -89.460765, -0.755926 ], [ -89.442352, -0.747588 ], [ -89.437064, -0.736401 ], [ -89.427659, -0.734632 ], [ -89.417312, -0.726714 ], [ -89.408954, -0.724168 ], [ -89.403065, -0.717987 ], [ -89.391708, -0.71838 ], [ -89.386663, -0.71378 ], [ -89.3742, -0.710421 ], [ -89.363801, -0.70252 ], [ -89.361509, -0.693415 ], [ -89.354472, -0.688223 ], [ -89.319988, -0.691892 ], [ -89.306553, -0.690346 ], [ -89.298017, -0.697951 ], [ -89.28214, -0.705691 ], [ -89.259509, -0.694528 ], [ -89.252688, -0.69926 ], [ -89.251839, -0.710302 ], [ -89.242594, -0.714717 ], [ -89.242182, -0.721288 ], [ -89.25219, -0.732125 ], [ -89.257055, -0.744148 ], [ -89.273252, -0.754748 ], [ -89.284795, -0.778755 ], [ -89.304999, -0.791357 ], [ -89.309924, -0.802497 ], [ -89.31952, -0.812226 ], [ -89.329865, -0.818078 ], [ -89.348569, -0.821136 ], [ -89.352626, -0.826687 ], [ -89.359686, -0.829711 ], [ -89.364669, -0.855549 ], [ -89.377899, -0.877627 ], [ -89.39385, -0.896212 ], [ -89.399552, -0.913539 ], [ -89.414598, -0.923045 ], [ -89.426526, -0.926031 ], [ -89.433368, -0.932856 ], [ -89.447047, -0.936934 ], [ -89.489955, -0.939901 ], [ -89.526988, -0.955317 ], [ -89.53955, -0.952023 ], [ -89.559755, -0.951499 ], [ -89.576899, -0.943064 ], [ -89.604356, -0.934795 ], [ -89.61424, -0.924906 ], [ -89.627308, -0.917491 ] ] ], [ [ [ -90.511205, -1.315576 ], [ -90.506044, -1.311122 ], [ -90.503116, -1.306474 ], [ -90.502261, -1.300455 ], [ -90.495321, -1.295339 ], [ -90.496288, -1.288456 ], [ -90.492388, -1.282933 ], [ -90.489868, -1.282349 ], [ -90.48858, -1.279184 ], [ -90.489212, -1.267765 ], [ -90.487545, -1.266226 ], [ -90.48975, -1.260276 ], [ -90.487857, -1.251987 ], [ -90.484339, -1.247023 ], [ -90.482017, -1.247856 ], [ -90.480544, -1.244035 ], [ -90.480864, -1.23769 ], [ -90.478861, -1.232894 ], [ -90.474973, -1.230655 ], [ -90.468342, -1.230092 ], [ -90.465153, -1.231724 ], [ -90.463782, -1.237817 ], [ -90.459633, -1.239415 ], [ -90.455636, -1.239614 ], [ -90.438919, -1.227516 ], [ -90.422719, -1.22151 ], [ -90.420202, -1.23336 ], [ -90.378566, -1.249977 ], [ -90.370496, -1.259781 ], [ -90.359579, -1.263757 ], [ -90.353708, -1.27522 ], [ -90.36531, -1.299843 ], [ -90.379941, -1.312404 ], [ -90.386673, -1.331042 ], [ -90.400138, -1.343823 ], [ -90.409851, -1.345809 ], [ -90.431285, -1.359221 ], [ -90.455636, -1.35888 ], [ -90.457754, -1.356573 ], [ -90.46153, -1.356506 ], [ -90.46572, -1.35316 ], [ -90.467862, -1.348877 ], [ -90.470497, -1.349142 ], [ -90.473981, -1.34632 ], [ -90.477573, -1.346416 ], [ -90.480905, -1.344309 ], [ -90.485827, -1.343325 ], [ -90.489225, -1.34541 ], [ -90.489327, -1.342967 ], [ -90.492513, -1.339774 ], [ -90.49824, -1.337849 ], [ -90.498251, -1.331856 ], [ -90.500803, -1.329216 ], [ -90.503005, -1.330273 ], [ -90.508736, -1.32444 ], [ -90.50969, -1.317775 ], [ -90.511205, -1.315576 ] ] ], [ [ [ -80.067436, -2.588409 ], [ -80.061616, -2.581354 ], [ -80.046022, -2.575536 ], [ -80.034793, -2.558084 ], [ -80.024701, -2.54909 ], [ -80.017642, -2.532021 ], [ -80.015717, -2.509061 ], [ -80.012969, -2.503964 ], [ -79.990653, -2.490101 ], [ -79.980783, -2.491229 ], [ -79.971774, -2.496757 ], [ -79.969823, -2.507431 ], [ -79.980569, -2.510229 ], [ -79.985574, -2.517942 ], [ -79.980126, -2.538845 ], [ -79.973487, -2.54485 ], [ -79.963156, -2.542846 ], [ -79.94734, -2.553725 ], [ -79.942157, -2.581972 ], [ -79.931552, -2.595553 ], [ -79.931552, -2.599321 ], [ -79.934394, -2.60112 ], [ -79.963111, -2.606195 ], [ -79.983859, -2.600636 ], [ -79.984414, -2.60234 ], [ -79.973923, -2.606366 ], [ -79.962647, -2.610026 ], [ -79.962909, -2.615051 ], [ -79.960259, -2.615091 ], [ -79.958913, -2.609075 ], [ -79.948267, -2.607052 ], [ -79.942434, -2.609237 ], [ -79.939199, -2.614427 ], [ -79.938317, -2.617971 ], [ -79.936434, -2.642256 ], [ -79.936988, -2.653082 ], [ -79.938036, -2.656397 ], [ -79.94535, -2.657776 ], [ -79.960772, -2.654115 ], [ -79.970653, -2.65249 ], [ -79.980464, -2.652827 ], [ -79.986133, -2.652285 ], [ -79.992299, -2.650528 ], [ -80.000369, -2.645117 ], [ -79.997584, -2.641109 ], [ -80.002066, -2.640544 ], [ -80.004877, -2.637937 ], [ -80.002869, -2.636333 ], [ -79.994227, -2.633843 ], [ -79.991553, -2.636251 ], [ -79.985324, -2.63404 ], [ -79.983318, -2.631519 ], [ -79.973476, -2.626739 ], [ -79.965602, -2.620866 ], [ -79.966431, -2.619298 ], [ -79.983248, -2.625067 ], [ -79.998592, -2.625912 ], [ -80.004851, -2.630305 ], [ -80.011225, -2.632461 ], [ -80.01544, -2.631257 ], [ -80.018652, -2.628601 ], [ -80.017297, -2.617421 ], [ -80.013583, -2.608248 ], [ -80.010171, -2.60519 ], [ -79.997173, -2.603435 ], [ -79.994057, -2.600307 ], [ -79.989989, -2.600843 ], [ -79.989639, -2.599087 ], [ -79.993417, -2.598075 ], [ -79.993961, -2.585686 ], [ -80.002507, -2.574539 ], [ -79.996828, -2.571382 ], [ -79.998718, -2.569442 ], [ -80.003276, -2.571397 ], [ -80.004649, -2.576045 ], [ -79.996485, -2.589826 ], [ -80.000778, -2.593228 ], [ -80.010413, -2.593512 ], [ -80.012427, -2.598075 ], [ -80.022648, -2.603402 ], [ -80.031622, -2.61408 ], [ -80.039752, -2.617102 ], [ -80.060343, -2.610907 ], [ -80.061802, -2.606332 ], [ -80.059239, -2.598075 ], [ -80.057221, -2.59579 ], [ -80.064457, -2.594726 ], [ -80.067436, -2.588409 ] ] ], [ [ [ -90.542456, 0.344758 ], [ -90.539212, 0.355412 ], [ -90.52864, 0.368545 ], [ -90.495307, 0.384784 ], [ -90.482623, 0.386555 ], [ -90.461849, 0.384505 ], [ -90.455636, 0.37809 ], [ -90.443578, 0.365636 ], [ -90.418598, 0.344278 ], [ -90.401865, 0.315828 ], [ -90.41893, 0.295544 ], [ -90.443578, 0.285205 ], [ -90.455636, 0.28226 ], [ -90.478434, 0.276692 ], [ -90.501478, 0.287177 ], [ -90.509687, 0.300308 ], [ -90.521694, 0.303035 ], [ -90.538624, 0.313723 ], [ -90.542456, 0.344758 ] ] ], [ [ [ -79.888671, -2.63856 ], [ -79.885844, -2.622729 ], [ -79.882695, -2.61871 ], [ -79.880555, -2.598077 ], [ -79.877856, -2.58759 ], [ -79.866531, -2.548644 ], [ -79.863825, -2.542036 ], [ -79.862823, -2.535028 ], [ -79.862122, -2.526117 ], [ -79.861721, -2.513402 ], [ -79.86122, -2.505793 ], [ -79.859717, -2.497683 ], [ -79.857111, -2.490073 ], [ -79.854405, -2.47946 ], [ -79.849394, -2.47135 ], [ -79.84749, -2.469949 ], [ -79.845987, -2.471851 ], [ -79.843381, -2.476357 ], [ -79.840475, -2.481062 ], [ -79.839216, -2.482912 ], [ -79.837669, -2.48687 ], [ -79.836974, -2.488732 ], [ -79.835764, -2.491976 ], [ -79.833059, -2.499119 ], [ -79.831255, -2.505492 ], [ -79.827375, -2.513761 ], [ -79.825041, -2.520711 ], [ -79.820832, -2.53683 ], [ -79.816623, -2.547142 ], [ -79.815803, -2.550322 ], [ -79.817425, -2.555953 ], [ -79.821913, -2.568467 ], [ -79.824039, -2.580581 ], [ -79.828749, -2.595198 ], [ -79.829724, -2.598077 ], [ -79.835235, -2.618968 ], [ -79.836477, -2.655291 ], [ -79.840067, -2.660519 ], [ -79.850358, -2.665832 ], [ -79.866658, -2.658103 ], [ -79.883075, -2.655502 ], [ -79.888042, -2.65089 ], [ -79.888671, -2.63856 ] ] ], [ [ [ -79.802649, -2.614267 ], [ -79.798668, -2.598077 ], [ -79.782745, -2.541643 ], [ -79.773334, -2.534764 ], [ -79.750269, -2.531708 ], [ -79.737434, -2.524723 ], [ -79.734441, -2.525239 ], [ -79.732097, -2.543329 ], [ -79.724096, -2.563546 ], [ -79.735456, -2.579993 ], [ -79.750269, -2.576022 ], [ -79.750269, -2.578072 ], [ -79.732194, -2.585052 ], [ -79.726828, -2.598077 ], [ -79.726824, -2.610461 ], [ -79.751308, -2.635511 ], [ -79.767783, -2.635925 ], [ -79.78587, -2.643243 ], [ -79.800832, -2.63427 ], [ -79.802649, -2.614267 ] ] ], [ [ [ -90.79029, 0.604839 ], [ -90.78917, 0.609298 ], [ -90.787341, 0.610604 ], [ -90.786408, 0.619389 ], [ -90.788213, 0.623921 ], [ -90.787919, 0.626814 ], [ -90.78329, 0.632301 ], [ -90.78332, 0.635716 ], [ -90.780814, 0.641423 ], [ -90.776078, 0.642426 ], [ -90.767408, 0.638631 ], [ -90.764054, 0.639056 ], [ -90.760469, 0.636333 ], [ -90.758034, 0.63228 ], [ -90.757216, 0.627099 ], [ -90.754518, 0.622396 ], [ -90.748718, 0.620161 ], [ -90.746853, 0.616984 ], [ -90.741401, 0.617331 ], [ -90.732246, 0.600595 ], [ -90.730111, 0.598297 ], [ -90.725852, 0.586232 ], [ -90.725181, 0.577651 ], [ -90.722152, 0.573949 ], [ -90.721115, 0.567768 ], [ -90.719123, 0.564773 ], [ -90.719968, 0.558137 ], [ -90.718644, 0.554402 ], [ -90.720777, 0.544448 ], [ -90.722446, 0.540258 ], [ -90.727887, 0.540173 ], [ -90.731563, 0.544571 ], [ -90.73874, 0.544454 ], [ -90.740343, 0.540546 ], [ -90.747612, 0.541746 ], [ -90.750617, 0.544664 ], [ -90.754895, 0.543411 ], [ -90.761698, 0.545384 ], [ -90.77048, 0.551357 ], [ -90.773995, 0.550646 ], [ -90.779912, 0.55192 ], [ -90.782336, 0.556916 ], [ -90.783373, 0.562735 ], [ -90.782042, 0.570629 ], [ -90.783725, 0.571697 ], [ -90.784536, 0.5782 ], [ -90.782898, 0.579808 ], [ -90.784188, 0.588269 ], [ -90.788475, 0.593308 ], [ -90.787762, 0.596475 ], [ -90.79029, 0.604839 ] ] ], [ [ [ -89.744563, -1.372846 ], [ -89.744563, -1.371181 ], [ -89.739055, -1.36922 ], [ -89.733269, -1.360823 ], [ -89.723668, -1.35859 ], [ -89.714259, -1.351795 ], [ -89.704326, -1.351281 ], [ -89.693196, -1.346785 ], [ -89.686587, -1.349624 ], [ -89.665035, -1.346285 ], [ -89.658923, -1.353939 ], [ -89.648362, -1.357399 ], [ -89.640484, -1.365545 ], [ -89.633141, -1.367308 ], [ -89.631158, -1.374326 ], [ -89.626753, -1.377513 ], [ -89.626424, -1.384373 ], [ -89.621142, -1.38775 ], [ -89.619289, -1.392868 ], [ -89.626443, -1.395793 ], [ -89.627134, -1.406179 ], [ -89.632053, -1.410603 ], [ -89.636476, -1.410889 ], [ -89.641471, -1.406552 ], [ -89.670844, -1.405576 ], [ -89.678572, -1.401732 ], [ -89.68546, -1.402574 ], [ -89.689958, -1.396245 ], [ -89.710898, -1.391628 ], [ -89.744563, -1.372846 ] ] ], [ [ [ -80.263138, -3.353428 ], [ -80.252063, -3.335884 ], [ -80.237769, -3.334791 ], [ -80.240201, -3.342744 ], [ -80.233074, -3.345959 ], [ -80.214003, -3.376338 ], [ -80.2018, -3.403399 ], [ -80.194321, -3.405181 ], [ -80.182959, -3.39765 ], [ -80.167453, -3.410086 ], [ -80.165389, -3.415234 ], [ -80.174412, -3.419194 ], [ -80.181802, -3.419222 ], [ -80.191857, -3.413812 ], [ -80.225305, -3.419503 ], [ -80.230845, -3.413522 ], [ -80.232017, -3.405754 ], [ -80.237163, -3.410903 ], [ -80.247104, -3.392992 ], [ -80.245902, -3.39176 ], [ -80.232263, -3.398843 ], [ -80.231551, -3.396069 ], [ -80.251957, -3.377138 ], [ -80.263138, -3.353428 ] ] ], [ [ [ -79.842373, -2.449955 ], [ -79.836974, -2.414265 ], [ -79.832542, -2.410314 ], [ -79.822089, -2.415296 ], [ -79.807126, -2.440337 ], [ -79.803579, -2.456027 ], [ -79.802119, -2.489742 ], [ -79.784161, -2.518821 ], [ -79.789906, -2.528281 ], [ -79.798581, -2.529454 ], [ -79.812975, -2.514721 ], [ -79.826147, -2.489907 ], [ -79.832268, -2.46811 ], [ -79.836974, -2.460547 ], [ -79.842373, -2.449955 ] ] ], [ [ [ -78.888674, 1.400814 ], [ -78.884249, 1.41062 ], [ -78.881669, 1.422128 ], [ -78.880364, 1.450165 ], [ -78.879082, 1.453637 ], [ -78.872489, 1.454087 ], [ -78.865331, 1.450165 ], [ -78.849965, 1.440048 ], [ -78.847703, 1.427164 ], [ -78.845757, 1.424644 ], [ -78.841682, 1.43231 ], [ -78.824067, 1.433323 ], [ -78.827773, 1.412774 ], [ -78.830568, 1.411277 ], [ -78.84012, 1.417172 ], [ -78.841444, 1.416122 ], [ -78.83911, 1.409158 ], [ -78.846239, 1.38088 ], [ -78.867963, 1.375583 ], [ -78.870426, 1.378116 ], [ -78.869398, 1.382746 ], [ -78.884249, 1.377937 ], [ -78.888674, 1.400814 ] ] ], [ [ [ -90.297556, -0.476181 ], [ -90.295324, -0.454662 ], [ -90.281159, -0.440681 ], [ -90.283029, -0.435908 ], [ -90.289611, -0.435494 ], [ -90.285337, -0.424992 ], [ -90.292796, -0.415158 ], [ -90.278665, -0.411714 ], [ -90.274727, -0.41363 ], [ -90.260345, -0.440681 ], [ -90.248612, -0.464549 ], [ -90.269627, -0.480571 ], [ -90.278665, -0.483363 ], [ -90.293124, -0.483475 ], [ -90.297556, -0.476181 ] ] ], [ [ [ -90.091539, -0.825038 ], [ -90.089374, -0.816524 ], [ -90.083542, -0.814607 ], [ -90.083813, -0.809875 ], [ -90.082374, -0.809998 ], [ -90.087276, -0.803309 ], [ -90.087234, -0.799289 ], [ -90.079316, -0.800302 ], [ -90.074812, -0.799799 ], [ -90.066851, -0.800547 ], [ -90.060503, -0.799526 ], [ -90.044052, -0.80014 ], [ -90.040555, -0.802331 ], [ -90.040487, -0.80528 ], [ -90.034152, -0.807563 ], [ -90.034396, -0.809368 ], [ -90.030634, -0.813099 ], [ -90.030024, -0.819497 ], [ -90.031957, -0.82351 ], [ -90.027507, -0.829426 ], [ -90.029765, -0.832009 ], [ -90.030902, -0.838491 ], [ -90.039184, -0.839772 ], [ -90.043218, -0.838122 ], [ -90.046704, -0.840008 ], [ -90.052561, -0.837703 ], [ -90.055475, -0.839215 ], [ -90.062414, -0.836891 ], [ -90.069626, -0.835515 ], [ -90.077008, -0.831304 ], [ -90.088595, -0.828296 ], [ -90.091539, -0.825038 ] ] ], [ [ [ -80.306475, -3.380527 ], [ -80.285217, -3.350927 ], [ -80.273323, -3.377129 ], [ -80.270759, -3.374193 ], [ -80.267926, -3.37414 ], [ -80.263168, -3.379253 ], [ -80.263882, -3.380821 ], [ -80.270575, -3.379834 ], [ -80.270759, -3.382779 ], [ -80.253387, -3.388144 ], [ -80.243814, -3.408436 ], [ -80.245027, -3.40962 ], [ -80.252919, -3.405681 ], [ -80.270759, -3.404217 ], [ -80.283181, -3.405425 ], [ -80.294673, -3.401377 ], [ -80.303284, -3.381669 ], [ -80.306475, -3.380527 ] ] ], [ [ [ -90.68859, -0.603517 ], [ -90.687059, -0.599645 ], [ -90.684878, -0.598355 ], [ -90.683432, -0.592641 ], [ -90.679511, -0.592518 ], [ -90.676725, -0.589107 ], [ -90.67237, -0.587506 ], [ -90.66401, -0.589147 ], [ -90.657617, -0.592672 ], [ -90.654905, -0.599384 ], [ -90.646852, -0.603757 ], [ -90.644411, -0.607358 ], [ -90.645192, -0.61174 ], [ -90.642881, -0.616382 ], [ -90.643261, -0.620634 ], [ -90.646332, -0.622054 ], [ -90.648893, -0.627467 ], [ -90.649403, -0.631588 ], [ -90.655296, -0.630818 ], [ -90.656826, -0.6352 ], [ -90.658877, -0.633269 ], [ -90.66605, -0.632629 ], [ -90.671683, -0.626706 ], [ -90.678085, -0.625286 ], [ -90.683982, -0.621841 ], [ -90.68859, -0.603517 ] ] ], [ [ [ -89.977702, 0.316551 ], [ -89.977441, 0.322756 ], [ -89.975228, 0.331159 ], [ -89.971506, 0.338077 ], [ -89.967156, 0.339088 ], [ -89.96325, 0.342809 ], [ -89.956958, 0.345898 ], [ -89.949303, 0.346311 ], [ -89.946378, 0.34331 ], [ -89.942939, 0.342841 ], [ -89.937698, 0.33709 ], [ -89.941393, 0.332512 ], [ -89.941041, 0.328702 ], [ -89.937186, 0.327751 ], [ -89.941834, 0.321147 ], [ -89.942218, 0.314816 ], [ -89.948393, 0.310475 ], [ -89.953986, 0.314639 ], [ -89.957867, 0.314407 ], [ -89.962542, 0.311394 ], [ -89.964664, 0.30663 ], [ -89.972794, 0.309646 ], [ -89.977702, 0.316551 ] ] ], [ [ [ -80.042042, 0.399259 ], [ -80.039204, 0.402618 ], [ -80.034331, 0.402749 ], [ -80.029708, 0.400292 ], [ -80.018407, 0.396802 ], [ -80.007732, 0.394719 ], [ -79.996295, 0.389903 ], [ -79.994209, 0.387949 ], [ -79.993585, 0.376846 ], [ -79.996234, 0.369187 ], [ -80.001125, 0.363105 ], [ -80.006649, 0.36425 ], [ -80.019179, 0.371462 ], [ -80.021593, 0.375195 ], [ -80.024704, 0.376767 ], [ -80.029226, 0.385296 ], [ -80.037125, 0.395636 ], [ -80.042042, 0.399259 ] ] ], [ [ [ -80.111864, -2.921849 ], [ -80.111311, -2.916198 ], [ -80.10772, -2.90912 ], [ -80.097464, -2.910895 ], [ -80.079671, -2.921962 ], [ -80.082546, -2.935319 ], [ -80.097464, -2.934119 ], [ -80.106299, -2.93514 ], [ -80.109247, -2.933602 ], [ -80.110947, -2.9311 ], [ -80.111864, -2.921849 ] ] ], [ [ [ -80.101642, -2.900913 ], [ -80.097548, -2.900861 ], [ -80.077627, -2.903158 ], [ -80.066785, -2.909231 ], [ -80.063655, -2.9166 ], [ -80.065809, -2.928054 ], [ -80.078296, -2.932674 ], [ -80.077795, -2.919056 ], [ -80.088357, -2.914296 ], [ -80.097548, -2.90569 ], [ -80.099689, -2.904896 ], [ -80.101642, -2.900913 ] ] ], [ [ [ -81.084938, -1.278097 ], [ -81.083503, -1.268855 ], [ -81.079861, -1.268589 ], [ -81.079729, -1.262726 ], [ -81.074693, -1.258773 ], [ -81.06635, -1.262466 ], [ -81.064039, -1.269414 ], [ -81.056882, -1.273196 ], [ -81.055334, -1.279522 ], [ -81.049325, -1.285083 ], [ -81.058706, -1.289039 ], [ -81.060666, -1.284005 ], [ -81.068611, -1.283352 ], [ -81.073125, -1.278445 ], [ -81.07851, -1.277576 ], [ -81.083375, -1.279487 ], [ -81.084938, -1.278097 ] ] ], [ [ [ -90.720729, -0.414073 ], [ -90.712022, -0.40598 ], [ -90.712347, -0.401857 ], [ -90.709289, -0.399026 ], [ -90.706141, -0.399825 ], [ -90.704668, -0.403796 ], [ -90.701341, -0.404567 ], [ -90.69761, -0.409933 ], [ -90.697643, -0.416792 ], [ -90.702516, -0.421827 ], [ -90.705183, -0.422297 ], [ -90.705613, -0.426799 ], [ -90.708391, -0.427137 ], [ -90.710959, -0.424525 ], [ -90.71422, -0.426251 ], [ -90.718694, -0.42133 ], [ -90.720729, -0.414073 ] ] ], [ [ [ -80.287498, -3.417076 ], [ -80.28576, -3.414775 ], [ -80.270752, -3.416323 ], [ -80.258458, -3.414031 ], [ -80.247858, -3.418339 ], [ -80.242621, -3.423674 ], [ -80.254909, -3.426086 ], [ -80.264739, -3.422766 ], [ -80.270752, -3.423225 ], [ -80.280519, -3.423683 ], [ -80.287498, -3.417076 ] ] ], [ [ [ -80.063644, 0.442857 ], [ -80.061963, 0.448564 ], [ -80.057323, 0.453495 ], [ -80.053971, 0.45427 ], [ -80.053599, 0.451935 ], [ -80.057846, 0.447527 ], [ -80.056035, 0.442072 ], [ -80.052431, 0.437935 ], [ -80.05217, 0.422354 ], [ -80.050881, 0.423119 ], [ -80.048566, 0.417553 ], [ -80.054233, 0.414695 ], [ -80.056558, 0.415208 ], [ -80.061057, 0.420532 ], [ -80.063644, 0.442857 ] ] ], [ [ [ -80.067251, -2.574694 ], [ -80.065746, -2.568081 ], [ -80.055517, -2.560968 ], [ -80.051205, -2.555257 ], [ -80.044084, -2.553705 ], [ -80.042379, -2.557311 ], [ -80.046792, -2.569684 ], [ -80.050904, -2.571538 ], [ -80.067251, -2.574694 ] ] ], [ [ [ -79.815494, -2.526177 ], [ -79.815494, -2.521018 ], [ -79.814085, -2.518191 ], [ -79.810735, -2.520614 ], [ -79.804761, -2.52901 ], [ -79.79884, -2.533052 ], [ -79.804154, -2.541249 ], [ -79.807697, -2.540339 ], [ -79.815494, -2.526177 ] ] ], [ [ [ -78.822562, 1.418455 ], [ -78.820166, 1.419652 ], [ -78.81923, 1.426562 ], [ -78.815564, 1.428604 ], [ -78.810463, 1.427623 ], [ -78.813893, 1.41474 ], [ -78.816504, 1.409437 ], [ -78.820459, 1.413055 ], [ -78.822562, 1.418455 ] ] ], [ [ [ -79.920076, -2.672726 ], [ -79.919642, -2.670462 ], [ -79.914183, -2.664507 ], [ -79.911083, -2.664617 ], [ -79.908353, -2.676303 ], [ -79.912206, -2.681328 ], [ -79.916378, -2.679441 ], [ -79.920076, -2.672726 ] ] ], [ [ [ -90.292631, -0.399364 ], [ -90.28976, -0.39106 ], [ -90.278665, -0.390137 ], [ -90.27587, -0.392941 ], [ -90.276741, -0.396599 ], [ -90.278665, -0.397604 ], [ -90.289859, -0.40116 ], [ -90.292631, -0.399364 ] ] ], [ [ [ -80.199559, -2.654461 ], [ -80.194194, -2.647891 ], [ -80.188136, -2.644951 ], [ -80.181386, -2.646334 ], [ -80.182251, -2.649965 ], [ -80.185367, -2.65325 ], [ -80.191078, -2.656363 ], [ -80.199559, -2.654461 ] ] ], [ [ [ -80.189806, -2.666323 ], [ -80.186642, -2.662395 ], [ -80.176535, -2.65418 ], [ -80.173166, -2.653786 ], [ -80.171744, -2.656087 ], [ -80.173481, -2.659383 ], [ -80.178517, -2.664241 ], [ -80.185464, -2.668057 ], [ -80.189806, -2.666323 ] ] ], [ [ [ -90.55926, -0.287227 ], [ -90.555436, -0.283278 ], [ -90.552517, -0.282894 ], [ -90.552068, -0.280495 ], [ -90.54903, -0.279715 ], [ -90.542423, -0.281196 ], [ -90.541424, -0.285148 ], [ -90.547648, -0.288993 ], [ -90.552491, -0.288054 ], [ -90.554356, -0.286339 ], [ -90.558403, -0.288663 ], [ -90.55926, -0.287227 ] ] ], [ [ [ -80.014403, -2.414168 ], [ -80.012976, -2.408306 ], [ -80.002393, -2.419401 ], [ -80.001919, -2.423942 ], [ -80.005281, -2.424779 ], [ -80.012976, -2.418605 ], [ -80.014403, -2.414168 ] ] ], [ [ [ -90.88532, -1.018813 ], [ -90.883946, -1.013716 ], [ -90.881432, -1.010193 ], [ -90.877642, -1.007886 ], [ -90.869872, -1.007643 ], [ -90.864422, -1.010819 ], [ -90.861828, -1.015082 ], [ -90.861298, -1.020265 ], [ -90.863626, -1.020796 ], [ -90.864421, -1.015616 ], [ -90.867116, -1.012658 ], [ -90.873031, -1.010318 ], [ -90.879046, -1.011898 ], [ -90.882101, -1.015526 ], [ -90.883437, -1.020728 ], [ -90.88532, -1.018813 ] ] ], [ [ [ -91.821746, 1.376142 ], [ -91.81719, 1.379282 ], [ -91.820294, 1.388401 ], [ -91.820162, 1.392051 ], [ -91.817526, 1.392443 ], [ -91.81809, 1.388401 ], [ -91.81628, 1.386056 ], [ -91.811882, 1.384236 ], [ -91.811235, 1.380586 ], [ -91.813692, 1.37641 ], [ -91.818616, 1.373943 ], [ -91.821746, 1.376142 ] ] ], [ [ [ -80.140791, -2.701318 ], [ -80.137033, -2.697202 ], [ -80.125312, -2.695681 ], [ -80.123791, -2.69756 ], [ -80.128891, -2.702391 ], [ -80.139897, -2.702839 ], [ -80.140791, -2.701318 ] ] ], [ [ [ -80.281015, -3.344434 ], [ -80.270701, -3.324547 ], [ -80.267617, -3.324651 ], [ -80.267631, -3.327166 ], [ -80.270701, -3.328036 ], [ -80.273418, -3.341556 ], [ -80.279637, -3.345351 ], [ -80.281015, -3.344434 ] ] ], [ [ [ -80.870889, -1.596454 ], [ -80.870889, -1.592895 ], [ -80.868612, -1.591623 ], [ -80.86028, -1.594423 ], [ -80.860655, -1.598239 ], [ -80.864374, -1.60042 ], [ -80.870376, -1.598742 ], [ -80.870889, -1.596454 ] ] ], [ [ [ -79.990176, 0.263498 ], [ -79.987504, 0.271093 ], [ -79.984566, 0.269207 ], [ -79.980574, 0.262253 ], [ -79.983812, 0.258839 ], [ -79.988848, 0.261043 ], [ -79.990176, 0.263498 ] ] ], [ [ [ -90.299006, -1.331375 ], [ -90.297501, -1.328763 ], [ -90.294637, -1.329227 ], [ -90.291028, -1.326364 ], [ -90.289223, -1.330518 ], [ -90.292056, -1.336235 ], [ -90.296694, -1.33806 ], [ -90.296957, -1.33442 ], [ -90.299006, -1.331375 ] ] ], [ [ [ -80.226829, -3.428107 ], [ -80.22253, -3.426288 ], [ -80.211745, -3.43032 ], [ -80.211911, -3.432106 ], [ -80.219168, -3.433375 ], [ -80.226829, -3.428107 ] ] ], [ [ [ -90.783244, -0.865696 ], [ -90.781955, -0.862077 ], [ -90.777322, -0.859213 ], [ -90.773441, -0.860083 ], [ -90.771565, -0.865954 ], [ -90.773972, -0.867032 ], [ -90.776716, -0.86397 ], [ -90.779767, -0.86538 ], [ -90.779911, -0.867656 ], [ -90.783244, -0.865696 ] ] ], [ [ [ -92.008246, 1.678717 ], [ -92.007479, 1.681155 ], [ -92.003289, 1.681619 ], [ -91.998858, 1.679944 ], [ -91.998423, 1.675138 ], [ -92.005366, 1.674649 ], [ -92.008246, 1.678717 ] ] ], [ [ [ -80.266276, -3.367438 ], [ -80.26446, -3.364595 ], [ -80.261038, -3.367156 ], [ -80.258214, -3.376896 ], [ -80.260679, -3.376896 ], [ -80.263823, -3.373552 ], [ -80.266276, -3.367438 ] ] ], [ [ [ -89.64884, -1.346944 ], [ -89.648133, -1.342204 ], [ -89.643028, -1.33933 ], [ -89.639034, -1.343975 ], [ -89.645502, -1.347282 ], [ -89.64884, -1.346944 ] ] ], [ [ [ -79.914735, -2.28196 ], [ -79.913203, -2.280828 ], [ -79.906888, -2.285818 ], [ -79.906777, -2.288439 ], [ -79.913386, -2.290021 ], [ -79.914735, -2.28196 ] ] ], [ [ [ -80.195189, -3.436883 ], [ -80.193386, -3.434025 ], [ -80.184039, -3.434463 ], [ -80.1861, -3.438923 ], [ -80.193942, -3.438543 ], [ -80.195189, -3.436883 ] ] ], [ [ [ -90.374798, -0.423353 ], [ -90.372696, -0.419258 ], [ -90.369061, -0.421087 ], [ -90.370177, -0.426594 ], [ -90.373813, -0.425882 ], [ -90.374798, -0.423353 ] ] ], [ [ [ -90.804027, -0.848992 ], [ -90.799921, -0.845927 ], [ -90.796554, -0.846852 ], [ -90.795388, -0.849875 ], [ -90.798278, -0.850996 ], [ -90.804027, -0.848992 ] ] ], [ [ [ -90.562778, -0.344465 ], [ -90.559887, -0.34133 ], [ -90.556057, -0.341574 ], [ -90.556057, -0.345686 ], [ -90.562778, -0.344465 ] ] ], [ [ [ -90.569039, -0.35189 ], [ -90.56826, -0.349066 ], [ -90.564827, -0.348762 ], [ -90.562806, -0.35127 ], [ -90.567006, -0.353935 ], [ -90.569039, -0.35189 ] ] ], [ [ [ -80.048934, 0.385846 ], [ -80.045569, 0.387878 ], [ -80.040588, 0.383356 ], [ -80.042984, 0.382272 ], [ -80.048934, 0.385846 ] ] ], [ [ [ -90.965075, -0.384758 ], [ -90.960897, -0.38165 ], [ -90.95766, -0.385657 ], [ -90.963441, -0.386784 ], [ -90.965075, -0.384758 ] ] ], [ [ [ -80.059022, 0.396295 ], [ -80.057397, 0.39831 ], [ -80.053005, 0.397237 ], [ -80.055459, 0.391908 ], [ -80.059022, 0.396295 ] ] ], [ [ [ -80.050135, 0.402812 ], [ -80.046366, 0.406031 ], [ -80.042812, 0.405251 ], [ -80.042666, 0.402951 ], [ -80.04869, 0.401664 ], [ -80.050135, 0.402812 ] ] ], [ [ [ -90.633994, -0.415789 ], [ -90.627963, -0.417655 ], [ -90.627824, -0.420154 ], [ -90.632599, -0.420914 ], [ -90.633994, -0.415789 ] ] ], [ [ [ -90.540081, -0.559559 ], [ -90.534547, -0.558661 ], [ -90.534202, -0.563102 ], [ -90.539116, -0.56277 ], [ -90.540081, -0.559559 ] ] ], [ [ [ -90.81346, -0.848925 ], [ -90.812548, -0.845196 ], [ -90.808149, -0.846983 ], [ -90.809937, -0.851838 ], [ -90.81346, -0.848925 ] ] ], [ [ [ -80.723478, -0.932762 ], [ -80.722964, -0.929171 ], [ -80.718527, -0.928294 ], [ -80.719175, -0.933901 ], [ -80.723478, -0.932762 ] ] ], [ [ [ -90.92969, -0.96438 ], [ -90.925122, -0.961712 ], [ -90.922517, -0.964344 ], [ -90.925184, -0.967336 ], [ -90.92969, -0.96438 ] ] ], [ [ [ -90.962768, -0.975608 ], [ -90.961125, -0.969392 ], [ -90.957291, -0.972457 ], [ -90.961742, -0.977113 ], [ -90.962768, -0.975608 ] ] ], [ [ [ -90.365734, -1.230266 ], [ -90.361212, -1.229304 ], [ -90.360214, -1.232537 ], [ -90.363258, -1.23577 ], [ -90.365734, -1.230266 ] ] ], [ [ [ -90.389064, -1.236523 ], [ -90.385601, -1.235059 ], [ -90.383131, -1.236226 ], [ -90.382971, -1.2392 ], [ -90.386428, -1.240141 ], [ -90.389064, -1.236523 ] ] ], [ [ [ -90.342644, -1.307989 ], [ -90.336833, -1.303124 ], [ -90.335613, -1.305595 ], [ -90.336833, -1.307401 ], [ -90.339414, -1.309429 ], [ -90.342644, -1.307989 ] ] ], [ [ [ -91.8278, 1.39162 ], [ -91.822919, 1.394072 ], [ -91.822756, 1.388643 ], [ -91.826586, 1.388239 ], [ -91.8278, 1.39162 ] ] ], [ [ [ -91.82498, 1.395203 ], [ -91.824344, 1.40088 ], [ -91.819798, 1.399283 ], [ -91.819836, 1.396646 ], [ -91.82498, 1.395203 ] ] ], [ [ [ -80.200223, -2.684955 ], [ -80.195355, -2.681866 ], [ -80.192982, -2.685436 ], [ -80.196773, -2.687338 ], [ -80.200223, -2.684955 ] ] ], [ [ [ -80.439408, -3.174281 ], [ -80.437139, -3.171128 ], [ -80.431815, -3.17079 ], [ -80.43314, -3.173634 ], [ -80.437717, -3.175271 ], [ -80.439408, -3.174281 ] ] ], [ [ [ -80.245985, -3.320685 ], [ -80.242792, -3.318619 ], [ -80.239493, -3.319879 ], [ -80.239233, -3.322411 ], [ -80.244352, -3.322997 ], [ -80.245985, -3.320685 ] ] ], [ [ [ -80.171476, -3.420186 ], [ -80.165616, -3.42012 ], [ -80.165434, -3.424041 ], [ -80.17104, -3.423325 ], [ -80.171476, -3.420186 ] ] ] ] } }
]
}
