{
"type": "FeatureCollection",
"name": "Egypt",
"crs": { "type": "name", "properties": { "name": "urn:ogc:def:crs:OGC:1.3:CRS84" } },
"features": [
{ "type": "Feature", "properties": { "id": "EG", "CNTR_ID": "EG", "CNTR_NAME": "مصر", "NAME_ENGL": "Egypt", "ISO3_CODE": "EGY", "FID": "EG" }, "geometry": { "type": "MultiPolygon", "coordinates": [ [ [ [ 35.621821, 23.145528 ], [ 35.21217, 22.7873 ], [ 35.163072, 22.80053 ], [ 34.975287, 22.851121 ], [ 34.95135, 22.85757 ], [ 34.826912, 22.589082 ], [ 34.780703, 22.489451 ], [ 34.69196, 22.29791 ], [ 34.6174, 22.285168 ], [ 34.371867, 22.243201 ], [ 34.239416, 22.220196 ], [ 34.231217, 22.218772 ], [ 34.161176, 22.206606 ], [ 34.086529, 22.002508 ], [ 33.992039, 22.00242 ], [ 33.75, 22.002193 ], [ 33.679224, 22.002126 ], [ 33.182633, 22.00166 ], [ 32.989939, 22.001482 ], [ 31.894425, 22.000594 ], [ 31.416241, 22.000207 ], [ 31.411034, 22.012607 ], [ 31.412714, 22.026874 ], [ 31.434444, 22.079076 ], [ 31.465118, 22.124761 ], [ 31.489029, 22.146294 ], [ 31.506751, 22.1685 ], [ 31.51234, 22.180074 ], [ 31.509579, 22.19023 ], [ 31.497283, 22.19768 ], [ 31.483834, 22.218501 ], [ 31.474261, 22.224391 ], [ 31.411434, 22.182161 ], [ 31.399646, 22.164256 ], [ 31.387045, 22.153287 ], [ 31.372687, 22.134994 ], [ 31.357823, 22.116054 ], [ 31.348203, 22.096999 ], [ 31.345167, 22.07622 ], [ 31.314411, 22.000198 ], [ 31.209143, 22.000179 ], [ 30.806717, 22.000106 ], [ 30.231524, 22.000002 ], [ 29.618291, 22.000001 ], [ 27.480268, 22.000001 ], [ 26.185878, 22.0 ], [ 25.801044, 22.0 ], [ 25.393058, 22.0 ], [ 25.241941, 22.0 ], [ 25.0, 22.0 ], [ 25.0, 24.987548 ], [ 25.0, 25.526773 ], [ 25.0, 27.602212 ], [ 24.999951, 27.730577 ], [ 24.999453, 29.026989 ], [ 24.999367, 29.248489 ], [ 24.987999, 29.269617 ], [ 24.982148, 29.28396 ], [ 24.956884, 29.345873 ], [ 24.910835, 29.429636 ], [ 24.899426, 29.459821 ], [ 24.882731, 29.482021 ], [ 24.875229, 29.499685 ], [ 24.860522, 29.534309 ], [ 24.858767, 29.550621 ], [ 24.874785, 29.586531 ], [ 24.894765, 29.609139 ], [ 24.897231, 29.624941 ], [ 24.857623, 29.714168 ], [ 24.819722, 29.788842 ], [ 24.817738, 29.806222 ], [ 24.816599, 29.816202 ], [ 24.819962, 29.885729 ], [ 24.813812, 29.915871 ], [ 24.753058, 30.095865 ], [ 24.69816, 30.14895 ], [ 24.709462, 30.182007 ], [ 24.734524, 30.225745 ], [ 24.746034, 30.243656 ], [ 24.753058, 30.254585 ], [ 24.759668, 30.264869 ], [ 24.769535, 30.287744 ], [ 24.783118, 30.33132 ], [ 24.834547, 30.369093 ], [ 24.85808, 30.394927 ], [ 24.868106, 30.414249 ], [ 24.889963, 30.44796 ], [ 24.927011, 30.482827 ], [ 24.947695, 30.545324 ], [ 24.949491, 30.577627 ], [ 24.954583, 30.596701 ], [ 24.978469, 30.644475 ], [ 24.992499, 30.71287 ], [ 25.015317, 30.763761 ], [ 25.01794, 30.777396 ], [ 24.990629, 30.860468 ], [ 24.990179, 30.88197 ], [ 24.981085, 30.911246 ], [ 24.962164, 30.939118 ], [ 24.951454, 30.965275 ], [ 24.944378, 31.000155 ], [ 24.919652, 31.06395 ], [ 24.882957, 31.135163 ], [ 24.877862, 31.169185 ], [ 24.888041, 31.261944 ], [ 24.88689, 31.302865 ], [ 24.880926, 31.323684 ], [ 24.866996, 31.344439 ], [ 24.859465, 31.39806 ], [ 24.863311, 31.407348 ], [ 24.938089, 31.45844 ], [ 24.964024, 31.480362 ], [ 25.061916, 31.541721 ], [ 25.071014, 31.5571 ], [ 25.078728, 31.596314 ], [ 25.090364, 31.619678 ], [ 25.117788, 31.644408 ], [ 25.131882, 31.66599 ], [ 25.142035, 31.666584 ], [ 25.142598, 31.656101 ], [ 25.147155, 31.64969 ], [ 25.146355, 31.63975 ], [ 25.153428, 31.628153 ], [ 25.155231, 31.614599 ], [ 25.178256, 31.570993 ], [ 25.163836, 31.553293 ], [ 25.164174, 31.547351 ], [ 25.169639, 31.53893 ], [ 25.186474, 31.528517 ], [ 25.216237, 31.519166 ], [ 25.241941, 31.514238 ], [ 25.274642, 31.507969 ], [ 25.30912, 31.504443 ], [ 25.392345, 31.503563 ], [ 25.460186, 31.516175 ], [ 25.499518, 31.519234 ], [ 25.643689, 31.558907 ], [ 25.799238, 31.608008 ], [ 25.882032, 31.62661 ], [ 25.91072, 31.626601 ], [ 26.087834, 31.593112 ], [ 26.089732, 31.592531 ], [ 26.156581, 31.572069 ], [ 26.253286, 31.550355 ], [ 26.328439, 31.527892 ], [ 26.388823, 31.517186 ], [ 26.443455, 31.511185 ], [ 26.493383, 31.496946 ], [ 26.526244, 31.497574 ], [ 26.553116, 31.502231 ], [ 26.568173, 31.495425 ], [ 26.591086, 31.489614 ], [ 26.644953, 31.489566 ], [ 26.703687, 31.482751 ], [ 26.746166, 31.482448 ], [ 26.773655, 31.472572 ], [ 26.791999, 31.459602 ], [ 26.840212, 31.442889 ], [ 26.867946, 31.441783 ], [ 26.910763, 31.440075 ], [ 26.957363, 31.442679 ], [ 26.976398, 31.441304 ], [ 26.998775, 31.428764 ], [ 27.014613, 31.413092 ], [ 27.059297, 31.404633 ], [ 27.06811, 31.391579 ], [ 27.079784, 31.383809 ], [ 27.111756, 31.37726 ], [ 27.168004, 31.375692 ], [ 27.186852, 31.373015 ], [ 27.188968, 31.370157 ], [ 27.181177, 31.365226 ], [ 27.185337, 31.361139 ], [ 27.215639, 31.362739 ], [ 27.233014, 31.359207 ], [ 27.257527, 31.359763 ], [ 27.261488, 31.361001 ], [ 27.260368, 31.364454 ], [ 27.263237, 31.365713 ], [ 27.338355, 31.370059 ], [ 27.350324, 31.361493 ], [ 27.350627, 31.337787 ], [ 27.368631, 31.310726 ], [ 27.390112, 31.258657 ], [ 27.407478, 31.240449 ], [ 27.445157, 31.217882 ], [ 27.480928, 31.209482 ], [ 27.54844, 31.206288 ], [ 27.574577, 31.194301 ], [ 27.62775, 31.194654 ], [ 27.644781, 31.181834 ], [ 27.676163, 31.178745 ], [ 27.73562, 31.190574 ], [ 27.816893, 31.21522 ], [ 27.838316, 31.225403 ], [ 27.852996, 31.240122 ], [ 27.859107, 31.242072 ], [ 27.866939, 31.233794 ], [ 27.873069, 31.191193 ], [ 27.889998, 31.166615 ], [ 27.890628, 31.13953 ], [ 27.895496, 31.122665 ], [ 27.909108, 31.107227 ], [ 27.92873, 31.098556 ], [ 27.963318, 31.092607 ], [ 28.001605, 31.091487 ], [ 28.033478, 31.087642 ], [ 28.041767, 31.086642 ], [ 28.154196, 31.090965 ], [ 28.206137, 31.074151 ], [ 28.274372, 31.073682 ], [ 28.315858, 31.06869 ], [ 28.337201, 31.070985 ], [ 28.389142, 31.083248 ], [ 28.435628, 31.085553 ], [ 28.464838, 31.075045 ], [ 28.475926, 31.065882 ], [ 28.488936, 31.059668 ], [ 28.518234, 31.052348 ], [ 28.558035, 31.049496 ], [ 28.590416, 31.035576 ], [ 28.602054, 31.02153 ], [ 28.614589, 31.014692 ], [ 28.654364, 31.005195 ], [ 28.705018, 31.0015 ], [ 28.729935, 30.98759 ], [ 28.756182, 30.983122 ], [ 28.767232, 30.969517 ], [ 28.780875, 30.962233 ], [ 28.824994, 30.951705 ], [ 28.83594, 30.927087 ], [ 28.844538, 30.917341 ], [ 28.888488, 30.893387 ], [ 28.91174, 30.874214 ], [ 28.939843, 30.863909 ], [ 28.970038, 30.852836 ], [ 28.987693, 30.83988 ], [ 28.989483, 30.831829 ], [ 29.014553, 30.825242 ], [ 29.032857, 30.826738 ], [ 29.074737, 30.820625 ], [ 29.140517, 30.823157 ], [ 29.221321, 30.840269 ], [ 29.333247, 30.875393 ], [ 29.388897, 30.897006 ], [ 29.470002, 30.933574 ], [ 29.543583, 30.972136 ], [ 29.655456, 31.044468 ], [ 29.708663, 31.083515 ], [ 29.745956, 31.106714 ], [ 29.772143, 31.127763 ], [ 29.785968, 31.144173 ], [ 29.803553, 31.138744 ], [ 29.810906, 31.137512 ], [ 29.832835, 31.145557 ], [ 29.865356, 31.171247 ], [ 29.876244, 31.186272 ], [ 29.8755, 31.19511 ], [ 29.867133, 31.198459 ], [ 29.870439, 31.20359 ], [ 29.879548, 31.207903 ], [ 29.898697, 31.204591 ], [ 29.922685, 31.216997 ], [ 29.959027, 31.242079 ], [ 29.985117, 31.266065 ], [ 30.01126, 31.285604 ], [ 30.035329, 31.296749 ], [ 30.050248, 31.315792 ], [ 30.064535, 31.324888 ], [ 30.072604, 31.323995 ], [ 30.075185, 31.305972 ], [ 30.087364, 31.285556 ], [ 30.100319, 31.278391 ], [ 30.116897, 31.274059 ], [ 30.1712, 31.271498 ], [ 30.203098, 31.278421 ], [ 30.235818, 31.292229 ], [ 30.27591, 31.316419 ], [ 30.309859, 31.350137 ], [ 30.337075, 31.396794 ], [ 30.359409, 31.453974 ], [ 30.370867, 31.463245 ], [ 30.416416, 31.460083 ], [ 30.427634, 31.467116 ], [ 30.484752, 31.456213 ], [ 30.504472, 31.455423 ], [ 30.53166, 31.459102 ], [ 30.65658, 31.489639 ], [ 30.806845, 31.536239 ], [ 30.975663, 31.583957 ], [ 31.044974, 31.598043 ], [ 31.086158, 31.600767 ], [ 31.123078, 31.597885 ], [ 31.248223, 31.566238 ], [ 31.333546, 31.53642 ], [ 31.389773, 31.511305 ], [ 31.449611, 31.480227 ], [ 31.492469, 31.461975 ], [ 31.527316, 31.451077 ], [ 31.565498, 31.444697 ], [ 31.640073, 31.453897 ], [ 31.740974, 31.477795 ], [ 31.754782, 31.46515 ], [ 31.764175, 31.461063 ], [ 31.766247, 31.464913 ], [ 31.763696, 31.475155 ], [ 31.768125, 31.483228 ], [ 31.842469, 31.522134 ], [ 31.936374, 31.514165 ], [ 31.953391, 31.505733 ], [ 31.966441, 31.493315 ], [ 31.963304, 31.484002 ], [ 31.970526, 31.462984 ], [ 32.00103, 31.416701 ], [ 32.056998, 31.371339 ], [ 32.206006, 31.290322 ], [ 32.231871, 31.283981 ], [ 32.321444, 31.271763 ], [ 32.330074, 31.253102 ], [ 32.342634, 31.239469 ], [ 32.440928, 31.183762 ], [ 32.478986, 31.151127 ], [ 32.517305, 31.106569 ], [ 32.569072, 31.070969 ], [ 32.5965, 31.060744 ], [ 32.623733, 31.057499 ], [ 32.664428, 31.058428 ], [ 32.752763, 31.071172 ], [ 32.750349, 31.068809 ], [ 32.701665, 31.05809 ], [ 32.682559, 31.049578 ], [ 32.686645, 31.046644 ], [ 32.708877, 31.04532 ], [ 32.711378, 31.033781 ], [ 32.716425, 31.031165 ], [ 32.732205, 31.033566 ], [ 32.751137, 31.042174 ], [ 32.786456, 31.046037 ], [ 32.821762, 31.067988 ], [ 32.864836, 31.085854 ], [ 32.899977, 31.08844 ], [ 32.927448, 31.087467 ], [ 32.947783, 31.094406 ], [ 32.959284, 31.092229 ], [ 32.975737, 31.083215 ], [ 32.977109, 31.068312 ], [ 32.983619, 31.054848 ], [ 32.992868, 31.051737 ], [ 33.00636, 31.052962 ], [ 33.017955, 31.062649 ], [ 33.014924, 31.07146 ], [ 33.016902, 31.077561 ], [ 33.028171, 31.085043 ], [ 33.048013, 31.092515 ], [ 33.057577, 31.115967 ], [ 33.049809, 31.117502 ], [ 33.037852, 31.112993 ], [ 33.013158, 31.091966 ], [ 32.979792, 31.092155 ], [ 32.96951, 31.099985 ], [ 32.995484, 31.112535 ], [ 33.018421, 31.140665 ], [ 33.030988, 31.151591 ], [ 33.088337, 31.175675 ], [ 33.10989, 31.1679 ], [ 33.132205, 31.137698 ], [ 33.129633, 31.132271 ], [ 33.117672, 31.133744 ], [ 33.110757, 31.131625 ], [ 33.108133, 31.125664 ], [ 33.109391, 31.11604 ], [ 33.125584, 31.092836 ], [ 33.142936, 31.077386 ], [ 33.14631, 31.064502 ], [ 33.14566, 31.049839 ], [ 33.154263, 31.043758 ], [ 33.164814, 31.044857 ], [ 33.180616, 31.050948 ], [ 33.209499, 31.070682 ], [ 33.241172, 31.075992 ], [ 33.318774, 31.100316 ], [ 33.352446, 31.107513 ], [ 33.420251, 31.095257 ], [ 33.454, 31.086389 ], [ 33.471199, 31.119031 ], [ 33.480034, 31.125985 ], [ 33.541141, 31.11651 ], [ 33.582941, 31.113926 ], [ 33.653515, 31.116879 ], [ 33.726909, 31.126507 ], [ 33.779624, 31.138327 ], [ 33.822494, 31.151384 ], [ 33.875122, 31.161248 ], [ 34.014237, 31.208571 ], [ 34.126818, 31.263023 ], [ 34.219796, 31.321688 ], [ 34.231217, 31.304169 ], [ 34.236229, 31.29648 ], [ 34.239725, 31.295663 ], [ 34.24201, 31.293188 ], [ 34.268839, 31.220535 ], [ 34.363146, 30.963823 ], [ 34.37685, 30.92646 ], [ 34.395115, 30.881968 ], [ 34.407482, 30.853558 ], [ 34.435009, 30.801113 ], [ 34.501389, 30.674533 ], [ 34.521763, 30.589705 ], [ 34.518844, 30.553443 ], [ 34.519602, 30.529633 ], [ 34.558597, 30.492898 ], [ 34.543589, 30.441456 ], [ 34.544338, 30.410499 ], [ 34.613538, 30.368064 ], [ 34.622597, 30.339079 ], [ 34.62662, 30.326204 ], [ 34.642937, 30.284347 ], [ 34.658793, 30.243656 ], [ 34.714552, 30.100432 ], [ 34.744978, 30.028163 ], [ 34.798865, 29.879829 ], [ 34.815118, 29.84469 ], [ 34.827714, 29.806222 ], [ 34.828651, 29.803358 ], [ 34.849238, 29.76165 ], [ 34.856667, 29.688507 ], [ 34.880318, 29.64185 ], [ 34.877379, 29.612402 ], [ 34.867388, 29.598396 ], [ 34.873739, 29.57853 ], [ 34.878607, 29.554417 ], [ 34.879392, 29.543918 ], [ 34.886879, 29.522155 ], [ 34.896778, 29.511798 ], [ 34.900839, 29.505476 ], [ 34.902842, 29.499685 ], [ 34.905101, 29.493154 ], [ 34.875031, 29.483725 ], [ 34.861793, 29.473323 ], [ 34.851844, 29.445132 ], [ 34.842378, 29.434451 ], [ 34.832543, 29.428974 ], [ 34.829847, 29.421959 ], [ 34.819552, 29.413485 ], [ 34.815899, 29.402657 ], [ 34.810399, 29.397875 ], [ 34.809634, 29.38826 ], [ 34.805297, 29.380332 ], [ 34.786993, 29.369447 ], [ 34.778226, 29.342554 ], [ 34.762558, 29.334812 ], [ 34.752386, 29.318358 ], [ 34.743928, 29.310643 ], [ 34.745326, 29.29426 ], [ 34.744103, 29.28396 ], [ 34.742216, 29.268054 ], [ 34.735046, 29.252239 ], [ 34.740175, 29.229268 ], [ 34.738044, 29.209557 ], [ 34.717663, 29.174265 ], [ 34.699202, 29.16774 ], [ 34.692701, 29.161174 ], [ 34.686452, 29.127209 ], [ 34.677196, 29.106901 ], [ 34.679337, 29.095316 ], [ 34.672512, 29.078683 ], [ 34.672391, 29.05681 ], [ 34.666431, 29.04527 ], [ 34.675141, 29.023652 ], [ 34.684266, 29.010955 ], [ 34.685553, 28.983927 ], [ 34.679081, 28.976824 ], [ 34.651945, 28.967598 ], [ 34.64392, 28.959265 ], [ 34.640896, 28.949204 ], [ 34.647363, 28.929387 ], [ 34.644905, 28.916093 ], [ 34.648622, 28.894892 ], [ 34.647568, 28.863978 ], [ 34.644205, 28.856423 ], [ 34.629884, 28.849297 ], [ 34.622545, 28.83882 ], [ 34.626775, 28.767352 ], [ 34.620932, 28.7461 ], [ 34.62454, 28.728291 ], [ 34.6174, 28.71519 ], [ 34.589419, 28.67224 ], [ 34.584811, 28.660386 ], [ 34.576967, 28.651293 ], [ 34.577569, 28.639551 ], [ 34.573837, 28.625848 ], [ 34.553163, 28.609464 ], [ 34.542638, 28.579458 ], [ 34.519498, 28.550798 ], [ 34.5132, 28.520365 ], [ 34.519109, 28.499642 ], [ 34.512901, 28.481041 ], [ 34.507945, 28.475842 ], [ 34.499843, 28.477707 ], [ 34.487726, 28.476013 ], [ 34.474618, 28.461191 ], [ 34.468811, 28.44469 ], [ 34.45729, 28.431549 ], [ 34.441438, 28.362479 ], [ 34.422628, 28.342865 ], [ 34.411026, 28.320376 ], [ 34.408537, 28.275133 ], [ 34.415065, 28.247297 ], [ 34.412943, 28.230192 ], [ 34.420734, 28.20975 ], [ 34.428412, 28.197984 ], [ 34.440438, 28.189624 ], [ 34.448838, 28.169461 ], [ 34.448128, 28.153172 ], [ 34.4409, 28.136525 ], [ 34.441012, 28.113891 ], [ 34.429071, 28.081329 ], [ 34.431281, 28.071082 ], [ 34.438705, 28.061217 ], [ 34.438265, 28.041226 ], [ 34.441433, 28.026744 ], [ 34.433316, 27.992151 ], [ 34.419349, 27.967674 ], [ 34.400933, 27.961001 ], [ 34.388363, 27.952141 ], [ 34.384022, 27.940442 ], [ 34.370603, 27.930272 ], [ 34.363849, 27.917092 ], [ 34.34668, 27.911388 ], [ 34.335738, 27.912716 ], [ 34.331222, 27.91102 ], [ 34.328112, 27.888332 ], [ 34.322498, 27.878606 ], [ 34.322175, 27.866076 ], [ 34.31567, 27.851609 ], [ 34.303374, 27.850235 ], [ 34.29364, 27.859511 ], [ 34.288817, 27.852858 ], [ 34.282683, 27.855055 ], [ 34.276511, 27.853073 ], [ 34.274889, 27.838319 ], [ 34.266792, 27.82487 ], [ 34.266473, 27.813987 ], [ 34.258019, 27.792221 ], [ 34.240412, 27.788813 ], [ 34.233021, 27.792347 ], [ 34.231217, 27.791914 ], [ 34.222106, 27.789725 ], [ 34.214177, 27.793028 ], [ 34.208113, 27.788842 ], [ 34.209298, 27.778908 ], [ 34.222643, 27.764906 ], [ 34.231217, 27.764475 ], [ 34.252196, 27.763421 ], [ 34.252211, 27.753241 ], [ 34.258162, 27.733444 ], [ 34.253454, 27.730577 ], [ 34.245886, 27.725968 ], [ 34.241764, 27.730577 ], [ 34.231217, 27.742365 ], [ 34.216157, 27.759196 ], [ 34.190436, 27.781224 ], [ 34.171152, 27.784403 ], [ 34.158356, 27.783006 ], [ 34.130764, 27.79413 ], [ 34.107458, 27.793992 ], [ 34.090961, 27.790667 ], [ 34.049248, 27.815703 ], [ 34.01042, 27.85168 ], [ 33.984727, 27.882186 ], [ 33.96441, 27.889669 ], [ 33.950243, 27.891155 ], [ 33.913618, 27.934806 ], [ 33.907685, 27.936658 ], [ 33.891585, 27.933156 ], [ 33.876432, 27.934643 ], [ 33.858115, 27.953948 ], [ 33.82535, 27.971457 ], [ 33.807818, 27.984246 ], [ 33.787602, 28.00836 ], [ 33.765024, 28.018963 ], [ 33.761501, 28.026443 ], [ 33.764088, 28.038108 ], [ 33.760157, 28.045545 ], [ 33.711586, 28.071415 ], [ 33.709577, 28.085083 ], [ 33.671058, 28.136148 ], [ 33.66523, 28.16119 ], [ 33.658136, 28.164448 ], [ 33.649134, 28.164862 ], [ 33.63004, 28.180648 ], [ 33.626012, 28.190469 ], [ 33.620721, 28.22909 ], [ 33.61461, 28.235813 ], [ 33.60586, 28.234188 ], [ 33.599259, 28.239144 ], [ 33.585568, 28.266341 ], [ 33.576298, 28.275083 ], [ 33.566654, 28.291925 ], [ 33.549885, 28.29965 ], [ 33.541594, 28.305567 ], [ 33.532253, 28.312234 ], [ 33.507694, 28.320375 ], [ 33.481539, 28.341954 ], [ 33.43179, 28.367127 ], [ 33.406703, 28.389734 ], [ 33.39896, 28.403277 ], [ 33.376272, 28.425644 ], [ 33.361478, 28.456553 ], [ 33.351266, 28.46458 ], [ 33.325326, 28.476397 ], [ 33.30536, 28.491492 ], [ 33.285909, 28.512167 ], [ 33.276741, 28.530338 ], [ 33.261209, 28.543739 ], [ 33.269744, 28.555833 ], [ 33.268283, 28.564605 ], [ 33.2614, 28.576751 ], [ 33.252047, 28.580673 ], [ 33.240113, 28.578732 ], [ 33.24216, 28.563844 ], [ 33.240444, 28.56157 ], [ 33.237768, 28.563283 ], [ 33.224711, 28.588578 ], [ 33.220564, 28.630393 ], [ 33.207212, 28.650838 ], [ 33.200194, 28.671928 ], [ 33.209206, 28.712595 ], [ 33.226712, 28.749398 ], [ 33.229438, 28.767473 ], [ 33.209263, 28.805206 ], [ 33.185132, 28.826865 ], [ 33.175121, 28.853712 ], [ 33.173895, 28.870956 ], [ 33.177935, 28.887273 ], [ 33.176322, 28.898015 ], [ 33.186603, 28.920086 ], [ 33.183434, 28.931155 ], [ 33.171255, 28.950175 ], [ 33.172106, 28.972104 ], [ 33.178444, 28.987804 ], [ 33.177979, 29.001103 ], [ 33.161949, 29.009538 ], [ 33.152196, 29.021876 ], [ 33.131578, 29.033413 ], [ 33.121396, 29.042145 ], [ 33.099426, 29.049603 ], [ 33.093162, 29.057773 ], [ 33.079296, 29.068333 ], [ 33.076562, 29.082009 ], [ 33.069652, 29.092313 ], [ 33.030311, 29.129646 ], [ 33.017022, 29.138455 ], [ 33.000651, 29.158346 ], [ 32.97357, 29.172468 ], [ 32.949515, 29.202327 ], [ 32.94067, 29.206476 ], [ 32.923258, 29.209239 ], [ 32.886903, 29.234673 ], [ 32.877693, 29.253288 ], [ 32.877901, 29.271403 ], [ 32.871314, 29.28396 ], [ 32.870468, 29.285574 ], [ 32.859384, 29.296431 ], [ 32.847042, 29.302507 ], [ 32.830169, 29.320633 ], [ 32.8273, 29.343869 ], [ 32.81808, 29.358776 ], [ 32.82394, 29.385197 ], [ 32.816421, 29.403167 ], [ 32.800142, 29.414452 ], [ 32.78266, 29.431549 ], [ 32.753496, 29.444527 ], [ 32.745322, 29.459915 ], [ 32.738142, 29.464484 ], [ 32.736303, 29.470662 ], [ 32.725145, 29.458248 ], [ 32.724521, 29.451257 ], [ 32.720697, 29.451438 ], [ 32.721247, 29.458724 ], [ 32.733848, 29.486801 ], [ 32.729983, 29.499685 ], [ 32.722135, 29.511385 ], [ 32.724867, 29.549188 ], [ 32.71021, 29.582389 ], [ 32.682176, 29.599615 ], [ 32.689592, 29.617215 ], [ 32.682468, 29.660758 ], [ 32.689379, 29.681148 ], [ 32.689772, 29.69562 ], [ 32.695816, 29.710241 ], [ 32.695618, 29.727315 ], [ 32.683739, 29.748768 ], [ 32.666588, 29.760594 ], [ 32.658148, 29.775448 ], [ 32.632819, 29.806222 ], [ 32.622691, 29.815788 ], [ 32.612578, 29.821167 ], [ 32.630038, 29.844307 ], [ 32.633862, 29.860016 ], [ 32.632901, 29.86762 ], [ 32.612352, 29.889784 ], [ 32.583751, 29.913849 ], [ 32.562416, 29.925957 ], [ 32.560533, 29.935332 ], [ 32.565306, 29.949497 ], [ 32.56036, 29.956224 ], [ 32.556386, 29.957292 ], [ 32.514229, 29.952958 ], [ 32.48513, 29.942064 ], [ 32.477389, 29.935126 ], [ 32.461528, 29.892526 ], [ 32.472828, 29.882512 ], [ 32.478238, 29.864572 ], [ 32.505199, 29.862484 ], [ 32.507153, 29.856625 ], [ 32.483347, 29.820704 ], [ 32.464139, 29.806222 ], [ 32.447216, 29.793461 ], [ 32.422587, 29.769373 ], [ 32.394732, 29.728117 ], [ 32.384746, 29.707537 ], [ 32.364268, 29.682578 ], [ 32.361337, 29.653013 ], [ 32.351738, 29.652624 ], [ 32.356649, 29.643242 ], [ 32.364428, 29.641217 ], [ 32.365139, 29.632748 ], [ 32.348438, 29.605259 ], [ 32.344739, 29.590636 ], [ 32.359903, 29.566694 ], [ 32.372567, 29.537731 ], [ 32.382756, 29.525551 ], [ 32.400044, 29.510425 ], [ 32.41968, 29.499685 ], [ 32.443085, 29.486883 ], [ 32.453022, 29.473981 ], [ 32.47373, 29.457446 ], [ 32.480554, 29.447228 ], [ 32.497342, 29.438545 ], [ 32.506067, 29.423955 ], [ 32.529678, 29.41077 ], [ 32.563193, 29.385529 ], [ 32.592478, 29.343044 ], [ 32.600759, 29.317991 ], [ 32.603126, 29.301453 ], [ 32.608083, 29.291507 ], [ 32.607826, 29.28396 ], [ 32.607682, 29.279722 ], [ 32.61501, 29.270466 ], [ 32.617462, 29.258307 ], [ 32.628504, 29.240835 ], [ 32.625429, 29.222938 ], [ 32.62644, 29.206868 ], [ 32.635911, 29.197107 ], [ 32.646765, 29.174863 ], [ 32.65079, 29.13256 ], [ 32.664816, 29.109759 ], [ 32.662953, 29.092138 ], [ 32.655976, 29.07946 ], [ 32.624567, 29.053388 ], [ 32.629692, 29.034044 ], [ 32.628067, 29.026989 ], [ 32.626947, 29.023354 ], [ 32.628569, 29.015472 ], [ 32.623531, 29.008807 ], [ 32.621052, 28.998085 ], [ 32.622641, 28.979428 ], [ 32.632353, 28.964428 ], [ 32.663431, 28.934008 ], [ 32.678825, 28.896005 ], [ 32.680839, 28.882622 ], [ 32.69026, 28.868077 ], [ 32.702559, 28.855247 ], [ 32.724494, 28.841782 ], [ 32.736789, 28.817967 ], [ 32.748366, 28.806019 ], [ 32.786743, 28.793258 ], [ 32.796541, 28.786434 ], [ 32.806791, 28.773546 ], [ 32.82201, 28.739896 ], [ 32.830372, 28.729995 ], [ 32.829567, 28.710327 ], [ 32.838622, 28.695067 ], [ 32.843234, 28.679867 ], [ 32.843158, 28.664245 ], [ 32.853209, 28.651497 ], [ 32.862607, 28.617829 ], [ 32.866303, 28.573818 ], [ 32.886402, 28.562973 ], [ 32.92903, 28.551118 ], [ 32.941143, 28.53885 ], [ 32.947383, 28.528182 ], [ 32.962932, 28.516023 ], [ 32.96516, 28.50711 ], [ 32.971853, 28.49848 ], [ 32.980482, 28.492988 ], [ 32.997309, 28.48874 ], [ 33.005106, 28.472583 ], [ 33.020559, 28.463084 ], [ 33.052893, 28.399244 ], [ 33.078058, 28.370471 ], [ 33.104298, 28.359727 ], [ 33.109682, 28.355027 ], [ 33.112913, 28.320183 ], [ 33.123232, 28.306889 ], [ 33.126922, 28.292267 ], [ 33.149724, 28.279064 ], [ 33.157237, 28.269199 ], [ 33.163611, 28.246811 ], [ 33.180635, 28.230982 ], [ 33.185665, 28.219881 ], [ 33.200796, 28.210894 ], [ 33.214422, 28.193604 ], [ 33.24124, 28.170328 ], [ 33.244111, 28.145267 ], [ 33.252841, 28.141019 ], [ 33.277851, 28.137158 ], [ 33.301078, 28.11031 ], [ 33.314913, 28.097891 ], [ 33.332888, 28.087078 ], [ 33.334176, 28.069303 ], [ 33.341415, 28.054553 ], [ 33.3643, 28.047569 ], [ 33.377274, 28.032371 ], [ 33.413127, 28.032993 ], [ 33.422271, 28.024278 ], [ 33.434219, 28.020045 ], [ 33.450311, 28.003813 ], [ 33.479338, 27.989143 ], [ 33.529661, 27.929059 ], [ 33.538916, 27.909668 ], [ 33.541594, 27.906766 ], [ 33.55666, 27.890446 ], [ 33.561985, 27.867883 ], [ 33.58359, 27.844538 ], [ 33.580715, 27.829733 ], [ 33.583122, 27.819598 ], [ 33.579723, 27.802456 ], [ 33.582642, 27.791201 ], [ 33.571873, 27.789673 ], [ 33.56524, 27.806875 ], [ 33.558698, 27.813435 ], [ 33.541594, 27.812199 ], [ 33.526504, 27.818751 ], [ 33.522386, 27.824421 ], [ 33.511951, 27.829469 ], [ 33.487133, 27.834831 ], [ 33.47676, 27.828595 ], [ 33.471169, 27.810973 ], [ 33.477163, 27.80288 ], [ 33.487567, 27.798019 ], [ 33.493816, 27.79168 ], [ 33.502786, 27.771355 ], [ 33.511717, 27.764635 ], [ 33.519832, 27.752485 ], [ 33.531688, 27.751685 ], [ 33.541594, 27.756556 ], [ 33.550957, 27.76179 ], [ 33.556626, 27.757034 ], [ 33.557388, 27.753395 ], [ 33.547362, 27.730577 ], [ 33.542214, 27.718858 ], [ 33.541594, 27.716018 ], [ 33.539431, 27.706096 ], [ 33.541594, 27.703928 ], [ 33.544867, 27.700649 ], [ 33.548303, 27.685858 ], [ 33.575152, 27.679527 ], [ 33.584384, 27.658885 ], [ 33.592835, 27.651138 ], [ 33.592911, 27.645625 ], [ 33.586024, 27.644362 ], [ 33.57592, 27.6631 ], [ 33.561264, 27.675382 ], [ 33.557536, 27.6753 ], [ 33.556149, 27.67115 ], [ 33.561832, 27.660319 ], [ 33.556566, 27.658574 ], [ 33.551487, 27.660417 ], [ 33.541594, 27.67453 ], [ 33.540534, 27.676043 ], [ 33.531288, 27.678986 ], [ 33.524405, 27.677828 ], [ 33.515246, 27.671988 ], [ 33.500237, 27.657597 ], [ 33.494897, 27.645825 ], [ 33.512564, 27.637159 ], [ 33.522318, 27.629364 ], [ 33.541594, 27.60645 ], [ 33.558368, 27.586507 ], [ 33.560213, 27.572475 ], [ 33.565137, 27.563879 ], [ 33.556105, 27.541642 ], [ 33.55883, 27.527862 ], [ 33.588248, 27.520921 ], [ 33.604161, 27.500754 ], [ 33.620636, 27.496083 ], [ 33.627724, 27.484542 ], [ 33.629885, 27.466143 ], [ 33.635795, 27.455195 ], [ 33.66652, 27.430075 ], [ 33.676358, 27.418728 ], [ 33.679224, 27.410656 ], [ 33.68657, 27.393988 ], [ 33.681571, 27.374713 ], [ 33.684838, 27.358597 ], [ 33.694689, 27.349314 ], [ 33.695607, 27.335403 ], [ 33.707408, 27.327847 ], [ 33.714751, 27.315898 ], [ 33.729163, 27.30634 ], [ 33.750561, 27.302382 ], [ 33.756052, 27.294168 ], [ 33.784624, 27.274593 ], [ 33.798542, 27.270025 ], [ 33.810634, 27.262447 ], [ 33.831056, 27.258959 ], [ 33.841384, 27.248298 ], [ 33.846441, 27.246509 ], [ 33.848552, 27.237704 ], [ 33.843259, 27.227881 ], [ 33.842473, 27.217344 ], [ 33.850374, 27.201228 ], [ 33.83906, 27.19285 ], [ 33.828317, 27.179038 ], [ 33.831193, 27.146743 ], [ 33.828657, 27.111329 ], [ 33.833713, 27.103057 ], [ 33.847871, 27.098148 ], [ 33.857018, 27.086741 ], [ 33.866439, 27.086002 ], [ 33.881404, 27.079527 ], [ 33.898445, 27.060361 ], [ 33.904562, 27.046166 ], [ 33.89058, 27.045474 ], [ 33.884538, 27.036372 ], [ 33.8894, 27.025151 ], [ 33.91027, 27.003866 ], [ 33.909506, 27.000139 ], [ 33.901834, 26.995716 ], [ 33.900962, 26.992353 ], [ 33.919431, 26.978638 ], [ 33.936927, 26.935549 ], [ 33.959545, 26.912193 ], [ 33.965128, 26.896111 ], [ 33.97113, 26.892081 ], [ 33.984465, 26.900279 ], [ 33.992039, 26.899441 ], [ 33.994436, 26.899176 ], [ 33.992039, 26.89273 ], [ 33.989392, 26.885609 ], [ 33.989302, 26.876598 ], [ 33.992039, 26.869572 ], [ 33.993578, 26.865622 ], [ 34.002081, 26.854972 ], [ 33.99827, 26.839861 ], [ 33.994798, 26.839245 ], [ 33.994979, 26.843301 ], [ 33.992039, 26.844594 ], [ 33.984268, 26.84801 ], [ 33.972321, 26.860498 ], [ 33.965909, 26.860448 ], [ 33.961455, 26.858338 ], [ 33.954428, 26.848456 ], [ 33.952164, 26.836227 ], [ 33.944023, 26.827518 ], [ 33.947942, 26.806839 ], [ 33.937313, 26.792391 ], [ 33.936989, 26.785672 ], [ 33.942915, 26.768353 ], [ 33.9543, 26.752758 ], [ 33.943631, 26.741994 ], [ 33.937698, 26.72182 ], [ 33.939494, 26.6982 ], [ 33.933666, 26.678732 ], [ 33.936008, 26.669469 ], [ 33.948929, 26.652687 ], [ 33.99045, 26.63325 ], [ 33.992039, 26.631336 ], [ 33.997802, 26.624395 ], [ 34.015807, 26.611394 ], [ 34.037804, 26.554592 ], [ 34.05115, 26.541039 ], [ 34.05462, 26.532669 ], [ 34.067792, 26.516675 ], [ 34.068398, 26.508992 ], [ 34.080703, 26.479426 ], [ 34.083621, 26.459305 ], [ 34.096636, 26.4395 ], [ 34.108606, 26.410898 ], [ 34.116761, 26.39974 ], [ 34.126253, 26.394929 ], [ 34.136769, 26.371763 ], [ 34.156324, 26.348046 ], [ 34.16918, 26.33955 ], [ 34.182811, 26.32002 ], [ 34.187181, 26.306687 ], [ 34.185607, 26.289122 ], [ 34.188026, 26.279756 ], [ 34.203293, 26.260145 ], [ 34.203353, 26.25126 ], [ 34.210374, 26.240988 ], [ 34.217846, 26.211185 ], [ 34.231217, 26.191158 ], [ 34.238134, 26.180797 ], [ 34.239416, 26.176823 ], [ 34.245912, 26.156681 ], [ 34.251764, 26.152813 ], [ 34.263029, 26.145366 ], [ 34.270928, 26.12707 ], [ 34.285453, 26.115443 ], [ 34.284728, 26.096776 ], [ 34.312491, 26.065337 ], [ 34.324842, 26.023395 ], [ 34.343025, 25.987684 ], [ 34.352565, 25.976742 ], [ 34.375542, 25.963355 ], [ 34.388251, 25.942134 ], [ 34.396733, 25.93507 ], [ 34.411418, 25.905647 ], [ 34.412974, 25.885836 ], [ 34.418702, 25.873679 ], [ 34.415167, 25.867699 ], [ 34.42137, 25.863507 ], [ 34.433998, 25.838308 ], [ 34.440432, 25.834955 ], [ 34.454473, 25.83312 ], [ 34.468575, 25.824156 ], [ 34.489014, 25.784735 ], [ 34.514796, 25.767321 ], [ 34.527947, 25.753414 ], [ 34.538983, 25.746555 ], [ 34.545059, 25.728086 ], [ 34.551871, 25.720776 ], [ 34.563625, 25.699387 ], [ 34.564797, 25.676016 ], [ 34.569364, 25.669162 ], [ 34.580507, 25.66167 ], [ 34.580165, 25.652429 ], [ 34.588267, 25.628195 ], [ 34.605831, 25.602 ], [ 34.616176, 25.597698 ], [ 34.6174, 25.596258 ], [ 34.635089, 25.575461 ], [ 34.641111, 25.538833 ], [ 34.631542, 25.53147 ], [ 34.64214, 25.529247 ], [ 34.651575, 25.508211 ], [ 34.663354, 25.501441 ], [ 34.67483, 25.48638 ], [ 34.679147, 25.46252 ], [ 34.690459, 25.446154 ], [ 34.693386, 25.418215 ], [ 34.698261, 25.404897 ], [ 34.703649, 25.395326 ], [ 34.729846, 25.370229 ], [ 34.739017, 25.349102 ], [ 34.738805, 25.339148 ], [ 34.753301, 25.300129 ], [ 34.778963, 25.275285 ], [ 34.780703, 25.272678 ], [ 34.788838, 25.260071 ], [ 34.802191, 25.219605 ], [ 34.809909, 25.205771 ], [ 34.817278, 25.201335 ], [ 34.849984, 25.165396 ], [ 34.856293, 25.147954 ], [ 34.872177, 25.121871 ], [ 34.883143, 25.088675 ], [ 34.899928, 25.069724 ], [ 34.926244, 25.015099 ], [ 34.943443, 24.995767 ], [ 34.945567, 24.983601 ], [ 34.93942, 24.969042 ], [ 34.939282, 24.955614 ], [ 34.944712, 24.945424 ], [ 34.961653, 24.927874 ], [ 34.985332, 24.894607 ], [ 34.996197, 24.828024 ], [ 35.013281, 24.807118 ], [ 35.039233, 24.787054 ], [ 35.072474, 24.749261 ], [ 35.08794, 24.713373 ], [ 35.085092, 24.689166 ], [ 35.086676, 24.679557 ], [ 35.093316, 24.670017 ], [ 35.105692, 24.66266 ], [ 35.100618, 24.646942 ], [ 35.101641, 24.636825 ], [ 35.114937, 24.620193 ], [ 35.116321, 24.610114 ], [ 35.129767, 24.606941 ], [ 35.144174, 24.582054 ], [ 35.16247, 24.566152 ], [ 35.15938, 24.55921 ], [ 35.147919, 24.551222 ], [ 35.146726, 24.537365 ], [ 35.138265, 24.522579 ], [ 35.141521, 24.509068 ], [ 35.163072, 24.487572 ], [ 35.189565, 24.471172 ], [ 35.2245, 24.413434 ], [ 35.233669, 24.402712 ], [ 35.255965, 24.390109 ], [ 35.268798, 24.375174 ], [ 35.28746, 24.364379 ], [ 35.301333, 24.359427 ], [ 35.316346, 24.357941 ], [ 35.327652, 24.339102 ], [ 35.342594, 24.324218 ], [ 35.358007, 24.314006 ], [ 35.373221, 24.291827 ], [ 35.407026, 24.252217 ], [ 35.416752, 24.227598 ], [ 35.427709, 24.210792 ], [ 35.427716, 24.196244 ], [ 35.433367, 24.184297 ], [ 35.461974, 24.150633 ], [ 35.487657, 24.130232 ], [ 35.496146, 24.112448 ], [ 35.502878, 24.110934 ], [ 35.507485, 24.115731 ], [ 35.505091, 24.12394 ], [ 35.497973, 24.13304 ], [ 35.500117, 24.135466 ], [ 35.523539, 24.120103 ], [ 35.558222, 24.10543 ], [ 35.575961, 24.092457 ], [ 35.587858, 24.076779 ], [ 35.598573, 24.049522 ], [ 35.607112, 24.015298 ], [ 35.634288, 24.002957 ], [ 35.672398, 24.003761 ], [ 35.696209, 23.998347 ], [ 35.72634, 23.98629 ], [ 35.758377, 23.961725 ], [ 35.767437, 23.945729 ], [ 35.774689, 23.924914 ], [ 35.78787, 23.908295 ], [ 35.785187, 23.902443 ], [ 35.762453, 23.929137 ], [ 35.749368, 23.935242 ], [ 35.726684, 23.931039 ], [ 35.708855, 23.921109 ], [ 35.684828, 23.913089 ], [ 35.642852, 23.927117 ], [ 35.611796, 23.928034 ], [ 35.59488, 23.93153 ], [ 35.580877, 23.937574 ], [ 35.562677, 23.951518 ], [ 35.541622, 23.949469 ], [ 35.547087, 23.963061 ], [ 35.535849, 23.970003 ], [ 35.51662, 23.973821 ], [ 35.50163, 23.968344 ], [ 35.493729, 23.949001 ], [ 35.477558, 23.92489 ], [ 35.486622, 23.861545 ], [ 35.480221, 23.839619 ], [ 35.480823, 23.821101 ], [ 35.474952, 23.803345 ], [ 35.474935, 23.789753 ], [ 35.486611, 23.773852 ], [ 35.504315, 23.781532 ], [ 35.508423, 23.778437 ], [ 35.510226, 23.771654 ], [ 35.507447, 23.762584 ], [ 35.497029, 23.760516 ], [ 35.490059, 23.75401 ], [ 35.501056, 23.734439 ], [ 35.510695, 23.675925 ], [ 35.506972, 23.636864 ], [ 35.501388, 23.636368 ], [ 35.49391, 23.643927 ], [ 35.489036, 23.63873 ], [ 35.490055, 23.630162 ], [ 35.497153, 23.61825 ], [ 35.505073, 23.581704 ], [ 35.499814, 23.541397 ], [ 35.487728, 23.498342 ], [ 35.488121, 23.48414 ], [ 35.496818, 23.464954 ], [ 35.531923, 23.422561 ], [ 35.550253, 23.370852 ], [ 35.552218, 23.311042 ], [ 35.556984, 23.286135 ], [ 35.568005, 23.257667 ], [ 35.572108, 23.215024 ], [ 35.586916, 23.199457 ], [ 35.59718, 23.179006 ], [ 35.621821, 23.145528 ] ] ], [ [ [ 33.915802, 27.522124 ], [ 33.917423, 27.524976 ], [ 33.922308, 27.524575 ], [ 33.925143, 27.532736 ], [ 33.929873, 27.537151 ], [ 33.960915, 27.535718 ], [ 33.979888, 27.519024 ], [ 33.992039, 27.51246 ], [ 34.006107, 27.50486 ], [ 34.016888, 27.504028 ], [ 34.019677, 27.50151 ], [ 34.023627, 27.495823 ], [ 34.025207, 27.486344 ], [ 34.028691, 27.483005 ], [ 34.038816, 27.454596 ], [ 34.035265, 27.448928 ], [ 34.024101, 27.446532 ], [ 34.021731, 27.449376 ], [ 34.023469, 27.454747 ], [ 34.014306, 27.462646 ], [ 34.014306, 27.466122 ], [ 34.005459, 27.472283 ], [ 34.000877, 27.470703 ], [ 33.998508, 27.471651 ], [ 33.99914, 27.475917 ], [ 33.992039, 27.481436 ], [ 33.989774, 27.483196 ], [ 33.979485, 27.492648 ], [ 33.97424, 27.4945 ], [ 33.960046, 27.494191 ], [ 33.951674, 27.503897 ], [ 33.949319, 27.502612 ], [ 33.944074, 27.506359 ], [ 33.941505, 27.504539 ], [ 33.934848, 27.504028 ], [ 33.929823, 27.505562 ], [ 33.915802, 27.522124 ] ] ], [ [ [ 33.740364, 27.587867 ], [ 33.743879, 27.591508 ], [ 33.750156, 27.603183 ], [ 33.751286, 27.607577 ], [ 33.755303, 27.614231 ], [ 33.757312, 27.622893 ], [ 33.761329, 27.627663 ], [ 33.767229, 27.62691 ], [ 33.771498, 27.623144 ], [ 33.771498, 27.620131 ], [ 33.777273, 27.617495 ], [ 33.776017, 27.606321 ], [ 33.773255, 27.600923 ], [ 33.777398, 27.595902 ], [ 33.777241, 27.593485 ], [ 33.779752, 27.593328 ], [ 33.792777, 27.586266 ], [ 33.794974, 27.586737 ], [ 33.803134, 27.580774 ], [ 33.800152, 27.573712 ], [ 33.791208, 27.568534 ], [ 33.789011, 27.564925 ], [ 33.784052, 27.563387 ], [ 33.780411, 27.56414 ], [ 33.776143, 27.56075 ], [ 33.776143, 27.554097 ], [ 33.7779, 27.550958 ], [ 33.78242, 27.546564 ], [ 33.783173, 27.54895 ], [ 33.779658, 27.553971 ], [ 33.779532, 27.556859 ], [ 33.781667, 27.559118 ], [ 33.785935, 27.559495 ], [ 33.790078, 27.556984 ], [ 33.786563, 27.553971 ], [ 33.787316, 27.544807 ], [ 33.779909, 27.544305 ], [ 33.773346, 27.553641 ], [ 33.772377, 27.551711 ], [ 33.763965, 27.562006 ], [ 33.76497, 27.566023 ], [ 33.769866, 27.567404 ], [ 33.777273, 27.567278 ], [ 33.778653, 27.57117 ], [ 33.76861, 27.574685 ], [ 33.764593, 27.574434 ], [ 33.759069, 27.577573 ], [ 33.753545, 27.582218 ], [ 33.746515, 27.581841 ], [ 33.741996, 27.584477 ], [ 33.740364, 27.587867 ] ] ], [ [ [ 32.946907, 31.152201 ], [ 32.953342, 31.157655 ], [ 32.989899, 31.175205 ], [ 33.075521, 31.21921 ], [ 33.112565, 31.228976 ], [ 33.181942, 31.228702 ], [ 33.268876, 31.215467 ], [ 33.267656, 31.212254 ], [ 33.262183, 31.209807 ], [ 33.255125, 31.213624 ], [ 33.184752, 31.226109 ], [ 33.110685, 31.225239 ], [ 33.084838, 31.218181 ], [ 33.094221, 31.210654 ], [ 33.091857, 31.20814 ], [ 33.075386, 31.203668 ], [ 33.058897, 31.203073 ], [ 32.989899, 31.168039 ], [ 32.960388, 31.157763 ], [ 32.948262, 31.151424 ], [ 32.946907, 31.152201 ] ] ], [ [ [ 33.894682, 27.244853 ], [ 33.89663, 27.246639 ], [ 33.903042, 27.244042 ], [ 33.907506, 27.248425 ], [ 33.904747, 27.254837 ], [ 33.903448, 27.260519 ], [ 33.908481, 27.26547 ], [ 33.911565, 27.263928 ], [ 33.917247, 27.263685 ], [ 33.927961, 27.249886 ], [ 33.929581, 27.242677 ], [ 33.928137, 27.239801 ], [ 33.928593, 27.235389 ], [ 33.932324, 27.22806 ], [ 33.937471, 27.225176 ], [ 33.939496, 27.215937 ], [ 33.942834, 27.212538 ], [ 33.947234, 27.209963 ], [ 33.949497, 27.201601 ], [ 33.9504, 27.19555 ], [ 33.962134, 27.184382 ], [ 33.958524, 27.180306 ], [ 33.955494, 27.179895 ], [ 33.947977, 27.182319 ], [ 33.947522, 27.185462 ], [ 33.944375, 27.192645 ], [ 33.945552, 27.198389 ], [ 33.943362, 27.204748 ], [ 33.936901, 27.207037 ], [ 33.932143, 27.205931 ], [ 33.925084, 27.208129 ], [ 33.919961, 27.216117 ], [ 33.918503, 27.220671 ], [ 33.906208, 27.230649 ], [ 33.903042, 27.230405 ], [ 33.902799, 27.234383 ], [ 33.896386, 27.239902 ], [ 33.894682, 27.244853 ] ] ], [ [ [ 33.961052, 26.767015 ], [ 33.971278, 26.776972 ], [ 33.982869, 26.766117 ], [ 33.992039, 26.768991 ], [ 33.993959, 26.767108 ], [ 33.995722, 26.763388 ], [ 33.99356, 26.753127 ], [ 33.995024, 26.742661 ], [ 34.001217, 26.733288 ], [ 34.001405, 26.726978 ], [ 34.000238, 26.714757 ], [ 33.99767, 26.70533 ], [ 33.995077, 26.705183 ], [ 33.995428, 26.710669 ], [ 33.992039, 26.715849 ], [ 33.979513, 26.735996 ], [ 33.977619, 26.748685 ], [ 33.966817, 26.752422 ], [ 33.961052, 26.767015 ] ] ], [ [ [ 33.783539, 27.652476 ], [ 33.785968, 27.656306 ], [ 33.784567, 27.658454 ], [ 33.786995, 27.66107 ], [ 33.790545, 27.661724 ], [ 33.793254, 27.664339 ], [ 33.797551, 27.664619 ], [ 33.801381, 27.660696 ], [ 33.80465, 27.655745 ], [ 33.808106, 27.655185 ], [ 33.814458, 27.649113 ], [ 33.815766, 27.64108 ], [ 33.816887, 27.639118 ], [ 33.816233, 27.632486 ], [ 33.810442, 27.624639 ], [ 33.808573, 27.618567 ], [ 33.806051, 27.618661 ], [ 33.804089, 27.621276 ], [ 33.795215, 27.627722 ], [ 33.794935, 27.629964 ], [ 33.791572, 27.632766 ], [ 33.787182, 27.645563 ], [ 33.783819, 27.650327 ], [ 33.783539, 27.652476 ] ] ], [ [ [ 33.697029, 27.676119 ], [ 33.697829, 27.680118 ], [ 33.707692, 27.679496 ], [ 33.720753, 27.681273 ], [ 33.722797, 27.683316 ], [ 33.724219, 27.690603 ], [ 33.724663, 27.698066 ], [ 33.726262, 27.703309 ], [ 33.729195, 27.706063 ], [ 33.733549, 27.706952 ], [ 33.737014, 27.706241 ], [ 33.73808, 27.703664 ], [ 33.737192, 27.698955 ], [ 33.737369, 27.68767 ], [ 33.739413, 27.679673 ], [ 33.739058, 27.675231 ], [ 33.734259, 27.671498 ], [ 33.729875, 27.674665 ], [ 33.725552, 27.669988 ], [ 33.720131, 27.669988 ], [ 33.713556, 27.664212 ], [ 33.713289, 27.657104 ], [ 33.710713, 27.654438 ], [ 33.704848, 27.650617 ], [ 33.702183, 27.65426 ], [ 33.704226, 27.655682 ], [ 33.705559, 27.66048 ], [ 33.70316, 27.666789 ], [ 33.700317, 27.669544 ], [ 33.697029, 27.676119 ] ] ], [ [ [ 33.307307, 31.201467 ], [ 33.308337, 31.202292 ], [ 33.328822, 31.199205 ], [ 33.333271, 31.196972 ], [ 33.344657, 31.195062 ], [ 33.380432, 31.186537 ], [ 33.393205, 31.182193 ], [ 33.402064, 31.177381 ], [ 33.408231, 31.175495 ], [ 33.423715, 31.167722 ], [ 33.427062, 31.16433 ], [ 33.425752, 31.163701 ], [ 33.404776, 31.173161 ], [ 33.403207, 31.168346 ], [ 33.394357, 31.171262 ], [ 33.331096, 31.195302 ], [ 33.307959, 31.200797 ], [ 33.307307, 31.201467 ] ] ], [ [ [ 33.583273, 27.773897 ], [ 33.588976, 27.779236 ], [ 33.588127, 27.781541 ], [ 33.590554, 27.783847 ], [ 33.59747, 27.78688 ], [ 33.600503, 27.784089 ], [ 33.603537, 27.783604 ], [ 33.606328, 27.779478 ], [ 33.604508, 27.777051 ], [ 33.607177, 27.774503 ], [ 33.611181, 27.767223 ], [ 33.606005, 27.766164 ], [ 33.605478, 27.762976 ], [ 33.607177, 27.76152 ], [ 33.607177, 27.755453 ], [ 33.598441, 27.758001 ], [ 33.597227, 27.763583 ], [ 33.592495, 27.765645 ], [ 33.583273, 27.773897 ] ] ], [ [ [ 36.18491, 23.615166 ], [ 36.187383, 23.623051 ], [ 36.196494, 23.621529 ], [ 36.198868, 23.617157 ], [ 36.205646, 23.613544 ], [ 36.214426, 23.607421 ], [ 36.205646, 23.605368 ], [ 36.194566, 23.597372 ], [ 36.185917, 23.59721 ], [ 36.187921, 23.608494 ], [ 36.18491, 23.615166 ] ] ], [ [ [ 33.669682, 27.714116 ], [ 33.672634, 27.718739 ], [ 33.67629, 27.719685 ], [ 33.679224, 27.717983 ], [ 33.68509, 27.714579 ], [ 33.687211, 27.706714 ], [ 33.694877, 27.68781 ], [ 33.694084, 27.684104 ], [ 33.691345, 27.684011 ], [ 33.687211, 27.689573 ], [ 33.679224, 27.697419 ], [ 33.673256, 27.703283 ], [ 33.669682, 27.714116 ] ] ], [ [ [ 32.85626, 31.111444 ], [ 32.858323, 31.113649 ], [ 32.882766, 31.124659 ], [ 32.908638, 31.138808 ], [ 32.923264, 31.14736 ], [ 32.926569, 31.141128 ], [ 32.936637, 31.145813 ], [ 32.937546, 31.14483 ], [ 32.93586, 31.139042 ], [ 32.929766, 31.138475 ], [ 32.926252, 31.135934 ], [ 32.924194, 31.139423 ], [ 32.920884, 31.140106 ], [ 32.919803, 31.138081 ], [ 32.910908, 31.135437 ], [ 32.901718, 31.12999 ], [ 32.89391, 31.126049 ], [ 32.868827, 31.115312 ], [ 32.857518, 31.110859 ], [ 32.85626, 31.111444 ] ] ], [ [ [ 33.967703, 27.2021 ], [ 33.968705, 27.208457 ], [ 33.970796, 27.212353 ], [ 33.975804, 27.20934 ], [ 33.982411, 27.200199 ], [ 33.983561, 27.188983 ], [ 33.979203, 27.187479 ], [ 33.975688, 27.188456 ], [ 33.972229, 27.187288 ], [ 33.969578, 27.189908 ], [ 33.968086, 27.195306 ], [ 33.967703, 27.2021 ] ] ], [ [ [ 35.163072, 24.671811 ], [ 35.171634, 24.660988 ], [ 35.173523, 24.652683 ], [ 35.17167, 24.652807 ], [ 35.163072, 24.661866 ], [ 35.16055, 24.663214 ], [ 35.155136, 24.663623 ], [ 35.157579, 24.667737 ], [ 35.15225, 24.672755 ], [ 35.149386, 24.67735 ], [ 35.157484, 24.676772 ], [ 35.163072, 24.671811 ] ] ], [ [ [ 33.623726, 27.673322 ], [ 33.626925, 27.682477 ], [ 33.631833, 27.680216 ], [ 33.633046, 27.675528 ], [ 33.631337, 27.6672 ], [ 33.638892, 27.653799 ], [ 33.638837, 27.652034 ], [ 33.635583, 27.653688 ], [ 33.628303, 27.661961 ], [ 33.624222, 27.668744 ], [ 33.623726, 27.673322 ] ] ], [ [ [ 31.988558, 31.473909 ], [ 31.991182, 31.474363 ], [ 31.997682, 31.466487 ], [ 32.002521, 31.457081 ], [ 32.003905, 31.450957 ], [ 32.002315, 31.446293 ], [ 31.999838, 31.443296 ], [ 31.995999, 31.444499 ], [ 31.998131, 31.447476 ], [ 31.999411, 31.455735 ], [ 31.9991, 31.458976 ], [ 31.997161, 31.459339 ], [ 31.996845, 31.454429 ], [ 31.995384, 31.452064 ], [ 31.99187, 31.450432 ], [ 31.99391, 31.461681 ], [ 31.992382, 31.467455 ], [ 31.988558, 31.473909 ] ] ], [ [ [ 33.782209, 27.669281 ], [ 33.787702, 27.673584 ], [ 33.791639, 27.675232 ], [ 33.793836, 27.680908 ], [ 33.803449, 27.681274 ], [ 33.807386, 27.683105 ], [ 33.807477, 27.680359 ], [ 33.803266, 27.679626 ], [ 33.800153, 27.677429 ], [ 33.796034, 27.672119 ], [ 33.795393, 27.667816 ], [ 33.783674, 27.667084 ], [ 33.782209, 27.669281 ] ] ], [ [ [ 33.868578, 27.211255 ], [ 33.870953, 27.218976 ], [ 33.873281, 27.221313 ], [ 33.876878, 27.22177 ], [ 33.879572, 27.219723 ], [ 33.882417, 27.215093 ], [ 33.869965, 27.205307 ], [ 33.868578, 27.211255 ] ] ], [ [ [ 33.663657, 27.645864 ], [ 33.670471, 27.645539 ], [ 33.676527, 27.639915 ], [ 33.678907, 27.63613 ], [ 33.675013, 27.631804 ], [ 33.672526, 27.632237 ], [ 33.669065, 27.636238 ], [ 33.664847, 27.642295 ], [ 33.663657, 27.645864 ] ] ], [ [ [ 33.426485, 31.114842 ], [ 33.428587, 31.120578 ], [ 33.432529, 31.122716 ], [ 33.439492, 31.118329 ], [ 33.438573, 31.111692 ], [ 33.426485, 31.114842 ] ] ], [ [ [ 33.749321, 27.566951 ], [ 33.749574, 27.56923 ], [ 33.753371, 27.567331 ], [ 33.766408, 27.553915 ], [ 33.76856, 27.55113 ], [ 33.765775, 27.550624 ], [ 33.759067, 27.554927 ], [ 33.749321, 27.566951 ] ] ], [ [ [ 33.269575, 31.207836 ], [ 33.271484, 31.209922 ], [ 33.290596, 31.204656 ], [ 33.291018, 31.203451 ], [ 33.285423, 31.201018 ], [ 33.270944, 31.205894 ], [ 33.269575, 31.207836 ] ] ], [ [ [ 35.802353, 23.835943 ], [ 35.807496, 23.838707 ], [ 35.809262, 23.842052 ], [ 35.811938, 23.841743 ], [ 35.814039, 23.834432 ], [ 35.812985, 23.831334 ], [ 35.808174, 23.830902 ], [ 35.804818, 23.832391 ], [ 35.802353, 23.835943 ] ] ], [ [ [ 32.92136, 31.095719 ], [ 32.921582, 31.097257 ], [ 32.925796, 31.10053 ], [ 32.932689, 31.103068 ], [ 32.935585, 31.101329 ], [ 32.936466, 31.098364 ], [ 32.929133, 31.09516 ], [ 32.924787, 31.094237 ], [ 32.92136, 31.095719 ] ] ], [ [ [ 33.866386, 27.159493 ], [ 33.867245, 27.165258 ], [ 33.872634, 27.169423 ], [ 33.875494, 27.163968 ], [ 33.868673, 27.155269 ], [ 33.866666, 27.155011 ], [ 33.866386, 27.159493 ] ] ], [ [ [ 32.882521, 31.107014 ], [ 32.884832, 31.109305 ], [ 32.888365, 31.109759 ], [ 32.891352, 31.10319 ], [ 32.89173, 31.099278 ], [ 32.887246, 31.097303 ], [ 32.884777, 31.100886 ], [ 32.882521, 31.107014 ] ] ], [ [ [ 28.9986, 30.833802 ], [ 28.999617, 30.834686 ], [ 29.022368, 30.832459 ], [ 29.020374, 30.828207 ], [ 29.013375, 30.829106 ], [ 29.01127, 30.830587 ], [ 28.99972, 30.832873 ], [ 28.9986, 30.833802 ] ] ], [ [ [ 33.3132, 31.191806 ], [ 33.314776, 31.19574 ], [ 33.326602, 31.186523 ], [ 33.322003, 31.184162 ], [ 33.3132, 31.191806 ] ] ], [ [ [ 33.695997, 27.774426 ], [ 33.699545, 27.775868 ], [ 33.701985, 27.769326 ], [ 33.703725, 27.757816 ], [ 33.702334, 27.757014 ], [ 33.699545, 27.762007 ], [ 33.699989, 27.765888 ], [ 33.695997, 27.774426 ] ] ], [ [ [ 33.341055, 31.165389 ], [ 33.344996, 31.17146 ], [ 33.351435, 31.164264 ], [ 33.346048, 31.161679 ], [ 33.341055, 31.165389 ] ] ], [ [ [ 35.596777, 23.815794 ], [ 35.598905, 23.817956 ], [ 35.59855, 23.824334 ], [ 35.60069, 23.82819 ], [ 35.60245, 23.827805 ], [ 35.60245, 23.822821 ], [ 35.599614, 23.814172 ], [ 35.596777, 23.815794 ] ] ], [ [ [ 33.779771, 27.631877 ], [ 33.781462, 27.632722 ], [ 33.78287, 27.629248 ], [ 33.784373, 27.625585 ], [ 33.786626, 27.623426 ], [ 33.787659, 27.619857 ], [ 33.785875, 27.619388 ], [ 33.783903, 27.62089 ], [ 33.782682, 27.623801 ], [ 33.780429, 27.627182 ], [ 33.779771, 27.631877 ] ] ], [ [ [ 35.655558, 23.719075 ], [ 35.664259, 23.722134 ], [ 35.662749, 23.715146 ], [ 35.659729, 23.714225 ], [ 35.655558, 23.719075 ] ] ], [ [ [ 33.563711, 27.645217 ], [ 33.563926, 27.647086 ], [ 33.565436, 27.651544 ], [ 33.567593, 27.651472 ], [ 33.570613, 27.649387 ], [ 33.573921, 27.647805 ], [ 33.573561, 27.645864 ], [ 33.571332, 27.646799 ], [ 33.566803, 27.646008 ], [ 33.563711, 27.645217 ] ] ], [ [ [ 33.678894, 27.782183 ], [ 33.6807, 27.784217 ], [ 33.687567, 27.774401 ], [ 33.684713, 27.772256 ], [ 33.678894, 27.782183 ] ] ], [ [ [ 27.214784, 31.370297 ], [ 27.21971, 31.370694 ], [ 27.225678, 31.369125 ], [ 27.223478, 31.36637 ], [ 27.217726, 31.366841 ], [ 27.214784, 31.370297 ] ] ], [ [ [ 33.978706, 27.162084 ], [ 33.981998, 27.171474 ], [ 33.984896, 27.170897 ], [ 33.980759, 27.161374 ], [ 33.978706, 27.162084 ] ] ], [ [ [ 33.473607, 31.13798 ], [ 33.475822, 31.138685 ], [ 33.482166, 31.131815 ], [ 33.480395, 31.130795 ], [ 33.473607, 31.13798 ] ] ], [ [ [ 35.380026, 24.380545 ], [ 35.383168, 24.386197 ], [ 35.384452, 24.385488 ], [ 35.385162, 24.379941 ], [ 35.380026, 24.380545 ] ] ], [ [ [ 36.242896, 23.563987 ], [ 36.24412, 23.565495 ], [ 36.249517, 23.564435 ], [ 36.247419, 23.561919 ], [ 36.242951, 23.561345 ], [ 36.242896, 23.563987 ] ] ], [ [ [ 35.701785, 23.696881 ], [ 35.704375, 23.701063 ], [ 35.707743, 23.698398 ], [ 35.704592, 23.694918 ], [ 35.701785, 23.696881 ] ] ], [ [ [ 35.488278, 23.790423 ], [ 35.490895, 23.796486 ], [ 35.493502, 23.793359 ], [ 35.490144, 23.788996 ], [ 35.488278, 23.790423 ] ] ], [ [ [ 33.68594, 27.767263 ], [ 33.686646, 27.771457 ], [ 33.690378, 27.771117 ], [ 33.692193, 27.767982 ], [ 33.68594, 27.767263 ] ] ], [ [ [ 35.38128, 24.316187 ], [ 35.38128, 24.318537 ], [ 35.384797, 24.320887 ], [ 35.386673, 24.319605 ], [ 35.386907, 24.317682 ], [ 35.386438, 24.315546 ], [ 35.384094, 24.317255 ], [ 35.38128, 24.316187 ] ] ], [ [ [ 33.976249, 26.831505 ], [ 33.976782, 26.834408 ], [ 33.981353, 26.833883 ], [ 33.98013, 26.828913 ], [ 33.976249, 26.831505 ] ] ], [ [ [ 33.918966, 27.032761 ], [ 33.923489, 27.033403 ], [ 33.924819, 27.030593 ], [ 33.92117, 27.028122 ], [ 33.918966, 27.032761 ] ] ], [ [ [ 33.873047, 27.559638 ], [ 33.873399, 27.563603 ], [ 33.880006, 27.560255 ], [ 33.877716, 27.558845 ], [ 33.873047, 27.559638 ] ] ], [ [ [ 33.578022, 27.638625 ], [ 33.581081, 27.642195 ], [ 33.585571, 27.63968 ], [ 33.585147, 27.638028 ], [ 33.578022, 27.638625 ] ] ], [ [ [ 33.772083, 27.691675 ], [ 33.774456, 27.693923 ], [ 33.778962, 27.688322 ], [ 33.77533, 27.688303 ], [ 33.772083, 27.691675 ] ] ], [ [ [ 33.672676, 27.792975 ], [ 33.674146, 27.7942 ], [ 33.679325, 27.788953 ], [ 33.675344, 27.788107 ], [ 33.672676, 27.792975 ] ] ], [ [ [ 33.239521, 28.55698 ], [ 33.241211, 28.558674 ], [ 33.2462, 28.554623 ], [ 33.245144, 28.551981 ], [ 33.239521, 28.55698 ] ] ], [ [ [ 32.74089, 29.447531 ], [ 32.742872, 29.450483 ], [ 32.74528, 29.45006 ], [ 32.746329, 29.446259 ], [ 32.744037, 29.445351 ], [ 32.74089, 29.447531 ] ] ], [ [ [ 33.46414, 31.145003 ], [ 33.466834, 31.145923 ], [ 33.471834, 31.142376 ], [ 33.469993, 31.140356 ], [ 33.46414, 31.145003 ] ] ], [ [ [ 33.447275, 31.154452 ], [ 33.449133, 31.155362 ], [ 33.455859, 31.152408 ], [ 33.454496, 31.150062 ], [ 33.447275, 31.154452 ] ] ] ] } }
]
}
