{
"type": "FeatureCollection",
"name": "El Salvador",
"crs": { "type": "name", "properties": { "name": "urn:ogc:def:crs:OGC:1.3:CRS84" } },
"features": [
{ "type": "Feature", "properties": { "id": "SV", "CNTR_ID": "SV", "CNTR_NAME": "El Salvador", "NAME_ENGL": "El Salvador", "ISO3_CODE": "SLV", "FID": "SV" }, "geometry": { "type": "MultiPolygon", "coordinates": [ [ [ [ -87.816665, 13.407165 ], [ -87.837691, 13.419217 ], [ -87.837124, 13.43409 ], [ -87.842183, 13.437744 ], [ -87.858099, 13.416944 ], [ -87.867617, 13.398186 ], [ -87.868724, 13.383357 ], [ -87.85977, 13.385793 ], [ -87.852742, 13.38299 ], [ -87.866252, 13.371753 ], [ -87.866995, 13.361769 ], [ -87.845832, 13.342607 ], [ -87.819881, 13.332668 ], [ -87.809814, 13.319051 ], [ -87.789659, 13.303684 ], [ -87.784723, 13.294581 ], [ -87.786581, 13.289593 ], [ -87.800248, 13.269093 ], [ -87.831137, 13.240881 ], [ -87.857263, 13.23098 ], [ -87.881832, 13.214425 ], [ -87.909865, 13.203557 ], [ -87.914013, 13.1799 ], [ -87.902016, 13.165678 ], [ -87.903663, 13.157704 ], [ -87.973616, 13.159192 ], [ -88.10656, 13.172356 ], [ -88.128974, 13.166594 ], [ -88.180999, 13.168535 ], [ -88.221621, 13.161706 ], [ -88.359244, 13.176303 ], [ -88.374144, 13.168535 ], [ -88.406202, 13.161928 ], [ -88.422148, 13.1667 ], [ -88.447819, 13.182499 ], [ -88.456668, 13.180505 ], [ -88.462793, 13.172833 ], [ -88.477492, 13.172432 ], [ -88.59569, 13.202489 ], [ -88.750958, 13.231483 ], [ -88.834473, 13.259287 ], [ -88.875025, 13.279328 ], [ -88.884271, 13.289497 ], [ -88.899874, 13.29216 ], [ -88.954258, 13.320456 ], [ -89.009194, 13.34335 ], [ -89.047841, 13.359454 ], [ -89.194071, 13.439272 ], [ -89.295361, 13.482848 ], [ -89.316668, 13.485593 ], [ -89.332916, 13.482409 ], [ -89.377943, 13.491864 ], [ -89.429247, 13.49352 ], [ -89.469559, 13.499012 ], [ -89.527442, 13.495266 ], [ -89.677767, 13.532168 ], [ -89.715858, 13.528572 ], [ -89.769076, 13.531051 ], [ -89.807994, 13.526297 ], [ -89.823072, 13.540525 ], [ -89.833009, 13.571619 ], [ -89.835465, 13.590565 ], [ -89.84709, 13.604315 ], [ -89.94398, 13.661148 ], [ -89.996176, 13.685829 ], [ -90.039831, 13.70647 ], [ -90.124323, 13.740907 ], [ -90.105307, 13.73813 ], [ -90.096656, 13.750553 ], [ -90.097035, 13.760698 ], [ -90.104049, 13.77282 ], [ -90.106544, 13.775464 ], [ -90.113361, 13.775329 ], [ -90.115433, 13.780603 ], [ -90.114002, 13.794997 ], [ -90.107226, 13.808251 ], [ -90.111827, 13.822408 ], [ -90.110424, 13.830242 ], [ -90.093375, 13.842545 ], [ -90.079317, 13.874358 ], [ -90.067383, 13.878818 ], [ -90.062039, 13.886952 ], [ -90.0434, 13.89041 ], [ -90.035692, 13.895501 ], [ -90.033543, 13.902478 ], [ -90.036206, 13.914499 ], [ -90.027487, 13.921092 ], [ -90.02606, 13.934733 ], [ -90.011594, 13.941331 ], [ -90.001839, 13.95326 ], [ -89.996176, 13.954838 ], [ -89.978421, 13.959787 ], [ -89.965623, 13.968191 ], [ -89.959185, 13.978161 ], [ -89.942628, 13.985281 ], [ -89.927995, 14.004063 ], [ -89.909089, 14.012635 ], [ -89.900243, 14.031019 ], [ -89.897604, 14.034807 ], [ -89.893833, 14.03727 ], [ -89.861878, 14.042886 ], [ -89.857982, 14.044492 ], [ -89.852857, 14.052127 ], [ -89.848314, 14.055811 ], [ -89.835637, 14.059668 ], [ -89.822767, 14.061382 ], [ -89.813686, 14.056668 ], [ -89.786875, 14.040079 ], [ -89.776845, 14.031019 ], [ -89.771087, 14.031019 ], [ -89.761363, 14.034204 ], [ -89.744563, 14.033852 ], [ -89.738643, 14.033728 ], [ -89.742405, 14.065137 ], [ -89.7202, 14.115104 ], [ -89.697072, 14.14542 ], [ -89.661731, 14.183245 ], [ -89.626672, 14.200448 ], [ -89.594016, 14.198265 ], [ -89.567925, 14.201329 ], [ -89.530124, 14.216991 ], [ -89.51966, 14.224237 ], [ -89.518095, 14.237508 ], [ -89.528806, 14.263972 ], [ -89.541688, 14.282071 ], [ -89.548007, 14.298856 ], [ -89.558082, 14.308511 ], [ -89.582005, 14.312726 ], [ -89.584869, 14.315456 ], [ -89.5845, 14.330971 ], [ -89.580888, 14.34193 ], [ -89.567916, 14.345925 ], [ -89.56569, 14.349436 ], [ -89.566102, 14.354933 ], [ -89.576435, 14.373395 ], [ -89.577036, 14.393069 ], [ -89.571915, 14.405659 ], [ -89.559297, 14.41192 ], [ -89.543441, 14.412357 ], [ -89.536502, 14.403341 ], [ -89.529726, 14.384899 ], [ -89.52131, 14.382456 ], [ -89.507121, 14.397395 ], [ -89.484175, 14.414762 ], [ -89.459854, 14.417048 ], [ -89.438747, 14.411076 ], [ -89.423502, 14.411741 ], [ -89.408587, 14.424167 ], [ -89.398263, 14.440398 ], [ -89.391914, 14.444824 ], [ -89.385749, 14.4416 ], [ -89.383043, 14.428401 ], [ -89.37554, 14.429383 ], [ -89.361151, 14.419211 ], [ -89.353185, 14.418488 ], [ -89.342014, 14.418238 ], [ -89.321443, 14.410327 ], [ -89.298812, 14.414263 ], [ -89.277131, 14.40009 ], [ -89.218149, 14.382485 ], [ -89.204429, 14.366434 ], [ -89.170154, 14.36548 ], [ -89.149244, 14.352994 ], [ -89.126914, 14.378361 ], [ -89.111977, 14.400981 ], [ -89.099338, 14.402199 ], [ -89.091788, 14.395826 ], [ -89.082824, 14.377419 ], [ -89.082593, 14.341564 ], [ -89.065904, 14.335861 ], [ -89.036088, 14.33299 ], [ -89.034464, 14.322084 ], [ -89.02214, 14.312379 ], [ -89.021669, 14.29069 ], [ -89.025491, 14.283305 ], [ -89.0252, 14.272649 ], [ -89.013357, 14.271095 ], [ -89.009194, 14.268739 ], [ -88.990878, 14.258373 ], [ -88.970505, 14.226573 ], [ -88.973862, 14.21949 ], [ -88.971579, 14.214214 ], [ -88.955854, 14.207547 ], [ -88.933618, 14.204534 ], [ -88.921213, 14.209308 ], [ -88.904829, 14.206636 ], [ -88.899256, 14.192125 ], [ -88.889784, 14.191724 ], [ -88.872749, 14.184433 ], [ -88.86047, 14.172784 ], [ -88.857791, 14.15474 ], [ -88.849683, 14.14947 ], [ -88.846719, 14.134632 ], [ -88.837078, 14.127225 ], [ -88.829748, 14.10726 ], [ -88.813427, 14.108501 ], [ -88.794018, 14.113888 ], [ -88.784543, 14.105244 ], [ -88.773819, 14.102508 ], [ -88.762827, 14.108831 ], [ -88.754394, 14.109482 ], [ -88.736881, 14.119463 ], [ -88.72923, 14.111038 ], [ -88.729666, 14.089872 ], [ -88.738267, 14.068343 ], [ -88.737033, 14.055299 ], [ -88.728593, 14.048562 ], [ -88.704241, 14.042532 ], [ -88.692814, 14.042412 ], [ -88.68262, 14.031019 ], [ -88.683994, 14.025488 ], [ -88.685777, 14.024166 ], [ -88.683994, 14.022981 ], [ -88.682322, 14.011723 ], [ -88.674148, 14.010511 ], [ -88.668643, 14.013125 ], [ -88.661707, 14.024719 ], [ -88.65368, 14.019587 ], [ -88.640625, 14.018619 ], [ -88.628676, 14.023657 ], [ -88.607468, 14.007228 ], [ -88.592463, 14.009638 ], [ -88.585436, 14.007101 ], [ -88.574654, 13.994805 ], [ -88.572188, 13.983819 ], [ -88.568306, 13.980049 ], [ -88.557855, 13.983674 ], [ -88.549547, 13.982064 ], [ -88.540343, 13.985936 ], [ -88.529698, 13.98639 ], [ -88.502348, 13.970499 ], [ -88.497497, 13.953492 ], [ -88.505845, 13.942974 ], [ -88.509912, 13.913388 ], [ -88.503886, 13.907486 ], [ -88.491891, 13.879283 ], [ -88.495085, 13.871506 ], [ -88.493334, 13.863931 ], [ -88.472704, 13.855571 ], [ -88.467848, 13.850778 ], [ -88.464781, 13.863135 ], [ -88.447427, 13.864975 ], [ -88.439118, 13.862077 ], [ -88.432069, 13.877723 ], [ -88.418726, 13.885524 ], [ -88.411531, 13.880373 ], [ -88.37713, 13.885765 ], [ -88.36834, 13.875104 ], [ -88.35851, 13.870976 ], [ -88.35222, 13.876326 ], [ -88.349752, 13.889752 ], [ -88.34449, 13.894836 ], [ -88.318852, 13.889548 ], [ -88.313505, 13.900937 ], [ -88.305083, 13.903275 ], [ -88.29215, 13.912344 ], [ -88.287736, 13.913091 ], [ -88.280228, 13.909411 ], [ -88.267776, 13.913151 ], [ -88.262998, 13.919897 ], [ -88.264149, 13.935937 ], [ -88.228003, 13.93791 ], [ -88.221272, 13.950199 ], [ -88.220812, 13.954075 ], [ -88.235571, 13.97067 ], [ -88.23462, 13.98499 ], [ -88.237171, 13.99263 ], [ -88.229376, 13.997505 ], [ -88.215178, 13.991896 ], [ -88.198777, 13.995014 ], [ -88.189594, 13.989712 ], [ -88.178707, 13.98929 ], [ -88.172282, 13.983951 ], [ -88.164189, 13.982441 ], [ -88.144299, 13.990361 ], [ -88.131077, 13.989543 ], [ -88.108291, 13.999699 ], [ -88.073765, 13.991394 ], [ -88.072193, 13.974069 ], [ -88.066149, 13.962989 ], [ -88.064025, 13.945219 ], [ -88.048133, 13.933099 ], [ -88.020056, 13.89387 ], [ -88.012983, 13.873432 ], [ -88.007092, 13.872365 ], [ -87.989694, 13.884563 ], [ -87.973616, 13.891824 ], [ -87.959914, 13.898012 ], [ -87.951424, 13.893002 ], [ -87.942456, 13.896 ], [ -87.93621, 13.894625 ], [ -87.923507, 13.886124 ], [ -87.920851, 13.88782 ], [ -87.919871, 13.894922 ], [ -87.913955, 13.893679 ], [ -87.907797, 13.899425 ], [ -87.899887, 13.901538 ], [ -87.890519, 13.898344 ], [ -87.882128, 13.90136 ], [ -87.871836, 13.895294 ], [ -87.854697, 13.893912 ], [ -87.845503, 13.897405 ], [ -87.841821, 13.906144 ], [ -87.830753, 13.916615 ], [ -87.812885, 13.919645 ], [ -87.803471, 13.92042 ], [ -87.79866, 13.91693 ], [ -87.795101, 13.902959 ], [ -87.799375, 13.893979 ], [ -87.79773, 13.888922 ], [ -87.786932, 13.882095 ], [ -87.782222, 13.875425 ], [ -87.75047, 13.860175 ], [ -87.746055, 13.853591 ], [ -87.744902, 13.833768 ], [ -87.73415, 13.829538 ], [ -87.728501, 13.822294 ], [ -87.7141, 13.816768 ], [ -87.708535, 13.80322 ], [ -87.718096, 13.7693 ], [ -87.727123, 13.762209 ], [ -87.736325, 13.748898 ], [ -87.735749, 13.743477 ], [ -87.726864, 13.734588 ], [ -87.732988, 13.723418 ], [ -87.733174, 13.715707 ], [ -87.743868, 13.704384 ], [ -87.753428, 13.686422 ], [ -87.756004, 13.668945 ], [ -87.752075, 13.645123 ], [ -87.755269, 13.635976 ], [ -87.756315, 13.612002 ], [ -87.754933, 13.604858 ], [ -87.767916, 13.596101 ], [ -87.773462, 13.583193 ], [ -87.772965, 13.576 ], [ -87.781911, 13.571123 ], [ -87.779675, 13.566843 ], [ -87.785471, 13.555783 ], [ -87.786798, 13.544859 ], [ -87.781426, 13.53481 ], [ -87.792822, 13.524342 ], [ -87.778377, 13.520331 ], [ -87.781924, 13.515188 ], [ -87.77805, 13.510643 ], [ -87.764094, 13.50886 ], [ -87.757798, 13.517096 ], [ -87.753645, 13.518376 ], [ -87.749302, 13.516336 ], [ -87.746193, 13.507454 ], [ -87.737072, 13.511825 ], [ -87.724421, 13.507472 ], [ -87.720457, 13.503801 ], [ -87.72358, 13.491942 ], [ -87.71678, 13.467216 ], [ -87.721631, 13.460011 ], [ -87.720753, 13.448736 ], [ -87.724421, 13.441727 ], [ -87.732587, 13.445533 ], [ -87.740218, 13.442706 ], [ -87.746526, 13.435868 ], [ -87.759377, 13.438973 ], [ -87.776856, 13.424398 ], [ -87.784254, 13.427132 ], [ -87.792949, 13.411549 ], [ -87.812885, 13.407329 ], [ -87.816665, 13.407165 ] ] ], [ [ [ -87.728383, 13.195719 ], [ -87.726113, 13.200805 ], [ -87.727418, 13.209037 ], [ -87.724421, 13.214475 ], [ -87.719673, 13.217113 ], [ -87.705273, 13.213378 ], [ -87.697641, 13.19669 ], [ -87.697007, 13.181805 ], [ -87.69429, 13.178036 ], [ -87.692392, 13.168974 ], [ -87.706494, 13.162808 ], [ -87.710918, 13.170054 ], [ -87.721636, 13.166616 ], [ -87.722943, 13.178036 ], [ -87.727149, 13.182742 ], [ -87.728383, 13.195719 ] ] ], [ [ [ -87.780453, 13.236753 ], [ -87.777824, 13.241165 ], [ -87.780044, 13.243553 ], [ -87.775068, 13.248706 ], [ -87.764424, 13.248294 ], [ -87.761438, 13.247418 ], [ -87.755704, 13.242002 ], [ -87.75538, 13.237103 ], [ -87.750449, 13.234919 ], [ -87.751318, 13.232415 ], [ -87.750304, 13.227888 ], [ -87.752081, 13.22517 ], [ -87.754288, 13.226654 ], [ -87.758319, 13.223969 ], [ -87.75846, 13.217403 ], [ -87.760843, 13.21498 ], [ -87.765714, 13.214609 ], [ -87.775321, 13.220078 ], [ -87.776978, 13.22412 ], [ -87.776858, 13.230029 ], [ -87.778966, 13.232149 ], [ -87.780453, 13.236753 ] ] ], [ [ [ -87.76952, 13.312192 ], [ -87.768304, 13.316401 ], [ -87.765699, 13.317495 ], [ -87.761615, 13.314403 ], [ -87.757072, 13.31687 ], [ -87.752827, 13.313074 ], [ -87.749477, 13.316982 ], [ -87.744601, 13.319014 ], [ -87.742019, 13.315285 ], [ -87.746735, 13.310696 ], [ -87.75098, 13.309825 ], [ -87.752164, 13.306005 ], [ -87.755248, 13.302454 ], [ -87.751519, 13.298716 ], [ -87.753078, 13.294779 ], [ -87.757152, 13.29118 ], [ -87.768717, 13.293742 ], [ -87.76672, 13.296405 ], [ -87.768097, 13.301898 ], [ -87.768258, 13.308999 ], [ -87.76952, 13.312192 ] ] ], [ [ [ -87.74737, 13.280855 ], [ -87.741582, 13.289458 ], [ -87.736729, 13.288234 ], [ -87.733808, 13.28253 ], [ -87.744349, 13.277598 ], [ -87.74737, 13.280855 ] ] ], [ [ [ -87.688973, 13.171754 ], [ -87.687293, 13.175662 ], [ -87.683991, 13.172862 ], [ -87.686313, 13.167994 ], [ -87.688973, 13.171754 ] ] ] ] } }
]
}
