{
"type": "FeatureCollection",
"name": "Equatorial Guinea",
"crs": { "type": "name", "properties": { "name": "urn:ogc:def:crs:OGC:1.3:CRS84" } },
"features": [
{ "type": "Feature", "properties": { "id": "GQ", "CNTR_ID": "GQ", "CNTR_NAME": "Guinée Équatoriale-Guinea Ecuatorial", "NAME_ENGL": "Equatorial Guinea", "ISO3_CODE": "GNQ", "FID": "GQ" }, "geometry": { "type": "MultiPolygon", "coordinates": [ [ [ [ 9.82147, 2.347847 ], [ 9.83279, 2.329146 ], [ 9.834071, 2.313096 ], [ 9.831549, 2.290712 ], [ 9.847193, 2.248747 ], [ 9.881673, 2.231846 ], [ 9.888552, 2.221973 ], [ 9.898327, 2.217678 ], [ 9.902555, 2.211343 ], [ 9.904156, 2.197206 ], [ 9.907381, 2.192583 ], [ 9.913183, 2.191709 ], [ 9.925547, 2.200314 ], [ 9.944071, 2.192397 ], [ 9.963937, 2.188229 ], [ 9.983732, 2.177185 ], [ 9.998572, 2.176916 ], [ 10.038963, 2.162729 ], [ 10.045296, 2.165616 ], [ 10.05277, 2.178263 ], [ 10.062648, 2.165558 ], [ 10.096943, 2.163564 ], [ 10.101264, 2.163632 ], [ 10.108782, 2.165975 ], [ 10.113781, 2.165518 ], [ 10.119928, 2.16148 ], [ 10.124996, 2.160121 ], [ 10.130106, 2.162701 ], [ 10.142422, 2.174228 ], [ 10.147967, 2.17544 ], [ 10.15249, 2.174603 ], [ 10.159192, 2.175464 ], [ 10.162015, 2.172985 ], [ 10.164395, 2.166356 ], [ 10.172597, 2.158917 ], [ 10.193803, 2.17256 ], [ 10.197952, 2.172956 ], [ 10.288742, 2.172812 ], [ 10.303579, 2.174279 ], [ 10.330355, 2.172607 ], [ 10.373272, 2.174004 ], [ 10.390006, 2.17295 ], [ 10.52122, 2.17279 ], [ 10.598766, 2.173917 ], [ 10.635878, 2.17276 ], [ 10.640879, 2.174146 ], [ 10.669564, 2.174309 ], [ 10.793152, 2.173982 ], [ 11.041609, 2.174534 ], [ 11.162805, 2.174803 ], [ 11.182203, 2.185647 ], [ 11.189169, 2.186807 ], [ 11.228577, 2.173878 ], [ 11.248165, 2.173879 ], [ 11.33461, 2.173887 ], [ 11.332551, 2.156527 ], [ 11.335382, 2.12015 ], [ 11.333069, 1.981119 ], [ 11.335612, 1.891979 ], [ 11.333231, 1.854957 ], [ 11.333632, 1.529306 ], [ 11.334284, 1.000451 ], [ 11.315256, 0.99715 ], [ 11.248165, 0.996772 ], [ 11.178763, 0.996381 ], [ 11.15163, 0.99912 ], [ 11.041609, 0.996892 ], [ 11.022944, 0.996514 ], [ 10.793152, 0.997842 ], [ 10.788597, 0.997451 ], [ 10.447178, 0.998299 ], [ 10.442776, 0.996697 ], [ 10.433076, 0.997762 ], [ 10.2954, 0.999017 ], [ 10.284149, 0.997808 ], [ 10.162881, 0.996842 ], [ 10.130643, 0.998467 ], [ 10.12446, 0.997087 ], [ 10.109465, 0.998111 ], [ 10.096943, 0.9974 ], [ 9.998526, 0.997354 ], [ 9.995738, 0.982381 ], [ 9.990135, 0.975139 ], [ 9.99107, 0.962135 ], [ 9.996159, 0.955639 ], [ 9.994986, 0.945885 ], [ 9.991032, 0.939449 ], [ 9.994942, 0.932783 ], [ 9.98807, 0.927694 ], [ 9.969933, 0.927575 ], [ 9.95098, 0.921437 ], [ 9.929594, 0.937915 ], [ 9.900536, 0.948408 ], [ 9.886203, 0.974592 ], [ 9.876417, 0.983136 ], [ 9.841723, 0.997743 ], [ 9.791322, 0.998778 ], [ 9.78534, 1.025171 ], [ 9.761301, 1.047569 ], [ 9.746022, 1.066574 ], [ 9.743456, 1.068335 ], [ 9.736143, 1.069029 ], [ 9.699544, 1.064905 ], [ 9.67143, 1.063565 ], [ 9.661982, 1.059847 ], [ 9.658652, 1.068046 ], [ 9.655664, 1.069199 ], [ 9.640973, 1.056521 ], [ 9.621503, 1.049563 ], [ 9.614737, 1.043365 ], [ 9.605685, 1.045755 ], [ 9.604962, 1.054794 ], [ 9.599788, 1.051755 ], [ 9.596669, 1.055798 ], [ 9.591961, 1.048346 ], [ 9.592031, 1.034967 ], [ 9.586793, 1.03073 ], [ 9.580059, 1.040807 ], [ 9.571393, 1.076041 ], [ 9.55387, 1.108033 ], [ 9.53326, 1.129523 ], [ 9.522239, 1.130853 ], [ 9.506937, 1.13728 ], [ 9.499287, 1.134121 ], [ 9.479277, 1.136955 ], [ 9.469121, 1.128593 ], [ 9.454998, 1.124204 ], [ 9.449117, 1.11888 ], [ 9.431065, 1.115257 ], [ 9.418417, 1.112719 ], [ 9.409294, 1.101669 ], [ 9.401838, 1.107909 ], [ 9.385425, 1.109535 ], [ 9.373461, 1.135205 ], [ 9.357936, 1.141696 ], [ 9.359391, 1.156418 ], [ 9.34202, 1.175237 ], [ 9.344992, 1.17952 ], [ 9.359586, 1.184785 ], [ 9.365222, 1.182754 ], [ 9.369293, 1.186354 ], [ 9.376164, 1.206905 ], [ 9.384823, 1.216161 ], [ 9.390374, 1.247812 ], [ 9.397304, 1.259663 ], [ 9.396659, 1.272764 ], [ 9.401838, 1.277808 ], [ 9.409772, 1.282643 ], [ 9.426011, 1.283654 ], [ 9.431065, 1.292882 ], [ 9.442252, 1.313311 ], [ 9.456356, 1.322057 ], [ 9.461415, 1.332743 ], [ 9.463634, 1.357128 ], [ 9.461027, 1.395209 ], [ 9.480154, 1.418838 ], [ 9.497209, 1.432154 ], [ 9.516676, 1.442176 ], [ 9.536697, 1.458928 ], [ 9.548125, 1.484318 ], [ 9.561909, 1.489359 ], [ 9.592994, 1.555902 ], [ 9.596817, 1.573708 ], [ 9.624416, 1.597472 ], [ 9.621729, 1.606324 ], [ 9.605666, 1.624433 ], [ 9.605367, 1.634845 ], [ 9.610666, 1.668907 ], [ 9.628187, 1.689225 ], [ 9.638869, 1.693917 ], [ 9.646605, 1.70271 ], [ 9.656994, 1.708076 ], [ 9.682691, 1.746565 ], [ 9.694132, 1.74959 ], [ 9.706882, 1.758145 ], [ 9.725533, 1.777515 ], [ 9.742322, 1.808322 ], [ 9.743511, 1.844428 ], [ 9.755932, 1.854935 ], [ 9.763036, 1.866211 ], [ 9.785263, 1.879641 ], [ 9.790571, 1.889512 ], [ 9.794015, 1.90564 ], [ 9.80793, 1.910461 ], [ 9.810521, 1.916301 ], [ 9.810526, 1.944253 ], [ 9.800869, 1.988622 ], [ 9.765055, 2.092792 ], [ 9.768377, 2.10931 ], [ 9.780743, 2.116331 ], [ 9.787443, 2.126817 ], [ 9.793267, 2.145604 ], [ 9.795811, 2.166362 ], [ 9.793203, 2.182755 ], [ 9.794619, 2.219799 ], [ 9.787965, 2.253163 ], [ 9.789515, 2.266641 ], [ 9.77615, 2.31439 ], [ 9.77654, 2.322572 ], [ 9.778607, 2.326432 ], [ 9.790548, 2.329667 ], [ 9.798119, 2.335868 ], [ 9.811437, 2.336867 ], [ 9.82147, 2.347847 ] ] ], [ [ [ 8.415998, 3.360673 ], [ 8.420044, 3.373542 ], [ 8.420079, 3.386471 ], [ 8.440253, 3.43942 ], [ 8.459594, 3.464418 ], [ 8.477934, 3.472765 ], [ 8.494649, 3.469408 ], [ 8.542516, 3.468289 ], [ 8.552001, 3.464591 ], [ 8.556141, 3.462977 ], [ 8.57552, 3.472505 ], [ 8.582235, 3.485085 ], [ 8.584588, 3.499138 ], [ 8.582289, 3.506367 ], [ 8.574498, 3.515095 ], [ 8.57374, 3.523016 ], [ 8.583483, 3.539387 ], [ 8.604039, 3.559367 ], [ 8.608383, 3.568355 ], [ 8.606991, 3.587889 ], [ 8.610214, 3.609106 ], [ 8.610515, 3.665387 ], [ 8.645601, 3.703522 ], [ 8.681206, 3.753044 ], [ 8.691781, 3.775577 ], [ 8.716421, 3.786413 ], [ 8.727797, 3.781255 ], [ 8.725959, 3.769166 ], [ 8.733886, 3.759459 ], [ 8.750582, 3.761987 ], [ 8.77211, 3.757535 ], [ 8.786279, 3.763312 ], [ 8.808347, 3.754451 ], [ 8.819009, 3.757295 ], [ 8.840969, 3.755397 ], [ 8.887106, 3.76687 ], [ 8.893595, 3.764265 ], [ 8.903535, 3.760275 ], [ 8.909532, 3.76193 ], [ 8.909456, 3.754991 ], [ 8.916461, 3.741471 ], [ 8.924819, 3.722785 ], [ 8.933838, 3.712209 ], [ 8.937608, 3.66579 ], [ 8.930988, 3.636119 ], [ 8.925402, 3.626337 ], [ 8.916461, 3.618247 ], [ 8.905735, 3.608164 ], [ 8.895938, 3.587763 ], [ 8.893595, 3.585097 ], [ 8.871872, 3.560381 ], [ 8.858972, 3.539966 ], [ 8.835076, 3.483907 ], [ 8.811963, 3.453962 ], [ 8.805877, 3.422592 ], [ 8.791486, 3.405879 ], [ 8.772509, 3.397325 ], [ 8.767201, 3.391968 ], [ 8.766099, 3.383339 ], [ 8.772235, 3.360459 ], [ 8.770642, 3.339024 ], [ 8.763123, 3.317037 ], [ 8.741825, 3.292014 ], [ 8.714129, 3.26561 ], [ 8.697401, 3.232926 ], [ 8.678733, 3.212077 ], [ 8.672854, 3.211837 ], [ 8.641449, 3.229163 ], [ 8.612283, 3.234563 ], [ 8.591389, 3.244742 ], [ 8.571742, 3.245575 ], [ 8.557905, 3.241043 ], [ 8.552001, 3.243143 ], [ 8.515713, 3.256048 ], [ 8.485618, 3.258874 ], [ 8.450489, 3.272539 ], [ 8.44168, 3.280386 ], [ 8.435075, 3.307437 ], [ 8.423143, 3.328041 ], [ 8.415998, 3.360673 ] ] ], [ [ [ 5.617234, -1.413467 ], [ 5.618381, -1.409089 ], [ 5.623238, -1.405737 ], [ 5.627841, -1.40483 ], [ 5.631854, -1.401617 ], [ 5.633212, -1.403923 ], [ 5.638332, -1.407521 ], [ 5.642171, -1.408547 ], [ 5.642942, -1.412408 ], [ 5.648833, -1.41858 ], [ 5.64935, -1.423471 ], [ 5.651142, -1.424499 ], [ 5.652683, -1.429389 ], [ 5.652433, -1.434538 ], [ 5.655759, -1.435306 ], [ 5.654867, -1.438397 ], [ 5.655768, -1.442772 ], [ 5.65179, -1.444475 ], [ 5.64981, -1.456172 ], [ 5.651581, -1.460725 ], [ 5.644242, -1.463345 ], [ 5.644713, -1.466568 ], [ 5.636924, -1.468161 ], [ 5.634887, -1.464092 ], [ 5.628826, -1.464516 ], [ 5.628701, -1.461498 ], [ 5.620786, -1.458528 ], [ 5.620659, -1.452897 ], [ 5.625658, -1.447617 ], [ 5.626324, -1.443469 ], [ 5.623096, -1.437528 ], [ 5.622891, -1.428639 ], [ 5.618778, -1.420932 ], [ 5.620692, -1.417068 ], [ 5.617234, -1.413467 ] ] ], [ [ [ 9.301772, 0.898195 ], [ 9.303182, 0.899485 ], [ 9.30267, 0.907483 ], [ 9.304592, 0.910321 ], [ 9.30408, 0.918319 ], [ 9.307286, 0.93354 ], [ 9.312668, 0.93483 ], [ 9.317538, 0.934055 ], [ 9.321127, 0.935989 ], [ 9.323946, 0.934055 ], [ 9.330353, 0.93199 ], [ 9.337144, 0.92296 ], [ 9.333428, 0.918316 ], [ 9.333683, 0.906706 ], [ 9.339577, 0.896386 ], [ 9.342908, 0.894838 ], [ 9.342207, 0.892848 ], [ 9.338039, 0.892645 ], [ 9.332656, 0.890711 ], [ 9.330862, 0.887615 ], [ 9.323685, 0.889034 ], [ 9.32061, 0.887486 ], [ 9.316509, 0.89097 ], [ 9.314074, 0.89484 ], [ 9.311127, 0.896517 ], [ 9.304976, 0.896389 ], [ 9.302934, 0.894979 ], [ 9.301772, 0.898195 ] ] ], [ [ [ 9.498029, 0.973755 ], [ 9.500198, 0.976836 ], [ 9.499135, 0.980453 ], [ 9.501475, 0.986079 ], [ 9.501986, 0.991728 ], [ 9.506322, 0.992497 ], [ 9.506194, 0.987876 ], [ 9.507979, 0.983254 ], [ 9.505931, 0.979878 ], [ 9.508616, 0.978889 ], [ 9.510783, 0.972726 ], [ 9.507467, 0.971186 ], [ 9.505044, 0.973882 ], [ 9.501855, 0.973755 ], [ 9.501473, 0.971701 ], [ 9.498029, 0.973755 ] ] ], [ [ [ 9.515007, 1.001589 ], [ 9.517658, 1.002878 ], [ 9.520335, 0.997202 ], [ 9.516388, 0.996352 ], [ 9.515007, 1.001589 ] ] ] ] } }
]
}
