{
"type": "FeatureCollection",
"name": "Eritrea",
"crs": { "type": "name", "properties": { "name": "urn:ogc:def:crs:OGC:1.3:CRS84" } },
"features": [
{ "type": "Feature", "properties": { "id": "ER", "CNTR_ID": "ER", "CNTR_NAME": "إريتريا-Eritrea-ኤርትራ", "NAME_ENGL": "Eritrea", "ISO3_CODE": "ERI", "FID": "ER" }, "geometry": { "type": "MultiPolygon", "coordinates": [ [ [ [ 43.126051, 12.710059 ], [ 43.011365, 12.660931 ], [ 42.995706, 12.651333 ], [ 42.965729, 12.643521 ], [ 42.949144, 12.626974 ], [ 42.928138, 12.622088 ], [ 42.914463, 12.611151 ], [ 42.90887, 12.611099 ], [ 42.895873, 12.619043 ], [ 42.884635, 12.617121 ], [ 42.879941, 12.609312 ], [ 42.880063, 12.597702 ], [ 42.868959, 12.590763 ], [ 42.861805, 12.576399 ], [ 42.85915, 12.552647 ], [ 42.842381, 12.543421 ], [ 42.829324, 12.541797 ], [ 42.820168, 12.527002 ], [ 42.802504, 12.508115 ], [ 42.797605, 12.480169 ], [ 42.802926, 12.474406 ], [ 42.812289, 12.471987 ], [ 42.818373, 12.464974 ], [ 42.825555, 12.443113 ], [ 42.823737, 12.433147 ], [ 42.8142, 12.42194 ], [ 42.804817, 12.415823 ], [ 42.788353, 12.415846 ], [ 42.783604, 12.414763 ], [ 42.765222, 12.410573 ], [ 42.76391, 12.408357 ], [ 42.759146, 12.400312 ], [ 42.75341, 12.396334 ], [ 42.75258, 12.38869 ], [ 42.748683, 12.383932 ], [ 42.73308, 12.380521 ], [ 42.716523, 12.382355 ], [ 42.700454, 12.367775 ], [ 42.698958, 12.35605 ], [ 42.64397, 12.397118 ], [ 42.587759, 12.457045 ], [ 42.539938, 12.49317 ], [ 42.463716, 12.522443 ], [ 42.449533, 12.511466 ], [ 42.404278, 12.468639 ], [ 42.355613, 12.534395 ], [ 42.328838, 12.570566 ], [ 42.278744, 12.635299 ], [ 42.237687, 12.723427 ], [ 42.218383, 12.764851 ], [ 42.1875, 12.769461 ], [ 42.131936, 12.777514 ], [ 42.117061, 12.782197 ], [ 42.056398, 12.801295 ], [ 42.027018, 12.867449 ], [ 42.01306, 12.8806 ], [ 41.966309, 12.924642 ], [ 41.95068, 12.959312 ], [ 41.92808, 13.009434 ], [ 41.891062, 13.073424 ], [ 41.856443, 13.113592 ], [ 41.815137, 13.16152 ], [ 41.735663, 13.236584 ], [ 41.721048, 13.275271 ], [ 41.667278, 13.323906 ], [ 41.64366, 13.385558 ], [ 41.504421, 13.446969 ], [ 41.446995, 13.48849 ], [ 41.428614, 13.494182 ], [ 41.401696, 13.502518 ], [ 41.399304, 13.504472 ], [ 41.338628, 13.554048 ], [ 41.307254, 13.579678 ], [ 41.197423, 13.701038 ], [ 41.169963, 13.728895 ], [ 41.115806, 13.8278 ], [ 41.070274, 13.891391 ], [ 41.052058, 13.921263 ], [ 40.990246, 14.020916 ], [ 40.941948, 14.081806 ], [ 40.927713, 14.092763 ], [ 40.873131, 14.134773 ], [ 40.808652, 14.172442 ], [ 40.715706, 14.212522 ], [ 40.68745, 14.224705 ], [ 40.657071, 14.236475 ], [ 40.590771, 14.262158 ], [ 40.573282, 14.268933 ], [ 40.558353, 14.273666 ], [ 40.451979, 14.307545 ], [ 40.373629, 14.354634 ], [ 40.356496, 14.363103 ], [ 40.262183, 14.409716 ], [ 40.213311, 14.389109 ], [ 40.181564, 14.461342 ], [ 40.149393, 14.534516 ], [ 40.116617, 14.55888 ], [ 40.070732, 14.53951 ], [ 40.055818, 14.527953 ], [ 40.039622, 14.5079 ], [ 40.042014, 14.492524 ], [ 40.027532, 14.475666 ], [ 40.015456, 14.470576 ], [ 40.009526, 14.452351 ], [ 39.988151, 14.452273 ], [ 39.976419, 14.440883 ], [ 39.972951, 14.430325 ], [ 39.955315, 14.417193 ], [ 39.932216, 14.416567 ], [ 39.917921, 14.425828 ], [ 39.903176, 14.435379 ], [ 39.876039, 14.464711 ], [ 39.843568, 14.486489 ], [ 39.834702, 14.489437 ], [ 39.81826, 14.487974 ], [ 39.807021, 14.499835 ], [ 39.796331, 14.50561 ], [ 39.768042, 14.544939 ], [ 39.755833, 14.549371 ], [ 39.729655, 14.551837 ], [ 39.712781, 14.557628 ], [ 39.683182, 14.591396 ], [ 39.671422, 14.595406 ], [ 39.656657, 14.595278 ], [ 39.640732, 14.602813 ], [ 39.615439, 14.59927 ], [ 39.58686, 14.604084 ], [ 39.536803, 14.583728 ], [ 39.527153, 14.566709 ], [ 39.510982, 14.549042 ], [ 39.509504, 14.521632 ], [ 39.516137, 14.51289 ], [ 39.534961, 14.498896 ], [ 39.531815, 14.490549 ], [ 39.522505, 14.48692 ], [ 39.501762, 14.486141 ], [ 39.488854, 14.501751 ], [ 39.447498, 14.507534 ], [ 39.421956, 14.51633 ], [ 39.396734, 14.539653 ], [ 39.377334, 14.538163 ], [ 39.360295, 14.525175 ], [ 39.358379, 14.510392 ], [ 39.361308, 14.497588 ], [ 39.357327, 14.486986 ], [ 39.351558, 14.485028 ], [ 39.337888, 14.486523 ], [ 39.340429, 14.475587 ], [ 39.338104, 14.469358 ], [ 39.313909, 14.469668 ], [ 39.297988, 14.465371 ], [ 39.27628, 14.439988 ], [ 39.264267, 14.416148 ], [ 39.252926, 14.412609 ], [ 39.24318, 14.419445 ], [ 39.231522, 14.448285 ], [ 39.240921, 14.462763 ], [ 39.26309, 14.484472 ], [ 39.25979, 14.515735 ], [ 39.243972, 14.544333 ], [ 39.238267, 14.56045 ], [ 39.205107, 14.568449 ], [ 39.199828, 14.569723 ], [ 39.181602, 14.582843 ], [ 39.162457, 14.604316 ], [ 39.158659, 14.630318 ], [ 39.164601, 14.647223 ], [ 39.156338, 14.65029 ], [ 39.153385, 14.651387 ], [ 39.130958, 14.643708 ], [ 39.111981, 14.643853 ], [ 39.097425, 14.637539 ], [ 39.060499, 14.64027 ], [ 39.030805, 14.635767 ], [ 39.016592, 14.623742 ], [ 39.015485, 14.599113 ], [ 39.006039, 14.589687 ], [ 38.998299, 14.572231 ], [ 38.978658, 14.548223 ], [ 38.954041, 14.537949 ], [ 38.932516, 14.537718 ], [ 38.921614, 14.524988 ], [ 38.897786, 14.505698 ], [ 38.871212, 14.498993 ], [ 38.849826, 14.498095 ], [ 38.836103, 14.490046 ], [ 38.822409, 14.486494 ], [ 38.815383, 14.477617 ], [ 38.79945, 14.469786 ], [ 38.755212, 14.470472 ], [ 38.731814, 14.463834 ], [ 38.704392, 14.468754 ], [ 38.648092, 14.444715 ], [ 38.620429, 14.439034 ], [ 38.600058, 14.442809 ], [ 38.577512, 14.437095 ], [ 38.533161, 14.420161 ], [ 38.520923, 14.411552 ], [ 38.509348, 14.416491 ], [ 38.488159, 14.420058 ], [ 38.456566, 14.415078 ], [ 38.44888, 14.418869 ], [ 38.443198, 14.429439 ], [ 38.432903, 14.438024 ], [ 38.422516, 14.467208 ], [ 38.40462, 14.471927 ], [ 38.395213, 14.485916 ], [ 38.37873, 14.486787 ], [ 38.370591, 14.490075 ], [ 38.35896, 14.511258 ], [ 38.347922, 14.517181 ], [ 38.343803, 14.529545 ], [ 38.331635, 14.540509 ], [ 38.320698, 14.556368 ], [ 38.317586, 14.578029 ], [ 38.313014, 14.587357 ], [ 38.299567, 14.598685 ], [ 38.292266, 14.611694 ], [ 38.279279, 14.614388 ], [ 38.271809, 14.619606 ], [ 38.271456, 14.63951 ], [ 38.265946, 14.664428 ], [ 38.258139, 14.67711 ], [ 38.235989, 14.689463 ], [ 38.220023, 14.688659 ], [ 38.196042, 14.693333 ], [ 38.190274, 14.691117 ], [ 38.184195, 14.68226 ], [ 38.174429, 14.683211 ], [ 38.145023, 14.678989 ], [ 38.132567, 14.690786 ], [ 38.115646, 14.697955 ], [ 38.09688, 14.711496 ], [ 38.092876, 14.714428 ], [ 38.0446, 14.720529 ], [ 38.019091, 14.742986 ], [ 38.021222, 14.757247 ], [ 38.018906, 14.763484 ], [ 38.004886, 14.769064 ], [ 37.991721, 14.778627 ], [ 37.984468, 14.807023 ], [ 37.971108, 14.803893 ], [ 37.965219, 14.830818 ], [ 37.950216, 14.840558 ], [ 37.942406, 14.862193 ], [ 37.925646, 14.877738 ], [ 37.920302, 14.889752 ], [ 37.916218, 14.89207 ], [ 37.906317, 14.88232 ], [ 37.813074, 14.711496 ], [ 37.658247, 14.427553 ], [ 37.527138, 14.186824 ], [ 37.50757, 14.182482 ], [ 37.498165, 14.185076 ], [ 37.493712, 14.197023 ], [ 37.468388, 14.218136 ], [ 37.470878, 14.237327 ], [ 37.468418, 14.252314 ], [ 37.449842, 14.253862 ], [ 37.441668, 14.266056 ], [ 37.416054, 14.287016 ], [ 37.397595, 14.297965 ], [ 37.395562, 14.304831 ], [ 37.402094, 14.316109 ], [ 37.402024, 14.33573 ], [ 37.394376, 14.341319 ], [ 37.383511, 14.343365 ], [ 37.380915, 14.347354 ], [ 37.381764, 14.353997 ], [ 37.38875, 14.360658 ], [ 37.389287, 14.365077 ], [ 37.374002, 14.375498 ], [ 37.369964, 14.384833 ], [ 37.349829, 14.404565 ], [ 37.347462, 14.413428 ], [ 37.340283, 14.416153 ], [ 37.331897, 14.427108 ], [ 37.318612, 14.433344 ], [ 37.308154, 14.446873 ], [ 37.264564, 14.44153 ], [ 37.249367, 14.435372 ], [ 37.230022, 14.443752 ], [ 37.222433, 14.444298 ], [ 37.212865, 14.440335 ], [ 37.210989, 14.439558 ], [ 37.200635, 14.428487 ], [ 37.187689, 14.421322 ], [ 37.176256, 14.418035 ], [ 37.157379, 14.417913 ], [ 37.134922, 14.407059 ], [ 37.112152, 14.359842 ], [ 37.103118, 14.340917 ], [ 37.102704, 14.332416 ], [ 37.108049, 14.320466 ], [ 37.105872, 14.293909 ], [ 37.092306, 14.272911 ], [ 37.075856, 14.27057 ], [ 37.066222, 14.265579 ], [ 37.045334, 14.269003 ], [ 37.022287, 14.254733 ], [ 37.01307, 14.253569 ], [ 36.991248, 14.26675 ], [ 36.983528, 14.280284 ], [ 36.970703, 14.292276 ], [ 36.944366, 14.294506 ], [ 36.932334, 14.300712 ], [ 36.905145, 14.307533 ], [ 36.895895, 14.315974 ], [ 36.88501, 14.31582 ], [ 36.880225, 14.315487 ], [ 36.866864, 14.321545 ], [ 36.852413, 14.322069 ], [ 36.843908, 14.31266 ], [ 36.83536, 14.309378 ], [ 36.82572, 14.317821 ], [ 36.743004, 14.322447 ], [ 36.730926, 14.314501 ], [ 36.713472, 14.31162 ], [ 36.692389, 14.301224 ], [ 36.677078, 14.303151 ], [ 36.664314, 14.311781 ], [ 36.651013, 14.308478 ], [ 36.635614, 14.315369 ], [ 36.628727, 14.315202 ], [ 36.614393, 14.296007 ], [ 36.605407, 14.295861 ], [ 36.589131, 14.286799 ], [ 36.574777, 14.289383 ], [ 36.556409, 14.283226 ], [ 36.556832, 14.277987 ], [ 36.56582, 14.267201 ], [ 36.56034, 14.257713 ], [ 36.55444, 14.260851 ], [ 36.545056, 14.275534 ], [ 36.526331, 14.333408 ], [ 36.519567, 14.405395 ], [ 36.510185, 14.465013 ], [ 36.510789, 14.489808 ], [ 36.505563, 14.512393 ], [ 36.50014, 14.604184 ], [ 36.489803, 14.711496 ], [ 36.482136, 14.791061 ], [ 36.472121, 14.855168 ], [ 36.468275, 14.945344 ], [ 36.450597, 15.091673 ], [ 36.449765, 15.098554 ], [ 36.439368, 15.156436 ], [ 36.478202, 15.203691 ], [ 36.495986, 15.212899 ], [ 36.513716, 15.21229 ], [ 36.525001, 15.215903 ], [ 36.541027, 15.227881 ], [ 36.547787, 15.238695 ], [ 36.553016, 15.262349 ], [ 36.580746, 15.329409 ], [ 36.589072, 15.359522 ], [ 36.613366, 15.413529 ], [ 36.615261, 15.441522 ], [ 36.629827, 15.467879 ], [ 36.631538, 15.492542 ], [ 36.639242, 15.523318 ], [ 36.673218, 15.636191 ], [ 36.689243, 15.673458 ], [ 36.699697, 15.712522 ], [ 36.746555, 15.80013 ], [ 36.768444, 15.83155 ], [ 36.815459, 15.95598 ], [ 36.816325, 15.974128 ], [ 36.829031, 16.003573 ], [ 36.884666, 16.179763 ], [ 36.892798, 16.213933 ], [ 36.900494, 16.22752 ], [ 36.93002, 16.260764 ], [ 36.955966, 16.279178 ], [ 36.960839, 16.285386 ], [ 36.958706, 16.290444 ], [ 36.947873, 16.294409 ], [ 36.946897, 16.31356 ], [ 36.93405, 16.350316 ], [ 36.937287, 16.358097 ], [ 36.949566, 16.369353 ], [ 36.964956, 16.429378 ], [ 36.960114, 16.436094 ], [ 36.938169, 16.446132 ], [ 36.922149, 16.472284 ], [ 36.907719, 16.485073 ], [ 36.899059, 16.499398 ], [ 36.887916, 16.548684 ], [ 36.890169, 16.567473 ], [ 36.903426, 16.610383 ], [ 36.905811, 16.635488 ], [ 36.89438, 16.660829 ], [ 36.902228, 16.675048 ], [ 36.934052, 16.67892 ], [ 36.958281, 16.6896 ], [ 36.991324, 16.728731 ], [ 36.991475, 16.73589 ], [ 36.983773, 16.749085 ], [ 36.990224, 16.767265 ], [ 36.996952, 16.773555 ], [ 37.010307, 16.777889 ], [ 37.028681, 16.79731 ], [ 37.027335, 16.802299 ], [ 37.007461, 16.820442 ], [ 37.003244, 16.82848 ], [ 37.012749, 16.866632 ], [ 37.010659, 16.879592 ], [ 37.001539, 16.898869 ], [ 36.999079, 16.911204 ], [ 37.004656, 16.936125 ], [ 37.002246, 16.943032 ], [ 36.989344, 16.957992 ], [ 36.983744, 16.972945 ], [ 36.988203, 16.988081 ], [ 36.996501, 16.997799 ], [ 37.012418, 17.007799 ], [ 37.016994, 17.016274 ], [ 37.017793, 17.030504 ], [ 37.014061, 17.051369 ], [ 37.004, 17.067309 ], [ 37.004725, 17.071771 ], [ 37.020033, 17.094167 ], [ 37.03256, 17.100173 ], [ 37.040612, 17.098708 ], [ 37.059352, 17.087701 ], [ 37.081732, 17.084045 ], [ 37.098667, 17.086605 ], [ 37.112152, 17.079997 ], [ 37.124095, 17.060905 ], [ 37.131048, 17.05755 ], [ 37.195914, 17.063442 ], [ 37.209863, 17.074645 ], [ 37.212865, 17.075811 ], [ 37.218647, 17.078056 ], [ 37.253683, 17.076078 ], [ 37.312713, 17.09389 ], [ 37.331183, 17.086327 ], [ 37.35096, 17.068158 ], [ 37.39424, 17.04821 ], [ 37.415017, 17.099041 ], [ 37.421969, 17.102874 ], [ 37.436984, 17.103333 ], [ 37.45479, 17.12786 ], [ 37.459209, 17.139429 ], [ 37.467022, 17.144938 ], [ 37.468034, 17.147423 ], [ 37.466158, 17.158295 ], [ 37.470232, 17.164353 ], [ 37.476793, 17.17896 ], [ 37.485371, 17.188439 ], [ 37.502626, 17.19318 ], [ 37.50525, 17.196205 ], [ 37.508448, 17.199892 ], [ 37.506942, 17.204087 ], [ 37.497979, 17.2092 ], [ 37.492983, 17.21875 ], [ 37.495934, 17.228032 ], [ 37.496121, 17.248639 ], [ 37.500823, 17.253841 ], [ 37.518572, 17.260101 ], [ 37.521267, 17.268492 ], [ 37.515761, 17.277562 ], [ 37.497735, 17.285693 ], [ 37.493, 17.29604 ], [ 37.492737, 17.303922 ], [ 37.494179, 17.306656 ], [ 37.505505, 17.30821 ], [ 37.507009, 17.317296 ], [ 37.516674, 17.33716 ], [ 37.614424, 17.374443 ], [ 37.658247, 17.37664 ], [ 37.736914, 17.380583 ], [ 37.749485, 17.38621 ], [ 37.764124, 17.384176 ], [ 37.772786, 17.431334 ], [ 37.781728, 17.442581 ], [ 37.780221, 17.463002 ], [ 37.775563, 17.480416 ], [ 37.788554, 17.496016 ], [ 37.825324, 17.500123 ], [ 37.839376, 17.498815 ], [ 37.855584, 17.487825 ], [ 37.86193, 17.462481 ], [ 37.867714, 17.455367 ], [ 37.871873, 17.452727 ], [ 37.883486, 17.452299 ], [ 37.890716, 17.452114 ], [ 37.902223, 17.45647 ], [ 37.917708, 17.457098 ], [ 37.942656, 17.471815 ], [ 37.958902, 17.476174 ], [ 37.975356, 17.488729 ], [ 37.976867, 17.491153 ], [ 37.96878, 17.505521 ], [ 37.972491, 17.515812 ], [ 38.003859, 17.557017 ], [ 38.006847, 17.557492 ], [ 38.018401, 17.549179 ], [ 38.025567, 17.549079 ], [ 38.041023, 17.553776 ], [ 38.056969, 17.564613 ], [ 38.061673, 17.563494 ], [ 38.067618, 17.552177 ], [ 38.070729, 17.482144 ], [ 38.073218, 17.48221 ], [ 38.089818, 17.482649 ], [ 38.106471, 17.480535 ], [ 38.107188, 17.484728 ], [ 38.103152, 17.495532 ], [ 38.101369, 17.522262 ], [ 38.106354, 17.533182 ], [ 38.108881, 17.558758 ], [ 38.11248, 17.562916 ], [ 38.130144, 17.573017 ], [ 38.166097, 17.572979 ], [ 38.176701, 17.5818 ], [ 38.180759, 17.579112 ], [ 38.189329, 17.565243 ], [ 38.195116, 17.545229 ], [ 38.212445, 17.563057 ], [ 38.226315, 17.557877 ], [ 38.231422, 17.55597 ], [ 38.24322, 17.554386 ], [ 38.260047, 17.558596 ], [ 38.264734, 17.565116 ], [ 38.26647, 17.576169 ], [ 38.269829, 17.580959 ], [ 38.272689, 17.585037 ], [ 38.275607, 17.592588 ], [ 38.280657, 17.625632 ], [ 38.281952, 17.626961 ], [ 38.288191, 17.633369 ], [ 38.298981, 17.639291 ], [ 38.341523, 17.649586 ], [ 38.348305, 17.654218 ], [ 38.350824, 17.661829 ], [ 38.364878, 17.685982 ], [ 38.387498, 17.731704 ], [ 38.390029, 17.756206 ], [ 38.413154, 17.807916 ], [ 38.446131, 17.881628 ], [ 38.447358, 17.888642 ], [ 38.452379, 17.898291 ], [ 38.457057, 17.902667 ], [ 38.471362, 17.916048 ], [ 38.561908, 18.000709 ], [ 38.569551, 18.005042 ], [ 38.568745, 17.990672 ], [ 38.579865, 17.972109 ], [ 38.596822, 17.955398 ], [ 38.60646, 17.928619 ], [ 38.618579, 17.919585 ], [ 38.632404, 17.916048 ], [ 38.639949, 17.906614 ], [ 38.644685, 17.894413 ], [ 38.648162, 17.867333 ], [ 38.675559, 17.816679 ], [ 38.681382, 17.807916 ], [ 38.699243, 17.781034 ], [ 38.709265, 17.771667 ], [ 38.720559, 17.76111 ], [ 38.727751, 17.741759 ], [ 38.739519, 17.73154 ], [ 38.766662, 17.689195 ], [ 38.791243, 17.659732 ], [ 38.799093, 17.646307 ], [ 38.8024, 17.630479 ], [ 38.811621, 17.626961 ], [ 38.820332, 17.615273 ], [ 38.824479, 17.60111 ], [ 38.836814, 17.585037 ], [ 38.851553, 17.556977 ], [ 38.863371, 17.515132 ], [ 38.890734, 17.479893 ], [ 38.936706, 17.375673 ], [ 38.942483, 17.325208 ], [ 38.956889, 17.302975 ], [ 38.966288, 17.271082 ], [ 38.970467, 17.220992 ], [ 38.97576, 17.212868 ], [ 38.991385, 17.200518 ], [ 38.993765, 17.196205 ], [ 38.996348, 17.191526 ], [ 38.998771, 17.140767 ], [ 39.00308, 17.12786 ], [ 39.01392, 17.095122 ], [ 39.024686, 17.04757 ], [ 39.041039, 17.001494 ], [ 39.042866, 16.977 ], [ 39.053954, 16.948611 ], [ 39.064962, 16.894654 ], [ 39.094705, 16.834611 ], [ 39.101162, 16.804383 ], [ 39.117791, 16.777915 ], [ 39.123091, 16.759127 ], [ 39.125044, 16.735188 ], [ 39.142242, 16.703752 ], [ 39.147182, 16.687836 ], [ 39.144582, 16.668776 ], [ 39.148377, 16.645125 ], [ 39.143987, 16.621929 ], [ 39.137136, 16.61667 ], [ 39.140963, 16.596708 ], [ 39.149251, 16.587136 ], [ 39.153621, 16.576021 ], [ 39.156338, 16.573394 ], [ 39.161501, 16.568403 ], [ 39.164956, 16.555816 ], [ 39.162208, 16.547308 ], [ 39.156338, 16.542741 ], [ 39.15308, 16.540205 ], [ 39.149684, 16.547399 ], [ 39.151838, 16.555858 ], [ 39.149139, 16.557135 ], [ 39.146071, 16.541043 ], [ 39.155965, 16.525704 ], [ 39.151268, 16.51947 ], [ 39.156338, 16.510082 ], [ 39.163056, 16.506987 ], [ 39.169229, 16.513846 ], [ 39.172948, 16.512152 ], [ 39.171685, 16.490335 ], [ 39.192157, 16.43398 ], [ 39.188843, 16.405854 ], [ 39.193815, 16.382235 ], [ 39.194576, 16.361632 ], [ 39.203359, 16.339251 ], [ 39.1978, 16.295245 ], [ 39.207675, 16.271975 ], [ 39.206192, 16.246318 ], [ 39.2159, 16.211336 ], [ 39.21872, 16.185621 ], [ 39.241186, 16.077319 ], [ 39.262214, 16.035995 ], [ 39.27212, 16.005812 ], [ 39.276033, 15.980235 ], [ 39.294146, 15.949854 ], [ 39.307717, 15.89994 ], [ 39.329817, 15.889384 ], [ 39.375668, 15.839909 ], [ 39.428459, 15.810452 ], [ 39.439935, 15.797418 ], [ 39.440865, 15.783308 ], [ 39.428124, 15.76482 ], [ 39.427209, 15.746658 ], [ 39.444104, 15.718966 ], [ 39.452346, 15.676595 ], [ 39.476355, 15.64704 ], [ 39.473669, 15.642759 ], [ 39.466251, 15.640579 ], [ 39.463779, 15.633381 ], [ 39.466546, 15.628066 ], [ 39.475647, 15.625287 ], [ 39.476859, 15.621953 ], [ 39.45865, 15.610747 ], [ 39.443707, 15.594788 ], [ 39.450326, 15.569527 ], [ 39.458357, 15.553429 ], [ 39.464627, 15.528901 ], [ 39.477684, 15.519217 ], [ 39.491025, 15.51639 ], [ 39.495044, 15.517061 ], [ 39.500374, 15.51795 ], [ 39.538905, 15.534921 ], [ 39.569336, 15.534515 ], [ 39.585255, 15.52799 ], [ 39.595203, 15.520661 ], [ 39.615342, 15.490292 ], [ 39.634479, 15.443003 ], [ 39.660292, 15.336199 ], [ 39.669832, 15.320938 ], [ 39.686644, 15.307265 ], [ 39.712753, 15.25835 ], [ 39.71433, 15.241186 ], [ 39.699225, 15.177709 ], [ 39.696423, 15.129851 ], [ 39.717537, 15.091673 ], [ 39.753046, 15.083327 ], [ 39.764983, 15.067168 ], [ 39.771329, 15.063646 ], [ 39.809898, 15.073233 ], [ 39.820498, 15.091673 ], [ 39.822974, 15.096339 ], [ 39.825952, 15.12205 ], [ 39.839497, 15.140995 ], [ 39.849922, 15.164327 ], [ 39.848228, 15.206204 ], [ 39.820353, 15.269065 ], [ 39.813262, 15.273539 ], [ 39.807315, 15.271904 ], [ 39.797286, 15.25519 ], [ 39.785871, 15.267965 ], [ 39.778268, 15.313513 ], [ 39.781394, 15.339875 ], [ 39.78794, 15.354922 ], [ 39.778514, 15.394514 ], [ 39.782922, 15.402326 ], [ 39.800889, 15.414223 ], [ 39.808796, 15.444971 ], [ 39.818978, 15.438389 ], [ 39.828933, 15.438444 ], [ 39.831133, 15.460187 ], [ 39.835515, 15.472455 ], [ 39.840411, 15.470936 ], [ 39.843822, 15.458327 ], [ 39.852178, 15.46131 ], [ 39.85728, 15.479711 ], [ 39.863397, 15.484019 ], [ 39.869809, 15.488534 ], [ 39.871415, 15.50066 ], [ 39.874539, 15.502541 ], [ 39.880384, 15.498423 ], [ 39.888888, 15.4782 ], [ 39.901052, 15.465537 ], [ 39.917921, 15.453122 ], [ 39.954886, 15.42597 ], [ 39.970988, 15.418622 ], [ 39.993085, 15.393762 ], [ 40.030374, 15.370695 ], [ 40.057204, 15.359486 ], [ 40.084372, 15.330459 ], [ 40.085865, 15.319807 ], [ 40.079887, 15.304839 ], [ 40.061793, 15.288128 ], [ 40.026989, 15.242193 ], [ 40.03334, 15.235205 ], [ 40.047364, 15.230593 ], [ 40.052405, 15.22614 ], [ 40.052026, 15.219663 ], [ 40.044746, 15.209375 ], [ 40.0447, 15.20036 ], [ 40.053727, 15.183477 ], [ 40.077028, 15.155619 ], [ 40.086899, 15.132713 ], [ 40.098277, 15.115119 ], [ 40.10124, 15.094713 ], [ 40.09876, 15.091673 ], [ 40.095097, 15.085452 ], [ 40.099226, 15.07381 ], [ 40.1078, 15.067686 ], [ 40.12578, 15.062364 ], [ 40.141511, 15.050849 ], [ 40.155394, 15.034225 ], [ 40.161141, 15.021668 ], [ 40.158938, 15.000047 ], [ 40.168568, 14.982292 ], [ 40.20875, 14.952178 ], [ 40.26576, 14.931198 ], [ 40.295424, 14.907565 ], [ 40.306891, 14.907231 ], [ 40.332314, 14.929583 ], [ 40.345261, 14.933155 ], [ 40.357559, 14.942245 ], [ 40.377894, 14.98503 ], [ 40.38666, 14.98101 ], [ 40.383487, 14.969986 ], [ 40.387938, 14.958338 ], [ 40.404223, 14.953432 ], [ 40.427171, 14.97 ], [ 40.419622, 14.981048 ], [ 40.421845, 14.990104 ], [ 40.448918, 15.002997 ], [ 40.458081, 15.001885 ], [ 40.461852, 14.995448 ], [ 40.457619, 14.985624 ], [ 40.448886, 14.980588 ], [ 40.450002, 14.97556 ], [ 40.460246, 14.971413 ], [ 40.474761, 14.972704 ], [ 40.489988, 14.958518 ], [ 40.516341, 14.950258 ], [ 40.520494, 14.956504 ], [ 40.523188, 14.971711 ], [ 40.538065, 14.988379 ], [ 40.532926, 15.011703 ], [ 40.535884, 15.013009 ], [ 40.565584, 14.995261 ], [ 40.560697, 14.968097 ], [ 40.582073, 14.945854 ], [ 40.589385, 14.944928 ], [ 40.59961, 14.950476 ], [ 40.607222, 14.95108 ], [ 40.614803, 14.948153 ], [ 40.622508, 14.940025 ], [ 40.630418, 14.948046 ], [ 40.631545, 14.955342 ], [ 40.635011, 14.955318 ], [ 40.639496, 14.93019 ], [ 40.620004, 14.894286 ], [ 40.656046, 14.88317 ], [ 40.667983, 14.888774 ], [ 40.681228, 14.890125 ], [ 40.692175, 14.876816 ], [ 40.732964, 14.841043 ], [ 40.737603, 14.839211 ], [ 40.744191, 14.840866 ], [ 40.746702, 14.808994 ], [ 40.73073, 14.779355 ], [ 40.730351, 14.765132 ], [ 40.748308, 14.736819 ], [ 40.769949, 14.736569 ], [ 40.776677, 14.733451 ], [ 40.779736, 14.726972 ], [ 40.776028, 14.718105 ], [ 40.781401, 14.708243 ], [ 40.790882, 14.708398 ], [ 40.801901, 14.715394 ], [ 40.822532, 14.711442 ], [ 40.831806, 14.723515 ], [ 40.860751, 14.720182 ], [ 40.875614, 14.724147 ], [ 40.895347, 14.724356 ], [ 40.915021, 14.708698 ], [ 40.927713, 14.703714 ], [ 40.931232, 14.702439 ], [ 40.944121, 14.692303 ], [ 40.960795, 14.69173 ], [ 40.969578, 14.676361 ], [ 40.985245, 14.666006 ], [ 40.999427, 14.664694 ], [ 41.030648, 14.669926 ], [ 41.049569, 14.667251 ], [ 41.076688, 14.658137 ], [ 41.107919, 14.652966 ], [ 41.130332, 14.64201 ], [ 41.184855, 14.623163 ], [ 41.196733, 14.600034 ], [ 41.221023, 14.564913 ], [ 41.273582, 14.530595 ], [ 41.296729, 14.510442 ], [ 41.309354, 14.495002 ], [ 41.328122, 14.46137 ], [ 41.340813, 14.41201 ], [ 41.367434, 14.391581 ], [ 41.39077, 14.368295 ], [ 41.410364, 14.334408 ], [ 41.422286, 14.3018 ], [ 41.457613, 14.275028 ], [ 41.491319, 14.239662 ], [ 41.511253, 14.207944 ], [ 41.536996, 14.15183 ], [ 41.547787, 14.135129 ], [ 41.58969, 14.101434 ], [ 41.61667, 14.074226 ], [ 41.637171, 14.042896 ], [ 41.641908, 14.028792 ], [ 41.644966, 14.026502 ], [ 41.647243, 14.031109 ], [ 41.649421, 14.030387 ], [ 41.656501, 14.007854 ], [ 41.691877, 13.93558 ], [ 41.697734, 13.933776 ], [ 41.71087, 13.937277 ], [ 41.720738, 13.936562 ], [ 41.725097, 13.930817 ], [ 41.726914, 13.920265 ], [ 41.735253, 13.915504 ], [ 41.749123, 13.918157 ], [ 41.770501, 13.916285 ], [ 41.7869, 13.922801 ], [ 41.807663, 13.922781 ], [ 41.832102, 13.894336 ], [ 41.848691, 13.884237 ], [ 41.863118, 13.865464 ], [ 41.904452, 13.864897 ], [ 41.916814, 13.870661 ], [ 41.939891, 13.849828 ], [ 41.952422, 13.851769 ], [ 41.967467, 13.849966 ], [ 41.976027, 13.82997 ], [ 42.00065, 13.818 ], [ 42.013326, 13.776608 ], [ 42.033011, 13.767024 ], [ 42.051245, 13.733869 ], [ 42.07671, 13.71604 ], [ 42.079864, 13.703245 ], [ 42.099399, 13.665263 ], [ 42.107482, 13.642925 ], [ 42.11757, 13.637605 ], [ 42.131954, 13.643729 ], [ 42.15284, 13.642227 ], [ 42.18732, 13.602936 ], [ 42.201152, 13.576576 ], [ 42.219525, 13.56176 ], [ 42.230339, 13.547946 ], [ 42.235957, 13.545595 ], [ 42.237982, 13.547594 ], [ 42.234808, 13.554567 ], [ 42.234411, 13.566996 ], [ 42.211072, 13.590185 ], [ 42.206574, 13.597858 ], [ 42.219955, 13.599752 ], [ 42.227391, 13.604213 ], [ 42.232669, 13.628875 ], [ 42.235361, 13.629366 ], [ 42.251623, 13.601024 ], [ 42.292357, 13.557897 ], [ 42.304689, 13.520367 ], [ 42.304274, 13.498342 ], [ 42.308455, 13.478429 ], [ 42.326002, 13.451398 ], [ 42.342034, 13.435847 ], [ 42.353116, 13.410729 ], [ 42.380392, 13.251546 ], [ 42.381594, 13.224228 ], [ 42.387532, 13.211732 ], [ 42.397926, 13.204071 ], [ 42.422089, 13.200608 ], [ 42.450069, 13.188851 ], [ 42.492886, 13.18461 ], [ 42.517781, 13.19529 ], [ 42.531901, 13.222509 ], [ 42.547991, 13.225772 ], [ 42.549837, 13.219894 ], [ 42.54556, 13.204839 ], [ 42.546597, 13.198862 ], [ 42.551686, 13.195294 ], [ 42.562266, 13.193971 ], [ 42.568253, 13.181585 ], [ 42.584286, 13.160528 ], [ 42.615744, 13.137322 ], [ 42.637338, 13.114688 ], [ 42.652601, 13.085067 ], [ 42.67271, 13.056853 ], [ 42.689598, 13.050002 ], [ 42.714496, 13.050321 ], [ 42.742792, 13.033511 ], [ 42.747246, 13.015664 ], [ 42.740014, 12.98116 ], [ 42.732788, 12.965431 ], [ 42.749148, 12.949096 ], [ 42.767111, 12.917486 ], [ 42.769296, 12.89264 ], [ 42.761228, 12.873688 ], [ 42.778055, 12.849284 ], [ 42.787356, 12.843076 ], [ 42.796072, 12.842436 ], [ 42.81394, 12.854585 ], [ 42.828608, 12.859545 ], [ 42.837904, 12.85923 ], [ 42.849732, 12.840949 ], [ 42.889537, 12.807427 ], [ 42.902821, 12.807831 ], [ 42.910714, 12.812882 ], [ 42.924767, 12.809142 ], [ 42.925534, 12.802468 ], [ 42.912743, 12.797187 ], [ 42.908674, 12.7907 ], [ 42.911985, 12.787149 ], [ 42.923724, 12.785995 ], [ 42.934217, 12.792142 ], [ 42.941067, 12.804835 ], [ 42.957844, 12.807735 ], [ 42.982551, 12.818629 ], [ 42.991726, 12.826745 ], [ 42.992418, 12.834368 ], [ 42.984447, 12.847359 ], [ 42.990797, 12.861481 ], [ 42.987827, 12.882505 ], [ 42.994805, 12.886366 ], [ 43.015344, 12.875785 ], [ 43.049101, 12.835136 ], [ 43.080894, 12.819665 ], [ 43.088598, 12.802067 ], [ 43.091367, 12.773025 ], [ 43.098147, 12.743419 ], [ 43.104501, 12.73438 ], [ 43.112822, 12.729161 ], [ 43.116946, 12.717927 ], [ 43.126051, 12.710059 ] ] ], [ [ [ 40.218294, 15.618971 ], [ 40.237447, 15.615536 ], [ 40.249291, 15.621454 ], [ 40.252549, 15.641447 ], [ 40.261412, 15.650372 ], [ 40.269965, 15.652017 ], [ 40.290967, 15.648015 ], [ 40.299663, 15.652468 ], [ 40.30029, 15.658342 ], [ 40.293943, 15.661114 ], [ 40.280466, 15.667 ], [ 40.23884, 15.665608 ], [ 40.218294, 15.672114 ], [ 40.214039, 15.673461 ], [ 40.218294, 15.678755 ], [ 40.224926, 15.687004 ], [ 40.25693, 15.698012 ], [ 40.294491, 15.695246 ], [ 40.324156, 15.686384 ], [ 40.33318, 15.674593 ], [ 40.337066, 15.661114 ], [ 40.341128, 15.647021 ], [ 40.356496, 15.647966 ], [ 40.38291, 15.630385 ], [ 40.373922, 15.61777 ], [ 40.364062, 15.616197 ], [ 40.364134, 15.614188 ], [ 40.378305, 15.615765 ], [ 40.385429, 15.624851 ], [ 40.391627, 15.632753 ], [ 40.406246, 15.63431 ], [ 40.412185, 15.629232 ], [ 40.413807, 15.610747 ], [ 40.414614, 15.601547 ], [ 40.42193, 15.569527 ], [ 40.423132, 15.564265 ], [ 40.403818, 15.562598 ], [ 40.385429, 15.566972 ], [ 40.374686, 15.569527 ], [ 40.356496, 15.573854 ], [ 40.337777, 15.569527 ], [ 40.322462, 15.563024 ], [ 40.313584, 15.562403 ], [ 40.285335, 15.569527 ], [ 40.271663, 15.579224 ], [ 40.259071, 15.584516 ], [ 40.22348, 15.592364 ], [ 40.218294, 15.592054 ], [ 40.181253, 15.589749 ], [ 40.162506, 15.584556 ], [ 40.138288, 15.596726 ], [ 40.126303, 15.599477 ], [ 40.115438, 15.590378 ], [ 40.098352, 15.583516 ], [ 40.077035, 15.583375 ], [ 40.062411, 15.577933 ], [ 40.025264, 15.604382 ], [ 40.009226, 15.610073 ], [ 40.000306, 15.603388 ], [ 39.994709, 15.603298 ], [ 39.983481, 15.607111 ], [ 39.964119, 15.621553 ], [ 39.961913, 15.627136 ], [ 39.965732, 15.64247 ], [ 39.956928, 15.654401 ], [ 39.953544, 15.672429 ], [ 39.944173, 15.689731 ], [ 39.946701, 15.697569 ], [ 39.955274, 15.697083 ], [ 39.965776, 15.688817 ], [ 39.961411, 15.679837 ], [ 39.972437, 15.670989 ], [ 39.984056, 15.64551 ], [ 39.987655, 15.64719 ], [ 39.988429, 15.658797 ], [ 39.992344, 15.660201 ], [ 40.00477, 15.649864 ], [ 40.009402, 15.636561 ], [ 40.020235, 15.638531 ], [ 40.031406, 15.631233 ], [ 40.042363, 15.628528 ], [ 40.046408, 15.634814 ], [ 40.061001, 15.63669 ], [ 40.072958, 15.641724 ], [ 40.079743, 15.649586 ], [ 40.080401, 15.657976 ], [ 40.077506, 15.666435 ], [ 40.064378, 15.677269 ], [ 40.038436, 15.708951 ], [ 40.015551, 15.729965 ], [ 39.983787, 15.73968 ], [ 39.97153, 15.735642 ], [ 39.957283, 15.723121 ], [ 39.940356, 15.735059 ], [ 39.926505, 15.730585 ], [ 39.925531, 15.759692 ], [ 39.934982, 15.7663 ], [ 39.934918, 15.785125 ], [ 39.948314, 15.783945 ], [ 39.967144, 15.772002 ], [ 40.000104, 15.764922 ], [ 40.01877, 15.767793 ], [ 40.023634, 15.771994 ], [ 40.020837, 15.775772 ], [ 39.992317, 15.780713 ], [ 39.989764, 15.789328 ], [ 39.991019, 15.806397 ], [ 40.008968, 15.827965 ], [ 40.032325, 15.816759 ], [ 40.039016, 15.817792 ], [ 40.043706, 15.824633 ], [ 40.039031, 15.844572 ], [ 40.022519, 15.860271 ], [ 40.010326, 15.864549 ], [ 39.984256, 15.863616 ], [ 39.957589, 15.883857 ], [ 40.015052, 15.879052 ], [ 40.033985, 15.865256 ], [ 40.083105, 15.845627 ], [ 40.093622, 15.834705 ], [ 40.102799, 15.81349 ], [ 40.107058, 15.809379 ], [ 40.099829, 15.799919 ], [ 40.09043, 15.797163 ], [ 40.086128, 15.792983 ], [ 40.089131, 15.783002 ], [ 40.095471, 15.778069 ], [ 40.113711, 15.777325 ], [ 40.120737, 15.782901 ], [ 40.118542, 15.791199 ], [ 40.107653, 15.795716 ], [ 40.109938, 15.800523 ], [ 40.12515, 15.805381 ], [ 40.137057, 15.806122 ], [ 40.143976, 15.803788 ], [ 40.145197, 15.788267 ], [ 40.138742, 15.769872 ], [ 40.14097, 15.759502 ], [ 40.136123, 15.722543 ], [ 40.147232, 15.690351 ], [ 40.149933, 15.66806 ], [ 40.156492, 15.64831 ], [ 40.170673, 15.630964 ], [ 40.184932, 15.62504 ], [ 40.218294, 15.618971 ] ] ], [ [ [ 39.989589, 16.010485 ], [ 39.989978, 16.021783 ], [ 39.99087, 16.047614 ], [ 39.994907, 16.057381 ], [ 40.012215, 16.058905 ], [ 40.042947, 16.049993 ], [ 40.044886, 16.04943 ], [ 40.052466, 16.05661 ], [ 40.054798, 16.066962 ], [ 40.052012, 16.073641 ], [ 40.045666, 16.075005 ], [ 40.043321, 16.078641 ], [ 40.042947, 16.080757 ], [ 40.039644, 16.099456 ], [ 40.040488, 16.107314 ], [ 40.042947, 16.111162 ], [ 40.045396, 16.114993 ], [ 40.050417, 16.116512 ], [ 40.061057, 16.101615 ], [ 40.068324, 16.102379 ], [ 40.065882, 16.09492 ], [ 40.082413, 16.079937 ], [ 40.084714, 16.081124 ], [ 40.082983, 16.085617 ], [ 40.085491, 16.086142 ], [ 40.117708, 16.076086 ], [ 40.123494, 16.06633 ], [ 40.117975, 16.055155 ], [ 40.0919, 16.051508 ], [ 40.083239, 16.047736 ], [ 40.076865, 16.040962 ], [ 40.074131, 16.033244 ], [ 40.073967, 16.023957 ], [ 40.074548, 16.021783 ], [ 40.076865, 16.013125 ], [ 40.079851, 16.012313 ], [ 40.080375, 16.019962 ], [ 40.090504, 16.013272 ], [ 40.095706, 16.008745 ], [ 40.101365, 15.994315 ], [ 40.116225, 15.992138 ], [ 40.11969, 15.988526 ], [ 40.120257, 15.982346 ], [ 40.117024, 15.982346 ], [ 40.113318, 15.987493 ], [ 40.10867, 15.976951 ], [ 40.105188, 15.976025 ], [ 40.092762, 15.976676 ], [ 40.085497, 15.982346 ], [ 40.058501, 15.990046 ], [ 40.058666, 15.997092 ], [ 40.045915, 16.011055 ], [ 40.042947, 16.00994 ], [ 40.035322, 16.007075 ], [ 40.006918, 16.003087 ], [ 39.991986, 16.003141 ], [ 39.989589, 16.010485 ] ] ], [ [ [ 40.26534, 14.987565 ], [ 40.277266, 15.003411 ], [ 40.276352, 15.007214 ], [ 40.280894, 15.016396 ], [ 40.288739, 15.028751 ], [ 40.28813, 15.043185 ], [ 40.295528, 15.056807 ], [ 40.324336, 15.05431 ], [ 40.330508, 15.051268 ], [ 40.340656, 15.038566 ], [ 40.338019, 15.030646 ], [ 40.343846, 15.017038 ], [ 40.350801, 15.012059 ], [ 40.329528, 15.003411 ], [ 40.307888, 14.977884 ], [ 40.280894, 14.979209 ], [ 40.271066, 14.9754 ], [ 40.26534, 14.987565 ] ] ], [ [ [ 40.22766, 15.14656 ], [ 40.2288, 15.151278 ], [ 40.234086, 15.155175 ], [ 40.23149, 15.167115 ], [ 40.234026, 15.171827 ], [ 40.25362, 15.182628 ], [ 40.26236, 15.193135 ], [ 40.280322, 15.198109 ], [ 40.292661, 15.200226 ], [ 40.298136, 15.198109 ], [ 40.297297, 15.187518 ], [ 40.286848, 15.184541 ], [ 40.280894, 15.177105 ], [ 40.278617, 15.159685 ], [ 40.265687, 15.165146 ], [ 40.262699, 15.161334 ], [ 40.265486, 15.154003 ], [ 40.280894, 15.138023 ], [ 40.282727, 15.135144 ], [ 40.282464, 15.131263 ], [ 40.280894, 15.130018 ], [ 40.279813, 15.12636 ], [ 40.280894, 15.123771 ], [ 40.280894, 15.121873 ], [ 40.253024, 15.106159 ], [ 40.243102, 15.119019 ], [ 40.232423, 15.121249 ], [ 40.22766, 15.14656 ] ] ], [ [ [ 40.154916, 15.673029 ], [ 40.159545, 15.683118 ], [ 40.167259, 15.690632 ], [ 40.186775, 15.708928 ], [ 40.178177, 15.732513 ], [ 40.187481, 15.739295 ], [ 40.205424, 15.739084 ], [ 40.212823, 15.728541 ], [ 40.214547, 15.72016 ], [ 40.20709, 15.704508 ], [ 40.20918, 15.675528 ], [ 40.198001, 15.668451 ], [ 40.172443, 15.661114 ], [ 40.167259, 15.659626 ], [ 40.164588, 15.661114 ], [ 40.157288, 15.665182 ], [ 40.154916, 15.673029 ] ] ], [ [ [ 42.888961, 12.956795 ], [ 42.899735, 12.958272 ], [ 42.905982, 12.951599 ], [ 42.907806, 12.942496 ], [ 42.914111, 12.943041 ], [ 42.915465, 12.948949 ], [ 42.921595, 12.95239 ], [ 42.915519, 12.960502 ], [ 42.916605, 12.962402 ], [ 42.943933, 12.948415 ], [ 42.949123, 12.943273 ], [ 42.957507, 12.9419 ], [ 42.956322, 12.933367 ], [ 42.95183, 12.930373 ], [ 42.953873, 12.913503 ], [ 42.949656, 12.90898 ], [ 42.93743, 12.91478 ], [ 42.937721, 12.922529 ], [ 42.933532, 12.926578 ], [ 42.917926, 12.929388 ], [ 42.910752, 12.926009 ], [ 42.909876, 12.920796 ], [ 42.90669, 12.922192 ], [ 42.897721, 12.933367 ], [ 42.889731, 12.94581 ], [ 42.888961, 12.956795 ] ] ], [ [ [ 40.129548, 16.491185 ], [ 40.135792, 16.505099 ], [ 40.131626, 16.514292 ], [ 40.131965, 16.520995 ], [ 40.14205, 16.531294 ], [ 40.149395, 16.547229 ], [ 40.152442, 16.547299 ], [ 40.154868, 16.55115 ], [ 40.15843, 16.543917 ], [ 40.159047, 16.540873 ], [ 40.156417, 16.542125 ], [ 40.152407, 16.541503 ], [ 40.150391, 16.539325 ], [ 40.152751, 16.532099 ], [ 40.157692, 16.532072 ], [ 40.158953, 16.536819 ], [ 40.165732, 16.536792 ], [ 40.171355, 16.539208 ], [ 40.172175, 16.542295 ], [ 40.174994, 16.544855 ], [ 40.174618, 16.548721 ], [ 40.179164, 16.549726 ], [ 40.181939, 16.545073 ], [ 40.18125, 16.541471 ], [ 40.174791, 16.533264 ], [ 40.174364, 16.528887 ], [ 40.180077, 16.524218 ], [ 40.188558, 16.513609 ], [ 40.187474, 16.511167 ], [ 40.179197, 16.511214 ], [ 40.173967, 16.507509 ], [ 40.172193, 16.504736 ], [ 40.163675, 16.505506 ], [ 40.161288, 16.508095 ], [ 40.154335, 16.506459 ], [ 40.151379, 16.503255 ], [ 40.138997, 16.497317 ], [ 40.136093, 16.484457 ], [ 40.134469, 16.484159 ], [ 40.129548, 16.491185 ] ] ], [ [ [ 40.124986, 16.121132 ], [ 40.127573, 16.129895 ], [ 40.131329, 16.133101 ], [ 40.135064, 16.132307 ], [ 40.147634, 16.135596 ], [ 40.149393, 16.136654 ], [ 40.157646, 16.140026 ], [ 40.158118, 16.129298 ], [ 40.165177, 16.120358 ], [ 40.166028, 16.100757 ], [ 40.15892, 16.096733 ], [ 40.154712, 16.090144 ], [ 40.149393, 16.089005 ], [ 40.144161, 16.088892 ], [ 40.142284, 16.087354 ], [ 40.135888, 16.089453 ], [ 40.132437, 16.092956 ], [ 40.129919, 16.093098 ], [ 40.12674, 16.100731 ], [ 40.12683, 16.116734 ], [ 40.124986, 16.121132 ] ] ], [ [ [ 39.430607, 16.154907 ], [ 39.438149, 16.152601 ], [ 39.45385, 16.146678 ], [ 39.468599, 16.108462 ], [ 39.483589, 16.081676 ], [ 39.485316, 16.071508 ], [ 39.483386, 16.058478 ], [ 39.466551, 16.036899 ], [ 39.459664, 16.03873 ], [ 39.45941, 16.040286 ], [ 39.468236, 16.045861 ], [ 39.473283, 16.056698 ], [ 39.464267, 16.091284 ], [ 39.464903, 16.094797 ], [ 39.470371, 16.095453 ], [ 39.470378, 16.097787 ], [ 39.455533, 16.117371 ], [ 39.449111, 16.112654 ], [ 39.432007, 16.141619 ], [ 39.430607, 16.154907 ] ] ], [ [ [ 39.863397, 16.338984 ], [ 39.857825, 16.335559 ], [ 39.857237, 16.340718 ], [ 39.863397, 16.343026 ], [ 39.888754, 16.349416 ], [ 39.903288, 16.342411 ], [ 39.908984, 16.33432 ], [ 39.908922, 16.327956 ], [ 39.917921, 16.326029 ], [ 39.927951, 16.327746 ], [ 39.931693, 16.325414 ], [ 39.917921, 16.319554 ], [ 39.910856, 16.316903 ], [ 39.905567, 16.306368 ], [ 39.903288, 16.307939 ], [ 39.897285, 16.311452 ], [ 39.883912, 16.312464 ], [ 39.875824, 16.32055 ], [ 39.864087, 16.326001 ], [ 39.863397, 16.327593 ], [ 39.863397, 16.332289 ], [ 39.865846, 16.334351 ], [ 39.865752, 16.338212 ], [ 39.863397, 16.338984 ] ] ], [ [ [ 40.13444, 16.052344 ], [ 40.138137, 16.055748 ], [ 40.145841, 16.052993 ], [ 40.149393, 16.058388 ], [ 40.151243, 16.061198 ], [ 40.167259, 16.060603 ], [ 40.18235, 16.046817 ], [ 40.192423, 16.043417 ], [ 40.188847, 16.03363 ], [ 40.170702, 16.021783 ], [ 40.167061, 16.019768 ], [ 40.162208, 16.021783 ], [ 40.154697, 16.030485 ], [ 40.149393, 16.033021 ], [ 40.137318, 16.038794 ], [ 40.13444, 16.052344 ] ] ], [ [ [ 40.159123, 16.161222 ], [ 40.161181, 16.177751 ], [ 40.163984, 16.188903 ], [ 40.167259, 16.192393 ], [ 40.173463, 16.192884 ], [ 40.179446, 16.189374 ], [ 40.196694, 16.171794 ], [ 40.202233, 16.160693 ], [ 40.201164, 16.158268 ], [ 40.182855, 16.152881 ], [ 40.167259, 16.155949 ], [ 40.161977, 16.153715 ], [ 40.159123, 16.161222 ] ] ], [ [ [ 40.228973, 15.23051 ], [ 40.23112, 15.23513 ], [ 40.231944, 15.240016 ], [ 40.235276, 15.243214 ], [ 40.248574, 15.250603 ], [ 40.253347, 15.250834 ], [ 40.262078, 15.248084 ], [ 40.271591, 15.24314 ], [ 40.273165, 15.2403 ], [ 40.276603, 15.238994 ], [ 40.272563, 15.228466 ], [ 40.26723, 15.223091 ], [ 40.255556, 15.221098 ], [ 40.248904, 15.216631 ], [ 40.235762, 15.214061 ], [ 40.235154, 15.22224 ], [ 40.2308, 15.22561 ], [ 40.228973, 15.23051 ] ] ], [ [ [ 40.780513, 15.495704 ], [ 40.786023, 15.503386 ], [ 40.786451, 15.506731 ], [ 40.789149, 15.511603 ], [ 40.79799, 15.520287 ], [ 40.803602, 15.524233 ], [ 40.808108, 15.523038 ], [ 40.815277, 15.522721 ], [ 40.82695, 15.52108 ], [ 40.828785, 15.518232 ], [ 40.834101, 15.518703 ], [ 40.83577, 15.51225 ], [ 40.830023, 15.508048 ], [ 40.825499, 15.507055 ], [ 40.82043, 15.504521 ], [ 40.815647, 15.504303 ], [ 40.808974, 15.500495 ], [ 40.804184, 15.499504 ], [ 40.792679, 15.489682 ], [ 40.788728, 15.489166 ], [ 40.788454, 15.49255 ], [ 40.781029, 15.493897 ], [ 40.780513, 15.495704 ] ] ], [ [ [ 39.652777, 15.915508 ], [ 39.653594, 15.912428 ], [ 39.665288, 15.900698 ], [ 39.656183, 15.895324 ], [ 39.643575, 15.895799 ], [ 39.634218, 15.900674 ], [ 39.625731, 15.904707 ], [ 39.616493, 15.905059 ], [ 39.623736, 15.915508 ], [ 39.627576, 15.921048 ], [ 39.634218, 15.924127 ], [ 39.643575, 15.927436 ], [ 39.650611, 15.923675 ], [ 39.652777, 15.915508 ] ] ], [ [ [ 40.218294, 16.283056 ], [ 40.219979, 16.28408 ], [ 40.222644, 16.28408 ], [ 40.223989, 16.280783 ], [ 40.227297, 16.277799 ], [ 40.234552, 16.276677 ], [ 40.227912, 16.265063 ], [ 40.226126, 16.247382 ], [ 40.227775, 16.241731 ], [ 40.223989, 16.239657 ], [ 40.220982, 16.245757 ], [ 40.218294, 16.245943 ], [ 40.210292, 16.247154 ], [ 40.206194, 16.252378 ], [ 40.208078, 16.263039 ], [ 40.218294, 16.283056 ] ] ], [ [ [ 40.102435, 15.858991 ], [ 40.104102, 15.872359 ], [ 40.105966, 15.872864 ], [ 40.118444, 15.870356 ], [ 40.124291, 15.870325 ], [ 40.130398, 15.869136 ], [ 40.132245, 15.866812 ], [ 40.14205, 15.861615 ], [ 40.143894, 15.858776 ], [ 40.143872, 15.854917 ], [ 40.140389, 15.849919 ], [ 40.136665, 15.849166 ], [ 40.128963, 15.850236 ], [ 40.121271, 15.852848 ], [ 40.1173, 15.855698 ], [ 40.102435, 15.858991 ] ] ], [ [ [ 40.021176, 15.942756 ], [ 40.024477, 15.949287 ], [ 40.034456, 15.959105 ], [ 40.037114, 15.95416 ], [ 40.042947, 15.953308 ], [ 40.055121, 15.961828 ], [ 40.062596, 15.949088 ], [ 40.053559, 15.938538 ], [ 40.042947, 15.93775 ], [ 40.037015, 15.934818 ], [ 40.032994, 15.935616 ], [ 40.034621, 15.938854 ], [ 40.033578, 15.94483 ], [ 40.029287, 15.94524 ], [ 40.027935, 15.9433 ], [ 40.021176, 15.942756 ] ] ], [ [ [ 40.674944, 14.906208 ], [ 40.677711, 14.91527 ], [ 40.694592, 14.913392 ], [ 40.69936, 14.915102 ], [ 40.715706, 14.902212 ], [ 40.718372, 14.899136 ], [ 40.720125, 14.893003 ], [ 40.715706, 14.89158 ], [ 40.702374, 14.895789 ], [ 40.696112, 14.901561 ], [ 40.684429, 14.897378 ], [ 40.678731, 14.905295 ], [ 40.674944, 14.906208 ] ] ], [ [ [ 40.302135, 15.121958 ], [ 40.302921, 15.123686 ], [ 40.308256, 15.125852 ], [ 40.313049, 15.126471 ], [ 40.320257, 15.130306 ], [ 40.325212, 15.135704 ], [ 40.325899, 15.13906 ], [ 40.328307, 15.141243 ], [ 40.336464, 15.144029 ], [ 40.340663, 15.138715 ], [ 40.339283, 15.130711 ], [ 40.336048, 15.12401 ], [ 40.329243, 15.12069 ], [ 40.324157, 15.115679 ], [ 40.317219, 15.11236 ], [ 40.312159, 15.111614 ], [ 40.309111, 15.11357 ], [ 40.310486, 15.120799 ], [ 40.306679, 15.123227 ], [ 40.305834, 15.121343 ], [ 40.302135, 15.121958 ] ] ], [ [ [ 39.737677, 15.47271 ], [ 39.737821, 15.476751 ], [ 39.740307, 15.479899 ], [ 39.743174, 15.480522 ], [ 39.746962, 15.483793 ], [ 39.746985, 15.490107 ], [ 39.750509, 15.494036 ], [ 39.752087, 15.493522 ], [ 39.752446, 15.487815 ], [ 39.755913, 15.474164 ], [ 39.755373, 15.468862 ], [ 39.756789, 15.464311 ], [ 39.754574, 15.463939 ], [ 39.754819, 15.459771 ], [ 39.757798, 15.455467 ], [ 39.756874, 15.451934 ], [ 39.759473, 15.450535 ], [ 39.760715, 15.44521 ], [ 39.758581, 15.441659 ], [ 39.755275, 15.441836 ], [ 39.754657, 15.450931 ], [ 39.752454, 15.453717 ], [ 39.749328, 15.453601 ], [ 39.741542, 15.461079 ], [ 39.740176, 15.468944 ], [ 39.737677, 15.47271 ] ] ], [ [ [ 39.924077, 15.704998 ], [ 39.927693, 15.711926 ], [ 39.933947, 15.715499 ], [ 39.935711, 15.723721 ], [ 39.936917, 15.726413 ], [ 39.942184, 15.728327 ], [ 39.945107, 15.72661 ], [ 39.953052, 15.705018 ], [ 39.936917, 15.700036 ], [ 39.931146, 15.694754 ], [ 39.929485, 15.697388 ], [ 39.926304, 15.698302 ], [ 39.927252, 15.70267 ], [ 39.924077, 15.704998 ] ] ], [ [ [ 40.77914, 15.571438 ], [ 40.783064, 15.578889 ], [ 40.788158, 15.583105 ], [ 40.793072, 15.584029 ], [ 40.792752, 15.575714 ], [ 40.79499, 15.572728 ], [ 40.803498, 15.571627 ], [ 40.809911, 15.574412 ], [ 40.813225, 15.572966 ], [ 40.813064, 15.569527 ], [ 40.812898, 15.566002 ], [ 40.809805, 15.562286 ], [ 40.803679, 15.56182 ], [ 40.794336, 15.5588 ], [ 40.783196, 15.563277 ], [ 40.779889, 15.565756 ], [ 40.779392, 15.569527 ], [ 40.77914, 15.571438 ] ] ], [ [ [ 40.587568, 15.882242 ], [ 40.588949, 15.888173 ], [ 40.588575, 15.891534 ], [ 40.590771, 15.893085 ], [ 40.59885, 15.896092 ], [ 40.608204, 15.892432 ], [ 40.614437, 15.886378 ], [ 40.607518, 15.874579 ], [ 40.598718, 15.871389 ], [ 40.590771, 15.873626 ], [ 40.587568, 15.882242 ] ] ], [ [ [ 40.735641, 15.498286 ], [ 40.739314, 15.500816 ], [ 40.763374, 15.488176 ], [ 40.763873, 15.486062 ], [ 40.762655, 15.483733 ], [ 40.749906, 15.474738 ], [ 40.745058, 15.473005 ], [ 40.740474, 15.473564 ], [ 40.739127, 15.476741 ], [ 40.737115, 15.478034 ], [ 40.738782, 15.488176 ], [ 40.735641, 15.498286 ] ] ], [ [ [ 39.979437, 15.548156 ], [ 39.979997, 15.551269 ], [ 39.982939, 15.553328 ], [ 39.981878, 15.555148 ], [ 39.989373, 15.555893 ], [ 39.991767, 15.553029 ], [ 39.998832, 15.548069 ], [ 40.009357, 15.539203 ], [ 40.011761, 15.538414 ], [ 40.014138, 15.532179 ], [ 40.012513, 15.528036 ], [ 40.009019, 15.524681 ], [ 40.003666, 15.524186 ], [ 40.00235, 15.528601 ], [ 39.997152, 15.532515 ], [ 39.993971, 15.538495 ], [ 39.98744, 15.543452 ], [ 39.983696, 15.543728 ], [ 39.979437, 15.548156 ] ] ], [ [ [ 42.838389, 13.029906 ], [ 42.841417, 13.033056 ], [ 42.844284, 13.03933 ], [ 42.850894, 13.0429 ], [ 42.854301, 13.040707 ], [ 42.8475, 13.035971 ], [ 42.846999, 13.032582 ], [ 42.849047, 13.024931 ], [ 42.853998, 13.021702 ], [ 42.859845, 13.02123 ], [ 42.867035, 13.018945 ], [ 42.869211, 13.012974 ], [ 42.874278, 13.010541 ], [ 42.878064, 13.011622 ], [ 42.880956, 13.006039 ], [ 42.877518, 13.004317 ], [ 42.874326, 13.004943 ], [ 42.866592, 13.008655 ], [ 42.861808, 13.009136 ], [ 42.856745, 13.011048 ], [ 42.85167, 13.014392 ], [ 42.846887, 13.014742 ], [ 42.843129, 13.019398 ], [ 42.841003, 13.019511 ], [ 42.840947, 13.026021 ], [ 42.838389, 13.029906 ] ] ], [ [ [ 42.927569, 12.902333 ], [ 42.928731, 12.905446 ], [ 42.935297, 12.908472 ], [ 42.940069, 12.905277 ], [ 42.942693, 12.90685 ], [ 42.949299, 12.905091 ], [ 42.951961, 12.902008 ], [ 42.950683, 12.897084 ], [ 42.948834, 12.897457 ], [ 42.946353, 12.894463 ], [ 42.946132, 12.889288 ], [ 42.952148, 12.87899 ], [ 42.959308, 12.873872 ], [ 42.963435, 12.868731 ], [ 42.959892, 12.866893 ], [ 42.950344, 12.873931 ], [ 42.944871, 12.882295 ], [ 42.936643, 12.888955 ], [ 42.935947, 12.893605 ], [ 42.931303, 12.89719 ], [ 42.927569, 12.902333 ] ] ], [ [ [ 40.472499, 15.067318 ], [ 40.473019, 15.069053 ], [ 40.477299, 15.071098 ], [ 40.477725, 15.074981 ], [ 40.484018, 15.078955 ], [ 40.490689, 15.079688 ], [ 40.497633, 15.081455 ], [ 40.50163, 15.081041 ], [ 40.508006, 15.07789 ], [ 40.508501, 15.072447 ], [ 40.505265, 15.067287 ], [ 40.502854, 15.065619 ], [ 40.495107, 15.063339 ], [ 40.490046, 15.06389 ], [ 40.48154, 15.067573 ], [ 40.472499, 15.067318 ] ] ], [ [ [ 40.723077, 15.746518 ], [ 40.728645, 15.747333 ], [ 40.730358, 15.746683 ], [ 40.733098, 15.745151 ], [ 40.741134, 15.745476 ], [ 40.7449, 15.747391 ], [ 40.747066, 15.750227 ], [ 40.752435, 15.75174 ], [ 40.7543, 15.750557 ], [ 40.765264, 15.748784 ], [ 40.771424, 15.748863 ], [ 40.773284, 15.747162 ], [ 40.772449, 15.743538 ], [ 40.77049, 15.742882 ], [ 40.768065, 15.738541 ], [ 40.765406, 15.741257 ], [ 40.760905, 15.74013 ], [ 40.752824, 15.73462 ], [ 40.748268, 15.734137 ], [ 40.748691, 15.736728 ], [ 40.746056, 15.741677 ], [ 40.741909, 15.742098 ], [ 40.730358, 15.738731 ], [ 40.728328, 15.738346 ], [ 40.725181, 15.740378 ], [ 40.723077, 15.746518 ] ] ], [ [ [ 40.278024, 15.982322 ], [ 40.27969, 15.998249 ], [ 40.289113, 16.003653 ], [ 40.296599, 16.001282 ], [ 40.301933, 15.989345 ], [ 40.299969, 15.984607 ], [ 40.283503, 15.98045 ], [ 40.278024, 15.982322 ] ] ], [ [ [ 40.398211, 15.027294 ], [ 40.401587, 15.036553 ], [ 40.407717, 15.041025 ], [ 40.417784, 15.039288 ], [ 40.41859, 15.040829 ], [ 40.424968, 15.042594 ], [ 40.427055, 15.037425 ], [ 40.423061, 15.035001 ], [ 40.42451, 15.025776 ], [ 40.416105, 15.026023 ], [ 40.408139, 15.024526 ], [ 40.401669, 15.022066 ], [ 40.398457, 15.024457 ], [ 40.398211, 15.027294 ] ] ], [ [ [ 40.064347, 16.169044 ], [ 40.066198, 16.177751 ], [ 40.071307, 16.183952 ], [ 40.071958, 16.193989 ], [ 40.076865, 16.202731 ], [ 40.08311, 16.202487 ], [ 40.086303, 16.197544 ], [ 40.080417, 16.177751 ], [ 40.076865, 16.174158 ], [ 40.064347, 16.169044 ] ] ], [ [ [ 42.930549, 12.844662 ], [ 42.933957, 12.847407 ], [ 42.937651, 12.847307 ], [ 42.944055, 12.838555 ], [ 42.947246, 12.835473 ], [ 42.952276, 12.833441 ], [ 42.955332, 12.830617 ], [ 42.958014, 12.825201 ], [ 42.954743, 12.821939 ], [ 42.946543, 12.824594 ], [ 42.940873, 12.824291 ], [ 42.936886, 12.827884 ], [ 42.933416, 12.832776 ], [ 42.932153, 12.842086 ], [ 42.930549, 12.844662 ] ] ], [ [ [ 39.532119, 16.34058 ], [ 39.534801, 16.34135 ], [ 39.538029, 16.34574 ], [ 39.551707, 16.349457 ], [ 39.554662, 16.351907 ], [ 39.568878, 16.356009 ], [ 39.569419, 16.357561 ], [ 39.575307, 16.354957 ], [ 39.57409, 16.351338 ], [ 39.580103, 16.34537 ], [ 39.579422, 16.341749 ], [ 39.575275, 16.34396 ], [ 39.57261, 16.349013 ], [ 39.565109, 16.349938 ], [ 39.558671, 16.347886 ], [ 39.552497, 16.344538 ], [ 39.541218, 16.335769 ], [ 39.536391, 16.334877 ], [ 39.532119, 16.34058 ] ] ], [ [ [ 40.142389, 15.96046 ], [ 40.149393, 15.958884 ], [ 40.159332, 15.955916 ], [ 40.167259, 15.942812 ], [ 40.168161, 15.937938 ], [ 40.167259, 15.934255 ], [ 40.149393, 15.946185 ], [ 40.143733, 15.952928 ], [ 40.142389, 15.96046 ] ] ], [ [ [ 42.16221, 13.660473 ], [ 42.170191, 13.661809 ], [ 42.175118, 13.661547 ], [ 42.185291, 13.665477 ], [ 42.1899, 13.66803 ], [ 42.195517, 13.665382 ], [ 42.199972, 13.665661 ], [ 42.197423, 13.658538 ], [ 42.198941, 13.652883 ], [ 42.197067, 13.651724 ], [ 42.193432, 13.656597 ], [ 42.188417, 13.654149 ], [ 42.18733, 13.658535 ], [ 42.184266, 13.65794 ], [ 42.178494, 13.654576 ], [ 42.168252, 13.654736 ], [ 42.165917, 13.653073 ], [ 42.16221, 13.660473 ] ] ], [ [ [ 40.254268, 15.816562 ], [ 40.261537, 15.81935 ], [ 40.275677, 15.82649 ], [ 40.28741, 15.823007 ], [ 40.27687, 15.811972 ], [ 40.261537, 15.811624 ], [ 40.256328, 15.812546 ], [ 40.254268, 15.816562 ] ] ], [ [ [ 40.748083, 14.86636 ], [ 40.754897, 14.868641 ], [ 40.762101, 14.866653 ], [ 40.769774, 14.8609 ], [ 40.771857, 14.850909 ], [ 40.770563, 14.843659 ], [ 40.766541, 14.844916 ], [ 40.765133, 14.84671 ], [ 40.766667, 14.850909 ], [ 40.763601, 14.854479 ], [ 40.752604, 14.855723 ], [ 40.748083, 14.86636 ] ] ], [ [ [ 40.33942, 15.493668 ], [ 40.355513, 15.494256 ], [ 40.368323, 15.488176 ], [ 40.374472, 15.482853 ], [ 40.369217, 15.481526 ], [ 40.362525, 15.483225 ], [ 40.356496, 15.480557 ], [ 40.353346, 15.479055 ], [ 40.348473, 15.484445 ], [ 40.348215, 15.488176 ], [ 40.33972, 15.489762 ], [ 40.33942, 15.493668 ] ] ], [ [ [ 40.492909, 15.845362 ], [ 40.494168, 15.854571 ], [ 40.497897, 15.85813 ], [ 40.501109, 15.863229 ], [ 40.504294, 15.864615 ], [ 40.50746, 15.863441 ], [ 40.511784, 15.858034 ], [ 40.511884, 15.85368 ], [ 40.50707, 15.846544 ], [ 40.502024, 15.84389 ], [ 40.495935, 15.843164 ], [ 40.492909, 15.845362 ] ] ], [ [ [ 42.788874, 12.871783 ], [ 42.790413, 12.87618 ], [ 42.797238, 12.877398 ], [ 42.800944, 12.874463 ], [ 42.811479, 12.87223 ], [ 42.813832, 12.873668 ], [ 42.819365, 12.872296 ], [ 42.819909, 12.870237 ], [ 42.815194, 12.868263 ], [ 42.810252, 12.864467 ], [ 42.805238, 12.864311 ], [ 42.797078, 12.865532 ], [ 42.792348, 12.865364 ], [ 42.789431, 12.868176 ], [ 42.788874, 12.871783 ] ] ], [ [ [ 39.965934, 16.177027 ], [ 39.966892, 16.182176 ], [ 39.975437, 16.184841 ], [ 39.978902, 16.184697 ], [ 39.980878, 16.18005 ], [ 39.980163, 16.170006 ], [ 39.978674, 16.165633 ], [ 39.97359, 16.161792 ], [ 39.96895, 16.166708 ], [ 39.9691, 16.170314 ], [ 39.965934, 16.177027 ] ] ], [ [ [ 40.001249, 16.205009 ], [ 40.001395, 16.206851 ], [ 40.006852, 16.208405 ], [ 40.01315, 16.21443 ], [ 40.015769, 16.220472 ], [ 40.016761, 16.227839 ], [ 40.022214, 16.22847 ], [ 40.026415, 16.224107 ], [ 40.026264, 16.221212 ], [ 40.019683, 16.213082 ], [ 40.016383, 16.207174 ], [ 40.003337, 16.200005 ], [ 40.001249, 16.205009 ] ] ], [ [ [ 39.888026, 15.502384 ], [ 39.889605, 15.503401 ], [ 39.894024, 15.502771 ], [ 39.896844, 15.504448 ], [ 39.895781, 15.506271 ], [ 39.899417, 15.510543 ], [ 39.902361, 15.509882 ], [ 39.905955, 15.504671 ], [ 39.903391, 15.500265 ], [ 39.901863, 15.4878 ], [ 39.897978, 15.487556 ], [ 39.892766, 15.490695 ], [ 39.889605, 15.49358 ], [ 39.888026, 15.502384 ] ] ], [ [ [ 40.774429, 15.632523 ], [ 40.779116, 15.638642 ], [ 40.785237, 15.642312 ], [ 40.792117, 15.641871 ], [ 40.791574, 15.640337 ], [ 40.797756, 15.635925 ], [ 40.798293, 15.632534 ], [ 40.793585, 15.628134 ], [ 40.789344, 15.627528 ], [ 40.782466, 15.628097 ], [ 40.774429, 15.632523 ] ] ], [ [ [ 40.684881, 15.807256 ], [ 40.686666, 15.814015 ], [ 40.689161, 15.816346 ], [ 40.691884, 15.823054 ], [ 40.69478, 15.824119 ], [ 40.69569, 15.817097 ], [ 40.692594, 15.813939 ], [ 40.691616, 15.809979 ], [ 40.695273, 15.79971 ], [ 40.694268, 15.79165 ], [ 40.687821, 15.79183 ], [ 40.685863, 15.797253 ], [ 40.684881, 15.807256 ] ] ], [ [ [ 40.194948, 15.915508 ], [ 40.195622, 15.911119 ], [ 40.193077, 15.904679 ], [ 40.190174, 15.901718 ], [ 40.18612, 15.900953 ], [ 40.182797, 15.904013 ], [ 40.180592, 15.904597 ], [ 40.176485, 15.902299 ], [ 40.170646, 15.902527 ], [ 40.173651, 15.907104 ], [ 40.181066, 15.910104 ], [ 40.185927, 15.915508 ], [ 40.189294, 15.917567 ], [ 40.194948, 15.915508 ] ] ], [ [ [ 40.852575, 15.507071 ], [ 40.856905, 15.508711 ], [ 40.860401, 15.515596 ], [ 40.864615, 15.51428 ], [ 40.867725, 15.507595 ], [ 40.873285, 15.509084 ], [ 40.874045, 15.505493 ], [ 40.876943, 15.5047 ], [ 40.877839, 15.501619 ], [ 40.873451, 15.498198 ], [ 40.868696, 15.498111 ], [ 40.864513, 15.502883 ], [ 40.856657, 15.502255 ], [ 40.852575, 15.507071 ] ] ], [ [ [ 42.84166, 12.953856 ], [ 42.841778, 12.955394 ], [ 42.846297, 12.952949 ], [ 42.850669, 12.954187 ], [ 42.848287, 12.957754 ], [ 42.849038, 12.961603 ], [ 42.852714, 12.959455 ], [ 42.856364, 12.960126 ], [ 42.859571, 12.951698 ], [ 42.859079, 12.948108 ], [ 42.854677, 12.943716 ], [ 42.851033, 12.942149 ], [ 42.848147, 12.943663 ], [ 42.844451, 12.948243 ], [ 42.84166, 12.953856 ] ] ], [ [ [ 40.357223, 15.883652 ], [ 40.357223, 15.885643 ], [ 40.36336, 15.888661 ], [ 40.370649, 15.900598 ], [ 40.374779, 15.898783 ], [ 40.37795, 15.891523 ], [ 40.376462, 15.885958 ], [ 40.371351, 15.88356 ], [ 40.357223, 15.883652 ] ] ], [ [ [ 40.481581, 15.757502 ], [ 40.487998, 15.75926 ], [ 40.497467, 15.759064 ], [ 40.500728, 15.761007 ], [ 40.503151, 15.759287 ], [ 40.504324, 15.753252 ], [ 40.503088, 15.750771 ], [ 40.496574, 15.747933 ], [ 40.493465, 15.748348 ], [ 40.485247, 15.75299 ], [ 40.481581, 15.757502 ] ] ], [ [ [ 40.557377, 15.828294 ], [ 40.557707, 15.838773 ], [ 40.558353, 15.840412 ], [ 40.562187, 15.847589 ], [ 40.565646, 15.845624 ], [ 40.5637, 15.835809 ], [ 40.566629, 15.834495 ], [ 40.567135, 15.83087 ], [ 40.566529, 15.821562 ], [ 40.558916, 15.821876 ], [ 40.558353, 15.824033 ], [ 40.557377, 15.828294 ] ] ], [ [ [ 39.96166, 16.142234 ], [ 39.961679, 16.146158 ], [ 39.966993, 16.153459 ], [ 39.970783, 16.153442 ], [ 39.975088, 16.14819 ], [ 39.975055, 16.141388 ], [ 39.972052, 16.13617 ], [ 39.969882, 16.135263 ], [ 39.963131, 16.138433 ], [ 39.96166, 16.142234 ] ] ], [ [ [ 39.926883, 15.895253 ], [ 39.928394, 15.899704 ], [ 39.934942, 15.909639 ], [ 39.935224, 15.911866 ], [ 39.940909, 15.910924 ], [ 39.940206, 15.905421 ], [ 39.941939, 15.899383 ], [ 39.944357, 15.894915 ], [ 39.932975, 15.894308 ], [ 39.926883, 15.895253 ] ] ], [ [ [ 40.316406, 15.078764 ], [ 40.322302, 15.082749 ], [ 40.324721, 15.085458 ], [ 40.328735, 15.08712 ], [ 40.335145, 15.08786 ], [ 40.340234, 15.090682 ], [ 40.343156, 15.088461 ], [ 40.342332, 15.084836 ], [ 40.338843, 15.081745 ], [ 40.332688, 15.079058 ], [ 40.324672, 15.077549 ], [ 40.318534, 15.077585 ], [ 40.316406, 15.078764 ] ] ], [ [ [ 40.083004, 15.184341 ], [ 40.084248, 15.198109 ], [ 40.085386, 15.199523 ], [ 40.089455, 15.199802 ], [ 40.093071, 15.201792 ], [ 40.096575, 15.198109 ], [ 40.090882, 15.184027 ], [ 40.086998, 15.1815 ], [ 40.083004, 15.184341 ] ] ], [ [ [ 40.051178, 15.196197 ], [ 40.054052, 15.201756 ], [ 40.06887, 15.207343 ], [ 40.076471, 15.20533 ], [ 40.078787, 15.198127 ], [ 40.072036, 15.198127 ], [ 40.068035, 15.201849 ], [ 40.06224, 15.198127 ], [ 40.054129, 15.194284 ], [ 40.051178, 15.196197 ] ] ], [ [ [ 39.939883, 15.972639 ], [ 39.942811, 15.982471 ], [ 39.947029, 15.986301 ], [ 39.952181, 15.978514 ], [ 39.950889, 15.966185 ], [ 39.947864, 15.96367 ], [ 39.946159, 15.966185 ], [ 39.939883, 15.972639 ] ] ], [ [ [ 39.801947, 16.313251 ], [ 39.80251, 16.317214 ], [ 39.810643, 16.327912 ], [ 39.81565, 16.331184 ], [ 39.821577, 16.328725 ], [ 39.818829, 16.322372 ], [ 39.810643, 16.316536 ], [ 39.805479, 16.312716 ], [ 39.801947, 16.313251 ] ] ], [ [ [ 40.768867, 15.699359 ], [ 40.770661, 15.701853 ], [ 40.779646, 15.70046 ], [ 40.783755, 15.702803 ], [ 40.786478, 15.702385 ], [ 40.786428, 15.696576 ], [ 40.780334, 15.685533 ], [ 40.775295, 15.686102 ], [ 40.775782, 15.695078 ], [ 40.768867, 15.699359 ] ] ], [ [ [ 39.595389, 15.95575 ], [ 39.596458, 15.959913 ], [ 39.601704, 15.960567 ], [ 39.607632, 15.95575 ], [ 39.610134, 15.95054 ], [ 39.608469, 15.941361 ], [ 39.59708, 15.950573 ], [ 39.595389, 15.95575 ] ] ], [ [ [ 40.271958, 15.091673 ], [ 40.276226, 15.088585 ], [ 40.276338, 15.08494 ], [ 40.273659, 15.084825 ], [ 40.269083, 15.081206 ], [ 40.261573, 15.079687 ], [ 40.255413, 15.079852 ], [ 40.260008, 15.086854 ], [ 40.263503, 15.088917 ], [ 40.265167, 15.091673 ], [ 40.266479, 15.093846 ], [ 40.269157, 15.0937 ], [ 40.271958, 15.091673 ] ] ], [ [ [ 40.64244, 15.701551 ], [ 40.643977, 15.71106 ], [ 40.646837, 15.719787 ], [ 40.648723, 15.723118 ], [ 40.651925, 15.724895 ], [ 40.654843, 15.724359 ], [ 40.656668, 15.71997 ], [ 40.651319, 15.715636 ], [ 40.647687, 15.710003 ], [ 40.647552, 15.707003 ], [ 40.649657, 15.707157 ], [ 40.64962, 15.702526 ], [ 40.651205, 15.701484 ], [ 40.647994, 15.698549 ], [ 40.643087, 15.699487 ], [ 40.64244, 15.701551 ] ] ], [ [ [ 40.79618, 14.785648 ], [ 40.798402, 14.789414 ], [ 40.802345, 14.795669 ], [ 40.807783, 14.797229 ], [ 40.813628, 14.7951 ], [ 40.816048, 14.789414 ], [ 40.80064, 14.783505 ], [ 40.79618, 14.785648 ] ] ], [ [ [ 42.875587, 12.868886 ], [ 42.87789, 12.874802 ], [ 42.879715, 12.875329 ], [ 42.884968, 12.872166 ], [ 42.890461, 12.87157 ], [ 42.891661, 12.868759 ], [ 42.891082, 12.85978 ], [ 42.887164, 12.85962 ], [ 42.881632, 12.864832 ], [ 42.877709, 12.865185 ], [ 42.875587, 12.868886 ] ] ], [ [ [ 39.746777, 16.300298 ], [ 39.748409, 16.303681 ], [ 39.756521, 16.307822 ], [ 39.759322, 16.299472 ], [ 39.763215, 16.294245 ], [ 39.757809, 16.291788 ], [ 39.754038, 16.293757 ], [ 39.747562, 16.29378 ], [ 39.746777, 16.300298 ] ] ], [ [ [ 42.965973, 12.926801 ], [ 42.967111, 12.931481 ], [ 42.968898, 12.932125 ], [ 42.977448, 12.926992 ], [ 42.975555, 12.924532 ], [ 42.977186, 12.92286 ], [ 42.973773, 12.919113 ], [ 42.974907, 12.914661 ], [ 42.971547, 12.911683 ], [ 42.9684, 12.912941 ], [ 42.966686, 12.917687 ], [ 42.965973, 12.926801 ] ] ], [ [ [ 40.357836, 15.812613 ], [ 40.360711, 15.817313 ], [ 40.359657, 15.821777 ], [ 40.364569, 15.827381 ], [ 40.368336, 15.823819 ], [ 40.371847, 15.822486 ], [ 40.375885, 15.819053 ], [ 40.377209, 15.814588 ], [ 40.363674, 15.815066 ], [ 40.359317, 15.811424 ], [ 40.357836, 15.812613 ] ] ], [ [ [ 40.071966, 15.234883 ], [ 40.074109, 15.236169 ], [ 40.075741, 15.242123 ], [ 40.078953, 15.243663 ], [ 40.08164, 15.247149 ], [ 40.090189, 15.248016 ], [ 40.089886, 15.241018 ], [ 40.086273, 15.23948 ], [ 40.083735, 15.235079 ], [ 40.079182, 15.236274 ], [ 40.074627, 15.233185 ], [ 40.071966, 15.234883 ] ] ], [ [ [ 40.2406, 15.920395 ], [ 40.241512, 15.922327 ], [ 40.247248, 15.925718 ], [ 40.249719, 15.929126 ], [ 40.254361, 15.931601 ], [ 40.258977, 15.929863 ], [ 40.261132, 15.926427 ], [ 40.257299, 15.92263 ], [ 40.249112, 15.918991 ], [ 40.2406, 15.920395 ] ] ], [ [ [ 40.881194, 14.747709 ], [ 40.882022, 14.75157 ], [ 40.890274, 14.755887 ], [ 40.898493, 14.756335 ], [ 40.900983, 14.75322 ], [ 40.90002, 14.749102 ], [ 40.896294, 14.747198 ], [ 40.890196, 14.746862 ], [ 40.88862, 14.748422 ], [ 40.881194, 14.747709 ] ] ], [ [ [ 41.973316, 13.881095 ], [ 41.976303, 13.882378 ], [ 41.977967, 13.885788 ], [ 41.98476, 13.888872 ], [ 41.986687, 13.891751 ], [ 41.989939, 13.892503 ], [ 41.990783, 13.895131 ], [ 41.995221, 13.893757 ], [ 41.990292, 13.88854 ], [ 41.988341, 13.883814 ], [ 41.986588, 13.883967 ], [ 41.982208, 13.879403 ], [ 41.975692, 13.876844 ], [ 41.973316, 13.881095 ] ] ], [ [ [ 40.712892, 15.649023 ], [ 40.714277, 15.65607 ], [ 40.719729, 15.658892 ], [ 40.724424, 15.658964 ], [ 40.719729, 15.641776 ], [ 40.716241, 15.641417 ], [ 40.712892, 15.649023 ] ] ], [ [ [ 40.163794, 15.266754 ], [ 40.165022, 15.273103 ], [ 40.168826, 15.278837 ], [ 40.175568, 15.279848 ], [ 40.177433, 15.275915 ], [ 40.176046, 15.26886 ], [ 40.170655, 15.268496 ], [ 40.164616, 15.265793 ], [ 40.163794, 15.266754 ] ] ], [ [ [ 42.829535, 12.984668 ], [ 42.83032, 12.98624 ], [ 42.837212, 12.989298 ], [ 42.843059, 12.99013 ], [ 42.845728, 12.989239 ], [ 42.848826, 12.985582 ], [ 42.838886, 12.980439 ], [ 42.835942, 12.982372 ], [ 42.83341, 12.979814 ], [ 42.830638, 12.980241 ], [ 42.829535, 12.984668 ] ] ], [ [ [ 42.849015, 12.875931 ], [ 42.855443, 12.877695 ], [ 42.860274, 12.877734 ], [ 42.866214, 12.879215 ], [ 42.866887, 12.873443 ], [ 42.863314, 12.867488 ], [ 42.85982, 12.867986 ], [ 42.854659, 12.871888 ], [ 42.84916, 12.874615 ], [ 42.849015, 12.875931 ] ] ], [ [ [ 42.807663, 12.957464 ], [ 42.813831, 12.960532 ], [ 42.817829, 12.965854 ], [ 42.823232, 12.964342 ], [ 42.827174, 12.960272 ], [ 42.823232, 12.956457 ], [ 42.814559, 12.953695 ], [ 42.807663, 12.957464 ] ] ], [ [ [ 40.44081, 15.785893 ], [ 40.442748, 15.789248 ], [ 40.447359, 15.793911 ], [ 40.451951, 15.795706 ], [ 40.455168, 15.793598 ], [ 40.457672, 15.786019 ], [ 40.454582, 15.786952 ], [ 40.446755, 15.784657 ], [ 40.443506, 15.782331 ], [ 40.44081, 15.785893 ] ] ], [ [ [ 40.697897, 15.570746 ], [ 40.702269, 15.584877 ], [ 40.703782, 15.584877 ], [ 40.705502, 15.577738 ], [ 40.704543, 15.564108 ], [ 40.700705, 15.560937 ], [ 40.697897, 15.570746 ] ] ], [ [ [ 40.167327, 15.175451 ], [ 40.167902, 15.177392 ], [ 40.173918, 15.18256 ], [ 40.176733, 15.181378 ], [ 40.177721, 15.173843 ], [ 40.174624, 15.168418 ], [ 40.167351, 15.168115 ], [ 40.167327, 15.175451 ] ] ], [ [ [ 40.607767, 15.599291 ], [ 40.614465, 15.601701 ], [ 40.619009, 15.601927 ], [ 40.624692, 15.603802 ], [ 40.625832, 15.60271 ], [ 40.617342, 15.593783 ], [ 40.616789, 15.591456 ], [ 40.610912, 15.591499 ], [ 40.610276, 15.595647 ], [ 40.607767, 15.599291 ] ] ], [ [ [ 41.932039, 13.877566 ], [ 41.93749, 13.883799 ], [ 41.941524, 13.884275 ], [ 41.944245, 13.886997 ], [ 41.946328, 13.883583 ], [ 41.944042, 13.881621 ], [ 41.942214, 13.875082 ], [ 41.940069, 13.875371 ], [ 41.938145, 13.871851 ], [ 41.933593, 13.872955 ], [ 41.932039, 13.877566 ] ] ], [ [ [ 40.0823, 15.888961 ], [ 40.086297, 15.899329 ], [ 40.089553, 15.898393 ], [ 40.08991, 15.889186 ], [ 40.088504, 15.880251 ], [ 40.086956, 15.879457 ], [ 40.083622, 15.882117 ], [ 40.0823, 15.888961 ] ] ], [ [ [ 39.898458, 15.715826 ], [ 39.899971, 15.719752 ], [ 39.903288, 15.720362 ], [ 39.906698, 15.721904 ], [ 39.911317, 15.722055 ], [ 39.90627, 15.715115 ], [ 39.910833, 15.713277 ], [ 39.910485, 15.710997 ], [ 39.90691, 15.710115 ], [ 39.903288, 15.710845 ], [ 39.899878, 15.711839 ], [ 39.898458, 15.715826 ] ] ], [ [ [ 42.96313, 12.905264 ], [ 42.9656, 12.905798 ], [ 42.969572, 12.902147 ], [ 42.974325, 12.901934 ], [ 42.976734, 12.897968 ], [ 42.971786, 12.898027 ], [ 42.972469, 12.892727 ], [ 42.966981, 12.892552 ], [ 42.964406, 12.896342 ], [ 42.96313, 12.905264 ] ] ], [ [ [ 39.903288, 15.820333 ], [ 39.903288, 15.823647 ], [ 39.903957, 15.825872 ], [ 39.908757, 15.827628 ], [ 39.915475, 15.828016 ], [ 39.914421, 15.823545 ], [ 39.915487, 15.819873 ], [ 39.913193, 15.818853 ], [ 39.904387, 15.818348 ], [ 39.903288, 15.820333 ] ] ], [ [ [ 39.317566, 16.613875 ], [ 39.320256, 16.615167 ], [ 39.319722, 16.61737 ], [ 39.323972, 16.617182 ], [ 39.323932, 16.620097 ], [ 39.32994, 16.619427 ], [ 39.33128, 16.616833 ], [ 39.325863, 16.616843 ], [ 39.326167, 16.613343 ], [ 39.3302, 16.613337 ], [ 39.330866, 16.610484 ], [ 39.327232, 16.607121 ], [ 39.324544, 16.607125 ], [ 39.317566, 16.613875 ] ] ], [ [ [ 42.922923, 12.993602 ], [ 42.926044, 12.993372 ], [ 42.929237, 12.98964 ], [ 42.932304, 12.990236 ], [ 42.937253, 12.98862 ], [ 42.941597, 12.981522 ], [ 42.941352, 12.979737 ], [ 42.935233, 12.981598 ], [ 42.930665, 12.984237 ], [ 42.928351, 12.987734 ], [ 42.925562, 12.988781 ], [ 42.922923, 12.993602 ] ] ], [ [ [ 40.08525, 16.474184 ], [ 40.086518, 16.480261 ], [ 40.091462, 16.482087 ], [ 40.095294, 16.481009 ], [ 40.095274, 16.47757 ], [ 40.097319, 16.475708 ], [ 40.091672, 16.47058 ], [ 40.085925, 16.472329 ], [ 40.08525, 16.474184 ] ] ], [ [ [ 39.814031, 15.492183 ], [ 39.815046, 15.503469 ], [ 39.819491, 15.506006 ], [ 39.822252, 15.502905 ], [ 39.817767, 15.490556 ], [ 39.817001, 15.48628 ], [ 39.81484, 15.486534 ], [ 39.814031, 15.492183 ] ] ], [ [ [ 42.876054, 12.975776 ], [ 42.878007, 12.978897 ], [ 42.881683, 12.981126 ], [ 42.88721, 12.982724 ], [ 42.891593, 12.979266 ], [ 42.883585, 12.974543 ], [ 42.881505, 12.970904 ], [ 42.876472, 12.973192 ], [ 42.876054, 12.975776 ] ] ], [ [ [ 40.338845, 15.150684 ], [ 40.3409, 15.154359 ], [ 40.341908, 15.163569 ], [ 40.34624, 15.162753 ], [ 40.348218, 15.154052 ], [ 40.347235, 15.148659 ], [ 40.338845, 15.150684 ] ] ], [ [ [ 40.801826, 14.759407 ], [ 40.802477, 14.761474 ], [ 40.806991, 14.765924 ], [ 40.812253, 14.765242 ], [ 40.814337, 14.762406 ], [ 40.813778, 14.758566 ], [ 40.809283, 14.756423 ], [ 40.803231, 14.757111 ], [ 40.801826, 14.759407 ] ] ], [ [ [ 40.122516, 15.233237 ], [ 40.126325, 15.237277 ], [ 40.126867, 15.240826 ], [ 40.125586, 15.245652 ], [ 40.127569, 15.249955 ], [ 40.130567, 15.248671 ], [ 40.132505, 15.244603 ], [ 40.132225, 15.241053 ], [ 40.127871, 15.233211 ], [ 40.12538, 15.23132 ], [ 40.122516, 15.233237 ] ] ], [ [ [ 39.461708, 15.602168 ], [ 39.468492, 15.610747 ], [ 39.477736, 15.61164 ], [ 39.47926, 15.610747 ], [ 39.475554, 15.606316 ], [ 39.469926, 15.607186 ], [ 39.465433, 15.598433 ], [ 39.463818, 15.597893 ], [ 39.461708, 15.602168 ] ] ], [ [ [ 40.093831, 15.20557 ], [ 40.095248, 15.21109 ], [ 40.100796, 15.210254 ], [ 40.108443, 15.212508 ], [ 40.107732, 15.209141 ], [ 40.103833, 15.206869 ], [ 40.100199, 15.202168 ], [ 40.093831, 15.20557 ] ] ], [ [ [ 39.834134, 15.852486 ], [ 39.834985, 15.856257 ], [ 39.842506, 15.856228 ], [ 39.84401, 15.849751 ], [ 39.843025, 15.847059 ], [ 39.836342, 15.847489 ], [ 39.834134, 15.852486 ] ] ], [ [ [ 40.761042, 14.828764 ], [ 40.764397, 14.834782 ], [ 40.766507, 14.834124 ], [ 40.768714, 14.829219 ], [ 40.769057, 14.822529 ], [ 40.767195, 14.821128 ], [ 40.764258, 14.822319 ], [ 40.764582, 14.825006 ], [ 40.761485, 14.825863 ], [ 40.761042, 14.828764 ] ] ], [ [ [ 39.82864, 15.993722 ], [ 39.830521, 16.000605 ], [ 39.83879, 16.001951 ], [ 39.835188, 15.992595 ], [ 39.830193, 15.990271 ], [ 39.82864, 15.993722 ] ] ], [ [ [ 43.139803, 12.719502 ], [ 43.146259, 12.718887 ], [ 43.151353, 12.720639 ], [ 43.152858, 12.716955 ], [ 43.148463, 12.711514 ], [ 43.143072, 12.713456 ], [ 43.139803, 12.719502 ] ] ], [ [ [ 40.234167, 16.238114 ], [ 40.240302, 16.244195 ], [ 40.243739, 16.24271 ], [ 40.24107, 16.234733 ], [ 40.237745, 16.232221 ], [ 40.234991, 16.232903 ], [ 40.234167, 16.238114 ] ] ], [ [ [ 42.141734, 13.660461 ], [ 42.142781, 13.664772 ], [ 42.147717, 13.6655 ], [ 42.152286, 13.662463 ], [ 42.147112, 13.654772 ], [ 42.141734, 13.660461 ] ] ], [ [ [ 42.899477, 12.849877 ], [ 42.903604, 12.855639 ], [ 42.906686, 12.855592 ], [ 42.913483, 12.851284 ], [ 42.913171, 12.849682 ], [ 42.906686, 12.848392 ], [ 42.899477, 12.849877 ] ] ], [ [ [ 40.131033, 15.159405 ], [ 40.132598, 15.160534 ], [ 40.13259, 15.16585 ], [ 40.136264, 15.165335 ], [ 40.135184, 15.16275 ], [ 40.139017, 15.156385 ], [ 40.142756, 15.157532 ], [ 40.141934, 15.153393 ], [ 40.131282, 15.156036 ], [ 40.131033, 15.159405 ] ] ], [ [ [ 39.980824, 16.092856 ], [ 39.981491, 16.097579 ], [ 39.984122, 16.100726 ], [ 39.986997, 16.099453 ], [ 39.9885, 16.094322 ], [ 39.987733, 16.090636 ], [ 39.984122, 16.090158 ], [ 39.981563, 16.090857 ], [ 39.980824, 16.092856 ] ] ], [ [ [ 39.971207, 16.047678 ], [ 39.97367, 16.055392 ], [ 39.976176, 16.055642 ], [ 39.975775, 16.048209 ], [ 39.97818, 16.04406 ], [ 39.97495, 16.039166 ], [ 39.971207, 16.047678 ] ] ], [ [ [ 40.673844, 15.712598 ], [ 40.674889, 15.717103 ], [ 40.681205, 15.718117 ], [ 40.683349, 15.711991 ], [ 40.678943, 15.709766 ], [ 40.675927, 15.709922 ], [ 40.673844, 15.712598 ] ] ], [ [ [ 39.852436, 16.129341 ], [ 39.852726, 16.135 ], [ 39.85474, 16.138851 ], [ 39.857665, 16.138325 ], [ 39.858848, 16.134975 ], [ 39.858168, 16.131376 ], [ 39.855486, 16.126756 ], [ 39.853355, 16.12625 ], [ 39.852436, 16.129341 ] ] ], [ [ [ 40.160706, 15.128958 ], [ 40.165449, 15.139144 ], [ 40.170615, 15.136892 ], [ 40.169904, 15.132371 ], [ 40.165368, 15.129599 ], [ 40.160706, 15.128958 ] ] ], [ [ [ 40.025694, 16.163783 ], [ 40.02611, 16.165097 ], [ 40.031838, 16.167174 ], [ 40.036497, 16.173202 ], [ 40.039773, 16.175028 ], [ 40.040033, 16.172659 ], [ 40.035656, 16.168471 ], [ 40.034004, 16.165059 ], [ 40.025817, 16.161152 ], [ 40.025694, 16.163783 ] ] ], [ [ [ 39.886319, 16.051096 ], [ 39.886711, 16.054854 ], [ 39.889605, 16.060398 ], [ 39.894892, 16.060376 ], [ 39.894591, 16.056281 ], [ 39.889605, 16.05174 ], [ 39.886319, 16.051096 ] ] ], [ [ [ 40.634455, 15.600186 ], [ 40.635383, 15.601997 ], [ 40.642308, 15.602627 ], [ 40.644599, 15.602836 ], [ 40.645417, 15.599559 ], [ 40.649061, 15.59817 ], [ 40.649025, 15.59362 ], [ 40.644543, 15.595751 ], [ 40.645125, 15.598199 ], [ 40.642308, 15.598724 ], [ 40.634455, 15.600186 ] ] ], [ [ [ 40.55522, 15.902358 ], [ 40.55636, 15.905322 ], [ 40.558353, 15.905736 ], [ 40.561406, 15.905672 ], [ 40.56356, 15.89983 ], [ 40.558353, 15.89643 ], [ 40.55522, 15.902358 ] ] ], [ [ [ 42.206795, 13.67501 ], [ 42.209187, 13.677121 ], [ 42.213176, 13.676472 ], [ 42.214068, 13.673145 ], [ 42.217218, 13.671234 ], [ 42.216601, 13.668339 ], [ 42.212965, 13.670213 ], [ 42.208988, 13.66989 ], [ 42.206795, 13.67501 ] ] ], [ [ [ 40.165504, 16.223378 ], [ 40.167259, 16.229229 ], [ 40.168661, 16.231397 ], [ 40.171122, 16.23254 ], [ 40.172806, 16.23138 ], [ 40.173433, 16.229027 ], [ 40.172353, 16.22665 ], [ 40.167259, 16.22179 ], [ 40.165504, 16.223378 ] ] ], [ [ [ 40.232909, 16.33259 ], [ 40.236343, 16.33867 ], [ 40.240579, 16.342963 ], [ 40.243732, 16.342437 ], [ 40.243452, 16.339644 ], [ 40.234987, 16.332201 ], [ 40.232909, 16.33259 ] ] ], [ [ [ 39.750338, 16.313884 ], [ 39.750361, 16.319895 ], [ 39.757129, 16.320393 ], [ 39.756974, 16.315429 ], [ 39.753848, 16.31165 ], [ 39.750338, 16.313884 ] ] ], [ [ [ 40.829248, 14.741177 ], [ 40.829913, 14.743188 ], [ 40.836399, 14.744523 ], [ 40.838715, 14.742614 ], [ 40.838169, 14.739342 ], [ 40.831421, 14.737631 ], [ 40.829248, 14.741177 ] ] ], [ [ [ 40.53242, 15.602982 ], [ 40.536777, 15.607655 ], [ 40.541024, 15.608301 ], [ 40.541024, 15.604988 ], [ 40.537644, 15.60011 ], [ 40.533877, 15.600299 ], [ 40.53242, 15.602982 ] ] ], [ [ [ 42.962004, 12.94643 ], [ 42.966465, 12.953669 ], [ 42.971245, 12.955911 ], [ 42.973013, 12.954496 ], [ 42.967255, 12.950465 ], [ 42.966622, 12.94437 ], [ 42.962004, 12.94643 ] ] ], [ [ [ 40.559201, 15.722373 ], [ 40.560345, 15.72667 ], [ 40.564261, 15.730006 ], [ 40.566192, 15.728243 ], [ 40.5663, 15.724206 ], [ 40.564195, 15.721395 ], [ 40.559201, 15.722373 ] ] ], [ [ [ 39.53231, 15.945571 ], [ 39.53287, 15.947979 ], [ 39.537856, 15.950508 ], [ 39.542005, 15.950097 ], [ 39.54255, 15.947151 ], [ 39.538671, 15.944886 ], [ 39.53231, 15.945571 ] ] ], [ [ [ 40.186453, 15.843043 ], [ 40.190415, 15.847648 ], [ 40.194484, 15.846537 ], [ 40.193755, 15.841915 ], [ 40.188964, 15.8399 ], [ 40.186453, 15.843043 ] ] ], [ [ [ 40.471267, 15.69984 ], [ 40.47282, 15.708995 ], [ 40.476886, 15.710538 ], [ 40.476844, 15.704777 ], [ 40.474926, 15.701124 ], [ 40.471267, 15.69984 ] ] ], [ [ [ 40.218294, 15.094032 ], [ 40.219806, 15.096354 ], [ 40.226214, 15.096707 ], [ 40.227537, 15.094756 ], [ 40.225314, 15.091673 ], [ 40.218321, 15.091673 ], [ 40.218294, 15.091673 ], [ 40.218294, 15.091685 ], [ 40.218294, 15.094032 ] ] ], [ [ [ 39.90295, 15.915508 ], [ 39.900937, 15.912253 ], [ 39.896823, 15.911342 ], [ 39.896149, 15.913997 ], [ 39.896774, 15.915508 ], [ 39.898351, 15.918815 ], [ 39.901046, 15.919795 ], [ 39.90295, 15.915508 ] ] ], [ [ [ 42.921049, 12.833842 ], [ 42.924147, 12.833793 ], [ 42.92541, 12.82963 ], [ 42.923804, 12.827024 ], [ 42.926477, 12.824443 ], [ 42.925831, 12.822486 ], [ 42.921566, 12.825185 ], [ 42.921049, 12.833842 ] ] ], [ [ [ 42.85935, 13.042507 ], [ 42.867058, 13.045576 ], [ 42.870461, 13.042892 ], [ 42.865163, 13.039092 ], [ 42.85935, 13.042507 ] ] ], [ [ [ 40.181782, 15.111084 ], [ 40.183033, 15.114487 ], [ 40.185976, 15.11604 ], [ 40.189199, 15.115025 ], [ 40.189462, 15.109607 ], [ 40.181782, 15.111084 ] ] ], [ [ [ 40.294819, 15.211049 ], [ 40.299836, 15.21566 ], [ 40.303035, 15.211557 ], [ 40.303431, 15.20747 ], [ 40.294819, 15.211049 ] ] ], [ [ [ 42.842648, 12.966638 ], [ 42.843659, 12.973756 ], [ 42.845937, 12.972921 ], [ 42.846679, 12.966467 ], [ 42.849041, 12.962987 ], [ 42.845885, 12.963096 ], [ 42.842648, 12.966638 ] ] ], [ [ [ 40.633261, 15.667112 ], [ 40.634527, 15.671284 ], [ 40.636995, 15.671564 ], [ 40.639581, 15.667364 ], [ 40.636211, 15.662601 ], [ 40.633261, 15.667112 ] ] ], [ [ [ 40.237532, 15.060926 ], [ 40.245531, 15.064787 ], [ 40.246944, 15.063971 ], [ 40.244646, 15.05953 ], [ 40.240168, 15.05779 ], [ 40.237532, 15.060926 ] ] ], [ [ [ 40.505702, 15.530684 ], [ 40.511966, 15.532085 ], [ 40.511313, 15.524294 ], [ 40.508344, 15.525469 ], [ 40.505702, 15.530684 ] ] ], [ [ [ 39.872808, 15.906246 ], [ 39.875294, 15.911978 ], [ 39.879057, 15.911823 ], [ 39.877877, 15.906786 ], [ 39.873522, 15.903722 ], [ 39.872808, 15.906246 ] ] ], [ [ [ 39.934576, 16.175969 ], [ 39.93859, 16.177472 ], [ 39.941733, 16.176491 ], [ 39.942285, 16.172063 ], [ 39.938277, 16.171804 ], [ 39.934576, 16.175969 ] ] ], [ [ [ 40.28656, 15.105578 ], [ 40.29393, 15.107823 ], [ 40.293458, 15.102966 ], [ 40.288596, 15.101564 ], [ 40.28656, 15.105578 ] ] ], [ [ [ 40.201049, 15.979654 ], [ 40.203078, 15.982492 ], [ 40.208776, 15.984448 ], [ 40.209819, 15.980876 ], [ 40.206056, 15.979003 ], [ 40.201049, 15.979654 ] ] ], [ [ [ 40.850881, 15.492462 ], [ 40.853611, 15.495064 ], [ 40.859535, 15.489452 ], [ 40.854883, 15.488118 ], [ 40.850881, 15.492462 ] ] ], [ [ [ 42.57353, 13.195347 ], [ 42.575622, 13.195623 ], [ 42.577841, 13.187024 ], [ 42.576374, 13.185754 ], [ 42.573599, 13.188422 ], [ 42.57353, 13.195347 ] ] ], [ [ [ 40.080635, 16.338347 ], [ 40.083751, 16.340782 ], [ 40.085844, 16.336686 ], [ 40.085263, 16.333693 ], [ 40.082014, 16.332756 ], [ 40.080635, 16.338347 ] ] ], [ [ [ 42.911861, 12.91573 ], [ 42.914935, 12.915892 ], [ 42.921405, 12.911417 ], [ 42.921981, 12.909364 ], [ 42.914971, 12.91164 ], [ 42.911861, 12.91573 ] ] ], [ [ [ 39.755841, 15.434344 ], [ 39.758358, 15.437737 ], [ 39.761859, 15.436024 ], [ 39.762397, 15.433086 ], [ 39.76059, 15.431655 ], [ 39.757085, 15.432153 ], [ 39.755841, 15.434344 ] ] ], [ [ [ 40.814731, 14.722953 ], [ 40.815738, 14.725415 ], [ 40.82251, 14.72591 ], [ 40.821066, 14.721805 ], [ 40.814861, 14.72158 ], [ 40.814731, 14.722953 ] ] ], [ [ [ 40.640402, 15.383921 ], [ 40.640746, 15.387025 ], [ 40.648022, 15.385647 ], [ 40.648164, 15.383961 ], [ 40.642288, 15.381907 ], [ 40.640402, 15.383921 ] ] ], [ [ [ 42.836108, 12.874553 ], [ 42.839776, 12.876462 ], [ 42.843511, 12.874953 ], [ 42.840117, 12.871116 ], [ 42.836279, 12.871952 ], [ 42.836108, 12.874553 ] ] ], [ [ [ 40.244207, 15.051424 ], [ 40.246529, 15.053514 ], [ 40.251138, 15.051947 ], [ 40.25127, 15.049983 ], [ 40.245343, 15.048191 ], [ 40.244207, 15.051424 ] ] ], [ [ [ 39.575591, 15.901303 ], [ 39.576892, 15.90601 ], [ 39.579329, 15.907111 ], [ 39.581467, 15.904335 ], [ 39.579312, 15.901154 ], [ 39.575591, 15.901303 ] ] ], [ [ [ 39.794381, 15.781309 ], [ 39.79684, 15.782619 ], [ 39.79832, 15.777863 ], [ 39.796809, 15.774701 ], [ 39.794787, 15.7749 ], [ 39.794381, 15.781309 ] ] ], [ [ [ 39.920376, 16.000182 ], [ 39.923613, 16.005225 ], [ 39.926274, 15.998206 ], [ 39.920514, 15.998788 ], [ 39.920376, 16.000182 ] ] ], [ [ [ 39.907306, 16.291741 ], [ 39.909335, 16.294982 ], [ 39.911445, 16.294275 ], [ 39.912506, 16.28903 ], [ 39.910512, 16.288004 ], [ 39.907306, 16.291741 ] ] ], [ [ [ 40.081507, 16.428928 ], [ 40.083628, 16.435416 ], [ 40.085876, 16.436023 ], [ 40.085514, 16.428598 ], [ 40.081507, 16.428928 ] ] ], [ [ [ 39.584578, 16.105048 ], [ 39.584737, 16.109015 ], [ 39.587674, 16.11099 ], [ 39.588837, 16.107587 ], [ 39.587066, 16.103482 ], [ 39.584578, 16.105048 ] ] ], [ [ [ 40.330178, 15.501493 ], [ 40.331559, 15.502815 ], [ 40.337307, 15.500119 ], [ 40.337294, 15.498122 ], [ 40.333722, 15.497611 ], [ 40.330178, 15.501493 ] ] ], [ [ [ 40.819785, 14.823599 ], [ 40.825447, 14.826903 ], [ 40.82777, 14.823062 ], [ 40.823213, 14.821896 ], [ 40.819785, 14.823599 ] ] ], [ [ [ 40.840214, 14.840523 ], [ 40.840547, 14.842953 ], [ 40.846786, 14.841078 ], [ 40.844878, 14.837291 ], [ 40.840214, 14.840523 ] ] ], [ [ [ 39.916445, 15.832972 ], [ 39.917921, 15.834964 ], [ 39.919182, 15.836227 ], [ 39.92237, 15.835793 ], [ 39.921485, 15.832428 ], [ 39.917921, 15.830843 ], [ 39.916445, 15.832972 ] ] ], [ [ [ 42.766723, 12.980281 ], [ 42.76819, 12.982279 ], [ 42.771968, 12.982444 ], [ 42.772524, 12.980596 ], [ 42.76851, 12.976722 ], [ 42.766723, 12.980281 ] ] ], [ [ [ 42.88321, 12.823342 ], [ 42.888565, 12.824513 ], [ 42.890144, 12.818885 ], [ 42.885915, 12.820543 ], [ 42.88321, 12.823342 ] ] ], [ [ [ 42.777361, 12.87207 ], [ 42.780858, 12.87383 ], [ 42.783012, 12.867325 ], [ 42.780743, 12.866965 ], [ 42.777361, 12.87207 ] ] ], [ [ [ 42.977635, 12.906803 ], [ 42.978113, 12.909763 ], [ 42.98262, 12.911275 ], [ 42.98366, 12.90685 ], [ 42.977635, 12.906803 ] ] ], [ [ [ 42.823059, 12.932723 ], [ 42.824501, 12.936834 ], [ 42.828117, 12.938042 ], [ 42.828972, 12.936429 ], [ 42.826698, 12.932723 ], [ 42.823059, 12.932723 ] ] ], [ [ [ 42.758743, 12.96386 ], [ 42.762049, 12.967002 ], [ 42.76399, 12.967172 ], [ 42.766035, 12.966751 ], [ 42.76399, 12.962539 ], [ 42.758743, 12.96386 ] ] ], [ [ [ 42.83597, 12.964234 ], [ 42.838973, 12.967658 ], [ 42.843223, 12.965939 ], [ 42.839452, 12.962349 ], [ 42.83597, 12.964234 ] ] ], [ [ [ 42.795267, 12.975866 ], [ 42.798577, 12.977375 ], [ 42.800423, 12.973539 ], [ 42.797329, 12.970313 ], [ 42.795267, 12.975866 ] ] ], [ [ [ 42.809812, 12.999727 ], [ 42.813234, 13.002006 ], [ 42.816553, 12.999503 ], [ 42.815973, 12.997744 ], [ 42.811122, 12.997488 ], [ 42.809812, 12.999727 ] ] ], [ [ [ 42.711196, 13.07619 ], [ 42.715432, 13.080417 ], [ 42.718316, 13.076564 ], [ 42.7139, 13.074817 ], [ 42.711196, 13.07619 ] ] ], [ [ [ 42.591875, 13.162075 ], [ 42.592818, 13.164409 ], [ 42.595981, 13.164444 ], [ 42.597416, 13.159669 ], [ 42.594094, 13.159499 ], [ 42.591875, 13.162075 ] ] ], [ [ [ 42.606299, 13.525952 ], [ 42.611664, 13.527623 ], [ 42.609241, 13.521525 ], [ 42.606336, 13.522307 ], [ 42.606299, 13.525952 ] ] ], [ [ [ 42.615484, 13.536075 ], [ 42.620091, 13.537815 ], [ 42.621859, 13.534439 ], [ 42.616096, 13.532687 ], [ 42.615484, 13.536075 ] ] ], [ [ [ 42.18676, 13.621009 ], [ 42.192779, 13.621896 ], [ 42.193457, 13.618705 ], [ 42.188828, 13.617399 ], [ 42.18676, 13.621009 ] ] ], [ [ [ 42.18653, 13.670614 ], [ 42.187587, 13.673408 ], [ 42.192039, 13.674834 ], [ 42.191955, 13.671002 ], [ 42.190133, 13.669486 ], [ 42.18653, 13.670614 ] ] ], [ [ [ 42.108543, 13.683904 ], [ 42.112875, 13.685282 ], [ 42.114268, 13.682376 ], [ 42.110232, 13.67914 ], [ 42.108543, 13.683904 ] ] ], [ [ [ 41.827989, 13.937185 ], [ 41.830413, 13.942382 ], [ 41.833237, 13.941734 ], [ 41.831911, 13.936218 ], [ 41.827989, 13.937185 ] ] ], [ [ [ 41.666836, 14.105822 ], [ 41.672027, 14.107999 ], [ 41.674383, 14.104684 ], [ 41.671662, 14.102869 ], [ 41.666836, 14.105822 ] ] ], [ [ [ 40.786172, 14.720647 ], [ 40.791125, 14.723607 ], [ 40.793749, 14.720493 ], [ 40.791613, 14.718446 ], [ 40.786172, 14.720647 ] ] ], [ [ [ 40.752219, 14.786823 ], [ 40.75308, 14.78887 ], [ 40.756892, 14.790484 ], [ 40.757914, 14.786369 ], [ 40.757268, 14.784731 ], [ 40.752219, 14.786823 ] ] ], [ [ [ 40.782483, 14.837085 ], [ 40.786849, 14.840298 ], [ 40.788644, 14.835414 ], [ 40.787463, 14.8338 ], [ 40.782483, 14.837085 ] ] ], [ [ [ 40.707335, 14.881322 ], [ 40.707859, 14.883714 ], [ 40.712252, 14.884987 ], [ 40.712468, 14.880865 ], [ 40.708913, 14.879605 ], [ 40.707335, 14.881322 ] ] ], [ [ [ 40.581919, 14.969486 ], [ 40.59031, 14.971592 ], [ 40.589909, 14.96876 ], [ 40.584431, 14.967248 ], [ 40.581919, 14.969486 ] ] ], [ [ [ 40.595984, 14.970114 ], [ 40.59965, 14.97308 ], [ 40.603624, 14.970278 ], [ 40.596948, 14.96792 ], [ 40.595984, 14.970114 ] ] ], [ [ [ 40.216572, 14.971766 ], [ 40.21794, 14.974773 ], [ 40.221277, 14.974752 ], [ 40.221253, 14.97048 ], [ 40.217547, 14.9696 ], [ 40.216572, 14.971766 ] ] ], [ [ [ 40.564708, 14.979639 ], [ 40.566422, 14.985204 ], [ 40.570232, 14.983318 ], [ 40.568184, 14.979321 ], [ 40.564708, 14.979639 ] ] ], [ [ [ 40.387768, 14.989847 ], [ 40.391687, 14.992335 ], [ 40.395, 14.988388 ], [ 40.390295, 14.987227 ], [ 40.387768, 14.989847 ] ] ], [ [ [ 40.496705, 15.001504 ], [ 40.496936, 15.004742 ], [ 40.501938, 15.005114 ], [ 40.500652, 14.999859 ], [ 40.496705, 15.001504 ] ] ], [ [ [ 40.427536, 15.078649 ], [ 40.428389, 15.081083 ], [ 40.434255, 15.082266 ], [ 40.433809, 15.078202 ], [ 40.427536, 15.078649 ] ] ], [ [ [ 40.317807, 15.159828 ], [ 40.320597, 15.162772 ], [ 40.32337, 15.163025 ], [ 40.323899, 15.158984 ], [ 40.318908, 15.158474 ], [ 40.317807, 15.159828 ] ] ], [ [ [ 40.20919, 15.167338 ], [ 40.209585, 15.169598 ], [ 40.213782, 15.171607 ], [ 40.214279, 15.167032 ], [ 40.210473, 15.165861 ], [ 40.20919, 15.167338 ] ] ], [ [ [ 40.074413, 15.181141 ], [ 40.080122, 15.182444 ], [ 40.080666, 15.177558 ], [ 40.075968, 15.178596 ], [ 40.074413, 15.181141 ] ] ], [ [ [ 40.077243, 15.205081 ], [ 40.079025, 15.206894 ], [ 40.084379, 15.208778 ], [ 40.084801, 15.20443 ], [ 40.077243, 15.205081 ] ] ], [ [ [ 40.09749, 15.268949 ], [ 40.102766, 15.276075 ], [ 40.10473, 15.275907 ], [ 40.101093, 15.26909 ], [ 40.09749, 15.268949 ] ] ], [ [ [ 40.042835, 15.395493 ], [ 40.045064, 15.399574 ], [ 40.048703, 15.396932 ], [ 40.04585, 15.393137 ], [ 40.042835, 15.395493 ] ] ], [ [ [ 39.809669, 15.464925 ], [ 39.813138, 15.46715 ], [ 39.814522, 15.461035 ], [ 39.810807, 15.461005 ], [ 39.809669, 15.464925 ] ] ], [ [ [ 39.924329, 15.52475 ], [ 39.92913, 15.528044 ], [ 39.931679, 15.52505 ], [ 39.930051, 15.522792 ], [ 39.924329, 15.52475 ] ] ], [ [ [ 39.911211, 15.533843 ], [ 39.91551, 15.537498 ], [ 39.918059, 15.535119 ], [ 39.916804, 15.532062 ], [ 39.911211, 15.533843 ] ] ], [ [ [ 40.464488, 15.612559 ], [ 40.470197, 15.612659 ], [ 40.469232, 15.610747 ], [ 40.467704, 15.607718 ], [ 40.465442, 15.607735 ], [ 40.464846, 15.610747 ], [ 40.464488, 15.612559 ] ] ], [ [ [ 40.315858, 15.744561 ], [ 40.31836, 15.749172 ], [ 40.321731, 15.746126 ], [ 40.319572, 15.742883 ], [ 40.315858, 15.744561 ] ] ], [ [ [ 39.753445, 15.786837 ], [ 39.759594, 15.788468 ], [ 39.761382, 15.7862 ], [ 39.757061, 15.783779 ], [ 39.753445, 15.786837 ] ] ], [ [ [ 40.014578, 15.850072 ], [ 40.017298, 15.853202 ], [ 40.020218, 15.853721 ], [ 40.020021, 15.848082 ], [ 40.014578, 15.850072 ] ] ], [ [ [ 39.869522, 15.931347 ], [ 39.870364, 15.935487 ], [ 39.872345, 15.936754 ], [ 39.8743, 15.931646 ], [ 39.873266, 15.930186 ], [ 39.869522, 15.931347 ] ] ], [ [ [ 39.844546, 16.002041 ], [ 39.845347, 16.006484 ], [ 39.84859, 16.007366 ], [ 39.84904, 16.004231 ], [ 39.845928, 16.000487 ], [ 39.844546, 16.002041 ] ] ], [ [ [ 39.855594, 16.013805 ], [ 39.856638, 16.017427 ], [ 39.860128, 16.01981 ], [ 39.860697, 16.016201 ], [ 39.856906, 16.012688 ], [ 39.855594, 16.013805 ] ] ], [ [ [ 39.660521, 16.016459 ], [ 39.660938, 16.018593 ], [ 39.66555, 16.02286 ], [ 39.666564, 16.020551 ], [ 39.663827, 16.016608 ], [ 39.660521, 16.016459 ] ] ], [ [ [ 39.437892, 16.032051 ], [ 39.441011, 16.035426 ], [ 39.445429, 16.035595 ], [ 39.442105, 16.030795 ], [ 39.437892, 16.032051 ] ] ], [ [ [ 39.762864, 16.045294 ], [ 39.762871, 16.047353 ], [ 39.768047, 16.048805 ], [ 39.76849, 16.045274 ], [ 39.764683, 16.043817 ], [ 39.762864, 16.045294 ] ] ], [ [ [ 39.608174, 16.071866 ], [ 39.611887, 16.074768 ], [ 39.613245, 16.069396 ], [ 39.611115, 16.067498 ], [ 39.608174, 16.071866 ] ] ], [ [ [ 39.740711, 16.141837 ], [ 39.740959, 16.146287 ], [ 39.744271, 16.146783 ], [ 39.744621, 16.140488 ], [ 39.740711, 16.141837 ] ] ], [ [ [ 39.771465, 16.209806 ], [ 39.774341, 16.21335 ], [ 39.77677, 16.207417 ], [ 39.773904, 16.206242 ], [ 39.771465, 16.209806 ] ] ], [ [ [ 39.666401, 16.478934 ], [ 39.666571, 16.481994 ], [ 39.669427, 16.482597 ], [ 39.671797, 16.480141 ], [ 39.668486, 16.476816 ], [ 39.666401, 16.478934 ] ] ], [ [ [ 40.178887, 16.488857 ], [ 40.183839, 16.488745 ], [ 40.184371, 16.487014 ], [ 40.179341, 16.483201 ], [ 40.178887, 16.488857 ] ] ], [ [ [ 39.315314, 16.5027 ], [ 39.316004, 16.507307 ], [ 39.319075, 16.507631 ], [ 39.319577, 16.501706 ], [ 39.315314, 16.5027 ] ] ], [ [ [ 39.162417, 16.525766 ], [ 39.164574, 16.528764 ], [ 39.168399, 16.525761 ], [ 39.166983, 16.522296 ], [ 39.162417, 16.525766 ] ] ], [ [ [ 40.039201, 16.53188 ], [ 40.040203, 16.533617 ], [ 40.044553, 16.531871 ], [ 40.044336, 16.52849 ], [ 40.03936, 16.529579 ], [ 40.039201, 16.53188 ] ] ] ] } }
]
}
