{
"type": "FeatureCollection",
"name": "Estonia",
"crs": { "type": "name", "properties": { "name": "urn:ogc:def:crs:OGC:1.3:CRS84" } },
"features": [
{ "type": "Feature", "properties": { "id": "EE", "CNTR_ID": "EE", "CNTR_NAME": "Eesti", "NAME_ENGL": "Estonia", "ISO3_CODE": "EST", "FID": "EE" }, "geometry": { "type": "MultiPolygon", "coordinates": [ [ [ [ 28.041915, 59.47012 ], [ 28.04319, 59.468881 ], [ 28.051509, 59.462671 ], [ 28.069344, 59.461376 ], [ 28.070803, 59.46127 ], [ 28.089985, 59.455877 ], [ 28.120211, 59.440301 ], [ 28.129029, 59.433424 ], [ 28.141219, 59.418478 ], [ 28.164396, 59.411652 ], [ 28.175032, 59.405567 ], [ 28.190426, 59.40088 ], [ 28.195444, 59.397551 ], [ 28.208388, 59.383727 ], [ 28.208665, 59.380875 ], [ 28.203436, 59.37484 ], [ 28.209592, 59.370585 ], [ 28.205404, 59.364282 ], [ 28.199678, 59.361195 ], [ 28.199122, 59.356504 ], [ 28.191039, 59.352837 ], [ 28.19177, 59.347592 ], [ 28.190426, 59.345721 ], [ 28.168148, 59.333748 ], [ 28.153228, 59.311539 ], [ 28.139437, 59.296957 ], [ 28.130186, 59.291028 ], [ 28.121868, 59.289788 ], [ 28.092474, 59.291789 ], [ 28.069344, 59.290937 ], [ 28.047143, 59.290119 ], [ 28.022229, 59.284959 ], [ 27.998167, 59.276399 ], [ 27.956996, 59.271571 ], [ 27.924138, 59.254333 ], [ 27.905109, 59.241739 ], [ 27.899941, 59.235268 ], [ 27.896445, 59.218601 ], [ 27.89998, 59.206931 ], [ 27.887824, 59.18428 ], [ 27.873233, 59.172731 ], [ 27.864462, 59.160757 ], [ 27.844029, 59.149553 ], [ 27.830911, 59.144787 ], [ 27.819324, 59.13457 ], [ 27.808222, 59.128742 ], [ 27.803632, 59.113991 ], [ 27.809324, 59.107025 ], [ 27.800633, 59.102903 ], [ 27.78872, 59.091984 ], [ 27.789164, 59.082043 ], [ 27.79213, 59.078022 ], [ 27.791245, 59.070155 ], [ 27.780202, 59.064704 ], [ 27.77426, 59.059063 ], [ 27.774048, 59.044161 ], [ 27.768455, 59.034483 ], [ 27.751476, 59.030911 ], [ 27.745081, 59.026266 ], [ 27.740568, 59.008882 ], [ 27.746157, 58.99282 ], [ 27.745308, 58.987494 ], [ 27.738873, 58.97895 ], [ 27.727617, 58.971575 ], [ 27.703996, 58.959811 ], [ 27.504101, 58.860098 ], [ 27.484385, 58.850247 ], [ 27.433269, 58.824894 ], [ 27.35705, 58.787144 ], [ 27.409539, 58.674449 ], [ 27.428918, 58.632877 ], [ 27.456405, 58.573828 ], [ 27.484385, 58.513768 ], [ 27.491123, 58.499289 ], [ 27.504101, 58.471449 ], [ 27.534101, 58.407014 ], [ 27.543332, 58.387195 ], [ 27.553213, 58.365981 ], [ 27.546916, 58.360455 ], [ 27.515844, 58.333166 ], [ 27.512223, 58.321699 ], [ 27.504101, 58.295979 ], [ 27.502404, 58.290601 ], [ 27.492427, 58.259002 ], [ 27.490684, 58.253481 ], [ 27.489566, 58.249939 ], [ 27.490746, 58.225123 ], [ 27.504101, 58.210837 ], [ 27.520522, 58.193265 ], [ 27.524504, 58.189008 ], [ 27.571234, 58.139012 ], [ 27.590799, 58.118399 ], [ 27.634125, 58.097296 ], [ 27.623273, 58.078677 ], [ 27.60781, 58.054206 ], [ 27.613731, 58.032255 ], [ 27.621054, 58.005111 ], [ 27.643776, 58.001018 ], [ 27.650343, 57.99703 ], [ 27.653373, 57.997371 ], [ 27.649887, 58.00075 ], [ 27.654337, 58.00634 ], [ 27.652149, 58.012903 ], [ 27.649449, 58.015166 ], [ 27.650071, 58.018938 ], [ 27.660684, 58.017534 ], [ 27.667667, 58.009537 ], [ 27.682066, 58.00788 ], [ 27.693499, 58.004543 ], [ 27.693776, 58.003116 ], [ 27.690094, 58.00147 ], [ 27.689267, 58.000141 ], [ 27.691184, 57.999475 ], [ 27.695329, 58.000147 ], [ 27.697689, 57.999477 ], [ 27.698292, 57.998412 ], [ 27.696118, 57.99629 ], [ 27.698605, 57.994676 ], [ 27.695385, 57.99352 ], [ 27.69646, 57.988893 ], [ 27.689557, 57.985784 ], [ 27.679177, 57.974775 ], [ 27.679887, 57.972119 ], [ 27.684863, 57.969488 ], [ 27.683668, 57.960869 ], [ 27.661981, 57.957348 ], [ 27.65771, 57.955245 ], [ 27.668015, 57.947171 ], [ 27.669856, 57.93952 ], [ 27.673703, 57.937477 ], [ 27.681762, 57.933196 ], [ 27.683524, 57.92864 ], [ 27.681176, 57.924226 ], [ 27.703996, 57.922889 ], [ 27.707491, 57.922684 ], [ 27.716384, 57.919852 ], [ 27.71646, 57.911132 ], [ 27.708716, 57.907784 ], [ 27.703996, 57.907232 ], [ 27.69811, 57.906544 ], [ 27.703996, 57.902078 ], [ 27.705112, 57.901232 ], [ 27.730741, 57.905291 ], [ 27.745345, 57.901227 ], [ 27.752734, 57.901386 ], [ 27.755749, 57.897457 ], [ 27.764801, 57.895324 ], [ 27.795659, 57.898093 ], [ 27.814455, 57.895515 ], [ 27.817717, 57.890522 ], [ 27.810267, 57.885903 ], [ 27.815293, 57.881411 ], [ 27.81103, 57.873281 ], [ 27.815679, 57.867717 ], [ 27.81436, 57.861862 ], [ 27.795257, 57.851536 ], [ 27.793218, 57.847327 ], [ 27.796044, 57.842647 ], [ 27.787201, 57.842168 ], [ 27.775691, 57.834357 ], [ 27.758343, 57.836235 ], [ 27.739794, 57.828768 ], [ 27.728939, 57.831494 ], [ 27.709698, 57.841161 ], [ 27.70737, 57.846011 ], [ 27.703996, 57.843642 ], [ 27.697238, 57.838895 ], [ 27.686343, 57.835838 ], [ 27.661302, 57.839672 ], [ 27.647714, 57.839115 ], [ 27.63628, 57.840592 ], [ 27.612021, 57.838363 ], [ 27.593862, 57.833715 ], [ 27.564865, 57.831461 ], [ 27.553068, 57.833182 ], [ 27.549078, 57.831918 ], [ 27.552953, 57.829375 ], [ 27.551823, 57.825095 ], [ 27.54424, 57.822612 ], [ 27.542821, 57.820395 ], [ 27.549643, 57.815279 ], [ 27.541731, 57.813345 ], [ 27.540221, 57.809335 ], [ 27.535162, 57.806719 ], [ 27.536929, 57.801022 ], [ 27.533872, 57.793989 ], [ 27.5265, 57.790563 ], [ 27.515531, 57.791866 ], [ 27.504101, 57.79064 ], [ 27.500027, 57.790203 ], [ 27.496913, 57.788481 ], [ 27.504101, 57.782712 ], [ 27.509697, 57.777542 ], [ 27.507874, 57.766441 ], [ 27.52423, 57.756504 ], [ 27.51981, 57.751844 ], [ 27.526381, 57.749566 ], [ 27.53012, 57.741017 ], [ 27.540241, 57.733458 ], [ 27.526441, 57.726977 ], [ 27.522298, 57.710935 ], [ 27.509194, 57.711686 ], [ 27.504101, 57.70848 ], [ 27.499988, 57.708086 ], [ 27.489011, 57.72033 ], [ 27.474557, 57.716529 ], [ 27.469732, 57.710494 ], [ 27.465478, 57.708657 ], [ 27.452557, 57.715328 ], [ 27.447256, 57.716134 ], [ 27.431078, 57.708871 ], [ 27.425557, 57.701312 ], [ 27.414109, 57.699749 ], [ 27.410499, 57.695828 ], [ 27.401669, 57.686613 ], [ 27.390078, 57.685638 ], [ 27.391413, 57.678615 ], [ 27.37785, 57.672019 ], [ 27.376819, 57.667957 ], [ 27.380249, 57.66117 ], [ 27.378145, 57.65873 ], [ 27.384047, 57.655105 ], [ 27.378549, 57.649538 ], [ 27.379143, 57.644329 ], [ 27.386444, 57.642205 ], [ 27.387745, 57.639183 ], [ 27.398057, 57.63658 ], [ 27.400624, 57.632743 ], [ 27.399768, 57.624338 ], [ 27.388268, 57.621373 ], [ 27.388618, 57.617265 ], [ 27.401708, 57.616505 ], [ 27.404202, 57.612843 ], [ 27.384614, 57.60343 ], [ 27.378356, 57.596834 ], [ 27.355716, 57.597275 ], [ 27.341666, 57.590901 ], [ 27.33891, 57.585483 ], [ 27.32008, 57.578982 ], [ 27.330092, 57.570129 ], [ 27.330474, 57.560478 ], [ 27.335006, 57.558581 ], [ 27.336986, 57.554774 ], [ 27.336384, 57.546993 ], [ 27.342607, 57.543729 ], [ 27.34841, 57.534949 ], [ 27.351579, 57.518237 ], [ 27.350638, 57.517714 ], [ 27.345967, 57.521867 ], [ 27.325258, 57.524004 ], [ 27.29804, 57.539173 ], [ 27.280953, 57.537903 ], [ 27.275552, 57.54327 ], [ 27.266807, 57.54467 ], [ 27.264722, 57.548591 ], [ 27.259963, 57.550206 ], [ 27.246086, 57.549046 ], [ 27.224744, 57.554416 ], [ 27.19403, 57.550888 ], [ 27.162109, 57.560206 ], [ 27.148209, 57.560982 ], [ 27.125976, 57.561758 ], [ 27.102678, 57.565937 ], [ 27.089022, 57.574473 ], [ 27.086314, 57.576581 ], [ 27.074336, 57.57736 ], [ 27.069986, 57.580644 ], [ 27.057394, 57.58223 ], [ 27.048513, 57.580879 ], [ 27.035185, 57.584952 ], [ 27.041159, 57.588046 ], [ 27.044065, 57.596388 ], [ 27.031049, 57.604271 ], [ 26.996712, 57.604715 ], [ 26.992555, 57.61014 ], [ 26.987875, 57.609608 ], [ 26.977218, 57.612458 ], [ 26.970207, 57.605215 ], [ 26.960056, 57.605928 ], [ 26.945795, 57.603282 ], [ 26.940698, 57.608914 ], [ 26.950478, 57.615364 ], [ 26.950399, 57.61958 ], [ 26.940297, 57.62025 ], [ 26.930036, 57.624316 ], [ 26.926342, 57.633293 ], [ 26.905525, 57.63258 ], [ 26.895752, 57.626 ], [ 26.879902, 57.62025 ], [ 26.873086, 57.618197 ], [ 26.865604, 57.615942 ], [ 26.858784, 57.610113 ], [ 26.863471, 57.607885 ], [ 26.858125, 57.600353 ], [ 26.862038, 57.59273 ], [ 26.847189, 57.589169 ], [ 26.835452, 57.583406 ], [ 26.816768, 57.581871 ], [ 26.808624, 57.584239 ], [ 26.799263, 57.582371 ], [ 26.793921, 57.574335 ], [ 26.787814, 57.574877 ], [ 26.782022, 57.57212 ], [ 26.776289, 57.563045 ], [ 26.776289, 57.561008 ], [ 26.776289, 57.559984 ], [ 26.755802, 57.563387 ], [ 26.771812, 57.57303 ], [ 26.769099, 57.576637 ], [ 26.750521, 57.577805 ], [ 26.751357, 57.580724 ], [ 26.738204, 57.58711 ], [ 26.72904, 57.58025 ], [ 26.736939, 57.575803 ], [ 26.731203, 57.570002 ], [ 26.72577, 57.571278 ], [ 26.723297, 57.571858 ], [ 26.709327, 57.566661 ], [ 26.698716, 57.570663 ], [ 26.693563, 57.566502 ], [ 26.67604, 57.566322 ], [ 26.671654, 57.563672 ], [ 26.670414, 57.554338 ], [ 26.647018, 57.553305 ], [ 26.64263, 57.546861 ], [ 26.633605, 57.542838 ], [ 26.615231, 57.529429 ], [ 26.616547, 57.50931 ], [ 26.605747, 57.512061 ], [ 26.604114, 57.514301 ], [ 26.59594, 57.514554 ], [ 26.589872, 57.516927 ], [ 26.591703, 57.520402 ], [ 26.586901, 57.529887 ], [ 26.588431, 57.535992 ], [ 26.584929, 57.539143 ], [ 26.578301, 57.534068 ], [ 26.562078, 57.528102 ], [ 26.561528, 57.523338 ], [ 26.56533, 57.519456 ], [ 26.559358, 57.514841 ], [ 26.524906, 57.516247 ], [ 26.499887, 57.525074 ], [ 26.490572, 57.545959 ], [ 26.468086, 57.575482 ], [ 26.453985, 57.574804 ], [ 26.445104, 57.57437 ], [ 26.440756, 57.574158 ], [ 26.424738, 57.573369 ], [ 26.400384, 57.572546 ], [ 26.346283, 57.583669 ], [ 26.335059, 57.579631 ], [ 26.328308, 57.58016 ], [ 26.324231, 57.583405 ], [ 26.312659, 57.584673 ], [ 26.315352, 57.587271 ], [ 26.310873, 57.58838 ], [ 26.309096, 57.59311 ], [ 26.287067, 57.591975 ], [ 26.283113, 57.595546 ], [ 26.273039, 57.598438 ], [ 26.271501, 57.600842 ], [ 26.266281, 57.609002 ], [ 26.255588, 57.614654 ], [ 26.253455, 57.618555 ], [ 26.255104, 57.620812 ], [ 26.248487, 57.620916 ], [ 26.24973, 57.625202 ], [ 26.252495, 57.625941 ], [ 26.241136, 57.633787 ], [ 26.246901, 57.635865 ], [ 26.246241, 57.638735 ], [ 26.240429, 57.645605 ], [ 26.233015, 57.648009 ], [ 26.242148, 57.651425 ], [ 26.238765, 57.657424 ], [ 26.228108, 57.659134 ], [ 26.21349, 57.665532 ], [ 26.211159, 57.67936 ], [ 26.203106, 57.680942 ], [ 26.196827, 57.684796 ], [ 26.18651, 57.685391 ], [ 26.179316, 57.687608 ], [ 26.188707, 57.694976 ], [ 26.204894, 57.71494 ], [ 26.197858, 57.71976 ], [ 26.180355, 57.726818 ], [ 26.17156, 57.729497 ], [ 26.143496, 57.73344 ], [ 26.138072, 57.7394 ], [ 26.141007, 57.74515 ], [ 26.136486, 57.750237 ], [ 26.114303, 57.755919 ], [ 26.085068, 57.764819 ], [ 26.079837, 57.765814 ], [ 26.075347, 57.764806 ], [ 26.070111, 57.766437 ], [ 26.065335, 57.764232 ], [ 26.058979, 57.761297 ], [ 26.05053, 57.761961 ], [ 26.044483, 57.767446 ], [ 26.035907, 57.77083 ], [ 26.024847, 57.76912 ], [ 26.021426, 57.771253 ], [ 26.02631, 57.774715 ], [ 26.025591, 57.783742 ], [ 26.033565, 57.793586 ], [ 26.033937, 57.794604 ], [ 26.03492, 57.798843 ], [ 26.039128, 57.810507 ], [ 26.050194, 57.822495 ], [ 26.058213, 57.836878 ], [ 26.056459, 57.848431 ], [ 26.036447, 57.850064 ], [ 26.021129, 57.846693 ], [ 26.011006, 57.857647 ], [ 26.001025, 57.858841 ], [ 25.962499, 57.846263 ], [ 25.932105, 57.853141 ], [ 25.916609, 57.852245 ], [ 25.896369, 57.850588 ], [ 25.888127, 57.847054 ], [ 25.884599, 57.84977 ], [ 25.885665, 57.855794 ], [ 25.877307, 57.859092 ], [ 25.875724, 57.864471 ], [ 25.858595, 57.857656 ], [ 25.821556, 57.864959 ], [ 25.786101, 57.898273 ], [ 25.786125, 57.905677 ], [ 25.772734, 57.912466 ], [ 25.748648, 57.919246 ], [ 25.737461, 57.923771 ], [ 25.728215, 57.922225 ], [ 25.720301, 57.912913 ], [ 25.703259, 57.90332 ], [ 25.680148, 57.904539 ], [ 25.676653, 57.912391 ], [ 25.650029, 57.916443 ], [ 25.646902, 57.922717 ], [ 25.637777, 57.930789 ], [ 25.609547, 57.937477 ], [ 25.581883, 57.94403 ], [ 25.592047, 57.955942 ], [ 25.592746, 57.961316 ], [ 25.577852, 57.972655 ], [ 25.571762, 57.971807 ], [ 25.564719, 57.96317 ], [ 25.558745, 57.961402 ], [ 25.549068, 57.971915 ], [ 25.528972, 57.971694 ], [ 25.521373, 57.968382 ], [ 25.515006, 57.968974 ], [ 25.514375, 57.970586 ], [ 25.520936, 57.975181 ], [ 25.517589, 57.979277 ], [ 25.485854, 57.974814 ], [ 25.476734, 57.983247 ], [ 25.458019, 57.990232 ], [ 25.444888, 57.995132 ], [ 25.449248, 58.000563 ], [ 25.458019, 58.003288 ], [ 25.464969, 58.005447 ], [ 25.458019, 58.010398 ], [ 25.451211, 58.015247 ], [ 25.407654, 58.028976 ], [ 25.373682, 58.029177 ], [ 25.365746, 58.031074 ], [ 25.337511, 58.055598 ], [ 25.329275, 58.059617 ], [ 25.317359, 58.06984 ], [ 25.296653, 58.080741 ], [ 25.28742, 58.081265 ], [ 25.281289, 58.070719 ], [ 25.266921, 58.06712 ], [ 25.265153, 58.060854 ], [ 25.278915, 58.051175 ], [ 25.293666, 58.045949 ], [ 25.296653, 58.042532 ], [ 25.30291, 58.035374 ], [ 25.301335, 58.018403 ], [ 25.297641, 58.013625 ], [ 25.302209, 58.000578 ], [ 25.297189, 57.99846 ], [ 25.300005, 57.993544 ], [ 25.283114, 57.990445 ], [ 25.269983, 57.993927 ], [ 25.257972, 57.994499 ], [ 25.254902, 58.002563 ], [ 25.245868, 58.002958 ], [ 25.230227, 58.016846 ], [ 25.242623, 58.018547 ], [ 25.243823, 58.020451 ], [ 25.233452, 58.024353 ], [ 25.225125, 58.023258 ], [ 25.219869, 58.030007 ], [ 25.219532, 58.031602 ], [ 25.217689, 58.040328 ], [ 25.227591, 58.051715 ], [ 25.224068, 58.052762 ], [ 25.218259, 58.051309 ], [ 25.215171, 58.059625 ], [ 25.205164, 58.063259 ], [ 25.205654, 58.066164 ], [ 25.215248, 58.074319 ], [ 25.208516, 58.08211 ], [ 25.198329, 58.084425 ], [ 25.191451, 58.080744 ], [ 25.189812, 58.076726 ], [ 25.18468, 58.075813 ], [ 25.156665, 58.075044 ], [ 25.133579, 58.079502 ], [ 25.109331, 58.077923 ], [ 25.105899, 58.075791 ], [ 25.105101, 58.066228 ], [ 25.076853, 58.065916 ], [ 25.046307, 58.040146 ], [ 25.035903, 58.031602 ], [ 25.018565, 58.017359 ], [ 24.994453, 58.011083 ], [ 24.948114, 58.008999 ], [ 24.866194, 57.980907 ], [ 24.854981, 57.97807 ], [ 24.834083, 57.972779 ], [ 24.830659, 57.973265 ], [ 24.809621, 57.989429 ], [ 24.805369, 57.990129 ], [ 24.743435, 57.982029 ], [ 24.743189, 57.965528 ], [ 24.73403, 57.962717 ], [ 24.714819, 57.962039 ], [ 24.692197, 57.947015 ], [ 24.678076, 57.9561 ], [ 24.673099, 57.959147 ], [ 24.645337, 57.958936 ], [ 24.642106, 57.955004 ], [ 24.644359, 57.952006 ], [ 24.627065, 57.942181 ], [ 24.616087, 57.944099 ], [ 24.615149, 57.945066 ], [ 24.608888, 57.951519 ], [ 24.586418, 57.961356 ], [ 24.576935, 57.956798 ], [ 24.57196, 57.954198 ], [ 24.552842, 57.950545 ], [ 24.542818, 57.945264 ], [ 24.531255, 57.946616 ], [ 24.522179, 57.943877 ], [ 24.517875, 57.937018 ], [ 24.510877, 57.934838 ], [ 24.511473, 57.930649 ], [ 24.461373, 57.923955 ], [ 24.446432, 57.908633 ], [ 24.458538, 57.906175 ], [ 24.452835, 57.899048 ], [ 24.458069, 57.879622 ], [ 24.41232, 57.865078 ], [ 24.407975, 57.871677 ], [ 24.381127, 57.874469 ], [ 24.375871, 57.875025 ], [ 24.36649, 57.875782 ], [ 24.358306, 57.87461 ], [ 24.352818, 57.876556 ], [ 24.357657, 57.882871 ], [ 24.360968, 57.894474 ], [ 24.385647, 57.924092 ], [ 24.390239, 57.950324 ], [ 24.397934, 57.957718 ], [ 24.4058, 57.977589 ], [ 24.421084, 57.997183 ], [ 24.429327, 57.999798 ], [ 24.441161, 58.006791 ], [ 24.446139, 58.013234 ], [ 24.452212, 58.030035 ], [ 24.453414, 58.031602 ], [ 24.473708, 58.058073 ], [ 24.480392, 58.076738 ], [ 24.480392, 58.084834 ], [ 24.47715, 58.087869 ], [ 24.477417, 58.092214 ], [ 24.46976, 58.096786 ], [ 24.468124, 58.103106 ], [ 24.461889, 58.104922 ], [ 24.473656, 58.107565 ], [ 24.478301, 58.116572 ], [ 24.47568, 58.128933 ], [ 24.481638, 58.132251 ], [ 24.475026, 58.140724 ], [ 24.478989, 58.146923 ], [ 24.478552, 58.154026 ], [ 24.468277, 58.162505 ], [ 24.471122, 58.172915 ], [ 24.462672, 58.175474 ], [ 24.45539, 58.173794 ], [ 24.453355, 58.175257 ], [ 24.462672, 58.189487 ], [ 24.466832, 58.194553 ], [ 24.466386, 58.200537 ], [ 24.462672, 58.201786 ], [ 24.457248, 58.202278 ], [ 24.46053, 58.206507 ], [ 24.466602, 58.215345 ], [ 24.476085, 58.218896 ], [ 24.478185, 58.222201 ], [ 24.47458, 58.225337 ], [ 24.482354, 58.235544 ], [ 24.479951, 58.240915 ], [ 24.469729, 58.245179 ], [ 24.470204, 58.247062 ], [ 24.482425, 58.248039 ], [ 24.489321, 58.257278 ], [ 24.508756, 58.261499 ], [ 24.518756, 58.265714 ], [ 24.519965, 58.268931 ], [ 24.544929, 58.273917 ], [ 24.553356, 58.277335 ], [ 24.560485, 58.285392 ], [ 24.57381, 58.29007 ], [ 24.584058, 58.2992 ], [ 24.586923, 58.304614 ], [ 24.583591, 58.320766 ], [ 24.575447, 58.332888 ], [ 24.564281, 58.342073 ], [ 24.566429, 58.344099 ], [ 24.559771, 58.345512 ], [ 24.553356, 58.352317 ], [ 24.546709, 58.357067 ], [ 24.538373, 58.360455 ], [ 24.523685, 58.366424 ], [ 24.476254, 58.377295 ], [ 24.469985, 58.3752 ], [ 24.451272, 58.384949 ], [ 24.419805, 58.387611 ], [ 24.390874, 58.386762 ], [ 24.372112, 58.386211 ], [ 24.329375, 58.383562 ], [ 24.313876, 58.381358 ], [ 24.304568, 58.378383 ], [ 24.292938, 58.365135 ], [ 24.292609, 58.360455 ], [ 24.290185, 58.325973 ], [ 24.278529, 58.3046 ], [ 24.277842, 58.297088 ], [ 24.26529, 58.285561 ], [ 24.267758, 58.278596 ], [ 24.264874, 58.276492 ], [ 24.257748, 58.276327 ], [ 24.251487, 58.274272 ], [ 24.232251, 58.272933 ], [ 24.223273, 58.269456 ], [ 24.22038, 58.268783 ], [ 24.216335, 58.271639 ], [ 24.205084, 58.266829 ], [ 24.194226, 58.268146 ], [ 24.184441, 58.26581 ], [ 24.174782, 58.269365 ], [ 24.170309, 58.268836 ], [ 24.159696, 58.257004 ], [ 24.149678, 58.252114 ], [ 24.138889, 58.250231 ], [ 24.134909, 58.245848 ], [ 24.121717, 58.240728 ], [ 24.12078, 58.233331 ], [ 24.116066, 58.233225 ], [ 24.109082, 58.240528 ], [ 24.094871, 58.245744 ], [ 24.083202, 58.248043 ], [ 24.07364, 58.252702 ], [ 24.063335, 58.263002 ], [ 24.058016, 58.273613 ], [ 24.042952, 58.287871 ], [ 24.037509, 58.298452 ], [ 24.022516, 58.30414 ], [ 24.011149, 58.318717 ], [ 24.000397, 58.319865 ], [ 24.000527, 58.308719 ], [ 24.003341, 58.303713 ], [ 23.999651, 58.299015 ], [ 23.984037, 58.312705 ], [ 23.980988, 58.315378 ], [ 23.976798, 58.314384 ], [ 23.979554, 58.31089 ], [ 23.97764, 58.30984 ], [ 23.959364, 58.32365 ], [ 23.956111, 58.324857 ], [ 23.95029, 58.327016 ], [ 23.944659, 58.326422 ], [ 23.935535, 58.323377 ], [ 23.925816, 58.325776 ], [ 23.912819, 58.328985 ], [ 23.907554, 58.317515 ], [ 23.901649, 58.31567 ], [ 23.876093, 58.324448 ], [ 23.853522, 58.347758 ], [ 23.839135, 58.358746 ], [ 23.828843, 58.357693 ], [ 23.826667, 58.350681 ], [ 23.821814, 58.347137 ], [ 23.82505, 58.34056 ], [ 23.821225, 58.339661 ], [ 23.810159, 58.341782 ], [ 23.79853, 58.347922 ], [ 23.795782, 58.344118 ], [ 23.791552, 58.343976 ], [ 23.786933, 58.347651 ], [ 23.769199, 58.355261 ], [ 23.767724, 58.351159 ], [ 23.763046, 58.348215 ], [ 23.756533, 58.350956 ], [ 23.75363, 58.349875 ], [ 23.757136, 58.342634 ], [ 23.76349, 58.346207 ], [ 23.767635, 58.345964 ], [ 23.764434, 58.342892 ], [ 23.763902, 58.335582 ], [ 23.760781, 58.33489 ], [ 23.750451, 58.338918 ], [ 23.739939, 58.34829 ], [ 23.74539, 58.353731 ], [ 23.744063, 58.360455 ], [ 23.737521, 58.36523 ], [ 23.731153, 58.366272 ], [ 23.734371, 58.36897 ], [ 23.732525, 58.374401 ], [ 23.718568, 58.38564 ], [ 23.714133, 58.399193 ], [ 23.700959, 58.41596 ], [ 23.686433, 58.429934 ], [ 23.678264, 58.432587 ], [ 23.682639, 58.437925 ], [ 23.679646, 58.44334 ], [ 23.682806, 58.446414 ], [ 23.680918, 58.451057 ], [ 23.685458, 58.457244 ], [ 23.682474, 58.464028 ], [ 23.683434, 58.470239 ], [ 23.691162, 58.483653 ], [ 23.690173, 58.488875 ], [ 23.683846, 58.493668 ], [ 23.691077, 58.50058 ], [ 23.691515, 58.503852 ], [ 23.681484, 58.510573 ], [ 23.681748, 58.515651 ], [ 23.687937, 58.519574 ], [ 23.682839, 58.521612 ], [ 23.681373, 58.52428 ], [ 23.676746, 58.524566 ], [ 23.674669, 58.530175 ], [ 23.662359, 58.52336 ], [ 23.662955, 58.517066 ], [ 23.653724, 58.514277 ], [ 23.651798, 58.518966 ], [ 23.641541, 58.519234 ], [ 23.629059, 58.52573 ], [ 23.625701, 58.530872 ], [ 23.617281, 58.535681 ], [ 23.613327, 58.536539 ], [ 23.609122, 58.53511 ], [ 23.5976, 58.53698 ], [ 23.600705, 58.545504 ], [ 23.579305, 58.548675 ], [ 23.581656, 58.555916 ], [ 23.579845, 58.560579 ], [ 23.571593, 58.559812 ], [ 23.568014, 58.561367 ], [ 23.568025, 58.563994 ], [ 23.573153, 58.567973 ], [ 23.573179, 58.571794 ], [ 23.581856, 58.578576 ], [ 23.581114, 58.581375 ], [ 23.563711, 58.580389 ], [ 23.556998, 58.572489 ], [ 23.548983, 58.568665 ], [ 23.555261, 58.565148 ], [ 23.55795, 58.559494 ], [ 23.553, 58.553941 ], [ 23.547608, 58.554308 ], [ 23.547653, 58.561582 ], [ 23.539071, 58.561845 ], [ 23.5268, 58.564902 ], [ 23.510835, 58.56152 ], [ 23.505504, 58.563105 ], [ 23.501441, 58.568503 ], [ 23.508962, 58.573685 ], [ 23.52064, 58.574634 ], [ 23.520941, 58.581536 ], [ 23.5268, 58.590341 ], [ 23.530483, 58.592195 ], [ 23.536999, 58.592221 ], [ 23.538874, 58.594072 ], [ 23.534188, 58.598195 ], [ 23.5268, 58.59649 ], [ 23.524522, 58.597006 ], [ 23.5268, 58.603293 ], [ 23.529616, 58.611063 ], [ 23.5268, 58.613869 ], [ 23.515019, 58.625785 ], [ 23.506209, 58.639998 ], [ 23.509006, 58.645718 ], [ 23.503221, 58.653244 ], [ 23.501642, 58.655299 ], [ 23.508649, 58.67064 ], [ 23.501189, 58.675863 ], [ 23.503163, 58.680837 ], [ 23.497317, 58.684331 ], [ 23.495964, 58.68817 ], [ 23.501812, 58.691025 ], [ 23.515536, 58.693427 ], [ 23.515918, 58.697301 ], [ 23.510989, 58.701982 ], [ 23.513694, 58.706394 ], [ 23.5268, 58.701648 ], [ 23.529814, 58.700366 ], [ 23.56881, 58.704251 ], [ 23.577143, 58.710152 ], [ 23.555825, 58.716473 ], [ 23.551116, 58.71954 ], [ 23.539352, 58.721402 ], [ 23.530642, 58.72494 ], [ 23.536006, 58.731884 ], [ 23.530744, 58.734296 ], [ 23.5268, 58.735225 ], [ 23.524909, 58.735671 ], [ 23.524164, 58.737532 ], [ 23.5268, 58.738146 ], [ 23.535563, 58.740034 ], [ 23.542995, 58.739329 ], [ 23.580305, 58.727657 ], [ 23.595023, 58.726947 ], [ 23.613308, 58.730593 ], [ 23.62098, 58.733997 ], [ 23.634153, 58.7328 ], [ 23.642227, 58.734973 ], [ 23.650211, 58.731625 ], [ 23.657254, 58.731224 ], [ 23.662798, 58.733727 ], [ 23.652973, 58.736828 ], [ 23.657463, 58.744522 ], [ 23.668598, 58.744188 ], [ 23.67759, 58.747607 ], [ 23.68876, 58.745088 ], [ 23.69754, 58.747268 ], [ 23.700959, 58.746168 ], [ 23.707552, 58.744046 ], [ 23.716084, 58.747395 ], [ 23.723826, 58.745943 ], [ 23.731592, 58.742213 ], [ 23.751736, 58.737896 ], [ 23.759498, 58.742471 ], [ 23.783809, 58.739188 ], [ 23.801737, 58.744401 ], [ 23.800976, 58.750483 ], [ 23.790864, 58.752822 ], [ 23.781396, 58.752709 ], [ 23.770941, 58.762129 ], [ 23.764063, 58.762494 ], [ 23.757463, 58.767741 ], [ 23.7512, 58.768669 ], [ 23.74889, 58.76936 ], [ 23.750317, 58.771975 ], [ 23.746204, 58.778136 ], [ 23.747172, 58.782842 ], [ 23.736857, 58.784258 ], [ 23.728445, 58.783612 ], [ 23.7269, 58.787502 ], [ 23.719559, 58.787222 ], [ 23.700959, 58.781004 ], [ 23.688863, 58.776959 ], [ 23.674022, 58.777865 ], [ 23.659893, 58.77872 ], [ 23.641444, 58.785747 ], [ 23.612703, 58.786319 ], [ 23.588344, 58.78221 ], [ 23.580751, 58.780851 ], [ 23.573035, 58.774072 ], [ 23.552433, 58.769517 ], [ 23.5268, 58.775284 ], [ 23.520012, 58.776811 ], [ 23.503377, 58.77629 ], [ 23.477995, 58.771083 ], [ 23.466922, 58.77059 ], [ 23.462079, 58.769756 ], [ 23.453955, 58.764985 ], [ 23.447052, 58.765072 ], [ 23.455671, 58.771019 ], [ 23.460636, 58.778608 ], [ 23.458478, 58.782613 ], [ 23.453796, 58.78458 ], [ 23.454351, 58.790381 ], [ 23.466922, 58.788598 ], [ 23.470065, 58.78906 ], [ 23.472226, 58.790376 ], [ 23.470466, 58.793282 ], [ 23.474077, 58.794587 ], [ 23.473601, 58.798502 ], [ 23.484224, 58.798678 ], [ 23.489049, 58.802011 ], [ 23.480045, 58.808796 ], [ 23.481675, 58.816233 ], [ 23.478068, 58.816835 ], [ 23.469199, 58.81352 ], [ 23.466922, 58.813488 ], [ 23.462656, 58.813428 ], [ 23.459283, 58.810926 ], [ 23.455812, 58.811159 ], [ 23.440824, 58.818942 ], [ 23.436799, 58.825575 ], [ 23.435485, 58.827739 ], [ 23.436234, 58.831114 ], [ 23.444187, 58.833174 ], [ 23.464068, 58.825575 ], [ 23.466922, 58.824484 ], [ 23.484605, 58.82101 ], [ 23.491035, 58.816723 ], [ 23.490208, 58.809916 ], [ 23.508178, 58.804788 ], [ 23.518097, 58.80395 ], [ 23.52699, 58.806423 ], [ 23.533818, 58.810623 ], [ 23.533193, 58.814372 ], [ 23.526324, 58.819203 ], [ 23.526491, 58.825575 ], [ 23.526606, 58.829997 ], [ 23.52289, 58.83518 ], [ 23.508308, 58.844939 ], [ 23.499328, 58.845636 ], [ 23.492481, 58.852231 ], [ 23.486575, 58.854405 ], [ 23.483531, 58.863681 ], [ 23.474323, 58.872682 ], [ 23.44314, 58.887924 ], [ 23.443362, 58.889704 ], [ 23.449253, 58.88923 ], [ 23.451924, 58.890387 ], [ 23.453114, 58.900796 ], [ 23.445626, 58.902843 ], [ 23.434293, 58.901952 ], [ 23.425016, 58.9062 ], [ 23.424789, 58.913865 ], [ 23.431327, 58.923729 ], [ 23.428209, 58.932778 ], [ 23.430771, 58.937917 ], [ 23.428344, 58.941291 ], [ 23.440482, 58.940387 ], [ 23.453602, 58.942639 ], [ 23.466852, 58.934914 ], [ 23.475809, 58.933535 ], [ 23.48592, 58.935499 ], [ 23.507395, 58.942784 ], [ 23.52572, 58.941586 ], [ 23.527561, 58.945245 ], [ 23.51794, 58.955404 ], [ 23.518842, 58.960266 ], [ 23.526622, 58.9581 ], [ 23.536599, 58.951295 ], [ 23.560219, 58.94685 ], [ 23.566826, 58.951093 ], [ 23.584386, 58.953527 ], [ 23.596773, 58.960811 ], [ 23.597548, 58.966467 ], [ 23.592534, 58.973148 ], [ 23.605753, 58.97476 ], [ 23.624836, 58.974072 ], [ 23.640182, 58.964885 ], [ 23.653155, 58.961224 ], [ 23.657842, 58.965379 ], [ 23.656045, 58.971457 ], [ 23.662875, 58.973372 ], [ 23.660216, 58.983303 ], [ 23.646164, 58.989721 ], [ 23.646765, 58.994333 ], [ 23.637032, 58.996805 ], [ 23.622343, 59.00475 ], [ 23.615161, 59.003854 ], [ 23.611558, 58.999194 ], [ 23.617852, 58.99099 ], [ 23.624799, 58.986634 ], [ 23.622201, 58.980503 ], [ 23.603438, 58.991583 ], [ 23.598366, 59.000147 ], [ 23.58927, 58.998555 ], [ 23.581593, 59.005309 ], [ 23.572067, 59.004674 ], [ 23.568837, 58.982509 ], [ 23.572735, 58.97421 ], [ 23.566953, 58.968938 ], [ 23.548181, 58.963692 ], [ 23.541433, 58.970001 ], [ 23.51107, 58.980609 ], [ 23.501824, 58.981274 ], [ 23.479293, 58.977448 ], [ 23.466922, 58.98052 ], [ 23.457575, 58.98284 ], [ 23.424851, 59.00288 ], [ 23.40743, 59.024391 ], [ 23.411921, 59.027827 ], [ 23.426168, 59.022711 ], [ 23.439355, 59.021798 ], [ 23.446711, 59.029746 ], [ 23.442139, 59.037436 ], [ 23.42961, 59.042804 ], [ 23.433247, 59.054572 ], [ 23.430529, 59.065187 ], [ 23.435391, 59.076075 ], [ 23.466922, 59.074332 ], [ 23.475858, 59.073837 ], [ 23.485107, 59.077481 ], [ 23.488337, 59.082526 ], [ 23.49071, 59.083518 ], [ 23.501686, 59.088107 ], [ 23.50933, 59.094449 ], [ 23.515973, 59.094434 ], [ 23.532928, 59.090086 ], [ 23.540541, 59.09249 ], [ 23.52736, 59.117504 ], [ 23.528441, 59.131844 ], [ 23.51672, 59.140819 ], [ 23.515828, 59.153678 ], [ 23.511626, 59.163879 ], [ 23.505363, 59.169757 ], [ 23.491654, 59.176922 ], [ 23.485877, 59.192255 ], [ 23.491366, 59.20782 ], [ 23.503854, 59.210764 ], [ 23.508771, 59.213754 ], [ 23.514388, 59.226394 ], [ 23.526008, 59.224753 ], [ 23.536807, 59.216794 ], [ 23.541321, 59.21581 ], [ 23.564506, 59.21501 ], [ 23.598624, 59.221408 ], [ 23.608911, 59.226506 ], [ 23.621574, 59.23278 ], [ 23.63862, 59.23605 ], [ 23.648892, 59.243789 ], [ 23.658447, 59.247197 ], [ 23.667415, 59.243931 ], [ 23.669071, 59.239396 ], [ 23.673888, 59.235797 ], [ 23.694126, 59.229562 ], [ 23.700959, 59.22985 ], [ 23.70925, 59.230199 ], [ 23.730576, 59.237324 ], [ 23.741143, 59.245762 ], [ 23.744047, 59.253242 ], [ 23.741486, 59.256013 ], [ 23.731795, 59.25962 ], [ 23.732241, 59.27218 ], [ 23.742157, 59.270741 ], [ 23.752408, 59.272543 ], [ 23.768157, 59.270818 ], [ 23.777187, 59.274134 ], [ 23.786396, 59.283641 ], [ 23.822842, 59.288654 ], [ 23.843636, 59.28414 ], [ 23.861476, 59.276728 ], [ 23.875216, 59.275344 ], [ 23.884104, 59.270424 ], [ 23.904939, 59.276864 ], [ 23.907145, 59.277546 ], [ 23.925816, 59.274419 ], [ 23.944659, 59.271264 ], [ 23.947672, 59.270759 ], [ 23.956111, 59.271994 ], [ 23.963074, 59.273013 ], [ 23.971508, 59.277604 ], [ 23.984037, 59.281119 ], [ 24.027851, 59.287557 ], [ 24.034599, 59.289727 ], [ 24.046346, 59.285369 ], [ 24.066012, 59.281725 ], [ 24.080894, 59.281203 ], [ 24.081518, 59.277153 ], [ 24.074876, 59.270999 ], [ 24.078381, 59.269159 ], [ 24.087048, 59.269824 ], [ 24.109469, 59.286328 ], [ 24.113013, 59.293385 ], [ 24.110944, 59.298526 ], [ 24.117002, 59.304422 ], [ 24.115661, 59.311118 ], [ 24.102945, 59.327602 ], [ 24.075603, 59.334847 ], [ 24.046726, 59.351874 ], [ 24.040543, 59.358452 ], [ 24.036097, 59.373221 ], [ 24.035212, 59.385093 ], [ 24.039055, 59.388862 ], [ 24.04392, 59.389456 ], [ 24.061788, 59.385376 ], [ 24.07592, 59.384885 ], [ 24.096161, 59.378447 ], [ 24.14989, 59.365706 ], [ 24.15893, 59.356514 ], [ 24.17332, 59.351667 ], [ 24.175811, 59.350827 ], [ 24.185278, 59.345746 ], [ 24.203938, 59.34095 ], [ 24.221135, 59.341208 ], [ 24.241251, 59.344661 ], [ 24.247131, 59.354344 ], [ 24.246698, 59.359135 ], [ 24.231795, 59.376856 ], [ 24.213634, 59.386081 ], [ 24.19326, 59.389891 ], [ 24.185883, 59.394113 ], [ 24.192409, 59.404112 ], [ 24.196429, 59.405567 ], [ 24.203115, 59.405119 ], [ 24.204481, 59.398821 ], [ 24.211744, 59.395715 ], [ 24.223477, 59.393756 ], [ 24.235147, 59.394719 ], [ 24.259731, 59.403273 ], [ 24.267122, 59.404085 ], [ 24.272536, 59.40346 ], [ 24.282502, 59.405444 ], [ 24.294309, 59.411321 ], [ 24.301581, 59.412471 ], [ 24.311199, 59.416575 ], [ 24.322196, 59.42077 ], [ 24.33847, 59.424127 ], [ 24.344683, 59.428501 ], [ 24.351498, 59.438496 ], [ 24.345885, 59.445417 ], [ 24.346986, 59.455322 ], [ 24.350141, 59.463133 ], [ 24.361041, 59.46765 ], [ 24.363541, 59.471471 ], [ 24.37384, 59.474419 ], [ 24.384739, 59.472963 ], [ 24.390874, 59.472967 ], [ 24.425991, 59.472989 ], [ 24.432979, 59.471205 ], [ 24.462439, 59.468553 ], [ 24.486227, 59.455322 ], [ 24.490272, 59.449864 ], [ 24.496767, 59.447312 ], [ 24.526357, 59.442821 ], [ 24.541183, 59.437937 ], [ 24.550285, 59.438758 ], [ 24.562716, 59.441561 ], [ 24.572659, 59.446719 ], [ 24.575053, 59.451937 ], [ 24.570607, 59.45966 ], [ 24.574135, 59.461149 ], [ 24.584166, 59.458747 ], [ 24.615149, 59.446198 ], [ 24.653938, 59.430481 ], [ 24.664933, 59.430036 ], [ 24.678345, 59.435928 ], [ 24.683648, 59.444288 ], [ 24.682925, 59.447838 ], [ 24.671964, 59.451268 ], [ 24.652034, 59.462034 ], [ 24.647377, 59.468428 ], [ 24.659151, 59.466903 ], [ 24.669557, 59.463631 ], [ 24.689099, 59.465645 ], [ 24.696051, 59.473043 ], [ 24.686585, 59.47953 ], [ 24.688434, 59.484266 ], [ 24.694159, 59.481524 ], [ 24.700911, 59.480595 ], [ 24.708603, 59.48289 ], [ 24.714069, 59.477823 ], [ 24.722576, 59.473796 ], [ 24.716129, 59.464712 ], [ 24.707694, 59.458092 ], [ 24.716495, 59.457989 ], [ 24.725514, 59.452593 ], [ 24.738344, 59.452839 ], [ 24.750016, 59.44788 ], [ 24.765988, 59.448497 ], [ 24.765998, 59.444267 ], [ 24.776779, 59.445421 ], [ 24.790513, 59.44402 ], [ 24.800123, 59.447437 ], [ 24.822619, 59.467109 ], [ 24.828267, 59.467695 ], [ 24.836984, 59.484512 ], [ 24.835661, 59.4886 ], [ 24.825477, 59.494937 ], [ 24.811088, 59.503779 ], [ 24.81116, 59.515312 ], [ 24.79935, 59.521425 ], [ 24.794467, 59.529676 ], [ 24.791214, 59.541378 ], [ 24.797328, 59.566587 ], [ 24.8217, 59.560828 ], [ 24.831881, 59.554851 ], [ 24.848827, 59.553295 ], [ 24.854981, 59.550786 ], [ 24.8576, 59.549717 ], [ 24.864154, 59.550898 ], [ 24.88381, 59.549083 ], [ 24.88813, 59.54276 ], [ 24.894136, 59.538961 ], [ 24.892269, 59.531115 ], [ 24.90901, 59.521425 ], [ 24.911359, 59.520065 ], [ 24.91117, 59.507747 ], [ 24.917548, 59.499643 ], [ 24.930939, 59.495664 ], [ 24.938126, 59.499031 ], [ 24.941358, 59.496234 ], [ 24.951382, 59.496054 ], [ 24.965614, 59.489962 ], [ 24.969649, 59.490288 ], [ 24.965374, 59.492925 ], [ 24.968029, 59.494949 ], [ 24.977167, 59.492767 ], [ 24.98702, 59.493139 ], [ 25.00131, 59.499028 ], [ 25.001744, 59.501346 ], [ 24.996182, 59.50532 ], [ 24.998972, 59.507365 ], [ 25.034562, 59.504432 ], [ 25.038905, 59.504619 ], [ 25.047516, 59.499789 ], [ 25.051787, 59.499231 ], [ 25.061964, 59.501892 ], [ 25.07801, 59.502335 ], [ 25.082609, 59.505348 ], [ 25.088243, 59.505867 ], [ 25.088595, 59.499939 ], [ 25.096224, 59.4934 ], [ 25.108269, 59.489104 ], [ 25.118203, 59.489941 ], [ 25.120837, 59.48412 ], [ 25.134126, 59.479647 ], [ 25.149702, 59.476992 ], [ 25.153133, 59.482998 ], [ 25.169214, 59.49003 ], [ 25.175859, 59.496746 ], [ 25.177031, 59.504269 ], [ 25.174346, 59.50789 ], [ 25.168374, 59.510009 ], [ 25.159813, 59.509725 ], [ 25.144962, 59.521425 ], [ 25.141302, 59.524308 ], [ 25.146038, 59.528168 ], [ 25.147315, 59.537256 ], [ 25.155187, 59.536349 ], [ 25.160272, 59.531728 ], [ 25.169531, 59.52801 ], [ 25.186844, 59.524552 ], [ 25.190903, 59.521425 ], [ 25.197976, 59.513716 ], [ 25.197453, 59.506902 ], [ 25.204668, 59.504467 ], [ 25.218882, 59.503774 ], [ 25.238936, 59.508183 ], [ 25.266806, 59.521425 ], [ 25.270203, 59.527623 ], [ 25.27426, 59.526105 ], [ 25.277056, 59.521425 ], [ 25.277805, 59.520169 ], [ 25.273449, 59.511498 ], [ 25.287343, 59.506136 ], [ 25.296653, 59.504807 ], [ 25.307419, 59.503269 ], [ 25.319321, 59.497826 ], [ 25.338466, 59.493957 ], [ 25.351339, 59.495105 ], [ 25.366696, 59.496474 ], [ 25.398325, 59.491017 ], [ 25.424445, 59.490194 ], [ 25.454198, 59.497552 ], [ 25.462107, 59.504592 ], [ 25.459315, 59.515031 ], [ 25.461405, 59.517195 ], [ 25.481325, 59.520146 ], [ 25.504968, 59.518505 ], [ 25.530088, 59.519753 ], [ 25.542453, 59.52565 ], [ 25.554258, 59.539862 ], [ 25.553074, 59.54638 ], [ 25.541614, 59.552261 ], [ 25.529679, 59.561704 ], [ 25.525443, 59.56894 ], [ 25.525103, 59.576084 ], [ 25.505727, 59.589721 ], [ 25.500988, 59.598522 ], [ 25.494527, 59.603535 ], [ 25.493896, 59.628328 ], [ 25.495961, 59.63578 ], [ 25.502265, 59.640134 ], [ 25.499823, 59.646397 ], [ 25.508681, 59.647752 ], [ 25.517708, 59.644444 ], [ 25.521129, 59.643084 ], [ 25.517708, 59.640596 ], [ 25.517708, 59.63842 ], [ 25.523763, 59.630048 ], [ 25.517708, 59.623372 ], [ 25.517708, 59.620898 ], [ 25.523868, 59.615923 ], [ 25.544605, 59.608789 ], [ 25.554063, 59.609026 ], [ 25.564736, 59.61196 ], [ 25.567009, 59.612585 ], [ 25.571024, 59.612166 ], [ 25.574429, 59.603232 ], [ 25.577712, 59.600863 ], [ 25.587341, 59.598522 ], [ 25.591562, 59.597496 ], [ 25.601187, 59.598522 ], [ 25.603816, 59.598522 ], [ 25.604542, 59.595241 ], [ 25.611756, 59.58858 ], [ 25.612645, 59.583628 ], [ 25.619632, 59.578378 ], [ 25.626901, 59.578776 ], [ 25.636013, 59.570956 ], [ 25.65115, 59.568701 ], [ 25.656491, 59.565141 ], [ 25.66494, 59.563841 ], [ 25.67869, 59.565204 ], [ 25.69843, 59.572736 ], [ 25.706996, 59.579187 ], [ 25.706213, 59.582653 ], [ 25.701707, 59.585113 ], [ 25.706572, 59.592547 ], [ 25.71165, 59.598522 ], [ 25.712456, 59.599471 ], [ 25.712089, 59.602306 ], [ 25.703098, 59.609496 ], [ 25.69553, 59.612825 ], [ 25.689732, 59.612848 ], [ 25.683477, 59.617519 ], [ 25.684784, 59.626772 ], [ 25.681728, 59.636321 ], [ 25.690578, 59.640087 ], [ 25.691114, 59.645919 ], [ 25.684487, 59.65002 ], [ 25.673588, 59.652864 ], [ 25.670772, 59.655883 ], [ 25.698218, 59.667966 ], [ 25.708567, 59.668962 ], [ 25.705554, 59.665008 ], [ 25.706605, 59.65919 ], [ 25.709338, 59.65763 ], [ 25.715161, 59.658089 ], [ 25.717466, 59.655883 ], [ 25.717453, 59.652691 ], [ 25.731178, 59.655883 ], [ 25.728792, 59.657358 ], [ 25.729239, 59.658267 ], [ 25.731365, 59.658194 ], [ 25.737652, 59.655883 ], [ 25.765539, 59.639508 ], [ 25.758302, 59.635301 ], [ 25.764892, 59.625468 ], [ 25.781269, 59.622267 ], [ 25.78443, 59.61999 ], [ 25.777707, 59.612735 ], [ 25.770987, 59.609733 ], [ 25.774786, 59.602262 ], [ 25.779293, 59.599993 ], [ 25.779641, 59.598522 ], [ 25.781793, 59.589435 ], [ 25.778024, 59.582029 ], [ 25.780271, 59.578788 ], [ 25.775522, 59.574388 ], [ 25.78233, 59.569416 ], [ 25.791087, 59.568911 ], [ 25.804245, 59.569935 ], [ 25.810049, 59.568039 ], [ 25.815516, 59.563448 ], [ 25.821556, 59.563702 ], [ 25.83016, 59.564064 ], [ 25.848487, 59.569853 ], [ 25.862319, 59.570579 ], [ 25.870875, 59.576195 ], [ 25.873384, 59.582976 ], [ 25.86789, 59.592203 ], [ 25.870025, 59.598522 ], [ 25.870372, 59.599549 ], [ 25.865746, 59.612636 ], [ 25.868677, 59.621929 ], [ 25.879594, 59.616833 ], [ 25.910267, 59.614702 ], [ 25.917854, 59.610699 ], [ 25.922578, 59.602118 ], [ 25.919975, 59.598522 ], [ 25.911399, 59.586672 ], [ 25.916421, 59.582253 ], [ 25.937487, 59.578342 ], [ 25.958896, 59.579104 ], [ 25.96945, 59.582942 ], [ 25.975401, 59.587767 ], [ 25.976984, 59.593725 ], [ 25.974083, 59.598522 ], [ 25.973378, 59.599688 ], [ 25.974911, 59.60837 ], [ 25.970052, 59.617804 ], [ 25.966465, 59.624765 ], [ 25.966079, 59.631994 ], [ 25.967405, 59.633413 ], [ 25.970052, 59.633416 ], [ 25.974823, 59.633421 ], [ 25.9848, 59.626945 ], [ 25.983431, 59.621149 ], [ 25.998369, 59.613892 ], [ 26.0207, 59.621255 ], [ 26.027386, 59.626805 ], [ 26.037567, 59.623705 ], [ 26.052587, 59.625457 ], [ 26.050098, 59.617679 ], [ 26.05956, 59.613208 ], [ 26.065335, 59.607867 ], [ 26.066903, 59.606416 ], [ 26.092559, 59.601284 ], [ 26.091324, 59.598522 ], [ 26.091356, 59.594541 ], [ 26.100453, 59.587097 ], [ 26.104315, 59.586113 ], [ 26.145971, 59.583855 ], [ 26.221696, 59.586749 ], [ 26.266377, 59.585461 ], [ 26.2828, 59.578513 ], [ 26.290294, 59.572761 ], [ 26.314287, 59.563724 ], [ 26.327643, 59.556465 ], [ 26.34276, 59.555041 ], [ 26.361641, 59.55597 ], [ 26.377944, 59.550634 ], [ 26.420515, 59.547729 ], [ 26.435663, 59.54388 ], [ 26.437374, 59.539614 ], [ 26.447499, 59.535006 ], [ 26.457634, 59.533334 ], [ 26.468035, 59.533944 ], [ 26.480859, 59.520885 ], [ 26.492052, 59.517434 ], [ 26.496602, 59.513899 ], [ 26.505562, 59.512183 ], [ 26.510492, 59.514328 ], [ 26.503377, 59.517689 ], [ 26.53303, 59.520092 ], [ 26.537624, 59.521425 ], [ 26.543808, 59.523218 ], [ 26.545401, 59.521425 ], [ 26.547717, 59.518818 ], [ 26.557107, 59.519101 ], [ 26.567384, 59.521425 ], [ 26.569973, 59.521425 ], [ 26.581851, 59.528276 ], [ 26.588984, 59.535605 ], [ 26.589875, 59.542457 ], [ 26.583923, 59.547663 ], [ 26.592936, 59.551577 ], [ 26.598864, 59.550452 ], [ 26.614482, 59.551146 ], [ 26.626789, 59.546782 ], [ 26.649184, 59.545542 ], [ 26.660411, 59.540611 ], [ 26.665745, 59.538268 ], [ 26.686162, 59.536255 ], [ 26.697251, 59.533322 ], [ 26.710973, 59.528007 ], [ 26.716123, 59.521425 ], [ 26.719455, 59.519317 ], [ 26.72577, 59.519481 ], [ 26.741021, 59.519879 ], [ 26.748356, 59.51394 ], [ 26.744822, 59.507773 ], [ 26.747772, 59.505658 ], [ 26.759396, 59.502966 ], [ 26.759357, 59.499425 ], [ 26.77034, 59.499472 ], [ 26.782155, 59.495173 ], [ 26.785144, 59.49263 ], [ 26.790925, 59.48771 ], [ 26.798558, 59.485693 ], [ 26.840536, 59.473526 ], [ 26.873086, 59.460157 ], [ 26.875838, 59.459027 ], [ 26.883025, 59.459115 ], [ 26.880086, 59.456969 ], [ 26.881391, 59.455194 ], [ 26.900818, 59.446315 ], [ 26.935979, 59.438622 ], [ 26.961107, 59.435893 ], [ 26.989137, 59.43629 ], [ 26.999525, 59.434116 ], [ 27.048936, 59.433495 ], [ 27.103032, 59.436493 ], [ 27.137109, 59.436673 ], [ 27.167819, 59.439182 ], [ 27.200166, 59.441725 ], [ 27.222041, 59.443444 ], [ 27.288808, 59.44352 ], [ 27.375995, 59.446448 ], [ 27.422559, 59.442526 ], [ 27.452472, 59.437184 ], [ 27.484385, 59.431604 ], [ 27.504101, 59.428383 ], [ 27.509547, 59.427494 ], [ 27.533243, 59.427187 ], [ 27.543625, 59.421845 ], [ 27.594168, 59.414559 ], [ 27.680001, 59.415807 ], [ 27.703996, 59.413985 ], [ 27.705827, 59.413846 ], [ 27.710192, 59.416989 ], [ 27.724193, 59.418639 ], [ 27.737038, 59.417939 ], [ 27.758787, 59.401625 ], [ 27.779375, 59.397237 ], [ 27.796775, 59.397277 ], [ 27.809261, 59.394955 ], [ 27.830911, 59.39761 ], [ 27.840921, 59.398281 ], [ 27.861597, 59.402834 ], [ 27.874439, 59.400236 ], [ 27.915463, 59.40214 ], [ 27.93799, 59.408126 ], [ 27.959958, 59.417726 ], [ 27.976939, 59.42393 ], [ 28.005133, 59.440098 ], [ 28.021922, 59.452314 ], [ 28.037315, 59.468409 ], [ 28.041915, 59.47012 ] ], [ [ 26.781096, 57.576213 ], [ 26.785942, 57.575413 ], [ 26.786822, 57.576241 ], [ 26.781957, 57.57861 ], [ 26.782486, 57.580697 ], [ 26.778468, 57.58062 ], [ 26.781096, 57.576213 ] ] ], [ [ [ 22.542035, 58.641549 ], [ 22.545668, 58.635502 ], [ 22.55686, 58.63845 ], [ 22.563647, 58.637559 ], [ 22.569319, 58.636813 ], [ 22.581468, 58.627747 ], [ 22.624981, 58.584102 ], [ 22.63911, 58.579455 ], [ 22.660089, 58.578814 ], [ 22.670533, 58.57945 ], [ 22.683643, 58.585739 ], [ 22.68391, 58.589325 ], [ 22.690741, 58.592746 ], [ 22.68535, 58.597182 ], [ 22.69268, 58.599875 ], [ 22.716001, 58.591522 ], [ 22.715148, 58.586556 ], [ 22.719271, 58.584777 ], [ 22.720808, 58.580017 ], [ 22.727049, 58.57951 ], [ 22.745618, 58.573846 ], [ 22.750493, 58.574009 ], [ 22.759037, 58.580169 ], [ 22.772828, 58.599917 ], [ 22.773142, 58.611751 ], [ 22.785645, 58.620067 ], [ 22.797467, 58.625179 ], [ 22.802444, 58.625313 ], [ 22.832015, 58.617771 ], [ 22.84496, 58.615844 ], [ 22.857783, 58.61976 ], [ 22.876329, 58.625035 ], [ 22.90302, 58.61503 ], [ 22.94449, 58.616699 ], [ 22.953504, 58.614567 ], [ 22.959223, 58.609209 ], [ 22.970365, 58.607529 ], [ 22.980996, 58.602254 ], [ 22.992479, 58.600082 ], [ 22.999495, 58.598755 ], [ 23.016904, 58.591648 ], [ 23.033302, 58.577368 ], [ 23.04387, 58.577087 ], [ 23.058827, 58.573261 ], [ 23.06353, 58.567171 ], [ 23.072524, 58.562149 ], [ 23.086754, 58.562631 ], [ 23.096166, 58.557246 ], [ 23.110498, 58.558096 ], [ 23.131958, 58.553596 ], [ 23.137049, 58.549272 ], [ 23.130567, 58.543102 ], [ 23.134852, 58.538996 ], [ 23.127375, 58.53719 ], [ 23.139494, 58.520266 ], [ 23.159432, 58.511377 ], [ 23.164997, 58.513418 ], [ 23.179256, 58.513822 ], [ 23.197004, 58.511238 ], [ 23.20458, 58.507764 ], [ 23.207767, 58.506303 ], [ 23.217445, 58.501864 ], [ 23.223237, 58.499207 ], [ 23.23204, 58.496982 ], [ 23.23718, 58.495683 ], [ 23.256617, 58.494658 ], [ 23.269764, 58.490451 ], [ 23.27649, 58.485557 ], [ 23.287827, 58.483464 ], [ 23.289902, 58.477618 ], [ 23.300329, 58.47569 ], [ 23.304686, 58.461639 ], [ 23.318222, 58.458503 ], [ 23.323998, 58.453182 ], [ 23.32272, 58.447889 ], [ 23.312312, 58.444381 ], [ 23.306821, 58.430361 ], [ 23.300658, 58.429183 ], [ 23.297856, 58.431082 ], [ 23.296803, 58.436965 ], [ 23.300001, 58.444222 ], [ 23.297159, 58.451619 ], [ 23.283562, 58.448166 ], [ 23.269764, 58.453488 ], [ 23.263211, 58.451653 ], [ 23.260684, 58.455622 ], [ 23.236953, 58.457971 ], [ 23.23204, 58.455503 ], [ 23.228891, 58.453922 ], [ 23.223951, 58.456517 ], [ 23.220939, 58.453451 ], [ 23.222539, 58.450673 ], [ 23.23204, 58.446214 ], [ 23.241036, 58.442201 ], [ 23.25064, 58.441835 ], [ 23.249576, 58.436036 ], [ 23.256757, 58.435274 ], [ 23.248574, 58.426896 ], [ 23.23204, 58.432941 ], [ 23.217445, 58.432147 ], [ 23.210116, 58.44233 ], [ 23.201797, 58.441707 ], [ 23.203028, 58.448539 ], [ 23.198207, 58.45373 ], [ 23.188408, 58.455064 ], [ 23.178755, 58.450707 ], [ 23.173854, 58.452355 ], [ 23.169338, 58.460319 ], [ 23.162872, 58.462792 ], [ 23.165741, 58.46768 ], [ 23.160606, 58.474706 ], [ 23.156317, 58.473687 ], [ 23.149434, 58.460946 ], [ 23.142141, 58.459444 ], [ 23.148652, 58.447152 ], [ 23.154057, 58.442594 ], [ 23.135972, 58.438419 ], [ 23.137166, 58.432838 ], [ 23.130469, 58.431115 ], [ 23.130016, 58.426881 ], [ 23.122749, 58.422278 ], [ 23.123838, 58.419274 ], [ 23.111788, 58.415509 ], [ 23.10775, 58.415846 ], [ 23.104303, 58.41779 ], [ 23.10788, 58.423603 ], [ 23.100162, 58.426797 ], [ 23.092449, 58.425243 ], [ 23.083236, 58.426106 ], [ 23.074149, 58.422702 ], [ 23.069285, 58.404308 ], [ 23.080139, 58.395348 ], [ 23.09058, 58.395328 ], [ 23.091813, 58.384792 ], [ 23.085582, 58.379208 ], [ 23.079333, 58.379478 ], [ 23.066544, 58.383115 ], [ 23.05423, 58.379087 ], [ 23.051032, 58.380755 ], [ 23.051061, 58.384577 ], [ 23.062832, 58.387541 ], [ 23.067844, 58.391514 ], [ 23.062551, 58.39309 ], [ 23.045588, 58.390727 ], [ 23.036824, 58.381343 ], [ 23.041488, 58.375469 ], [ 23.04111, 58.370493 ], [ 23.034393, 58.365272 ], [ 23.039958, 58.360455 ], [ 23.039144, 58.359482 ], [ 23.033683, 58.360455 ], [ 23.028556, 58.361368 ], [ 23.019876, 58.360455 ], [ 23.011122, 58.359534 ], [ 23.003302, 58.360455 ], [ 22.998462, 58.361024 ], [ 22.992479, 58.363446 ], [ 22.985786, 58.366154 ], [ 22.974367, 58.377863 ], [ 22.967284, 58.380837 ], [ 22.965736, 58.384663 ], [ 22.955468, 58.383941 ], [ 22.95599, 58.380438 ], [ 22.94819, 58.374715 ], [ 22.945888, 58.367133 ], [ 22.965337, 58.360455 ], [ 22.967056, 58.349988 ], [ 22.962582, 58.348174 ], [ 22.948526, 58.346886 ], [ 22.941559, 58.334611 ], [ 22.933736, 58.332927 ], [ 22.936151, 58.31987 ], [ 22.923303, 58.315481 ], [ 22.923176, 58.30277 ], [ 22.91279, 58.3008 ], [ 22.887955, 58.30043 ], [ 22.879591, 58.304071 ], [ 22.876961, 58.308949 ], [ 22.878201, 58.31395 ], [ 22.867528, 58.316794 ], [ 22.858981, 58.316395 ], [ 22.859059, 58.309626 ], [ 22.860727, 58.308156 ], [ 22.857783, 58.307742 ], [ 22.852057, 58.30636 ], [ 22.85463, 58.303785 ], [ 22.851507, 58.302534 ], [ 22.852882, 58.301175 ], [ 22.857783, 58.301506 ], [ 22.861821, 58.300014 ], [ 22.857783, 58.299201 ], [ 22.845536, 58.297386 ], [ 22.831545, 58.291627 ], [ 22.827135, 58.284175 ], [ 22.827343, 58.269414 ], [ 22.822055, 58.26293 ], [ 22.804451, 58.270496 ], [ 22.791147, 58.272189 ], [ 22.759578, 58.271449 ], [ 22.74398, 58.277863 ], [ 22.734676, 58.279857 ], [ 22.714724, 58.278316 ], [ 22.704782, 58.274445 ], [ 22.699177, 58.268733 ], [ 22.704141, 58.259751 ], [ 22.729505, 58.242646 ], [ 22.739826, 58.239712 ], [ 22.74239, 58.233741 ], [ 22.746652, 58.223818 ], [ 22.744213, 58.22072 ], [ 22.720661, 58.212672 ], [ 22.706029, 58.211853 ], [ 22.694958, 58.215981 ], [ 22.684868, 58.216787 ], [ 22.678025, 58.223774 ], [ 22.662876, 58.229518 ], [ 22.660254, 58.233741 ], [ 22.658286, 58.23472 ], [ 22.653623, 58.233741 ], [ 22.651864, 58.228109 ], [ 22.646683, 58.225139 ], [ 22.638329, 58.231172 ], [ 22.63743, 58.233741 ], [ 22.636735, 58.235729 ], [ 22.640767, 58.239737 ], [ 22.645906, 58.237476 ], [ 22.650187, 58.238492 ], [ 22.648454, 58.242383 ], [ 22.652193, 58.2433 ], [ 22.653, 58.245537 ], [ 22.648932, 58.250694 ], [ 22.645686, 58.252197 ], [ 22.633938, 58.251767 ], [ 22.619318, 58.253678 ], [ 22.618003, 58.252629 ], [ 22.620872, 58.250812 ], [ 22.613872, 58.245425 ], [ 22.61506, 58.233741 ], [ 22.601017, 58.224929 ], [ 22.593523, 58.223542 ], [ 22.59209, 58.230981 ], [ 22.588173, 58.233741 ], [ 22.583613, 58.23421 ], [ 22.581855, 58.233741 ], [ 22.563647, 58.224471 ], [ 22.556615, 58.22089 ], [ 22.553543, 58.224193 ], [ 22.547366, 58.223629 ], [ 22.54799, 58.229624 ], [ 22.545193, 58.233741 ], [ 22.542812, 58.237244 ], [ 22.544845, 58.24888 ], [ 22.539344, 58.250849 ], [ 22.535693, 58.252155 ], [ 22.53023, 58.25069 ], [ 22.527223, 58.246318 ], [ 22.519602, 58.235032 ], [ 22.519249, 58.233741 ], [ 22.517225, 58.226334 ], [ 22.513259, 58.223449 ], [ 22.506871, 58.218803 ], [ 22.492557, 58.220057 ], [ 22.496818, 58.229014 ], [ 22.491735, 58.230822 ], [ 22.491254, 58.233741 ], [ 22.491061, 58.234913 ], [ 22.486128, 58.234928 ], [ 22.483934, 58.23581 ], [ 22.483934, 58.238644 ], [ 22.483934, 58.23997 ], [ 22.476478, 58.238235 ], [ 22.47646, 58.24443 ], [ 22.473127, 58.246059 ], [ 22.460536, 58.242906 ], [ 22.454336, 58.239118 ], [ 22.451698, 58.233741 ], [ 22.448088, 58.226382 ], [ 22.439977, 58.220985 ], [ 22.426651, 58.216906 ], [ 22.418316, 58.215975 ], [ 22.396688, 58.221603 ], [ 22.394668, 58.217904 ], [ 22.377755, 58.220331 ], [ 22.36939, 58.218519 ], [ 22.352805, 58.218521 ], [ 22.305816, 58.206086 ], [ 22.280817, 58.194817 ], [ 22.263926, 58.184666 ], [ 22.255551, 58.172903 ], [ 22.256333, 58.156293 ], [ 22.252368, 58.149306 ], [ 22.265373, 58.130111 ], [ 22.255799, 58.120854 ], [ 22.253695, 58.110928 ], [ 22.246929, 58.101397 ], [ 22.244779, 58.093759 ], [ 22.247938, 58.08852 ], [ 22.236689, 58.082399 ], [ 22.228559, 58.079046 ], [ 22.219957, 58.066972 ], [ 22.227092, 58.058134 ], [ 22.227266, 58.051241 ], [ 22.207405, 58.037145 ], [ 22.20332, 58.031602 ], [ 22.198981, 58.025713 ], [ 22.188629, 58.016611 ], [ 22.185621, 58.007854 ], [ 22.200897, 57.988295 ], [ 22.199751, 57.985396 ], [ 22.197685, 57.980171 ], [ 22.185197, 57.974295 ], [ 22.175542, 57.967134 ], [ 22.153315, 57.964862 ], [ 22.140548, 57.957847 ], [ 22.127575, 57.953345 ], [ 22.096652, 57.930757 ], [ 22.075329, 57.924589 ], [ 22.057636, 57.911788 ], [ 22.052642, 57.914552 ], [ 22.033066, 57.912566 ], [ 22.022451, 57.915717 ], [ 22.015963, 57.924162 ], [ 22.006938, 57.928402 ], [ 22.0025, 57.943007 ], [ 21.985084, 57.952323 ], [ 21.985816, 57.959425 ], [ 21.981926, 57.968673 ], [ 21.983875, 57.975502 ], [ 21.992185, 57.979875 ], [ 22.004851, 57.977927 ], [ 22.01691, 57.982073 ], [ 22.017361, 57.985396 ], [ 22.019144, 57.998544 ], [ 22.041227, 58.006287 ], [ 22.04247, 58.014054 ], [ 22.039964, 58.022362 ], [ 22.05681, 58.029128 ], [ 22.057024, 58.031602 ], [ 22.057636, 58.038682 ], [ 22.060024, 58.04072 ], [ 22.067863, 58.043133 ], [ 22.07038, 58.048477 ], [ 22.068347, 58.057722 ], [ 22.075451, 58.06506 ], [ 22.075336, 58.069395 ], [ 22.079263, 58.073885 ], [ 22.087822, 58.074575 ], [ 22.09123, 58.080069 ], [ 22.104244, 58.081297 ], [ 22.104744, 58.087421 ], [ 22.109264, 58.088244 ], [ 22.110479, 58.084818 ], [ 22.129676, 58.081374 ], [ 22.13631, 58.067448 ], [ 22.153431, 58.063665 ], [ 22.164786, 58.065268 ], [ 22.169932, 58.069706 ], [ 22.168765, 58.07669 ], [ 22.172085, 58.0827 ], [ 22.167808, 58.091268 ], [ 22.169357, 58.095113 ], [ 22.177188, 58.101397 ], [ 22.182935, 58.107526 ], [ 22.182978, 58.112639 ], [ 22.196992, 58.127683 ], [ 22.205709, 58.128164 ], [ 22.212722, 58.130396 ], [ 22.222574, 58.135369 ], [ 22.22408, 58.138848 ], [ 22.220614, 58.143923 ], [ 22.214784, 58.147117 ], [ 22.215547, 58.155553 ], [ 22.211365, 58.158133 ], [ 22.205281, 58.158935 ], [ 22.195542, 58.156639 ], [ 22.170547, 58.157563 ], [ 22.157061, 58.155565 ], [ 22.153431, 58.158274 ], [ 22.145249, 58.160743 ], [ 22.14455, 58.170706 ], [ 22.138012, 58.171399 ], [ 22.1337, 58.170006 ], [ 22.121459, 58.174919 ], [ 22.115824, 58.171511 ], [ 22.111669, 58.174823 ], [ 22.102576, 58.175543 ], [ 22.10102, 58.179751 ], [ 22.096849, 58.181745 ], [ 22.085191, 58.181583 ], [ 22.082438, 58.18448 ], [ 22.076232, 58.185431 ], [ 22.075773, 58.181063 ], [ 22.079103, 58.1767 ], [ 22.068087, 58.17673 ], [ 22.062688, 58.178568 ], [ 22.060983, 58.18692 ], [ 22.057636, 58.188976 ], [ 22.055307, 58.190406 ], [ 22.056291, 58.193312 ], [ 22.044428, 58.201593 ], [ 22.05127, 58.205515 ], [ 22.04326, 58.21807 ], [ 22.022811, 58.233741 ], [ 22.020107, 58.235812 ], [ 22.018997, 58.239709 ], [ 22.005825, 58.244178 ], [ 22.001349, 58.248769 ], [ 21.995554, 58.24954 ], [ 21.992957, 58.247234 ], [ 21.996399, 58.239975 ], [ 21.995813, 58.233741 ], [ 21.99856, 58.229435 ], [ 21.996196, 58.225869 ], [ 21.988979, 58.229301 ], [ 21.9864, 58.233741 ], [ 21.98522, 58.236457 ], [ 21.96907, 58.236457 ], [ 21.957372, 58.238792 ], [ 21.943446, 58.245057 ], [ 21.937771, 58.243733 ], [ 21.930561, 58.246834 ], [ 21.923078, 58.245465 ], [ 21.914904, 58.249747 ], [ 21.902634, 58.252708 ], [ 21.898896, 58.250744 ], [ 21.892129, 58.254415 ], [ 21.891505, 58.258112 ], [ 21.878931, 58.259082 ], [ 21.871173, 58.266036 ], [ 21.867209, 58.26298 ], [ 21.863814, 58.263692 ], [ 21.851008, 58.272351 ], [ 21.849048, 58.278727 ], [ 21.833386, 58.28166 ], [ 21.842987, 58.290544 ], [ 21.838534, 58.295842 ], [ 21.83137, 58.299033 ], [ 21.829515, 58.306106 ], [ 21.834847, 58.30958 ], [ 21.846286, 58.31133 ], [ 21.864286, 58.304399 ], [ 21.871329, 58.303622 ], [ 21.884218, 58.298077 ], [ 21.891472, 58.296914 ], [ 21.896214, 58.297666 ], [ 21.896177, 58.303042 ], [ 21.907728, 58.308005 ], [ 21.905485, 58.313532 ], [ 21.881538, 58.325129 ], [ 21.878402, 58.333769 ], [ 21.871454, 58.337761 ], [ 21.87081, 58.341049 ], [ 21.874113, 58.342606 ], [ 21.88179, 58.339768 ], [ 21.883829, 58.340621 ], [ 21.874213, 58.347568 ], [ 21.867111, 58.350042 ], [ 21.86678, 58.351805 ], [ 21.874452, 58.350033 ], [ 21.90028, 58.337265 ], [ 21.911967, 58.333969 ], [ 21.923325, 58.325597 ], [ 21.919131, 58.323966 ], [ 21.925709, 58.317656 ], [ 21.923458, 58.311543 ], [ 21.927773, 58.310155 ], [ 21.944073, 58.310273 ], [ 21.943924, 58.313235 ], [ 21.94921, 58.313207 ], [ 21.949563, 58.31668 ], [ 21.955069, 58.316021 ], [ 21.958053, 58.320468 ], [ 21.951947, 58.333158 ], [ 21.948807, 58.335547 ], [ 21.943386, 58.336114 ], [ 21.933323, 58.349842 ], [ 21.937133, 58.355857 ], [ 21.958521, 58.346357 ], [ 21.961907, 58.346485 ], [ 21.964275, 58.348621 ], [ 21.968921, 58.34723 ], [ 21.977994, 58.342345 ], [ 21.979096, 58.338093 ], [ 21.986873, 58.336928 ], [ 21.989453, 58.340775 ], [ 21.998035, 58.344151 ], [ 21.998417, 58.35178 ], [ 21.985918, 58.360455 ], [ 21.984259, 58.361607 ], [ 21.980422, 58.367764 ], [ 21.996836, 58.368926 ], [ 22.018393, 58.364395 ], [ 22.020446, 58.366334 ], [ 22.010673, 58.373305 ], [ 21.997154, 58.376527 ], [ 21.995472, 58.383857 ], [ 21.991855, 58.386696 ], [ 21.991812, 58.389647 ], [ 21.985683, 58.392659 ], [ 21.989423, 58.394521 ], [ 21.987619, 58.397105 ], [ 21.981518, 58.398821 ], [ 21.973212, 58.398799 ], [ 21.954204, 58.40563 ], [ 21.949261, 58.415867 ], [ 21.942589, 58.419818 ], [ 21.945382, 58.427023 ], [ 21.935811, 58.435663 ], [ 21.91191, 58.44964 ], [ 21.905931, 58.465314 ], [ 21.893514, 58.472708 ], [ 21.880018, 58.473712 ], [ 21.866337, 58.467296 ], [ 21.842391, 58.478671 ], [ 21.842408, 58.495738 ], [ 21.851979, 58.493385 ], [ 21.874353, 58.480846 ], [ 21.880018, 58.480426 ], [ 21.895937, 58.479245 ], [ 21.915033, 58.484291 ], [ 21.92213, 58.488736 ], [ 21.92069, 58.496597 ], [ 21.915771, 58.498461 ], [ 21.910865, 58.504027 ], [ 21.918315, 58.516031 ], [ 21.951953, 58.510533 ], [ 21.965488, 58.506715 ], [ 21.984446, 58.508907 ], [ 21.99923, 58.508118 ], [ 22.020504, 58.498373 ], [ 22.047403, 58.466749 ], [ 22.05084, 58.454076 ], [ 22.057636, 58.444069 ], [ 22.058252, 58.443162 ], [ 22.073334, 58.428205 ], [ 22.077181, 58.420053 ], [ 22.082729, 58.41744 ], [ 22.094311, 58.416258 ], [ 22.104849, 58.41721 ], [ 22.115784, 58.423029 ], [ 22.116942, 58.425573 ], [ 22.112703, 58.434317 ], [ 22.117121, 58.443332 ], [ 22.115043, 58.447817 ], [ 22.112068, 58.457685 ], [ 22.116332, 58.466422 ], [ 22.114304, 58.473716 ], [ 22.118764, 58.481803 ], [ 22.139448, 58.49817 ], [ 22.145169, 58.498936 ], [ 22.160261, 58.494862 ], [ 22.162425, 58.497246 ], [ 22.159812, 58.502811 ], [ 22.165221, 58.506711 ], [ 22.17594, 58.51113 ], [ 22.200204, 58.513727 ], [ 22.202692, 58.524913 ], [ 22.197678, 58.534431 ], [ 22.204081, 58.545473 ], [ 22.218213, 58.545269 ], [ 22.23531, 58.536313 ], [ 22.234919, 58.516728 ], [ 22.239021, 58.509933 ], [ 22.239025, 58.497143 ], [ 22.244054, 58.490526 ], [ 22.256719, 58.486144 ], [ 22.271239, 58.48616 ], [ 22.286138, 58.486177 ], [ 22.293622, 58.48797 ], [ 22.298743, 58.491713 ], [ 22.306858, 58.506746 ], [ 22.305509, 58.514013 ], [ 22.313627, 58.519644 ], [ 22.302644, 58.530392 ], [ 22.300535, 58.539428 ], [ 22.295906, 58.54035 ], [ 22.289292, 58.538658 ], [ 22.287992, 58.530778 ], [ 22.283255, 58.530798 ], [ 22.283677, 58.54131 ], [ 22.287169, 58.54918 ], [ 22.283345, 58.561429 ], [ 22.288278, 58.569498 ], [ 22.295551, 58.570195 ], [ 22.313931, 58.565668 ], [ 22.32982, 58.571734 ], [ 22.348573, 58.571946 ], [ 22.361518, 58.576556 ], [ 22.385986, 58.573137 ], [ 22.421793, 58.577526 ], [ 22.438331, 58.576363 ], [ 22.453833, 58.577627 ], [ 22.473127, 58.58214 ], [ 22.483934, 58.584667 ], [ 22.486128, 58.58518 ], [ 22.499396, 58.591694 ], [ 22.503981, 58.59878 ], [ 22.513259, 58.603486 ], [ 22.516739, 58.605251 ], [ 22.527342, 58.620497 ], [ 22.524953, 58.627747 ], [ 22.53677, 58.640355 ], [ 22.539344, 58.640938 ], [ 22.542035, 58.641549 ] ] ], [ [ [ 22.610139, 59.083463 ], [ 22.618877, 59.081657 ], [ 22.656502, 59.086369 ], [ 22.694412, 59.073149 ], [ 22.69686, 59.070142 ], [ 22.688817, 59.064256 ], [ 22.683855, 59.049115 ], [ 22.685109, 59.043341 ], [ 22.695137, 59.030105 ], [ 22.691545, 59.028873 ], [ 22.695577, 59.017389 ], [ 22.705644, 59.010156 ], [ 22.721654, 59.006083 ], [ 22.73877, 59.005793 ], [ 22.749983, 59.008679 ], [ 22.753892, 59.007441 ], [ 22.7623, 59.004777 ], [ 22.805052, 58.997721 ], [ 22.819547, 58.99886 ], [ 22.831605, 58.995415 ], [ 22.834867, 58.996558 ], [ 22.835743, 59.00102 ], [ 22.839999, 59.001915 ], [ 22.861803, 58.996737 ], [ 22.872347, 58.988934 ], [ 22.875488, 58.982517 ], [ 22.886265, 58.978416 ], [ 22.897824, 58.980393 ], [ 22.916558, 58.975857 ], [ 22.935548, 58.980056 ], [ 22.932363, 58.972414 ], [ 22.934737, 58.966757 ], [ 22.953074, 58.956223 ], [ 22.951424, 58.954815 ], [ 22.938276, 58.952836 ], [ 22.937413, 58.949003 ], [ 22.940734, 58.944079 ], [ 22.946164, 58.940304 ], [ 22.964245, 58.927727 ], [ 22.974253, 58.916631 ], [ 22.980914, 58.914762 ], [ 22.992479, 58.914605 ], [ 22.999357, 58.914512 ], [ 23.004243, 58.913169 ], [ 23.006594, 58.906445 ], [ 23.023409, 58.894541 ], [ 23.027845, 58.885178 ], [ 23.024929, 58.878612 ], [ 23.046869, 58.865284 ], [ 23.04901, 58.85686 ], [ 23.067408, 58.838274 ], [ 23.062981, 58.83518 ], [ 23.057807, 58.831564 ], [ 23.03141, 58.825575 ], [ 23.028877, 58.825575 ], [ 23.024954, 58.827433 ], [ 23.023342, 58.83518 ], [ 23.02279, 58.837833 ], [ 23.017487, 58.844367 ], [ 22.999119, 58.83762 ], [ 22.992479, 58.840505 ], [ 22.984382, 58.844024 ], [ 22.964585, 58.848036 ], [ 22.945567, 58.842476 ], [ 22.952018, 58.83518 ], [ 22.955722, 58.830989 ], [ 22.955691, 58.827509 ], [ 22.933673, 58.83164 ], [ 22.929566, 58.83518 ], [ 22.924288, 58.83973 ], [ 22.916353, 58.838857 ], [ 22.920125, 58.836347 ], [ 22.919947, 58.83518 ], [ 22.919667, 58.833339 ], [ 22.9144, 58.822657 ], [ 22.90733, 58.822268 ], [ 22.897451, 58.825338 ], [ 22.885989, 58.824248 ], [ 22.883071, 58.817911 ], [ 22.869421, 58.809422 ], [ 22.869031, 58.80461 ], [ 22.878166, 58.794557 ], [ 22.882602, 58.782321 ], [ 22.8728, 58.783638 ], [ 22.868135, 58.788803 ], [ 22.853152, 58.789543 ], [ 22.848012, 58.787202 ], [ 22.844566, 58.782277 ], [ 22.827925, 58.78051 ], [ 22.815792, 58.768105 ], [ 22.810441, 58.768991 ], [ 22.809278, 58.773354 ], [ 22.802885, 58.772465 ], [ 22.789856, 58.773904 ], [ 22.761491, 58.797107 ], [ 22.756622, 58.794138 ], [ 22.74524, 58.801015 ], [ 22.737106, 58.80298 ], [ 22.722862, 58.794204 ], [ 22.72176, 58.786374 ], [ 22.712719, 58.774662 ], [ 22.723352, 58.774352 ], [ 22.72719, 58.771766 ], [ 22.716169, 58.763262 ], [ 22.693511, 58.736899 ], [ 22.682637, 58.726636 ], [ 22.672134, 58.712011 ], [ 22.666973, 58.699052 ], [ 22.660089, 58.697795 ], [ 22.640155, 58.692855 ], [ 22.623896, 58.694078 ], [ 22.598865, 58.692134 ], [ 22.585302, 58.688866 ], [ 22.565574, 58.686966 ], [ 22.563647, 58.687342 ], [ 22.539344, 58.692082 ], [ 22.520059, 58.69388 ], [ 22.513259, 58.69575 ], [ 22.487821, 58.702743 ], [ 22.483934, 58.705595 ], [ 22.481357, 58.711624 ], [ 22.471544, 58.714712 ], [ 22.471091, 58.717691 ], [ 22.465395, 58.720987 ], [ 22.483934, 58.724528 ], [ 22.496755, 58.725395 ], [ 22.501266, 58.731907 ], [ 22.485953, 58.741484 ], [ 22.487737, 58.745158 ], [ 22.483934, 58.748736 ], [ 22.466388, 58.753204 ], [ 22.478133, 58.762639 ], [ 22.479288, 58.769706 ], [ 22.474376, 58.777314 ], [ 22.458147, 58.782677 ], [ 22.44622, 58.788912 ], [ 22.447927, 58.792287 ], [ 22.45962, 58.79987 ], [ 22.450091, 58.807456 ], [ 22.45588, 58.813684 ], [ 22.457764, 58.827907 ], [ 22.454968, 58.838629 ], [ 22.441849, 58.851323 ], [ 22.429807, 58.867489 ], [ 22.409427, 58.881235 ], [ 22.393882, 58.890507 ], [ 22.365034, 58.897025 ], [ 22.328381, 58.892801 ], [ 22.322929, 58.890123 ], [ 22.320153, 58.885783 ], [ 22.309665, 58.884488 ], [ 22.285687, 58.891416 ], [ 22.271592, 58.889172 ], [ 22.257198, 58.882629 ], [ 22.240552, 58.882887 ], [ 22.209996, 58.879971 ], [ 22.175886, 58.882346 ], [ 22.143433, 58.894837 ], [ 22.138565, 58.902638 ], [ 22.132349, 58.907029 ], [ 22.098153, 58.91442 ], [ 22.071285, 58.91745 ], [ 22.052034, 58.921771 ], [ 22.042936, 58.928333 ], [ 22.052381, 58.941542 ], [ 22.078559, 58.945277 ], [ 22.102416, 58.941504 ], [ 22.12869, 58.941245 ], [ 22.147635, 58.937581 ], [ 22.204134, 58.934299 ], [ 22.236199, 58.936152 ], [ 22.27426, 58.946386 ], [ 22.294484, 58.944433 ], [ 22.313199, 58.948105 ], [ 22.338996, 58.943391 ], [ 22.363321, 58.935627 ], [ 22.379956, 58.934949 ], [ 22.390929, 58.936325 ], [ 22.410458, 58.944826 ], [ 22.420008, 58.956109 ], [ 22.420951, 58.960561 ], [ 22.413926, 58.965238 ], [ 22.414693, 58.967466 ], [ 22.423256, 58.967308 ], [ 22.431164, 58.961667 ], [ 22.44046, 58.958569 ], [ 22.448993, 58.960733 ], [ 22.452037, 58.964595 ], [ 22.45936, 58.962209 ], [ 22.467237, 58.96416 ], [ 22.466209, 58.966414 ], [ 22.458327, 58.968903 ], [ 22.450148, 58.974948 ], [ 22.442592, 58.983332 ], [ 22.438851, 58.992883 ], [ 22.443375, 58.994223 ], [ 22.464909, 58.991333 ], [ 22.480212, 58.993887 ], [ 22.483934, 58.995669 ], [ 22.491925, 58.999495 ], [ 22.492112, 59.001533 ], [ 22.486979, 59.00411 ], [ 22.488076, 59.007932 ], [ 22.483934, 59.012996 ], [ 22.481155, 59.016395 ], [ 22.480688, 59.024953 ], [ 22.483934, 59.024993 ], [ 22.497192, 59.024949 ], [ 22.513259, 59.022905 ], [ 22.529411, 59.020851 ], [ 22.53184, 59.02217 ], [ 22.527982, 59.024491 ], [ 22.544932, 59.030991 ], [ 22.565503, 59.031049 ], [ 22.571863, 59.03302 ], [ 22.578756, 59.040043 ], [ 22.578576, 59.060275 ], [ 22.584812, 59.090942 ], [ 22.601071, 59.08779 ], [ 22.610139, 59.083463 ] ] ], [ [ [ 23.217445, 58.677673 ], [ 23.279247, 58.662599 ], [ 23.295264, 58.656207 ], [ 23.303811, 58.655428 ], [ 23.321788, 58.650522 ], [ 23.345522, 58.647544 ], [ 23.356803, 58.640818 ], [ 23.362, 58.631207 ], [ 23.358709, 58.625304 ], [ 23.344549, 58.617447 ], [ 23.346028, 58.610217 ], [ 23.390233, 58.57396 ], [ 23.395629, 58.558058 ], [ 23.404928, 58.550745 ], [ 23.39895, 58.539832 ], [ 23.367449, 58.527651 ], [ 23.37408, 58.524513 ], [ 23.376946, 58.518076 ], [ 23.387953, 58.511578 ], [ 23.364464, 58.508218 ], [ 23.355399, 58.510596 ], [ 23.352335, 58.514455 ], [ 23.36244, 58.524804 ], [ 23.361586, 58.531154 ], [ 23.333661, 58.536779 ], [ 23.330742, 58.547843 ], [ 23.326149, 58.548547 ], [ 23.323136, 58.551895 ], [ 23.313544, 58.537338 ], [ 23.306366, 58.533293 ], [ 23.301644, 58.53679 ], [ 23.304057, 58.542354 ], [ 23.301976, 58.544804 ], [ 23.296753, 58.543952 ], [ 23.290563, 58.537079 ], [ 23.278183, 58.546833 ], [ 23.263497, 58.549195 ], [ 23.25714, 58.54741 ], [ 23.25338, 58.539434 ], [ 23.267272, 58.536798 ], [ 23.27296, 58.531198 ], [ 23.265103, 58.523293 ], [ 23.257966, 58.520821 ], [ 23.250221, 58.528227 ], [ 23.25277, 58.534972 ], [ 23.249349, 58.537229 ], [ 23.238411, 58.523882 ], [ 23.234135, 58.523332 ], [ 23.230927, 58.526504 ], [ 23.225793, 58.525177 ], [ 23.220567, 58.526128 ], [ 23.217445, 58.54009 ], [ 23.213543, 58.540346 ], [ 23.212157, 58.542505 ], [ 23.207767, 58.542863 ], [ 23.20458, 58.545029 ], [ 23.201232, 58.547305 ], [ 23.194002, 58.546274 ], [ 23.187219, 58.549045 ], [ 23.178132, 58.556723 ], [ 23.174923, 58.565136 ], [ 23.153117, 58.577098 ], [ 23.143126, 58.579365 ], [ 23.132564, 58.575273 ], [ 23.124075, 58.575641 ], [ 23.113217, 58.579976 ], [ 23.086824, 58.586509 ], [ 23.071515, 58.59969 ], [ 23.076583, 58.611602 ], [ 23.069698, 58.618942 ], [ 23.099025, 58.626423 ], [ 23.125488, 58.621412 ], [ 23.134038, 58.622476 ], [ 23.143757, 58.626487 ], [ 23.146486, 58.632027 ], [ 23.139317, 58.640122 ], [ 23.139848, 58.648154 ], [ 23.137227, 58.653244 ], [ 23.139365, 58.656057 ], [ 23.136321, 58.662907 ], [ 23.140866, 58.671888 ], [ 23.152313, 58.678838 ], [ 23.166359, 58.676848 ], [ 23.193801, 58.683422 ], [ 23.20458, 58.680801 ], [ 23.207767, 58.680026 ], [ 23.217445, 58.677673 ] ] ], [ [ [ 23.20458, 59.039782 ], [ 23.217445, 59.037328 ], [ 23.23175, 59.038288 ], [ 23.245626, 59.035652 ], [ 23.25377, 59.028755 ], [ 23.270673, 59.021834 ], [ 23.289481, 59.025333 ], [ 23.301727, 59.032165 ], [ 23.316441, 59.029123 ], [ 23.333516, 59.032018 ], [ 23.358714, 59.01773 ], [ 23.383867, 58.991366 ], [ 23.371525, 58.976495 ], [ 23.344055, 58.981205 ], [ 23.331534, 58.979382 ], [ 23.320376, 58.973703 ], [ 23.291046, 58.972015 ], [ 23.287279, 58.963985 ], [ 23.289037, 58.958587 ], [ 23.282458, 58.960145 ], [ 23.251291, 58.976367 ], [ 23.23344, 58.981984 ], [ 23.220317, 58.981766 ], [ 23.217445, 58.978735 ], [ 23.21499, 58.971759 ], [ 23.217445, 58.966435 ], [ 23.217445, 58.963951 ], [ 23.211357, 58.96549 ], [ 23.20458, 58.964844 ], [ 23.191117, 58.971423 ], [ 23.188771, 58.961639 ], [ 23.180307, 58.965757 ], [ 23.172087, 58.960656 ], [ 23.166527, 58.960598 ], [ 23.161053, 58.963297 ], [ 23.152777, 58.975242 ], [ 23.157975, 58.97814 ], [ 23.16758, 58.977694 ], [ 23.168048, 58.981009 ], [ 23.148411, 58.991606 ], [ 23.140976, 59.000878 ], [ 23.130268, 59.003901 ], [ 23.122183, 59.009967 ], [ 23.117369, 59.024416 ], [ 23.119359, 59.02852 ], [ 23.127487, 59.032899 ], [ 23.130837, 59.037606 ], [ 23.146941, 59.038469 ], [ 23.164557, 59.048654 ], [ 23.192387, 59.045403 ], [ 23.20458, 59.039782 ] ] ], [ [ [ 24.564234, 59.540686 ], [ 24.559653, 59.538532 ], [ 24.552037, 59.538552 ], [ 24.549676, 59.537626 ], [ 24.544446, 59.538294 ], [ 24.541842, 59.536797 ], [ 24.533264, 59.538198 ], [ 24.531343, 59.53709 ], [ 24.524894, 59.539531 ], [ 24.520433, 59.539566 ], [ 24.516814, 59.542184 ], [ 24.507272, 59.54543 ], [ 24.504917, 59.545787 ], [ 24.500677, 59.548035 ], [ 24.49819, 59.550798 ], [ 24.49388, 59.551307 ], [ 24.492635, 59.553228 ], [ 24.487074, 59.556199 ], [ 24.484604, 59.562592 ], [ 24.482073, 59.566274 ], [ 24.475502, 59.569143 ], [ 24.475031, 59.570507 ], [ 24.477903, 59.57083 ], [ 24.481332, 59.573071 ], [ 24.483747, 59.573467 ], [ 24.487101, 59.575511 ], [ 24.488642, 59.577702 ], [ 24.485906, 59.579249 ], [ 24.49476, 59.585438 ], [ 24.496237, 59.588913 ], [ 24.498495, 59.591826 ], [ 24.498215, 59.594364 ], [ 24.504863, 59.597387 ], [ 24.505797, 59.600916 ], [ 24.50994, 59.606208 ], [ 24.51522, 59.605462 ], [ 24.514972, 59.603947 ], [ 24.517299, 59.602102 ], [ 24.519013, 59.596945 ], [ 24.521092, 59.593521 ], [ 24.525151, 59.589583 ], [ 24.532122, 59.586629 ], [ 24.536026, 59.581572 ], [ 24.536025, 59.577696 ], [ 24.542496, 59.571629 ], [ 24.546329, 59.564597 ], [ 24.54987, 59.560074 ], [ 24.552442, 59.558129 ], [ 24.550723, 59.55752 ], [ 24.550524, 59.554756 ], [ 24.551792, 59.549873 ], [ 24.553838, 59.547769 ], [ 24.561929, 59.541629 ], [ 24.564234, 59.540686 ] ] ], [ [ [ 24.004599, 58.155911 ], [ 24.008712, 58.15481 ], [ 24.011489, 58.155261 ], [ 24.013818, 58.152713 ], [ 24.019844, 58.152118 ], [ 24.015169, 58.147258 ], [ 24.018184, 58.14514 ], [ 24.016625, 58.144069 ], [ 24.019081, 58.140445 ], [ 24.015031, 58.139954 ], [ 24.010883, 58.136727 ], [ 24.009608, 58.134641 ], [ 24.012687, 58.130138 ], [ 24.014959, 58.129524 ], [ 24.013234, 58.127453 ], [ 24.014342, 58.126214 ], [ 24.008067, 58.12198 ], [ 24.010056, 58.116137 ], [ 24.00739, 58.115957 ], [ 24.006324, 58.114298 ], [ 24.003009, 58.114111 ], [ 24.002929, 58.112809 ], [ 23.995997, 58.110012 ], [ 23.994536, 58.106224 ], [ 23.994958, 58.104633 ], [ 23.990938, 58.099689 ], [ 23.984037, 58.101124 ], [ 23.971861, 58.097479 ], [ 23.966532, 58.099187 ], [ 23.956111, 58.114806 ], [ 23.954059, 58.117882 ], [ 23.956111, 58.123852 ], [ 23.96511, 58.150012 ], [ 23.972011, 58.152509 ], [ 23.984037, 58.152469 ], [ 23.989592, 58.153778 ], [ 23.990945, 58.152872 ], [ 23.99491, 58.154522 ], [ 23.999827, 58.155085 ], [ 24.002709, 58.154688 ], [ 24.004599, 58.155911 ] ] ], [ [ [ 24.006797, 59.315669 ], [ 23.98567, 59.313561 ], [ 23.972503, 59.316874 ], [ 23.965407, 59.322415 ], [ 23.964695, 59.331651 ], [ 23.950157, 59.337723 ], [ 23.944659, 59.344426 ], [ 23.932004, 59.346617 ], [ 23.941227, 59.350728 ], [ 23.944659, 59.354823 ], [ 23.949119, 59.359442 ], [ 23.957461, 59.361681 ], [ 23.981141, 59.356731 ], [ 23.993856, 59.349897 ], [ 24.007456, 59.331726 ], [ 24.009418, 59.324484 ], [ 24.006797, 59.315669 ] ] ], [ [ [ 23.904939, 59.350028 ], [ 23.919649, 59.345334 ], [ 23.923805, 59.340187 ], [ 23.925816, 59.339151 ], [ 23.925816, 59.337679 ], [ 23.923639, 59.337267 ], [ 23.915424, 59.339956 ], [ 23.914475, 59.338167 ], [ 23.925816, 59.332042 ], [ 23.934488, 59.330261 ], [ 23.944298, 59.32301 ], [ 23.949921, 59.310301 ], [ 23.945285, 59.30485 ], [ 23.940681, 59.303131 ], [ 23.934719, 59.302318 ], [ 23.925816, 59.304684 ], [ 23.922337, 59.305676 ], [ 23.916162, 59.311167 ], [ 23.904939, 59.317764 ], [ 23.878859, 59.332996 ], [ 23.862899, 59.34777 ], [ 23.878119, 59.347349 ], [ 23.90184, 59.350395 ], [ 23.904939, 59.350028 ] ] ], [ [ [ 23.233099, 57.824966 ], [ 23.234163, 57.821905 ], [ 23.246489, 57.81846 ], [ 23.253714, 57.815966 ], [ 23.265572, 57.809445 ], [ 23.269995, 57.806424 ], [ 23.272141, 57.803784 ], [ 23.273844, 57.79852 ], [ 23.273179, 57.793246 ], [ 23.274682, 57.790763 ], [ 23.274557, 57.788031 ], [ 23.269865, 57.783348 ], [ 23.268743, 57.781335 ], [ 23.259005, 57.780914 ], [ 23.254556, 57.783348 ], [ 23.248935, 57.782312 ], [ 23.247907, 57.785079 ], [ 23.245078, 57.786902 ], [ 23.239558, 57.785563 ], [ 23.23956, 57.78903 ], [ 23.235858, 57.789406 ], [ 23.23379, 57.788062 ], [ 23.226871, 57.786812 ], [ 23.225394, 57.788488 ], [ 23.221454, 57.787569 ], [ 23.217499, 57.788006 ], [ 23.217082, 57.790507 ], [ 23.218674, 57.791328 ], [ 23.219648, 57.795204 ], [ 23.218512, 57.796766 ], [ 23.214572, 57.798475 ], [ 23.214595, 57.80183 ], [ 23.211359, 57.804502 ], [ 23.212455, 57.808339 ], [ 23.217557, 57.809842 ], [ 23.221538, 57.810204 ], [ 23.223506, 57.813489 ], [ 23.219552, 57.814221 ], [ 23.217116, 57.815692 ], [ 23.219597, 57.81716 ], [ 23.218289, 57.818998 ], [ 23.222929, 57.822818 ], [ 23.225878, 57.822654 ], [ 23.227871, 57.823874 ], [ 23.233099, 57.824966 ] ] ], [ [ [ 21.877544, 58.394832 ], [ 21.890957, 58.389254 ], [ 21.89908, 58.390408 ], [ 21.906912, 58.39483 ], [ 21.910634, 58.393201 ], [ 21.913947, 58.383239 ], [ 21.915945, 58.381514 ], [ 21.90531, 58.381009 ], [ 21.895167, 58.377043 ], [ 21.890957, 58.378076 ], [ 21.880492, 58.379772 ], [ 21.880116, 58.375393 ], [ 21.864734, 58.371418 ], [ 21.840909, 58.373052 ], [ 21.830576, 58.370287 ], [ 21.829209, 58.373658 ], [ 21.821312, 58.375652 ], [ 21.809223, 58.384371 ], [ 21.816921, 58.387986 ], [ 21.851452, 58.391136 ], [ 21.857302, 58.389163 ], [ 21.870663, 58.387916 ], [ 21.873372, 58.385017 ], [ 21.878677, 58.384533 ], [ 21.881819, 58.385822 ], [ 21.880019, 58.388254 ], [ 21.874953, 58.391998 ], [ 21.877544, 58.394832 ] ] ], [ [ [ 22.536603, 58.147178 ], [ 22.513259, 58.131438 ], [ 22.505495, 58.127235 ], [ 22.489891, 58.138428 ], [ 22.489642, 58.142324 ], [ 22.480961, 58.141655 ], [ 22.498206, 58.165635 ], [ 22.498249, 58.174271 ], [ 22.503785, 58.176747 ], [ 22.513259, 58.173615 ], [ 22.515232, 58.172203 ], [ 22.515163, 58.166359 ], [ 22.52197, 58.165865 ], [ 22.520005, 58.161652 ], [ 22.52526, 58.160866 ], [ 22.524277, 58.15244 ], [ 22.527338, 58.150817 ], [ 22.535866, 58.150168 ], [ 22.536603, 58.147178 ] ] ], [ [ [ 25.010058, 59.638139 ], [ 25.033449, 59.622799 ], [ 25.041167, 59.614454 ], [ 25.040152, 59.611913 ], [ 25.034571, 59.609476 ], [ 25.025598, 59.613371 ], [ 25.002761, 59.617903 ], [ 24.982636, 59.611132 ], [ 24.979108, 59.616808 ], [ 24.988379, 59.620112 ], [ 24.992596, 59.624212 ], [ 24.990078, 59.627067 ], [ 24.991246, 59.627672 ], [ 24.997789, 59.62629 ], [ 24.999089, 59.627999 ], [ 24.99042, 59.635141 ], [ 24.979618, 59.639782 ], [ 24.967883, 59.640329 ], [ 24.969784, 59.645201 ], [ 24.973043, 59.646205 ], [ 24.981954, 59.643005 ], [ 24.989275, 59.642826 ], [ 25.010058, 59.638139 ] ] ], [ [ [ 23.403384, 59.29497 ], [ 23.42, 59.286198 ], [ 23.42709, 59.279225 ], [ 23.422053, 59.277963 ], [ 23.413651, 59.278679 ], [ 23.408623, 59.275378 ], [ 23.400234, 59.284136 ], [ 23.391276, 59.286659 ], [ 23.385597, 59.286006 ], [ 23.375313, 59.288478 ], [ 23.359155, 59.302406 ], [ 23.363763, 59.304019 ], [ 23.385597, 59.300371 ], [ 23.403384, 59.29497 ] ] ], [ [ [ 23.044104, 58.909284 ], [ 23.031375, 58.899007 ], [ 23.021974, 58.90484 ], [ 23.011863, 58.907421 ], [ 23.009909, 58.924713 ], [ 22.999303, 58.932443 ], [ 22.999303, 58.933678 ], [ 23.007156, 58.931597 ], [ 23.011623, 58.928432 ], [ 23.027296, 58.925019 ], [ 23.038385, 58.920673 ], [ 23.044104, 58.909284 ] ] ], [ [ [ 24.764439, 59.589026 ], [ 24.774845, 59.584413 ], [ 24.779192, 59.585916 ], [ 24.78077, 59.588315 ], [ 24.783513, 59.587955 ], [ 24.78617, 59.585755 ], [ 24.783513, 59.583666 ], [ 24.763368, 59.573474 ], [ 24.756935, 59.57214 ], [ 24.747565, 59.57343 ], [ 24.738898, 59.580132 ], [ 24.740875, 59.585091 ], [ 24.756559, 59.588459 ], [ 24.764439, 59.589026 ] ] ], [ [ [ 23.041761, 58.628615 ], [ 23.038275, 58.626269 ], [ 23.022116, 58.62652 ], [ 23.008784, 58.63192 ], [ 23.015391, 58.643561 ], [ 23.020169, 58.64598 ], [ 23.031924, 58.643943 ], [ 23.032127, 58.63857 ], [ 23.036518, 58.63192 ], [ 23.041761, 58.628615 ] ] ], [ [ [ 24.142804, 58.231332 ], [ 24.125688, 58.20904 ], [ 24.117272, 58.206511 ], [ 24.102968, 58.204526 ], [ 24.101874, 58.206511 ], [ 24.105218, 58.212684 ], [ 24.107263, 58.213275 ], [ 24.109034, 58.211674 ], [ 24.117399, 58.212854 ], [ 24.119803, 58.219012 ], [ 24.123613, 58.221719 ], [ 24.131521, 58.222692 ], [ 24.134011, 58.227915 ], [ 24.14133, 58.231841 ], [ 24.142804, 58.231332 ] ] ], [ [ [ 22.586221, 58.212092 ], [ 22.596868, 58.205295 ], [ 22.599671, 58.20304 ], [ 22.592098, 58.195802 ], [ 22.587076, 58.198401 ], [ 22.577178, 58.198077 ], [ 22.577118, 58.202705 ], [ 22.5801, 58.205295 ], [ 22.579024, 58.205981 ], [ 22.574993, 58.20445 ], [ 22.571671, 58.205295 ], [ 22.567286, 58.207633 ], [ 22.570768, 58.211806 ], [ 22.573216, 58.212155 ], [ 22.586221, 58.212092 ] ] ], [ [ [ 23.434646, 58.625548 ], [ 23.43097, 58.625548 ], [ 23.418647, 58.630932 ], [ 23.415, 58.631995 ], [ 23.414312, 58.633309 ], [ 23.41515, 58.635459 ], [ 23.418647, 58.637379 ], [ 23.425543, 58.639619 ], [ 23.437674, 58.637766 ], [ 23.443847, 58.631342 ], [ 23.434646, 58.625548 ] ] ], [ [ [ 23.132298, 58.827502 ], [ 23.122127, 58.826043 ], [ 23.116296, 58.82854 ], [ 23.113796, 58.83518 ], [ 23.116723, 58.837969 ], [ 23.121731, 58.839536 ], [ 23.124909, 58.838926 ], [ 23.128522, 58.83518 ], [ 23.138666, 58.833294 ], [ 23.140399, 58.831248 ], [ 23.132298, 58.827502 ] ] ], [ [ [ 23.01146, 58.79457 ], [ 23.009412, 58.792851 ], [ 23.00408, 58.795927 ], [ 23.002833, 58.800648 ], [ 22.999303, 58.801897 ], [ 22.992479, 58.804985 ], [ 22.984925, 58.808404 ], [ 22.981208, 58.813067 ], [ 22.983366, 58.815564 ], [ 22.988824, 58.816585 ], [ 22.992479, 58.811691 ], [ 22.995372, 58.807817 ], [ 22.999303, 58.806125 ], [ 23.010802, 58.803226 ], [ 23.01146, 58.79457 ] ] ], [ [ [ 23.066799, 58.808085 ], [ 23.063348, 58.807558 ], [ 23.058655, 58.811417 ], [ 23.064885, 58.816224 ], [ 23.070031, 58.818055 ], [ 23.068591, 58.821302 ], [ 23.063127, 58.823046 ], [ 23.062013, 58.825575 ], [ 23.059676, 58.828791 ], [ 23.064798, 58.829449 ], [ 23.068569, 58.828717 ], [ 23.073213, 58.825575 ], [ 23.076146, 58.822278 ], [ 23.075759, 58.818117 ], [ 23.066799, 58.808085 ] ] ], [ [ [ 23.386708, 58.848656 ], [ 23.389809, 58.841207 ], [ 23.394536, 58.841956 ], [ 23.396392, 58.841207 ], [ 23.400462, 58.83752 ], [ 23.405736, 58.83916 ], [ 23.407088, 58.838692 ], [ 23.406055, 58.83518 ], [ 23.40459, 58.830199 ], [ 23.393476, 58.83518 ], [ 23.389833, 58.836813 ], [ 23.384678, 58.841207 ], [ 23.375848, 58.84659 ], [ 23.376812, 58.848285 ], [ 23.382586, 58.849546 ], [ 23.386708, 58.848656 ] ] ], [ [ [ 21.780276, 58.339545 ], [ 21.799224, 58.332565 ], [ 21.80551, 58.328937 ], [ 21.799224, 58.32734 ], [ 21.789485, 58.32806 ], [ 21.783937, 58.332888 ], [ 21.775775, 58.331935 ], [ 21.773235, 58.335969 ], [ 21.780276, 58.339545 ] ] ], [ [ [ 25.227563, 59.578604 ], [ 25.234559, 59.574053 ], [ 25.232942, 59.572399 ], [ 25.236852, 59.567054 ], [ 25.23525, 59.566745 ], [ 25.230255, 59.569827 ], [ 25.226107, 59.571212 ], [ 25.221392, 59.571201 ], [ 25.215374, 59.569606 ], [ 25.212899, 59.572073 ], [ 25.208911, 59.572784 ], [ 25.206273, 59.574238 ], [ 25.20442, 59.577349 ], [ 25.212553, 59.576279 ], [ 25.2123, 59.574975 ], [ 25.219078, 59.575598 ], [ 25.222696, 59.577998 ], [ 25.227563, 59.578604 ] ] ], [ [ [ 25.378538, 59.507967 ], [ 25.376812, 59.506238 ], [ 25.374948, 59.506842 ], [ 25.374303, 59.51155 ], [ 25.370879, 59.512265 ], [ 25.368794, 59.514916 ], [ 25.363075, 59.516022 ], [ 25.362724, 59.516968 ], [ 25.366053, 59.518543 ], [ 25.370081, 59.519178 ], [ 25.376273, 59.521771 ], [ 25.377735, 59.519801 ], [ 25.381039, 59.517615 ], [ 25.378958, 59.515938 ], [ 25.38305, 59.512281 ], [ 25.383219, 59.510184 ], [ 25.378538, 59.507967 ] ] ], [ [ [ 23.793536, 58.332742 ], [ 23.791354, 58.330476 ], [ 23.786576, 58.331372 ], [ 23.784961, 58.334433 ], [ 23.779431, 58.336681 ], [ 23.77779, 58.340021 ], [ 23.772415, 58.341407 ], [ 23.771169, 58.344047 ], [ 23.773919, 58.345011 ], [ 23.773411, 58.347617 ], [ 23.776854, 58.349133 ], [ 23.779526, 58.346372 ], [ 23.782777, 58.344815 ], [ 23.783254, 58.341798 ], [ 23.785507, 58.341404 ], [ 23.783587, 58.339894 ], [ 23.785035, 58.337592 ], [ 23.7913, 58.33637 ], [ 23.793536, 58.332742 ] ] ], [ [ [ 23.435404, 58.548109 ], [ 23.437226, 58.545579 ], [ 23.443287, 58.546764 ], [ 23.445263, 58.546009 ], [ 23.44519, 58.543954 ], [ 23.440646, 58.542055 ], [ 23.436892, 58.542544 ], [ 23.432965, 58.540054 ], [ 23.433617, 58.538662 ], [ 23.429717, 58.537606 ], [ 23.42647, 58.538798 ], [ 23.421804, 58.538343 ], [ 23.420793, 58.539655 ], [ 23.422353, 58.542809 ], [ 23.425331, 58.543073 ], [ 23.426675, 58.546142 ], [ 23.430974, 58.546964 ], [ 23.433203, 58.548649 ], [ 23.435404, 58.548109 ] ] ], [ [ [ 23.053723, 58.77844 ], [ 23.0556, 58.776888 ], [ 23.052812, 58.776163 ], [ 23.051115, 58.774354 ], [ 23.050222, 58.770746 ], [ 23.04862, 58.770518 ], [ 23.041898, 58.774987 ], [ 23.036005, 58.776375 ], [ 23.040732, 58.778159 ], [ 23.042085, 58.7775 ], [ 23.042586, 58.780216 ], [ 23.041412, 58.782067 ], [ 23.043408, 58.784283 ], [ 23.04582, 58.784487 ], [ 23.051087, 58.781649 ], [ 23.054955, 58.78084 ], [ 23.053723, 58.77844 ] ] ], [ [ [ 23.387736, 58.937593 ], [ 23.38502, 58.934488 ], [ 23.380458, 58.938724 ], [ 23.381172, 58.940304 ], [ 23.383078, 58.944519 ], [ 23.380057, 58.950879 ], [ 23.385975, 58.955335 ], [ 23.390326, 58.953555 ], [ 23.387865, 58.944519 ], [ 23.387787, 58.940304 ], [ 23.387736, 58.937593 ] ] ], [ [ [ 23.676522, 58.765895 ], [ 23.674048, 58.763562 ], [ 23.660424, 58.765549 ], [ 23.657987, 58.772001 ], [ 23.66929, 58.772567 ], [ 23.676522, 58.765895 ] ] ], [ [ [ 23.289776, 58.426086 ], [ 23.279678, 58.421181 ], [ 23.273036, 58.421529 ], [ 23.270682, 58.424482 ], [ 23.271973, 58.426417 ], [ 23.278258, 58.425475 ], [ 23.28056, 58.428399 ], [ 23.292505, 58.43208 ], [ 23.291385, 58.427438 ], [ 23.289776, 58.426086 ] ] ], [ [ [ 22.473127, 58.138038 ], [ 22.465892, 58.134331 ], [ 22.464846, 58.138204 ], [ 22.473127, 58.148686 ], [ 22.476243, 58.15168 ], [ 22.479125, 58.14803 ], [ 22.473127, 58.138038 ] ] ], [ [ [ 25.102574, 59.594446 ], [ 25.101364, 59.592345 ], [ 25.098627, 59.594111 ], [ 25.09092, 59.597302 ], [ 25.086078, 59.598566 ], [ 25.08241, 59.601306 ], [ 25.080985, 59.607714 ], [ 25.082324, 59.60815 ], [ 25.088783, 59.603398 ], [ 25.090685, 59.601353 ], [ 25.097947, 59.597462 ], [ 25.102574, 59.594446 ] ] ], [ [ [ 25.808523, 59.676612 ], [ 25.811489, 59.675374 ], [ 25.818947, 59.675498 ], [ 25.819428, 59.67187 ], [ 25.80019, 59.676612 ], [ 25.791983, 59.683213 ], [ 25.791765, 59.685074 ], [ 25.798766, 59.684152 ], [ 25.801355, 59.679757 ], [ 25.808523, 59.676612 ] ] ], [ [ [ 22.547405, 58.143727 ], [ 22.549891, 58.14261 ], [ 22.55297, 58.143685 ], [ 22.554101, 58.141299 ], [ 22.552587, 58.139917 ], [ 22.548491, 58.141631 ], [ 22.545386, 58.139044 ], [ 22.539344, 58.138883 ], [ 22.537029, 58.138822 ], [ 22.537171, 58.140356 ], [ 22.539344, 58.143628 ], [ 22.539955, 58.144548 ], [ 22.542424, 58.146456 ], [ 22.548241, 58.146507 ], [ 22.549287, 58.144868 ], [ 22.547405, 58.143727 ] ] ], [ [ [ 21.933165, 58.369148 ], [ 21.934197, 58.364943 ], [ 21.932051, 58.361342 ], [ 21.932714, 58.360455 ], [ 21.930643, 58.35985 ], [ 21.928951, 58.360455 ], [ 21.927953, 58.36134 ], [ 21.92706, 58.364154 ], [ 21.928751, 58.365906 ], [ 21.93142, 58.36541 ], [ 21.92977, 58.368582 ], [ 21.926721, 58.368567 ], [ 21.924465, 58.371084 ], [ 21.921741, 58.372434 ], [ 21.926134, 58.372776 ], [ 21.929148, 58.372099 ], [ 21.933165, 58.369148 ] ] ], [ [ [ 23.06241, 58.620203 ], [ 23.059069, 58.619091 ], [ 23.051258, 58.620445 ], [ 23.04686, 58.622798 ], [ 23.049346, 58.625794 ], [ 23.051476, 58.626521 ], [ 23.056361, 58.624969 ], [ 23.06241, 58.620203 ] ] ], [ [ [ 23.306451, 59.041725 ], [ 23.30578, 59.03932 ], [ 23.301099, 59.039601 ], [ 23.297324, 59.036815 ], [ 23.29134, 59.039104 ], [ 23.29239, 59.042132 ], [ 23.296055, 59.043134 ], [ 23.302521, 59.043279 ], [ 23.306451, 59.041725 ] ] ], [ [ [ 23.28908, 58.940304 ], [ 23.28692, 58.93774 ], [ 23.28218, 58.938812 ], [ 23.280073, 58.940304 ], [ 23.274624, 58.944517 ], [ 23.277234, 58.946457 ], [ 23.283963, 58.944552 ], [ 23.28908, 58.940304 ] ] ], [ [ [ 21.911483, 58.372278 ], [ 21.908406, 58.370533 ], [ 21.890927, 58.372939 ], [ 21.890927, 58.374015 ], [ 21.902302, 58.37557 ], [ 21.911483, 58.372278 ] ] ], [ [ [ 23.944659, 59.336662 ], [ 23.941828, 59.332841 ], [ 23.93903, 59.333973 ], [ 23.936911, 59.333216 ], [ 23.934891, 59.33534 ], [ 23.935656, 59.336913 ], [ 23.941699, 59.33601 ], [ 23.94296, 59.33924 ], [ 23.944659, 59.339627 ], [ 23.944659, 59.336662 ] ] ], [ [ [ 23.273367, 58.432238 ], [ 23.271693, 58.428705 ], [ 23.269882, 58.428811 ], [ 23.269734, 58.432446 ], [ 23.269734, 58.433748 ], [ 23.273367, 58.432238 ] ] ], [ [ [ 22.505124, 58.123325 ], [ 22.503735, 58.120605 ], [ 22.500131, 58.121545 ], [ 22.502733, 58.124515 ], [ 22.505124, 58.123325 ] ] ], [ [ [ 22.397401, 58.214836 ], [ 22.393289, 58.213334 ], [ 22.391631, 58.215806 ], [ 22.395375, 58.216666 ], [ 22.397401, 58.214836 ] ] ], [ [ [ 22.507412, 58.214681 ], [ 22.50393, 58.213969 ], [ 22.502263, 58.216482 ], [ 22.50702, 58.217015 ], [ 22.507412, 58.214681 ] ] ], [ [ [ 24.119654, 58.229895 ], [ 24.11702, 58.228741 ], [ 24.113099, 58.23071 ], [ 24.117317, 58.231396 ], [ 24.120151, 58.231116 ], [ 24.119654, 58.229895 ] ] ], [ [ [ 22.875832, 58.301864 ], [ 22.872945, 58.301441 ], [ 22.870499, 58.302703 ], [ 22.874415, 58.305185 ], [ 22.875832, 58.301864 ] ] ], [ [ [ 21.834133, 58.36972 ], [ 21.831711, 58.365839 ], [ 21.829221, 58.366885 ], [ 21.830889, 58.369673 ], [ 21.834133, 58.36972 ] ] ], [ [ [ 23.144758, 58.551069 ], [ 23.142575, 58.550842 ], [ 23.140366, 58.552704 ], [ 23.142141, 58.554159 ], [ 23.144886, 58.553666 ], [ 23.144758, 58.551069 ] ] ], [ [ [ 23.150366, 58.555102 ], [ 23.147774, 58.554465 ], [ 23.144916, 58.555075 ], [ 23.147946, 58.557383 ], [ 23.149872, 58.557696 ], [ 23.150366, 58.555102 ] ] ], [ [ [ 22.806776, 58.761446 ], [ 22.801661, 58.76051 ], [ 22.799994, 58.761497 ], [ 22.804954, 58.76357 ], [ 22.806776, 58.761446 ] ] ], [ [ [ 23.724676, 58.783233 ], [ 23.720442, 58.782371 ], [ 23.71863, 58.783236 ], [ 23.721702, 58.785173 ], [ 23.725034, 58.784334 ], [ 23.724676, 58.783233 ] ] ], [ [ [ 22.443839, 58.807574 ], [ 22.443532, 58.806062 ], [ 22.435764, 58.806963 ], [ 22.438862, 58.808297 ], [ 22.443839, 58.807574 ] ] ], [ [ [ 24.785512, 59.590771 ], [ 24.779763, 59.589077 ], [ 24.777919, 59.590824 ], [ 24.78238, 59.591803 ], [ 24.785512, 59.590771 ] ] ], [ [ [ 22.905531, 58.98367 ], [ 22.902732, 58.980465 ], [ 22.900363, 58.982404 ], [ 22.903538, 58.984685 ], [ 22.905531, 58.98367 ] ] ], [ [ [ 22.703163, 59.023189 ], [ 22.700286, 59.023016 ], [ 22.697657, 59.025439 ], [ 22.69999, 59.026908 ], [ 22.703163, 59.023189 ] ] ], [ [ [ 25.146504, 59.539063 ], [ 25.144945, 59.538536 ], [ 25.140587, 59.540721 ], [ 25.146272, 59.541621 ], [ 25.146504, 59.539063 ] ] ], [ [ [ 25.243971, 59.564186 ], [ 25.24345, 59.562659 ], [ 25.240819, 59.562755 ], [ 25.238726, 59.564958 ], [ 25.241379, 59.565795 ], [ 25.243971, 59.564186 ] ] ], [ [ [ 26.101848, 59.602151 ], [ 26.101354, 59.598921 ], [ 26.09751, 59.599981 ], [ 26.098869, 59.602384 ], [ 26.101848, 59.602151 ] ] ], [ [ [ 25.994674, 59.626605 ], [ 25.990774, 59.624763 ], [ 25.988503, 59.625761 ], [ 25.992136, 59.628255 ], [ 25.994674, 59.626605 ] ] ], [ [ [ 23.357912, 58.974854 ], [ 23.356394, 58.973633 ], [ 23.354704, 58.975583 ], [ 23.355767, 58.976185 ], [ 23.357912, 58.974854 ] ] ], [ [ [ 23.356226, 58.977162 ], [ 23.355088, 58.975811 ], [ 23.353449, 58.976999 ], [ 23.354122, 58.977626 ], [ 23.356226, 58.977162 ] ] ] ] } }
]
}
