{
"type": "FeatureCollection",
"name": "Eswatini",
"crs": { "type": "name", "properties": { "name": "urn:ogc:def:crs:OGC:1.3:CRS84" } },
"features": [
{ "type": "Feature", "properties": { "id": "SZ", "CNTR_ID": "SZ", "CNTR_NAME": "Kingdom of Eswatini", "NAME_ENGL": "Eswatini", "ISO3_CODE": "SWZ", "FID": "SZ" }, "geometry": { "type": "MultiPolygon", "coordinates": [ [ [ [ 32.13366, -26.83498 ], [ 32.118462, -26.829399 ], [ 32.112894, -26.821974 ], [ 32.110791, -26.812945 ], [ 32.100447, -26.807154 ], [ 32.064117, -26.814508 ], [ 32.053406, -26.81466 ], [ 32.036773, -26.810742 ], [ 32.016488, -26.811226 ], [ 32.013197, -26.814439 ], [ 31.990318, -26.975951 ], [ 31.985713, -27.030336 ], [ 31.983338, -27.058367 ], [ 31.974599, -27.316177 ], [ 31.740266, -27.316645 ], [ 31.693889, -27.314392 ], [ 31.665999, -27.316321 ], [ 31.501795, -27.315112 ], [ 31.485266, -27.310828 ], [ 31.462434, -27.299981 ], [ 31.34285, -27.263125 ], [ 31.317131, -27.253044 ], [ 31.304253, -27.251494 ], [ 31.290076, -27.246241 ], [ 31.234758, -27.225737 ], [ 31.224317, -27.224363 ], [ 31.160339, -27.200522 ], [ 31.151559, -27.195095 ], [ 31.110166, -27.146466 ], [ 31.068764, -27.097806 ], [ 31.033803, -27.070284 ], [ 30.992812, -27.030336 ], [ 30.976192, -27.014134 ], [ 30.968807, -26.992971 ], [ 30.981306, -26.968924 ], [ 30.986029, -26.951851 ], [ 30.985995, -26.932682 ], [ 30.982079, -26.918726 ], [ 30.97349, -26.905486 ], [ 30.952077, -26.894109 ], [ 30.939085, -26.883078 ], [ 30.916004, -26.855831 ], [ 30.910946, -26.846787 ], [ 30.904156, -26.819769 ], [ 30.903034, -26.791461 ], [ 30.884715, -26.804476 ], [ 30.863684, -26.824681 ], [ 30.839583, -26.838435 ], [ 30.831749, -26.840879 ], [ 30.824299, -26.839964 ], [ 30.812849, -26.825962 ], [ 30.797735, -26.720586 ], [ 30.794225, -26.58911 ], [ 30.795726, -26.565061 ], [ 30.813231, -26.481338 ], [ 30.817262, -26.471983 ], [ 30.820822, -26.445929 ], [ 30.832706, -26.419651 ], [ 30.869292, -26.373449 ], [ 30.897083, -26.322458 ], [ 30.92432, -26.29402 ], [ 30.966963, -26.259524 ], [ 30.985883, -26.22997 ], [ 31.044442, -26.12008 ], [ 31.065974, -26.086045 ], [ 31.085143, -26.043417 ], [ 31.110166, -25.9997 ], [ 31.117797, -25.986365 ], [ 31.135505, -25.917484 ], [ 31.14403, -25.906515 ], [ 31.261592, -25.816468 ], [ 31.290076, -25.781063 ], [ 31.318634, -25.745555 ], [ 31.34493, -25.737771 ], [ 31.369671, -25.734599 ], [ 31.384158, -25.728456 ], [ 31.40712, -25.725139 ], [ 31.41706, -25.720609 ], [ 31.425658, -25.720566 ], [ 31.511593, -25.774428 ], [ 31.518253, -25.781071 ], [ 31.551503, -25.795997 ], [ 31.563083, -25.806751 ], [ 31.624366, -25.847942 ], [ 31.635054, -25.851903 ], [ 31.740266, -25.917716 ], [ 31.79575, -25.954226 ], [ 31.86935, -25.997921 ], [ 31.892317, -25.986379 ], [ 31.901822, -25.985552 ], [ 31.98213, -25.95205 ], [ 32.004946, -25.990249 ], [ 32.084234, -26.01032 ], [ 32.088156, -26.013858 ], [ 32.107778, -26.166017 ], [ 32.075226, -26.311629 ], [ 32.076738, -26.364176 ], [ 32.08104, -26.41111 ], [ 32.136483, -26.536069 ], [ 32.135739, -26.70154 ], [ 32.135808, -26.707333 ], [ 32.136635, -26.720846 ], [ 32.134885, -26.726609 ], [ 32.133094, -26.820911 ], [ 32.13366, -26.83498 ] ] ] ] } }
]
}
