{
"type": "FeatureCollection",
"name": "Fiji",
"crs": { "type": "name", "properties": { "name": "urn:ogc:def:crs:OGC:1.3:CRS84" } },
"features": [
{ "type": "Feature", "properties": { "id": "FJ", "CNTR_ID": "FJ", "CNTR_NAME": "Fiji-Viti-फ़िजी", "NAME_ENGL": "Fiji", "ISO3_CODE": "FJI", "FID": "FJ" }, "geometry": { "type": "MultiPolygon", "coordinates": [ [ [ [ 177.297541, -18.029321 ], [ 177.290072, -18.010028 ], [ 177.268286, -17.989975 ], [ 177.268377, -17.971125 ], [ 177.25738, -17.958888 ], [ 177.273851, -17.927583 ], [ 177.285464, -17.919125 ], [ 177.28254, -17.911572 ], [ 177.271473, -17.89823 ], [ 177.269245, -17.886942 ], [ 177.284206, -17.861738 ], [ 177.297541, -17.855879 ], [ 177.300502, -17.854776 ], [ 177.327615, -17.85916 ], [ 177.33498, -17.864645 ], [ 177.346485, -17.846866 ], [ 177.363507, -17.835454 ], [ 177.371347, -17.824984 ], [ 177.370784, -17.822775 ], [ 177.36704, -17.823142 ], [ 177.372016, -17.810729 ], [ 177.371728, -17.788011 ], [ 177.377482, -17.77338 ], [ 177.407237, -17.766706 ], [ 177.424871, -17.768185 ], [ 177.438095, -17.758101 ], [ 177.439285, -17.749981 ], [ 177.431909, -17.729552 ], [ 177.429179, -17.701309 ], [ 177.420021, -17.691023 ], [ 177.395935, -17.679261 ], [ 177.394081, -17.647291 ], [ 177.39715, -17.64455 ], [ 177.408301, -17.644255 ], [ 177.423322, -17.638897 ], [ 177.442881, -17.61456 ], [ 177.47415, -17.591623 ], [ 177.478151, -17.584911 ], [ 177.474134, -17.574162 ], [ 177.476634, -17.56782 ], [ 177.482917, -17.568508 ], [ 177.494094, -17.576571 ], [ 177.505859, -17.572828 ], [ 177.512011, -17.530828 ], [ 177.520289, -17.516579 ], [ 177.526466, -17.516124 ], [ 177.534886, -17.525081 ], [ 177.543346, -17.524438 ], [ 177.575544, -17.503633 ], [ 177.589578, -17.490503 ], [ 177.612122, -17.483695 ], [ 177.623995, -17.458009 ], [ 177.642408, -17.450747 ], [ 177.653283, -17.457251 ], [ 177.663005, -17.498364 ], [ 177.668375, -17.502973 ], [ 177.669346, -17.490203 ], [ 177.659974, -17.467495 ], [ 177.663462, -17.453164 ], [ 177.678315, -17.451184 ], [ 177.689436, -17.442749 ], [ 177.705475, -17.436739 ], [ 177.72071, -17.439062 ], [ 177.734242, -17.446 ], [ 177.752482, -17.444876 ], [ 177.761762, -17.436445 ], [ 177.760907, -17.416987 ], [ 177.770817, -17.403642 ], [ 177.799565, -17.397975 ], [ 177.810137, -17.385178 ], [ 177.82089, -17.377526 ], [ 177.825806, -17.391783 ], [ 177.818435, -17.420087 ], [ 177.823042, -17.428359 ], [ 177.841482, -17.427174 ], [ 177.861928, -17.407289 ], [ 177.881427, -17.413751 ], [ 177.900672, -17.425034 ], [ 177.94066, -17.425285 ], [ 177.972122, -17.410239 ], [ 178.011163, -17.40003 ], [ 178.027675, -17.368583 ], [ 178.056658, -17.369091 ], [ 178.079933, -17.364189 ], [ 178.097352, -17.369234 ], [ 178.112898, -17.365243 ], [ 178.131107, -17.354711 ], [ 178.164634, -17.350368 ], [ 178.181433, -17.335116 ], [ 178.183063, -17.324655 ], [ 178.183771, -17.316703 ], [ 178.187028, -17.314196 ], [ 178.197157, -17.321096 ], [ 178.209841, -17.323132 ], [ 178.211235, -17.324655 ], [ 178.214741, -17.33285 ], [ 178.210592, -17.342791 ], [ 178.225865, -17.341175 ], [ 178.24501, -17.35689 ], [ 178.263321, -17.389903 ], [ 178.263042, -17.399364 ], [ 178.25821, -17.407059 ], [ 178.237736, -17.413033 ], [ 178.233112, -17.418993 ], [ 178.23404, -17.458285 ], [ 178.244605, -17.472453 ], [ 178.24637, -17.484478 ], [ 178.250436, -17.483526 ], [ 178.253034, -17.478689 ], [ 178.250842, -17.460042 ], [ 178.261745, -17.456504 ], [ 178.279513, -17.438179 ], [ 178.291615, -17.43657 ], [ 178.320073, -17.445229 ], [ 178.334263, -17.455207 ], [ 178.337098, -17.473641 ], [ 178.343943, -17.482445 ], [ 178.343994, -17.494839 ], [ 178.356061, -17.495547 ], [ 178.352275, -17.509396 ], [ 178.366546, -17.513251 ], [ 178.369653, -17.517004 ], [ 178.370049, -17.524113 ], [ 178.380248, -17.527536 ], [ 178.377716, -17.544153 ], [ 178.388093, -17.541426 ], [ 178.398098, -17.542472 ], [ 178.413434, -17.55117 ], [ 178.426968, -17.562985 ], [ 178.467087, -17.566483 ], [ 178.487175, -17.578703 ], [ 178.506578, -17.613732 ], [ 178.518577, -17.619168 ], [ 178.535549, -17.62126 ], [ 178.551335, -17.629631 ], [ 178.554446, -17.631281 ], [ 178.561506, -17.635025 ], [ 178.577275, -17.643387 ], [ 178.580405, -17.649536 ], [ 178.582999, -17.674843 ], [ 178.570796, -17.706419 ], [ 178.562584, -17.720245 ], [ 178.561506, -17.725428 ], [ 178.557232, -17.745977 ], [ 178.554446, -17.748901 ], [ 178.551335, -17.754103 ], [ 178.538062, -17.776295 ], [ 178.5413, -17.778608 ], [ 178.551335, -17.776953 ], [ 178.554776, -17.789003 ], [ 178.569428, -17.787169 ], [ 178.582795, -17.798567 ], [ 178.579735, -17.813784 ], [ 178.56318, -17.825649 ], [ 178.562079, -17.83008 ], [ 178.586535, -17.83514 ], [ 178.603377, -17.83545 ], [ 178.606149, -17.842364 ], [ 178.60413, -17.852679 ], [ 178.618021, -17.860304 ], [ 178.614635, -17.869447 ], [ 178.600581, -17.8783 ], [ 178.599453, -17.893149 ], [ 178.585256, -17.894161 ], [ 178.574896, -17.900763 ], [ 178.576193, -17.920971 ], [ 178.571643, -17.931852 ], [ 178.585493, -17.936526 ], [ 178.602263, -17.963061 ], [ 178.592646, -17.974923 ], [ 178.576821, -17.972633 ], [ 178.580001, -17.983488 ], [ 178.590578, -17.989932 ], [ 178.611914, -17.981131 ], [ 178.631735, -17.986345 ], [ 178.654333, -18.02031 ], [ 178.65295, -18.032499 ], [ 178.660955, -18.030717 ], [ 178.67394, -18.019146 ], [ 178.681858, -18.012089 ], [ 178.688036, -18.011158 ], [ 178.675008, -18.037924 ], [ 178.676591, -18.056716 ], [ 178.67394, -18.060107 ], [ 178.646455, -18.089761 ], [ 178.61757, -18.101999 ], [ 178.592727, -18.122365 ], [ 178.583695, -18.12251 ], [ 178.57459, -18.115497 ], [ 178.568846, -18.119967 ], [ 178.546543, -18.126994 ], [ 178.544934, -18.129771 ], [ 178.547404, -18.131012 ], [ 178.570536, -18.125789 ], [ 178.560512, -18.135706 ], [ 178.562039, -18.146172 ], [ 178.549897, -18.136217 ], [ 178.53749, -18.135987 ], [ 178.533919, -18.130247 ], [ 178.544332, -18.120719 ], [ 178.5423, -18.11476 ], [ 178.545031, -18.11016 ], [ 178.556239, -18.10176 ], [ 178.56593, -18.101094 ], [ 178.56447, -18.089891 ], [ 178.571666, -18.064985 ], [ 178.567215, -18.054787 ], [ 178.537649, -18.032457 ], [ 178.560846, -18.053962 ], [ 178.566683, -18.063079 ], [ 178.566256, -18.071371 ], [ 178.556878, -18.089746 ], [ 178.544286, -18.097738 ], [ 178.509513, -18.094005 ], [ 178.501076, -18.101709 ], [ 178.473354, -18.114827 ], [ 178.462426, -18.136097 ], [ 178.449881, -18.150568 ], [ 178.441187, -18.155299 ], [ 178.427471, -18.148648 ], [ 178.427497, -18.122791 ], [ 178.421368, -18.11413 ], [ 178.383935, -18.109393 ], [ 178.378614, -18.11296 ], [ 178.379308, -18.123766 ], [ 178.36738, -18.131792 ], [ 178.345456, -18.121653 ], [ 178.329717, -18.122308 ], [ 178.29983, -18.14496 ], [ 178.293103, -18.15752 ], [ 178.279083, -18.155187 ], [ 178.264924, -18.158986 ], [ 178.253368, -18.176687 ], [ 178.23825, -18.19024 ], [ 178.218789, -18.191362 ], [ 178.205145, -18.186617 ], [ 178.203044, -18.192362 ], [ 178.205875, -18.201311 ], [ 178.204169, -18.206332 ], [ 178.186793, -18.220184 ], [ 178.163381, -18.245939 ], [ 178.159435, -18.246423 ], [ 178.156034, -18.241342 ], [ 178.153273, -18.241452 ], [ 178.147792, -18.257214 ], [ 178.138285, -18.262449 ], [ 178.133207, -18.261425 ], [ 178.135753, -18.254176 ], [ 178.133255, -18.245673 ], [ 178.120808, -18.252554 ], [ 178.107079, -18.242459 ], [ 178.053013, -18.258639 ], [ 178.024374, -18.26051 ], [ 177.97889, -18.253723 ], [ 177.951971, -18.261172 ], [ 177.899196, -18.267888 ], [ 177.89184, -18.264801 ], [ 177.878192, -18.249537 ], [ 177.856525, -18.252735 ], [ 177.839497, -18.24465 ], [ 177.829589, -18.235328 ], [ 177.802938, -18.232366 ], [ 177.770228, -18.219761 ], [ 177.724261, -18.2092 ], [ 177.703434, -18.200616 ], [ 177.680855, -18.198501 ], [ 177.649992, -18.191481 ], [ 177.599988, -18.175739 ], [ 177.557595, -18.1744 ], [ 177.532048, -18.166352 ], [ 177.520154, -18.158765 ], [ 177.50899, -18.167336 ], [ 177.466817, -18.164483 ], [ 177.442842, -18.149641 ], [ 177.427731, -18.135118 ], [ 177.414197, -18.127929 ], [ 177.396564, -18.128247 ], [ 177.377429, -18.121837 ], [ 177.342682, -18.116466 ], [ 177.312231, -18.083252 ], [ 177.309097, -18.04203 ], [ 177.297541, -18.029321 ] ] ], [ [ [ 178.67394, -16.943916 ], [ 178.669232, -16.925055 ], [ 178.660576, -16.902489 ], [ 178.626694, -16.857493 ], [ 178.624948, -16.830772 ], [ 178.630693, -16.817845 ], [ 178.628906, -16.81239 ], [ 178.608194, -16.80401 ], [ 178.591627, -16.792446 ], [ 178.562726, -16.799207 ], [ 178.551335, -16.806459 ], [ 178.535845, -16.817198 ], [ 178.518577, -16.816698 ], [ 178.511351, -16.816133 ], [ 178.50904, -16.82178 ], [ 178.50472, -16.820646 ], [ 178.49668, -16.811681 ], [ 178.497679, -16.801297 ], [ 178.491504, -16.784891 ], [ 178.496573, -16.779033 ], [ 178.488726, -16.773358 ], [ 178.485017, -16.757951 ], [ 178.487799, -16.750838 ], [ 178.495589, -16.748815 ], [ 178.49371, -16.740154 ], [ 178.502468, -16.737266 ], [ 178.501595, -16.728338 ], [ 178.506464, -16.724082 ], [ 178.513422, -16.726556 ], [ 178.512554, -16.718788 ], [ 178.518577, -16.714298 ], [ 178.523625, -16.71201 ], [ 178.532822, -16.71402 ], [ 178.530076, -16.731841 ], [ 178.53611, -16.738121 ], [ 178.542562, -16.734781 ], [ 178.548897, -16.723954 ], [ 178.543853, -16.714761 ], [ 178.545447, -16.708095 ], [ 178.551335, -16.706984 ], [ 178.558986, -16.712553 ], [ 178.564764, -16.710125 ], [ 178.572154, -16.695177 ], [ 178.574203, -16.681691 ], [ 178.583849, -16.667344 ], [ 178.58514, -16.659197 ], [ 178.579211, -16.655801 ], [ 178.569697, -16.663158 ], [ 178.551335, -16.670093 ], [ 178.540597, -16.665955 ], [ 178.533469, -16.648709 ], [ 178.537741, -16.643181 ], [ 178.551335, -16.63651 ], [ 178.561506, -16.63165 ], [ 178.567992, -16.628551 ], [ 178.577844, -16.628403 ], [ 178.59147, -16.639408 ], [ 178.596502, -16.653439 ], [ 178.601367, -16.658109 ], [ 178.612203, -16.659668 ], [ 178.618133, -16.65563 ], [ 178.627328, -16.65047 ], [ 178.648187, -16.667831 ], [ 178.67394, -16.674333 ], [ 178.695918, -16.679882 ], [ 178.707874, -16.659874 ], [ 178.727896, -16.651258 ], [ 178.743991, -16.634374 ], [ 178.763383, -16.623057 ], [ 178.779661, -16.609585 ], [ 178.791607, -16.606479 ], [ 178.803592, -16.609192 ], [ 178.808019, -16.614949 ], [ 178.806428, -16.635011 ], [ 178.822318, -16.637015 ], [ 178.820065, -16.614443 ], [ 178.828774, -16.599645 ], [ 178.827895, -16.585267 ], [ 178.839265, -16.564495 ], [ 178.844945, -16.562597 ], [ 178.848845, -16.573206 ], [ 178.862089, -16.560419 ], [ 178.876201, -16.568183 ], [ 178.895463, -16.574445 ], [ 178.901254, -16.573715 ], [ 178.893268, -16.562616 ], [ 178.891023, -16.552151 ], [ 178.894575, -16.539542 ], [ 178.914357, -16.518372 ], [ 178.910996, -16.495242 ], [ 178.915711, -16.489651 ], [ 178.927703, -16.484844 ], [ 178.936174, -16.474658 ], [ 178.948103, -16.467242 ], [ 178.955084, -16.467999 ], [ 178.95716, -16.476809 ], [ 178.963223, -16.480459 ], [ 179.002311, -16.469076 ], [ 179.03772, -16.473121 ], [ 179.064726, -16.455766 ], [ 179.086584, -16.44976 ], [ 179.101402, -16.449503 ], [ 179.114546, -16.442879 ], [ 179.131922, -16.438604 ], [ 179.162825, -16.437099 ], [ 179.182605, -16.420721 ], [ 179.206756, -16.411112 ], [ 179.226344, -16.417518 ], [ 179.243603, -16.417443 ], [ 179.259497, -16.422025 ], [ 179.270407, -16.420204 ], [ 179.272815, -16.420765 ], [ 179.274913, -16.421254 ], [ 179.304433, -16.428132 ], [ 179.308545, -16.425825 ], [ 179.304267, -16.420027 ], [ 179.305298, -16.415943 ], [ 179.322195, -16.420672 ], [ 179.328764, -16.416191 ], [ 179.333298, -16.406165 ], [ 179.34229, -16.404725 ], [ 179.366113, -16.42705 ], [ 179.373868, -16.421716 ], [ 179.38299, -16.422897 ], [ 179.383921, -16.411557 ], [ 179.364769, -16.383977 ], [ 179.366713, -16.372684 ], [ 179.376338, -16.366463 ], [ 179.39004, -16.371569 ], [ 179.3988, -16.364178 ], [ 179.409483, -16.365782 ], [ 179.411857, -16.356796 ], [ 179.408777, -16.342952 ], [ 179.411999, -16.32973 ], [ 179.417702, -16.326894 ], [ 179.425226, -16.330578 ], [ 179.431678, -16.323398 ], [ 179.44265, -16.321328 ], [ 179.457658, -16.294684 ], [ 179.459759, -16.282781 ], [ 179.478347, -16.291547 ], [ 179.491537, -16.286072 ], [ 179.515008, -16.290581 ], [ 179.51868, -16.283923 ], [ 179.510209, -16.265403 ], [ 179.517819, -16.260492 ], [ 179.524457, -16.266234 ], [ 179.530337, -16.28639 ], [ 179.538826, -16.291374 ], [ 179.545444, -16.291074 ], [ 179.547582, -16.284668 ], [ 179.544158, -16.275745 ], [ 179.545172, -16.26388 ], [ 179.541291, -16.248931 ], [ 179.543376, -16.240979 ], [ 179.54891, -16.244541 ], [ 179.557186, -16.256953 ], [ 179.567426, -16.261268 ], [ 179.580184, -16.271303 ], [ 179.583539, -16.256851 ], [ 179.590207, -16.25702 ], [ 179.598979, -16.266835 ], [ 179.605929, -16.251845 ], [ 179.625463, -16.243141 ], [ 179.631079, -16.230263 ], [ 179.643107, -16.236589 ], [ 179.650728, -16.23621 ], [ 179.656093, -16.223153 ], [ 179.657415, -16.2101 ], [ 179.662689, -16.202878 ], [ 179.672843, -16.201736 ], [ 179.673148, -16.212272 ], [ 179.679199, -16.218138 ], [ 179.699234, -16.204576 ], [ 179.712169, -16.203775 ], [ 179.730514, -16.197894 ], [ 179.736366, -16.199872 ], [ 179.739944, -16.207165 ], [ 179.747815, -16.211727 ], [ 179.740949, -16.223417 ], [ 179.742724, -16.230943 ], [ 179.770766, -16.234394 ], [ 179.786917, -16.225582 ], [ 179.790086, -16.216125 ], [ 179.802494, -16.215484 ], [ 179.810897, -16.207031 ], [ 179.819176, -16.204946 ], [ 179.823505, -16.21275 ], [ 179.81032, -16.23092 ], [ 179.808781, -16.238547 ], [ 179.813217, -16.239923 ], [ 179.82103, -16.237532 ], [ 179.833257, -16.224065 ], [ 179.844059, -16.238378 ], [ 179.855713, -16.223441 ], [ 179.858463, -16.215588 ], [ 179.863642, -16.212162 ], [ 179.865622, -16.204893 ], [ 179.873733, -16.2013 ], [ 179.887891, -16.186077 ], [ 179.897121, -16.186015 ], [ 179.90782, -16.190867 ], [ 179.958492, -16.162908 ], [ 179.982658, -16.159238 ], [ 179.991105, -16.154791 ], [ 179.996985, -16.15913 ], [ 179.997213, -16.166261 ], [ 179.992108, -16.173118 ], [ 179.968849, -16.184834 ], [ 179.933435, -16.209406 ], [ 179.916059, -16.215105 ], [ 179.902284, -16.231555 ], [ 179.88621, -16.238703 ], [ 179.870423, -16.256618 ], [ 179.845395, -16.274825 ], [ 179.832553, -16.312287 ], [ 179.812895, -16.349102 ], [ 179.789954, -16.378526 ], [ 179.777097, -16.389485 ], [ 179.771327, -16.407433 ], [ 179.756827, -16.426375 ], [ 179.738666, -16.459979 ], [ 179.710536, -16.482146 ], [ 179.67812, -16.496992 ], [ 179.648073, -16.506568 ], [ 179.629947, -16.525141 ], [ 179.611227, -16.532403 ], [ 179.583399, -16.551265 ], [ 179.572566, -16.56692 ], [ 179.57338, -16.580883 ], [ 179.567924, -16.593535 ], [ 179.555692, -16.603085 ], [ 179.561191, -16.619928 ], [ 179.545851, -16.633278 ], [ 179.528223, -16.641234 ], [ 179.522827, -16.650634 ], [ 179.511393, -16.661413 ], [ 179.497056, -16.688442 ], [ 179.479541, -16.702806 ], [ 179.486583, -16.728946 ], [ 179.479001, -16.756572 ], [ 179.480177, -16.765032 ], [ 179.490633, -16.767542 ], [ 179.528728, -16.757946 ], [ 179.540654, -16.7604 ], [ 179.543191, -16.767094 ], [ 179.557598, -16.765464 ], [ 179.575042, -16.743573 ], [ 179.613255, -16.72917 ], [ 179.639658, -16.693886 ], [ 179.677184, -16.671407 ], [ 179.695535, -16.655815 ], [ 179.720439, -16.609645 ], [ 179.748471, -16.583794 ], [ 179.777076, -16.564973 ], [ 179.800644, -16.539802 ], [ 179.818614, -16.52846 ], [ 179.850574, -16.517021 ], [ 179.882703, -16.50162 ], [ 179.901754, -16.482055 ], [ 179.923674, -16.473761 ], [ 179.933216, -16.485725 ], [ 179.932021, -16.502704 ], [ 179.921275, -16.525723 ], [ 179.904436, -16.545035 ], [ 179.900481, -16.563406 ], [ 179.888969, -16.587377 ], [ 179.872688, -16.609881 ], [ 179.872731, -16.631245 ], [ 179.85415, -16.643927 ], [ 179.845006, -16.657287 ], [ 179.830717, -16.670909 ], [ 179.835063, -16.674034 ], [ 179.857126, -16.674582 ], [ 179.875103, -16.680126 ], [ 179.890603, -16.712495 ], [ 179.892146, -16.723732 ], [ 179.899734, -16.721561 ], [ 179.905504, -16.725286 ], [ 179.915896, -16.726101 ], [ 179.92884, -16.737592 ], [ 179.930584, -16.748047 ], [ 179.924539, -16.758611 ], [ 179.917924, -16.758504 ], [ 179.904604, -16.749117 ], [ 179.895929, -16.748335 ], [ 179.89031, -16.753297 ], [ 179.893537, -16.764405 ], [ 179.891907, -16.77002 ], [ 179.880275, -16.768685 ], [ 179.869821, -16.771679 ], [ 179.85626, -16.763111 ], [ 179.855956, -16.751673 ], [ 179.851786, -16.747335 ], [ 179.824735, -16.745028 ], [ 179.805465, -16.731631 ], [ 179.789086, -16.724629 ], [ 179.776689, -16.723614 ], [ 179.749749, -16.728377 ], [ 179.719637, -16.718533 ], [ 179.706829, -16.724253 ], [ 179.693168, -16.739211 ], [ 179.665155, -16.743683 ], [ 179.653848, -16.754907 ], [ 179.641032, -16.749719 ], [ 179.634969, -16.75969 ], [ 179.614059, -16.776807 ], [ 179.598127, -16.794606 ], [ 179.58191, -16.795408 ], [ 179.574491, -16.80263 ], [ 179.549317, -16.787741 ], [ 179.530462, -16.790594 ], [ 179.515523, -16.799702 ], [ 179.481543, -16.800729 ], [ 179.457057, -16.809088 ], [ 179.425678, -16.800367 ], [ 179.386238, -16.801888 ], [ 179.371633, -16.799548 ], [ 179.356945, -16.805423 ], [ 179.337972, -16.805297 ], [ 179.323511, -16.812029 ], [ 179.304497, -16.816551 ], [ 179.298053, -16.814425 ], [ 179.297247, -16.810213 ], [ 179.320881, -16.784534 ], [ 179.347151, -16.773936 ], [ 179.358811, -16.765213 ], [ 179.361724, -16.757272 ], [ 179.360611, -16.738214 ], [ 179.325322, -16.725273 ], [ 179.315832, -16.714733 ], [ 179.2809, -16.699797 ], [ 179.274913, -16.699837 ], [ 179.272815, -16.699852 ], [ 179.212504, -16.700328 ], [ 179.200638, -16.703934 ], [ 179.181316, -16.714161 ], [ 179.157431, -16.742707 ], [ 179.130376, -16.757169 ], [ 179.107724, -16.793307 ], [ 179.056884, -16.80666 ], [ 179.048265, -16.817453 ], [ 179.040662, -16.84984 ], [ 179.022889, -16.893716 ], [ 179.026642, -16.893508 ], [ 179.034812, -16.882499 ], [ 179.043138, -16.878801 ], [ 179.068577, -16.884517 ], [ 179.072093, -16.893225 ], [ 179.067256, -16.899884 ], [ 179.043845, -16.906553 ], [ 179.024109, -16.919279 ], [ 179.007727, -16.915501 ], [ 178.990387, -16.905574 ], [ 178.973221, -16.906255 ], [ 178.964194, -16.903691 ], [ 178.948502, -16.886566 ], [ 178.931092, -16.873536 ], [ 178.922984, -16.86143 ], [ 178.915304, -16.873505 ], [ 178.895664, -16.86051 ], [ 178.874127, -16.860709 ], [ 178.851644, -16.88585 ], [ 178.836366, -16.894714 ], [ 178.825476, -16.906698 ], [ 178.808548, -16.915761 ], [ 178.808973, -16.932945 ], [ 178.80427, -16.946992 ], [ 178.781356, -16.961613 ], [ 178.794674, -16.975309 ], [ 178.793652, -16.989107 ], [ 178.786601, -16.99366 ], [ 178.772104, -16.994304 ], [ 178.759144, -17.007368 ], [ 178.735345, -17.009656 ], [ 178.719395, -17.00758 ], [ 178.694256, -16.988664 ], [ 178.678683, -16.962914 ], [ 178.67394, -16.943916 ] ] ], [ [ [ 177.961432, -19.120968 ], [ 177.965439, -19.114076 ], [ 178.01827, -19.105891 ], [ 178.028363, -19.095753 ], [ 178.03488, -19.081498 ], [ 178.044184, -19.07692 ], [ 178.050922, -19.077734 ], [ 178.06176, -19.071811 ], [ 178.066481, -19.075667 ], [ 178.087375, -19.071666 ], [ 178.094568, -19.073273 ], [ 178.098865, -19.080123 ], [ 178.113197, -19.07858 ], [ 178.125181, -19.082027 ], [ 178.125686, -19.058312 ], [ 178.131481, -19.049644 ], [ 178.143103, -19.047128 ], [ 178.157626, -19.056034 ], [ 178.163975, -19.052209 ], [ 178.167905, -19.008506 ], [ 178.164348, -19.000163 ], [ 178.16829, -18.993008 ], [ 178.179547, -18.984206 ], [ 178.208055, -18.981226 ], [ 178.227461, -18.968656 ], [ 178.242866, -18.968159 ], [ 178.253485, -18.972136 ], [ 178.259155, -18.966274 ], [ 178.261778, -18.964952 ], [ 178.263993, -18.968359 ], [ 178.260865, -18.975487 ], [ 178.261597, -18.977555 ], [ 178.265473, -18.978236 ], [ 178.270524, -18.973628 ], [ 178.276353, -18.982116 ], [ 178.27974, -18.984635 ], [ 178.281647, -18.974982 ], [ 178.280183, -18.96947 ], [ 178.283555, -18.964867 ], [ 178.285722, -18.964173 ], [ 178.286805, -18.949585 ], [ 178.290025, -18.949919 ], [ 178.296083, -18.955418 ], [ 178.308168, -18.955618 ], [ 178.313218, -18.95101 ], [ 178.317293, -18.938364 ], [ 178.327684, -18.938795 ], [ 178.336122, -18.936247 ], [ 178.340975, -18.940828 ], [ 178.354754, -18.942169 ], [ 178.364397, -18.938238 ], [ 178.37044, -18.93799 ], [ 178.371905, -18.942581 ], [ 178.379412, -18.947155 ], [ 178.382098, -18.956797 ], [ 178.389315, -18.948506 ], [ 178.394641, -18.950558 ], [ 178.404788, -18.949837 ], [ 178.407214, -18.952357 ], [ 178.416385, -18.95187 ], [ 178.419544, -18.955536 ], [ 178.418826, -18.958985 ], [ 178.421596, -18.966274 ], [ 178.421484, -18.975073 ], [ 178.414715, -18.986358 ], [ 178.416588, -18.989299 ], [ 178.421422, -18.985806 ], [ 178.425164, -18.990407 ], [ 178.42798, -18.98205 ], [ 178.43382, -18.983338 ], [ 178.435095, -18.975204 ], [ 178.431273, -18.96903 ], [ 178.433788, -18.966274 ], [ 178.441547, -18.961211 ], [ 178.444706, -18.963267 ], [ 178.447346, -18.958205 ], [ 178.453632, -18.959332 ], [ 178.458021, -18.966274 ], [ 178.461872, -18.970852 ], [ 178.473505, -18.972317 ], [ 178.479732, -18.981216 ], [ 178.481608, -18.991495 ], [ 178.489317, -19.001973 ], [ 178.469673, -19.001451 ], [ 178.476744, -19.010663 ], [ 178.47055, -19.026297 ], [ 178.462206, -19.02308 ], [ 178.455235, -19.024085 ], [ 178.448829, -19.018943 ], [ 178.442254, -19.022421 ], [ 178.442695, -19.026152 ], [ 178.457523, -19.033191 ], [ 178.454271, -19.04161 ], [ 178.447988, -19.037655 ], [ 178.441665, -19.038776 ], [ 178.432578, -19.031405 ], [ 178.424131, -19.032459 ], [ 178.420849, -19.026303 ], [ 178.41377, -19.021328 ], [ 178.407701, -19.024868 ], [ 178.412639, -19.028473 ], [ 178.411032, -19.033728 ], [ 178.4159, -19.047433 ], [ 178.414272, -19.051743 ], [ 178.385936, -19.041057 ], [ 178.384097, -19.048931 ], [ 178.372497, -19.060158 ], [ 178.364837, -19.055154 ], [ 178.354945, -19.05893 ], [ 178.353802, -19.052351 ], [ 178.345174, -19.044069 ], [ 178.325722, -19.061071 ], [ 178.325283, -19.05521 ], [ 178.341411, -19.038101 ], [ 178.341428, -19.029154 ], [ 178.324235, -19.031011 ], [ 178.319655, -19.026761 ], [ 178.314048, -19.031407 ], [ 178.310597, -19.030752 ], [ 178.306994, -19.025867 ], [ 178.307786, -19.02074 ], [ 178.320624, -19.017981 ], [ 178.322778, -19.01447 ], [ 178.310666, -19.005424 ], [ 178.299223, -19.004525 ], [ 178.288133, -18.993298 ], [ 178.286584, -18.993987 ], [ 178.287758, -19.002595 ], [ 178.278033, -18.997232 ], [ 178.274715, -19.001345 ], [ 178.269966, -19.000371 ], [ 178.272411, -19.013002 ], [ 178.269266, -19.019625 ], [ 178.264877, -19.020069 ], [ 178.261221, -19.016311 ], [ 178.253949, -19.021045 ], [ 178.24588, -19.017806 ], [ 178.240927, -19.021169 ], [ 178.238751, -19.031132 ], [ 178.242144, -19.040423 ], [ 178.227076, -19.04526 ], [ 178.218417, -19.05593 ], [ 178.214378, -19.055611 ], [ 178.210138, -19.049612 ], [ 178.204707, -19.055162 ], [ 178.19323, -19.05025 ], [ 178.183931, -19.049482 ], [ 178.176983, -19.054961 ], [ 178.183236, -19.061856 ], [ 178.182676, -19.065338 ], [ 178.175669, -19.068106 ], [ 178.164416, -19.065415 ], [ 178.163398, -19.066631 ], [ 178.167947, -19.074918 ], [ 178.169016, -19.100851 ], [ 178.178015, -19.112388 ], [ 178.191514, -19.11988 ], [ 178.192899, -19.124281 ], [ 178.189702, -19.138633 ], [ 178.184174, -19.147955 ], [ 178.168457, -19.157845 ], [ 178.152878, -19.159164 ], [ 178.14952, -19.157168 ], [ 178.157233, -19.149076 ], [ 178.159286, -19.140957 ], [ 178.158986, -19.129774 ], [ 178.152372, -19.123182 ], [ 178.144683, -19.124056 ], [ 178.12977, -19.144093 ], [ 178.124337, -19.131384 ], [ 178.115654, -19.130905 ], [ 178.109457, -19.138434 ], [ 178.109139, -19.144884 ], [ 178.104502, -19.146951 ], [ 178.104156, -19.153479 ], [ 178.089348, -19.165529 ], [ 178.082605, -19.15302 ], [ 178.076738, -19.15349 ], [ 178.071562, -19.162415 ], [ 178.060421, -19.157619 ], [ 178.051855, -19.157998 ], [ 178.052107, -19.14806 ], [ 178.035496, -19.146467 ], [ 178.026033, -19.149842 ], [ 178.014277, -19.148567 ], [ 178.014279, -19.153862 ], [ 178.019819, -19.155795 ], [ 178.021557, -19.160546 ], [ 178.021126, -19.164516 ], [ 178.017835, -19.165306 ], [ 178.010721, -19.160029 ], [ 178.00763, -19.14801 ], [ 177.99204, -19.141978 ], [ 177.977304, -19.148324 ], [ 177.975257, -19.141311 ], [ 177.968139, -19.139973 ], [ 177.961432, -19.120968 ] ] ], [ [ [ -180.0, -16.797261 ], [ -179.980007, -16.783692 ], [ -179.959836, -16.763769 ], [ -179.925295, -16.718229 ], [ -179.908987, -16.709929 ], [ -179.895592, -16.697802 ], [ -179.88148, -16.694513 ], [ -179.873833, -16.686577 ], [ -179.861843, -16.691843 ], [ -179.848216, -16.729903 ], [ -179.85217, -16.741996 ], [ -179.851391, -16.754503 ], [ -179.837771, -16.768761 ], [ -179.828143, -16.773231 ], [ -179.821182, -16.786175 ], [ -179.823923, -16.789313 ], [ -179.832521, -16.790006 ], [ -179.842552, -16.795303 ], [ -179.846234, -16.803064 ], [ -179.839024, -16.803757 ], [ -179.838608, -16.80815 ], [ -179.858253, -16.818324 ], [ -179.872997, -16.854038 ], [ -179.874769, -16.871383 ], [ -179.895421, -16.872958 ], [ -179.906384, -16.880813 ], [ -179.924296, -16.903418 ], [ -179.942656, -16.912622 ], [ -179.950753, -16.922886 ], [ -179.963076, -16.929709 ], [ -179.968912, -16.938249 ], [ -179.985148, -16.949432 ], [ -179.991745, -16.96397 ], [ -180.0, -16.972751 ], [ -180.0, -16.797261 ] ] ], [ [ [ 179.241712, -18.002932 ], [ 179.249119, -17.992526 ], [ 179.255816, -17.990695 ], [ 179.258078, -17.982777 ], [ 179.256935, -17.971628 ], [ 179.249073, -17.960771 ], [ 179.266409, -17.959192 ], [ 179.272815, -17.952322 ], [ 179.274913, -17.950072 ], [ 179.284147, -17.943868 ], [ 179.309449, -17.945942 ], [ 179.316849, -17.957806 ], [ 179.322647, -17.961662 ], [ 179.322906, -17.964188 ], [ 179.318848, -17.966976 ], [ 179.32457, -17.972061 ], [ 179.328049, -17.975168 ], [ 179.329788, -17.979979 ], [ 179.336349, -17.98842 ], [ 179.346771, -17.998211 ], [ 179.346863, -18.007627 ], [ 179.352646, -18.010563 ], [ 179.357834, -18.02499 ], [ 179.356934, -18.03051 ], [ 179.358643, -18.034399 ], [ 179.357483, -18.038544 ], [ 179.353668, -18.041792 ], [ 179.359512, -18.049553 ], [ 179.358368, -18.055534 ], [ 179.363007, -18.062614 ], [ 179.366608, -18.062586 ], [ 179.367126, -18.066484 ], [ 179.36528, -18.074541 ], [ 179.36969, -18.082771 ], [ 179.371262, -18.096081 ], [ 179.369858, -18.099997 ], [ 179.363174, -18.105797 ], [ 179.356552, -18.115499 ], [ 179.352005, -18.118296 ], [ 179.335907, -18.118429 ], [ 179.323654, -18.103306 ], [ 179.322037, -18.101318 ], [ 179.317871, -18.092394 ], [ 179.312546, -18.088074 ], [ 179.314667, -18.083923 ], [ 179.313309, -18.067625 ], [ 179.309449, -18.059847 ], [ 179.29386, -18.045978 ], [ 179.28062, -18.04301 ], [ 179.279766, -18.033926 ], [ 179.274913, -18.029159 ], [ 179.272815, -18.027421 ], [ 179.259663, -18.016524 ], [ 179.256732, -18.019673 ], [ 179.259504, -18.036475 ], [ 179.25602, -18.038224 ], [ 179.250125, -18.036364 ], [ 179.248411, -18.030864 ], [ 179.242571, -18.02738 ], [ 179.244136, -18.010064 ], [ 179.241712, -18.002932 ] ] ], [ [ [ 179.893208, -16.950974 ], [ 179.894352, -16.946828 ], [ 179.908438, -16.929215 ], [ 179.912879, -16.92807 ], [ 179.924951, -16.91456 ], [ 179.929377, -16.906701 ], [ 179.941006, -16.901514 ], [ 179.945935, -16.895485 ], [ 179.95845, -16.885464 ], [ 179.962189, -16.87968 ], [ 179.963959, -16.870018 ], [ 179.972307, -16.851783 ], [ 179.979297, -16.826254 ], [ 179.997426, -16.802877 ], [ 179.99904, -16.803397 ], [ 179.999426, -16.899997 ], [ 179.999991, -16.972765 ], [ 179.996496, -16.979692 ], [ 179.994237, -16.981384 ], [ 179.983158, -16.984569 ], [ 179.977038, -16.991302 ], [ 179.954894, -16.995012 ], [ 179.94708, -17.000157 ], [ 179.941143, -17.001834 ], [ 179.930262, -17.009541 ], [ 179.925256, -17.009829 ], [ 179.918755, -17.006691 ], [ 179.91465, -17.002149 ], [ 179.911948, -16.99667 ], [ 179.914375, -16.981489 ], [ 179.907584, -16.973534 ], [ 179.897023, -16.969295 ], [ 179.895558, -16.966786 ], [ 179.896443, -16.960577 ], [ 179.893208, -16.950974 ] ] ], [ [ [ 179.352399, -17.262176 ], [ 179.35359, -17.260329 ], [ 179.358381, -17.261666 ], [ 179.364592, -17.260924 ], [ 179.373351, -17.253272 ], [ 179.378386, -17.253688 ], [ 179.389099, -17.250151 ], [ 179.42299, -17.244341 ], [ 179.429445, -17.244513 ], [ 179.435961, -17.249735 ], [ 179.438631, -17.254533 ], [ 179.439913, -17.262099 ], [ 179.438211, -17.282467 ], [ 179.44422, -17.299667 ], [ 179.443023, -17.308943 ], [ 179.445966, -17.31951 ], [ 179.443224, -17.324655 ], [ 179.423153, -17.362304 ], [ 179.417898, -17.379063 ], [ 179.410332, -17.383898 ], [ 179.400086, -17.38672 ], [ 179.388108, -17.397543 ], [ 179.376743, -17.399728 ], [ 179.378958, -17.383898 ], [ 179.382331, -17.369825 ], [ 179.379916, -17.352284 ], [ 179.373046, -17.334058 ], [ 179.373126, -17.324655 ], [ 179.373176, -17.31876 ], [ 179.367263, -17.305157 ], [ 179.36602, -17.282467 ], [ 179.367857, -17.278114 ], [ 179.366881, -17.275139 ], [ 179.359205, -17.273597 ], [ 179.358702, -17.270387 ], [ 179.352399, -17.262176 ] ] ], [ [ [ 178.741058, -17.665817 ], [ 178.747711, -17.655451 ], [ 178.749281, -17.649433 ], [ 178.750833, -17.646166 ], [ 178.757419, -17.644032 ], [ 178.762675, -17.633862 ], [ 178.776318, -17.625656 ], [ 178.794083, -17.620982 ], [ 178.813895, -17.627837 ], [ 178.830152, -17.649433 ], [ 178.838944, -17.68092 ], [ 178.837067, -17.686211 ], [ 178.839752, -17.694922 ], [ 178.839783, -17.700893 ], [ 178.834152, -17.719296 ], [ 178.827255, -17.72852 ], [ 178.821289, -17.732685 ], [ 178.818649, -17.731781 ], [ 178.814362, -17.736857 ], [ 178.811249, -17.736874 ], [ 178.804733, -17.729101 ], [ 178.796814, -17.728684 ], [ 178.794434, -17.731682 ], [ 178.793747, -17.737656 ], [ 178.778473, -17.747839 ], [ 178.776062, -17.746245 ], [ 178.775528, -17.73844 ], [ 178.773849, -17.736612 ], [ 178.765198, -17.734129 ], [ 178.760864, -17.730936 ], [ 178.759628, -17.725662 ], [ 178.756729, -17.721542 ], [ 178.756943, -17.716719 ], [ 178.754745, -17.710529 ], [ 178.752335, -17.708933 ], [ 178.750381, -17.701366 ], [ 178.746994, -17.697248 ], [ 178.747696, -17.69449 ], [ 178.74382, -17.687391 ], [ 178.745956, -17.682558 ], [ 178.742783, -17.672928 ], [ 178.743973, -17.671085 ], [ 178.741058, -17.665817 ] ] ], [ [ [ 179.836717, -18.587452 ], [ 179.837648, -18.585372 ], [ 179.850621, -18.581091 ], [ 179.854864, -18.574149 ], [ 179.864937, -18.569439 ], [ 179.870172, -18.564784 ], [ 179.875239, -18.564496 ], [ 179.879772, -18.561457 ], [ 179.88435, -18.560714 ], [ 179.888959, -18.56342 ], [ 179.895171, -18.558982 ], [ 179.901688, -18.559597 ], [ 179.905275, -18.557487 ], [ 179.912768, -18.558547 ], [ 179.917546, -18.555504 ], [ 179.922857, -18.555903 ], [ 179.930747, -18.551674 ], [ 179.938989, -18.554564 ], [ 179.949794, -18.551448 ], [ 179.95709, -18.556189 ], [ 179.959104, -18.562828 ], [ 179.957487, -18.567903 ], [ 179.952267, -18.57417 ], [ 179.945536, -18.57517 ], [ 179.942209, -18.578886 ], [ 179.932579, -18.580147 ], [ 179.928443, -18.577898 ], [ 179.925085, -18.578398 ], [ 179.922246, -18.583026 ], [ 179.924215, -18.58645 ], [ 179.916111, -18.593667 ], [ 179.910555, -18.592815 ], [ 179.90819, -18.595369 ], [ 179.903596, -18.595192 ], [ 179.901001, -18.599589 ], [ 179.897399, -18.600091 ], [ 179.893569, -18.602891 ], [ 179.89192, -18.606127 ], [ 179.893416, -18.609788 ], [ 179.89775, -18.609277 ], [ 179.900452, -18.612005 ], [ 179.904542, -18.611957 ], [ 179.909792, -18.6073 ], [ 179.919407, -18.60558 ], [ 179.923452, -18.601625 ], [ 179.926855, -18.602735 ], [ 179.927863, -18.606631 ], [ 179.926733, -18.612158 ], [ 179.921285, -18.619806 ], [ 179.90909, -18.62753 ], [ 179.905412, -18.641133 ], [ 179.906923, -18.646629 ], [ 179.901001, -18.654741 ], [ 179.896453, -18.657551 ], [ 179.888654, -18.650517 ], [ 179.886853, -18.642035 ], [ 179.883389, -18.63518 ], [ 179.877559, -18.632719 ], [ 179.874613, -18.628156 ], [ 179.88316, -18.618178 ], [ 179.880947, -18.614756 ], [ 179.878306, -18.615246 ], [ 179.87475, -18.619882 ], [ 179.869668, -18.619481 ], [ 179.86715, -18.610318 ], [ 179.859412, -18.608796 ], [ 179.856482, -18.605843 ], [ 179.850438, -18.604992 ], [ 179.842425, -18.600715 ], [ 179.838228, -18.593179 ], [ 179.836717, -18.587452 ] ] ], [ [ [ -178.836029, -18.21467 ], [ -178.831955, -18.202415 ], [ -178.830215, -18.199614 ], [ -178.828476, -18.196836 ], [ -178.829803, -18.190889 ], [ -178.827499, -18.185791 ], [ -178.823441, -18.184566 ], [ -178.815186, -18.177057 ], [ -178.810623, -18.176743 ], [ -178.806976, -18.178511 ], [ -178.790421, -18.176359 ], [ -178.780319, -18.176624 ], [ -178.770859, -18.180349 ], [ -178.764999, -18.184372 ], [ -178.756073, -18.186039 ], [ -178.747543, -18.190928 ], [ -178.743561, -18.197744 ], [ -178.744217, -18.200743 ], [ -178.738861, -18.203167 ], [ -178.734787, -18.213657 ], [ -178.736832, -18.219669 ], [ -178.743423, -18.226229 ], [ -178.748932, -18.227255 ], [ -178.755722, -18.231607 ], [ -178.758896, -18.23365 ], [ -178.777069, -18.238594 ], [ -178.782867, -18.248814 ], [ -178.79361, -18.252695 ], [ -178.796036, -18.251822 ], [ -178.799042, -18.246136 ], [ -178.796799, -18.238741 ], [ -178.797562, -18.236917 ], [ -178.808395, -18.236662 ], [ -178.819656, -18.227457 ], [ -178.8293, -18.226259 ], [ -178.83522, -18.21879 ], [ -178.836029, -18.21467 ] ] ], [ [ [ -180.0, -16.493397 ], [ -179.975797, -16.466141 ], [ -179.960588, -16.466021 ], [ -179.954508, -16.456221 ], [ -179.942233, -16.450954 ], [ -179.931241, -16.45055 ], [ -179.917477, -16.441944 ], [ -179.905947, -16.445171 ], [ -179.906758, -16.448089 ], [ -179.914852, -16.452201 ], [ -179.911952, -16.462817 ], [ -179.918199, -16.471788 ], [ -179.928758, -16.469224 ], [ -179.930943, -16.478044 ], [ -179.942102, -16.483126 ], [ -179.934728, -16.49016 ], [ -179.928899, -16.504862 ], [ -179.931633, -16.528431 ], [ -179.949275, -16.530609 ], [ -179.973811, -16.539165 ], [ -179.982532, -16.535184 ], [ -179.984113, -16.524883 ], [ -180.0, -16.528876 ], [ -180.0, -16.493397 ] ] ], [ [ [ -179.029674, -17.164744 ], [ -179.026914, -17.159189 ], [ -179.017523, -17.163151 ], [ -179.012081, -17.16076 ], [ -179.005098, -17.162381 ], [ -178.996256, -17.175847 ], [ -178.996592, -17.182962 ], [ -178.993482, -17.183366 ], [ -178.990433, -17.181017 ], [ -178.990753, -17.176664 ], [ -178.987658, -17.176378 ], [ -178.985676, -17.179784 ], [ -178.979654, -17.182429 ], [ -178.967504, -17.18106 ], [ -178.965309, -17.183315 ], [ -178.964242, -17.18926 ], [ -178.960141, -17.19125 ], [ -178.960278, -17.1963 ], [ -178.956009, -17.194615 ], [ -178.956588, -17.189579 ], [ -178.954485, -17.187248 ], [ -178.951847, -17.188346 ], [ -178.949362, -17.19266 ], [ -178.949179, -17.202291 ], [ -178.945795, -17.204065 ], [ -178.944133, -17.203116 ], [ -178.946161, -17.197647 ], [ -178.945261, -17.191475 ], [ -178.941313, -17.189072 ], [ -178.936084, -17.199987 ], [ -178.927638, -17.203961 ], [ -178.924696, -17.208037 ], [ -178.923903, -17.212151 ], [ -178.917454, -17.211574 ], [ -178.916631, -17.217523 ], [ -178.918659, -17.223066 ], [ -178.925199, -17.230068 ], [ -178.930687, -17.242098 ], [ -178.929666, -17.245521 ], [ -178.931769, -17.247623 ], [ -178.93773, -17.248421 ], [ -178.943508, -17.258161 ], [ -178.951756, -17.252118 ], [ -178.955811, -17.252192 ], [ -178.969837, -17.267129 ], [ -178.973373, -17.282105 ], [ -178.980401, -17.288883 ], [ -178.98528, -17.307784 ], [ -178.98653, -17.317213 ], [ -178.985722, -17.321786 ], [ -178.987597, -17.323427 ], [ -178.990631, -17.315221 ], [ -178.995738, -17.310497 ], [ -178.997567, -17.302499 ], [ -178.994838, -17.296026 ], [ -178.996973, -17.284137 ], [ -178.996683, -17.274726 ], [ -178.990387, -17.267041 ], [ -178.983953, -17.266466 ], [ -178.982566, -17.264377 ], [ -178.982978, -17.255666 ], [ -178.97226, -17.241938 ], [ -178.96726, -17.24093 ], [ -178.962351, -17.235794 ], [ -178.968785, -17.22444 ], [ -178.967153, -17.222575 ], [ -178.962626, -17.221805 ], [ -178.96168, -17.20963 ], [ -178.962702, -17.205979 ], [ -178.968525, -17.201725 ], [ -178.971513, -17.195357 ], [ -178.979487, -17.191143 ], [ -178.984472, -17.192609 ], [ -178.992857, -17.191155 ], [ -178.995143, -17.195783 ], [ -179.005495, -17.191841 ], [ -179.0083, -17.182715 ], [ -179.008178, -17.176977 ], [ -179.012447, -17.178659 ], [ -179.017142, -17.170256 ], [ -179.026503, -17.1679 ], [ -179.029674, -17.164744 ] ] ], [ [ [ 177.003232, -12.510438 ], [ 177.004332, -12.501923 ], [ 177.009675, -12.4979 ], [ 177.015695, -12.496404 ], [ 177.024071, -12.502992 ], [ 177.031404, -12.502074 ], [ 177.060606, -12.480483 ], [ 177.07655, -12.482008 ], [ 177.114888, -12.486619 ], [ 177.123838, -12.494939 ], [ 177.128803, -12.514001 ], [ 177.122263, -12.519966 ], [ 177.095795, -12.522954 ], [ 177.07655, -12.521801 ], [ 177.062737, -12.520879 ], [ 177.03389, -12.510507 ], [ 177.027323, -12.511652 ], [ 177.023581, -12.517038 ], [ 177.007034, -12.51589 ], [ 177.003232, -12.510438 ] ] ], [ [ [ -179.795152, -16.790072 ], [ -179.792085, -16.787966 ], [ -179.790498, -16.781748 ], [ -179.787904, -16.780106 ], [ -179.783021, -16.772007 ], [ -179.773774, -16.768898 ], [ -179.770249, -16.765178 ], [ -179.770997, -16.762893 ], [ -179.780519, -16.763712 ], [ -179.788179, -16.761291 ], [ -179.791109, -16.757427 ], [ -179.790651, -16.755355 ], [ -179.786851, -16.754386 ], [ -179.786683, -16.749793 ], [ -179.782487, -16.744229 ], [ -179.77884, -16.749 ], [ -179.774552, -16.748254 ], [ -179.770722, -16.749349 ], [ -179.768143, -16.747249 ], [ -179.762436, -16.745793 ], [ -179.761582, -16.739816 ], [ -179.757065, -16.738375 ], [ -179.755844, -16.740884 ], [ -179.759079, -16.746896 ], [ -179.757126, -16.750312 ], [ -179.750473, -16.749074 ], [ -179.748047, -16.751794 ], [ -179.743255, -16.753793 ], [ -179.741989, -16.758138 ], [ -179.730758, -16.760278 ], [ -179.728912, -16.75612 ], [ -179.724425, -16.753763 ], [ -179.719161, -16.755298 ], [ -179.709685, -16.750806 ], [ -179.707888, -16.745835 ], [ -179.701094, -16.751603 ], [ -179.705672, -16.764292 ], [ -179.704878, -16.768869 ], [ -179.709502, -16.778345 ], [ -179.708266, -16.781769 ], [ -179.708922, -16.785679 ], [ -179.714156, -16.785754 ], [ -179.728667, -16.772413 ], [ -179.737915, -16.775294 ], [ -179.740707, -16.779923 ], [ -179.74617, -16.780917 ], [ -179.749237, -16.783024 ], [ -179.74118, -16.796225 ], [ -179.742096, -16.798762 ], [ -179.758515, -16.801053 ], [ -179.76503, -16.795174 ], [ -179.771027, -16.792962 ], [ -179.774079, -16.795756 ], [ -179.774171, -16.806085 ], [ -179.777757, -16.805675 ], [ -179.780686, -16.800895 ], [ -179.79416, -16.792125 ], [ -179.795152, -16.790072 ] ] ], [ [ [ 177.297541, -17.087225 ], [ 177.293503, -17.096602 ], [ 177.274726, -17.115477 ], [ 177.267801, -17.114077 ], [ 177.266015, -17.116632 ], [ 177.250625, -17.12924 ], [ 177.238319, -17.147126 ], [ 177.231415, -17.132035 ], [ 177.225134, -17.13164 ], [ 177.219837, -17.142223 ], [ 177.21774, -17.162527 ], [ 177.209768, -17.159205 ], [ 177.197304, -17.159243 ], [ 177.197705, -17.150775 ], [ 177.21025, -17.13814 ], [ 177.212894, -17.125063 ], [ 177.231818, -17.10888 ], [ 177.228789, -17.101433 ], [ 177.23567, -17.095397 ], [ 177.240348, -17.080219 ], [ 177.255106, -17.067064 ], [ 177.258912, -17.070023 ], [ 177.259993, -17.079374 ], [ 177.248627, -17.088112 ], [ 177.2543, -17.092228 ], [ 177.263323, -17.091894 ], [ 177.26327, -17.100524 ], [ 177.266015, -17.103837 ], [ 177.267831, -17.105356 ], [ 177.272606, -17.104914 ], [ 177.276205, -17.100795 ], [ 177.280553, -17.087502 ], [ 177.280324, -17.083829 ], [ 177.283893, -17.085908 ], [ 177.288683, -17.082941 ], [ 177.291566, -17.073772 ], [ 177.290879, -17.068492 ], [ 177.297541, -17.064862 ], [ 177.300583, -17.066383 ], [ 177.301198, -17.076488 ], [ 177.297541, -17.087225 ] ] ], [ [ [ 177.440643, -16.841917 ], [ 177.44638, -16.83321 ], [ 177.442123, -16.820349 ], [ 177.444259, -16.819437 ], [ 177.446182, -16.815541 ], [ 177.449997, -16.812796 ], [ 177.456161, -16.831629 ], [ 177.459488, -16.834391 ], [ 177.466903, -16.827294 ], [ 177.470474, -16.825695 ], [ 177.473587, -16.820194 ], [ 177.481476, -16.812411 ], [ 177.486481, -16.809897 ], [ 177.48912, -16.804623 ], [ 177.493408, -16.800732 ], [ 177.498657, -16.798678 ], [ 177.50177, -16.792948 ], [ 177.505829, -16.792267 ], [ 177.514664, -16.779665 ], [ 177.521347, -16.77807 ], [ 177.523972, -16.77601 ], [ 177.523743, -16.770504 ], [ 177.541153, -16.763653 ], [ 177.544983, -16.755857 ], [ 177.549988, -16.753801 ], [ 177.551666, -16.744856 ], [ 177.555008, -16.740959 ], [ 177.557877, -16.740047 ], [ 177.56192, -16.743267 ], [ 177.568116, -16.738001 ], [ 177.570984, -16.730432 ], [ 177.580292, -16.721727 ], [ 177.582444, -16.715995 ], [ 177.576264, -16.705886 ], [ 177.568878, -16.705415 ], [ 177.567459, -16.70289 ], [ 177.56865, -16.699909 ], [ 177.577698, -16.70107 ], [ 177.582459, -16.705209 ], [ 177.587464, -16.704988 ], [ 177.591507, -16.707519 ], [ 177.589844, -16.711187 ], [ 177.594361, -16.712572 ], [ 177.591736, -16.718305 ], [ 177.584824, -16.726326 ], [ 177.581467, -16.734121 ], [ 177.576462, -16.737097 ], [ 177.568344, -16.75177 ], [ 177.562134, -16.753364 ], [ 177.55951, -16.757261 ], [ 177.562363, -16.763004 ], [ 177.555207, -16.765055 ], [ 177.547333, -16.771467 ], [ 177.540192, -16.771223 ], [ 177.530396, -16.780155 ], [ 177.528961, -16.782677 ], [ 177.530624, -16.78635 ], [ 177.528473, -16.788183 ], [ 177.527512, -16.792311 ], [ 177.524185, -16.792763 ], [ 177.521545, -16.797119 ], [ 177.524643, -16.803091 ], [ 177.518906, -16.805145 ], [ 177.513184, -16.8111 ], [ 177.50914, -16.80765 ], [ 177.50032, -16.805796 ], [ 177.496261, -16.808081 ], [ 177.492431, -16.816336 ], [ 177.485275, -16.821598 ], [ 177.487167, -16.824356 ], [ 177.497406, -16.829428 ], [ 177.499557, -16.833103 ], [ 177.496216, -16.833784 ], [ 177.490738, -16.830101 ], [ 177.486923, -16.83078 ], [ 177.474502, -16.842917 ], [ 177.455886, -16.844479 ], [ 177.444442, -16.847895 ], [ 177.440643, -16.841917 ] ] ], [ [ [ -179.875214, -19.002167 ], [ -179.869614, -18.95591 ], [ -179.863159, -18.950771 ], [ -179.860443, -18.938099 ], [ -179.855896, -18.935053 ], [ -179.852386, -18.927885 ], [ -179.848282, -18.927832 ], [ -179.84462, -18.929623 ], [ -179.838348, -18.92931 ], [ -179.831024, -18.93404 ], [ -179.82309, -18.932327 ], [ -179.810883, -18.94021 ], [ -179.804108, -18.941729 ], [ -179.796631, -18.94071 ], [ -179.785858, -18.94953 ], [ -179.784531, -18.957325 ], [ -179.781082, -18.961643 ], [ -179.782456, -18.967176 ], [ -179.797211, -18.982307 ], [ -179.811127, -18.988695 ], [ -179.81041, -18.972143 ], [ -179.812637, -18.968266 ], [ -179.811768, -18.96228 ], [ -179.813828, -18.953575 ], [ -179.819733, -18.946072 ], [ -179.823105, -18.947264 ], [ -179.830368, -18.94598 ], [ -179.833252, -18.947166 ], [ -179.835617, -18.951103 ], [ -179.838257, -18.951597 ], [ -179.842194, -18.947283 ], [ -179.845322, -18.947783 ], [ -179.85321, -18.95363 ], [ -179.85556, -18.958487 ], [ -179.864166, -18.964111 ], [ -179.859802, -18.982437 ], [ -179.861175, -18.98728 ], [ -179.858002, -18.989767 ], [ -179.857437, -18.994814 ], [ -179.852051, -19.000259 ], [ -179.845749, -19.001326 ], [ -179.850738, -19.006447 ], [ -179.859634, -19.010008 ], [ -179.867371, -19.009878 ], [ -179.87323, -19.006506 ], [ -179.875214, -19.002167 ] ] ], [ [ [ 178.095322, -18.417744 ], [ 178.097946, -18.40901 ], [ 178.101791, -18.406939 ], [ 178.110474, -18.410143 ], [ 178.112869, -18.406004 ], [ 178.112381, -18.403019 ], [ 178.106354, -18.40027 ], [ 178.105392, -18.397974 ], [ 178.105148, -18.39407 ], [ 178.109467, -18.387173 ], [ 178.109222, -18.383726 ], [ 178.112579, -18.381195 ], [ 178.113297, -18.376369 ], [ 178.125061, -18.361193 ], [ 178.137085, -18.362783 ], [ 178.152512, -18.364826 ], [ 178.154221, -18.37562 ], [ 178.15712, -18.382048 ], [ 178.152557, -18.387568 ], [ 178.154724, -18.390091 ], [ 178.154022, -18.393309 ], [ 178.149689, -18.396532 ], [ 178.151627, -18.399515 ], [ 178.156921, -18.398127 ], [ 178.159088, -18.404327 ], [ 178.155975, -18.407089 ], [ 178.152115, -18.406404 ], [ 178.149948, -18.408247 ], [ 178.150925, -18.414907 ], [ 178.146606, -18.419279 ], [ 178.142273, -18.417908 ], [ 178.139618, -18.420208 ], [ 178.141312, -18.423651 ], [ 178.135788, -18.426416 ], [ 178.134094, -18.422514 ], [ 178.130722, -18.422749 ], [ 178.124954, -18.426891 ], [ 178.120621, -18.427816 ], [ 178.114349, -18.426218 ], [ 178.111694, -18.423923 ], [ 178.107132, -18.4237 ], [ 178.102539, -18.420261 ], [ 178.097, -18.419579 ], [ 178.095322, -18.417744 ] ] ], [ [ [ -179.33844, -17.758696 ], [ -179.33519, -17.752211 ], [ -179.334168, -17.742319 ], [ -179.328888, -17.729143 ], [ -179.309586, -17.722402 ], [ -179.291031, -17.727384 ], [ -179.285446, -17.731657 ], [ -179.281113, -17.732506 ], [ -179.278335, -17.740498 ], [ -179.27713, -17.753342 ], [ -179.275162, -17.756065 ], [ -179.281921, -17.767429 ], [ -179.282059, -17.772715 ], [ -179.295639, -17.77776 ], [ -179.298935, -17.781258 ], [ -179.312286, -17.772745 ], [ -179.318771, -17.7717 ], [ -179.32785, -17.774143 ], [ -179.335388, -17.768522 ], [ -179.337601, -17.765112 ], [ -179.33844, -17.758696 ] ] ], [ [ [ 177.607834, -18.516468 ], [ 177.609283, -18.513254 ], [ 177.620377, -18.506609 ], [ 177.629059, -18.494675 ], [ 177.634766, -18.494995 ], [ 177.639175, -18.497215 ], [ 177.642792, -18.503424 ], [ 177.650497, -18.508945 ], [ 177.652405, -18.51676 ], [ 177.647568, -18.542713 ], [ 177.648041, -18.551903 ], [ 177.652847, -18.561787 ], [ 177.653076, -18.573503 ], [ 177.664627, -18.58799 ], [ 177.665344, -18.593504 ], [ 177.664383, -18.601774 ], [ 177.65715, -18.602913 ], [ 177.653046, -18.599463 ], [ 177.650742, -18.594688 ], [ 177.645355, -18.583601 ], [ 177.637161, -18.57509 ], [ 177.636703, -18.565901 ], [ 177.631409, -18.556934 ], [ 177.624176, -18.550262 ], [ 177.621063, -18.54015 ], [ 177.610001, -18.522675 ], [ 177.607834, -18.516468 ] ] ], [ [ [ 178.495166, -18.93144 ], [ 178.495621, -18.937517 ], [ 178.488692, -18.938914 ], [ 178.484273, -18.935878 ], [ 178.48339, -18.93144 ], [ 178.482119, -18.925055 ], [ 178.465109, -18.919033 ], [ 178.459669, -18.90261 ], [ 178.462397, -18.893268 ], [ 178.473704, -18.891091 ], [ 178.466114, -18.884985 ], [ 178.485765, -18.87797 ], [ 178.49351, -18.867918 ], [ 178.499798, -18.870565 ], [ 178.499006, -18.878981 ], [ 178.50785, -18.874502 ], [ 178.515475, -18.875139 ], [ 178.518576, -18.897237 ], [ 178.523593, -18.901744 ], [ 178.523149, -18.906207 ], [ 178.520609, -18.909372 ], [ 178.519863, -18.913723 ], [ 178.513899, -18.918027 ], [ 178.510467, -18.917267 ], [ 178.508712, -18.906505 ], [ 178.504035, -18.906068 ], [ 178.500641, -18.911057 ], [ 178.501572, -18.920701 ], [ 178.494947, -18.928517 ], [ 178.495166, -18.93144 ] ] ], [ [ [ -178.981857, -18.955143 ], [ -178.978348, -18.946291 ], [ -178.977264, -18.943569 ], [ -178.972778, -18.938435 ], [ -178.964478, -18.930702 ], [ -178.955658, -18.925028 ], [ -178.949875, -18.924234 ], [ -178.945236, -18.926449 ], [ -178.940048, -18.932098 ], [ -178.934219, -18.945322 ], [ -178.93483, -18.951077 ], [ -178.93251, -18.95793 ], [ -178.932602, -18.977003 ], [ -178.94043, -18.984499 ], [ -178.945129, -18.991249 ], [ -178.951385, -18.992281 ], [ -178.957367, -18.995377 ], [ -178.964218, -18.991364 ], [ -178.970657, -18.983437 ], [ -178.972214, -18.977949 ], [ -178.975433, -18.97456 ], [ -178.97847, -18.96726 ], [ -178.978592, -18.961517 ], [ -178.981857, -18.955143 ] ] ], [ [ [ 179.734213, -19.18419 ], [ 179.735312, -19.178383 ], [ 179.736893, -19.177995 ], [ 179.740615, -19.182285 ], [ 179.745688, -19.179656 ], [ 179.746655, -19.169498 ], [ 179.750215, -19.165565 ], [ 179.753358, -19.165302 ], [ 179.758384, -19.169498 ], [ 179.761208, -19.169498 ], [ 179.758465, -19.160169 ], [ 179.745852, -19.150128 ], [ 179.744505, -19.14327 ], [ 179.748045, -19.135181 ], [ 179.759402, -19.130122 ], [ 179.765946, -19.123328 ], [ 179.77093, -19.132855 ], [ 179.784696, -19.143828 ], [ 179.786162, -19.153019 ], [ 179.781121, -19.159932 ], [ 179.786817, -19.162752 ], [ 179.790439, -19.169498 ], [ 179.790311, -19.1753 ], [ 179.78144, -19.190136 ], [ 179.761078, -19.201057 ], [ 179.743146, -19.194587 ], [ 179.734213, -19.18419 ] ] ], [ [ [ 177.107094, -17.267008 ], [ 177.107583, -17.264712 ], [ 177.111905, -17.261743 ], [ 177.114961, -17.258112 ], [ 177.119053, -17.267978 ], [ 177.122131, -17.26971 ], [ 177.126459, -17.272145 ], [ 177.135088, -17.267587 ], [ 177.140601, -17.26692 ], [ 177.149261, -17.256847 ], [ 177.152361, -17.256171 ], [ 177.153897, -17.257358 ], [ 177.15595, -17.258943 ], [ 177.158088, -17.262858 ], [ 177.157569, -17.272046 ], [ 177.161265, -17.282467 ], [ 177.162059, -17.284703 ], [ 177.157019, -17.289737 ], [ 177.155797, -17.294099 ], [ 177.153897, -17.295365 ], [ 177.151002, -17.297295 ], [ 177.148818, -17.30395 ], [ 177.153583, -17.309026 ], [ 177.145427, -17.316114 ], [ 177.141105, -17.316555 ], [ 177.136829, -17.310793 ], [ 177.129911, -17.306397 ], [ 177.126307, -17.30776 ], [ 177.122131, -17.311136 ], [ 177.113585, -17.318046 ], [ 177.109309, -17.307687 ], [ 177.113921, -17.293001 ], [ 177.11108, -17.285866 ], [ 177.112241, -17.282467 ], [ 177.115937, -17.271641 ], [ 177.114517, -17.268417 ], [ 177.11021, -17.268858 ], [ 177.107094, -17.267008 ] ] ], [ [ [ -179.177729, -17.452672 ], [ -179.176371, -17.43566 ], [ -179.171947, -17.429387 ], [ -179.166531, -17.424932 ], [ -179.158965, -17.422979 ], [ -179.14763, -17.42461 ], [ -179.143984, -17.427533 ], [ -179.144884, -17.43099 ], [ -179.14287, -17.435548 ], [ -179.144228, -17.440165 ], [ -179.142509, -17.442102 ], [ -179.13315, -17.438397 ], [ -179.129109, -17.442102 ], [ -179.129034, -17.458731 ], [ -179.132512, -17.464529 ], [ -179.143542, -17.475967 ], [ -179.147111, -17.476947 ], [ -179.160841, -17.47259 ], [ -179.16763, -17.467884 ], [ -179.173656, -17.465689 ], [ -179.177729, -17.452672 ] ] ], [ [ [ 177.386536, -16.923019 ], [ 177.391571, -16.91546 ], [ 177.39328, -16.89963 ], [ 177.395432, -16.898716 ], [ 177.3983, -16.893906 ], [ 177.417618, -16.895103 ], [ 177.419052, -16.892353 ], [ 177.418365, -16.885008 ], [ 177.422195, -16.877903 ], [ 177.424835, -16.867123 ], [ 177.429855, -16.863234 ], [ 177.434631, -16.862099 ], [ 177.441315, -16.856379 ], [ 177.444427, -16.857073 ], [ 177.440338, -16.870146 ], [ 177.442962, -16.869694 ], [ 177.448669, -16.877739 ], [ 177.447952, -16.879803 ], [ 177.440307, -16.881849 ], [ 177.437927, -16.883909 ], [ 177.439346, -16.886438 ], [ 177.448166, -16.887148 ], [ 177.449585, -16.890135 ], [ 177.443863, -16.894711 ], [ 177.440262, -16.901817 ], [ 177.437637, -16.902729 ], [ 177.43454, -16.899967 ], [ 177.427124, -16.910734 ], [ 177.424499, -16.911188 ], [ 177.421402, -16.907049 ], [ 177.417587, -16.909103 ], [ 177.414734, -16.906572 ], [ 177.411621, -16.908859 ], [ 177.41066, -16.912529 ], [ 177.40828, -16.912292 ], [ 177.409439, -16.922165 ], [ 177.415421, -16.918279 ], [ 177.417801, -16.921268 ], [ 177.410614, -16.928365 ], [ 177.408463, -16.934097 ], [ 177.400604, -16.927419 ], [ 177.393936, -16.923958 ], [ 177.388199, -16.925091 ], [ 177.386536, -16.923019 ] ] ], [ [ [ 179.382538, -17.801535 ], [ 179.385757, -17.794542 ], [ 179.387939, -17.789774 ], [ 179.393661, -17.785591 ], [ 179.397095, -17.793829 ], [ 179.408615, -17.793728 ], [ 179.413864, -17.791615 ], [ 179.416748, -17.792278 ], [ 179.419678, -17.797306 ], [ 179.423782, -17.799105 ], [ 179.430481, -17.798357 ], [ 179.431229, -17.800188 ], [ 179.430038, -17.801577 ], [ 179.4207, -17.802578 ], [ 179.418579, -17.806501 ], [ 179.419327, -17.809481 ], [ 179.41626, -17.815479 ], [ 179.419189, -17.820736 ], [ 179.418518, -17.825335 ], [ 179.419998, -17.828997 ], [ 179.425552, -17.832392 ], [ 179.426773, -17.834677 ], [ 179.423737, -17.843201 ], [ 179.417099, -17.85107 ], [ 179.405792, -17.847954 ], [ 179.397507, -17.834705 ], [ 179.388779, -17.826513 ], [ 179.3918, -17.815924 ], [ 179.389328, -17.808825 ], [ 179.391922, -17.80352 ], [ 179.390442, -17.800318 ], [ 179.38829, -17.799877 ], [ 179.383514, -17.803133 ], [ 179.382538, -17.801535 ] ] ], [ [ [ -179.076248, -17.970917 ], [ -179.074463, -17.964224 ], [ -179.067642, -17.957212 ], [ -179.060486, -17.95433 ], [ -179.043518, -17.962761 ], [ -179.038956, -17.962221 ], [ -179.035767, -17.96607 ], [ -179.028885, -17.986393 ], [ -179.03064, -17.994694 ], [ -179.027435, -17.998772 ], [ -179.035477, -18.005117 ], [ -179.039551, -18.005648 ], [ -179.047287, -18.003029 ], [ -179.057037, -17.995619 ], [ -179.060806, -17.991652 ], [ -179.073959, -17.977768 ], [ -179.076248, -17.970917 ] ] ], [ [ [ -178.602264, -19.135927 ], [ -178.601196, -19.131611 ], [ -178.600708, -19.129692 ], [ -178.596982, -19.123951 ], [ -178.58142, -19.105947 ], [ -178.576416, -19.104798 ], [ -178.565229, -19.110244 ], [ -178.562917, -19.115847 ], [ -178.566799, -19.118557 ], [ -178.578685, -19.114381 ], [ -178.586911, -19.121229 ], [ -178.593051, -19.136888 ], [ -178.590348, -19.145738 ], [ -178.574484, -19.147846 ], [ -178.563796, -19.146302 ], [ -178.561845, -19.152138 ], [ -178.545222, -19.164469 ], [ -178.533488, -19.157031 ], [ -178.530141, -19.143223 ], [ -178.527628, -19.145086 ], [ -178.527341, -19.153717 ], [ -178.532215, -19.165622 ], [ -178.55302, -19.177693 ], [ -178.562944, -19.171718 ], [ -178.569915, -19.158308 ], [ -178.583114, -19.159225 ], [ -178.588244, -19.166095 ], [ -178.596982, -19.162497 ], [ -178.599319, -19.15954 ], [ -178.601151, -19.153141 ], [ -178.602264, -19.135927 ] ] ], [ [ [ 179.88031, -16.670429 ], [ 179.880997, -16.667669 ], [ 179.892059, -16.658133 ], [ 179.900864, -16.65757 ], [ 179.902893, -16.655573 ], [ 179.904861, -16.653622 ], [ 179.902145, -16.645393 ], [ 179.902786, -16.640566 ], [ 179.906525, -16.635015 ], [ 179.909882, -16.635895 ], [ 179.916046, -16.633986 ], [ 179.921921, -16.627951 ], [ 179.933182, -16.632866 ], [ 179.935883, -16.639946 ], [ 179.937805, -16.640841 ], [ 179.94368, -16.631588 ], [ 179.940201, -16.62332 ], [ 179.941116, -16.61437 ], [ 179.943176, -16.613209 ], [ 179.947144, -16.614183 ], [ 179.946793, -16.624424 ], [ 179.950256, -16.627228 ], [ 179.945694, -16.633116 ], [ 179.944901, -16.637545 ], [ 179.941376, -16.64057 ], [ 179.941208, -16.646538 ], [ 179.93576, -16.647751 ], [ 179.936279, -16.651186 ], [ 179.934174, -16.654654 ], [ 179.928726, -16.657242 ], [ 179.917725, -16.6716 ], [ 179.914642, -16.672325 ], [ 179.906036, -16.67013 ], [ 179.902267, -16.673388 ], [ 179.894424, -16.675085 ], [ 179.885345, -16.673126 ], [ 179.88031, -16.670429 ] ] ], [ [ [ -179.992676, -15.716097 ], [ -179.991135, -15.713724 ], [ -179.989166, -15.714083 ], [ -179.986969, -15.714485 ], [ -179.985001, -15.714846 ], [ -179.975052, -15.716664 ], [ -179.956451, -15.726291 ], [ -179.939575, -15.730431 ], [ -179.930756, -15.735364 ], [ -179.904465, -15.75154 ], [ -179.901062, -15.75838 ], [ -179.901688, -15.764814 ], [ -179.908295, -15.766737 ], [ -179.91925, -15.762292 ], [ -179.929352, -15.750721 ], [ -179.945099, -15.742895 ], [ -179.950119, -15.738832 ], [ -179.980301, -15.73165 ], [ -179.98349, -15.727645 ], [ -179.985092, -15.725625 ], [ -179.986435, -15.723938 ], [ -179.987686, -15.722362 ], [ -179.989029, -15.720675 ], [ -179.99028, -15.719105 ], [ -179.992676, -15.716097 ] ] ], [ [ [ 178.277631, -16.801341 ], [ 178.281679, -16.795588 ], [ 178.294832, -16.805664 ], [ 178.296726, -16.801524 ], [ 178.301966, -16.798066 ], [ 178.301752, -16.80335 ], [ 178.303906, -16.805643 ], [ 178.30962, -16.803791 ], [ 178.314646, -16.805615 ], [ 178.317502, -16.80377 ], [ 178.319656, -16.806522 ], [ 178.325843, -16.800992 ], [ 178.329418, -16.800524 ], [ 178.330167, -16.811318 ], [ 178.324698, -16.814551 ], [ 178.324468, -16.816849 ], [ 178.334261, -16.822566 ], [ 178.335467, -16.8267 ], [ 178.33145, -16.834982 ], [ 178.329769, -16.835215 ], [ 178.327371, -16.830857 ], [ 178.323552, -16.831327 ], [ 178.32262, -16.835923 ], [ 178.312339, -16.832961 ], [ 178.308291, -16.834352 ], [ 178.299919, -16.827479 ], [ 178.29442, -16.825655 ], [ 178.291777, -16.823135 ], [ 178.28892, -16.823141 ], [ 178.284872, -16.827515 ], [ 178.282, -16.824766 ], [ 178.282947, -16.821088 ], [ 178.290112, -16.820152 ], [ 178.292464, -16.813711 ], [ 178.291517, -16.811647 ], [ 178.2853, -16.810973 ], [ 178.283375, -16.805004 ], [ 178.277631, -16.801341 ] ] ], [ [ [ -179.164215, -17.255886 ], [ -179.162857, -17.25127 ], [ -179.156723, -17.247034 ], [ -179.151718, -17.24626 ], [ -179.148087, -17.248953 ], [ -179.140656, -17.249514 ], [ -179.129318, -17.255289 ], [ -179.126144, -17.25845 ], [ -179.128906, -17.264465 ], [ -179.125366, -17.273819 ], [ -179.130508, -17.280107 ], [ -179.136414, -17.284113 ], [ -179.144333, -17.282871 ], [ -179.148087, -17.286839 ], [ -179.153625, -17.284407 ], [ -179.157425, -17.27322 ], [ -179.161865, -17.26572 ], [ -179.164215, -17.255886 ] ] ], [ [ [ -179.696182, -16.745798 ], [ -179.691711, -16.742292 ], [ -179.686218, -16.742674 ], [ -179.677933, -16.739117 ], [ -179.666748, -16.738039 ], [ -179.661926, -16.741873 ], [ -179.65799, -16.750307 ], [ -179.659363, -16.753542 ], [ -179.664795, -16.756601 ], [ -179.669449, -16.764242 ], [ -179.670685, -16.776651 ], [ -179.673248, -16.779673 ], [ -179.689575, -16.787704 ], [ -179.691498, -16.787043 ], [ -179.693497, -16.780874 ], [ -179.692642, -16.774895 ], [ -179.687698, -16.770233 ], [ -179.685455, -16.761713 ], [ -179.695419, -16.749229 ], [ -179.696182, -16.745798 ] ] ], [ [ [ -180.0, -16.146329 ], [ -179.982618, -16.134118 ], [ -179.96443, -16.134339 ], [ -179.960942, -16.129554 ], [ -179.954209, -16.127849 ], [ -179.947126, -16.129653 ], [ -179.953533, -16.144974 ], [ -179.959513, -16.145722 ], [ -179.989851, -16.166583 ], [ -180.0, -16.168199 ], [ -180.0, -16.146329 ] ] ], [ [ [ -178.662831, -18.850052 ], [ -178.647089, -18.847489 ], [ -178.596982, -18.850292 ], [ -178.590775, -18.852346 ], [ -178.587799, -18.855963 ], [ -178.588623, -18.861954 ], [ -178.593964, -18.860912 ], [ -178.596982, -18.862141 ], [ -178.612846, -18.870968 ], [ -178.615532, -18.862314 ], [ -178.621967, -18.85891 ], [ -178.62691, -18.860421 ], [ -178.628908, -18.867436 ], [ -178.646501, -18.861412 ], [ -178.65798, -18.860982 ], [ -178.662831, -18.850052 ] ] ], [ [ [ -178.424438, -19.177094 ], [ -178.420074, -19.167349 ], [ -178.420853, -19.165297 ], [ -178.419312, -19.1586 ], [ -178.413361, -19.154797 ], [ -178.409897, -19.157482 ], [ -178.408295, -19.154001 ], [ -178.410828, -19.149229 ], [ -178.407166, -19.140417 ], [ -178.408234, -19.135843 ], [ -178.405716, -19.130276 ], [ -178.401627, -19.129269 ], [ -178.394791, -19.121311 ], [ -178.390991, -19.128815 ], [ -178.392273, -19.135736 ], [ -178.389404, -19.144178 ], [ -178.391174, -19.151112 ], [ -178.391373, -19.163065 ], [ -178.397446, -19.172617 ], [ -178.394958, -19.175552 ], [ -178.396851, -19.1772 ], [ -178.404816, -19.178059 ], [ -178.407516, -19.176277 ], [ -178.40567, -19.172562 ], [ -178.406219, -19.169815 ], [ -178.408875, -19.170101 ], [ -178.412125, -19.166033 ], [ -178.417572, -19.170744 ], [ -178.415482, -19.177593 ], [ -178.41777, -19.182699 ], [ -178.424438, -19.177094 ] ] ], [ [ [ -178.83992, -17.661825 ], [ -178.834549, -17.655064 ], [ -178.822571, -17.654148 ], [ -178.812439, -17.65786 ], [ -178.807495, -17.664427 ], [ -178.810501, -17.669996 ], [ -178.80899, -17.673183 ], [ -178.804611, -17.676315 ], [ -178.801575, -17.684067 ], [ -178.796646, -17.690403 ], [ -178.79892, -17.69619 ], [ -178.80658, -17.696566 ], [ -178.814301, -17.694414 ], [ -178.815582, -17.690535 ], [ -178.822159, -17.68298 ], [ -178.830902, -17.680029 ], [ -178.83046, -17.678413 ], [ -178.835114, -17.673449 ], [ -178.835983, -17.666115 ], [ -178.83992, -17.661825 ] ] ], [ [ [ 178.71933, -17.722416 ], [ 178.723877, -17.720328 ], [ 178.724625, -17.724459 ], [ 178.729248, -17.732947 ], [ 178.740082, -17.745739 ], [ 178.746338, -17.747545 ], [ 178.751175, -17.755558 ], [ 178.758636, -17.761261 ], [ 178.762054, -17.769512 ], [ 178.765167, -17.769955 ], [ 178.768265, -17.766952 ], [ 178.77092, -17.769235 ], [ 178.775726, -17.769899 ], [ 178.773376, -17.779787 ], [ 178.765259, -17.786029 ], [ 178.760711, -17.786512 ], [ 178.757797, -17.781246 ], [ 178.749649, -17.780138 ], [ 178.744354, -17.777868 ], [ 178.742645, -17.772825 ], [ 178.737091, -17.767111 ], [ 178.737778, -17.761825 ], [ 178.735352, -17.755178 ], [ 178.736282, -17.749891 ], [ 178.732178, -17.746237 ], [ 178.726303, -17.734312 ], [ 178.721298, -17.729296 ], [ 178.71933, -17.722416 ] ] ], [ [ [ 178.561569, -16.593481 ], [ 178.575333, -16.586082 ], [ 178.587463, -16.583738 ], [ 178.593155, -16.578438 ], [ 178.598633, -16.577957 ], [ 178.600677, -16.578331 ], [ 178.607208, -16.579527 ], [ 178.611237, -16.577444 ], [ 178.618133, -16.577415 ], [ 178.620285, -16.577406 ], [ 178.634323, -16.574821 ], [ 178.63623, -16.577566 ], [ 178.618133, -16.583886 ], [ 178.616272, -16.584536 ], [ 178.61203, -16.591896 ], [ 178.594223, -16.601837 ], [ 178.590652, -16.601393 ], [ 178.583237, -16.596376 ], [ 178.57254, -16.598484 ], [ 178.563721, -16.596914 ], [ 178.561569, -16.593481 ] ] ], [ [ [ 178.989854, -17.602632 ], [ 178.991487, -17.595963 ], [ 178.99315, -17.595263 ], [ 178.995805, -17.598232 ], [ 178.998445, -17.598675 ], [ 179.003449, -17.594738 ], [ 179.011383, -17.599737 ], [ 179.013885, -17.613728 ], [ 179.019439, -17.618742 ], [ 179.020919, -17.624702 ], [ 179.0195, -17.627928 ], [ 179.021697, -17.632047 ], [ 179.021484, -17.63664 ], [ 179.028029, -17.6467 ], [ 179.028298, -17.649433 ], [ 179.028548, -17.651978 ], [ 179.031935, -17.656318 ], [ 179.031249, -17.658847 ], [ 179.027388, -17.65543 ], [ 179.024261, -17.654762 ], [ 179.02131, -17.649433 ], [ 179.018432, -17.644236 ], [ 179.020812, -17.641236 ], [ 179.018112, -17.634364 ], [ 179.012115, -17.633716 ], [ 179.009461, -17.630289 ], [ 179.006348, -17.62985 ], [ 179.002, -17.625975 ], [ 178.995469, -17.616374 ], [ 178.989854, -17.602632 ] ] ], [ [ [ -178.51944, -18.657637 ], [ -178.516403, -18.65275 ], [ -178.518738, -18.645905 ], [ -178.511688, -18.637945 ], [ -178.501343, -18.636583 ], [ -178.497345, -18.642706 ], [ -178.493835, -18.638268 ], [ -178.490677, -18.639351 ], [ -178.484024, -18.655298 ], [ -178.485657, -18.658089 ], [ -178.48877, -18.658613 ], [ -178.494461, -18.663097 ], [ -178.495834, -18.666113 ], [ -178.495041, -18.669085 ], [ -178.500473, -18.674252 ], [ -178.51944, -18.657637 ] ] ], [ [ [ 177.328415, -16.976326 ], [ 177.332718, -16.971979 ], [ 177.329391, -16.966688 ], [ 177.329651, -16.963247 ], [ 177.33252, -16.957977 ], [ 177.338028, -16.953175 ], [ 177.337082, -16.950647 ], [ 177.340683, -16.940788 ], [ 177.346649, -16.939888 ], [ 177.352844, -16.945873 ], [ 177.358093, -16.942217 ], [ 177.362854, -16.947741 ], [ 177.364502, -16.953943 ], [ 177.361145, -16.962654 ], [ 177.357574, -16.9592 ], [ 177.348984, -16.957798 ], [ 177.346359, -16.961233 ], [ 177.351105, -16.966986 ], [ 177.348236, -16.970879 ], [ 177.349167, -16.97616 ], [ 177.353226, -16.978697 ], [ 177.347961, -16.981436 ], [ 177.345352, -16.978674 ], [ 177.339615, -16.978197 ], [ 177.329361, -16.98023 ], [ 177.328415, -16.976326 ] ] ], [ [ [ 178.953091, -17.449249 ], [ 178.958316, -17.445778 ], [ 178.959672, -17.434538 ], [ 178.967319, -17.434949 ], [ 178.970457, -17.438598 ], [ 178.972818, -17.435602 ], [ 178.977113, -17.435117 ], [ 178.980434, -17.431657 ], [ 178.985278, -17.440795 ], [ 178.985309, -17.444003 ], [ 178.981973, -17.445858 ], [ 178.983679, -17.450891 ], [ 178.982018, -17.452048 ], [ 178.98016, -17.458707 ], [ 178.978484, -17.459404 ], [ 178.97425, -17.467454 ], [ 178.971614, -17.4677 ], [ 178.967821, -17.470703 ], [ 178.965186, -17.469804 ], [ 178.962094, -17.471428 ], [ 178.959931, -17.470295 ], [ 178.959428, -17.46663 ], [ 178.954584, -17.458408 ], [ 178.958864, -17.454027 ], [ 178.958362, -17.451738 ], [ 178.954294, -17.451075 ], [ 178.953091, -17.449249 ] ] ], [ [ [ -179.291977, -17.01144 ], [ -179.288925, -17.008636 ], [ -179.288071, -17.003571 ], [ -179.28595, -17.00193 ], [ -179.274399, -17.007021 ], [ -179.266769, -17.006666 ], [ -179.263626, -17.008909 ], [ -179.25621, -17.009706 ], [ -179.25325, -17.014248 ], [ -179.256042, -17.018656 ], [ -179.260757, -17.022177 ], [ -179.263016, -17.028872 ], [ -179.267975, -17.032167 ], [ -179.276321, -17.032305 ], [ -179.290817, -17.022671 ], [ -179.291977, -17.01144 ] ] ], [ [ [ 177.153872, -17.740543 ], [ 177.156593, -17.738616 ], [ 177.159939, -17.73886 ], [ 177.160687, -17.734724 ], [ 177.167638, -17.735442 ], [ 177.175092, -17.734092 ], [ 177.177964, -17.735944 ], [ 177.178911, -17.739857 ], [ 177.181065, -17.740325 ], [ 177.183968, -17.735278 ], [ 177.18684, -17.737128 ], [ 177.188719, -17.74679 ], [ 177.196601, -17.755788 ], [ 177.200191, -17.76178 ], [ 177.199457, -17.763617 ], [ 177.196341, -17.762914 ], [ 177.19156, -17.758757 ], [ 177.185556, -17.758505 ], [ 177.181936, -17.761709 ], [ 177.179553, -17.75963 ], [ 177.173779, -17.760756 ], [ 177.169471, -17.759589 ], [ 177.165881, -17.754978 ], [ 177.161802, -17.753811 ], [ 177.160855, -17.751969 ], [ 177.164705, -17.748306 ], [ 177.164965, -17.744398 ], [ 177.157999, -17.743909 ], [ 177.153872, -17.740543 ] ] ], [ [ [ 177.311273, -17.030017 ], [ 177.31336, -17.027352 ], [ 177.315584, -17.024512 ], [ 177.31336, -17.020195 ], [ 177.31336, -17.01594 ], [ 177.316578, -17.014626 ], [ 177.319926, -17.011417 ], [ 177.324955, -17.011433 ], [ 177.330963, -16.999953 ], [ 177.336238, -16.99813 ], [ 177.334801, -16.994907 ], [ 177.339846, -16.988942 ], [ 177.343194, -16.988033 ], [ 177.347245, -16.991495 ], [ 177.35203, -16.992428 ], [ 177.353452, -16.996342 ], [ 177.348652, -17.004146 ], [ 177.341711, -17.004356 ], [ 177.340044, -17.00573 ], [ 177.337384, -17.012621 ], [ 177.331407, -17.011914 ], [ 177.330673, -17.0172 ], [ 177.333287, -17.024108 ], [ 177.332798, -17.026176 ], [ 177.325154, -17.027072 ], [ 177.315079, -17.036008 ], [ 177.31336, -17.033301 ], [ 177.311273, -17.030017 ] ] ], [ [ [ 179.136978, -17.780518 ], [ 179.139832, -17.777742 ], [ 179.148697, -17.775841 ], [ 179.165253, -17.777327 ], [ 179.172287, -17.787378 ], [ 179.170685, -17.795429 ], [ 179.162567, -17.799852 ], [ 179.158951, -17.798042 ], [ 179.154877, -17.798531 ], [ 179.151093, -17.8043 ], [ 179.145096, -17.805033 ], [ 179.143417, -17.803898 ], [ 179.146927, -17.794685 ], [ 179.146179, -17.790098 ], [ 179.143753, -17.787359 ], [ 179.139435, -17.786932 ], [ 179.136978, -17.780518 ] ] ], [ [ [ 179.334152, -16.344582 ], [ 179.334595, -16.341825 ], [ 179.343353, -16.337851 ], [ 179.347183, -16.340113 ], [ 179.349045, -16.336426 ], [ 179.359985, -16.337709 ], [ 179.371872, -16.336918 ], [ 179.378067, -16.338928 ], [ 179.383041, -16.33728 ], [ 179.384018, -16.339796 ], [ 179.379807, -16.347174 ], [ 179.376724, -16.347658 ], [ 179.371063, -16.352524 ], [ 179.367752, -16.353472 ], [ 179.363907, -16.349834 ], [ 179.359161, -16.350332 ], [ 179.352493, -16.348783 ], [ 179.346115, -16.353426 ], [ 179.340897, -16.354847 ], [ 179.340134, -16.350037 ], [ 179.334152, -16.344582 ] ] ], [ [ [ -179.536972, -17.254251 ], [ -179.535095, -17.251699 ], [ -179.530365, -17.248644 ], [ -179.522003, -17.248289 ], [ -179.518707, -17.245255 ], [ -179.51561, -17.24452 ], [ -179.509613, -17.246265 ], [ -179.497421, -17.246082 ], [ -179.495453, -17.248808 ], [ -179.496368, -17.251806 ], [ -179.498962, -17.253912 ], [ -179.502426, -17.260622 ], [ -179.508087, -17.265759 ], [ -179.513565, -17.266531 ], [ -179.518616, -17.265457 ], [ -179.52298, -17.261162 ], [ -179.534775, -17.256516 ], [ -179.536972, -17.254251 ] ] ], [ [ [ 177.133859, -17.337749 ], [ 177.140718, -17.324655 ], [ 177.142044, -17.320896 ], [ 177.153897, -17.322233 ], [ 177.157045, -17.326062 ], [ 177.162044, -17.343495 ], [ 177.153897, -17.347708 ], [ 177.146769, -17.350399 ], [ 177.139706, -17.346844 ], [ 177.133859, -17.337749 ] ] ], [ [ [ 176.879303, -17.141911 ], [ 176.880264, -17.138931 ], [ 176.883392, -17.137112 ], [ 176.88887, -17.138521 ], [ 176.89296, -17.133953 ], [ 176.897018, -17.133745 ], [ 176.903168, -17.145258 ], [ 176.908157, -17.148958 ], [ 176.909805, -17.153099 ], [ 176.902573, -17.165457 ], [ 176.899719, -17.162455 ], [ 176.891357, -17.161949 ], [ 176.887802, -17.158716 ], [ 176.879303, -17.141911 ] ] ], [ [ [ -178.920883, -18.88855 ], [ -178.919327, -18.882088 ], [ -178.913284, -18.870716 ], [ -178.908524, -18.867413 ], [ -178.902969, -18.867081 ], [ -178.89325, -18.857941 ], [ -178.884537, -18.859388 ], [ -178.880478, -18.857246 ], [ -178.879211, -18.859751 ], [ -178.880356, -18.86253 ], [ -178.898361, -18.879635 ], [ -178.91362, -18.889107 ], [ -178.91893, -18.889893 ], [ -178.920883, -18.88855 ] ] ], [ [ [ 179.97973, -16.533378 ], [ 179.98104, -16.524662 ], [ 179.984283, -16.518899 ], [ 179.983506, -16.513414 ], [ 179.986384, -16.509031 ], [ 179.997849, -16.497726 ], [ 179.999402, -16.500042 ], [ 179.996737, -16.530842 ], [ 179.993555, -16.536732 ], [ 179.989733, -16.539438 ], [ 179.986871, -16.539438 ], [ 179.97973, -16.533378 ] ] ], [ [ [ -178.889221, -17.374069 ], [ -178.88472, -17.371689 ], [ -178.880753, -17.366564 ], [ -178.876938, -17.354782 ], [ -178.873428, -17.350582 ], [ -178.865372, -17.346758 ], [ -178.863861, -17.350403 ], [ -178.867172, -17.371149 ], [ -178.874969, -17.380465 ], [ -178.883759, -17.383383 ], [ -178.885986, -17.37998 ], [ -178.889114, -17.378891 ], [ -178.889221, -17.374069 ] ] ], [ [ [ 178.15831, -18.375843 ], [ 178.158539, -18.372856 ], [ 178.162384, -18.369635 ], [ 178.165283, -18.370777 ], [ 178.170837, -18.378349 ], [ 178.173264, -18.386614 ], [ 178.177124, -18.39258 ], [ 178.171143, -18.406834 ], [ 178.167053, -18.40753 ], [ 178.163193, -18.404779 ], [ 178.160522, -18.394447 ], [ 178.162674, -18.390768 ], [ 178.161697, -18.383648 ], [ 178.15831, -18.375843 ] ] ], [ [ [ 178.131378, -17.316488 ], [ 178.134964, -17.313498 ], [ 178.14238, -17.31188 ], [ 178.146927, -17.315086 ], [ 178.154083, -17.30773 ], [ 178.159348, -17.307491 ], [ 178.162216, -17.310011 ], [ 178.160324, -17.317362 ], [ 178.157211, -17.320122 ], [ 178.156555, -17.324655 ], [ 178.153873, -17.328553 ], [ 178.148414, -17.329568 ], [ 178.136325, -17.324655 ], [ 178.132355, -17.320848 ], [ 178.131378, -17.316488 ] ] ], [ [ [ -178.424545, -19.213408 ], [ -178.421402, -19.202999 ], [ -178.418549, -19.201099 ], [ -178.415833, -19.203112 ], [ -178.40329, -19.201239 ], [ -178.400833, -19.203024 ], [ -178.396591, -19.208679 ], [ -178.39769, -19.21307 ], [ -178.401489, -19.216139 ], [ -178.407272, -19.21718 ], [ -178.41301, -19.220289 ], [ -178.419296, -19.22065 ], [ -178.424545, -19.213408 ] ] ], [ [ [ -178.490845, -18.445189 ], [ -178.482309, -18.439035 ], [ -178.470993, -18.438109 ], [ -178.46797, -18.433446 ], [ -178.464641, -18.431537 ], [ -178.451486, -18.438177 ], [ -178.451577, -18.439724 ], [ -178.463388, -18.444159 ], [ -178.467114, -18.449526 ], [ -178.487394, -18.448339 ], [ -178.490845, -18.445189 ] ] ], [ [ [ -179.278641, -18.3713 ], [ -179.276581, -18.365522 ], [ -179.273499, -18.362715 ], [ -179.269409, -18.361959 ], [ -179.259003, -18.365236 ], [ -179.259293, -18.375809 ], [ -179.264679, -18.384169 ], [ -179.271637, -18.384972 ], [ -179.278, -18.37956 ], [ -179.278641, -18.3713 ] ] ], [ [ [ -178.734634, -20.660547 ], [ -178.730804, -20.645998 ], [ -178.728165, -20.64411 ], [ -178.724472, -20.645418 ], [ -178.723633, -20.649767 ], [ -178.726624, -20.658556 ], [ -178.724579, -20.662884 ], [ -178.717651, -20.666656 ], [ -178.711044, -20.667219 ], [ -178.706512, -20.673105 ], [ -178.708664, -20.675446 ], [ -178.712067, -20.67597 ], [ -178.724106, -20.672754 ], [ -178.732269, -20.668316 ], [ -178.734634, -20.660547 ] ] ], [ [ [ 179.611343, -16.197279 ], [ 179.613678, -16.193815 ], [ 179.613159, -16.189234 ], [ 179.616638, -16.182547 ], [ 179.619965, -16.182055 ], [ 179.624054, -16.186602 ], [ 179.626892, -16.186113 ], [ 179.628326, -16.187244 ], [ 179.628555, -16.206968 ], [ 179.625214, -16.206085 ], [ 179.624054, -16.207932 ], [ 179.621918, -16.207724 ], [ 179.618042, -16.202257 ], [ 179.613754, -16.200237 ], [ 179.611343, -16.197279 ] ] ], [ [ [ -178.793289, -17.282248 ], [ -178.786514, -17.275228 ], [ -178.785416, -17.270615 ], [ -178.773697, -17.270618 ], [ -178.772552, -17.279093 ], [ -178.775299, -17.285116 ], [ -178.778091, -17.288614 ], [ -178.784515, -17.290344 ], [ -178.788864, -17.288591 ], [ -178.793289, -17.282248 ] ] ], [ [ [ -179.532669, -17.427776 ], [ -179.529434, -17.420378 ], [ -179.52063, -17.417492 ], [ -179.514847, -17.419703 ], [ -179.512695, -17.434366 ], [ -179.514114, -17.435305 ], [ -179.516571, -17.431438 ], [ -179.519165, -17.433773 ], [ -179.526062, -17.436172 ], [ -179.531342, -17.435562 ], [ -179.532669, -17.427776 ] ] ], [ [ [ -178.235763, -19.846215 ], [ -178.23341, -19.842941 ], [ -178.232845, -19.836255 ], [ -178.225695, -19.830345 ], [ -178.221279, -19.821963 ], [ -178.218178, -19.819364 ], [ -178.215275, -19.819068 ], [ -178.213228, -19.822935 ], [ -178.219889, -19.83873 ], [ -178.23257, -19.847525 ], [ -178.235763, -19.846215 ] ] ], [ [ [ 178.180605, -19.069606 ], [ 178.18739, -19.068903 ], [ 178.191515, -19.074878 ], [ 178.195152, -19.07533 ], [ 178.197826, -19.078318 ], [ 178.202618, -19.079632 ], [ 178.202663, -19.081252 ], [ 178.197597, -19.082919 ], [ 178.197108, -19.086372 ], [ 178.19422, -19.088907 ], [ 178.186473, -19.090303 ], [ 178.183081, -19.087778 ], [ 178.181369, -19.083639 ], [ 178.186198, -19.077878 ], [ 178.183539, -19.076503 ], [ 178.180605, -19.069606 ] ] ], [ [ [ 179.062347, -16.823227 ], [ 179.064224, -16.819542 ], [ 179.067322, -16.818604 ], [ 179.071152, -16.820871 ], [ 179.077591, -16.821285 ], [ 179.086929, -16.826958 ], [ 179.085526, -16.829493 ], [ 179.07933, -16.829994 ], [ 179.076736, -16.834602 ], [ 179.074356, -16.835077 ], [ 179.06955, -16.830061 ], [ 179.066742, -16.835819 ], [ 179.064117, -16.836985 ], [ 179.062912, -16.834469 ], [ 179.064545, -16.829866 ], [ 179.062347, -16.823227 ] ] ], [ [ [ -178.907333, -17.19025 ], [ -178.905258, -17.18631 ], [ -178.890488, -17.17226 ], [ -178.885391, -17.176067 ], [ -178.891327, -17.189955 ], [ -178.896988, -17.193274 ], [ -178.904602, -17.194794 ], [ -178.907333, -17.19025 ] ] ], [ [ [ 178.205689, -17.27858 ], [ 178.209776, -17.27759 ], [ 178.21691, -17.280089 ], [ 178.226506, -17.2775 ], [ 178.228522, -17.282467 ], [ 178.228562, -17.284467 ], [ 178.224679, -17.291675 ], [ 178.227034, -17.295964 ], [ 178.227564, -17.299924 ], [ 178.223813, -17.301801 ], [ 178.219593, -17.28875 ], [ 178.213978, -17.287163 ], [ 178.209865, -17.282467 ], [ 178.206002, -17.280527 ], [ 178.205689, -17.27858 ] ] ], [ [ [ 179.062576, -16.423969 ], [ 179.069229, -16.422318 ], [ 179.075592, -16.415621 ], [ 179.082748, -16.417177 ], [ 179.08371, -16.419464 ], [ 179.079987, -16.428438 ], [ 179.074768, -16.430767 ], [ 179.071228, -16.434921 ], [ 179.066452, -16.432659 ], [ 179.063095, -16.428324 ], [ 179.062576, -16.423969 ] ] ], [ [ [ -178.967789, -17.34543 ], [ -178.966644, -17.343113 ], [ -178.963318, -17.342363 ], [ -178.953445, -17.345398 ], [ -178.949921, -17.34235 ], [ -178.93515, -17.339094 ], [ -178.931503, -17.341784 ], [ -178.942932, -17.344748 ], [ -178.954239, -17.35368 ], [ -178.957321, -17.354425 ], [ -178.963867, -17.35041 ], [ -178.967789, -17.34543 ] ] ], [ [ [ 179.572586, -16.237347 ], [ 179.574188, -16.230679 ], [ 179.578171, -16.225363 ], [ 179.584152, -16.229891 ], [ 179.586166, -16.239735 ], [ 179.582443, -16.247801 ], [ 179.577957, -16.250137 ], [ 179.57695, -16.244184 ], [ 179.574799, -16.243288 ], [ 179.572586, -16.237347 ] ] ], [ [ [ 178.224786, -17.325631 ], [ 178.235408, -17.310256 ], [ 178.231496, -17.305223 ], [ 178.232099, -17.303276 ], [ 178.242676, -17.31024 ], [ 178.243403, -17.313495 ], [ 178.239692, -17.31779 ], [ 178.239085, -17.324769 ], [ 178.232202, -17.324769 ], [ 178.229873, -17.327017 ], [ 178.224786, -17.325631 ] ] ], [ [ [ 177.195053, -17.781494 ], [ 177.197952, -17.776224 ], [ 177.201782, -17.77578 ], [ 177.203964, -17.769358 ], [ 177.200623, -17.766819 ], [ 177.213821, -17.763884 ], [ 177.213562, -17.768705 ], [ 177.210434, -17.771219 ], [ 177.211624, -17.776047 ], [ 177.20993, -17.779255 ], [ 177.196243, -17.784256 ], [ 177.195053, -17.781494 ] ] ], [ [ [ -178.636795, -18.68581 ], [ -178.630997, -18.680435 ], [ -178.61142, -18.676466 ], [ -178.609528, -18.679033 ], [ -178.61084, -18.681246 ], [ -178.618912, -18.687113 ], [ -178.635361, -18.687954 ], [ -178.636795, -18.68581 ] ] ], [ [ [ -178.487762, -18.972731 ], [ -178.484543, -18.965769 ], [ -178.482391, -18.964346 ], [ -178.476608, -18.963995 ], [ -178.4711, -18.971924 ], [ -178.466187, -18.975729 ], [ -178.466599, -18.978266 ], [ -178.475296, -18.978676 ], [ -178.47998, -18.974638 ], [ -178.486511, -18.974771 ], [ -178.487762, -18.972731 ] ] ], [ [ [ 178.104647, -19.162755 ], [ 178.11021, -19.160086 ], [ 178.11838, -19.169498 ], [ 178.11607, -19.177493 ], [ 178.112767, -19.179693 ], [ 178.105635, -19.175882 ], [ 178.10607, -19.169498 ], [ 178.104647, -19.162755 ] ] ], [ [ [ 177.137527, -17.372763 ], [ 177.137527, -17.370008 ], [ 177.143539, -17.362457 ], [ 177.148575, -17.362019 ], [ 177.153793, -17.371683 ], [ 177.152344, -17.373974 ], [ 177.147568, -17.373953 ], [ 177.144913, -17.378075 ], [ 177.141327, -17.379438 ], [ 177.137527, -17.372763 ] ] ], [ [ [ -178.445633, -18.955307 ], [ -178.444092, -18.94861 ], [ -178.440552, -18.945549 ], [ -178.440689, -18.939806 ], [ -178.435486, -18.934872 ], [ -178.432831, -18.934814 ], [ -178.428864, -18.938639 ], [ -178.431412, -18.943289 ], [ -178.435684, -18.946596 ], [ -178.43631, -18.950975 ], [ -178.444351, -18.958498 ], [ -178.445633, -18.955307 ] ] ], [ [ [ 177.990784, -18.385225 ], [ 177.995102, -18.382925 ], [ 177.996307, -18.377642 ], [ 178.007614, -18.375795 ], [ 178.009552, -18.37763 ], [ 178.006668, -18.384295 ], [ 178.002808, -18.384987 ], [ 178.002579, -18.389812 ], [ 177.998489, -18.391193 ], [ 177.991013, -18.387524 ], [ 177.990784, -18.385225 ] ] ], [ [ [ 178.67394, -17.590277 ], [ 178.670934, -17.58878 ], [ 178.669293, -17.585925 ], [ 178.67394, -17.580261 ], [ 178.684433, -17.577317 ], [ 178.687641, -17.57952 ], [ 178.681647, -17.586786 ], [ 178.681488, -17.593435 ], [ 178.67394, -17.590277 ] ] ], [ [ [ 179.092163, -16.225109 ], [ 179.100876, -16.216333 ], [ 179.102097, -16.220911 ], [ 179.099533, -16.225517 ], [ 179.101929, -16.22871 ], [ 179.100754, -16.231012 ], [ 179.104355, -16.234886 ], [ 179.102936, -16.236273 ], [ 179.098648, -16.234926 ], [ 179.094406, -16.238398 ], [ 179.092484, -16.236805 ], [ 179.09436, -16.233351 ], [ 179.092163, -16.225109 ] ] ], [ [ [ 179.001633, -16.93173 ], [ 179.004486, -16.928728 ], [ 179.009491, -16.928236 ], [ 179.011597, -16.924091 ], [ 179.015656, -16.924522 ], [ 179.018768, -16.92634 ], [ 179.023117, -16.933655 ], [ 179.018845, -16.935749 ], [ 179.001633, -16.93173 ] ] ], [ [ [ 178.516829, -18.143894 ], [ 178.518577, -18.137346 ], [ 178.519752, -18.133429 ], [ 178.521911, -18.131116 ], [ 178.523381, -18.13549 ], [ 178.526536, -18.137554 ], [ 178.52799, -18.141466 ], [ 178.523567, -18.152458 ], [ 178.518577, -18.148577 ], [ 178.516829, -18.143894 ] ] ], [ [ [ 178.52714, -18.840054 ], [ 178.53595, -18.837312 ], [ 178.54478, -18.843919 ], [ 178.54478, -18.845627 ], [ 178.53136, -18.85016 ], [ 178.52714, -18.840054 ] ] ], [ [ [ 177.357651, -16.929363 ], [ 177.365555, -16.920666 ], [ 177.370087, -16.91976 ], [ 177.371506, -16.923437 ], [ 177.369827, -16.928482 ], [ 177.364075, -16.936268 ], [ 177.359314, -16.93396 ], [ 177.357651, -16.929363 ] ] ], [ [ [ 177.090296, -17.615522 ], [ 177.096357, -17.606483 ], [ 177.098768, -17.607787 ], [ 177.101921, -17.615509 ], [ 177.106079, -17.616474 ], [ 177.101921, -17.62108 ], [ 177.099868, -17.622457 ], [ 177.096308, -17.62128 ], [ 177.090296, -17.615522 ] ] ], [ [ [ 179.263653, -17.64052 ], [ 179.265092, -17.639791 ], [ 179.268652, -17.642315 ], [ 179.272825, -17.650866 ], [ 179.27601, -17.651992 ], [ 179.276777, -17.655827 ], [ 179.272825, -17.656195 ], [ 179.264264, -17.652918 ], [ 179.263653, -17.64052 ] ] ], [ [ [ -178.524826, -18.937643 ], [ -178.52092, -18.928831 ], [ -178.517334, -18.926918 ], [ -178.513214, -18.927523 ], [ -178.511917, -18.931173 ], [ -178.513931, -18.938568 ], [ -178.524826, -18.937643 ] ] ], [ [ [ 177.371929, -16.973463 ], [ 177.380247, -16.957903 ], [ 177.384055, -16.956538 ], [ 177.382837, -16.969366 ], [ 177.376149, -16.974159 ], [ 177.371929, -16.973463 ] ] ], [ [ [ -179.160004, -16.08379 ], [ -179.1586, -16.08193 ], [ -179.148514, -16.088181 ], [ -179.147278, -16.09137 ], [ -179.149567, -16.095997 ], [ -179.154739, -16.098608 ], [ -179.156067, -16.090832 ], [ -179.160004, -16.08379 ] ] ], [ [ [ 177.103483, -17.670171 ], [ 177.116287, -17.669409 ], [ 177.122217, -17.672691 ], [ 177.12583, -17.676067 ], [ 177.122217, -17.679233 ], [ 177.115468, -17.674244 ], [ 177.105244, -17.673992 ], [ 177.103483, -17.670171 ] ] ], [ [ [ 178.526596, -18.102655 ], [ 178.533081, -18.101254 ], [ 178.537888, -18.102842 ], [ 178.541016, -18.101912 ], [ 178.542328, -18.103383 ], [ 178.542328, -18.106328 ], [ 178.539368, -18.109499 ], [ 178.535522, -18.110432 ], [ 178.526596, -18.102655 ] ] ], [ [ [ 178.519226, -18.771399 ], [ 178.525436, -18.759987 ], [ 178.530228, -18.760597 ], [ 178.525269, -18.774591 ], [ 178.51973, -18.773924 ], [ 178.519226, -18.771399 ] ] ], [ [ [ -178.830566, -18.990747 ], [ -178.826752, -18.988148 ], [ -178.817825, -18.987522 ], [ -178.817062, -18.989346 ], [ -178.820068, -18.995377 ], [ -178.825851, -18.996176 ], [ -178.830261, -18.993959 ], [ -178.830566, -18.990747 ] ] ], [ [ [ 178.947662, -17.430683 ], [ 178.950745, -17.426991 ], [ 178.950714, -17.421021 ], [ 178.953568, -17.420315 ], [ 178.95546, -17.416399 ], [ 178.959335, -17.422344 ], [ 178.956238, -17.425348 ], [ 178.951523, -17.434334 ], [ 178.947662, -17.430683 ] ] ], [ [ [ -179.483475, -17.250923 ], [ -179.483047, -17.247932 ], [ -179.474869, -17.250792 ], [ -179.472427, -17.253281 ], [ -179.469955, -17.258524 ], [ -179.470383, -17.261055 ], [ -179.474228, -17.259966 ], [ -179.483475, -17.250923 ] ] ], [ [ [ -178.982849, -17.333992 ], [ -178.979614, -17.328423 ], [ -178.972626, -17.342762 ], [ -178.973557, -17.344616 ], [ -178.976196, -17.344204 ], [ -178.982071, -17.337421 ], [ -178.982849, -17.333992 ] ] ], [ [ [ 179.649628, -16.175111 ], [ 179.654028, -16.174513 ], [ 179.664253, -16.180233 ], [ 179.663915, -16.181843 ], [ 179.656911, -16.182722 ], [ 179.655209, -16.179554 ], [ 179.649735, -16.182299 ], [ 179.649628, -16.175111 ] ] ], [ [ [ 177.183914, -17.191668 ], [ 177.18692, -17.175354 ], [ 177.189346, -17.175352 ], [ 177.187531, -17.181761 ], [ 177.190582, -17.193409 ], [ 177.187546, -17.196907 ], [ 177.183914, -17.191668 ] ] ], [ [ [ -178.719482, -17.522631 ], [ -178.716217, -17.518663 ], [ -178.712875, -17.518139 ], [ -178.711609, -17.52087 ], [ -178.713303, -17.531467 ], [ -178.715942, -17.53083 ], [ -178.718658, -17.527208 ], [ -178.719482, -17.522631 ] ] ], [ [ [ 177.05808, -17.585271 ], [ 177.060012, -17.582532 ], [ 177.065822, -17.588611 ], [ 177.071356, -17.589429 ], [ 177.07181, -17.596027 ], [ 177.070331, -17.596731 ], [ 177.064501, -17.5924 ], [ 177.05808, -17.585271 ] ] ], [ [ [ 177.266083, -17.486221 ], [ 177.268967, -17.483475 ], [ 177.27063, -17.485317 ], [ 177.276138, -17.486944 ], [ 177.27565, -17.488779 ], [ 177.279938, -17.49637 ], [ 177.278244, -17.497744 ], [ 177.274658, -17.495893 ], [ 177.270615, -17.488991 ], [ 177.266083, -17.486221 ] ] ], [ [ [ 177.46875, -16.855066 ], [ 177.472336, -16.850485 ], [ 177.481857, -16.854408 ], [ 177.47995, -16.856239 ], [ 177.468979, -16.859657 ], [ 177.46875, -16.855066 ] ] ], [ [ [ -178.700928, -18.320707 ], [ -178.697998, -18.319578 ], [ -178.687958, -18.322155 ], [ -178.68605, -18.324575 ], [ -178.695236, -18.32621 ], [ -178.700073, -18.324917 ], [ -178.700928, -18.320707 ] ] ], [ [ [ 179.933884, -16.1614 ], [ 179.93956, -16.159956 ], [ 179.942139, -16.157173 ], [ 179.949249, -16.157087 ], [ 179.949982, -16.158684 ], [ 179.947418, -16.162157 ], [ 179.935577, -16.163904 ], [ 179.933884, -16.1614 ] ] ], [ [ [ 179.098984, -17.111944 ], [ 179.101349, -17.108255 ], [ 179.112228, -17.103853 ], [ 179.113373, -17.107988 ], [ 179.104004, -17.112598 ], [ 179.098984, -17.111944 ] ] ], [ [ [ -178.701187, -20.660135 ], [ -178.70076, -20.65737 ], [ -178.691727, -20.656967 ], [ -178.689972, -20.659 ], [ -178.694473, -20.665062 ], [ -178.699417, -20.66263 ], [ -178.701187, -20.660135 ] ] ], [ [ [ -179.694876, -16.499217 ], [ -179.685831, -16.500972 ], [ -179.684329, -16.503303 ], [ -179.686692, -16.508279 ], [ -179.692826, -16.506247 ], [ -179.694876, -16.499217 ] ] ], [ [ [ 179.579712, -16.192549 ], [ 179.581055, -16.185654 ], [ 179.584091, -16.180578 ], [ 179.587173, -16.181236 ], [ 179.585632, -16.192261 ], [ 179.579712, -16.192549 ] ] ], [ [ [ -179.042068, -17.168354 ], [ -179.039078, -17.16256 ], [ -179.034775, -17.162714 ], [ -179.032837, -17.164057 ], [ -179.03421, -17.167524 ], [ -179.036514, -17.171469 ], [ -179.039124, -17.172434 ], [ -179.042068, -17.168354 ] ] ], [ [ [ -178.708405, -20.642811 ], [ -178.705246, -20.64229 ], [ -178.69458, -20.64921 ], [ -178.696747, -20.651089 ], [ -178.700394, -20.65139 ], [ -178.703857, -20.649387 ], [ -178.708405, -20.642811 ] ] ], [ [ [ 178.689011, -16.613577 ], [ 178.689241, -16.610576 ], [ 178.695214, -16.607777 ], [ 178.697795, -16.61845 ], [ 178.696341, -16.619317 ], [ 178.689011, -16.613577 ] ] ], [ [ [ 178.526154, -18.809511 ], [ 178.528778, -18.801229 ], [ 178.530945, -18.800303 ], [ 178.533875, -18.806953 ], [ 178.531952, -18.811098 ], [ 178.528336, -18.811571 ], [ 178.526154, -18.809511 ] ] ], [ [ [ 178.572662, -18.13693 ], [ 178.57576, -18.130947 ], [ 178.579361, -18.131392 ], [ 178.580338, -18.133684 ], [ 178.576782, -18.142656 ], [ 178.574127, -18.1406 ], [ 178.572662, -18.13693 ] ] ], [ [ [ 179.606293, -16.212698 ], [ 179.607712, -16.211767 ], [ 179.612732, -16.215845 ], [ 179.614014, -16.223402 ], [ 179.609482, -16.221842 ], [ 179.606323, -16.216139 ], [ 179.606293, -16.212698 ] ] ], [ [ [ 178.609634, -17.937185 ], [ 178.612518, -17.935566 ], [ 178.620438, -17.935991 ], [ 178.621658, -17.938511 ], [ 178.619263, -17.94105 ], [ 178.614471, -17.941759 ], [ 178.609634, -17.937185 ] ] ], [ [ [ 179.314423, -16.344517 ], [ 179.31488, -16.342678 ], [ 179.321976, -16.340324 ], [ 179.323669, -16.342606 ], [ 179.32988, -16.345535 ], [ 179.328232, -16.347612 ], [ 179.32251, -16.345139 ], [ 179.314423, -16.344517 ] ] ], [ [ [ -179.177856, -16.080425 ], [ -179.177185, -16.078119 ], [ -179.167755, -16.075207 ], [ -179.16629, -16.077475 ], [ -179.167679, -16.079334 ], [ -179.176163, -16.082232 ], [ -179.177856, -16.080425 ] ] ], [ [ [ -179.028198, -17.181423 ], [ -179.025162, -17.177696 ], [ -179.018661, -17.180336 ], [ -179.016449, -17.18305 ], [ -179.01857, -17.184925 ], [ -179.028198, -17.181423 ] ] ], [ [ [ 179.753723, -16.207031 ], [ 179.753937, -16.205193 ], [ 179.760834, -16.205576 ], [ 179.765076, -16.203007 ], [ 179.765808, -16.204834 ], [ 179.761597, -16.209469 ], [ 179.758041, -16.210196 ], [ 179.753723, -16.207031 ] ] ], [ [ [ 178.434128, -16.760532 ], [ 178.436981, -16.759375 ], [ 178.439377, -16.763268 ], [ 178.444153, -16.764629 ], [ 178.445831, -16.767149 ], [ 178.443695, -16.768763 ], [ 178.439163, -16.767399 ], [ 178.434128, -16.760532 ] ] ], [ [ [ 177.134827, -17.730728 ], [ 177.141541, -17.72938 ], [ 177.147995, -17.735376 ], [ 177.146301, -17.737207 ], [ 177.141052, -17.73328 ], [ 177.1353, -17.733027 ], [ 177.134827, -17.730728 ] ] ], [ [ [ -179.736678, -16.734959 ], [ -179.735093, -16.729019 ], [ -179.732376, -16.727788 ], [ -179.731105, -16.729921 ], [ -179.733028, -16.734727 ], [ -179.736678, -16.734959 ] ] ], [ [ [ -179.744555, -16.734971 ], [ -179.743374, -16.731567 ], [ -179.736924, -16.736533 ], [ -179.740846, -16.7382 ], [ -179.744555, -16.734971 ] ] ], [ [ [ 179.995333, -16.149038 ], [ 179.999327, -16.145871 ], [ 179.999595, -16.154062 ], [ 179.997704, -16.154457 ], [ 179.995333, -16.149038 ] ] ], [ [ [ 178.779938, -17.379012 ], [ 178.783207, -17.37835 ], [ 178.785849, -17.383898 ], [ 178.784218, -17.385926 ], [ 178.782419, -17.383898 ], [ 178.779938, -17.379012 ] ] ] ] } }
]
}
