{
"type": "FeatureCollection",
"name": "French Southern and Antarctic Lands",
"crs": { "type": "name", "properties": { "name": "urn:ogc:def:crs:OGC:1.3:CRS84" } },
"features": [
{ "type": "Feature", "properties": { "id": "TF", "CNTR_ID": "TF", "CNTR_NAME": "Terres Australes Et Antarctiques Françaises", "NAME_ENGL": "French Southern and Antarctic Lands", "ISO3_CODE": "ATF", "FID": "TF" }, "geometry": { "type": "MultiPolygon", "coordinates": [ [ [ [ 69.920304, -49.694969 ], [ 69.892505, -49.707487 ], [ 69.882162, -49.708647 ], [ 69.872707, -49.706704 ], [ 69.864525, -49.697103 ], [ 69.842113, -49.687677 ], [ 69.829232, -49.675138 ], [ 69.82072, -49.651029 ], [ 69.796779, -49.635525 ], [ 69.771289, -49.596614 ], [ 69.762311, -49.568123 ], [ 69.770298, -49.546095 ], [ 69.76328, -49.533818 ], [ 69.744194, -49.521015 ], [ 69.730806, -49.508775 ], [ 69.720784, -49.50695 ], [ 69.71048, -49.510821 ], [ 69.679556, -49.498656 ], [ 69.670837, -49.501592 ], [ 69.695409, -49.516522 ], [ 69.703064, -49.529489 ], [ 69.701224, -49.537369 ], [ 69.691879, -49.542361 ], [ 69.651983, -49.52231 ], [ 69.637621, -49.507797 ], [ 69.625206, -49.512409 ], [ 69.631146, -49.530456 ], [ 69.641127, -49.537083 ], [ 69.659414, -49.543652 ], [ 69.669927, -49.549946 ], [ 69.687922, -49.569639 ], [ 69.695977, -49.586698 ], [ 69.694506, -49.602471 ], [ 69.69895, -49.61807 ], [ 69.697225, -49.631977 ], [ 69.680134, -49.660602 ], [ 69.66438, -49.668854 ], [ 69.642143, -49.671183 ], [ 69.624227, -49.666143 ], [ 69.611197, -49.652388 ], [ 69.589046, -49.642721 ], [ 69.557833, -49.646948 ], [ 69.526882, -49.645225 ], [ 69.493694, -49.648031 ], [ 69.468751, -49.644113 ], [ 69.449107, -49.644449 ], [ 69.428278, -49.639719 ], [ 69.420281, -49.634628 ], [ 69.406966, -49.617282 ], [ 69.389877, -49.602806 ], [ 69.36781, -49.579296 ], [ 69.318546, -49.563603 ], [ 69.314385, -49.560575 ], [ 69.301692, -49.5424 ], [ 69.305401, -49.517274 ], [ 69.316873, -49.502834 ], [ 69.318779, -49.494479 ], [ 69.313132, -49.482312 ], [ 69.300832, -49.47182 ], [ 69.291196, -49.469346 ], [ 69.286085, -49.473607 ], [ 69.298042, -49.487863 ], [ 69.302195, -49.497139 ], [ 69.299944, -49.507486 ], [ 69.291676, -49.522865 ], [ 69.290554, -49.544431 ], [ 69.304854, -49.568988 ], [ 69.304923, -49.57428 ], [ 69.300815, -49.57689 ], [ 69.287515, -49.573379 ], [ 69.271578, -49.575244 ], [ 69.255992, -49.565891 ], [ 69.235969, -49.52686 ], [ 69.233132, -49.500928 ], [ 69.2257, -49.491419 ], [ 69.204836, -49.487196 ], [ 69.180077, -49.491437 ], [ 69.160445, -49.490611 ], [ 69.140897, -49.484002 ], [ 69.128872, -49.47768 ], [ 69.120857, -49.476397 ], [ 69.104907, -49.482835 ], [ 69.119842, -49.481917 ], [ 69.144541, -49.492037 ], [ 69.177855, -49.498205 ], [ 69.187006, -49.503632 ], [ 69.189977, -49.512929 ], [ 69.183576, -49.521933 ], [ 69.174692, -49.52078 ], [ 69.160184, -49.511713 ], [ 69.155843, -49.512019 ], [ 69.17226, -49.525965 ], [ 69.197326, -49.533336 ], [ 69.19756, -49.541931 ], [ 69.210925, -49.563928 ], [ 69.210913, -49.574749 ], [ 69.205944, -49.577387 ], [ 69.194446, -49.572167 ], [ 69.183544, -49.550926 ], [ 69.163644, -49.534451 ], [ 69.131443, -49.521782 ], [ 69.124853, -49.521211 ], [ 69.136893, -49.532195 ], [ 69.155266, -49.54266 ], [ 69.16517, -49.55998 ], [ 69.164229, -49.568043 ], [ 69.1579, -49.574893 ], [ 69.14233, -49.578007 ], [ 69.126426, -49.57226 ], [ 69.122978, -49.575643 ], [ 69.124321, -49.580465 ], [ 69.136396, -49.586068 ], [ 69.168274, -49.583968 ], [ 69.175485, -49.588639 ], [ 69.152398, -49.605143 ], [ 69.137328, -49.600877 ], [ 69.130789, -49.601763 ], [ 69.139848, -49.610732 ], [ 69.141266, -49.629407 ], [ 69.135358, -49.639723 ], [ 69.123895, -49.641632 ], [ 69.11842, -49.638031 ], [ 69.118388, -49.626969 ], [ 69.11176, -49.617044 ], [ 69.092598, -49.607715 ], [ 69.084053, -49.595845 ], [ 69.079945, -49.571956 ], [ 69.084611, -49.543638 ], [ 69.080374, -49.542699 ], [ 69.075604, -49.546267 ], [ 69.069621, -49.543317 ], [ 69.062642, -49.545106 ], [ 69.055473, -49.554254 ], [ 69.060769, -49.566866 ], [ 69.05933, -49.592812 ], [ 69.07281, -49.618913 ], [ 69.085287, -49.631589 ], [ 69.092637, -49.651069 ], [ 69.091098, -49.677761 ], [ 69.084291, -49.686528 ], [ 69.053629, -49.700716 ], [ 68.998341, -49.717491 ], [ 68.968507, -49.721416 ], [ 68.932046, -49.717664 ], [ 68.925222, -49.720406 ], [ 68.920931, -49.726938 ], [ 68.91385, -49.729491 ], [ 68.886475, -49.726082 ], [ 68.872298, -49.721252 ], [ 68.855666, -49.720223 ], [ 68.829758, -49.724683 ], [ 68.811401, -49.730957 ], [ 68.780157, -49.726599 ], [ 68.777399, -49.718674 ], [ 68.763667, -49.702868 ], [ 68.765847, -49.692276 ], [ 68.754315, -49.688135 ], [ 68.747011, -49.683077 ], [ 68.733275, -49.663953 ], [ 68.731347, -49.652471 ], [ 68.735429, -49.641169 ], [ 68.774223, -49.594391 ], [ 68.806952, -49.569194 ], [ 68.8096, -49.56211 ], [ 68.808627, -49.55407 ], [ 68.81325, -49.547008 ], [ 68.831653, -49.536582 ], [ 68.854938, -49.530511 ], [ 68.8682, -49.524438 ], [ 68.865419, -49.519443 ], [ 68.85988, -49.518193 ], [ 68.836309, -49.52982 ], [ 68.826686, -49.529421 ], [ 68.824687, -49.521835 ], [ 68.835433, -49.514267 ], [ 68.837633, -49.509649 ], [ 68.830564, -49.504401 ], [ 68.813248, -49.499268 ], [ 68.813446, -49.494465 ], [ 68.819239, -49.485533 ], [ 68.829454, -49.478538 ], [ 68.84621, -49.473572 ], [ 68.866274, -49.461953 ], [ 68.893434, -49.453098 ], [ 68.899856, -49.446678 ], [ 68.900734, -49.434392 ], [ 68.908051, -49.427886 ], [ 68.89545, -49.425292 ], [ 68.887214, -49.419338 ], [ 68.883716, -49.411199 ], [ 68.889623, -49.401141 ], [ 68.888723, -49.398346 ], [ 68.885117, -49.398924 ], [ 68.880849, -49.405119 ], [ 68.87609, -49.407471 ], [ 68.865384, -49.403253 ], [ 68.849532, -49.401991 ], [ 68.844536, -49.399067 ], [ 68.844038, -49.389854 ], [ 68.848803, -49.379106 ], [ 68.857005, -49.37548 ], [ 68.874755, -49.372583 ], [ 68.878057, -49.369601 ], [ 68.876838, -49.366327 ], [ 68.86328, -49.366057 ], [ 68.847841, -49.373315 ], [ 68.836198, -49.376137 ], [ 68.82419, -49.383146 ], [ 68.803985, -49.372597 ], [ 68.804497, -49.366571 ], [ 68.809847, -49.35944 ], [ 68.804038, -49.348329 ], [ 68.819889, -49.342632 ], [ 68.833093, -49.340837 ], [ 68.839218, -49.334021 ], [ 68.849309, -49.327823 ], [ 68.836502, -49.313483 ], [ 68.835442, -49.309226 ], [ 68.828437, -49.30661 ], [ 68.818807, -49.307213 ], [ 68.807264, -49.295978 ], [ 68.80569, -49.290418 ], [ 68.808064, -49.282695 ], [ 68.811781, -49.281017 ], [ 68.830523, -49.28292 ], [ 68.836428, -49.280834 ], [ 68.842947, -49.281104 ], [ 68.847911, -49.274772 ], [ 68.844575, -49.272939 ], [ 68.831691, -49.273884 ], [ 68.814997, -49.271142 ], [ 68.803543, -49.262305 ], [ 68.792534, -49.246699 ], [ 68.789277, -49.24626 ], [ 68.784328, -49.249782 ], [ 68.781088, -49.249084 ], [ 68.77952, -49.239515 ], [ 68.769726, -49.23429 ], [ 68.764126, -49.223629 ], [ 68.763566, -49.20415 ], [ 68.767128, -49.196759 ], [ 68.771098, -49.195221 ], [ 68.777305, -49.197087 ], [ 68.788918, -49.206321 ], [ 68.79607, -49.204861 ], [ 68.795358, -49.19901 ], [ 68.783092, -49.186235 ], [ 68.78696, -49.173009 ], [ 68.798375, -49.171709 ], [ 68.829465, -49.177357 ], [ 68.836408, -49.180924 ], [ 68.840381, -49.188081 ], [ 68.844103, -49.189447 ], [ 68.851112, -49.183753 ], [ 68.871636, -49.178979 ], [ 68.863536, -49.171857 ], [ 68.866049, -49.166749 ], [ 68.92281, -49.143657 ], [ 68.91548, -49.140903 ], [ 68.881283, -49.146601 ], [ 68.852653, -49.158204 ], [ 68.838121, -49.153054 ], [ 68.828524, -49.154155 ], [ 68.82123, -49.152651 ], [ 68.801835, -49.141158 ], [ 68.795642, -49.133612 ], [ 68.796028, -49.129563 ], [ 68.804783, -49.125305 ], [ 68.832944, -49.12196 ], [ 68.847482, -49.117402 ], [ 68.850631, -49.113954 ], [ 68.831396, -49.11536 ], [ 68.805046, -49.109031 ], [ 68.801688, -49.109031 ], [ 68.776997, -49.113474 ], [ 68.769109, -49.112991 ], [ 68.766505, -49.109031 ], [ 68.777458, -49.097845 ], [ 68.776596, -49.093278 ], [ 68.768787, -49.091088 ], [ 68.758082, -49.093881 ], [ 68.74586, -49.093058 ], [ 68.731191, -49.078977 ], [ 68.739121, -49.064019 ], [ 68.746722, -49.060656 ], [ 68.745997, -49.052339 ], [ 68.750405, -49.046043 ], [ 68.752317, -49.036159 ], [ 68.760306, -49.030487 ], [ 68.775456, -49.034499 ], [ 68.787527, -49.033947 ], [ 68.811205, -49.05361 ], [ 68.815153, -49.054649 ], [ 68.817844, -49.053352 ], [ 68.815836, -49.045841 ], [ 68.794966, -49.027692 ], [ 68.792002, -49.023042 ], [ 68.782724, -49.007769 ], [ 68.783123, -49.001186 ], [ 68.788835, -48.994601 ], [ 68.784605, -48.980567 ], [ 68.787047, -48.975853 ], [ 68.802801, -48.965288 ], [ 68.82766, -48.97183 ], [ 68.837293, -48.963095 ], [ 68.848349, -48.959621 ], [ 68.864425, -48.972484 ], [ 68.877219, -48.991878 ], [ 68.883308, -48.994595 ], [ 68.886236, -48.992605 ], [ 68.884318, -48.982128 ], [ 68.877814, -48.971638 ], [ 68.877717, -48.963952 ], [ 68.861508, -48.951628 ], [ 68.858342, -48.934704 ], [ 68.843027, -48.926867 ], [ 68.836481, -48.916466 ], [ 68.818343, -48.903988 ], [ 68.80262, -48.878598 ], [ 68.789198, -48.874351 ], [ 68.78848, -48.846665 ], [ 68.793334, -48.840924 ], [ 68.810608, -48.834515 ], [ 68.826011, -48.834722 ], [ 68.835197, -48.831316 ], [ 68.853843, -48.828628 ], [ 68.871012, -48.821718 ], [ 68.887581, -48.821967 ], [ 68.882807, -48.805676 ], [ 68.895834, -48.798738 ], [ 68.912902, -48.775037 ], [ 68.943343, -48.753205 ], [ 68.908829, -48.722393 ], [ 68.913406, -48.719976 ], [ 68.938409, -48.720147 ], [ 68.943104, -48.715982 ], [ 68.930468, -48.710176 ], [ 68.925727, -48.701827 ], [ 68.929421, -48.699765 ], [ 68.945399, -48.699162 ], [ 68.957386, -48.695791 ], [ 68.942179, -48.686161 ], [ 68.936825, -48.675314 ], [ 68.938523, -48.670191 ], [ 68.945458, -48.667537 ], [ 68.955481, -48.667953 ], [ 68.965815, -48.671781 ], [ 68.976211, -48.678652 ], [ 69.000054, -48.681364 ], [ 69.006445, -48.678631 ], [ 69.011386, -48.664416 ], [ 69.017395, -48.661459 ], [ 69.029872, -48.661249 ], [ 69.036044, -48.662131 ], [ 69.05485, -48.670808 ], [ 69.049963, -48.676432 ], [ 69.032849, -48.676948 ], [ 69.02881, -48.678671 ], [ 69.057281, -48.698057 ], [ 69.042615, -48.706444 ], [ 69.003823, -48.719683 ], [ 69.000054, -48.722181 ], [ 68.997239, -48.724046 ], [ 68.986836, -48.730938 ], [ 68.991284, -48.731266 ], [ 68.997239, -48.729225 ], [ 69.000054, -48.72826 ], [ 69.012988, -48.723827 ], [ 69.057131, -48.715076 ], [ 69.066945, -48.715634 ], [ 69.068792, -48.717954 ], [ 69.068792, -48.719575 ], [ 69.000054, -48.754574 ], [ 68.997239, -48.756007 ], [ 68.989971, -48.759705 ], [ 68.986355, -48.763557 ], [ 68.997239, -48.763102 ], [ 69.000054, -48.762984 ], [ 69.004933, -48.76278 ], [ 69.035634, -48.750501 ], [ 69.062291, -48.737108 ], [ 69.068792, -48.735432 ], [ 69.089567, -48.730075 ], [ 69.109951, -48.721892 ], [ 69.118682, -48.722676 ], [ 69.120605, -48.729104 ], [ 69.072665, -48.750034 ], [ 69.068792, -48.75308 ], [ 69.044626, -48.772085 ], [ 69.02166, -48.782757 ], [ 69.000054, -48.795719 ], [ 68.963863, -48.807707 ], [ 68.958736, -48.815376 ], [ 68.942145, -48.824349 ], [ 68.913323, -48.847523 ], [ 68.898214, -48.873145 ], [ 68.901828, -48.88459 ], [ 68.906464, -48.88313 ], [ 68.910277, -48.86512 ], [ 68.919721, -48.859085 ], [ 68.962241, -48.875756 ], [ 68.960808, -48.868812 ], [ 68.941321, -48.855175 ], [ 68.943373, -48.842539 ], [ 68.97384, -48.829026 ], [ 69.000054, -48.822324 ], [ 69.007152, -48.828148 ], [ 69.007981, -48.841763 ], [ 69.012426, -48.845349 ], [ 69.024176, -48.829332 ], [ 69.016709, -48.814614 ], [ 69.021159, -48.806956 ], [ 69.05268, -48.791929 ], [ 69.068792, -48.787112 ], [ 69.072769, -48.785923 ], [ 69.099803, -48.767536 ], [ 69.120666, -48.760737 ], [ 69.159217, -48.758589 ], [ 69.16936, -48.763453 ], [ 69.175761, -48.777757 ], [ 69.173629, -48.780969 ], [ 69.152548, -48.784133 ], [ 69.130401, -48.79421 ], [ 69.109216, -48.80055 ], [ 69.101624, -48.807337 ], [ 69.10188, -48.812271 ], [ 69.108439, -48.818642 ], [ 69.112203, -48.83535 ], [ 69.117242, -48.839262 ], [ 69.12546, -48.834325 ], [ 69.130865, -48.825037 ], [ 69.139088, -48.819978 ], [ 69.145302, -48.819767 ], [ 69.148871, -48.837105 ], [ 69.144945, -48.851034 ], [ 69.139386, -48.858865 ], [ 69.129532, -48.867082 ], [ 69.112713, -48.869482 ], [ 69.116354, -48.881218 ], [ 69.105828, -48.885136 ], [ 69.081485, -48.901946 ], [ 69.071154, -48.917795 ], [ 69.068792, -48.92019 ], [ 69.061415, -48.927671 ], [ 69.039025, -48.936075 ], [ 69.045832, -48.943602 ], [ 69.060797, -48.942511 ], [ 69.068792, -48.938385 ], [ 69.081426, -48.931864 ], [ 69.092728, -48.919894 ], [ 69.09937, -48.917808 ], [ 69.104649, -48.925156 ], [ 69.10337, -48.93514 ], [ 69.113073, -48.950957 ], [ 69.112365, -48.9626 ], [ 69.10155, -48.972369 ], [ 69.074045, -48.981801 ], [ 69.068792, -48.985381 ], [ 69.057896, -48.992806 ], [ 69.044294, -48.999154 ], [ 69.033332, -48.999391 ], [ 69.018814, -48.99204 ], [ 69.014499, -48.99202 ], [ 69.025879, -49.008725 ], [ 69.02103, -49.01298 ], [ 69.004589, -49.020042 ], [ 69.002908, -49.023042 ], [ 69.001914, -49.032146 ], [ 69.000054, -49.035382 ], [ 68.997239, -49.040279 ], [ 68.99572, -49.042921 ], [ 68.997239, -49.044086 ], [ 69.000054, -49.046248 ], [ 69.010873, -49.054552 ], [ 69.013155, -49.06845 ], [ 69.006851, -49.078479 ], [ 69.000054, -49.081688 ], [ 68.997239, -49.083018 ], [ 68.993137, -49.084954 ], [ 68.997239, -49.085766 ], [ 69.000054, -49.086323 ], [ 69.02813, -49.091878 ], [ 69.046175, -49.109031 ], [ 69.049334, -49.113641 ], [ 69.05279, -49.115413 ], [ 69.055879, -49.114484 ], [ 69.060852, -49.109031 ], [ 69.060081, -49.103338 ], [ 69.047549, -49.093973 ], [ 69.037872, -49.080582 ], [ 69.044015, -49.064431 ], [ 69.041208, -49.037145 ], [ 69.053812, -49.024928 ], [ 69.062396, -49.023042 ], [ 69.068792, -49.021636 ], [ 69.074163, -49.014039 ], [ 69.097202, -48.994492 ], [ 69.111859, -48.990397 ], [ 69.11781, -48.991979 ], [ 69.117986, -49.002079 ], [ 69.125965, -49.01555 ], [ 69.164651, -49.029791 ], [ 69.170695, -49.049159 ], [ 69.186138, -49.063366 ], [ 69.184898, -49.070201 ], [ 69.178434, -49.076562 ], [ 69.180426, -49.084853 ], [ 69.17714, -49.093944 ], [ 69.157937, -49.110836 ], [ 69.171823, -49.114074 ], [ 69.181501, -49.121396 ], [ 69.193367, -49.118134 ], [ 69.202697, -49.125892 ], [ 69.214882, -49.129656 ], [ 69.234318, -49.114767 ], [ 69.260253, -49.106301 ], [ 69.305484, -49.09876 ], [ 69.33611, -49.096793 ], [ 69.386217, -49.057212 ], [ 69.393729, -49.044498 ], [ 69.402236, -49.03796 ], [ 69.420519, -49.03157 ], [ 69.431546, -49.032752 ], [ 69.433747, -49.020784 ], [ 69.44003, -49.01704 ], [ 69.453366, -49.021363 ], [ 69.465173, -49.050412 ], [ 69.457485, -49.06381 ], [ 69.453577, -49.077651 ], [ 69.444908, -49.086811 ], [ 69.454907, -49.086411 ], [ 69.49021, -49.067194 ], [ 69.494259, -49.057647 ], [ 69.491213, -49.038299 ], [ 69.498926, -49.027727 ], [ 69.506959, -49.023548 ], [ 69.509983, -49.014082 ], [ 69.522881, -48.996823 ], [ 69.524966, -48.983621 ], [ 69.535392, -48.963136 ], [ 69.566854, -48.946507 ], [ 69.573228, -48.945826 ], [ 69.5887, -48.961679 ], [ 69.581463, -48.96961 ], [ 69.558964, -48.981639 ], [ 69.557171, -48.98495 ], [ 69.583662, -48.985887 ], [ 69.607196, -48.974958 ], [ 69.621333, -48.979389 ], [ 69.617377, -48.985688 ], [ 69.605733, -48.99352 ], [ 69.556314, -49.008356 ], [ 69.560577, -49.0107 ], [ 69.591645, -49.00526 ], [ 69.598021, -49.005769 ], [ 69.601566, -49.008302 ], [ 69.598714, -49.011068 ], [ 69.582124, -49.014074 ], [ 69.568203, -49.020501 ], [ 69.573098, -49.022063 ], [ 69.587156, -49.017946 ], [ 69.597125, -49.017281 ], [ 69.603177, -49.019881 ], [ 69.602743, -49.024433 ], [ 69.593848, -49.028881 ], [ 69.573418, -49.033102 ], [ 69.570128, -49.036376 ], [ 69.565029, -49.035819 ], [ 69.563257, -49.039963 ], [ 69.569128, -49.042532 ], [ 69.585807, -49.040414 ], [ 69.60728, -49.045217 ], [ 69.622013, -49.046268 ], [ 69.631657, -49.053334 ], [ 69.648683, -49.051491 ], [ 69.655129, -49.056298 ], [ 69.659233, -49.066039 ], [ 69.655279, -49.072464 ], [ 69.637777, -49.071104 ], [ 69.601721, -49.085637 ], [ 69.574526, -49.093055 ], [ 69.578478, -49.095368 ], [ 69.594466, -49.096645 ], [ 69.635446, -49.094209 ], [ 69.646828, -49.098813 ], [ 69.645887, -49.103514 ], [ 69.624307, -49.108688 ], [ 69.595103, -49.10747 ], [ 69.577117, -49.110228 ], [ 69.566725, -49.116396 ], [ 69.567209, -49.124647 ], [ 69.573509, -49.126002 ], [ 69.643696, -49.118 ], [ 69.66945, -49.106438 ], [ 69.681007, -49.11042 ], [ 69.683482, -49.116382 ], [ 69.674964, -49.120622 ], [ 69.651735, -49.120848 ], [ 69.627451, -49.125086 ], [ 69.587151, -49.128846 ], [ 69.567476, -49.133369 ], [ 69.526275, -49.13519 ], [ 69.49021, -49.131453 ], [ 69.454251, -49.123981 ], [ 69.419236, -49.112972 ], [ 69.397806, -49.111999 ], [ 69.367253, -49.117116 ], [ 69.344785, -49.111376 ], [ 69.343217, -49.113565 ], [ 69.348819, -49.121644 ], [ 69.349101, -49.126974 ], [ 69.336619, -49.139785 ], [ 69.325449, -49.15705 ], [ 69.294753, -49.181894 ], [ 69.280144, -49.187182 ], [ 69.261169, -49.190513 ], [ 69.258701, -49.192891 ], [ 69.291207, -49.191171 ], [ 69.322227, -49.176687 ], [ 69.349024, -49.173336 ], [ 69.368046, -49.153718 ], [ 69.364939, -49.144642 ], [ 69.367858, -49.140786 ], [ 69.38074, -49.141279 ], [ 69.403374, -49.133517 ], [ 69.424124, -49.133112 ], [ 69.428766, -49.137242 ], [ 69.421141, -49.146266 ], [ 69.42155, -49.152221 ], [ 69.448268, -49.143124 ], [ 69.458641, -49.146135 ], [ 69.461283, -49.150379 ], [ 69.459908, -49.154305 ], [ 69.434412, -49.164841 ], [ 69.431922, -49.17371 ], [ 69.402491, -49.176522 ], [ 69.37994, -49.17599 ], [ 69.365691, -49.187133 ], [ 69.372537, -49.189112 ], [ 69.384534, -49.18594 ], [ 69.395759, -49.185463 ], [ 69.421568, -49.192503 ], [ 69.428645, -49.200335 ], [ 69.425402, -49.217763 ], [ 69.441989, -49.223734 ], [ 69.49021, -49.222775 ], [ 69.510942, -49.229721 ], [ 69.507518, -49.230385 ], [ 69.495861, -49.226895 ], [ 69.49021, -49.226802 ], [ 69.483989, -49.227017 ], [ 69.478797, -49.227197 ], [ 69.470525, -49.229782 ], [ 69.467915, -49.234362 ], [ 69.458956, -49.232848 ], [ 69.444927, -49.23666 ], [ 69.444159, -49.24556 ], [ 69.450677, -49.245795 ], [ 69.456606, -49.242949 ], [ 69.465411, -49.245936 ], [ 69.483989, -49.241415 ], [ 69.48593, -49.240943 ], [ 69.49021, -49.240928 ], [ 69.52638, -49.240797 ], [ 69.538751, -49.243714 ], [ 69.52638, -49.248724 ], [ 69.523923, -49.249719 ], [ 69.49021, -49.255939 ], [ 69.483989, -49.257087 ], [ 69.451315, -49.263114 ], [ 69.44774, -49.263772 ], [ 69.442239, -49.268724 ], [ 69.404364, -49.268752 ], [ 69.400647, -49.271564 ], [ 69.403548, -49.275117 ], [ 69.451315, -49.275826 ], [ 69.483989, -49.278413 ], [ 69.49021, -49.278906 ], [ 69.494619, -49.279255 ], [ 69.52638, -49.274551 ], [ 69.554063, -49.270451 ], [ 69.598021, -49.275783 ], [ 69.632069, -49.269714 ], [ 69.646263, -49.269033 ], [ 69.660574, -49.262895 ], [ 69.712024, -49.253218 ], [ 69.722404, -49.25588 ], [ 69.727922, -49.263261 ], [ 69.724365, -49.267965 ], [ 69.711563, -49.274231 ], [ 69.708208, -49.280538 ], [ 69.698746, -49.283216 ], [ 69.703303, -49.289442 ], [ 69.701404, -49.293453 ], [ 69.70375, -49.298732 ], [ 69.700677, -49.303336 ], [ 69.681324, -49.304035 ], [ 69.645762, -49.296098 ], [ 69.612276, -49.296904 ], [ 69.590351, -49.295219 ], [ 69.585013, -49.297555 ], [ 69.589573, -49.302608 ], [ 69.599894, -49.305397 ], [ 69.639707, -49.303104 ], [ 69.66202, -49.305815 ], [ 69.676499, -49.31174 ], [ 69.700531, -49.30971 ], [ 69.70774, -49.313091 ], [ 69.737873, -49.296733 ], [ 69.755385, -49.290109 ], [ 69.769452, -49.273867 ], [ 69.778759, -49.266914 ], [ 69.788496, -49.267157 ], [ 69.797184, -49.280141 ], [ 69.794067, -49.289457 ], [ 69.796131, -49.291548 ], [ 69.805025, -49.286437 ], [ 69.813325, -49.272743 ], [ 69.826238, -49.265226 ], [ 69.834798, -49.262817 ], [ 69.848457, -49.26438 ], [ 69.849974, -49.252802 ], [ 69.845986, -49.243188 ], [ 69.855158, -49.214554 ], [ 69.869027, -49.213846 ], [ 69.88942, -49.209768 ], [ 69.892986, -49.20502 ], [ 69.879927, -49.203525 ], [ 69.87761, -49.197975 ], [ 69.904688, -49.187856 ], [ 69.920304, -49.191909 ], [ 69.922125, -49.192381 ], [ 69.928067, -49.191998 ], [ 69.931435, -49.187271 ], [ 69.931125, -49.177243 ], [ 69.938858, -49.168506 ], [ 69.945437, -49.165356 ], [ 69.963876, -49.156528 ], [ 69.980432, -49.15482 ], [ 69.983484, -49.146163 ], [ 69.98968, -49.142116 ], [ 70.013089, -49.1396 ], [ 70.036582, -49.140872 ], [ 70.042959, -49.128122 ], [ 70.053253, -49.121135 ], [ 70.062822, -49.118693 ], [ 70.070996, -49.116607 ], [ 70.086383, -49.117336 ], [ 70.131409, -49.132753 ], [ 70.143427, -49.140839 ], [ 70.143372, -49.170214 ], [ 70.151512, -49.166368 ], [ 70.162564, -49.156194 ], [ 70.18214, -49.145564 ], [ 70.18539, -49.147428 ], [ 70.185535, -49.154628 ], [ 70.193431, -49.162288 ], [ 70.220021, -49.153412 ], [ 70.225905, -49.148039 ], [ 70.233585, -49.134066 ], [ 70.232592, -49.109031 ], [ 70.2324, -49.105392 ], [ 70.247089, -49.083883 ], [ 70.259802, -49.077434 ], [ 70.272328, -49.075972 ], [ 70.286397, -49.063519 ], [ 70.314185, -49.053661 ], [ 70.368861, -49.05709 ], [ 70.39272, -49.056613 ], [ 70.418101, -49.063502 ], [ 70.435548, -49.070972 ], [ 70.441785, -49.070758 ], [ 70.455751, -49.070278 ], [ 70.48093, -49.081541 ], [ 70.505654, -49.089411 ], [ 70.517654, -49.096458 ], [ 70.52192, -49.101961 ], [ 70.522586, -49.109031 ], [ 70.510713, -49.135272 ], [ 70.512259, -49.150443 ], [ 70.528856, -49.176839 ], [ 70.549814, -49.194308 ], [ 70.555183, -49.218641 ], [ 70.549042, -49.229337 ], [ 70.553946, -49.245236 ], [ 70.538306, -49.278047 ], [ 70.531731, -49.303364 ], [ 70.522459, -49.313483 ], [ 70.518239, -49.318089 ], [ 70.500217, -49.328225 ], [ 70.494735, -49.338033 ], [ 70.481914, -49.351642 ], [ 70.466061, -49.358335 ], [ 70.458834, -49.365418 ], [ 70.447701, -49.371827 ], [ 70.441785, -49.379406 ], [ 70.429216, -49.382156 ], [ 70.422646, -49.381063 ], [ 70.412821, -49.367398 ], [ 70.403582, -49.362588 ], [ 70.389337, -49.360317 ], [ 70.37822, -49.350182 ], [ 70.360922, -49.351254 ], [ 70.346, -49.345933 ], [ 70.320499, -49.351332 ], [ 70.320249, -49.36455 ], [ 70.329921, -49.379207 ], [ 70.313767, -49.381547 ], [ 70.306704, -49.386657 ], [ 70.322568, -49.40987 ], [ 70.330769, -49.410951 ], [ 70.34412, -49.408157 ], [ 70.368087, -49.412906 ], [ 70.391744, -49.415051 ], [ 70.43092, -49.427597 ], [ 70.438651, -49.434276 ], [ 70.433958, -49.441125 ], [ 70.373379, -49.449978 ], [ 70.347855, -49.447871 ], [ 70.30385, -49.437725 ], [ 70.275545, -49.43396 ], [ 70.272288, -49.430181 ], [ 70.279128, -49.421955 ], [ 70.277806, -49.411224 ], [ 70.251632, -49.386141 ], [ 70.247503, -49.37062 ], [ 70.228137, -49.359721 ], [ 70.221358, -49.353025 ], [ 70.191032, -49.352039 ], [ 70.165288, -49.345897 ], [ 70.129419, -49.346715 ], [ 70.109963, -49.345055 ], [ 70.084568, -49.351471 ], [ 70.078335, -49.365912 ], [ 70.068868, -49.364936 ], [ 70.054976, -49.368229 ], [ 70.035311, -49.368294 ], [ 70.02036, -49.371839 ], [ 70.004543, -49.367407 ], [ 69.986185, -49.373132 ], [ 69.955739, -49.366286 ], [ 69.924077, -49.355288 ], [ 69.920304, -49.354971 ], [ 69.893127, -49.35252 ], [ 69.861675, -49.341918 ], [ 69.859672, -49.344264 ], [ 69.870237, -49.353359 ], [ 69.85297, -49.359177 ], [ 69.831033, -49.349233 ], [ 69.820011, -49.341102 ], [ 69.813225, -49.340465 ], [ 69.815018, -49.346056 ], [ 69.862734, -49.374068 ], [ 69.868063, -49.381083 ], [ 69.893319, -49.384642 ], [ 69.90454, -49.389075 ], [ 69.91469, -49.397075 ], [ 69.90618, -49.403169 ], [ 69.88165, -49.406614 ], [ 69.885192, -49.416469 ], [ 69.907651, -49.42913 ], [ 69.914191, -49.441516 ], [ 69.911416, -49.447259 ], [ 69.905877, -49.449199 ], [ 69.892372, -49.439275 ], [ 69.885683, -49.437795 ], [ 69.884917, -49.441909 ], [ 69.891665, -49.451773 ], [ 69.890782, -49.455142 ], [ 69.855483, -49.430773 ], [ 69.844967, -49.419089 ], [ 69.8151, -49.403809 ], [ 69.80882, -49.404784 ], [ 69.810833, -49.416319 ], [ 69.801307, -49.421062 ], [ 69.778148, -49.410329 ], [ 69.761942, -49.397919 ], [ 69.757616, -49.397641 ], [ 69.76277, -49.407354 ], [ 69.791085, -49.424288 ], [ 69.789288, -49.426286 ], [ 69.781088, -49.427594 ], [ 69.780083, -49.43014 ], [ 69.805233, -49.455063 ], [ 69.815096, -49.477077 ], [ 69.812147, -49.482445 ], [ 69.806853, -49.479165 ], [ 69.797176, -49.462024 ], [ 69.789561, -49.455087 ], [ 69.780434, -49.451112 ], [ 69.770854, -49.45345 ], [ 69.764441, -49.452237 ], [ 69.752891, -49.437876 ], [ 69.737786, -49.427415 ], [ 69.733051, -49.426613 ], [ 69.726279, -49.42983 ], [ 69.720666, -49.429574 ], [ 69.70518, -49.42171 ], [ 69.688026, -49.408821 ], [ 69.67363, -49.405116 ], [ 69.655895, -49.403881 ], [ 69.635153, -49.393489 ], [ 69.628982, -49.393397 ], [ 69.648784, -49.407898 ], [ 69.68079, -49.413458 ], [ 69.712594, -49.432267 ], [ 69.731218, -49.436267 ], [ 69.74663, -49.443482 ], [ 69.752153, -49.457487 ], [ 69.741726, -49.465006 ], [ 69.77988, -49.478599 ], [ 69.781333, -49.48232 ], [ 69.775162, -49.489051 ], [ 69.79517, -49.503683 ], [ 69.793769, -49.511504 ], [ 69.783992, -49.51794 ], [ 69.792805, -49.525031 ], [ 69.792691, -49.531818 ], [ 69.800496, -49.541695 ], [ 69.799084, -49.548164 ], [ 69.842303, -49.558481 ], [ 69.872137, -49.562372 ], [ 69.896444, -49.568934 ], [ 69.920304, -49.579992 ], [ 69.92405, -49.581747 ], [ 69.945525, -49.595484 ], [ 70.009652, -49.593234 ], [ 70.026773, -49.600935 ], [ 70.055746, -49.608196 ], [ 70.100697, -49.632606 ], [ 70.113306, -49.636946 ], [ 70.127512, -49.635584 ], [ 70.128791, -49.630654 ], [ 70.110961, -49.623257 ], [ 70.065018, -49.596039 ], [ 70.036628, -49.58786 ], [ 70.025189, -49.581762 ], [ 70.008659, -49.552697 ], [ 70.013024, -49.542359 ], [ 70.024868, -49.537884 ], [ 70.045224, -49.534823 ], [ 70.091128, -49.522462 ], [ 70.114055, -49.513347 ], [ 70.133167, -49.510539 ], [ 70.165106, -49.515543 ], [ 70.191369, -49.526982 ], [ 70.212537, -49.528414 ], [ 70.22592, -49.534662 ], [ 70.254298, -49.535327 ], [ 70.268905, -49.54262 ], [ 70.299202, -49.552725 ], [ 70.312599, -49.563074 ], [ 70.316558, -49.573858 ], [ 70.310683, -49.595188 ], [ 70.294362, -49.605459 ], [ 70.285983, -49.625296 ], [ 70.264635, -49.629456 ], [ 70.232719, -49.620842 ], [ 70.190477, -49.618139 ], [ 70.167852, -49.621525 ], [ 70.149146, -49.627599 ], [ 70.141148, -49.633662 ], [ 70.14149, -49.635955 ], [ 70.145307, -49.636985 ], [ 70.176962, -49.631353 ], [ 70.19301, -49.631537 ], [ 70.228768, -49.646144 ], [ 70.247453, -49.666854 ], [ 70.248787, -49.674814 ], [ 70.24035, -49.689564 ], [ 70.224869, -49.69582 ], [ 70.215121, -49.688784 ], [ 70.208693, -49.687142 ], [ 70.17713, -49.691704 ], [ 70.159189, -49.699265 ], [ 70.141921, -49.693692 ], [ 70.126527, -49.691697 ], [ 70.123813, -49.695304 ], [ 70.127539, -49.705227 ], [ 70.121185, -49.714722 ], [ 70.10507, -49.724465 ], [ 70.080694, -49.731558 ], [ 70.074597, -49.730485 ], [ 70.062082, -49.721778 ], [ 70.041808, -49.714364 ], [ 70.010694, -49.716818 ], [ 70.00193, -49.715907 ], [ 69.973962, -49.70038 ], [ 69.944703, -49.694997 ], [ 69.933248, -49.690521 ], [ 69.920304, -49.694969 ] ] ], [ [ [ 69.192349, -48.994943 ], [ 69.202339, -48.982576 ], [ 69.225634, -48.963659 ], [ 69.231772, -48.961744 ], [ 69.239792, -48.964006 ], [ 69.240757, -48.955598 ], [ 69.256959, -48.945997 ], [ 69.271741, -48.927229 ], [ 69.296895, -48.919752 ], [ 69.302278, -48.908477 ], [ 69.312618, -48.913578 ], [ 69.313615, -48.905332 ], [ 69.324871, -48.894736 ], [ 69.348984, -48.88513 ], [ 69.363128, -48.888916 ], [ 69.371026, -48.896659 ], [ 69.373659, -48.907792 ], [ 69.366671, -48.914144 ], [ 69.372863, -48.91664 ], [ 69.373595, -48.922128 ], [ 69.36154, -48.928124 ], [ 69.347121, -48.929604 ], [ 69.311051, -48.948436 ], [ 69.304603, -48.952979 ], [ 69.299929, -48.961569 ], [ 69.303348, -48.961826 ], [ 69.331323, -48.944531 ], [ 69.354728, -48.941924 ], [ 69.372302, -48.9347 ], [ 69.404295, -48.930677 ], [ 69.412596, -48.939695 ], [ 69.405781, -48.957581 ], [ 69.379174, -48.976943 ], [ 69.369881, -48.989042 ], [ 69.362766, -48.989179 ], [ 69.353989, -48.995361 ], [ 69.353655, -48.998503 ], [ 69.357636, -49.000996 ], [ 69.356147, -49.003503 ], [ 69.347647, -49.008234 ], [ 69.317215, -49.013506 ], [ 69.32168, -49.018562 ], [ 69.33947, -49.023042 ], [ 69.339944, -49.029371 ], [ 69.33657, -49.033368 ], [ 69.335668, -49.034437 ], [ 69.327014, -49.038119 ], [ 69.325956, -49.044446 ], [ 69.330198, -49.04478 ], [ 69.334367, -49.042272 ], [ 69.334535, -49.039622 ], [ 69.33657, -49.03919 ], [ 69.338454, -49.03879 ], [ 69.33953, -49.044999 ], [ 69.343691, -49.048868 ], [ 69.33657, -49.052799 ], [ 69.324553, -49.059431 ], [ 69.311205, -49.062778 ], [ 69.279169, -49.069936 ], [ 69.279403, -49.072408 ], [ 69.282403, -49.071723 ], [ 69.32018, -49.064924 ], [ 69.321912, -49.069442 ], [ 69.330751, -49.070398 ], [ 69.32927, -49.075338 ], [ 69.334538, -49.078735 ], [ 69.33657, -49.078857 ], [ 69.347886, -49.079535 ], [ 69.342061, -49.083618 ], [ 69.33657, -49.084687 ], [ 69.318106, -49.088282 ], [ 69.3118, -49.093138 ], [ 69.282403, -49.096916 ], [ 69.269036, -49.095828 ], [ 69.252333, -49.098476 ], [ 69.243258, -49.098014 ], [ 69.226573, -49.103735 ], [ 69.221647, -49.109031 ], [ 69.214529, -49.116682 ], [ 69.210591, -49.116953 ], [ 69.205806, -49.11426 ], [ 69.202278, -49.109031 ], [ 69.200143, -49.105865 ], [ 69.1999, -49.099675 ], [ 69.204947, -49.09198 ], [ 69.204784, -49.083547 ], [ 69.215045, -49.071445 ], [ 69.214865, -49.061765 ], [ 69.212067, -49.052926 ], [ 69.201166, -49.03966 ], [ 69.198337, -49.030096 ], [ 69.198932, -49.023042 ], [ 69.192349, -48.994943 ] ] ], [ [ [ 51.642275, -46.391785 ], [ 51.647118, -46.385207 ], [ 51.660363, -46.381339 ], [ 51.669359, -46.37422 ], [ 51.686831, -46.368255 ], [ 51.704943, -46.357411 ], [ 51.718734, -46.359167 ], [ 51.723402, -46.35304 ], [ 51.730356, -46.351905 ], [ 51.734416, -46.342049 ], [ 51.740622, -46.344465 ], [ 51.751806, -46.344258 ], [ 51.765845, -46.347459 ], [ 51.768929, -46.35145 ], [ 51.767836, -46.355321 ], [ 51.773587, -46.357431 ], [ 51.781639, -46.352074 ], [ 51.788607, -46.352284 ], [ 51.789147, -46.357798 ], [ 51.783645, -46.368255 ], [ 51.79188, -46.374223 ], [ 51.804333, -46.37536 ], [ 51.801477, -46.386129 ], [ 51.8039, -46.388987 ], [ 51.818555, -46.390711 ], [ 51.822247, -46.395791 ], [ 51.829856, -46.39916 ], [ 51.839575, -46.394757 ], [ 51.845555, -46.39442 ], [ 51.852345, -46.399819 ], [ 51.855973, -46.406491 ], [ 51.863808, -46.408406 ], [ 51.874539, -46.415894 ], [ 51.867268, -46.424977 ], [ 51.862146, -46.42648 ], [ 51.869583, -46.43112 ], [ 51.870296, -46.43542 ], [ 51.852798, -46.443815 ], [ 51.853529, -46.449016 ], [ 51.845045, -46.451744 ], [ 51.830957, -46.463861 ], [ 51.813503, -46.46623 ], [ 51.807773, -46.47188 ], [ 51.791818, -46.463741 ], [ 51.779128, -46.463838 ], [ 51.770167, -46.46167 ], [ 51.766801, -46.463057 ], [ 51.751477, -46.459357 ], [ 51.727207, -46.467872 ], [ 51.723176, -46.454579 ], [ 51.712409, -46.45093 ], [ 51.70168, -46.450568 ], [ 51.701348, -46.440679 ], [ 51.696967, -46.439281 ], [ 51.689451, -46.44117 ], [ 51.683221, -46.43774 ], [ 51.673791, -46.429081 ], [ 51.66827, -46.417988 ], [ 51.652709, -46.407263 ], [ 51.655605, -46.39845 ], [ 51.642275, -46.391785 ] ] ], [ [ [ 52.091001, -46.41973 ], [ 52.092392, -46.411285 ], [ 52.094599, -46.408248 ], [ 52.100658, -46.405392 ], [ 52.105727, -46.406356 ], [ 52.11173, -46.405503 ], [ 52.119476, -46.400754 ], [ 52.125104, -46.399131 ], [ 52.129075, -46.399264 ], [ 52.1409, -46.396214 ], [ 52.144865, -46.395856 ], [ 52.151029, -46.392792 ], [ 52.153581, -46.39295 ], [ 52.157128, -46.396097 ], [ 52.164631, -46.394826 ], [ 52.170014, -46.390608 ], [ 52.176212, -46.387085 ], [ 52.178535, -46.387797 ], [ 52.184478, -46.383768 ], [ 52.189472, -46.381617 ], [ 52.194504, -46.383454 ], [ 52.198764, -46.38222 ], [ 52.205628, -46.383171 ], [ 52.210952, -46.381964 ], [ 52.216641, -46.382246 ], [ 52.21799, -46.384941 ], [ 52.218025, -46.390155 ], [ 52.220384, -46.391451 ], [ 52.228047, -46.393206 ], [ 52.233365, -46.393031 ], [ 52.242887, -46.389354 ], [ 52.252211, -46.388762 ], [ 52.262924, -46.390149 ], [ 52.269076, -46.391823 ], [ 52.272173, -46.39343 ], [ 52.276786, -46.398304 ], [ 52.281688, -46.401461 ], [ 52.287162, -46.403674 ], [ 52.292053, -46.406696 ], [ 52.296227, -46.410528 ], [ 52.300565, -46.411793 ], [ 52.303831, -46.411406 ], [ 52.310019, -46.413928 ], [ 52.312654, -46.418185 ], [ 52.317614, -46.419803 ], [ 52.31951, -46.424499 ], [ 52.31627, -46.427139 ], [ 52.316301, -46.434041 ], [ 52.318935, -46.439108 ], [ 52.324129, -46.441827 ], [ 52.324402, -46.443397 ], [ 52.318233, -46.447687 ], [ 52.313916, -46.452339 ], [ 52.308124, -46.455092 ], [ 52.306547, -46.459685 ], [ 52.304471, -46.461983 ], [ 52.294305, -46.464108 ], [ 52.289915, -46.463163 ], [ 52.285296, -46.465744 ], [ 52.284317, -46.467409 ], [ 52.278245, -46.469155 ], [ 52.260325, -46.475351 ], [ 52.253195, -46.473472 ], [ 52.248424, -46.471113 ], [ 52.244602, -46.470619 ], [ 52.239908, -46.468165 ], [ 52.234582, -46.466867 ], [ 52.231069, -46.465138 ], [ 52.225325, -46.464624 ], [ 52.217922, -46.465621 ], [ 52.215672, -46.467013 ], [ 52.212346, -46.471717 ], [ 52.209071, -46.474942 ], [ 52.204344, -46.475236 ], [ 52.198181, -46.476738 ], [ 52.194399, -46.475643 ], [ 52.194096, -46.474138 ], [ 52.190623, -46.472958 ], [ 52.182628, -46.472122 ], [ 52.179688, -46.469544 ], [ 52.177344, -46.469827 ], [ 52.176087, -46.465946 ], [ 52.173731, -46.465648 ], [ 52.169, -46.462933 ], [ 52.162098, -46.461675 ], [ 52.160983, -46.459357 ], [ 52.158142, -46.458558 ], [ 52.156068, -46.456109 ], [ 52.152456, -46.455401 ], [ 52.149349, -46.453488 ], [ 52.140008, -46.45265 ], [ 52.141657, -46.449526 ], [ 52.136631, -46.450512 ], [ 52.130597, -46.447017 ], [ 52.123549, -46.448929 ], [ 52.122645, -46.446797 ], [ 52.118736, -46.448339 ], [ 52.118348, -46.450421 ], [ 52.115699, -46.450286 ], [ 52.117166, -46.445562 ], [ 52.114449, -46.441499 ], [ 52.109846, -46.437933 ], [ 52.102433, -46.433545 ], [ 52.098849, -46.429577 ], [ 52.093547, -46.425258 ], [ 52.091001, -46.41973 ] ] ], [ [ [ 50.165623, -46.088956 ], [ 50.172581, -46.080815 ], [ 50.174668, -46.075661 ], [ 50.184753, -46.070387 ], [ 50.19329, -46.063674 ], [ 50.198841, -46.063258 ], [ 50.202576, -46.063828 ], [ 50.206124, -46.062016 ], [ 50.215001, -46.061125 ], [ 50.218666, -46.062819 ], [ 50.22346, -46.062981 ], [ 50.225702, -46.060942 ], [ 50.227522, -46.062752 ], [ 50.23156, -46.064191 ], [ 50.235622, -46.063962 ], [ 50.238298, -46.061043 ], [ 50.248207, -46.060963 ], [ 50.253018, -46.059839 ], [ 50.254149, -46.058049 ], [ 50.264458, -46.059657 ], [ 50.267416, -46.059162 ], [ 50.269219, -46.062255 ], [ 50.272693, -46.064589 ], [ 50.274585, -46.075131 ], [ 50.287067, -46.080218 ], [ 50.292376, -46.083461 ], [ 50.294907, -46.087586 ], [ 50.293679, -46.097082 ], [ 50.295116, -46.100172 ], [ 50.295067, -46.104025 ], [ 50.297843, -46.113669 ], [ 50.2934, -46.117468 ], [ 50.28866, -46.124603 ], [ 50.286809, -46.130146 ], [ 50.279359, -46.13359 ], [ 50.272353, -46.132647 ], [ 50.267855, -46.137498 ], [ 50.26594, -46.142623 ], [ 50.255937, -46.144612 ], [ 50.253022, -46.145724 ], [ 50.252824, -46.142538 ], [ 50.249744, -46.138151 ], [ 50.246426, -46.137616 ], [ 50.242961, -46.134254 ], [ 50.237277, -46.131262 ], [ 50.234688, -46.131502 ], [ 50.228796, -46.130178 ], [ 50.221764, -46.131158 ], [ 50.217735, -46.128691 ], [ 50.212946, -46.127759 ], [ 50.212224, -46.126598 ], [ 50.206703, -46.125276 ], [ 50.200038, -46.126385 ], [ 50.198217, -46.124574 ], [ 50.195441, -46.12494 ], [ 50.1942, -46.121464 ], [ 50.189938, -46.12088 ], [ 50.188895, -46.11796 ], [ 50.185798, -46.115113 ], [ 50.178817, -46.112751 ], [ 50.175766, -46.106822 ], [ 50.168405, -46.104063 ], [ 50.169147, -46.101231 ], [ 50.165796, -46.094736 ], [ 50.165623, -46.088956 ] ] ], [ [ [ 69.139305, -48.978978 ], [ 69.150633, -48.956659 ], [ 69.147891, -48.946739 ], [ 69.149779, -48.936268 ], [ 69.142613, -48.926125 ], [ 69.15425, -48.920883 ], [ 69.161132, -48.909318 ], [ 69.165638, -48.894054 ], [ 69.178153, -48.878317 ], [ 69.19184, -48.8645 ], [ 69.19714, -48.855053 ], [ 69.216341, -48.848935 ], [ 69.217528, -48.849743 ], [ 69.214119, -48.854012 ], [ 69.20314, -48.859249 ], [ 69.202837, -48.866684 ], [ 69.209785, -48.871326 ], [ 69.207666, -48.878317 ], [ 69.209122, -48.886384 ], [ 69.217088, -48.893744 ], [ 69.220761, -48.893008 ], [ 69.232315, -48.881217 ], [ 69.23808, -48.880591 ], [ 69.242662, -48.883743 ], [ 69.234035, -48.892563 ], [ 69.227749, -48.895352 ], [ 69.223416, -48.906233 ], [ 69.219873, -48.908253 ], [ 69.215679, -48.905626 ], [ 69.210411, -48.906589 ], [ 69.202503, -48.915789 ], [ 69.205859, -48.917484 ], [ 69.213858, -48.914681 ], [ 69.218049, -48.915692 ], [ 69.2208, -48.920708 ], [ 69.218992, -48.931883 ], [ 69.216411, -48.933968 ], [ 69.207612, -48.932542 ], [ 69.204736, -48.933683 ], [ 69.209754, -48.946573 ], [ 69.195591, -48.95467 ], [ 69.178305, -48.973768 ], [ 69.16326, -48.981442 ], [ 69.151991, -48.98344 ], [ 69.142711, -48.982541 ], [ 69.139305, -48.978978 ] ] ], [ [ [ 69.511023, -49.198778 ], [ 69.523649, -49.18689 ], [ 69.52638, -49.186118 ], [ 69.566618, -49.174744 ], [ 69.583881, -49.165911 ], [ 69.586036, -49.165356 ], [ 69.598773, -49.161818 ], [ 69.601234, -49.156762 ], [ 69.609204, -49.152785 ], [ 69.643134, -49.1454 ], [ 69.654855, -49.146717 ], [ 69.66472, -49.150275 ], [ 69.649403, -49.157184 ], [ 69.639447, -49.158854 ], [ 69.640646, -49.161992 ], [ 69.649955, -49.165356 ], [ 69.645959, -49.170148 ], [ 69.64577, -49.175054 ], [ 69.636285, -49.178741 ], [ 69.647089, -49.182669 ], [ 69.643952, -49.187563 ], [ 69.656054, -49.193294 ], [ 69.65819, -49.198852 ], [ 69.65218, -49.201354 ], [ 69.643493, -49.201052 ], [ 69.638912, -49.207144 ], [ 69.621153, -49.20905 ], [ 69.622456, -49.212097 ], [ 69.6203, -49.21326 ], [ 69.576934, -49.212807 ], [ 69.52638, -49.201609 ], [ 69.513837, -49.200423 ], [ 69.511023, -49.198778 ] ] ], [ [ [ 77.512807, -37.836537 ], [ 77.51694, -37.82766 ], [ 77.517257, -37.825733 ], [ 77.521423, -37.817745 ], [ 77.528029, -37.808853 ], [ 77.529132, -37.800389 ], [ 77.537003, -37.798256 ], [ 77.543078, -37.798071 ], [ 77.553281, -37.794888 ], [ 77.558884, -37.792505 ], [ 77.575844, -37.795859 ], [ 77.583373, -37.804502 ], [ 77.585967, -37.809546 ], [ 77.589611, -37.814286 ], [ 77.589494, -37.815699 ], [ 77.592678, -37.823277 ], [ 77.593012, -37.827396 ], [ 77.595356, -37.837012 ], [ 77.595891, -37.843842 ], [ 77.597044, -37.848395 ], [ 77.596944, -37.853535 ], [ 77.595389, -37.857296 ], [ 77.591621, -37.861241 ], [ 77.58649, -37.864342 ], [ 77.57093, -37.876216 ], [ 77.56295, -37.879758 ], [ 77.558655, -37.880536 ], [ 77.550816, -37.879362 ], [ 77.545122, -37.877542 ], [ 77.543534, -37.875655 ], [ 77.538119, -37.874032 ], [ 77.536138, -37.872377 ], [ 77.536138, -37.867858 ], [ 77.532328, -37.863504 ], [ 77.522685, -37.857586 ], [ 77.516518, -37.849068 ], [ 77.51488, -37.84043 ], [ 77.512807, -37.836537 ] ] ], [ [ [ 69.920304, -49.549464 ], [ 69.907107, -49.54857 ], [ 69.897606, -49.545139 ], [ 69.889112, -49.538485 ], [ 69.873849, -49.537051 ], [ 69.863046, -49.535195 ], [ 69.843741, -49.52754 ], [ 69.836478, -49.519411 ], [ 69.827292, -49.517962 ], [ 69.825593, -49.509614 ], [ 69.817327, -49.499913 ], [ 69.818383, -49.494352 ], [ 69.823504, -49.496439 ], [ 69.835965, -49.497052 ], [ 69.841146, -49.500556 ], [ 69.843132, -49.507613 ], [ 69.873849, -49.512067 ], [ 69.898216, -49.512661 ], [ 69.899304, -49.51625 ], [ 69.914999, -49.517582 ], [ 69.920304, -49.521985 ], [ 69.927824, -49.528226 ], [ 69.929993, -49.535192 ], [ 69.933796, -49.537906 ], [ 69.965507, -49.545097 ], [ 69.992225, -49.565887 ], [ 69.997302, -49.570076 ], [ 70.000771, -49.580196 ], [ 69.998787, -49.583133 ], [ 69.992225, -49.584796 ], [ 69.979207, -49.584036 ], [ 69.968509, -49.58024 ], [ 69.958042, -49.565151 ], [ 69.933796, -49.552272 ], [ 69.928541, -49.550023 ], [ 69.920304, -49.549464 ] ] ], [ [ [ 69.49021, -48.874132 ], [ 69.483989, -48.877408 ], [ 69.477679, -48.88073 ], [ 69.464114, -48.890644 ], [ 69.455781, -48.89435 ], [ 69.451315, -48.894063 ], [ 69.446328, -48.892738 ], [ 69.44603, -48.886392 ], [ 69.438595, -48.887692 ], [ 69.420824, -48.870402 ], [ 69.404796, -48.86103 ], [ 69.396112, -48.848971 ], [ 69.39488, -48.840387 ], [ 69.396716, -48.835104 ], [ 69.402419, -48.831246 ], [ 69.436414, -48.823734 ], [ 69.441339, -48.823591 ], [ 69.451315, -48.827852 ], [ 69.452671, -48.828771 ], [ 69.451315, -48.837584 ], [ 69.444046, -48.847017 ], [ 69.445745, -48.848879 ], [ 69.451315, -48.84783 ], [ 69.473157, -48.848193 ], [ 69.474949, -48.857375 ], [ 69.483989, -48.85572 ], [ 69.49021, -48.854582 ], [ 69.492829, -48.854102 ], [ 69.501613, -48.859188 ], [ 69.498035, -48.870012 ], [ 69.49021, -48.874132 ] ] ], [ [ [ 68.645097, -49.34718 ], [ 68.653128, -49.339684 ], [ 68.667691, -49.338011 ], [ 68.667991, -49.33693 ], [ 68.65717, -49.332782 ], [ 68.658442, -49.327018 ], [ 68.667462, -49.324757 ], [ 68.682151, -49.329499 ], [ 68.70238, -49.332652 ], [ 68.718411, -49.343311 ], [ 68.728128, -49.346563 ], [ 68.735835, -49.34149 ], [ 68.745414, -49.33965 ], [ 68.747969, -49.340839 ], [ 68.746215, -49.344234 ], [ 68.748704, -49.344862 ], [ 68.755716, -49.339616 ], [ 68.786163, -49.331804 ], [ 68.79363, -49.337955 ], [ 68.786601, -49.345103 ], [ 68.792696, -49.346495 ], [ 68.793988, -49.350158 ], [ 68.800183, -49.356126 ], [ 68.798705, -49.359893 ], [ 68.791152, -49.363342 ], [ 68.781505, -49.36257 ], [ 68.776922, -49.370507 ], [ 68.768988, -49.373989 ], [ 68.757141, -49.37196 ], [ 68.751194, -49.36654 ], [ 68.761574, -49.362227 ], [ 68.76067, -49.359135 ], [ 68.741904, -49.363924 ], [ 68.736328, -49.363223 ], [ 68.729862, -49.359504 ], [ 68.718359, -49.360969 ], [ 68.708394, -49.359171 ], [ 68.691456, -49.362371 ], [ 68.669128, -49.357418 ], [ 68.650862, -49.356509 ], [ 68.645097, -49.34718 ] ] ], [ [ [ 69.802706, -49.42846 ], [ 69.805854, -49.426748 ], [ 69.815951, -49.426866 ], [ 69.823138, -49.426463 ], [ 69.817589, -49.41928 ], [ 69.823858, -49.416802 ], [ 69.829321, -49.416822 ], [ 69.831245, -49.420061 ], [ 69.841198, -49.422849 ], [ 69.83639, -49.425303 ], [ 69.845715, -49.42986 ], [ 69.846913, -49.434482 ], [ 69.856805, -49.438275 ], [ 69.855953, -49.445224 ], [ 69.865054, -49.449729 ], [ 69.861036, -49.453372 ], [ 69.847489, -49.451033 ], [ 69.842811, -49.453608 ], [ 69.843599, -49.456143 ], [ 69.851774, -49.46088 ], [ 69.864518, -49.458448 ], [ 69.873849, -49.459041 ], [ 69.882362, -49.464116 ], [ 69.894561, -49.466952 ], [ 69.894451, -49.470359 ], [ 69.900712, -49.472292 ], [ 69.901475, -49.475727 ], [ 69.893966, -49.481924 ], [ 69.901192, -49.48836 ], [ 69.895059, -49.492141 ], [ 69.873849, -49.483451 ], [ 69.872309, -49.483019 ], [ 69.872124, -49.479539 ], [ 69.873849, -49.479289 ], [ 69.873849, -49.477825 ], [ 69.869279, -49.477223 ], [ 69.862454, -49.472918 ], [ 69.844693, -49.467972 ], [ 69.834438, -49.468414 ], [ 69.835419, -49.472918 ], [ 69.832886, -49.472918 ], [ 69.828078, -49.467947 ], [ 69.831355, -49.463646 ], [ 69.822089, -49.455568 ], [ 69.819903, -49.445013 ], [ 69.815951, -49.440679 ], [ 69.80483, -49.435064 ], [ 69.802706, -49.42846 ] ] ], [ [ [ 68.599964, -48.638067 ], [ 68.603257, -48.632501 ], [ 68.620502, -48.632349 ], [ 68.623869, -48.624492 ], [ 68.633679, -48.630467 ], [ 68.645566, -48.629644 ], [ 68.649303, -48.624833 ], [ 68.669721, -48.625869 ], [ 68.675006, -48.628704 ], [ 68.666478, -48.636522 ], [ 68.668832, -48.638067 ], [ 68.660784, -48.641068 ], [ 68.657965, -48.646178 ], [ 68.640481, -48.652237 ], [ 68.626526, -48.644813 ], [ 68.60763, -48.647196 ], [ 68.606641, -48.641878 ], [ 68.599964, -48.638067 ] ] ], [ [ [ 69.745962, -49.657345 ], [ 69.758118, -49.641943 ], [ 69.766749, -49.638574 ], [ 69.795285, -49.659928 ], [ 69.795285, -49.664665 ], [ 69.792907, -49.67361 ], [ 69.787081, -49.677438 ], [ 69.766749, -49.666863 ], [ 69.757701, -49.665144 ], [ 69.745962, -49.657345 ] ] ], [ [ [ 68.762275, -48.60812 ], [ 68.762869, -48.6053 ], [ 68.766325, -48.602283 ], [ 68.767353, -48.598948 ], [ 68.772563, -48.599421 ], [ 68.776045, -48.598915 ], [ 68.777032, -48.594045 ], [ 68.77414, -48.5925 ], [ 68.773264, -48.589472 ], [ 68.777873, -48.588688 ], [ 68.778998, -48.585609 ], [ 68.781197, -48.587274 ], [ 68.785377, -48.588018 ], [ 68.787361, -48.584047 ], [ 68.782805, -48.580502 ], [ 68.782835, -48.573347 ], [ 68.784856, -48.571543 ], [ 68.788127, -48.571222 ], [ 68.794029, -48.573786 ], [ 68.799183, -48.572904 ], [ 68.80062, -48.575456 ], [ 68.799604, -48.577521 ], [ 68.805472, -48.58265 ], [ 68.81039, -48.58077 ], [ 68.811971, -48.584157 ], [ 68.806582, -48.583901 ], [ 68.807406, -48.587432 ], [ 68.810109, -48.588206 ], [ 68.810692, -48.594291 ], [ 68.809, -48.595782 ], [ 68.809683, -48.598719 ], [ 68.805817, -48.598584 ], [ 68.80117, -48.6005 ], [ 68.800193, -48.602806 ], [ 68.796908, -48.602801 ], [ 68.795345, -48.606772 ], [ 68.791862, -48.607408 ], [ 68.790308, -48.609071 ], [ 68.787213, -48.609451 ], [ 68.783718, -48.612778 ], [ 68.77985, -48.612898 ], [ 68.778704, -48.609691 ], [ 68.772137, -48.60814 ], [ 68.769439, -48.606083 ], [ 68.763239, -48.609019 ], [ 68.762275, -48.60812 ] ] ], [ [ [ 69.401917, -48.895072 ], [ 69.404636, -48.894806 ], [ 69.405911, -48.88429 ], [ 69.405321, -48.883267 ], [ 69.41114, -48.881835 ], [ 69.419319, -48.883729 ], [ 69.421301, -48.888337 ], [ 69.425575, -48.888065 ], [ 69.425984, -48.89037 ], [ 69.430256, -48.889842 ], [ 69.432617, -48.893166 ], [ 69.437954, -48.894151 ], [ 69.437332, -48.898788 ], [ 69.445495, -48.898501 ], [ 69.445934, -48.904139 ], [ 69.44852, -48.907352 ], [ 69.448895, -48.909693 ], [ 69.444913, -48.911232 ], [ 69.442518, -48.913638 ], [ 69.439987, -48.913648 ], [ 69.441001, -48.918002 ], [ 69.434772, -48.917513 ], [ 69.42753, -48.912156 ], [ 69.428127, -48.909542 ], [ 69.4242, -48.909349 ], [ 69.417967, -48.906098 ], [ 69.41651, -48.906598 ], [ 69.416815, -48.909888 ], [ 69.414099, -48.910667 ], [ 69.414898, -48.913228 ], [ 69.413149, -48.913491 ], [ 69.415509, -48.916558 ], [ 69.410657, -48.917729 ], [ 69.408118, -48.916585 ], [ 69.402783, -48.906092 ], [ 69.404322, -48.904036 ], [ 69.401917, -48.895072 ] ] ], [ [ [ 69.920304, -49.388771 ], [ 69.897904, -49.377231 ], [ 69.885968, -49.376153 ], [ 69.872499, -49.37003 ], [ 69.882204, -49.365722 ], [ 69.920304, -49.367796 ], [ 69.929305, -49.369994 ], [ 69.931786, -49.37162 ], [ 69.940173, -49.377117 ], [ 69.949173, -49.37945 ], [ 69.951246, -49.382247 ], [ 69.947462, -49.385793 ], [ 69.932614, -49.388156 ], [ 69.92628, -49.391871 ], [ 69.920304, -49.388771 ] ] ], [ [ [ 77.504437, -38.71321 ], [ 77.505367, -38.705633 ], [ 77.506769, -38.703213 ], [ 77.51003, -38.702289 ], [ 77.51292, -38.703528 ], [ 77.519393, -38.703721 ], [ 77.52449, -38.707854 ], [ 77.527392, -38.708642 ], [ 77.532129, -38.712915 ], [ 77.532175, -38.714383 ], [ 77.525681, -38.7153 ], [ 77.522766, -38.717245 ], [ 77.521973, -38.720854 ], [ 77.523548, -38.722992 ], [ 77.527702, -38.724995 ], [ 77.532811, -38.725092 ], [ 77.536062, -38.719971 ], [ 77.538888, -38.721207 ], [ 77.543167, -38.726446 ], [ 77.546068, -38.727414 ], [ 77.548102, -38.735366 ], [ 77.543526, -38.734727 ], [ 77.53833, -38.736411 ], [ 77.536792, -38.738756 ], [ 77.533655, -38.737364 ], [ 77.526598, -38.73763 ], [ 77.524614, -38.736188 ], [ 77.516466, -38.735153 ], [ 77.511692, -38.73614 ], [ 77.510166, -38.734786 ], [ 77.510811, -38.72931 ], [ 77.509732, -38.728101 ], [ 77.508951, -38.721739 ], [ 77.504933, -38.716723 ], [ 77.504437, -38.71321 ] ] ], [ [ [ 69.49021, -48.69993 ], [ 69.487185, -48.69971 ], [ 69.483989, -48.698806 ], [ 69.477009, -48.697204 ], [ 69.472871, -48.693398 ], [ 69.480295, -48.685584 ], [ 69.468752, -48.673855 ], [ 69.471377, -48.670528 ], [ 69.483989, -48.670083 ], [ 69.49021, -48.669981 ], [ 69.505069, -48.669737 ], [ 69.503186, -48.672968 ], [ 69.49021, -48.680752 ], [ 69.487291, -48.682503 ], [ 69.488531, -48.685525 ], [ 69.484282, -48.686312 ], [ 69.486633, -48.689377 ], [ 69.49021, -48.690542 ], [ 69.503434, -48.692496 ], [ 69.507767, -48.695754 ], [ 69.507076, -48.697352 ], [ 69.50384, -48.699117 ], [ 69.495657, -48.70026 ], [ 69.49021, -48.69993 ] ] ], [ [ [ 69.720964, -49.607145 ], [ 69.72659, -49.598 ], [ 69.732653, -49.600729 ], [ 69.737476, -49.60854 ], [ 69.747071, -49.614792 ], [ 69.756274, -49.626496 ], [ 69.745587, -49.637923 ], [ 69.741171, -49.645297 ], [ 69.73424, -49.647596 ], [ 69.732189, -49.640011 ], [ 69.733351, -49.637923 ], [ 69.743553, -49.618439 ], [ 69.736842, -49.612331 ], [ 69.720964, -49.607145 ] ] ], [ [ [ 69.54471, -49.247256 ], [ 69.544867, -49.243659 ], [ 69.547594, -49.241848 ], [ 69.547574, -49.24005 ], [ 69.55423, -49.238862 ], [ 69.564818, -49.238425 ], [ 69.567983, -49.240722 ], [ 69.573092, -49.241467 ], [ 69.573864, -49.240436 ], [ 69.579112, -49.240048 ], [ 69.579369, -49.241436 ], [ 69.582913, -49.242574 ], [ 69.588806, -49.243187 ], [ 69.587261, -49.245249 ], [ 69.587768, -49.247624 ], [ 69.596733, -49.249825 ], [ 69.595974, -49.252012 ], [ 69.592854, -49.253569 ], [ 69.580275, -49.251835 ], [ 69.567723, -49.252283 ], [ 69.567729, -49.252797 ], [ 69.559476, -49.250971 ], [ 69.553596, -49.252352 ], [ 69.545729, -49.250591 ], [ 69.54471, -49.247256 ] ] ], [ [ [ 69.920304, -49.413932 ], [ 69.937289, -49.407616 ], [ 69.934326, -49.405857 ], [ 69.925734, -49.406267 ], [ 69.925116, -49.404075 ], [ 69.933507, -49.403223 ], [ 69.944252, -49.398748 ], [ 69.957057, -49.408756 ], [ 69.945715, -49.422282 ], [ 69.931174, -49.422151 ], [ 69.922966, -49.419995 ], [ 69.920304, -49.416705 ], [ 69.920304, -49.413932 ] ] ], [ [ [ 69.596268, -49.036533 ], [ 69.621508, -49.030982 ], [ 69.634305, -49.030131 ], [ 69.649569, -49.026835 ], [ 69.657013, -49.027918 ], [ 69.656629, -49.033427 ], [ 69.643842, -49.037438 ], [ 69.634305, -49.038044 ], [ 69.607043, -49.042372 ], [ 69.600561, -49.040799 ], [ 69.596268, -49.036533 ] ] ], [ [ [ 69.456734, -49.009361 ], [ 69.462565, -49.001458 ], [ 69.46721, -48.991491 ], [ 69.480135, -48.987494 ], [ 69.483989, -48.989041 ], [ 69.487294, -48.990367 ], [ 69.483989, -48.997277 ], [ 69.481989, -49.001458 ], [ 69.474979, -49.005701 ], [ 69.47249, -49.016801 ], [ 69.468689, -49.014738 ], [ 69.457215, -49.014203 ], [ 69.456734, -49.009361 ] ] ], [ [ [ 69.711409, -49.532322 ], [ 69.713175, -49.53182 ], [ 69.714942, -49.533744 ], [ 69.719724, -49.536182 ], [ 69.726789, -49.538531 ], [ 69.728556, -49.54146 ], [ 69.72903, -49.545911 ], [ 69.732649, -49.55206 ], [ 69.734717, -49.553955 ], [ 69.735406, -49.556638 ], [ 69.738852, -49.559768 ], [ 69.739197, -49.564686 ], [ 69.736655, -49.566726 ], [ 69.736612, -49.569269 ], [ 69.734027, -49.57128 ], [ 69.730925, -49.569157 ], [ 69.727306, -49.563569 ], [ 69.724894, -49.56301 ], [ 69.725066, -49.561221 ], [ 69.71925, -49.551412 ], [ 69.71925, -49.546716 ], [ 69.716837, -49.544927 ], [ 69.714037, -49.53909 ], [ 69.713908, -49.53475 ], [ 69.711409, -49.532322 ] ] ], [ [ [ 69.224739, -49.616328 ], [ 69.226016, -49.608447 ], [ 69.234714, -49.605228 ], [ 69.23648, -49.601871 ], [ 69.229255, -49.59681 ], [ 69.227429, -49.592068 ], [ 69.229488, -49.592068 ], [ 69.238296, -49.596449 ], [ 69.247878, -49.615658 ], [ 69.243175, -49.623782 ], [ 69.240027, -49.623068 ], [ 69.236745, -49.625351 ], [ 69.231447, -49.624061 ], [ 69.231277, -49.618142 ], [ 69.224739, -49.616328 ] ] ], [ [ [ 69.977717, -49.460889 ], [ 69.97825, -49.455643 ], [ 69.981051, -49.452643 ], [ 69.984961, -49.452597 ], [ 69.992228, -49.455413 ], [ 69.999914, -49.45932 ], [ 70.011041, -49.453319 ], [ 70.013649, -49.456991 ], [ 70.007398, -49.464278 ], [ 69.998991, -49.463252 ], [ 69.9982, -49.464245 ], [ 70.001198, -49.466134 ], [ 70.010596, -49.465871 ], [ 70.011702, -49.469223 ], [ 69.992228, -49.469342 ], [ 69.980808, -49.464719 ], [ 69.977717, -49.460889 ] ] ], [ [ [ 50.384547, -46.404517 ], [ 50.384559, -46.403481 ], [ 50.390186, -46.402733 ], [ 50.396105, -46.409503 ], [ 50.40284, -46.410316 ], [ 50.402809, -46.413166 ], [ 50.409542, -46.414238 ], [ 50.414056, -46.412576 ], [ 50.416296, -46.413236 ], [ 50.415123, -46.417894 ], [ 50.421098, -46.419739 ], [ 50.423702, -46.421566 ], [ 50.422939, -46.422858 ], [ 50.42573, -46.424686 ], [ 50.423093, -46.425968 ], [ 50.422121, -46.429332 ], [ 50.417249, -46.429308 ], [ 50.416891, -46.427751 ], [ 50.412981, -46.425399 ], [ 50.412815, -46.423454 ], [ 50.410199, -46.422793 ], [ 50.409056, -46.424471 ], [ 50.3956, -46.421291 ], [ 50.392224, -46.421662 ], [ 50.391532, -46.416475 ], [ 50.389107, -46.415426 ], [ 50.389696, -46.413097 ], [ 50.392336, -46.411556 ], [ 50.390516, -46.406752 ], [ 50.384547, -46.404517 ] ] ], [ [ [ 70.057693, -49.489112 ], [ 70.062822, -49.484681 ], [ 70.072932, -49.483356 ], [ 70.075848, -49.484517 ], [ 70.076752, -49.488633 ], [ 70.089391, -49.49211 ], [ 70.110194, -49.490145 ], [ 70.110194, -49.491525 ], [ 70.102445, -49.493673 ], [ 70.09968, -49.497811 ], [ 70.091642, -49.498677 ], [ 70.07459, -49.496935 ], [ 70.062822, -49.493083 ], [ 70.059603, -49.491702 ], [ 70.057693, -49.489112 ] ] ], [ [ [ 69.920304, -49.473578 ], [ 69.91749, -49.473091 ], [ 69.913137, -49.474199 ], [ 69.90936, -49.472292 ], [ 69.909295, -49.466587 ], [ 69.920304, -49.466884 ], [ 69.927479, -49.467078 ], [ 69.930453, -49.46409 ], [ 69.933796, -49.463895 ], [ 69.94652, -49.464602 ], [ 69.948824, -49.471131 ], [ 69.946532, -49.472292 ], [ 69.942955, -49.474426 ], [ 69.936885, -49.473843 ], [ 69.933796, -49.479377 ], [ 69.927241, -49.474776 ], [ 69.920304, -49.473578 ] ] ], [ [ [ 69.973159, -49.504139 ], [ 69.976783, -49.501083 ], [ 69.992225, -49.496458 ], [ 69.997318, -49.497528 ], [ 69.997684, -49.50201 ], [ 70.002855, -49.507969 ], [ 69.996943, -49.513978 ], [ 69.992225, -49.514168 ], [ 69.973159, -49.504139 ] ] ], [ [ [ 70.07362, -49.476864 ], [ 70.074936, -49.473761 ], [ 70.086306, -49.469533 ], [ 70.090392, -49.466661 ], [ 70.090951, -49.46511 ], [ 70.100008, -49.463607 ], [ 70.104392, -49.46524 ], [ 70.103637, -49.466793 ], [ 70.10565, -49.468448 ], [ 70.110029, -49.469823 ], [ 70.109692, -49.472402 ], [ 70.106946, -49.47333 ], [ 70.100015, -49.472752 ], [ 70.096705, -49.474973 ], [ 70.090012, -49.476196 ], [ 70.090859, -49.478764 ], [ 70.082178, -49.479489 ], [ 70.074467, -49.479433 ], [ 70.07362, -49.476864 ] ] ], [ [ [ 69.49021, -49.184795 ], [ 69.482151, -49.186635 ], [ 69.45371, -49.182147 ], [ 69.449329, -49.175387 ], [ 69.452549, -49.173205 ], [ 69.461281, -49.172964 ], [ 69.470879, -49.179132 ], [ 69.486771, -49.179389 ], [ 69.49021, -49.181023 ], [ 69.491728, -49.18252 ], [ 69.49021, -49.184795 ] ] ], [ [ [ 69.959176, -49.484515 ], [ 69.963851, -49.482169 ], [ 69.970509, -49.480703 ], [ 69.977599, -49.481156 ], [ 69.982306, -49.480476 ], [ 69.984304, -49.481997 ], [ 69.982756, -49.483291 ], [ 69.98671, -49.484283 ], [ 69.982278, -49.488934 ], [ 69.982925, -49.491748 ], [ 69.97938, -49.491522 ], [ 69.97766, -49.4941 ], [ 69.975509, -49.494758 ], [ 69.967615, -49.493543 ], [ 69.963032, -49.490634 ], [ 69.959176, -49.484515 ] ] ], [ [ [ 69.667986, -49.215868 ], [ 69.675111, -49.214469 ], [ 69.679908, -49.214501 ], [ 69.679022, -49.211454 ], [ 69.681836, -49.210595 ], [ 69.682596, -49.208254 ], [ 69.688106, -49.205495 ], [ 69.700809, -49.207106 ], [ 69.69925, -49.208933 ], [ 69.690543, -49.209765 ], [ 69.687412, -49.21264 ], [ 69.69219, -49.214169 ], [ 69.696922, -49.212452 ], [ 69.701283, -49.212556 ], [ 69.697764, -49.215953 ], [ 69.698978, -49.217763 ], [ 69.69482, -49.218048 ], [ 69.694071, -49.221168 ], [ 69.691111, -49.222094 ], [ 69.686728, -49.220433 ], [ 69.677608, -49.220227 ], [ 69.675111, -49.219659 ], [ 69.667986, -49.215868 ] ] ], [ [ [ 69.920304, -49.495171 ], [ 69.908269, -49.489977 ], [ 69.907336, -49.487499 ], [ 69.910972, -49.48397 ], [ 69.918764, -49.484324 ], [ 69.920304, -49.485959 ], [ 69.934044, -49.49584 ], [ 69.940394, -49.504506 ], [ 69.933305, -49.503736 ], [ 69.920304, -49.495171 ] ] ], [ [ [ 69.530839, -49.218083 ], [ 69.535708, -49.21721 ], [ 69.537025, -49.215662 ], [ 69.534636, -49.213535 ], [ 69.54119, -49.213125 ], [ 69.550969, -49.211789 ], [ 69.562103, -49.213078 ], [ 69.576242, -49.217642 ], [ 69.575999, -49.218747 ], [ 69.567905, -49.219675 ], [ 69.54119, -49.216011 ], [ 69.54119, -49.217302 ], [ 69.546976, -49.219052 ], [ 69.543876, -49.223057 ], [ 69.538759, -49.222438 ], [ 69.538745, -49.221151 ], [ 69.532855, -49.221693 ], [ 69.533739, -49.219554 ], [ 69.530839, -49.218083 ] ] ], [ [ [ 50.419402, -45.955253 ], [ 50.424801, -45.953108 ], [ 50.430686, -45.949661 ], [ 50.439541, -45.946607 ], [ 50.442356, -45.947409 ], [ 50.446283, -45.950177 ], [ 50.45153, -45.94752 ], [ 50.454723, -45.949287 ], [ 50.454343, -45.951812 ], [ 50.448669, -45.95101 ], [ 50.447596, -45.952842 ], [ 50.442721, -45.953494 ], [ 50.441032, -45.955952 ], [ 50.435808, -45.955801 ], [ 50.431774, -45.96205 ], [ 50.426243, -45.960152 ], [ 50.423513, -45.956696 ], [ 50.419402, -45.955253 ] ] ], [ [ [ 70.031369, -49.50505 ], [ 70.033, -49.502374 ], [ 70.037855, -49.501265 ], [ 70.045318, -49.501848 ], [ 70.053949, -49.50395 ], [ 70.058355, -49.505527 ], [ 70.058984, -49.507278 ], [ 70.057546, -49.510197 ], [ 70.055208, -49.51154 ], [ 70.045947, -49.511423 ], [ 70.040822, -49.510548 ], [ 70.032641, -49.50722 ], [ 70.031369, -49.50505 ] ] ], [ [ [ 69.933796, -49.434086 ], [ 69.933796, -49.431912 ], [ 69.93902, -49.428138 ], [ 69.954829, -49.428745 ], [ 69.956181, -49.440414 ], [ 69.950537, -49.44094 ], [ 69.933796, -49.434086 ] ] ], [ [ [ 70.031867, -49.473766 ], [ 70.036033, -49.472185 ], [ 70.042738, -49.472894 ], [ 70.047492, -49.47439 ], [ 70.057274, -49.471736 ], [ 70.062004, -49.472078 ], [ 70.062054, -49.474385 ], [ 70.054633, -49.477018 ], [ 70.055715, -49.481624 ], [ 70.054967, -49.483426 ], [ 70.051636, -49.484098 ], [ 70.044128, -49.482755 ], [ 70.043707, -49.481477 ], [ 70.034345, -49.476175 ], [ 70.031867, -49.473766 ] ] ], [ [ [ 69.457466, -48.722836 ], [ 69.462501, -48.721017 ], [ 69.462094, -48.718961 ], [ 69.4652, -48.718692 ], [ 69.465174, -48.715864 ], [ 69.469834, -48.715588 ], [ 69.471785, -48.716479 ], [ 69.476434, -48.715046 ], [ 69.483989, -48.716167 ], [ 69.486452, -48.71724 ], [ 69.486018, -48.71986 ], [ 69.483989, -48.72158 ], [ 69.479617, -48.722875 ], [ 69.471845, -48.722907 ], [ 69.465642, -48.724474 ], [ 69.464885, -48.726664 ], [ 69.460029, -48.72694 ], [ 69.46079, -48.725137 ], [ 69.457466, -48.722836 ] ] ], [ [ [ 69.605263, -48.925206 ], [ 69.61028, -48.922362 ], [ 69.611014, -48.918773 ], [ 69.614877, -48.91696 ], [ 69.615635, -48.915419 ], [ 69.621864, -48.91641 ], [ 69.619167, -48.918218 ], [ 69.619578, -48.920008 ], [ 69.617265, -48.921557 ], [ 69.618851, -48.924109 ], [ 69.614394, -48.925157 ], [ 69.616175, -48.927709 ], [ 69.619676, -48.927946 ], [ 69.623392, -48.929975 ], [ 69.617793, -48.932822 ], [ 69.617047, -48.935387 ], [ 69.614326, -48.935401 ], [ 69.612746, -48.933361 ], [ 69.608456, -48.932103 ], [ 69.605312, -48.929303 ], [ 69.607246, -48.928524 ], [ 69.605263, -48.925206 ] ] ], [ [ [ 68.712632, -48.63913 ], [ 68.713939, -48.638067 ], [ 68.715226, -48.631181 ], [ 68.725933, -48.63366 ], [ 68.732644, -48.632403 ], [ 68.738298, -48.638067 ], [ 68.73748, -48.643051 ], [ 68.734086, -48.644978 ], [ 68.728466, -48.638067 ], [ 68.726113, -48.635925 ], [ 68.724046, -48.638067 ], [ 68.72155, -48.639885 ], [ 68.713458, -48.640993 ], [ 68.712632, -48.63913 ] ] ], [ [ [ 69.966081, -49.414934 ], [ 69.966229, -49.412333 ], [ 69.973, -49.412146 ], [ 69.980934, -49.410389 ], [ 69.98378, -49.413225 ], [ 69.9814, -49.413765 ], [ 69.981452, -49.416364 ], [ 69.984645, -49.416597 ], [ 69.988109, -49.420468 ], [ 69.986976, -49.423597 ], [ 69.988036, -49.426708 ], [ 69.983727, -49.426477 ], [ 69.977915, -49.418864 ], [ 69.974702, -49.417591 ], [ 69.968306, -49.416605 ], [ 69.966081, -49.414934 ] ] ], [ [ [ 70.25536, -49.5191 ], [ 70.255518, -49.517557 ], [ 70.262403, -49.515271 ], [ 70.263135, -49.520356 ], [ 70.269026, -49.521262 ], [ 70.27205, -49.523797 ], [ 70.268199, -49.527435 ], [ 70.266912, -49.531044 ], [ 70.260015, -49.531376 ], [ 70.257838, -49.523439 ], [ 70.25536, -49.5191 ] ] ], [ [ [ 69.636119, -49.012465 ], [ 69.637848, -49.010403 ], [ 69.642927, -49.011144 ], [ 69.647162, -49.007017 ], [ 69.653399, -49.006853 ], [ 69.654968, -49.007614 ], [ 69.661174, -49.006702 ], [ 69.662609, -49.01052 ], [ 69.657359, -49.011576 ], [ 69.654664, -49.014156 ], [ 69.647657, -49.015093 ], [ 69.637904, -49.014763 ], [ 69.636119, -49.012465 ] ] ], [ [ [ 69.448018, -49.197597 ], [ 69.452723, -49.193632 ], [ 69.464152, -49.1916 ], [ 69.465421, -49.195705 ], [ 69.470591, -49.194191 ], [ 69.476626, -49.19567 ], [ 69.469686, -49.199136 ], [ 69.452723, -49.199768 ], [ 69.448018, -49.197597 ] ] ], [ [ [ 69.589977, -49.239588 ], [ 69.590756, -49.238017 ], [ 69.602714, -49.237172 ], [ 69.603525, -49.238212 ], [ 69.615885, -49.237625 ], [ 69.618299, -49.239309 ], [ 69.622287, -49.239158 ], [ 69.62352, -49.242025 ], [ 69.617761, -49.244145 ], [ 69.60792, -49.242813 ], [ 69.605585, -49.243556 ], [ 69.599146, -49.239019 ], [ 69.595772, -49.238739 ], [ 69.595767, -49.240081 ], [ 69.589977, -49.239588 ] ] ], [ [ [ 70.226574, -49.501215 ], [ 70.226688, -49.497881 ], [ 70.228524, -49.497741 ], [ 70.243532, -49.504062 ], [ 70.245782, -49.508591 ], [ 70.236349, -49.508883 ], [ 70.228524, -49.503377 ], [ 70.226574, -49.501215 ] ] ], [ [ [ 69.741959, -49.53306 ], [ 69.748557, -49.534177 ], [ 69.756992, -49.540917 ], [ 69.75868, -49.54261 ], [ 69.756992, -49.545645 ], [ 69.749341, -49.546229 ], [ 69.741959, -49.53306 ] ] ], [ [ [ 69.456459, -49.219993 ], [ 69.465319, -49.216775 ], [ 69.483989, -49.21536 ], [ 69.488716, -49.217841 ], [ 69.483989, -49.218526 ], [ 69.473396, -49.21957 ], [ 69.465319, -49.222543 ], [ 69.456459, -49.219993 ] ] ], [ [ [ 70.020998, -49.390936 ], [ 70.02447, -49.388607 ], [ 70.031499, -49.388033 ], [ 70.029792, -49.390602 ], [ 70.033267, -49.397721 ], [ 70.02468, -49.398691 ], [ 70.022086, -49.396288 ], [ 70.020998, -49.390936 ] ] ], [ [ [ 70.00327, -49.406443 ], [ 70.006747, -49.404887 ], [ 70.005848, -49.399043 ], [ 70.008539, -49.397239 ], [ 70.013627, -49.398212 ], [ 70.01272, -49.401527 ], [ 70.012892, -49.409921 ], [ 70.010365, -49.410197 ], [ 70.004081, -49.407963 ], [ 70.00327, -49.406443 ] ] ], [ [ [ 69.950507, -49.493956 ], [ 69.951616, -49.492209 ], [ 69.95666, -49.491919 ], [ 69.958733, -49.495626 ], [ 69.95649, -49.497879 ], [ 69.957096, -49.499612 ], [ 69.963965, -49.500051 ], [ 69.964761, -49.501782 ], [ 69.961754, -49.503917 ], [ 69.957171, -49.503458 ], [ 69.953118, -49.500886 ], [ 69.950754, -49.496933 ], [ 69.950507, -49.493956 ] ] ], [ [ [ 68.705461, -48.755239 ], [ 68.71392, -48.752201 ], [ 68.716497, -48.747866 ], [ 68.720844, -48.751026 ], [ 68.720812, -48.756799 ], [ 68.717639, -48.756397 ], [ 68.713761, -48.757516 ], [ 68.707606, -48.757385 ], [ 68.705461, -48.755239 ] ] ], [ [ [ 70.145291, -49.498202 ], [ 70.153039, -49.495837 ], [ 70.156864, -49.492622 ], [ 70.158556, -49.492966 ], [ 70.15828, -49.499965 ], [ 70.153917, -49.500021 ], [ 70.152815, -49.502955 ], [ 70.149281, -49.501974 ], [ 70.145291, -49.498202 ] ] ], [ [ [ 69.274361, -49.592068 ], [ 69.279276, -49.588175 ], [ 69.284039, -49.589073 ], [ 69.285315, -49.592068 ], [ 69.285221, -49.595225 ], [ 69.279033, -49.597275 ], [ 69.274361, -49.592068 ] ] ], [ [ [ 70.000933, -49.443526 ], [ 70.001322, -49.441871 ], [ 70.007381, -49.439696 ], [ 70.007766, -49.438631 ], [ 70.014248, -49.437248 ], [ 70.016133, -49.439885 ], [ 70.014325, -49.440962 ], [ 70.013183, -49.444819 ], [ 70.000933, -49.443526 ] ] ], [ [ [ 69.982383, -49.393326 ], [ 69.983884, -49.390754 ], [ 69.992225, -49.389006 ], [ 69.995638, -49.390314 ], [ 69.992225, -49.394184 ], [ 69.991889, -49.396329 ], [ 69.989779, -49.396923 ], [ 69.983424, -49.394788 ], [ 69.982383, -49.393326 ] ] ], [ [ [ 69.516012, -49.208393 ], [ 69.517889, -49.20692 ], [ 69.523194, -49.207178 ], [ 69.52638, -49.207429 ], [ 69.531324, -49.207818 ], [ 69.534653, -49.210877 ], [ 69.531968, -49.212256 ], [ 69.52638, -49.211519 ], [ 69.523194, -49.211098 ], [ 69.516012, -49.208393 ] ] ], [ [ [ 69.718532, -49.519909 ], [ 69.722075, -49.518093 ], [ 69.729022, -49.518602 ], [ 69.728823, -49.526123 ], [ 69.727315, -49.526547 ], [ 69.72077, -49.522694 ], [ 69.718532, -49.519909 ] ] ], [ [ [ 69.461662, -49.264878 ], [ 69.465337, -49.263299 ], [ 69.480909, -49.260192 ], [ 69.483989, -49.260651 ], [ 69.483989, -49.262363 ], [ 69.465337, -49.26619 ], [ 69.461662, -49.264878 ] ] ], [ [ [ 69.766736, -49.462667 ], [ 69.769431, -49.462233 ], [ 69.777175, -49.463506 ], [ 69.779083, -49.468528 ], [ 69.775653, -49.470141 ], [ 69.773615, -49.469756 ], [ 69.766736, -49.462667 ] ] ], [ [ [ 69.536024, -48.848092 ], [ 69.537157, -48.846055 ], [ 69.5412, -48.844055 ], [ 69.545198, -48.842078 ], [ 69.55212, -48.84141 ], [ 69.54946, -48.844599 ], [ 69.545235, -48.845509 ], [ 69.54449, -48.847799 ], [ 69.5412, -48.84814 ], [ 69.536799, -48.848597 ], [ 69.536024, -48.848092 ] ] ], [ [ [ 69.501037, -49.008001 ], [ 69.503318, -49.002615 ], [ 69.50681, -49.001576 ], [ 69.507606, -49.003365 ], [ 69.505295, -49.005679 ], [ 69.508431, -49.007969 ], [ 69.505869, -49.008295 ], [ 69.507671, -49.009764 ], [ 69.506535, -49.012842 ], [ 69.503022, -49.011833 ], [ 69.501037, -49.008001 ] ] ], [ [ [ 69.295128, -49.58988 ], [ 69.298027, -49.589069 ], [ 69.306286, -49.590895 ], [ 69.303733, -49.596875 ], [ 69.295862, -49.592062 ], [ 69.295128, -49.58988 ] ] ], [ [ [ 50.408577, -45.958734 ], [ 50.410615, -45.956523 ], [ 50.414042, -45.957574 ], [ 50.418179, -45.956578 ], [ 50.419957, -45.958122 ], [ 50.41653, -45.961406 ], [ 50.415672, -45.964515 ], [ 50.413279, -45.964564 ], [ 50.413095, -45.960995 ], [ 50.408838, -45.96011 ], [ 50.408577, -45.958734 ] ] ], [ [ [ 69.987108, -49.447042 ], [ 69.988798, -49.444787 ], [ 69.992225, -49.444346 ], [ 69.994201, -49.444341 ], [ 69.996675, -49.4466 ], [ 69.994118, -49.45076 ], [ 69.992225, -49.451352 ], [ 69.988112, -49.449572 ], [ 69.987108, -49.447042 ] ] ], [ [ [ 69.971001, -49.442633 ], [ 69.977555, -49.43966 ], [ 69.980684, -49.440522 ], [ 69.982179, -49.444447 ], [ 69.981171, -49.445463 ], [ 69.974945, -49.44539 ], [ 69.972008, -49.4444 ], [ 69.971001, -49.442633 ] ] ], [ [ [ 69.621576, -48.943523 ], [ 69.628178, -48.943858 ], [ 69.630462, -48.941875 ], [ 69.633704, -48.942123 ], [ 69.633554, -48.946391 ], [ 69.626072, -48.946965 ], [ 69.62366, -48.948312 ], [ 69.621576, -48.943523 ] ] ], [ [ [ 69.49021, -48.891518 ], [ 69.488735, -48.890296 ], [ 69.49021, -48.888661 ], [ 69.498771, -48.887739 ], [ 69.500195, -48.889344 ], [ 69.496409, -48.894175 ], [ 69.49021, -48.891518 ] ] ], [ [ [ 69.415825, -49.180309 ], [ 69.420216, -49.179175 ], [ 69.428915, -49.180309 ], [ 69.429134, -49.182897 ], [ 69.427365, -49.18381 ], [ 69.421433, -49.183055 ], [ 69.415825, -49.180309 ] ] ], [ [ [ 69.844855, -49.479705 ], [ 69.845915, -49.47604 ], [ 69.852427, -49.477974 ], [ 69.85366, -49.476925 ], [ 69.859332, -49.476883 ], [ 69.857474, -49.479896 ], [ 69.852087, -49.47912 ], [ 69.851236, -49.480877 ], [ 69.844855, -49.479705 ] ] ], [ [ [ 69.282504, -49.612295 ], [ 69.285455, -49.606838 ], [ 69.291746, -49.606311 ], [ 69.290971, -49.60967 ], [ 69.286515, -49.60929 ], [ 69.286163, -49.614607 ], [ 69.284949, -49.615595 ], [ 69.282504, -49.612295 ] ] ], [ [ [ 70.022105, -49.447566 ], [ 70.022704, -49.446009 ], [ 70.028018, -49.446222 ], [ 70.027665, -49.448292 ], [ 70.033185, -49.44708 ], [ 70.034045, -49.450301 ], [ 70.026526, -49.450626 ], [ 70.022105, -49.447566 ] ] ], [ [ [ 70.010186, -49.492206 ], [ 70.016845, -49.490923 ], [ 70.019366, -49.491582 ], [ 70.018621, -49.495943 ], [ 70.01403, -49.496256 ], [ 70.010186, -49.492206 ] ] ], [ [ [ 70.067694, -49.462542 ], [ 70.073535, -49.459925 ], [ 70.077067, -49.459636 ], [ 70.077128, -49.462454 ], [ 70.07893, -49.463975 ], [ 70.074026, -49.464405 ], [ 70.068902, -49.463812 ], [ 70.067694, -49.462542 ] ] ], [ [ [ 69.204467, -49.118576 ], [ 69.206971, -49.117325 ], [ 69.211395, -49.118547 ], [ 69.211854, -49.120908 ], [ 69.208762, -49.120405 ], [ 69.209142, -49.123289 ], [ 69.206594, -49.124532 ], [ 69.204788, -49.123289 ], [ 69.206033, -49.119071 ], [ 69.204467, -49.118576 ] ] ], [ [ [ 69.13246, -48.93407 ], [ 69.139554, -48.932897 ], [ 69.143628, -48.934447 ], [ 69.140792, -48.938174 ], [ 69.13246, -48.93407 ] ] ], [ [ [ 69.49021, -49.232744 ], [ 69.484289, -49.23198 ], [ 69.48249, -49.230647 ], [ 69.488149, -49.229477 ], [ 69.49021, -49.22975 ], [ 69.497625, -49.231601 ], [ 69.49021, -49.232744 ] ] ], [ [ [ 69.347302, -48.933187 ], [ 69.35438, -48.930568 ], [ 69.354408, -48.934464 ], [ 69.350481, -48.936683 ], [ 69.34811, -48.935911 ], [ 69.347302, -48.933187 ] ] ], [ [ [ 69.690734, -49.197341 ], [ 69.693158, -49.196152 ], [ 69.700287, -49.195144 ], [ 69.703246, -49.196366 ], [ 69.699921, -49.199002 ], [ 69.690734, -49.197341 ] ] ], [ [ [ 70.192337, -49.498313 ], [ 70.195058, -49.497691 ], [ 70.196775, -49.494991 ], [ 70.200968, -49.495006 ], [ 70.20173, -49.496827 ], [ 70.196128, -49.498058 ], [ 70.197724, -49.501334 ], [ 70.194187, -49.501562 ], [ 70.192337, -49.498313 ] ] ], [ [ [ 69.681867, -49.099106 ], [ 69.683424, -49.097015 ], [ 69.688187, -49.097507 ], [ 69.69063, -49.102177 ], [ 69.685467, -49.101427 ], [ 69.681867, -49.099106 ] ] ], [ [ [ 69.632285, -49.212649 ], [ 69.633529, -49.211862 ], [ 69.647355, -49.211894 ], [ 69.648768, -49.212934 ], [ 69.642306, -49.214048 ], [ 69.633077, -49.213291 ], [ 69.632285, -49.212649 ] ] ], [ [ [ 69.183028, -48.721053 ], [ 69.184874, -48.716439 ], [ 69.188402, -48.718176 ], [ 69.189325, -48.720293 ], [ 69.186719, -48.723712 ], [ 69.183028, -48.721053 ] ] ], [ [ [ 69.447748, -48.899337 ], [ 69.448883, -48.896767 ], [ 69.452723, -48.897525 ], [ 69.456733, -48.901353 ], [ 69.452723, -48.90222 ], [ 69.447748, -48.899337 ] ] ], [ [ [ 69.395165, -49.626575 ], [ 69.398369, -49.625789 ], [ 69.400915, -49.628512 ], [ 69.404505, -49.630412 ], [ 69.40178, -49.631377 ], [ 69.396302, -49.630167 ], [ 69.395165, -49.626575 ] ] ], [ [ [ 70.04431, -49.45731 ], [ 70.046708, -49.456765 ], [ 70.048375, -49.459629 ], [ 70.051208, -49.460651 ], [ 70.050857, -49.46301 ], [ 70.046443, -49.463181 ], [ 70.04431, -49.45731 ] ] ], [ [ [ 69.404163, -48.825561 ], [ 69.405922, -48.823278 ], [ 69.41066, -48.822217 ], [ 69.412223, -48.819861 ], [ 69.414596, -48.819852 ], [ 69.41265, -48.823646 ], [ 69.408709, -48.825488 ], [ 69.404163, -48.825561 ] ] ], [ [ [ 69.699282, -49.176372 ], [ 69.700878, -49.173314 ], [ 69.709256, -49.174568 ], [ 69.710469, -49.175865 ], [ 69.705294, -49.175897 ], [ 69.701728, -49.177093 ], [ 69.699282, -49.176372 ] ] ], [ [ [ 69.58829, -48.915292 ], [ 69.592301, -48.912376 ], [ 69.593898, -48.915521 ], [ 69.598238, -48.914978 ], [ 69.598265, -48.917208 ], [ 69.588302, -48.916341 ], [ 69.58829, -48.915292 ] ] ], [ [ [ 69.508587, -49.217411 ], [ 69.508904, -49.216293 ], [ 69.519504, -49.216477 ], [ 69.519631, -49.219467 ], [ 69.508587, -49.217411 ] ] ], [ [ [ 68.748791, -48.594 ], [ 68.751585, -48.592993 ], [ 68.752245, -48.594471 ], [ 68.758037, -48.595613 ], [ 68.755344, -48.598066 ], [ 68.749096, -48.595512 ], [ 68.748791, -48.594 ] ] ], [ [ [ 69.377598, -49.179982 ], [ 69.383099, -49.178156 ], [ 69.384699, -49.18125 ], [ 69.382177, -49.182364 ], [ 69.378795, -49.181914 ], [ 69.377598, -49.179982 ] ] ], [ [ [ 69.457039, -48.696176 ], [ 69.459218, -48.694241 ], [ 69.46284, -48.694227 ], [ 69.463696, -48.696975 ], [ 69.457261, -48.697826 ], [ 69.457039, -48.696176 ] ] ], [ [ [ 69.49021, -49.029034 ], [ 69.488353, -49.027027 ], [ 69.488328, -49.024459 ], [ 69.49021, -49.025 ], [ 69.491853, -49.025471 ], [ 69.49201, -49.027951 ], [ 69.494048, -49.030342 ], [ 69.491906, -49.030865 ], [ 69.49021, -49.029034 ] ] ], [ [ [ 69.586917, -49.25995 ], [ 69.587713, -49.2594 ], [ 69.597779, -49.258477 ], [ 69.59617, -49.260489 ], [ 69.590873, -49.261318 ], [ 69.586917, -49.25995 ] ] ], [ [ [ 51.642144, -46.372862 ], [ 51.646088, -46.369388 ], [ 51.647233, -46.370604 ], [ 51.646688, -46.374617 ], [ 51.645179, -46.375282 ], [ 51.642144, -46.372862 ] ] ], [ [ [ 68.742099, -49.691473 ], [ 68.744073, -49.690114 ], [ 68.752632, -49.690905 ], [ 68.751194, -49.692907 ], [ 68.742099, -49.691473 ] ] ], [ [ [ 69.704896, -49.193674 ], [ 69.70944, -49.193237 ], [ 69.713724, -49.195598 ], [ 69.713132, -49.196663 ], [ 69.706232, -49.195379 ], [ 69.704896, -49.193674 ] ] ], [ [ [ 70.185132, -49.513385 ], [ 70.192214, -49.512489 ], [ 70.191042, -49.516199 ], [ 70.188094, -49.516093 ], [ 70.185132, -49.513385 ] ] ], [ [ [ 69.888482, -49.40924 ], [ 69.894504, -49.408283 ], [ 69.894538, -49.41244 ], [ 69.890562, -49.411568 ], [ 69.888482, -49.40924 ] ] ], [ [ [ 69.491082, -49.162475 ], [ 69.491228, -49.161004 ], [ 69.498979, -49.160971 ], [ 69.499865, -49.163367 ], [ 69.491082, -49.162475 ] ] ], [ [ [ 69.429517, -49.143388 ], [ 69.429995, -49.141393 ], [ 69.434882, -49.13926 ], [ 69.436227, -49.139997 ], [ 69.434312, -49.142863 ], [ 69.429517, -49.143388 ] ] ], [ [ [ 68.802947, -49.82671 ], [ 68.803735, -49.825822 ], [ 68.808441, -49.826719 ], [ 68.807645, -49.829383 ], [ 68.803132, -49.829249 ], [ 68.802947, -49.82671 ] ] ], [ [ [ 69.79605, -49.488009 ], [ 69.797777, -49.487542 ], [ 69.804025, -49.490373 ], [ 69.802195, -49.492679 ], [ 69.79605, -49.488009 ] ] ], [ [ [ 50.431635, -45.939059 ], [ 50.435903, -45.937187 ], [ 50.437346, -45.940901 ], [ 50.435331, -45.941917 ], [ 50.431635, -45.939059 ] ] ], [ [ [ 69.964615, -49.384996 ], [ 69.972191, -49.383757 ], [ 69.973553, -49.385092 ], [ 69.969827, -49.385605 ], [ 69.96985, -49.38678 ], [ 69.965036, -49.386037 ], [ 69.964615, -49.384996 ] ] ], [ [ [ 70.378662, -49.369929 ], [ 70.384084, -49.370473 ], [ 70.383966, -49.373299 ], [ 70.381025, -49.373591 ], [ 70.378662, -49.369929 ] ] ], [ [ [ 68.797154, -48.453971 ], [ 68.797555, -48.451882 ], [ 68.803067, -48.452272 ], [ 68.800355, -48.455604 ], [ 68.797154, -48.453971 ] ] ], [ [ [ 69.281305, -49.603364 ], [ 69.281519, -49.600682 ], [ 69.285648, -49.60097 ], [ 69.285959, -49.604395 ], [ 69.281305, -49.603364 ] ] ], [ [ [ 68.74983, -48.624771 ], [ 68.750838, -48.623132 ], [ 68.75518, -48.623148 ], [ 68.755992, -48.625329 ], [ 68.753607, -48.626176 ], [ 68.74983, -48.624771 ] ] ], [ [ [ 68.744329, -48.629129 ], [ 68.744469, -48.627931 ], [ 68.750179, -48.627189 ], [ 68.748149, -48.631269 ], [ 68.744329, -48.629129 ] ] ], [ [ [ 68.669834, -48.638784 ], [ 68.675635, -48.638209 ], [ 68.676472, -48.640198 ], [ 68.673556, -48.641783 ], [ 68.669834, -48.638784 ] ] ], [ [ [ 69.464746, -48.730983 ], [ 69.466348, -48.72865 ], [ 69.471761, -48.729165 ], [ 69.470699, -48.731316 ], [ 69.464746, -48.730983 ] ] ], [ [ [ 69.637172, -48.776062 ], [ 69.63968, -48.773022 ], [ 69.643862, -48.775504 ], [ 69.639999, -48.77697 ], [ 69.637172, -48.776062 ] ] ], [ [ [ 69.205355, -48.837356 ], [ 69.205613, -48.835972 ], [ 69.211661, -48.837067 ], [ 69.212437, -48.8389 ], [ 69.20772, -48.838736 ], [ 69.205355, -48.837356 ] ] ], [ [ [ 69.427701, -48.920905 ], [ 69.431576, -48.920465 ], [ 69.432245, -48.923018 ], [ 69.430318, -48.924516 ], [ 69.428045, -48.92346 ], [ 69.427701, -48.920905 ] ] ], [ [ [ 69.422096, -48.927141 ], [ 69.428063, -48.926463 ], [ 69.428084, -48.928922 ], [ 69.422677, -48.929288 ], [ 69.422096, -48.927141 ] ] ], [ [ [ 69.575496, -48.935181 ], [ 69.578427, -48.932491 ], [ 69.581228, -48.932168 ], [ 69.580803, -48.935866 ], [ 69.575496, -48.935181 ] ] ], [ [ [ 68.829722, -48.9509 ], [ 68.835136, -48.950634 ], [ 68.836335, -48.952892 ], [ 68.830616, -48.95328 ], [ 68.829722, -48.9509 ] ] ], [ [ [ 68.804295, -48.954848 ], [ 68.804307, -48.951861 ], [ 68.809343, -48.952533 ], [ 68.808247, -48.955303 ], [ 68.804295, -48.954848 ] ] ], [ [ [ 68.834547, -48.956374 ], [ 68.839827, -48.955609 ], [ 68.839817, -48.958699 ], [ 68.836297, -48.95908 ], [ 68.834547, -48.956374 ] ] ], [ [ [ 69.658801, -48.969875 ], [ 69.66132, -48.966935 ], [ 69.665388, -48.967802 ], [ 69.662022, -48.970735 ], [ 69.658801, -48.969875 ] ] ], [ [ [ 69.634909, -48.988503 ], [ 69.639852, -48.989726 ], [ 69.640432, -48.992245 ], [ 69.634944, -48.991195 ], [ 69.634909, -48.988503 ] ] ], [ [ [ 69.628045, -48.993342 ], [ 69.62974, -48.990194 ], [ 69.631915, -48.990753 ], [ 69.631744, -48.994464 ], [ 69.628496, -48.994767 ], [ 69.628045, -48.993342 ] ] ], [ [ [ 69.370558, -48.9974 ], [ 69.37589, -48.994858 ], [ 69.377681, -48.996424 ], [ 69.374882, -48.998713 ], [ 69.370558, -48.9974 ] ] ], [ [ [ 69.663878, -49.01103 ], [ 69.665583, -49.007563 ], [ 69.667919, -49.007549 ], [ 69.669112, -49.009463 ], [ 69.666803, -49.011397 ], [ 69.663878, -49.01103 ] ] ], [ [ [ 69.332938, -49.01591 ], [ 69.33657, -49.014178 ], [ 69.33882, -49.013106 ], [ 69.340263, -49.015366 ], [ 69.33657, -49.016493 ], [ 69.334869, -49.017012 ], [ 69.332938, -49.01591 ] ] ], [ [ [ 69.613742, -49.015528 ], [ 69.618756, -49.014901 ], [ 69.619695, -49.016998 ], [ 69.614231, -49.018229 ], [ 69.613742, -49.015528 ] ] ], [ [ [ 69.018294, -49.019171 ], [ 69.022517, -49.018448 ], [ 69.023582, -49.019326 ], [ 69.021312, -49.022176 ], [ 69.018671, -49.021722 ], [ 69.018294, -49.019171 ] ] ], [ [ [ 69.609979, -49.022761 ], [ 69.610205, -49.021153 ], [ 69.614102, -49.020169 ], [ 69.615591, -49.022089 ], [ 69.612194, -49.024035 ], [ 69.609979, -49.022761 ] ] ], [ [ [ 69.696689, -49.09515 ], [ 69.703367, -49.09481 ], [ 69.70513, -49.097443 ], [ 69.698216, -49.09654 ], [ 69.696689, -49.09515 ] ] ], [ [ [ 70.038856, -49.112367 ], [ 70.03995, -49.109594 ], [ 70.043659, -49.108991 ], [ 70.043327, -49.11272 ], [ 70.038856, -49.112367 ] ] ], [ [ [ 69.976892, -49.128606 ], [ 69.983152, -49.129182 ], [ 69.98229, -49.131913 ], [ 69.978724, -49.13136 ], [ 69.976892, -49.128606 ] ] ], [ [ [ 70.168114, -49.144755 ], [ 70.171893, -49.144219 ], [ 70.171974, -49.1477 ], [ 70.168196, -49.148235 ], [ 70.168114, -49.144755 ] ] ], [ [ [ 69.705829, -49.163346 ], [ 69.70832, -49.161682 ], [ 69.713283, -49.162745 ], [ 69.709374, -49.165137 ], [ 69.705829, -49.163346 ] ] ], [ [ [ 69.405698, -49.179793 ], [ 69.407773, -49.178681 ], [ 69.411151, -49.179022 ], [ 69.411999, -49.180316 ], [ 69.411558, -49.181479 ], [ 69.407773, -49.181523 ], [ 69.405698, -49.179793 ] ] ], [ [ [ 69.500658, -49.205551 ], [ 69.501539, -49.204373 ], [ 69.505335, -49.206333 ], [ 69.505362, -49.209016 ], [ 69.502136, -49.208263 ], [ 69.500658, -49.205551 ] ] ], [ [ [ 69.44247, -49.206185 ], [ 69.446273, -49.205421 ], [ 69.448976, -49.206762 ], [ 69.447465, -49.20858 ], [ 69.444784, -49.208595 ], [ 69.44247, -49.206185 ] ] ], [ [ [ 69.452578, -49.208985 ], [ 69.452578, -49.206238 ], [ 69.455542, -49.205361 ], [ 69.457084, -49.209622 ], [ 69.452578, -49.208985 ] ] ], [ [ [ 69.48173, -49.237368 ], [ 69.489059, -49.236651 ], [ 69.487301, -49.23911 ], [ 69.482798, -49.239422 ], [ 69.48173, -49.237368 ] ] ], [ [ [ 69.729437, -49.2442 ], [ 69.730021, -49.242881 ], [ 69.734431, -49.242063 ], [ 69.738056, -49.242567 ], [ 69.737674, -49.243885 ], [ 69.729437, -49.2442 ] ] ], [ [ [ 69.491303, -49.26032 ], [ 69.491442, -49.258496 ], [ 69.495021, -49.258187 ], [ 69.497268, -49.26074 ], [ 69.492295, -49.261323 ], [ 69.491303, -49.26032 ] ] ], [ [ [ 69.708622, -49.300502 ], [ 69.715443, -49.298833 ], [ 69.71582, -49.301489 ], [ 69.710028, -49.301746 ], [ 69.708622, -49.300502 ] ] ], [ [ [ 70.345668, -49.357762 ], [ 70.349545, -49.357717 ], [ 70.350439, -49.361178 ], [ 70.345743, -49.360504 ], [ 70.345668, -49.357762 ] ] ], [ [ [ 70.181839, -49.382338 ], [ 70.185296, -49.379861 ], [ 70.188263, -49.382143 ], [ 70.186122, -49.383925 ], [ 70.181839, -49.382338 ] ] ], [ [ [ 68.811796, -49.385609 ], [ 68.813705, -49.383094 ], [ 68.817537, -49.382424 ], [ 68.817403, -49.384279 ], [ 68.813952, -49.386467 ], [ 68.811796, -49.385609 ] ] ], [ [ [ 69.957604, -49.40031 ], [ 69.958735, -49.398629 ], [ 69.962073, -49.399036 ], [ 69.963464, -49.402067 ], [ 69.961471, -49.4023 ], [ 69.957604, -49.40031 ] ] ], [ [ [ 70.333873, -49.402753 ], [ 70.335364, -49.401707 ], [ 70.339374, -49.401166 ], [ 70.339162, -49.404498 ], [ 70.334899, -49.404013 ], [ 70.333873, -49.402753 ] ] ], [ [ [ 69.898656, -49.41187 ], [ 69.902315, -49.410258 ], [ 69.905167, -49.413277 ], [ 69.903325, -49.414508 ], [ 69.898656, -49.41187 ] ] ], [ [ [ 70.048418, -49.446115 ], [ 70.053708, -49.446066 ], [ 70.055058, -49.447348 ], [ 70.053102, -49.448659 ], [ 70.049126, -49.448265 ], [ 70.048418, -49.446115 ] ] ], [ [ [ 70.041358, -49.455923 ], [ 70.042017, -49.453606 ], [ 70.046971, -49.453099 ], [ 70.04773, -49.455403 ], [ 70.041358, -49.455923 ] ] ], [ [ [ 69.900556, -49.460741 ], [ 69.906076, -49.460698 ], [ 69.906902, -49.462748 ], [ 69.902853, -49.463812 ], [ 69.900556, -49.460741 ] ] ], [ [ [ 69.779862, -49.473444 ], [ 69.782313, -49.469695 ], [ 69.784958, -49.470539 ], [ 69.784761, -49.473444 ], [ 69.779862, -49.473444 ] ] ], [ [ [ 69.865299, -49.494415 ], [ 69.867973, -49.492574 ], [ 69.870597, -49.494661 ], [ 69.87031, -49.49677 ], [ 69.86576, -49.495541 ], [ 69.865299, -49.494415 ] ] ], [ [ [ 70.171581, -49.503638 ], [ 70.17611, -49.502105 ], [ 70.177721, -49.505805 ], [ 70.173911, -49.505597 ], [ 70.171581, -49.503638 ] ] ], [ [ [ 70.177048, -49.509376 ], [ 70.177632, -49.508171 ], [ 70.182541, -49.508121 ], [ 70.183193, -49.509713 ], [ 70.17945, -49.511257 ], [ 70.177048, -49.509376 ] ] ], [ [ [ 69.945215, -49.510651 ], [ 69.949207, -49.50974 ], [ 69.951006, -49.512896 ], [ 69.94579, -49.512939 ], [ 69.945215, -49.510651 ] ] ], [ [ [ 68.419381, -49.516164 ], [ 68.419424, -49.512588 ], [ 68.423086, -49.512606 ], [ 68.423043, -49.516183 ], [ 68.419381, -49.516164 ] ] ], [ [ [ 70.332047, -49.563727 ], [ 70.337485, -49.563269 ], [ 70.33758, -49.566735 ], [ 70.332979, -49.565549 ], [ 70.332047, -49.563727 ] ] ], [ [ [ 69.934919, -49.568217 ], [ 69.935495, -49.565787 ], [ 69.940245, -49.566791 ], [ 69.940649, -49.56932 ], [ 69.934919, -49.568217 ] ] ], [ [ [ 69.223305, -49.588732 ], [ 69.223673, -49.585758 ], [ 69.228122, -49.588221 ], [ 69.22578, -49.590966 ], [ 69.223305, -49.588732 ] ] ], [ [ [ 69.219163, -49.595667 ], [ 69.219417, -49.592181 ], [ 69.223367, -49.592219 ], [ 69.223185, -49.595311 ], [ 69.219163, -49.595667 ] ] ], [ [ [ 69.160336, -49.602074 ], [ 69.164855, -49.601307 ], [ 69.164447, -49.604852 ], [ 69.161556, -49.605438 ], [ 69.160336, -49.602074 ] ] ], [ [ [ 70.039619, -49.726382 ], [ 70.040154, -49.724511 ], [ 70.044742, -49.723724 ], [ 70.045385, -49.726889 ], [ 70.039619, -49.726382 ] ] ] ] } }
]
}
