{
"type": "FeatureCollection",
"name": "Gambia",
"crs": { "type": "name", "properties": { "name": "urn:ogc:def:crs:OGC:1.3:CRS84" } },
"features": [
{ "type": "Feature", "properties": { "id": "GM", "CNTR_ID": "GM", "CNTR_NAME": "Gambia", "NAME_ENGL": "Gambia", "ISO3_CODE": "GMB", "FID": "GM" }, "geometry": { "type": "MultiPolygon", "coordinates": [ [ [ [ -16.747044, 13.063666 ], [ -16.754364, 13.072455 ], [ -16.771155, 13.079542 ], [ -16.766174, 13.121192 ], [ -16.772437, 13.131498 ], [ -16.777195, 13.149848 ], [ -16.787025, 13.159458 ], [ -16.782773, 13.187553 ], [ -16.785258, 13.246285 ], [ -16.786592, 13.250283 ], [ -16.791861, 13.266077 ], [ -16.801944, 13.270708 ], [ -16.806759, 13.276184 ], [ -16.803049, 13.301821 ], [ -16.803661, 13.318102 ], [ -16.80704, 13.329809 ], [ -16.813242, 13.338487 ], [ -16.811327, 13.344074 ], [ -16.802452, 13.348671 ], [ -16.798976, 13.358384 ], [ -16.796712, 13.370972 ], [ -16.794055, 13.379415 ], [ -16.768195, 13.389029 ], [ -16.752704, 13.400856 ], [ -16.735676, 13.423289 ], [ -16.722692, 13.449989 ], [ -16.715224, 13.458835 ], [ -16.70646, 13.463126 ], [ -16.692479, 13.475802 ], [ -16.667938, 13.487215 ], [ -16.656819, 13.4746 ], [ -16.640281, 13.474192 ], [ -16.626471, 13.469554 ], [ -16.614735, 13.474341 ], [ -16.607461, 13.469611 ], [ -16.587727, 13.463975 ], [ -16.570145, 13.458954 ], [ -16.536459, 13.503375 ], [ -16.528235, 13.525148 ], [ -16.527603, 13.547801 ], [ -16.530058, 13.557958 ], [ -16.544832, 13.58305 ], [ -16.546668, 13.590911 ], [ -16.526788, 13.590911 ], [ -16.515166, 13.590911 ], [ -16.511089, 13.589032 ], [ -16.509751, 13.578662 ], [ -16.515369, 13.571839 ], [ -16.515205, 13.563298 ], [ -16.511934, 13.553445 ], [ -16.507213, 13.550917 ], [ -16.505004, 13.552 ], [ -16.508403, 13.555758 ], [ -16.510242, 13.570185 ], [ -16.503593, 13.578814 ], [ -16.506775, 13.590911 ], [ -16.497328, 13.590911 ], [ -16.493623, 13.590911 ], [ -16.483427, 13.590924 ], [ -16.440964, 13.59098 ], [ -16.270559, 13.591203 ], [ -16.222573, 13.591264 ], [ -16.167033, 13.591335 ], [ -16.050786, 13.591483 ], [ -16.018653, 13.591524 ], [ -15.807078, 13.591793 ], [ -15.725354, 13.591897 ], [ -15.524197, 13.586926 ], [ -15.479654, 13.582965 ], [ -15.451461, 13.678376 ], [ -15.441355, 13.697661 ], [ -15.426244, 13.726492 ], [ -15.419898, 13.733546 ], [ -15.408536, 13.746175 ], [ -15.386127, 13.762689 ], [ -15.360619, 13.775511 ], [ -15.343523, 13.780816 ], [ -15.306675, 13.784267 ], [ -15.286018, 13.781313 ], [ -15.256695, 13.769833 ], [ -15.224265, 13.74609 ], [ -15.199145, 13.759844 ], [ -15.143704, 13.790198 ], [ -15.125141, 13.798414 ], [ -15.111015, 13.804667 ], [ -15.062737, 13.815684 ], [ -15.041249, 13.815611 ], [ -15.013519, 13.808595 ], [ -14.993455, 13.798615 ], [ -14.952068, 13.806436 ], [ -14.920384, 13.805003 ], [ -14.893878, 13.797787 ], [ -14.851756, 13.778342 ], [ -14.83425, 13.766146 ], [ -14.821885, 13.753509 ], [ -14.809882, 13.733546 ], [ -14.807926, 13.730293 ], [ -14.800463, 13.707601 ], [ -14.798565, 13.679769 ], [ -14.800442, 13.655068 ], [ -14.762154, 13.641375 ], [ -14.736129, 13.632067 ], [ -14.725352, 13.628212 ], [ -14.702146, 13.626539 ], [ -14.6817, 13.621615 ], [ -14.651081, 13.642461 ], [ -14.619089, 13.65247 ], [ -14.613517, 13.654213 ], [ -14.578264, 13.655448 ], [ -14.541179, 13.644231 ], [ -14.518641, 13.63102 ], [ -14.500509, 13.613303 ], [ -14.486485, 13.588977 ], [ -14.475617, 13.553986 ], [ -14.444636, 13.52952 ], [ -14.425326, 13.498827 ], [ -14.397075, 13.486628 ], [ -14.362189, 13.460129 ], [ -14.333152, 13.446715 ], [ -14.290418, 13.458591 ], [ -14.246851, 13.454688 ], [ -14.225433, 13.484346 ], [ -14.204061, 13.502064 ], [ -14.177182, 13.513382 ], [ -14.146427, 13.517355 ], [ -14.128067, 13.529242 ], [ -14.10036, 13.54165 ], [ -14.070204, 13.545908 ], [ -14.031891, 13.540089 ], [ -13.982629, 13.560986 ], [ -13.962259, 13.565689 ], [ -13.937831, 13.565355 ], [ -13.90925, 13.5569 ], [ -13.891022, 13.54575 ], [ -13.876135, 13.531458 ], [ -13.848709, 13.488426 ], [ -13.827566, 13.470508 ], [ -13.810344, 13.445324 ], [ -13.803573, 13.423657 ], [ -13.802661, 13.399233 ], [ -13.808667, 13.373778 ], [ -13.817158, 13.358432 ], [ -13.83786, 13.335846 ], [ -13.85735, 13.324554 ], [ -13.877464, 13.31897 ], [ -13.905559, 13.318022 ], [ -13.953673, 13.33079 ], [ -13.984804, 13.311664 ], [ -14.009553, 13.301366 ], [ -14.061317, 13.297757 ], [ -14.090349, 13.287002 ], [ -14.121191, 13.283983 ], [ -14.137811, 13.261795 ], [ -14.162442, 13.239697 ], [ -14.186346, 13.22906 ], [ -14.206339, 13.225558 ], [ -14.23369, 13.228048 ], [ -14.272156, 13.24385 ], [ -14.307995, 13.237583 ], [ -14.360047, 13.235572 ], [ -14.38901, 13.242468 ], [ -14.413075, 13.254117 ], [ -14.435208, 13.271027 ], [ -14.450205, 13.289129 ], [ -14.45821, 13.294057 ], [ -14.496136, 13.297374 ], [ -14.526085, 13.308995 ], [ -14.548762, 13.327936 ], [ -14.576423, 13.365809 ], [ -14.619089, 13.34802 ], [ -14.624088, 13.345936 ], [ -14.64729, 13.343774 ], [ -14.6817, 13.350498 ], [ -14.699652, 13.358384 ], [ -14.701807, 13.359628 ], [ -14.721771, 13.377347 ], [ -14.736129, 13.397533 ], [ -14.756349, 13.433292 ], [ -14.803367, 13.440761 ], [ -14.837562, 13.456819 ], [ -14.869199, 13.451329 ], [ -14.906629, 13.455508 ], [ -14.934772, 13.466934 ], [ -14.956719, 13.482957 ], [ -14.982508, 13.487681 ], [ -15.004106, 13.49621 ], [ -15.027529, 13.512357 ], [ -15.046339, 13.533435 ], [ -15.059503, 13.558897 ], [ -15.072126, 13.597493 ], [ -15.095143, 13.600328 ], [ -15.122133, 13.582702 ], [ -15.146918, 13.559923 ], [ -15.164015, 13.549233 ], [ -15.188239, 13.54089 ], [ -15.199145, 13.539807 ], [ -15.217316, 13.538003 ], [ -15.211452, 13.512243 ], [ -15.209877, 13.484932 ], [ -15.215003, 13.445098 ], [ -15.225486, 13.416698 ], [ -15.238809, 13.39666 ], [ -15.258114, 13.378448 ], [ -15.275198, 13.367695 ], [ -15.299914, 13.357284 ], [ -15.328734, 13.347505 ], [ -15.353751, 13.345244 ], [ -15.375082, 13.34787 ], [ -15.410202, 13.357639 ], [ -15.441355, 13.370456 ], [ -15.451954, 13.376114 ], [ -15.456335, 13.378453 ], [ -15.482038, 13.397878 ], [ -15.499939, 13.397927 ], [ -15.520749, 13.401443 ], [ -15.533794, 13.388203 ], [ -15.551524, 13.375182 ], [ -15.567883, 13.367355 ], [ -15.588495, 13.360986 ], [ -15.603811, 13.359159 ], [ -15.607761, 13.358688 ], [ -15.629012, 13.359753 ], [ -15.653227, 13.365714 ], [ -15.672761, 13.374534 ], [ -15.688076, 13.370581 ], [ -15.690295, 13.370009 ], [ -15.735343, 13.358384 ], [ -15.739972, 13.357189 ], [ -15.790664, 13.350655 ], [ -15.800866, 13.349131 ], [ -15.802474, 13.346418 ], [ -15.803085, 13.286746 ], [ -15.804053, 13.192156 ], [ -15.80431, 13.167033 ], [ -15.807078, 13.16703 ], [ -16.018653, 13.166825 ], [ -16.050786, 13.166794 ], [ -16.140546, 13.166707 ], [ -16.142781, 13.166707 ], [ -16.167033, 13.166707 ], [ -16.222573, 13.166707 ], [ -16.284863, 13.166707 ], [ -16.416859, 13.166707 ], [ -16.42895, 13.166707 ], [ -16.434536, 13.166707 ], [ -16.483427, 13.166707 ], [ -16.485645, 13.166707 ], [ -16.497328, 13.166706 ], [ -16.526788, 13.166704 ], [ -16.587727, 13.166699 ], [ -16.672468, 13.166693 ], [ -16.676521, 13.162881 ], [ -16.685961, 13.167157 ], [ -16.685905, 13.160547 ], [ -16.69596, 13.158574 ], [ -16.702385, 13.152522 ], [ -16.704633, 13.15314 ], [ -16.707786, 13.154006 ], [ -16.704633, 13.1465 ], [ -16.699551, 13.1344 ], [ -16.704633, 13.129033 ], [ -16.712466, 13.12076 ], [ -16.724268, 13.120264 ], [ -16.723769, 13.115937 ], [ -16.717082, 13.109923 ], [ -16.725436, 13.10697 ], [ -16.730422, 13.112862 ], [ -16.734216, 13.111538 ], [ -16.73516, 13.104261 ], [ -16.725746, 13.097009 ], [ -16.729106, 13.079544 ], [ -16.733372, 13.073732 ], [ -16.735676, 13.073343 ], [ -16.742624, 13.072169 ], [ -16.747044, 13.063666 ] ] ] ] } }
]
}
