{
"type": "FeatureCollection",
"name": "Ghana",
"crs": { "type": "name", "properties": { "name": "urn:ogc:def:crs:OGC:1.3:CRS84" } },
"features": [
{ "type": "Feature", "properties": { "id": "GH", "CNTR_ID": "GH", "CNTR_NAME": "Ghana", "NAME_ENGL": "Ghana", "ISO3_CODE": "GHA", "FID": "GH" }, "geometry": { "type": "MultiPolygon", "coordinates": [ [ [ [ 1.199609, 6.112424 ], [ 1.160107, 6.095508 ], [ 1.147507, 6.090111 ], [ 1.11368, 6.069899 ], [ 1.079942, 6.044499 ], [ 1.058702, 6.020278 ], [ 0.998662, 5.934373 ], [ 0.993578, 5.919974 ], [ 0.995988, 5.896929 ], [ 0.994544, 5.877951 ], [ 0.988203, 5.856873 ], [ 0.972421, 5.827587 ], [ 0.946167, 5.799949 ], [ 0.931641, 5.789541 ], [ 0.919857, 5.785363 ], [ 0.829805, 5.774535 ], [ 0.803735, 5.771197 ], [ 0.718824, 5.769535 ], [ 0.682994, 5.772057 ], [ 0.675125, 5.775708 ], [ 0.67045, 5.77035 ], [ 0.665558, 5.769661 ], [ 0.510864, 5.784902 ], [ 0.442795, 5.788864 ], [ 0.320901, 5.781793 ], [ 0.255031, 5.767014 ], [ 0.243476, 5.758369 ], [ 0.219437, 5.746866 ], [ 0.187529, 5.744236 ], [ 0.177021, 5.740374 ], [ 0.162207, 5.731064 ], [ 0.138841, 5.722262 ], [ 0.124537, 5.707045 ], [ 0.069352, 5.694136 ], [ 0.046171, 5.675332 ], [ 0.041771, 5.66239 ], [ 0.034158, 5.657405 ], [ 0.026929, 5.645874 ], [ 0.017856, 5.641127 ], [ 0.006458, 5.624376 ], [ -0.05774, 5.605703 ], [ -0.074029, 5.589685 ], [ -0.092994, 5.582814 ], [ -0.107045, 5.572771 ], [ -0.203448, 5.540897 ], [ -0.211535, 5.532385 ], [ -0.33004, 5.50642 ], [ -0.36579, 5.494666 ], [ -0.372991, 5.488719 ], [ -0.401851, 5.476006 ], [ -0.40794, 5.463759 ], [ -0.421568, 5.451668 ], [ -0.459703, 5.433568 ], [ -0.466175, 5.42691 ], [ -0.464276, 5.417076 ], [ -0.481602, 5.401275 ], [ -0.489568, 5.385773 ], [ -0.499285, 5.377941 ], [ -0.560114, 5.363832 ], [ -0.565177, 5.362657 ], [ -0.605562, 5.352029 ], [ -0.612432, 5.34746 ], [ -0.624072, 5.331321 ], [ -0.668331, 5.320968 ], [ -0.725673, 5.299127 ], [ -0.730238, 5.292669 ], [ -0.72901, 5.284171 ], [ -0.748017, 5.273629 ], [ -0.755668, 5.264277 ], [ -0.757925, 5.256383 ], [ -0.777238, 5.246308 ], [ -0.782231, 5.237898 ], [ -0.789598, 5.232412 ], [ -0.791221, 5.226486 ], [ -0.813392, 5.214135 ], [ -0.875794, 5.207399 ], [ -1.059428, 5.199121 ], [ -1.087291, 5.195433 ], [ -1.12053, 5.173235 ], [ -1.14805, 5.16435 ], [ -1.1673, 5.145301 ], [ -1.193511, 5.137681 ], [ -1.199989, 5.128494 ], [ -1.213527, 5.11878 ], [ -1.228834, 5.112688 ], [ -1.242177, 5.103044 ], [ -1.300623, 5.098838 ], [ -1.318477, 5.097553 ], [ -1.342706, 5.091444 ], [ -1.350194, 5.08129 ], [ -1.394439, 5.0709 ], [ -1.421175, 5.068005 ], [ -1.436126, 5.064096 ], [ -1.444894, 5.058677 ], [ -1.474007, 5.055593 ], [ -1.506179, 5.04347 ], [ -1.590735, 5.032583 ], [ -1.612734, 5.027036 ], [ -1.627335, 5.017324 ], [ -1.635588, 4.982535 ], [ -1.645671, 4.971396 ], [ -1.687642, 4.963486 ], [ -1.699285, 4.957901 ], [ -1.704611, 4.953409 ], [ -1.708087, 4.943957 ], [ -1.705762, 4.934364 ], [ -1.737809, 4.921281 ], [ -1.742862, 4.914059 ], [ -1.746465, 4.90019 ], [ -1.744475, 4.888981 ], [ -1.747071, 4.880779 ], [ -1.768142, 4.875511 ], [ -1.809563, 4.872496 ], [ -1.814992, 4.866995 ], [ -1.830802, 4.861017 ], [ -1.83734, 4.849372 ], [ -1.867747, 4.844314 ], [ -1.883517, 4.835919 ], [ -1.890488, 4.82827 ], [ -1.913718, 4.825118 ], [ -1.916976, 4.814775 ], [ -1.936548, 4.806763 ], [ -1.94064, 4.795549 ], [ -1.947536, 4.792689 ], [ -1.949054, 4.787936 ], [ -1.971044, 4.769975 ], [ -1.975587, 4.760141 ], [ -2.020274, 4.758465 ], [ -2.045268, 4.752817 ], [ -2.05524, 4.743653 ], [ -2.078992, 4.748547 ], [ -2.091084, 4.740898 ], [ -2.094771, 4.749817 ], [ -2.110443, 4.755728 ], [ -2.112059, 4.765939 ], [ -2.106008, 4.776394 ], [ -2.11238, 4.784284 ], [ -2.148314, 4.797126 ], [ -2.166702, 4.797137 ], [ -2.17565, 4.813306 ], [ -2.201026, 4.822198 ], [ -2.20325, 4.830415 ], [ -2.20976, 4.838924 ], [ -2.244901, 4.855638 ], [ -2.242226, 4.86155 ], [ -2.247989, 4.881222 ], [ -2.255985, 4.887987 ], [ -2.268362, 4.892136 ], [ -2.268485, 4.899911 ], [ -2.323654, 4.922338 ], [ -2.357043, 4.933521 ], [ -2.384253, 4.942635 ], [ -2.483296, 4.965784 ], [ -2.574765, 4.984163 ], [ -2.684721, 5.006257 ], [ -2.929585, 5.055455 ], [ -3.10583, 5.090864 ], [ -3.103908, 5.112675 ], [ -3.077607, 5.113967 ], [ -3.064592, 5.121499 ], [ -3.052104, 5.118273 ], [ -3.018751, 5.118447 ], [ -3.002939, 5.111446 ], [ -2.978736, 5.091185 ], [ -2.956493, 5.087101 ], [ -2.93347, 5.099194 ], [ -2.941308, 5.116611 ], [ -2.937564, 5.124879 ], [ -2.896243, 5.121662 ], [ -2.876219, 5.126979 ], [ -2.862748, 5.122354 ], [ -2.845406, 5.11004 ], [ -2.841135, 5.110735 ], [ -2.837222, 5.117386 ], [ -2.831227, 5.120187 ], [ -2.815003, 5.107259 ], [ -2.775268, 5.110809 ], [ -2.758528, 5.104493 ], [ -2.753086, 5.114927 ], [ -2.740697, 5.118073 ], [ -2.737526, 5.126648 ], [ -2.72846, 5.132788 ], [ -2.72542, 5.139653 ], [ -2.729586, 5.148937 ], [ -2.740471, 5.156351 ], [ -2.743763, 5.167059 ], [ -2.742366, 5.180504 ], [ -2.747729, 5.196899 ], [ -2.75737, 5.204396 ], [ -2.761541, 5.212746 ], [ -2.756766, 5.229402 ], [ -2.762969, 5.241119 ], [ -2.757318, 5.246517 ], [ -2.756035, 5.252273 ], [ -2.771349, 5.260856 ], [ -2.774725, 5.271976 ], [ -2.784143, 5.287053 ], [ -2.781911, 5.29262 ], [ -2.772138, 5.295395 ], [ -2.768663, 5.301926 ], [ -2.767047, 5.318446 ], [ -2.774146, 5.34602 ], [ -2.769352, 5.352861 ], [ -2.765588, 5.354883 ], [ -2.753835, 5.345766 ], [ -2.728302, 5.343921 ], [ -2.726716, 5.346798 ], [ -2.725224, 5.386607 ], [ -2.748421, 5.440185 ], [ -2.767769, 5.545725 ], [ -2.761634, 5.596842 ], [ -2.770907, 5.605292 ], [ -2.772748, 5.614417 ], [ -2.783462, 5.618168 ], [ -2.787693, 5.625787 ], [ -2.798635, 5.624199 ], [ -2.814937, 5.627824 ], [ -2.857051, 5.649605 ], [ -2.895161, 5.628 ], [ -2.914255, 5.623324 ], [ -2.924978, 5.616208 ], [ -2.932449, 5.616433 ], [ -2.9447, 5.630524 ], [ -2.956862, 5.63488 ], [ -2.964274, 5.642031 ], [ -2.956168, 5.713689 ], [ -3.025656, 5.713344 ], [ -3.020789, 5.854464 ], [ -3.072239, 5.989182 ], [ -3.102582, 6.151912 ], [ -3.150566, 6.243797 ], [ -3.171892, 6.25218 ], [ -3.169728, 6.265886 ], [ -3.172079, 6.301488 ], [ -3.233701, 6.537662 ], [ -3.233595, 6.595821 ], [ -3.250858, 6.609396 ], [ -3.254347, 6.61911 ], [ -3.250375, 6.636588 ], [ -3.248716, 6.643887 ], [ -3.228563, 6.66813 ], [ -3.218263, 6.694613 ], [ -3.208246, 6.702876 ], [ -3.196892, 6.718477 ], [ -3.206016, 6.735252 ], [ -3.210126, 6.749982 ], [ -3.223304, 6.761885 ], [ -3.229588, 6.772526 ], [ -3.226962, 6.822046 ], [ -3.09077, 7.047997 ], [ -3.054103, 7.066322 ], [ -3.032537, 7.073856 ], [ -3.022322, 7.143358 ], [ -2.956962, 7.233357 ], [ -2.957579, 7.240069 ], [ -2.975736, 7.270514 ], [ -2.971134, 7.329673 ], [ -2.947432, 7.450932 ], [ -2.931298, 7.500013 ], [ -2.929895, 7.513734 ], [ -2.919837, 7.612131 ], [ -2.863005, 7.739651 ], [ -2.848933, 7.76445 ], [ -2.844184, 7.783352 ], [ -2.826905, 7.805104 ], [ -2.826462, 7.823448 ], [ -2.790163, 7.860838 ], [ -2.778518, 7.946388 ], [ -2.773945, 7.94888 ], [ -2.768543, 7.946993 ], [ -2.753626, 7.927937 ], [ -2.747544, 7.925813 ], [ -2.732124, 7.955544 ], [ -2.697841, 7.991116 ], [ -2.684721, 8.015161 ], [ -2.674646, 8.02526 ], [ -2.623838, 8.038165 ], [ -2.609571, 8.035742 ], [ -2.597355, 8.041606 ], [ -2.584892, 8.060775 ], [ -2.581714, 8.076579 ], [ -2.611847, 8.133769 ], [ -2.60854, 8.149579 ], [ -2.587419, 8.1717 ], [ -2.580452, 8.172113 ], [ -2.565332, 8.166986 ], [ -2.547161, 8.169537 ], [ -2.4943, 8.208657 ], [ -2.585881, 8.78191 ], [ -2.591326, 8.787275 ], [ -2.613698, 8.783681 ], [ -2.628165, 8.794998 ], [ -2.62153, 8.807976 ], [ -2.600356, 8.822142 ], [ -2.598087, 8.830211 ], [ -2.6221, 8.876965 ], [ -2.617392, 8.910151 ], [ -2.618765, 8.9199 ], [ -2.644177, 8.935864 ], [ -2.651559, 8.945653 ], [ -2.657716, 8.982361 ], [ -2.656603, 9.008796 ], [ -2.663742, 9.018201 ], [ -2.673722, 9.023269 ], [ -2.69216, 9.024532 ], [ -2.721156, 9.031752 ], [ -2.732932, 9.030751 ], [ -2.753468, 9.034327 ], [ -2.772473, 9.048508 ], [ -2.778856, 9.061602 ], [ -2.777221, 9.067585 ], [ -2.76509, 9.082109 ], [ -2.761433, 9.092624 ], [ -2.765434, 9.120631 ], [ -2.772722, 9.136647 ], [ -2.771535, 9.143329 ], [ -2.762792, 9.150078 ], [ -2.745319, 9.15347 ], [ -2.733629, 9.160432 ], [ -2.724705, 9.172914 ], [ -2.712625, 9.207342 ], [ -2.69224, 9.225556 ], [ -2.666457, 9.239174 ], [ -2.658659, 9.250751 ], [ -2.660273, 9.261422 ], [ -2.681427, 9.283856 ], [ -2.700417, 9.286437 ], [ -2.711635, 9.292898 ], [ -2.716701, 9.300096 ], [ -2.720747, 9.314864 ], [ -2.718777, 9.33331 ], [ -2.702565, 9.341195 ], [ -2.684005, 9.358755 ], [ -2.677577, 9.368631 ], [ -2.67464, 9.380042 ], [ -2.677176, 9.406385 ], [ -2.688552, 9.436116 ], [ -2.689486, 9.453785 ], [ -2.68475, 9.4805 ], [ -2.686919, 9.490736 ], [ -2.701219, 9.511758 ], [ -2.713438, 9.523013 ], [ -2.732396, 9.531559 ], [ -2.755196, 9.551138 ], [ -2.768062, 9.56948 ], [ -2.770869, 9.579664 ], [ -2.770819, 9.59904 ], [ -2.760622, 9.61845 ], [ -2.748496, 9.633745 ], [ -2.74679, 9.641558 ], [ -2.753643, 9.655058 ], [ -2.755291, 9.664414 ], [ -2.757998, 9.679779 ], [ -2.780144, 9.688799 ], [ -2.786402, 9.699015 ], [ -2.783434, 9.725303 ], [ -2.788109, 9.747212 ], [ -2.77753, 9.758929 ], [ -2.757154, 9.80092 ], [ -2.749295, 9.808065 ], [ -2.732317, 9.816492 ], [ -2.727117, 9.827978 ], [ -2.730838, 9.838894 ], [ -2.748916, 9.859266 ], [ -2.761272, 9.885413 ], [ -2.762119, 9.917703 ], [ -2.755383, 9.934684 ], [ -2.745217, 9.948404 ], [ -2.743477, 9.961642 ], [ -2.750303, 9.981668 ], [ -2.763242, 9.994611 ], [ -2.770286, 10.005126 ], [ -2.775405, 10.012768 ], [ -2.781266, 10.028213 ], [ -2.782522, 10.045774 ], [ -2.790092, 10.071774 ], [ -2.788361, 10.094047 ], [ -2.792763, 10.124325 ], [ -2.787603, 10.142835 ], [ -2.79677, 10.193672 ], [ -2.790438, 10.204097 ], [ -2.760972, 10.227708 ], [ -2.756925, 10.238664 ], [ -2.757359, 10.251552 ], [ -2.76039, 10.259758 ], [ -2.766758, 10.265782 ], [ -2.797693, 10.2767 ], [ -2.833093, 10.296436 ], [ -2.841656, 10.304586 ], [ -2.849265, 10.319037 ], [ -2.842349, 10.344431 ], [ -2.841223, 10.365535 ], [ -2.831299, 10.386848 ], [ -2.817847, 10.397376 ], [ -2.799007, 10.399029 ], [ -2.782085, 10.4077 ], [ -2.776343, 10.413442 ], [ -2.774569, 10.421757 ], [ -2.779965, 10.426125 ], [ -2.833622, 10.43803 ], [ -2.864607, 10.454634 ], [ -2.872024, 10.467127 ], [ -2.871341, 10.48102 ], [ -2.874822, 10.490958 ], [ -2.898439, 10.521388 ], [ -2.898747, 10.540958 ], [ -2.902515, 10.552052 ], [ -2.911169, 10.564677 ], [ -2.925893, 10.597663 ], [ -2.929585, 10.60228 ], [ -2.940532, 10.61597 ], [ -2.938398, 10.641165 ], [ -2.931162, 10.651907 ], [ -2.929585, 10.653298 ], [ -2.91261, 10.668262 ], [ -2.906064, 10.68672 ], [ -2.911846, 10.700091 ], [ -2.929585, 10.706034 ], [ -2.938384, 10.708982 ], [ -2.937519, 10.72103 ], [ -2.929585, 10.72757 ], [ -2.917165, 10.737807 ], [ -2.895683, 10.764461 ], [ -2.890871, 10.782526 ], [ -2.88072, 10.804408 ], [ -2.878582, 10.83181 ], [ -2.863806, 10.857829 ], [ -2.866207, 10.875377 ], [ -2.864373, 10.886199 ], [ -2.858199, 10.891171 ], [ -2.837506, 10.893954 ], [ -2.817747, 10.92452 ], [ -2.819521, 10.942231 ], [ -2.840011, 10.96658 ], [ -2.833605, 10.998562 ], [ -2.724579, 10.999328 ], [ -2.69806, 10.987203 ], [ -2.684721, 10.987313 ], [ -2.607082, 10.987951 ], [ -2.593119, 10.998337 ], [ -2.58752, 10.999349 ], [ -2.574765, 10.99936 ], [ -2.357043, 10.999549 ], [ -1.750295, 11.000075 ], [ -1.746354, 10.999153 ], [ -1.742989, 10.991741 ], [ -1.693415, 10.991848 ], [ -1.690504, 10.992585 ], [ -1.686716, 11.000021 ], [ -1.58819, 11.000696 ], [ -1.586403, 11.018333 ], [ -1.583994, 11.020105 ], [ -1.472091, 11.02117 ], [ -1.451963, 11.013714 ], [ -1.444668, 11.019041 ], [ -1.442618, 11.028656 ], [ -1.436247, 11.030059 ], [ -1.423504, 11.015251 ], [ -1.389806, 10.987711 ], [ -1.312169, 10.992375 ], [ -1.300623, 10.991967 ], [ -1.118917, 10.985546 ], [ -1.116389, 10.987115 ], [ -1.115798, 11.002041 ], [ -1.113393, 11.003814 ], [ -1.008114, 11.003453 ], [ -1.003861, 10.994207 ], [ -1.000543, 10.993239 ], [ -0.974838, 10.993403 ], [ -0.957104, 10.999956 ], [ -0.920015, 11.000129 ], [ -0.916895, 10.998501 ], [ -0.915936, 10.981239 ], [ -0.892242, 10.979633 ], [ -0.889486, 10.969525 ], [ -0.893079, 10.965524 ], [ -0.891154, 10.964312 ], [ -0.8705, 10.967742 ], [ -0.857055, 10.996495 ], [ -0.831869, 10.997647 ], [ -0.82865, 11.00584 ], [ -0.81462, 11.006047 ], [ -0.807998, 10.998653 ], [ -0.686095, 10.998167 ], [ -0.685913, 10.987276 ], [ -0.679776, 10.982805 ], [ -0.671482, 10.989721 ], [ -0.655234, 10.987418 ], [ -0.653692, 10.979679 ], [ -0.65705, 10.975191 ], [ -0.664672, 10.972752 ], [ -0.670658, 10.959511 ], [ -0.662166, 10.956308 ], [ -0.653101, 10.962848 ], [ -0.645805, 10.955604 ], [ -0.645878, 10.948342 ], [ -0.626557, 10.939254 ], [ -0.619306, 10.91145 ], [ -0.614771, 10.904574 ], [ -0.599136, 10.915991 ], [ -0.59369, 10.939993 ], [ -0.585093, 10.961301 ], [ -0.568761, 10.993757 ], [ -0.565177, 10.993732 ], [ -0.560114, 10.989026 ], [ -0.55446, 10.98377 ], [ -0.550974, 10.976071 ], [ -0.546125, 10.973845 ], [ -0.529814, 10.995019 ], [ -0.520427, 10.989313 ], [ -0.503937, 10.990123 ], [ -0.494102, 10.998391 ], [ -0.483645, 11.013225 ], [ -0.467374, 11.016887 ], [ -0.458731, 11.026289 ], [ -0.439668, 11.03107 ], [ -0.416683, 11.031129 ], [ -0.414085, 11.043345 ], [ -0.423149, 11.062863 ], [ -0.420999, 11.099678 ], [ -0.41621, 11.11139 ], [ -0.400301, 11.11943 ], [ -0.377957, 11.117587 ], [ -0.37268, 11.085365 ], [ -0.363011, 11.070141 ], [ -0.358724, 11.070647 ], [ -0.354889, 11.074525 ], [ -0.353618, 11.083765 ], [ -0.339706, 11.088555 ], [ -0.334006, 11.10805 ], [ -0.320098, 11.114747 ], [ -0.27843, 11.122672 ], [ -0.270958, 11.126936 ], [ -0.272466, 11.137497 ], [ -0.288349, 11.14753 ], [ -0.282787, 11.164427 ], [ -0.14201, 11.138979 ], [ -0.146964, 11.113608 ], [ -0.14492, 11.104109 ], [ -0.127301, 11.100285 ], [ -0.111775, 11.090529 ], [ -0.094631, 11.08885 ], [ -0.074144, 11.092558 ], [ -0.036353, 11.104992 ], [ -0.004047, 11.105071 ], [ 0.010922, 11.100034 ], [ 0.022681, 11.080692 ], [ 0.027211, 11.008096 ], [ 0.03413, 10.990143 ], [ 0.032704, 10.979869 ], [ 0.00953, 10.964736 ], [ -0.001223, 10.962831 ], [ -0.005794, 10.958738 ], [ -0.006538, 10.945613 ], [ -0.010976, 10.937453 ], [ -0.007294, 10.915065 ], [ -0.024809, 10.879524 ], [ -0.028716, 10.859406 ], [ -0.029028, 10.849476 ], [ -0.02354, 10.834012 ], [ -0.022597, 10.820245 ], [ -0.031121, 10.807396 ], [ -0.040976, 10.801326 ], [ -0.04624, 10.792545 ], [ -0.056934, 10.785254 ], [ -0.069955, 10.767862 ], [ -0.07484, 10.756062 ], [ -0.071405, 10.74024 ], [ -0.073405, 10.719952 ], [ -0.086466, 10.714242 ], [ -0.089944, 10.709361 ], [ -0.071973, 10.672987 ], [ -0.069919, 10.658672 ], [ -0.059693, 10.632498 ], [ -0.017541, 10.621951 ], [ -0.01101, 10.614961 ], [ 0.038958, 10.600329 ], [ 0.056376, 10.581541 ], [ 0.062864, 10.560246 ], [ 0.116916, 10.539741 ], [ 0.130195, 10.529854 ], [ 0.143253, 10.524711 ], [ 0.152864, 10.49435 ], [ 0.153631, 10.484039 ], [ 0.161412, 10.472231 ], [ 0.16034, 10.467127 ], [ 0.158974, 10.460631 ], [ 0.173815, 10.446401 ], [ 0.170955, 10.437518 ], [ 0.173332, 10.426734 ], [ 0.185871, 10.418642 ], [ 0.194642, 10.401382 ], [ 0.209005, 10.404171 ], [ 0.208254, 10.415103 ], [ 0.218917, 10.422707 ], [ 0.236781, 10.410748 ], [ 0.244582, 10.412271 ], [ 0.25748, 10.40576 ], [ 0.264846, 10.407123 ], [ 0.275359, 10.418167 ], [ 0.287798, 10.417845 ], [ 0.291762, 10.408537 ], [ 0.298388, 10.406866 ], [ 0.30128, 10.400193 ], [ 0.301971, 10.390972 ], [ 0.2945, 10.38015 ], [ 0.294871, 10.374831 ], [ 0.307596, 10.368478 ], [ 0.313453, 10.361942 ], [ 0.319924, 10.33605 ], [ 0.332025, 10.336085 ], [ 0.338029, 10.326524 ], [ 0.3363, 10.321104 ], [ 0.325853, 10.316328 ], [ 0.322602, 10.308287 ], [ 0.347414, 10.305913 ], [ 0.353969, 10.311293 ], [ 0.36455, 10.309228 ], [ 0.389691, 10.314343 ], [ 0.396336, 10.310661 ], [ 0.396411, 10.304383 ], [ 0.38502, 10.300228 ], [ 0.370628, 10.284196 ], [ 0.372554, 10.280281 ], [ 0.379657, 10.277309 ], [ 0.38121, 10.272077 ], [ 0.364847, 10.262623 ], [ 0.362342, 10.258321 ], [ 0.36054, 10.221943 ], [ 0.352471, 10.191586 ], [ 0.354034, 10.179562 ], [ 0.351626, 10.16646 ], [ 0.362533, 10.144002 ], [ 0.363479, 10.135356 ], [ 0.353702, 10.109326 ], [ 0.353324, 10.101772 ], [ 0.355236, 10.092611 ], [ 0.360441, 10.0864 ], [ 0.394569, 10.079484 ], [ 0.411473, 10.065492 ], [ 0.416672, 10.05677 ], [ 0.412855, 10.04517 ], [ 0.412014, 10.025346 ], [ 0.408768, 10.020412 ], [ 0.40193, 10.019339 ], [ 0.391378, 10.02437 ], [ 0.374779, 10.025906 ], [ 0.364566, 10.031306 ], [ 0.360338, 10.028797 ], [ 0.362774, 10.010989 ], [ 0.357491, 9.995675 ], [ 0.359357, 9.984157 ], [ 0.367742, 9.965332 ], [ 0.384796, 9.948123 ], [ 0.386487, 9.93851 ], [ 0.381829, 9.933581 ], [ 0.3608, 9.927506 ], [ 0.355156, 9.918759 ], [ 0.351582, 9.897367 ], [ 0.356145, 9.864352 ], [ 0.357019, 9.843267 ], [ 0.351799, 9.826416 ], [ 0.343115, 9.815028 ], [ 0.340653, 9.803105 ], [ 0.33249, 9.793335 ], [ 0.33565, 9.776878 ], [ 0.328285, 9.769678 ], [ 0.329903, 9.754953 ], [ 0.321208, 9.725178 ], [ 0.325095, 9.72074 ], [ 0.338514, 9.718829 ], [ 0.345274, 9.714412 ], [ 0.352171, 9.690939 ], [ 0.352361, 9.675361 ], [ 0.362269, 9.671244 ], [ 0.370018, 9.651148 ], [ 0.381748, 9.640797 ], [ 0.374464, 9.606211 ], [ 0.38356, 9.586318 ], [ 0.374763, 9.577096 ], [ 0.356824, 9.569272 ], [ 0.335924, 9.574352 ], [ 0.321574, 9.571801 ], [ 0.291152, 9.572688 ], [ 0.267874, 9.564409 ], [ 0.251259, 9.571935 ], [ 0.243641, 9.571112 ], [ 0.238484, 9.54063 ], [ 0.245665, 9.523078 ], [ 0.258369, 9.518838 ], [ 0.283462, 9.52373 ], [ 0.294063, 9.522608 ], [ 0.310078, 9.513606 ], [ 0.313767, 9.505503 ], [ 0.309731, 9.499504 ], [ 0.288857, 9.487007 ], [ 0.278071, 9.485909 ], [ 0.269786, 9.477217 ], [ 0.256792, 9.476581 ], [ 0.239605, 9.484699 ], [ 0.232955, 9.485218 ], [ 0.229964, 9.479531 ], [ 0.231842, 9.462699 ], [ 0.246387, 9.445689 ], [ 0.250324, 9.436528 ], [ 0.265971, 9.428589 ], [ 0.284796, 9.429323 ], [ 0.319134, 9.44572 ], [ 0.336857, 9.450701 ], [ 0.34951, 9.472288 ], [ 0.345686, 9.485439 ], [ 0.359626, 9.497755 ], [ 0.387554, 9.490947 ], [ 0.406503, 9.493107 ], [ 0.4141, 9.498619 ], [ 0.438362, 9.495056 ], [ 0.453444, 9.497406 ], [ 0.463907, 9.489717 ], [ 0.48016, 9.484771 ], [ 0.487203, 9.486185 ], [ 0.499564, 9.474367 ], [ 0.503313, 9.463692 ], [ 0.494086, 9.448598 ], [ 0.499021, 9.437809 ], [ 0.51816, 9.438307 ], [ 0.523987, 9.430778 ], [ 0.550607, 9.422105 ], [ 0.55378, 9.412424 ], [ 0.563819, 9.402644 ], [ 0.55118, 9.354815 ], [ 0.544975, 9.343074 ], [ 0.549097, 9.323594 ], [ 0.554803, 9.316772 ], [ 0.553606, 9.305342 ], [ 0.549909, 9.301799 ], [ 0.537328, 9.302243 ], [ 0.503858, 9.254934 ], [ 0.529921, 9.205261 ], [ 0.519636, 9.190484 ], [ 0.50941, 9.164296 ], [ 0.501334, 9.154602 ], [ 0.490773, 9.155453 ], [ 0.47581, 9.144703 ], [ 0.484146, 9.115109 ], [ 0.483174, 9.103443 ], [ 0.481071, 9.099535 ], [ 0.47232, 9.097112 ], [ 0.46586, 9.090465 ], [ 0.459866, 9.069062 ], [ 0.463086, 9.065046 ], [ 0.462949, 9.057162 ], [ 0.456252, 9.054842 ], [ 0.454685, 9.04964 ], [ 0.455329, 9.036869 ], [ 0.467534, 9.018566 ], [ 0.467118, 9.006592 ], [ 0.491258, 8.957459 ], [ 0.504808, 8.948984 ], [ 0.51072, 8.937206 ], [ 0.507416, 8.917871 ], [ 0.509074, 8.904436 ], [ 0.523328, 8.880871 ], [ 0.518285, 8.868435 ], [ 0.519819, 8.857214 ], [ 0.516696, 8.85266 ], [ 0.510007, 8.852188 ], [ 0.496192, 8.840117 ], [ 0.498875, 8.829933 ], [ 0.49522, 8.822062 ], [ 0.497133, 8.814693 ], [ 0.487926, 8.800544 ], [ 0.471493, 8.798564 ], [ 0.466585, 8.79374 ], [ 0.458599, 8.801993 ], [ 0.455941, 8.810454 ], [ 0.450973, 8.812296 ], [ 0.442486, 8.80244 ], [ 0.431723, 8.797203 ], [ 0.431697, 8.794625 ], [ 0.438881, 8.794606 ], [ 0.44136, 8.789416 ], [ 0.427736, 8.781273 ], [ 0.417107, 8.792517 ], [ 0.392441, 8.793521 ], [ 0.381611, 8.790768 ], [ 0.381226, 8.771234 ], [ 0.385729, 8.766817 ], [ 0.398776, 8.763213 ], [ 0.400563, 8.759668 ], [ 0.39541, 8.754754 ], [ 0.379611, 8.753501 ], [ 0.383819, 8.745823 ], [ 0.38199, 8.739094 ], [ 0.39683, 8.71536 ], [ 0.47152, 8.595883 ], [ 0.477094, 8.59369 ], [ 0.483263, 8.596739 ], [ 0.491088, 8.595949 ], [ 0.499408, 8.573987 ], [ 0.510277, 8.564084 ], [ 0.519438, 8.5627 ], [ 0.529604, 8.56867 ], [ 0.537394, 8.55659 ], [ 0.558601, 8.549498 ], [ 0.568482, 8.533446 ], [ 0.569406, 8.525937 ], [ 0.58243, 8.525398 ], [ 0.590295, 8.516892 ], [ 0.601267, 8.517887 ], [ 0.619138, 8.51299 ], [ 0.626329, 8.508595 ], [ 0.624633, 8.503063 ], [ 0.627161, 8.498954 ], [ 0.638167, 8.498317 ], [ 0.6433, 8.494741 ], [ 0.643391, 8.479074 ], [ 0.653685, 8.46005 ], [ 0.650809, 8.454453 ], [ 0.650574, 8.428711 ], [ 0.665486, 8.424615 ], [ 0.678018, 8.416901 ], [ 0.685154, 8.416478 ], [ 0.693751, 8.401694 ], [ 0.704239, 8.400672 ], [ 0.699384, 8.395771 ], [ 0.709799, 8.386663 ], [ 0.710384, 8.359145 ], [ 0.719691, 8.355334 ], [ 0.730431, 8.345801 ], [ 0.733144, 8.322139 ], [ 0.731045, 8.291825 ], [ 0.726532, 8.285273 ], [ 0.718866, 8.282591 ], [ 0.684286, 8.2824 ], [ 0.678539, 8.278666 ], [ 0.67545, 8.268749 ], [ 0.670641, 8.263799 ], [ 0.658414, 8.25917 ], [ 0.638625, 8.258254 ], [ 0.636181, 8.246951 ], [ 0.624864, 8.23808 ], [ 0.624821, 8.228589 ], [ 0.61822, 8.216138 ], [ 0.591576, 8.209598 ], [ 0.5879, 8.206565 ], [ 0.587365, 8.1979 ], [ 0.590248, 8.192309 ], [ 0.60166, 8.181883 ], [ 0.610975, 8.181758 ], [ 0.60663, 8.171839 ], [ 0.605583, 8.145714 ], [ 0.591396, 8.137779 ], [ 0.589717, 8.107205 ], [ 0.58438, 8.101981 ], [ 0.583614, 8.093925 ], [ 0.590702, 8.060775 ], [ 0.598466, 8.024455 ], [ 0.595005, 7.993705 ], [ 0.597486, 7.98698 ], [ 0.596797, 7.973585 ], [ 0.600455, 7.956253 ], [ 0.609126, 7.944501 ], [ 0.623538, 7.868316 ], [ 0.623915, 7.866319 ], [ 0.622391, 7.845743 ], [ 0.618169, 7.840633 ], [ 0.61745, 7.800827 ], [ 0.61917, 7.797132 ], [ 0.62805, 7.795003 ], [ 0.632369, 7.778043 ], [ 0.62985, 7.768649 ], [ 0.621032, 7.76308 ], [ 0.612178, 7.752188 ], [ 0.619656, 7.746495 ], [ 0.631236, 7.707717 ], [ 0.623518, 7.705414 ], [ 0.609239, 7.7102 ], [ 0.594676, 7.701826 ], [ 0.587193, 7.627179 ], [ 0.553589, 7.610363 ], [ 0.540499, 7.608612 ], [ 0.522269, 7.593906 ], [ 0.528925, 7.5906 ], [ 0.530038, 7.583981 ], [ 0.525808, 7.525976 ], [ 0.520809, 7.51608 ], [ 0.521335, 7.513734 ], [ 0.527748, 7.485148 ], [ 0.521664, 7.473418 ], [ 0.521259, 7.458061 ], [ 0.532344, 7.457838 ], [ 0.533509, 7.441226 ], [ 0.53828, 7.433928 ], [ 0.538369, 7.424845 ], [ 0.567699, 7.395647 ], [ 0.575044, 7.393903 ], [ 0.594813, 7.398419 ], [ 0.601514, 7.405717 ], [ 0.606494, 7.405428 ], [ 0.618536, 7.412076 ], [ 0.625022, 7.410087 ], [ 0.630569, 7.403055 ], [ 0.642678, 7.399819 ], [ 0.647349, 7.379151 ], [ 0.647915, 7.3605 ], [ 0.658416, 7.318712 ], [ 0.650476, 7.292076 ], [ 0.644659, 7.286571 ], [ 0.637309, 7.22555 ], [ 0.632482, 7.217802 ], [ 0.629195, 7.196272 ], [ 0.624774, 7.186136 ], [ 0.616411, 7.18172 ], [ 0.616814, 7.161945 ], [ 0.613558, 7.157561 ], [ 0.60611, 7.157411 ], [ 0.605795, 7.142317 ], [ 0.597615, 7.133191 ], [ 0.592995, 7.114223 ], [ 0.61311, 7.101508 ], [ 0.611547, 7.087118 ], [ 0.596512, 7.060986 ], [ 0.601004, 7.026373 ], [ 0.592328, 7.012209 ], [ 0.594024, 7.006408 ], [ 0.579207, 6.99533 ], [ 0.569078, 6.996745 ], [ 0.547341, 6.990949 ], [ 0.533188, 6.977245 ], [ 0.52347, 6.973858 ], [ 0.520948, 6.948449 ], [ 0.523397, 6.941961 ], [ 0.547345, 6.935877 ], [ 0.550121, 6.93072 ], [ 0.561714, 6.926201 ], [ 0.56485, 6.920197 ], [ 0.557348, 6.886374 ], [ 0.552182, 6.881706 ], [ 0.535258, 6.876404 ], [ 0.542995, 6.863539 ], [ 0.532785, 6.854758 ], [ 0.533996, 6.829087 ], [ 0.54116, 6.826202 ], [ 0.549738, 6.83285 ], [ 0.566875, 6.821995 ], [ 0.569512, 6.811648 ], [ 0.579735, 6.807266 ], [ 0.577652, 6.800511 ], [ 0.569177, 6.800902 ], [ 0.567139, 6.785439 ], [ 0.576143, 6.776815 ], [ 0.573838, 6.773432 ], [ 0.580015, 6.764476 ], [ 0.600568, 6.757066 ], [ 0.608164, 6.748624 ], [ 0.621563, 6.753019 ], [ 0.626592, 6.747479 ], [ 0.63606, 6.746737 ], [ 0.649774, 6.737355 ], [ 0.642759, 6.722715 ], [ 0.647818, 6.710232 ], [ 0.643579, 6.695598 ], [ 0.643083, 6.659874 ], [ 0.638287, 6.64851 ], [ 0.638568, 6.636257 ], [ 0.647781, 6.626954 ], [ 0.656643, 6.60938 ], [ 0.66548, 6.607578 ], [ 0.673562, 6.613432 ], [ 0.689189, 6.600032 ], [ 0.686847, 6.594817 ], [ 0.689601, 6.591937 ], [ 0.709807, 6.587053 ], [ 0.727421, 6.590894 ], [ 0.740126, 6.582735 ], [ 0.74321, 6.558785 ], [ 0.726751, 6.546444 ], [ 0.713294, 6.529404 ], [ 0.720103, 6.500013 ], [ 0.727424, 6.488616 ], [ 0.743998, 6.480321 ], [ 0.749025, 6.443417 ], [ 0.780536, 6.432113 ], [ 0.789351, 6.409078 ], [ 0.829805, 6.399193 ], [ 0.856669, 6.383669 ], [ 0.858683, 6.380333 ], [ 0.868934, 6.371279 ], [ 0.873862, 6.367505 ], [ 0.87863, 6.358387 ], [ 0.884602, 6.354806 ], [ 0.88819, 6.347682 ], [ 0.888779, 6.341478 ], [ 0.892484, 6.337541 ], [ 0.893965, 6.333287 ], [ 1.005281, 6.332635 ], [ 1.009403, 6.325033 ], [ 1.008081, 6.312492 ], [ 1.006443, 6.309424 ], [ 1.008143, 6.303241 ], [ 1.008545, 6.292066 ], [ 1.016578, 6.28458 ], [ 1.018485, 6.271394 ], [ 1.024298, 6.25749 ], [ 1.024381, 6.254143 ], [ 1.031066, 6.247341 ], [ 1.038885, 6.235794 ], [ 1.046965, 6.232515 ], [ 1.054938, 6.231336 ], [ 1.065729, 6.219147 ], [ 1.069068, 6.207304 ], [ 1.083365, 6.187695 ], [ 1.083517, 6.171341 ], [ 1.08535, 6.168241 ], [ 1.160107, 6.168417 ], [ 1.180848, 6.168466 ], [ 1.200201, 6.168512 ], [ 1.199609, 6.112424 ] ] ], [ [ [ -2.171894, 4.793852 ], [ -2.170782, 4.79646 ], [ -2.166775, 4.79587 ], [ -2.168169, 4.789636 ], [ -2.171894, 4.793852 ] ] ] ] } }
]
}
