{
"type": "FeatureCollection",
"name": "Gibraltar",
"crs": { "type": "name", "properties": { "name": "urn:ogc:def:crs:OGC:1.3:CRS84" } },
"features": [
{ "type": "Feature", "properties": { "id": "GI", "CNTR_ID": "GI", "CNTR_NAME": "Gibraltar", "NAME_ENGL": "Gibraltar", "ISO3_CODE": "GIB", "FID": "GI" }, "geometry": { "type": "MultiPolygon", "coordinates": [ [ [ [ -5.351522, 36.152569 ], [ -5.34401, 36.152633 ], [ -5.339225, 36.152035 ], [ -5.341264, 36.124675 ], [ -5.348051, 36.11354 ], [ -5.355907, 36.125219 ], [ -5.359482, 36.145782 ], [ -5.35877, 36.149667 ], [ -5.351522, 36.152569 ] ] ] ] } }
]
}
