{
"type": "FeatureCollection",
"name": "Grenada",
"crs": { "type": "name", "properties": { "name": "urn:ogc:def:crs:OGC:1.3:CRS84" } },
"features": [
{ "type": "Feature", "properties": { "id": "GD", "CNTR_ID": "GD", "CNTR_NAME": "Grenada", "NAME_ENGL": "Grenada", "ISO3_CODE": "GRD", "FID": "GD" }, "geometry": { "type": "MultiPolygon", "coordinates": [ [ [ [ -61.798254, 12.004389 ], [ -61.797817, 12.005101 ], [ -61.755316, 12.029828 ], [ -61.750496, 12.047422 ], [ -61.755551, 12.050697 ], [ -61.75658, 12.063828 ], [ -61.752663, 12.073031 ], [ -61.762158, 12.085848 ], [ -61.753287, 12.097208 ], [ -61.752115, 12.104938 ], [ -61.747243, 12.108867 ], [ -61.747243, 12.112081 ], [ -61.752397, 12.121041 ], [ -61.742402, 12.143723 ], [ -61.734816, 12.152065 ], [ -61.723467, 12.183538 ], [ -61.715625, 12.191792 ], [ -61.704062, 12.197346 ], [ -61.697522, 12.208239 ], [ -61.660448, 12.23448 ], [ -61.643809, 12.225593 ], [ -61.621302, 12.229969 ], [ -61.610541, 12.227337 ], [ -61.606044, 12.222893 ], [ -61.610202, 12.208239 ], [ -61.603088, 12.191181 ], [ -61.60243, 12.169994 ], [ -61.605644, 12.163937 ], [ -61.609631, 12.136245 ], [ -61.608335, 12.128297 ], [ -61.606062, 12.124365 ], [ -61.619637, 12.123524 ], [ -61.626224, 12.112387 ], [ -61.625385, 12.094472 ], [ -61.618936, 12.077256 ], [ -61.626199, 12.073798 ], [ -61.625631, 12.063289 ], [ -61.636233, 12.053773 ], [ -61.637444, 12.044416 ], [ -61.642755, 12.040183 ], [ -61.64823, 12.040159 ], [ -61.647351, 12.033479 ], [ -61.654288, 12.030498 ], [ -61.655973, 12.026602 ], [ -61.663179, 12.026762 ], [ -61.663024, 12.022925 ], [ -61.666996, 12.020415 ], [ -61.671584, 12.023189 ], [ -61.674642, 12.018281 ], [ -61.678984, 12.021213 ], [ -61.686383, 12.015688 ], [ -61.708122, 12.015423 ], [ -61.706662, 12.01183 ], [ -61.700448, 12.012009 ], [ -61.697204, 12.008887 ], [ -61.700811, 12.006804 ], [ -61.702314, 12.009484 ], [ -61.70676, 12.009622 ], [ -61.710146, 12.012086 ], [ -61.711621, 12.010924 ], [ -61.706355, 12.003359 ], [ -61.708976, 11.997228 ], [ -61.716698, 12.011262 ], [ -61.723806, 12.013719 ], [ -61.724174, 12.010562 ], [ -61.718746, 12.007675 ], [ -61.719071, 12.002373 ], [ -61.726517, 12.00322 ], [ -61.738629, 12.012863 ], [ -61.73919, 12.006633 ], [ -61.747243, 11.997266 ], [ -61.748311, 12.000293 ], [ -61.747243, 12.005165 ], [ -61.752426, 12.00442 ], [ -61.753389, 11.993016 ], [ -61.758876, 11.989517 ], [ -61.758881, 11.999925 ], [ -61.764207, 12.005594 ], [ -61.767626, 11.998855 ], [ -61.782006, 12.002804 ], [ -61.786855, 12.000156 ], [ -61.797629, 12.003507 ], [ -61.798254, 12.004389 ] ] ], [ [ [ -61.59632, 12.299072 ], [ -61.586997, 12.310217 ], [ -61.586384, 12.313895 ], [ -61.588529, 12.317419 ], [ -61.585325, 12.318488 ], [ -61.585053, 12.316042 ], [ -61.580991, 12.314194 ], [ -61.578027, 12.315076 ], [ -61.57685, 12.313202 ], [ -61.581087, 12.311842 ], [ -61.582103, 12.308079 ], [ -61.57882, 12.302758 ], [ -61.58212, 12.298926 ], [ -61.584572, 12.291989 ], [ -61.590026, 12.296574 ], [ -61.59632, 12.299072 ] ] ], [ [ [ -61.58792, 12.28739 ], [ -61.586216, 12.28977 ], [ -61.582214, 12.288911 ], [ -61.576242, 12.291059 ], [ -61.5755, 12.287202 ], [ -61.579182, 12.287067 ], [ -61.583047, 12.28219 ], [ -61.585676, 12.283434 ], [ -61.58792, 12.28739 ] ] ], [ [ [ -61.742066, 11.998587 ], [ -61.738653, 12.001991 ], [ -61.737715, 12.00528 ], [ -61.735563, 12.00324 ], [ -61.736773, 11.996248 ], [ -61.742066, 11.998587 ] ] ], [ [ [ -61.556553, 12.314443 ], [ -61.554158, 12.318826 ], [ -61.551786, 12.318283 ], [ -61.552649, 12.316172 ], [ -61.548753, 12.314708 ], [ -61.551055, 12.312727 ], [ -61.556553, 12.314443 ] ] ], [ [ [ -61.728367, 11.995224 ], [ -61.727928, 11.998992 ], [ -61.724999, 12.000337 ], [ -61.72562, 11.99484 ], [ -61.723986, 11.991842 ], [ -61.726268, 11.99152 ], [ -61.728367, 11.995224 ] ] ], [ [ [ -61.589498, 12.226316 ], [ -61.583314, 12.222849 ], [ -61.58575, 12.219246 ], [ -61.588988, 12.223031 ], [ -61.589498, 12.226316 ] ] ], [ [ [ -61.597023, 12.227902 ], [ -61.596972, 12.229926 ], [ -61.593278, 12.231473 ], [ -61.591061, 12.229312 ], [ -61.595128, 12.225663 ], [ -61.597023, 12.227902 ] ] ], [ [ [ -61.608945, 12.229473 ], [ -61.606472, 12.233367 ], [ -61.604228, 12.23284 ], [ -61.604376, 12.226502 ], [ -61.608945, 12.229473 ] ] ], [ [ [ -61.585828, 12.327364 ], [ -61.583366, 12.330852 ], [ -61.580718, 12.329118 ], [ -61.581728, 12.325227 ], [ -61.584514, 12.324777 ], [ -61.585828, 12.327364 ] ] ], [ [ [ -61.548774, 12.314758 ], [ -61.54651, 12.317929 ], [ -61.543119, 12.317526 ], [ -61.543458, 12.316296 ], [ -61.546159, 12.314095 ], [ -61.548774, 12.314758 ] ] ] ] } }
]
}
