{
"type": "FeatureCollection",
"name": "Guatemala",
"crs": { "type": "name", "properties": { "name": "urn:ogc:def:crs:OGC:1.3:CRS84" } },
"features": [
{ "type": "Feature", "properties": { "id": "GT", "CNTR_ID": "GT", "CNTR_NAME": "Guatemala", "NAME_ENGL": "Guatemala", "ISO3_CODE": "GTM", "FID": "GT" }, "geometry": { "type": "MultiPolygon", "coordinates": [ [ [ [ -88.91278, 15.900129 ], [ -88.881679, 15.862769 ], [ -88.863372, 15.861142 ], [ -88.851849, 15.865391 ], [ -88.838841, 15.865103 ], [ -88.827032, 15.871765 ], [ -88.796099, 15.861086 ], [ -88.750552, 15.830419 ], [ -88.745819, 15.811921 ], [ -88.739205, 15.811244 ], [ -88.726697, 15.815822 ], [ -88.716042, 15.804566 ], [ -88.672352, 15.775521 ], [ -88.653486, 15.762978 ], [ -88.628513, 15.752124 ], [ -88.626022, 15.745529 ], [ -88.632413, 15.742324 ], [ -88.627876, 15.732913 ], [ -88.633055, 15.731266 ], [ -88.636989, 15.720867 ], [ -88.645115, 15.714727 ], [ -88.646702, 15.701948 ], [ -88.643889, 15.69729 ], [ -88.636806, 15.694641 ], [ -88.620046, 15.695229 ], [ -88.596409, 15.710023 ], [ -88.602724, 15.720461 ], [ -88.604337, 15.734996 ], [ -88.598756, 15.741313 ], [ -88.586259, 15.744097 ], [ -88.579142, 15.75169 ], [ -88.576977, 15.758025 ], [ -88.581529, 15.758645 ], [ -88.58158, 15.763738 ], [ -88.572914, 15.775521 ], [ -88.569559, 15.780083 ], [ -88.55426, 15.811324 ], [ -88.556039, 15.822232 ], [ -88.562881, 15.8279 ], [ -88.562091, 15.853146 ], [ -88.549219, 15.844362 ], [ -88.53985, 15.847204 ], [ -88.50268, 15.835178 ], [ -88.494995, 15.839861 ], [ -88.492651, 15.847311 ], [ -88.496757, 15.854294 ], [ -88.508606, 15.858513 ], [ -88.513903, 15.870574 ], [ -88.544971, 15.87627 ], [ -88.549219, 15.890097 ], [ -88.56644, 15.913146 ], [ -88.611676, 15.939099 ], [ -88.61764, 15.94958 ], [ -88.62031, 15.963778 ], [ -88.60483, 15.965843 ], [ -88.583916, 15.960977 ], [ -88.549219, 15.942157 ], [ -88.509601, 15.904413 ], [ -88.492471, 15.889308 ], [ -88.442032, 15.854218 ], [ -88.368949, 15.817247 ], [ -88.330472, 15.792643 ], [ -88.328422, 15.791305 ], [ -88.309321, 15.778842 ], [ -88.306236, 15.776828 ], [ -88.304771, 15.775521 ], [ -88.261779, 15.737156 ], [ -88.24886, 15.729932 ], [ -88.22132, 15.720487 ], [ -88.236898, 15.717135 ], [ -88.245861, 15.718198 ], [ -88.250121, 15.717199 ], [ -88.251941, 15.715551 ], [ -88.25253, 15.712535 ], [ -88.246383, 15.705491 ], [ -88.244494, 15.699378 ], [ -88.246595, 15.693691 ], [ -88.251143, 15.688259 ], [ -88.257743, 15.683576 ], [ -88.275613, 15.681278 ], [ -88.285941, 15.670638 ], [ -88.299395, 15.669351 ], [ -88.307059, 15.665096 ], [ -88.309321, 15.662221 ], [ -88.328422, 15.637944 ], [ -88.35532, 15.603753 ], [ -88.413896, 15.558869 ], [ -88.538524, 15.455127 ], [ -88.575089, 15.420299 ], [ -88.591714, 15.418449 ], [ -88.6007, 15.412989 ], [ -88.642135, 15.37134 ], [ -88.684539, 15.33655 ], [ -88.794908, 15.269295 ], [ -88.82861, 15.253053 ], [ -88.836847, 15.246183 ], [ -88.966316, 15.138166 ], [ -89.009194, 15.12228 ], [ -89.117192, 15.082262 ], [ -89.153963, 15.064482 ], [ -89.169052, 15.035691 ], [ -89.174392, 15.02005 ], [ -89.18137, 14.999612 ], [ -89.177396, 14.988007 ], [ -89.159813, 14.978582 ], [ -89.165934, 14.948938 ], [ -89.174043, 14.935512 ], [ -89.184585, 14.907921 ], [ -89.219872, 14.885664 ], [ -89.223756, 14.880011 ], [ -89.224968, 14.870909 ], [ -89.220522, 14.831992 ], [ -89.202584, 14.807429 ], [ -89.168828, 14.772367 ], [ -89.165776, 14.728308 ], [ -89.159575, 14.722272 ], [ -89.138797, 14.712125 ], [ -89.134301, 14.706328 ], [ -89.135397, 14.697408 ], [ -89.152293, 14.662363 ], [ -89.14667, 14.605348 ], [ -89.153434, 14.578999 ], [ -89.157306, 14.572852 ], [ -89.168121, 14.570216 ], [ -89.217663, 14.583142 ], [ -89.228245, 14.581972 ], [ -89.240318, 14.575722 ], [ -89.248593, 14.567461 ], [ -89.255675, 14.552243 ], [ -89.278993, 14.529796 ], [ -89.289459, 14.51167 ], [ -89.301566, 14.501531 ], [ -89.309545, 14.4868 ], [ -89.339382, 14.475469 ], [ -89.34741, 14.467929 ], [ -89.350561, 14.456365 ], [ -89.349624, 14.426266 ], [ -89.353185, 14.418488 ], [ -89.361151, 14.419211 ], [ -89.37554, 14.429383 ], [ -89.383043, 14.428401 ], [ -89.385749, 14.4416 ], [ -89.391914, 14.444824 ], [ -89.398263, 14.440398 ], [ -89.408587, 14.424167 ], [ -89.423502, 14.411741 ], [ -89.438747, 14.411076 ], [ -89.459854, 14.417048 ], [ -89.484175, 14.414762 ], [ -89.507121, 14.397395 ], [ -89.52131, 14.382456 ], [ -89.529726, 14.384899 ], [ -89.536502, 14.403341 ], [ -89.543441, 14.412357 ], [ -89.559297, 14.41192 ], [ -89.571915, 14.405659 ], [ -89.577036, 14.393069 ], [ -89.576435, 14.373395 ], [ -89.566102, 14.354933 ], [ -89.56569, 14.349436 ], [ -89.567916, 14.345925 ], [ -89.580888, 14.34193 ], [ -89.5845, 14.330971 ], [ -89.584869, 14.315456 ], [ -89.582005, 14.312726 ], [ -89.558082, 14.308511 ], [ -89.548007, 14.298856 ], [ -89.541688, 14.282071 ], [ -89.528806, 14.263972 ], [ -89.518095, 14.237508 ], [ -89.51966, 14.224237 ], [ -89.530124, 14.216991 ], [ -89.567925, 14.201329 ], [ -89.594016, 14.198265 ], [ -89.626672, 14.200448 ], [ -89.661731, 14.183245 ], [ -89.697072, 14.14542 ], [ -89.7202, 14.115104 ], [ -89.742405, 14.065137 ], [ -89.738643, 14.033728 ], [ -89.744563, 14.033852 ], [ -89.761363, 14.034204 ], [ -89.771087, 14.031019 ], [ -89.776845, 14.031019 ], [ -89.786875, 14.040079 ], [ -89.813686, 14.056668 ], [ -89.822767, 14.061382 ], [ -89.835637, 14.059668 ], [ -89.848314, 14.055811 ], [ -89.852857, 14.052127 ], [ -89.857982, 14.044492 ], [ -89.861878, 14.042886 ], [ -89.893833, 14.03727 ], [ -89.897604, 14.034807 ], [ -89.900243, 14.031019 ], [ -89.909089, 14.012635 ], [ -89.927995, 14.004063 ], [ -89.942628, 13.985281 ], [ -89.959185, 13.978161 ], [ -89.965623, 13.968191 ], [ -89.978421, 13.959787 ], [ -89.996176, 13.954838 ], [ -90.001839, 13.95326 ], [ -90.011594, 13.941331 ], [ -90.02606, 13.934733 ], [ -90.027487, 13.921092 ], [ -90.036206, 13.914499 ], [ -90.033543, 13.902478 ], [ -90.035692, 13.895501 ], [ -90.0434, 13.89041 ], [ -90.062039, 13.886952 ], [ -90.067383, 13.878818 ], [ -90.079317, 13.874358 ], [ -90.093375, 13.842545 ], [ -90.110424, 13.830242 ], [ -90.111827, 13.822408 ], [ -90.107226, 13.808251 ], [ -90.114002, 13.794997 ], [ -90.115433, 13.780603 ], [ -90.113361, 13.775329 ], [ -90.106544, 13.775464 ], [ -90.104049, 13.77282 ], [ -90.097035, 13.760698 ], [ -90.096656, 13.750553 ], [ -90.105307, 13.73813 ], [ -90.124323, 13.740907 ], [ -90.133846, 13.745423 ], [ -90.336941, 13.831179 ], [ -90.341063, 13.832919 ], [ -90.353733, 13.841397 ], [ -90.418052, 13.866874 ], [ -90.455636, 13.879511 ], [ -90.50746, 13.896935 ], [ -90.564882, 13.911221 ], [ -90.645154, 13.924586 ], [ -90.699517, 13.928147 ], [ -90.780661, 13.921811 ], [ -90.789361, 13.92738 ], [ -90.796883, 13.923266 ], [ -90.793552, 13.919777 ], [ -90.795264, 13.917806 ], [ -90.80255, 13.918805 ], [ -90.807427, 13.925167 ], [ -90.815017, 13.917165 ], [ -90.907598, 13.911087 ], [ -91.071883, 13.915559 ], [ -91.087184, 13.915975 ], [ -91.19076, 13.926987 ], [ -91.238546, 13.935063 ], [ -91.309422, 13.952191 ], [ -91.481822, 14.023588 ], [ -91.541154, 14.045439 ], [ -91.612292, 14.086228 ], [ -91.724282, 14.158891 ], [ -91.791525, 14.193309 ], [ -91.85248, 14.247279 ], [ -91.852201, 14.254267 ], [ -91.863251, 14.255348 ], [ -91.872088, 14.263772 ], [ -91.913653, 14.290555 ], [ -91.915624, 14.306696 ], [ -91.924565, 14.309183 ], [ -91.927386, 14.303344 ], [ -91.930198, 14.30439 ], [ -91.955947, 14.324084 ], [ -91.952694, 14.332948 ], [ -91.960319, 14.330309 ], [ -91.965656, 14.331802 ], [ -92.059381, 14.408592 ], [ -92.140245, 14.469442 ], [ -92.194552, 14.504498 ], [ -92.23132, 14.533315 ], [ -92.219281, 14.534729 ], [ -92.208436, 14.553683 ], [ -92.190317, 14.563963 ], [ -92.176687, 14.597923 ], [ -92.17394, 14.627204 ], [ -92.15158, 14.657913 ], [ -92.14794, 14.667018 ], [ -92.146862, 14.69187 ], [ -92.14961, 14.715449 ], [ -92.154898, 14.728284 ], [ -92.16843, 14.745712 ], [ -92.168652, 14.751265 ], [ -92.162937, 14.759769 ], [ -92.161873, 14.76765 ], [ -92.175105, 14.802961 ], [ -92.181807, 14.832861 ], [ -92.173714, 14.850612 ], [ -92.155648, 14.86249 ], [ -92.146214, 14.872915 ], [ -92.141588, 14.884117 ], [ -92.142243, 14.924316 ], [ -92.146576, 14.94584 ], [ -92.145544, 14.983334 ], [ -92.128697, 15.012838 ], [ -92.110579, 15.01244 ], [ -92.100682, 15.009243 ], [ -92.093702, 15.012966 ], [ -92.068483, 15.053511 ], [ -92.061573, 15.070458 ], [ -92.21231, 15.264358 ], [ -92.177641, 15.320351 ], [ -92.100901, 15.444237 ], [ -91.72529, 16.07907 ], [ -91.071883, 16.073926 ], [ -90.455636, 16.069075 ], [ -90.445524, 16.068996 ], [ -90.442431, 16.070354 ], [ -90.442659, 16.081536 ], [ -90.425861, 16.097246 ], [ -90.432044, 16.098262 ], [ -90.445346, 16.088296 ], [ -90.451321, 16.092437 ], [ -90.454987, 16.102006 ], [ -90.450978, 16.120975 ], [ -90.444526, 16.123138 ], [ -90.429085, 16.119705 ], [ -90.428278, 16.133319 ], [ -90.443466, 16.137956 ], [ -90.447354, 16.145628 ], [ -90.444439, 16.150035 ], [ -90.431275, 16.154926 ], [ -90.423645, 16.162962 ], [ -90.427967, 16.17118 ], [ -90.444607, 16.178611 ], [ -90.450906, 16.186716 ], [ -90.453697, 16.203671 ], [ -90.450793, 16.217057 ], [ -90.443958, 16.224051 ], [ -90.430499, 16.23122 ], [ -90.43752, 16.238678 ], [ -90.447554, 16.237447 ], [ -90.45016, 16.24433 ], [ -90.445266, 16.25523 ], [ -90.440077, 16.25966 ], [ -90.42287, 16.256769 ], [ -90.424356, 16.265081 ], [ -90.436014, 16.276587 ], [ -90.433574, 16.287848 ], [ -90.435554, 16.296478 ], [ -90.430024, 16.303141 ], [ -90.411797, 16.305289 ], [ -90.407614, 16.308524 ], [ -90.408783, 16.325129 ], [ -90.399887, 16.332054 ], [ -90.394271, 16.341053 ], [ -90.39901, 16.349732 ], [ -90.403585, 16.342491 ], [ -90.407667, 16.344525 ], [ -90.40927, 16.350416 ], [ -90.406808, 16.361452 ], [ -90.399887, 16.369227 ], [ -90.391766, 16.372205 ], [ -90.381679, 16.36932 ], [ -90.373854, 16.359783 ], [ -90.369565, 16.36193 ], [ -90.371353, 16.36848 ], [ -90.389255, 16.378595 ], [ -90.397693, 16.388802 ], [ -90.397843, 16.394626 ], [ -90.388574, 16.401027 ], [ -90.387355, 16.407298 ], [ -90.393222, 16.408413 ], [ -90.402828, 16.4 ], [ -90.416263, 16.417416 ], [ -90.452555, 16.415444 ], [ -90.455636, 16.415815 ], [ -90.480801, 16.41884 ], [ -90.482954, 16.424522 ], [ -90.47667, 16.437988 ], [ -90.475788, 16.453392 ], [ -90.489966, 16.44999 ], [ -90.497405, 16.460529 ], [ -90.502392, 16.463202 ], [ -90.510302, 16.462292 ], [ -90.521819, 16.452984 ], [ -90.541188, 16.462579 ], [ -90.544043, 16.472322 ], [ -90.544764, 16.474782 ], [ -90.553424, 16.472322 ], [ -90.580337, 16.464674 ], [ -90.589616, 16.468781 ], [ -90.591035, 16.472322 ], [ -90.5952, 16.482714 ], [ -90.605785, 16.480316 ], [ -90.616403, 16.472322 ], [ -90.619505, 16.472322 ], [ -90.628523, 16.475116 ], [ -90.632522, 16.480554 ], [ -90.631676, 16.485099 ], [ -90.610526, 16.491133 ], [ -90.605846, 16.500843 ], [ -90.611608, 16.51488 ], [ -90.632653, 16.508562 ], [ -90.638832, 16.510026 ], [ -90.642365, 16.514224 ], [ -90.644635, 16.553033 ], [ -90.641327, 16.5609 ], [ -90.629309, 16.57106 ], [ -90.627852, 16.575987 ], [ -90.634091, 16.582099 ], [ -90.641263, 16.57494 ], [ -90.658587, 16.571956 ], [ -90.66518, 16.578664 ], [ -90.666052, 16.586963 ], [ -90.673121, 16.588121 ], [ -90.670244, 16.591975 ], [ -90.652795, 16.594447 ], [ -90.653874, 16.607295 ], [ -90.658893, 16.620684 ], [ -90.657385, 16.635153 ], [ -90.672532, 16.654089 ], [ -90.68063, 16.681506 ], [ -90.703273, 16.697975 ], [ -90.706288, 16.712241 ], [ -90.711125, 16.7193 ], [ -90.74496, 16.739317 ], [ -90.758083, 16.754625 ], [ -90.795596, 16.769338 ], [ -90.799254, 16.775584 ], [ -90.798739, 16.78624 ], [ -90.80135, 16.790652 ], [ -90.844555, 16.789005 ], [ -90.851846, 16.793549 ], [ -90.858367, 16.80492 ], [ -90.870318, 16.813339 ], [ -90.881353, 16.815654 ], [ -90.917335, 16.814938 ], [ -90.928455, 16.834884 ], [ -90.932762, 16.851374 ], [ -90.944271, 16.855551 ], [ -90.96228, 16.852613 ], [ -90.967174, 16.855929 ], [ -90.966473, 16.864508 ], [ -90.953122, 16.880245 ], [ -90.953463, 16.886203 ], [ -90.958255, 16.890916 ], [ -90.969195, 16.892499 ], [ -90.977155, 16.887214 ], [ -90.978112, 16.881246 ], [ -90.973846, 16.864186 ], [ -90.976146, 16.85727 ], [ -90.980882, 16.854913 ], [ -90.985814, 16.857344 ], [ -90.991619, 16.868408 ], [ -91.002197, 16.876688 ], [ -91.058787, 16.894845 ], [ -91.068594, 16.907497 ], [ -91.063328, 16.916563 ], [ -91.065727, 16.922613 ], [ -91.071883, 16.930209 ], [ -91.077443, 16.93707 ], [ -91.090156, 16.945435 ], [ -91.102816, 16.963404 ], [ -91.117072, 16.972201 ], [ -91.124745, 17.008152 ], [ -91.131529, 17.010873 ], [ -91.152359, 17.010532 ], [ -91.172407, 17.020514 ], [ -91.215905, 17.063859 ], [ -91.232255, 17.103568 ], [ -91.240586, 17.108911 ], [ -91.256033, 17.112842 ], [ -91.267212, 17.123852 ], [ -91.275675, 17.140726 ], [ -91.272845, 17.163299 ], [ -91.27631, 17.171453 ], [ -91.292247, 17.178969 ], [ -91.316883, 17.183228 ], [ -91.326785, 17.179695 ], [ -91.337408, 17.169081 ], [ -91.342676, 17.168832 ], [ -91.359904, 17.195901 ], [ -91.374884, 17.208926 ], [ -91.384891, 17.212244 ], [ -91.401779, 17.20947 ], [ -91.418064, 17.214335 ], [ -91.425299, 17.222589 ], [ -91.434979, 17.245356 ], [ -91.434707, 17.24942 ], [ -91.423189, 17.251549 ], [ -91.071883, 17.258232 ], [ -90.991935, 17.259752 ], [ -90.986844, 17.471953 ], [ -90.984775, 17.579898 ], [ -90.980268, 17.814834 ], [ -90.455636, 17.813427 ], [ -90.336941, 17.813108 ], [ -90.113219, 17.812508 ], [ -90.093375, 17.812447 ], [ -90.0, 17.81216 ], [ -89.996176, 17.812148 ], [ -89.916051, 17.811897 ], [ -89.910077, 17.811878 ], [ -89.744563, 17.811359 ], [ -89.701855, 17.811226 ], [ -89.69051, 17.81119 ], [ -89.609374, 17.810938 ], [ -89.3847, 17.81024 ], [ -89.345459, 17.810119 ], [ -89.33755, 17.810094 ], [ -89.3232, 17.81005 ], [ -89.26412, 17.80987 ], [ -89.228289, 17.809754 ], [ -89.2114, 17.8097 ], [ -89.156882, 17.809531 ], [ -89.154437, 17.809523 ], [ -89.14696, 17.8095 ], [ -89.146583, 17.579898 ], [ -89.146569, 17.571427 ], [ -89.146022, 17.235911 ], [ -89.145851, 17.047065 ], [ -89.184877, 16.472322 ], [ -89.216683, 16.002628 ], [ -89.220652, 15.96468 ], [ -89.22465, 15.926442 ], [ -89.223207, 15.898863 ], [ -89.220962, 15.892037 ], [ -89.214785, 15.890221 ], [ -89.187198, 15.89816 ], [ -89.183256, 15.906951 ], [ -89.179167, 15.909148 ], [ -89.172932, 15.907904 ], [ -89.161047, 15.898381 ], [ -89.151718, 15.894722 ], [ -89.144935, 15.895803 ], [ -89.134557, 15.902755 ], [ -89.127233, 15.898136 ], [ -89.114302, 15.895982 ], [ -89.111245, 15.905248 ], [ -89.094655, 15.908807 ], [ -89.088349, 15.906287 ], [ -89.080152, 15.894797 ], [ -89.075006, 15.906479 ], [ -89.063261, 15.898104 ], [ -89.061857, 15.910487 ], [ -89.059023, 15.912656 ], [ -89.055756, 15.911256 ], [ -89.050905, 15.901187 ], [ -89.041815, 15.910053 ], [ -89.033289, 15.911365 ], [ -89.021442, 15.906346 ], [ -89.014156, 15.895963 ], [ -89.009194, 15.897362 ], [ -88.99711, 15.900769 ], [ -88.979899, 15.894682 ], [ -88.924156, 15.888136 ], [ -88.91278, 15.900129 ] ] ], [ [ [ -91.925548, 14.302441 ], [ -91.921784, 14.305259 ], [ -91.920062, 14.299731 ], [ -91.924442, 14.299445 ], [ -91.925548, 14.302441 ] ] ] ] } }
]
}
