{
"type": "FeatureCollection",
"name": "Guinea",
"crs": { "type": "name", "properties": { "name": "urn:ogc:def:crs:OGC:1.3:CRS84" } },
"features": [
{ "type": "Feature", "properties": { "id": "GN", "CNTR_ID": "GN", "CNTR_NAME": "Guinée", "NAME_ENGL": "Guinea", "ISO3_CODE": "GIN", "FID": "GN" }, "geometry": { "type": "MultiPolygon", "coordinates": [ [ [ [ -8.47218, 7.55459 ], [ -8.487505, 7.57119 ], [ -8.543909, 7.604846 ], [ -8.563966, 7.624986 ], [ -8.55495, 7.65099 ], [ -8.556295, 7.67644 ], [ -8.560429, 7.691961 ], [ -8.65686, 7.695962 ], [ -8.665647, 7.692998 ], [ -8.677981, 7.667251 ], [ -8.706698, 7.638761 ], [ -8.704445, 7.617924 ], [ -8.711314, 7.600924 ], [ -8.722297, 7.551858 ], [ -8.720176, 7.546347 ], [ -8.711542, 7.54454 ], [ -8.708487, 7.509955 ], [ -8.751777, 7.460895 ], [ -8.756393, 7.455664 ], [ -8.774609, 7.44815 ], [ -8.780211, 7.413004 ], [ -8.79718, 7.41025 ], [ -8.810484, 7.401054 ], [ -8.816228, 7.38721 ], [ -8.836955, 7.361903 ], [ -8.845767, 7.343564 ], [ -8.837651, 7.325459 ], [ -8.83431, 7.306214 ], [ -8.837724, 7.301853 ], [ -8.838225, 7.296784 ], [ -8.833518, 7.287672 ], [ -8.833481, 7.283766 ], [ -8.848076, 7.263381 ], [ -8.863585, 7.258142 ], [ -8.902753, 7.26107 ], [ -8.905687, 7.262913 ], [ -8.907159, 7.266409 ], [ -8.906535, 7.27288 ], [ -8.915637, 7.287931 ], [ -8.919151, 7.288397 ], [ -8.928973, 7.28418 ], [ -8.936901, 7.285492 ], [ -8.93764, 7.282456 ], [ -8.933465, 7.273432 ], [ -8.937692, 7.270835 ], [ -8.937831, 7.265191 ], [ -8.94092, 7.262722 ], [ -8.944489, 7.263629 ], [ -8.948405, 7.26927 ], [ -8.953071, 7.269748 ], [ -8.957066, 7.263634 ], [ -8.956723, 7.257907 ], [ -8.958456, 7.2544 ], [ -8.963762, 7.251748 ], [ -8.976537, 7.248344 ], [ -8.99281, 7.249732 ], [ -9.003755, 7.24296 ], [ -9.016876, 7.243589 ], [ -9.031726, 7.232757 ], [ -9.035978, 7.222501 ], [ -9.040309, 7.218159 ], [ -9.046595, 7.214468 ], [ -9.053292, 7.210535 ], [ -9.065886, 7.201063 ], [ -9.08481, 7.202569 ], [ -9.092492, 7.201024 ], [ -9.104329, 7.193656 ], [ -9.105774, 7.201097 ], [ -9.104622, 7.207462 ], [ -9.099403, 7.214468 ], [ -9.096588, 7.218247 ], [ -9.095631, 7.22295 ], [ -9.094221, 7.225853 ], [ -9.10388, 7.242859 ], [ -9.104976, 7.25011 ], [ -9.110601, 7.252306 ], [ -9.113563, 7.256678 ], [ -9.116105, 7.273687 ], [ -9.12077, 7.27647 ], [ -9.134074, 7.274044 ], [ -9.153984, 7.273527 ], [ -9.157083, 7.275006 ], [ -9.160722, 7.276744 ], [ -9.18191, 7.298724 ], [ -9.190279, 7.303304 ], [ -9.192101, 7.306214 ], [ -9.200843, 7.320969 ], [ -9.201544, 7.341025 ], [ -9.205892, 7.351902 ], [ -9.203429, 7.38084 ], [ -9.227968, 7.389037 ], [ -9.275551, 7.380369 ], [ -9.288873, 7.389712 ], [ -9.289277, 7.407689 ], [ -9.294534, 7.420732 ], [ -9.311532, 7.429122 ], [ -9.31972, 7.42958 ], [ -9.330344, 7.424419 ], [ -9.350679, 7.428365 ], [ -9.358603, 7.422292 ], [ -9.361611, 7.41268 ], [ -9.372696, 7.404977 ], [ -9.380871, 7.39345 ], [ -9.394872, 7.389089 ], [ -9.404904, 7.41819 ], [ -9.410971, 7.42259 ], [ -9.453768, 7.394112 ], [ -9.464507, 7.373363 ], [ -9.477729, 7.363965 ], [ -9.478087, 7.377207 ], [ -9.470488, 7.387323 ], [ -9.456122, 7.433846 ], [ -9.44994, 7.443231 ], [ -9.434171, 7.454561 ], [ -9.418504, 7.472809 ], [ -9.400258, 7.517825 ], [ -9.39858, 7.529946 ], [ -9.378917, 7.56522 ], [ -9.375691, 7.583179 ], [ -9.357201, 7.612899 ], [ -9.355418, 7.625996 ], [ -9.364795, 7.632208 ], [ -9.37167, 7.645112 ], [ -9.368462, 7.665452 ], [ -9.370348, 7.684253 ], [ -9.367619, 7.696855 ], [ -9.352349, 7.71856 ], [ -9.350822, 7.734916 ], [ -9.34481, 7.748071 ], [ -9.349979, 7.757828 ], [ -9.348735, 7.771637 ], [ -9.356297, 7.774614 ], [ -9.35538, 7.781955 ], [ -9.359834, 7.795914 ], [ -9.369142, 7.802984 ], [ -9.378413, 7.803382 ], [ -9.388954, 7.808032 ], [ -9.396288, 7.824647 ], [ -9.406242, 7.835606 ], [ -9.423228, 7.862851 ], [ -9.429889, 7.897598 ], [ -9.425112, 7.914963 ], [ -9.431954, 7.947722 ], [ -9.423256, 7.9644 ], [ -9.412178, 7.973054 ], [ -9.410277, 7.980764 ], [ -9.420929, 8.00025 ], [ -9.422123, 8.016449 ], [ -9.430521, 8.024452 ], [ -9.428351, 8.047073 ], [ -9.439651, 8.043604 ], [ -9.453513, 8.032703 ], [ -9.459718, 8.036959 ], [ -9.458817, 8.045457 ], [ -9.451469, 8.060775 ], [ -9.444899, 8.074469 ], [ -9.458757, 8.104109 ], [ -9.457633, 8.123468 ], [ -9.462803, 8.132542 ], [ -9.463654, 8.164776 ], [ -9.472359, 8.169876 ], [ -9.493425, 8.170755 ], [ -9.50308, 8.178655 ], [ -9.515459, 8.176808 ], [ -9.520597, 8.18314 ], [ -9.519911, 8.196458 ], [ -9.510976, 8.213094 ], [ -9.510133, 8.228998 ], [ -9.515898, 8.242439 ], [ -9.490854, 8.263099 ], [ -9.488736, 8.26752 ], [ -9.491269, 8.274522 ], [ -9.503299, 8.286818 ], [ -9.501552, 8.31061 ], [ -9.518994, 8.326411 ], [ -9.487378, 8.347305 ], [ -9.478287, 8.362377 ], [ -9.477606, 8.371136 ], [ -9.48009, 8.37623 ], [ -9.488729, 8.380967 ], [ -9.524158, 8.383777 ], [ -9.53496, 8.384634 ], [ -9.54291, 8.390457 ], [ -9.561364, 8.403973 ], [ -9.56766, 8.413272 ], [ -9.572346, 8.428371 ], [ -9.57759, 8.43218 ], [ -9.58386, 8.429969 ], [ -9.59174, 8.416996 ], [ -9.604515, 8.407659 ], [ -9.63181, 8.407742 ], [ -9.645876, 8.403079 ], [ -9.655691, 8.403234 ], [ -9.65889, 8.410693 ], [ -9.655473, 8.420584 ], [ -9.625989, 8.450856 ], [ -9.631816, 8.463533 ], [ -9.667247, 8.49176 ], [ -9.69159, 8.490802 ], [ -9.704796, 8.479795 ], [ -9.709499, 8.44968 ], [ -9.712792, 8.445177 ], [ -9.717459, 8.445233 ], [ -9.72371, 8.464229 ], [ -9.744392, 8.49201 ], [ -9.735903, 8.51999 ], [ -9.754436, 8.546343 ], [ -9.769491, 8.551163 ], [ -9.778006, 8.548388 ], [ -9.791031, 8.534128 ], [ -9.800389, 8.533293 ], [ -9.803344, 8.526343 ], [ -9.794684, 8.511545 ], [ -9.803706, 8.503266 ], [ -9.833308, 8.500854 ], [ -9.846458, 8.488394 ], [ -9.860631, 8.500331 ], [ -9.885582, 8.495876 ], [ -9.892219, 8.498108 ], [ -9.897475, 8.499876 ], [ -9.92058, 8.497437 ], [ -9.933685, 8.491762 ], [ -9.963313, 8.469111 ], [ -9.973564, 8.464733 ], [ -9.995774, 8.441025 ], [ -10.015662, 8.441466 ], [ -10.025008, 8.432903 ], [ -10.038258, 8.429961 ], [ -10.056352, 8.421161 ], [ -10.065287, 8.422946 ], [ -10.067174, 8.429791 ], [ -10.062785, 8.454248 ], [ -10.056213, 8.468049 ], [ -10.052509, 8.49181 ], [ -10.064386, 8.504713 ], [ -10.07729, 8.507698 ], [ -10.086696, 8.517553 ], [ -10.100937, 8.516118 ], [ -10.126105, 8.52481 ], [ -10.146658, 8.520136 ], [ -10.158354, 8.525445 ], [ -10.164702, 8.514845 ], [ -10.192288, 8.499962 ], [ -10.213226, 8.481018 ], [ -10.229254, 8.482527 ], [ -10.231422, 8.496699 ], [ -10.241416, 8.488453 ], [ -10.247481, 8.4913 ], [ -10.261802, 8.488255 ], [ -10.271053, 8.491239 ], [ -10.282042, 8.487952 ], [ -10.286954, 8.484851 ], [ -10.301789, 8.48863 ], [ -10.321689, 8.498914 ], [ -10.331371, 8.502831 ], [ -10.346845, 8.496078 ], [ -10.35348, 8.491625 ], [ -10.364103, 8.488131 ], [ -10.372767, 8.487102 ], [ -10.385985, 8.492782 ], [ -10.389611, 8.487685 ], [ -10.393835, 8.476037 ], [ -10.401487, 8.465434 ], [ -10.408463, 8.450161 ], [ -10.417179, 8.440633 ], [ -10.425523, 8.435992 ], [ -10.427727, 8.433653 ], [ -10.431277, 8.429886 ], [ -10.44569, 8.403589 ], [ -10.452528, 8.395426 ], [ -10.461077, 8.390457 ], [ -10.471817, 8.376771 ], [ -10.483934, 8.367283 ], [ -10.49146, 8.354642 ], [ -10.51005, 8.337905 ], [ -10.559302, 8.305858 ], [ -10.579859, 8.309804 ], [ -10.586987, 8.324988 ], [ -10.597351, 8.331597 ], [ -10.632464, 8.334704 ], [ -10.657476, 8.340603 ], [ -10.672205, 8.340188 ], [ -10.686169, 8.324348 ], [ -10.691505, 8.309375 ], [ -10.697492, 8.301509 ], [ -10.701604, 8.275 ], [ -10.716218, 8.271816 ], [ -10.713022, 8.284635 ], [ -10.715183, 8.305648 ], [ -10.702532, 8.332397 ], [ -10.69588, 8.35812 ], [ -10.671597, 8.373718 ], [ -10.653321, 8.390457 ], [ -10.653161, 8.412375 ], [ -10.656632, 8.425241 ], [ -10.652011, 8.444769 ], [ -10.64953, 8.474663 ], [ -10.640449, 8.482362 ], [ -10.638563, 8.492511 ], [ -10.63038, 8.492924 ], [ -10.632273, 8.506866 ], [ -10.622389, 8.540187 ], [ -10.602852, 8.549676 ], [ -10.593804, 8.565533 ], [ -10.58829, 8.56941 ], [ -10.582193, 8.573696 ], [ -10.580711, 8.593626 ], [ -10.572571, 8.59664 ], [ -10.565759, 8.596644 ], [ -10.54327, 8.611525 ], [ -10.523078, 8.610778 ], [ -10.502812, 8.624631 ], [ -10.497451, 8.631369 ], [ -10.481734, 8.638316 ], [ -10.478842, 8.644217 ], [ -10.480691, 8.654608 ], [ -10.470333, 8.674162 ], [ -10.474989, 8.679988 ], [ -10.482334, 8.681137 ], [ -10.485371, 8.690165 ], [ -10.49394, 8.701456 ], [ -10.509149, 8.709543 ], [ -10.507931, 8.716362 ], [ -10.516568, 8.729224 ], [ -10.511393, 8.737196 ], [ -10.524407, 8.73986 ], [ -10.527975, 8.757572 ], [ -10.535873, 8.772104 ], [ -10.5669, 8.799992 ], [ -10.572571, 8.800326 ], [ -10.576568, 8.799122 ], [ -10.58639, 8.805194 ], [ -10.584011, 8.822853 ], [ -10.58829, 8.846813 ], [ -10.595791, 8.888815 ], [ -10.59254, 8.932121 ], [ -10.597712, 8.956096 ], [ -10.598113, 8.974846 ], [ -10.594051, 9.003514 ], [ -10.58829, 9.013393 ], [ -10.586317, 9.016775 ], [ -10.58556, 9.043859 ], [ -10.58829, 9.047271 ], [ -10.594412, 9.054922 ], [ -10.612568, 9.066308 ], [ -10.632998, 9.069704 ], [ -10.659903, 9.081113 ], [ -10.708988, 9.075751 ], [ -10.72836, 9.079105 ], [ -10.732566, 9.083973 ], [ -10.725859, 9.130132 ], [ -10.714604, 9.146088 ], [ -10.714665, 9.163717 ], [ -10.722864, 9.183186 ], [ -10.719033, 9.19532 ], [ -10.714619, 9.197833 ], [ -10.707464, 9.192512 ], [ -10.695237, 9.19416 ], [ -10.67052, 9.202214 ], [ -10.664343, 9.209648 ], [ -10.664441, 9.22682 ], [ -10.673886, 9.239168 ], [ -10.67504, 9.248373 ], [ -10.662003, 9.289296 ], [ -10.664238, 9.301833 ], [ -10.669973, 9.31001 ], [ -10.687645, 9.323161 ], [ -10.709284, 9.33224 ], [ -10.711825, 9.349368 ], [ -10.730668, 9.378927 ], [ -10.738916, 9.374932 ], [ -10.749698, 9.384775 ], [ -10.759673, 9.385708 ], [ -10.772583, 9.38217 ], [ -10.794327, 9.390326 ], [ -10.799144, 9.389718 ], [ -10.805496, 9.381343 ], [ -10.81349, 9.385303 ], [ -10.815594, 9.393822 ], [ -10.804379, 9.408354 ], [ -10.80324, 9.415805 ], [ -10.826536, 9.434622 ], [ -10.842403, 9.442465 ], [ -10.84877, 9.456096 ], [ -10.848245, 9.461766 ], [ -10.843919, 9.468968 ], [ -10.841577, 9.475258 ], [ -10.847316, 9.495281 ], [ -10.843344, 9.50085 ], [ -10.830787, 9.50845 ], [ -10.828915, 9.517804 ], [ -10.856521, 9.525144 ], [ -10.871066, 9.53606 ], [ -10.869827, 9.542644 ], [ -10.860537, 9.552334 ], [ -10.861013, 9.558771 ], [ -10.884567, 9.582418 ], [ -10.89325, 9.591135 ], [ -10.909048, 9.60037 ], [ -10.915146, 9.632055 ], [ -10.92407, 9.651805 ], [ -10.932459, 9.655918 ], [ -10.953189, 9.658138 ], [ -10.963043, 9.665438 ], [ -10.967873, 9.67548 ], [ -10.971712, 9.699334 ], [ -10.978871, 9.716181 ], [ -10.993004, 9.735288 ], [ -11.039887, 9.798664 ], [ -11.073953, 9.830948 ], [ -11.099895, 9.84894 ], [ -11.141377, 9.86873 ], [ -11.153525, 9.879122 ], [ -11.160769, 9.894517 ], [ -11.167351, 9.94541 ], [ -11.174009, 9.972258 ], [ -11.197804, 9.992987 ], [ -11.202546, 9.997118 ], [ -11.214381, 10.000309 ], [ -11.620488, 9.998461 ], [ -11.850332, 9.997415 ], [ -11.881263, 9.997274 ], [ -11.884857, 9.992987 ], [ -11.890973, 9.985692 ], [ -11.898352, 9.947545 ], [ -11.907463, 9.936321 ], [ -12.124823, 9.872274 ], [ -12.144477, 9.875972 ], [ -12.177622, 9.897115 ], [ -12.203839, 9.907047 ], [ -12.218462, 9.920795 ], [ -12.227232, 9.923995 ], [ -12.293433, 9.908026 ], [ -12.308679, 9.905067 ], [ -12.430294, 9.881465 ], [ -12.454123, 9.856834 ], [ -12.482324, 9.853521 ], [ -12.498299, 9.841669 ], [ -12.499105, 9.83446 ], [ -12.491214, 9.825562 ], [ -12.491204, 9.815802 ], [ -12.499744, 9.806366 ], [ -12.502054, 9.789587 ], [ -12.510235, 9.77597 ], [ -12.517111, 9.756516 ], [ -12.508994, 9.745773 ], [ -12.522644, 9.742493 ], [ -12.52656, 9.737867 ], [ -12.520321, 9.708903 ], [ -12.526985, 9.708104 ], [ -12.536343, 9.718788 ], [ -12.552943, 9.706043 ], [ -12.566131, 9.700676 ], [ -12.568872, 9.681055 ], [ -12.575522, 9.662154 ], [ -12.578788, 9.659831 ], [ -12.585975, 9.662018 ], [ -12.590014, 9.657039 ], [ -12.585797, 9.630533 ], [ -12.591563, 9.60352 ], [ -12.598943, 9.601087 ], [ -12.614299, 9.604886 ], [ -12.621051, 9.599816 ], [ -12.628373, 9.582418 ], [ -12.635483, 9.565524 ], [ -12.634777, 9.550909 ], [ -12.640317, 9.549249 ], [ -12.648187, 9.546891 ], [ -12.658136, 9.535613 ], [ -12.65047, 9.521124 ], [ -12.650259, 9.511323 ], [ -12.670935, 9.476955 ], [ -12.67154, 9.468968 ], [ -12.678615, 9.461777 ], [ -12.68309, 9.443826 ], [ -12.680282, 9.436497 ], [ -12.684781, 9.430401 ], [ -12.683975, 9.42147 ], [ -12.687789, 9.409388 ], [ -12.691129, 9.408809 ], [ -12.700019, 9.414806 ], [ -12.704613, 9.413519 ], [ -12.708457, 9.409395 ], [ -12.713946, 9.391141 ], [ -12.728224, 9.395156 ], [ -12.75455, 9.392516 ], [ -12.757893, 9.378623 ], [ -12.752383, 9.348319 ], [ -12.758589, 9.342717 ], [ -12.777287, 9.340248 ], [ -12.791399, 9.300553 ], [ -12.814026, 9.287558 ], [ -12.829067, 9.290523 ], [ -12.841881, 9.286708 ], [ -12.857368, 9.295047 ], [ -12.872536, 9.296959 ], [ -12.882085, 9.278467 ], [ -12.895355, 9.27106 ], [ -12.902188, 9.272346 ], [ -12.924344, 9.285088 ], [ -12.937208, 9.283465 ], [ -12.944357, 9.273396 ], [ -12.958072, 9.235605 ], [ -12.955897, 9.18569 ], [ -12.971193, 9.168741 ], [ -12.983196, 9.128582 ], [ -13.006224, 9.094925 ], [ -13.018792, 9.088261 ], [ -13.042575, 9.086358 ], [ -13.049569, 9.08224 ], [ -13.061323, 9.057086 ], [ -13.085987, 9.048957 ], [ -13.107373, 9.050231 ], [ -13.121649, 9.05751 ], [ -13.151211, 9.085103 ], [ -13.167022, 9.091433 ], [ -13.177548, 9.090581 ], [ -13.199716, 9.077629 ], [ -13.20681, 9.073484 ], [ -13.247117, 9.074944 ], [ -13.277187, 9.061057 ], [ -13.281418, 9.056559 ], [ -13.288597, 9.05253 ], [ -13.300549, 9.041689 ], [ -13.302656, 9.040415 ], [ -13.314249, 9.059669 ], [ -13.314019, 9.071073 ], [ -13.295611, 9.085671 ], [ -13.279544, 9.117676 ], [ -13.229442, 9.169864 ], [ -13.234133, 9.173826 ], [ -13.25135, 9.17049 ], [ -13.255349, 9.175859 ], [ -13.2517, 9.197661 ], [ -13.242356, 9.204766 ], [ -13.231337, 9.207931 ], [ -13.245139, 9.228071 ], [ -13.233537, 9.248862 ], [ -13.23009, 9.264398 ], [ -13.236057, 9.290645 ], [ -13.244989, 9.291388 ], [ -13.2499, 9.281993 ], [ -13.254095, 9.280969 ], [ -13.259553, 9.299048 ], [ -13.270936, 9.303787 ], [ -13.289585, 9.305159 ], [ -13.302778, 9.326484 ], [ -13.297754, 9.344747 ], [ -13.289762, 9.343478 ], [ -13.285065, 9.34811 ], [ -13.275967, 9.37309 ], [ -13.276647, 9.386907 ], [ -13.285199, 9.391365 ], [ -13.310191, 9.378223 ], [ -13.320849, 9.345846 ], [ -13.335145, 9.333494 ], [ -13.344482, 9.320556 ], [ -13.355854, 9.281901 ], [ -13.372257, 9.277491 ], [ -13.407553, 9.284594 ], [ -13.420956, 9.330863 ], [ -13.42306, 9.361473 ], [ -13.417826, 9.392216 ], [ -13.396523, 9.413515 ], [ -13.390509, 9.432538 ], [ -13.393583, 9.474256 ], [ -13.405007, 9.491362 ], [ -13.408402, 9.503156 ], [ -13.404089, 9.521416 ], [ -13.389968, 9.541693 ], [ -13.391819, 9.56793 ], [ -13.397198, 9.572566 ], [ -13.421202, 9.574765 ], [ -13.446241, 9.567357 ], [ -13.470392, 9.573183 ], [ -13.488064, 9.565254 ], [ -13.497206, 9.565745 ], [ -13.502317, 9.575766 ], [ -13.500548, 9.596617 ], [ -13.513623, 9.616242 ], [ -13.517738, 9.635129 ], [ -13.524104, 9.64216 ], [ -13.54571, 9.622533 ], [ -13.553017, 9.600202 ], [ -13.559842, 9.5894 ], [ -13.587232, 9.581414 ], [ -13.601657, 9.572064 ], [ -13.634298, 9.558778 ], [ -13.699932, 9.511305 ], [ -13.714854, 9.509314 ], [ -13.714275, 9.515099 ], [ -13.696363, 9.526466 ], [ -13.673511, 9.554521 ], [ -13.654372, 9.604112 ], [ -13.627847, 9.63968 ], [ -13.622153, 9.695971 ], [ -13.608851, 9.764232 ], [ -13.629995, 9.809639 ], [ -13.64663, 9.822989 ], [ -13.657312, 9.825662 ], [ -13.658667, 9.822154 ], [ -13.641478, 9.803476 ], [ -13.637771, 9.791916 ], [ -13.656182, 9.762032 ], [ -13.682068, 9.74783 ], [ -13.705849, 9.745512 ], [ -13.727981, 9.752348 ], [ -13.746598, 9.764177 ], [ -13.752551, 9.776809 ], [ -13.745998, 9.799747 ], [ -13.740748, 9.807479 ], [ -13.727981, 9.812684 ], [ -13.713416, 9.819749 ], [ -13.727981, 9.827323 ], [ -13.733632, 9.829837 ], [ -13.727981, 9.83767 ], [ -13.714666, 9.856125 ], [ -13.715643, 9.865708 ], [ -13.727981, 9.866953 ], [ -13.788351, 9.842588 ], [ -13.808809, 9.845309 ], [ -13.819149, 9.853708 ], [ -13.819865, 9.866961 ], [ -13.823721, 9.875315 ], [ -13.852081, 9.892795 ], [ -13.932992, 9.951676 ], [ -13.936499, 9.956765 ], [ -13.935843, 9.964262 ], [ -13.940628, 9.97148 ], [ -13.970606, 9.978572 ], [ -13.982422, 9.984758 ], [ -14.006032, 9.998707 ], [ -13.988643, 9.998315 ], [ -14.003102, 10.01666 ], [ -14.003489, 10.023873 ], [ -13.994723, 10.020561 ], [ -13.978331, 10.005363 ], [ -13.96964, 10.00465 ], [ -13.962174, 10.009341 ], [ -13.964491, 10.017229 ], [ -13.984019, 10.036983 ], [ -13.984742, 10.049849 ], [ -13.94391, 10.02583 ], [ -13.933292, 10.035656 ], [ -13.94096, 10.049708 ], [ -13.941031, 10.054771 ], [ -13.914626, 10.056139 ], [ -13.935542, 10.074824 ], [ -13.91011, 10.071988 ], [ -13.906211, 10.076989 ], [ -13.916058, 10.083144 ], [ -13.915898, 10.09236 ], [ -13.93227, 10.093495 ], [ -13.943486, 10.10424 ], [ -13.962863, 10.089454 ], [ -13.96531, 10.073494 ], [ -13.978715, 10.072303 ], [ -13.987002, 10.078832 ], [ -13.990885, 10.086702 ], [ -13.994015, 10.116538 ], [ -14.006731, 10.116234 ], [ -14.014684, 10.129652 ], [ -14.025243, 10.137031 ], [ -14.027843, 10.148909 ], [ -14.021421, 10.163128 ], [ -14.005859, 10.162062 ], [ -13.994785, 10.169742 ], [ -13.998022, 10.174069 ], [ -14.010462, 10.178356 ], [ -14.008104, 10.185417 ], [ -13.993981, 10.19113 ], [ -13.983249, 10.205088 ], [ -13.977468, 10.20453 ], [ -13.973416, 10.195698 ], [ -13.964481, 10.195506 ], [ -13.953895, 10.203041 ], [ -13.938495, 10.221699 ], [ -13.920941, 10.227323 ], [ -13.925137, 10.231285 ], [ -13.93967, 10.232693 ], [ -13.962094, 10.212722 ], [ -13.969919, 10.222257 ], [ -13.984435, 10.225789 ], [ -13.990183, 10.236558 ], [ -13.991581, 10.248634 ], [ -13.998326, 10.255602 ], [ -14.00001, 10.262818 ], [ -13.99416, 10.272533 ], [ -13.979182, 10.2771 ], [ -13.978962, 10.282296 ], [ -14.002237, 10.286925 ], [ -14.010104, 10.281595 ], [ -14.018318, 10.26238 ], [ -14.015365, 10.251726 ], [ -14.004996, 10.239078 ], [ -14.001798, 10.210201 ], [ -14.036507, 10.174445 ], [ -14.051168, 10.173548 ], [ -14.051845, 10.161062 ], [ -14.057063, 10.156534 ], [ -14.070703, 10.165731 ], [ -14.091758, 10.206173 ], [ -14.104483, 10.199542 ], [ -14.13223, 10.209426 ], [ -14.144924, 10.216856 ], [ -14.162713, 10.213187 ], [ -14.176184, 10.217012 ], [ -14.185127, 10.230765 ], [ -14.188784, 10.252759 ], [ -14.197941, 10.271405 ], [ -14.203522, 10.260323 ], [ -14.207312, 10.225258 ], [ -14.215753, 10.216221 ], [ -14.232894, 10.226018 ], [ -14.269796, 10.226118 ], [ -14.271323, 10.233955 ], [ -14.264683, 10.246251 ], [ -14.264521, 10.253759 ], [ -14.280047, 10.253083 ], [ -14.290735, 10.260347 ], [ -14.295557, 10.25558 ], [ -14.302161, 10.232782 ], [ -14.32201, 10.227227 ], [ -14.310585, 10.214417 ], [ -14.31038, 10.208305 ], [ -14.314182, 10.204576 ], [ -14.32275, 10.205911 ], [ -14.347523, 10.220161 ], [ -14.386274, 10.23395 ], [ -14.397517, 10.233122 ], [ -14.411023, 10.225766 ], [ -14.427981, 10.222616 ], [ -14.443164, 10.212562 ], [ -14.450048, 10.21246 ], [ -14.453074, 10.216093 ], [ -14.455608, 10.221435 ], [ -14.453841, 10.22968 ], [ -14.460339, 10.233607 ], [ -14.465494, 10.254648 ], [ -14.455031, 10.298644 ], [ -14.461042, 10.33507 ], [ -14.457507, 10.337421 ], [ -14.453074, 10.334992 ], [ -14.449675, 10.33313 ], [ -14.441655, 10.341566 ], [ -14.441408, 10.355397 ], [ -14.445214, 10.369782 ], [ -14.432776, 10.383651 ], [ -14.431895, 10.388427 ], [ -14.437599, 10.389501 ], [ -14.452668, 10.385173 ], [ -14.451857, 10.371433 ], [ -14.453074, 10.369781 ], [ -14.457383, 10.363933 ], [ -14.47363, 10.38028 ], [ -14.496935, 10.424904 ], [ -14.50983, 10.427712 ], [ -14.523471, 10.415299 ], [ -14.532338, 10.416265 ], [ -14.556102, 10.438988 ], [ -14.551225, 10.460382 ], [ -14.553716, 10.475049 ], [ -14.563945, 10.467447 ], [ -14.619089, 10.461386 ], [ -14.633931, 10.457586 ], [ -14.652947, 10.456105 ], [ -14.656526, 10.458935 ], [ -14.660671, 10.467283 ], [ -14.659995, 10.48244 ], [ -14.66512, 10.51243 ], [ -14.649978, 10.534205 ], [ -14.655053, 10.548684 ], [ -14.653388, 10.558675 ], [ -14.649622, 10.560548 ], [ -14.636523, 10.558867 ], [ -14.624827, 10.565865 ], [ -14.619089, 10.573515 ], [ -14.614988, 10.578983 ], [ -14.613375, 10.592263 ], [ -14.619089, 10.604316 ], [ -14.620387, 10.607055 ], [ -14.622782, 10.622674 ], [ -14.619089, 10.637375 ], [ -14.605638, 10.701683 ], [ -14.564686, 10.749172 ], [ -14.538895, 10.813008 ], [ -14.521482, 10.821539 ], [ -14.510581, 10.823653 ], [ -14.507762, 10.827656 ], [ -14.50244, 10.840072 ], [ -14.501933, 10.852919 ], [ -14.505541, 10.861447 ], [ -14.511817, 10.867334 ], [ -14.511532, 10.871538 ], [ -14.477797, 10.880756 ], [ -14.466375, 10.86268 ], [ -14.461693, 10.848699 ], [ -14.453074, 10.859091 ], [ -14.449251, 10.876404 ], [ -14.44373, 10.884281 ], [ -14.437055, 10.882684 ], [ -14.430303, 10.872807 ], [ -14.420868, 10.880121 ], [ -14.390321, 10.891761 ], [ -14.375893, 10.874015 ], [ -14.362241, 10.870478 ], [ -14.364659, 10.879554 ], [ -14.376317, 10.884973 ], [ -14.385127, 10.906141 ], [ -14.409917, 10.889965 ], [ -14.421094, 10.888387 ], [ -14.440375, 10.890908 ], [ -14.453074, 10.882616 ], [ -14.462921, 10.874878 ], [ -14.465213, 10.880007 ], [ -14.463966, 10.890347 ], [ -14.453074, 10.902389 ], [ -14.447583, 10.90846 ], [ -14.453074, 10.91239 ], [ -14.4629, 10.918346 ], [ -14.461458, 10.908825 ], [ -14.465419, 10.901604 ], [ -14.478123, 10.895124 ], [ -14.515443, 10.885711 ], [ -14.520148, 10.868496 ], [ -14.519206, 10.845934 ], [ -14.525698, 10.840318 ], [ -14.536516, 10.83732 ], [ -14.542345, 10.840781 ], [ -14.542087, 10.854902 ], [ -14.549579, 10.862635 ], [ -14.556862, 10.886768 ], [ -14.559154, 10.874279 ], [ -14.571001, 10.8701 ], [ -14.584937, 10.876016 ], [ -14.592778, 10.891134 ], [ -14.604154, 10.884898 ], [ -14.621898, 10.882526 ], [ -14.640276, 10.888396 ], [ -14.649895, 10.878725 ], [ -14.646564, 10.866364 ], [ -14.652651, 10.858462 ], [ -14.654768, 10.843221 ], [ -14.672959, 10.840813 ], [ -14.685109, 10.819941 ], [ -14.687723, 10.804048 ], [ -14.703262, 10.79306 ], [ -14.706577, 10.774493 ], [ -14.737507, 10.76281 ], [ -14.750659, 10.765543 ], [ -14.754748, 10.771818 ], [ -14.75181, 10.777686 ], [ -14.7363, 10.785334 ], [ -14.725603, 10.787182 ], [ -14.72997, 10.800497 ], [ -14.715626, 10.803977 ], [ -14.703188, 10.814683 ], [ -14.701663, 10.82287 ], [ -14.708783, 10.830286 ], [ -14.709752, 10.835589 ], [ -14.693992, 10.843087 ], [ -14.685329, 10.856839 ], [ -14.672757, 10.86568 ], [ -14.689262, 10.880837 ], [ -14.667646, 10.888653 ], [ -14.662062, 10.892862 ], [ -14.660426, 10.898081 ], [ -14.662866, 10.90046 ], [ -14.671596, 10.896297 ], [ -14.683696, 10.897228 ], [ -14.70615, 10.885186 ], [ -14.710219, 10.876137 ], [ -14.70183, 10.866868 ], [ -14.701633, 10.859812 ], [ -14.711115, 10.864455 ], [ -14.725578, 10.863166 ], [ -14.72797, 10.867449 ], [ -14.723749, 10.880109 ], [ -14.723403, 10.893815 ], [ -14.705214, 10.90432 ], [ -14.700895, 10.910715 ], [ -14.712613, 10.914507 ], [ -14.720394, 10.924635 ], [ -14.718464, 10.941588 ], [ -14.709268, 10.949082 ], [ -14.695299, 10.947706 ], [ -14.692827, 10.94969 ], [ -14.704882, 10.955877 ], [ -14.718994, 10.952043 ], [ -14.73156, 10.935773 ], [ -14.734263, 10.921649 ], [ -14.740843, 10.91453 ], [ -14.747673, 10.917368 ], [ -14.761786, 10.931632 ], [ -14.77823, 10.93937 ], [ -14.777361, 10.945866 ], [ -14.764026, 10.956018 ], [ -14.738453, 10.957319 ], [ -14.711224, 10.986953 ], [ -14.69152, 10.997535 ], [ -14.682593, 11.022199 ], [ -14.658229, 11.018302 ], [ -14.638463, 11.011323 ], [ -14.630828, 10.988515 ], [ -14.625435, 11.015101 ], [ -14.640115, 11.024095 ], [ -14.645732, 11.037917 ], [ -14.657895, 11.044745 ], [ -14.682838, 11.071655 ], [ -14.68298, 11.077109 ], [ -14.669587, 11.086698 ], [ -14.665343, 11.093504 ], [ -14.688461, 11.102793 ], [ -14.701221, 11.095262 ], [ -14.706258, 11.076267 ], [ -14.713961, 11.070975 ], [ -14.68963, 11.055087 ], [ -14.686631, 11.04584 ], [ -14.702625, 11.043894 ], [ -14.721202, 11.048045 ], [ -14.721475, 11.044133 ], [ -14.715476, 11.03571 ], [ -14.716445, 11.031081 ], [ -14.723312, 11.027002 ], [ -14.736858, 11.027638 ], [ -14.745531, 11.032581 ], [ -14.751739, 11.041444 ], [ -14.777798, 11.052204 ], [ -14.773871, 11.069532 ], [ -14.775231, 11.078097 ], [ -14.779016, 11.081697 ], [ -14.782691, 11.070537 ], [ -14.791756, 11.062866 ], [ -14.789561, 11.046045 ], [ -14.814284, 11.04223 ], [ -14.822974, 11.032939 ], [ -14.827204, 11.016081 ], [ -14.834545, 11.009215 ], [ -14.837703, 10.983601 ], [ -14.855808, 10.971514 ], [ -14.867188, 10.973669 ], [ -14.876739, 10.980134 ], [ -14.87905, 10.988033 ], [ -14.863163, 11.000563 ], [ -14.861247, 11.0053 ], [ -14.867059, 11.012128 ], [ -14.86869, 11.024023 ], [ -14.878872, 11.01844 ], [ -14.883771, 11.027589 ], [ -14.864013, 11.042517 ], [ -14.857076, 11.059158 ], [ -14.848928, 11.066117 ], [ -14.85053, 11.074626 ], [ -14.846724, 11.084959 ], [ -14.853777, 11.091554 ], [ -14.848233, 11.108781 ], [ -14.851495, 11.109907 ], [ -14.862703, 11.105056 ], [ -14.872065, 11.107899 ], [ -14.86913, 11.091679 ], [ -14.874961, 11.086256 ], [ -14.871499, 11.078458 ], [ -14.873702, 11.074296 ], [ -14.883797, 11.076218 ], [ -14.90279, 11.092775 ], [ -14.895632, 11.105206 ], [ -14.876942, 11.137666 ], [ -14.849716, 11.184944 ], [ -14.843112, 11.196409 ], [ -14.841398, 11.199386 ], [ -14.837539, 11.210228 ], [ -14.835537, 11.21584 ], [ -14.831743, 11.226473 ], [ -14.807717, 11.279954 ], [ -14.779722, 11.353431 ], [ -14.736129, 11.413728 ], [ -14.701464, 11.461668 ], [ -14.6817, 11.481179 ], [ -14.671179, 11.491566 ], [ -14.623433, 11.502125 ], [ -14.619089, 11.501772 ], [ -14.517394, 11.493512 ], [ -14.453074, 11.529189 ], [ -14.436221, 11.538537 ], [ -14.429381, 11.542373 ], [ -14.398737, 11.559566 ], [ -14.38088, 11.569584 ], [ -14.365569, 11.578259 ], [ -14.324358, 11.601609 ], [ -14.298565, 11.634141 ], [ -14.286633, 11.649189 ], [ -14.264891, 11.666107 ], [ -14.246147, 11.664068 ], [ -14.235198, 11.671724 ], [ -14.221463, 11.66857 ], [ -14.206584, 11.671858 ], [ -14.178265, 11.657155 ], [ -14.140385, 11.658425 ], [ -14.127886, 11.651829 ], [ -14.112517, 11.636241 ], [ -14.106151, 11.634141 ], [ -14.08298, 11.626495 ], [ -14.078642, 11.632685 ], [ -14.075602, 11.634141 ], [ -14.069685, 11.636973 ], [ -14.060576, 11.645958 ], [ -14.045982, 11.646678 ], [ -14.039372, 11.654201 ], [ -14.018005, 11.649899 ], [ -13.992501, 11.644764 ], [ -13.946741, 11.656249 ], [ -13.934371, 11.670925 ], [ -13.926185, 11.676344 ], [ -13.89849, 11.66502 ], [ -13.871359, 11.66481 ], [ -13.864987, 11.681739 ], [ -13.858969, 11.689477 ], [ -13.854642, 11.709437 ], [ -13.846746, 11.719175 ], [ -13.849043, 11.726922 ], [ -13.855814, 11.721666 ], [ -13.86251, 11.728117 ], [ -13.861214, 11.739337 ], [ -13.855244, 11.744996 ], [ -13.848391, 11.742079 ], [ -13.838112, 11.743218 ], [ -13.826308, 11.735616 ], [ -13.824974, 11.730158 ], [ -13.832314, 11.721751 ], [ -13.820568, 11.706077 ], [ -13.808715, 11.707622 ], [ -13.800666, 11.714731 ], [ -13.794912, 11.714558 ], [ -13.794003, 11.710242 ], [ -13.798587, 11.702509 ], [ -13.797796, 11.694724 ], [ -13.784473, 11.687847 ], [ -13.776991, 11.689266 ], [ -13.772841, 11.682432 ], [ -13.759869, 11.685249 ], [ -13.754679, 11.68962 ], [ -13.740475, 11.701584 ], [ -13.727981, 11.704747 ], [ -13.715644, 11.707871 ], [ -13.71458, 11.744302 ], [ -13.721122, 11.762899 ], [ -13.713651, 11.792713 ], [ -13.714454, 11.838986 ], [ -13.721302, 11.887702 ], [ -13.716424, 11.914779 ], [ -13.713767, 11.969775 ], [ -13.704359, 12.006134 ], [ -13.71453, 12.015421 ], [ -13.727981, 12.01729 ], [ -13.741679, 12.019194 ], [ -13.754679, 12.024618 ], [ -13.793961, 12.041009 ], [ -13.796294, 12.042511 ], [ -13.810728, 12.051805 ], [ -13.814535, 12.075678 ], [ -13.818553, 12.08266 ], [ -13.84911, 12.093834 ], [ -13.872925, 12.106061 ], [ -13.879237, 12.113629 ], [ -13.880675, 12.12621 ], [ -13.885148, 12.132059 ], [ -13.938464, 12.146545 ], [ -13.947224, 12.155946 ], [ -13.949995, 12.168343 ], [ -13.956656, 12.179317 ], [ -13.95675, 12.196092 ], [ -13.954581, 12.199179 ], [ -13.933186, 12.205589 ], [ -13.917531, 12.234119 ], [ -13.858974, 12.242731 ], [ -13.853035, 12.259473 ], [ -13.855, 12.265973 ], [ -13.862243, 12.273859 ], [ -13.857698, 12.27948 ], [ -13.848232, 12.2828 ], [ -13.83367, 12.283099 ], [ -13.828299, 12.264218 ], [ -13.823178, 12.260205 ], [ -13.810951, 12.274684 ], [ -13.79952, 12.295615 ], [ -13.794738, 12.29058 ], [ -13.794075, 12.2796 ], [ -13.796363, 12.271926 ], [ -13.805461, 12.262544 ], [ -13.800892, 12.253575 ], [ -13.7765, 12.253244 ], [ -13.765968, 12.272445 ], [ -13.759178, 12.276277 ], [ -13.754679, 12.274133 ], [ -13.744498, 12.26928 ], [ -13.730967, 12.249644 ], [ -13.727981, 12.249829 ], [ -13.718864, 12.250392 ], [ -13.707888, 12.263389 ], [ -13.697569, 12.292506 ], [ -13.68517, 12.302557 ], [ -13.667908, 12.316549 ], [ -13.669095, 12.340006 ], [ -13.656626, 12.358261 ], [ -13.669041, 12.380592 ], [ -13.669693, 12.395605 ], [ -13.664984, 12.405571 ], [ -13.645132, 12.430098 ], [ -13.633181, 12.459398 ], [ -13.635043, 12.472493 ], [ -13.64373, 12.481352 ], [ -13.647942, 12.495614 ], [ -13.658475, 12.511857 ], [ -13.663574, 12.515358 ], [ -13.672326, 12.514793 ], [ -13.676596, 12.518324 ], [ -13.68517, 12.538431 ], [ -13.710175, 12.597059 ], [ -13.711601, 12.643072 ], [ -13.708273, 12.676213 ], [ -13.68517, 12.675983 ], [ -13.578428, 12.674921 ], [ -13.392376, 12.662079 ], [ -13.35268, 12.659504 ], [ -13.347309, 12.65099 ], [ -13.338568, 12.654046 ], [ -13.332609, 12.644878 ], [ -13.323219, 12.641878 ], [ -13.304774, 12.642766 ], [ -13.28782, 12.652088 ], [ -13.277187, 12.650707 ], [ -13.261406, 12.648659 ], [ -13.235578, 12.639919 ], [ -13.221636, 12.647786 ], [ -13.214153, 12.648423 ], [ -13.199716, 12.637759 ], [ -13.18662, 12.628085 ], [ -13.174706, 12.637868 ], [ -13.153924, 12.639476 ], [ -13.145218, 12.635898 ], [ -13.134993, 12.641939 ], [ -13.096994, 12.626338 ], [ -13.088411, 12.630022 ], [ -13.080292, 12.638293 ], [ -13.074292, 12.638538 ], [ -13.057045, 12.618359 ], [ -13.051331, 12.585125 ], [ -13.052485, 12.575985 ], [ -13.065359, 12.543429 ], [ -13.076095, 12.529593 ], [ -13.071097, 12.491848 ], [ -13.065418, 12.482336 ], [ -13.058453, 12.477008 ], [ -13.049477, 12.474197 ], [ -13.015861, 12.477083 ], [ -13.00058, 12.472493 ], [ -12.96782, 12.462651 ], [ -12.954498, 12.472493 ], [ -12.948846, 12.476668 ], [ -12.940936, 12.486021 ], [ -12.936465, 12.519509 ], [ -12.929917, 12.531115 ], [ -12.921843, 12.537011 ], [ -12.906393, 12.541518 ], [ -12.88783, 12.540107 ], [ -12.869376, 12.523649 ], [ -12.845053, 12.514512 ], [ -12.842071, 12.50972 ], [ -12.841066, 12.495977 ], [ -12.832742, 12.48634 ], [ -12.802606, 12.473598 ], [ -12.782723, 12.475781 ], [ -12.776348, 12.472493 ], [ -12.772242, 12.470375 ], [ -12.761716, 12.45817 ], [ -12.758371, 12.44172 ], [ -12.75327, 12.434481 ], [ -12.73616, 12.429581 ], [ -12.673044, 12.433361 ], [ -12.640317, 12.431161 ], [ -12.632573, 12.430641 ], [ -12.621371, 12.425415 ], [ -12.605767, 12.405597 ], [ -12.585537, 12.396061 ], [ -12.575913, 12.380751 ], [ -12.562182, 12.368468 ], [ -12.543725, 12.371697 ], [ -12.50521, 12.397129 ], [ -12.485505, 12.400203 ], [ -12.452462, 12.392448 ], [ -12.40217, 12.367054 ], [ -12.389243, 12.354941 ], [ -12.361499, 12.313308 ], [ -12.352199, 12.307492 ], [ -12.331386, 12.311384 ], [ -12.308679, 12.322686 ], [ -12.28991, 12.332027 ], [ -12.235361, 12.35467 ], [ -12.178281, 12.360947 ], [ -12.159483, 12.368637 ], [ -12.11363, 12.411672 ], [ -12.09592, 12.421205 ], [ -12.084656, 12.421564 ], [ -12.075532, 12.418235 ], [ -12.05008, 12.422569 ], [ -12.033629, 12.405256 ], [ -12.023501, 12.399105 ], [ -12.012592, 12.396663 ], [ -11.975543, 12.401548 ], [ -11.958075, 12.407591 ], [ -11.930373, 12.425522 ], [ -11.904784, 12.430681 ], [ -11.894761, 12.427308 ], [ -11.86154, 12.402576 ], [ -11.850332, 12.397873 ], [ -11.814737, 12.393124 ], [ -11.78542, 12.393202 ], [ -11.758963, 12.388433 ], [ -11.713252, 12.394068 ], [ -11.662494, 12.423178 ], [ -11.603394, 12.426848 ], [ -11.553545, 12.439421 ], [ -11.529246, 12.442688 ], [ -11.459837, 12.441004 ], [ -11.433464, 12.431549 ], [ -11.407253, 12.417519 ], [ -11.37946, 12.41356 ], [ -11.374858, 12.391876 ], [ -11.379869, 12.384838 ], [ -11.401056, 12.382586 ], [ -11.410487, 12.378997 ], [ -11.416912, 12.393643 ], [ -11.438646, 12.378394 ], [ -11.44124, 12.361262 ], [ -11.448622, 12.350616 ], [ -11.43958, 12.331972 ], [ -11.434341, 12.296405 ], [ -11.43538, 12.286625 ], [ -11.439932, 12.277194 ], [ -11.450197, 12.268682 ], [ -11.455617, 12.251094 ], [ -11.464134, 12.242159 ], [ -11.480479, 12.234025 ], [ -11.495565, 12.211602 ], [ -11.494686, 12.181564 ], [ -11.463578, 12.134091 ], [ -11.414247, 12.113033 ], [ -11.38603, 12.107963 ], [ -11.376, 12.103101 ], [ -11.361788, 12.080901 ], [ -11.361287, 12.062943 ], [ -11.358699, 12.057946 ], [ -11.338814, 12.042511 ], [ -11.31002, 12.020161 ], [ -11.263562, 11.995838 ], [ -11.252117, 11.992826 ], [ -11.240181, 11.995778 ], [ -11.224519, 12.010997 ], [ -11.214642, 12.016328 ], [ -11.193396, 12.015132 ], [ -11.183816, 12.01807 ], [ -11.1536, 12.042511 ], [ -11.143381, 12.050777 ], [ -11.139199, 12.059629 ], [ -11.143448, 12.078293 ], [ -11.140696, 12.090469 ], [ -11.133194, 12.094729 ], [ -11.107872, 12.096893 ], [ -11.104919, 12.101461 ], [ -11.103566, 12.118099 ], [ -11.072915, 12.136802 ], [ -11.045522, 12.218568 ], [ -11.040595, 12.218062 ], [ -11.032401, 12.21161 ], [ -11.011612, 12.206465 ], [ -10.987264, 12.208869 ], [ -10.966165, 12.220688 ], [ -10.942304, 12.218236 ], [ -10.931538, 12.222098 ], [ -10.909132, 12.212483 ], [ -10.900847, 12.201105 ], [ -10.890857, 12.200956 ], [ -10.875751, 12.160742 ], [ -10.846585, 12.133098 ], [ -10.826932, 12.120861 ], [ -10.798022, 12.113486 ], [ -10.789687, 12.107295 ], [ -10.785055, 12.069189 ], [ -10.791566, 12.042511 ], [ -10.792427, 12.033633 ], [ -10.77932, 12.014096 ], [ -10.755926, 11.990921 ], [ -10.746844, 11.964337 ], [ -10.749232, 11.943144 ], [ -10.735035, 11.921562 ], [ -10.715974, 11.913679 ], [ -10.689476, 11.894729 ], [ -10.669272, 11.896102 ], [ -10.643752, 11.911198 ], [ -10.639433, 11.928082 ], [ -10.630498, 11.940435 ], [ -10.617284, 11.971647 ], [ -10.611416, 11.975285 ], [ -10.59863, 11.976381 ], [ -10.588339, 11.984178 ], [ -10.578157, 11.986667 ], [ -10.564825, 11.996778 ], [ -10.565012, 12.000872 ], [ -10.578081, 12.01324 ], [ -10.576407, 12.023194 ], [ -10.570825, 12.026212 ], [ -10.535394, 12.031538 ], [ -10.523145, 12.042511 ], [ -10.520457, 12.051364 ], [ -10.523242, 12.068 ], [ -10.521798, 12.074706 ], [ -10.505763, 12.083854 ], [ -10.517965, 12.10642 ], [ -10.511461, 12.117392 ], [ -10.494725, 12.122482 ], [ -10.454274, 12.117628 ], [ -10.437, 12.131595 ], [ -10.427727, 12.135819 ], [ -10.414008, 12.142068 ], [ -10.41409, 12.166058 ], [ -10.408906, 12.173352 ], [ -10.396423, 12.17602 ], [ -10.371964, 12.168242 ], [ -10.361576, 12.174611 ], [ -10.358272, 12.191624 ], [ -10.351423, 12.192701 ], [ -10.335026, 12.188473 ], [ -10.332163, 12.200233 ], [ -10.340556, 12.218022 ], [ -10.337596, 12.224814 ], [ -10.327911, 12.219821 ], [ -10.310361, 12.219024 ], [ -10.304718, 12.210975 ], [ -10.299388, 12.19433 ], [ -10.294181, 12.191313 ], [ -10.286763, 12.194021 ], [ -10.288306, 12.206035 ], [ -10.284108, 12.211715 ], [ -10.276691, 12.212437 ], [ -10.266902, 12.207885 ], [ -10.250691, 12.215139 ], [ -10.247091, 12.213261 ], [ -10.246772, 12.20441 ], [ -10.242937, 12.199732 ], [ -10.223448, 12.202596 ], [ -10.194404, 12.20021 ], [ -10.184092, 12.187763 ], [ -10.167386, 12.183861 ], [ -10.148984, 12.173183 ], [ -10.130958, 12.177749 ], [ -10.11139, 12.175897 ], [ -10.090003, 12.179069 ], [ -10.082307, 12.172522 ], [ -10.076972, 12.148771 ], [ -10.066679, 12.139631 ], [ -10.063646, 12.139848 ], [ -10.058817, 12.148753 ], [ -10.052617, 12.141437 ], [ -10.03985, 12.14145 ], [ -10.025632, 12.129544 ], [ -10.00084, 12.127497 ], [ -9.970727, 12.099313 ], [ -9.954885, 12.105704 ], [ -9.939256, 12.097215 ], [ -9.91732, 12.09951 ], [ -9.907088, 12.080629 ], [ -9.892219, 12.066751 ], [ -9.881696, 12.056928 ], [ -9.862119, 12.058517 ], [ -9.826665, 12.05327 ], [ -9.812868, 12.057103 ], [ -9.792894, 12.042511 ], [ -9.790166, 12.040518 ], [ -9.770914, 12.032542 ], [ -9.701301, 12.024255 ], [ -9.698392, 12.042511 ], [ -9.69564, 12.056057 ], [ -9.681302, 12.066109 ], [ -9.676919, 12.076185 ], [ -9.680279, 12.102126 ], [ -9.677543, 12.122851 ], [ -9.663523, 12.141029 ], [ -9.629324, 12.172865 ], [ -9.57214, 12.189976 ], [ -9.554284, 12.190068 ], [ -9.54168, 12.193529 ], [ -9.524158, 12.20505 ], [ -9.505137, 12.217557 ], [ -9.490107, 12.239251 ], [ -9.479387, 12.245243 ], [ -9.442775, 12.251167 ], [ -9.416052, 12.259284 ], [ -9.403388, 12.250861 ], [ -9.391046, 12.25346 ], [ -9.368474, 12.246033 ], [ -9.34261, 12.24442 ], [ -9.341611, 12.260728 ], [ -9.329695, 12.264295 ], [ -9.321061, 12.272789 ], [ -9.322392, 12.314515 ], [ -9.31973, 12.318744 ], [ -9.312242, 12.320489 ], [ -9.307992, 12.325128 ], [ -9.304751, 12.333796 ], [ -9.306281, 12.34676 ], [ -9.298307, 12.357338 ], [ -9.309437, 12.367178 ], [ -9.323868, 12.370177 ], [ -9.331282, 12.374894 ], [ -9.341082, 12.398324 ], [ -9.356506, 12.406278 ], [ -9.357547, 12.418121 ], [ -9.370921, 12.419605 ], [ -9.386656, 12.447975 ], [ -9.402449, 12.445619 ], [ -9.405304, 12.453395 ], [ -9.404124, 12.458955 ], [ -9.401428, 12.463114 ], [ -9.386658, 12.47075 ], [ -9.369086, 12.475242 ], [ -9.360202, 12.494388 ], [ -9.341747, 12.492497 ], [ -9.337476, 12.480584 ], [ -9.331957, 12.478584 ], [ -9.325424, 12.483667 ], [ -9.317034, 12.49944 ], [ -9.286982, 12.482706 ], [ -9.281178, 12.484934 ], [ -9.272476, 12.495779 ], [ -9.253292, 12.501787 ], [ -9.237088, 12.496414 ], [ -9.224061, 12.495538 ], [ -9.202422, 12.48717 ], [ -9.157151, 12.484413 ], [ -9.086814, 12.440075 ], [ -9.035321, 12.4229 ], [ -9.024785, 12.411926 ], [ -9.009054, 12.385073 ], [ -8.968845, 12.347533 ], [ -8.960422, 12.331441 ], [ -8.95867, 12.318852 ], [ -8.966349, 12.302511 ], [ -8.980734, 12.289398 ], [ -8.987169, 12.278943 ], [ -8.993412, 12.251571 ], [ -8.992667, 12.224741 ], [ -8.979357, 12.21144 ], [ -8.977795, 12.19302 ], [ -8.973693, 12.185002 ], [ -8.953247, 12.188163 ], [ -8.943032, 12.186453 ], [ -8.936793, 12.196905 ], [ -8.926609, 12.197474 ], [ -8.923223, 12.187225 ], [ -8.914666, 12.183745 ], [ -8.904583, 12.168659 ], [ -8.904482, 12.159845 ], [ -8.8963, 12.14655 ], [ -8.901063, 12.12913 ], [ -8.903426, 12.102389 ], [ -8.91529, 12.089532 ], [ -8.918297, 12.060458 ], [ -8.91254, 12.042511 ], [ -8.905442, 12.038705 ], [ -8.895802, 12.039565 ], [ -8.885958, 12.035517 ], [ -8.872961, 12.023853 ], [ -8.856283, 12.041232 ], [ -8.843622, 12.036625 ], [ -8.834045, 12.039075 ], [ -8.829706, 12.029946 ], [ -8.806154, 12.005457 ], [ -8.815679, 11.969906 ], [ -8.813541, 11.961509 ], [ -8.802295, 11.945748 ], [ -8.795321, 11.921899 ], [ -8.822251, 11.769436 ], [ -8.853447, 11.629198 ], [ -8.821601, 11.625873 ], [ -8.799446, 11.615295 ], [ -8.792332, 11.621324 ], [ -8.786106, 11.62159 ], [ -8.77282, 11.617156 ], [ -8.759874, 11.607871 ], [ -8.751777, 11.614572 ], [ -8.73344, 11.629748 ], [ -8.719321, 11.629995 ], [ -8.701259, 11.635904 ], [ -8.690252, 11.63452 ], [ -8.685256, 11.630583 ], [ -8.682566, 11.623036 ], [ -8.690247, 11.588204 ], [ -8.688331, 11.575588 ], [ -8.68483, 11.57037 ], [ -8.672631, 11.563035 ], [ -8.66534, 11.523929 ], [ -8.653227, 11.498257 ], [ -8.614548, 11.454898 ], [ -8.596769, 11.45634 ], [ -8.582418, 11.444359 ], [ -8.576297, 11.443764 ], [ -8.571596, 11.446885 ], [ -8.564844, 11.459027 ], [ -8.533412, 11.4768 ], [ -8.526189, 11.469635 ], [ -8.524968, 11.458776 ], [ -8.518695, 11.44448 ], [ -8.527008, 11.43834 ], [ -8.527275, 11.433157 ], [ -8.509526, 11.419071 ], [ -8.500015, 11.398165 ], [ -8.454982, 11.381516 ], [ -8.436323, 11.383484 ], [ -8.418938, 11.378509 ], [ -8.39658, 11.381829 ], [ -8.382554, 11.37549 ], [ -8.377142, 11.368419 ], [ -8.410584, 11.359666 ], [ -8.41624, 11.352314 ], [ -8.421522, 11.334398 ], [ -8.417827, 11.327743 ], [ -8.402756, 11.322303 ], [ -8.371251, 11.324326 ], [ -8.366026, 11.321357 ], [ -8.364996, 11.315431 ], [ -8.371374, 11.29098 ], [ -8.377993, 11.278726 ], [ -8.393235, 11.272535 ], [ -8.419855, 11.270371 ], [ -8.466343, 11.288546 ], [ -8.480393, 11.288076 ], [ -8.493319, 11.27709 ], [ -8.49895, 11.263117 ], [ -8.49145, 11.238285 ], [ -8.485069, 11.229399 ], [ -8.487364, 11.22158 ], [ -8.497147, 11.216549 ], [ -8.516997, 11.219036 ], [ -8.530762, 11.210394 ], [ -8.555065, 11.211416 ], [ -8.566646, 11.203763 ], [ -8.572989, 11.185172 ], [ -8.564898, 11.154825 ], [ -8.572863, 11.136663 ], [ -8.583395, 11.125355 ], [ -8.610485, 11.127643 ], [ -8.621283, 11.120967 ], [ -8.62514, 11.112053 ], [ -8.622398, 11.100195 ], [ -8.620926, 11.093828 ], [ -8.621919, 11.087119 ], [ -8.645079, 11.063006 ], [ -8.651405, 11.033033 ], [ -8.680754, 11.008548 ], [ -8.681974, 11.001187 ], [ -8.678046, 10.97864 ], [ -8.680371, 10.964876 ], [ -8.677959, 10.957116 ], [ -8.671542, 10.950574 ], [ -8.661632, 10.949496 ], [ -8.622723, 10.964947 ], [ -8.609668, 10.957314 ], [ -8.589657, 10.950899 ], [ -8.537114, 10.975569 ], [ -8.514786, 10.973006 ], [ -8.51343, 10.995441 ], [ -8.502999, 11.030996 ], [ -8.482612, 11.063977 ], [ -8.472066, 11.068716 ], [ -8.446783, 11.073406 ], [ -8.42889, 11.072321 ], [ -8.403907, 11.0627 ], [ -8.382277, 11.075156 ], [ -8.373053, 11.074727 ], [ -8.347794, 11.067666 ], [ -8.323024, 11.047018 ], [ -8.32094, 11.04528 ], [ -8.292625, 11.006218 ], [ -8.287425, 10.995114 ], [ -8.287192, 10.982281 ], [ -8.29077, 10.970163 ], [ -8.279406, 10.926378 ], [ -8.281586, 10.897273 ], [ -8.275902, 10.853573 ], [ -8.283067, 10.835887 ], [ -8.299759, 10.829242 ], [ -8.305078, 10.823113 ], [ -8.307854, 10.807778 ], [ -8.323024, 10.782829 ], [ -8.326481, 10.776682 ], [ -8.328729, 10.764946 ], [ -8.323024, 10.756553 ], [ -8.299154, 10.75515 ], [ -8.296289, 10.75166 ], [ -8.30654, 10.715808 ], [ -8.29661, 10.687254 ], [ -8.301254, 10.637029 ], [ -8.290607, 10.615063 ], [ -8.288565, 10.593046 ], [ -8.277917, 10.586764 ], [ -8.273648, 10.577929 ], [ -8.272702, 10.560371 ], [ -8.27698, 10.523745 ], [ -8.273538, 10.513246 ], [ -8.262892, 10.500971 ], [ -8.262163, 10.478522 ], [ -8.248414, 10.467127 ], [ -8.243976, 10.463449 ], [ -8.239375, 10.436979 ], [ -8.231754, 10.41718 ], [ -8.224345, 10.409778 ], [ -8.200269, 10.400986 ], [ -8.17289, 10.399264 ], [ -8.163268, 10.401901 ], [ -8.140644, 10.420902 ], [ -8.122175, 10.422458 ], [ -8.118341, 10.417899 ], [ -8.111486, 10.387067 ], [ -8.09115, 10.358199 ], [ -8.079724, 10.3534 ], [ -8.068541, 10.352483 ], [ -8.050505, 10.351003 ], [ -8.005839, 10.342556 ], [ -7.993956, 10.33714 ], [ -7.971607, 10.316753 ], [ -7.961387, 10.295687 ], [ -7.947574, 10.241642 ], [ -7.953402, 10.208369 ], [ -7.97701, 10.180566 ], [ -7.97855, 10.17511 ], [ -8.020255, 10.093573 ], [ -8.046396, 10.073034 ], [ -8.068541, 10.064105 ], [ -8.100593, 10.051182 ], [ -8.128907, 10.016954 ], [ -8.135209, 10.005126 ], [ -8.137895, 9.993552 ], [ -8.148692, 9.984668 ], [ -8.150319, 9.97724 ], [ -8.140542, 9.96988 ], [ -8.127801, 9.975339 ], [ -8.121178, 9.974426 ], [ -8.117951, 9.968638 ], [ -8.119425, 9.957754 ], [ -8.147789, 9.9496 ], [ -8.163842, 9.949392 ], [ -8.164653, 9.946766 ], [ -8.154472, 9.937819 ], [ -8.163923, 9.925578 ], [ -8.160146, 9.913283 ], [ -8.15617, 9.910387 ], [ -8.141519, 9.916195 ], [ -8.134834, 9.915788 ], [ -8.125733, 9.898084 ], [ -8.129471, 9.883593 ], [ -8.140109, 9.883802 ], [ -8.142547, 9.871139 ], [ -8.135865, 9.866479 ], [ -8.120026, 9.868379 ], [ -8.112153, 9.865123 ], [ -8.108456, 9.855482 ], [ -8.111309, 9.839002 ], [ -8.102741, 9.829322 ], [ -8.106244, 9.810633 ], [ -8.114631, 9.810302 ], [ -8.117228, 9.807504 ], [ -8.110991, 9.797295 ], [ -8.120294, 9.786879 ], [ -8.115334, 9.765278 ], [ -8.127706, 9.758524 ], [ -8.125132, 9.752793 ], [ -8.128085, 9.742403 ], [ -8.123949, 9.708297 ], [ -8.132247, 9.699201 ], [ -8.135198, 9.690488 ], [ -8.130763, 9.672921 ], [ -8.134304, 9.666621 ], [ -8.129314, 9.661027 ], [ -8.128604, 9.654235 ], [ -8.134686, 9.637078 ], [ -8.150459, 9.623792 ], [ -8.144911, 9.613104 ], [ -8.151755, 9.5908 ], [ -8.148347, 9.582418 ], [ -8.145479, 9.575363 ], [ -8.150959, 9.564229 ], [ -8.148552, 9.534859 ], [ -8.135118, 9.525217 ], [ -8.136666, 9.514807 ], [ -8.133519, 9.504123 ], [ -8.111631, 9.466428 ], [ -8.0813, 9.42538 ], [ -8.068541, 9.412417 ], [ -8.058543, 9.402259 ], [ -8.013227, 9.401344 ], [ -7.983403, 9.395035 ], [ -7.970923, 9.395865 ], [ -7.939416, 9.409078 ], [ -7.917563, 9.418242 ], [ -7.892952, 9.417701 ], [ -7.881014, 9.434914 ], [ -7.850347, 9.434705 ], [ -7.849927, 9.428952 ], [ -7.855714, 9.422497 ], [ -7.866124, 9.377868 ], [ -7.887354, 9.344036 ], [ -7.885262, 9.304624 ], [ -7.888117, 9.289582 ], [ -7.924776, 9.217908 ], [ -7.920235, 9.189578 ], [ -7.90863, 9.174065 ], [ -7.883006, 9.159343 ], [ -7.853824, 9.176787 ], [ -7.837113, 9.176492 ], [ -7.833016, 9.168654 ], [ -7.836435, 9.15125 ], [ -7.814609, 9.141215 ], [ -7.809923, 9.12783 ], [ -7.787303, 9.106407 ], [ -7.761291, 9.095215 ], [ -7.741942, 9.083126 ], [ -7.738325, 9.077689 ], [ -7.751449, 9.069334 ], [ -7.764246, 9.066843 ], [ -7.818245, 9.079947 ], [ -7.841733, 9.06968 ], [ -7.853572, 9.058879 ], [ -7.86591, 9.040886 ], [ -7.894775, 9.028201 ], [ -7.908291, 9.015738 ], [ -7.918871, 8.999503 ], [ -7.918556, 8.965027 ], [ -7.931919, 8.937967 ], [ -7.939416, 8.915466 ], [ -7.954195, 8.8711 ], [ -7.961918, 8.824995 ], [ -7.961047, 8.812129 ], [ -7.941943, 8.781528 ], [ -7.939416, 8.780015 ], [ -7.9165, 8.766295 ], [ -7.90048, 8.765988 ], [ -7.87511, 8.774826 ], [ -7.85739, 8.777338 ], [ -7.84494, 8.776048 ], [ -7.821908, 8.766437 ], [ -7.784816, 8.771851 ], [ -7.768801, 8.762455 ], [ -7.724133, 8.659858 ], [ -7.687922, 8.546994 ], [ -7.661783, 8.506049 ], [ -7.660778, 8.486189 ], [ -7.678915, 8.455626 ], [ -7.680505, 8.445313 ], [ -7.66663, 8.411357 ], [ -7.653146, 8.398136 ], [ -7.643209, 8.379036 ], [ -7.652222, 8.374886 ], [ -7.693993, 8.371556 ], [ -7.746635, 8.375328 ], [ -7.75345, 8.383277 ], [ -7.788729, 8.463003 ], [ -7.805627, 8.477884 ], [ -7.820405, 8.482147 ], [ -7.827539, 8.488025 ], [ -7.833828, 8.482095 ], [ -7.836979, 8.470165 ], [ -7.831909, 8.439884 ], [ -7.833534, 8.43331 ], [ -7.851473, 8.420991 ], [ -7.883729, 8.418663 ], [ -7.88662, 8.421426 ], [ -7.886127, 8.433327 ], [ -7.906098, 8.435891 ], [ -7.910992, 8.447009 ], [ -7.920827, 8.449925 ], [ -7.919046, 8.460594 ], [ -7.912284, 8.46119 ], [ -7.920837, 8.478286 ], [ -7.915705, 8.484556 ], [ -7.939416, 8.499641 ], [ -7.953664, 8.494498 ], [ -7.971107, 8.496719 ], [ -7.98728, 8.485574 ], [ -8.011047, 8.489145 ], [ -8.025433, 8.494723 ], [ -8.043269, 8.495661 ], [ -8.062086, 8.504405 ], [ -8.068541, 8.502704 ], [ -8.080745, 8.499487 ], [ -8.094079, 8.503492 ], [ -8.105797, 8.491055 ], [ -8.11758, 8.483715 ], [ -8.140219, 8.492742 ], [ -8.153581, 8.487118 ], [ -8.160169, 8.49472 ], [ -8.168766, 8.49434 ], [ -8.178563, 8.499491 ], [ -8.193157, 8.501308 ], [ -8.205415, 8.483254 ], [ -8.220363, 8.469737 ], [ -8.223227, 8.460771 ], [ -8.237624, 8.462264 ], [ -8.243521, 8.443928 ], [ -8.236183, 8.393998 ], [ -8.226664, 8.357387 ], [ -8.236874, 8.326671 ], [ -8.231466, 8.301266 ], [ -8.231147, 8.281202 ], [ -8.247156, 8.255135 ], [ -8.245239, 8.233199 ], [ -8.233245, 8.227886 ], [ -8.223391, 8.232312 ], [ -8.215394, 8.231366 ], [ -8.177927, 8.199986 ], [ -8.164009, 8.196605 ], [ -8.123508, 8.194248 ], [ -8.106698, 8.185262 ], [ -8.088626, 8.168094 ], [ -8.073365, 8.163235 ], [ -8.068541, 8.164591 ], [ -8.064486, 8.165731 ], [ -8.057288, 8.173547 ], [ -8.039305, 8.20296 ], [ -8.033065, 8.201388 ], [ -8.020803, 8.189088 ], [ -8.004786, 8.196859 ], [ -7.998084, 8.196179 ], [ -7.994518, 8.191156 ], [ -7.994189, 8.184212 ], [ -8.008496, 8.160642 ], [ -8.008594, 8.140618 ], [ -8.01389, 8.124396 ], [ -8.012439, 8.100232 ], [ -8.00709, 8.09272 ], [ -7.980884, 8.077448 ], [ -7.970504, 8.060775 ], [ -7.963661, 8.049783 ], [ -7.949839, 8.042175 ], [ -7.948157, 8.037751 ], [ -7.946904, 8.014778 ], [ -7.952553, 8.008939 ], [ -7.970648, 8.015218 ], [ -7.984084, 8.013518 ], [ -7.98988, 8.019752 ], [ -7.990169, 8.032738 ], [ -7.999843, 8.037423 ], [ -8.013502, 8.032331 ], [ -8.042652, 8.030861 ], [ -8.059594, 8.017334 ], [ -8.061224, 8.010094 ], [ -8.055171, 7.99586 ], [ -8.066052, 7.958298 ], [ -8.068541, 7.952134 ], [ -8.082723, 7.917007 ], [ -8.107967, 7.882446 ], [ -8.11619, 7.860348 ], [ -8.111561, 7.8429 ], [ -8.07401, 7.809135 ], [ -8.072467, 7.790612 ], [ -8.086691, 7.764697 ], [ -8.096288, 7.721465 ], [ -8.103721, 7.715798 ], [ -8.123524, 7.709427 ], [ -8.138321, 7.693348 ], [ -8.144442, 7.657317 ], [ -8.158251, 7.641871 ], [ -8.169783, 7.622512 ], [ -8.174994, 7.578655 ], [ -8.196201, 7.543571 ], [ -8.205217, 7.536914 ], [ -8.214502, 7.535897 ], [ -8.254416, 7.565332 ], [ -8.291146, 7.579438 ], [ -8.303585, 7.599551 ], [ -8.322914, 7.59804 ], [ -8.347255, 7.57908 ], [ -8.369749, 7.57402 ], [ -8.379394, 7.581028 ], [ -8.385493, 7.606075 ], [ -8.39673, 7.611443 ], [ -8.419201, 7.606109 ], [ -8.47218, 7.55459 ] ] ], [ [ [ -15.074756, 10.875186 ], [ -15.071548, 10.886228 ], [ -15.05782, 10.900551 ], [ -15.051061, 10.907603 ], [ -15.035732, 10.919753 ], [ -15.026365, 10.92185 ], [ -15.023666, 10.922455 ], [ -15.014617, 10.927917 ], [ -15.002363, 10.951023 ], [ -14.977066, 10.962586 ], [ -14.971571, 10.965098 ], [ -14.967253, 10.967332 ], [ -14.964095, 10.971362 ], [ -14.955405, 10.974177 ], [ -14.946551, 10.971 ], [ -14.939231, 10.965098 ], [ -14.905184, 10.934075 ], [ -14.901968, 10.926751 ], [ -14.904092, 10.917727 ], [ -14.919111, 10.896692 ], [ -14.926764, 10.895969 ], [ -14.924022, 10.889805 ], [ -14.950107, 10.860804 ], [ -14.962905, 10.867453 ], [ -14.967574, 10.882216 ], [ -14.971868, 10.884393 ], [ -14.970086, 10.869487 ], [ -14.97461, 10.862177 ], [ -14.963401, 10.842924 ], [ -14.963479, 10.832575 ], [ -14.969271, 10.831527 ], [ -14.977066, 10.833592 ], [ -14.991698, 10.837468 ], [ -14.997649, 10.833531 ], [ -14.989534, 10.830832 ], [ -14.987602, 10.829363 ], [ -14.977066, 10.821348 ], [ -14.958237, 10.807024 ], [ -14.947212, 10.803133 ], [ -14.941026, 10.795457 ], [ -14.949948, 10.774077 ], [ -14.96285, 10.769141 ], [ -14.977066, 10.771522 ], [ -14.999973, 10.77536 ], [ -15.018143, 10.783952 ], [ -15.026365, 10.794727 ], [ -15.052798, 10.829363 ], [ -15.05782, 10.835943 ], [ -15.069471, 10.851209 ], [ -15.074756, 10.875186 ] ] ], [ [ [ -14.934839, 10.866214 ], [ -14.912195, 10.888292 ], [ -14.901463, 10.91173 ], [ -14.891099, 10.917316 ], [ -14.885976, 10.913578 ], [ -14.88502, 10.905636 ], [ -14.890345, 10.896278 ], [ -14.889226, 10.895029 ], [ -14.882448, 10.897701 ], [ -14.872345, 10.891978 ], [ -14.868192, 10.8781 ], [ -14.873949, 10.860544 ], [ -14.875582, 10.860372 ], [ -14.884658, 10.875754 ], [ -14.893896, 10.882622 ], [ -14.893691, 10.889125 ], [ -14.897897, 10.887204 ], [ -14.896061, 10.880476 ], [ -14.88426, 10.868117 ], [ -14.8849, 10.851222 ], [ -14.880804, 10.842301 ], [ -14.888524, 10.82938 ], [ -14.88969, 10.818133 ], [ -14.904421, 10.808448 ], [ -14.91496, 10.81319 ], [ -14.916479, 10.820971 ], [ -14.925523, 10.82938 ], [ -14.932818, 10.848594 ], [ -14.934839, 10.866214 ] ] ], [ [ [ -14.795689, 10.980725 ], [ -14.787341, 10.988609 ], [ -14.778665, 11.003702 ], [ -14.74547, 11.017697 ], [ -14.72785, 11.015448 ], [ -14.722217, 11.00728 ], [ -14.731902, 11.000075 ], [ -14.742131, 11.003521 ], [ -14.743152, 11.002173 ], [ -14.737024, 10.993797 ], [ -14.738369, 10.988609 ], [ -14.747772, 10.971919 ], [ -14.752043, 10.970736 ], [ -14.766069, 10.980132 ], [ -14.765499, 10.986784 ], [ -14.759666, 10.988609 ], [ -14.760638, 10.990894 ], [ -14.77081, 10.988609 ], [ -14.779702, 10.975949 ], [ -14.789368, 10.976244 ], [ -14.795689, 10.980725 ] ] ], [ [ [ -14.886813, 10.936527 ], [ -14.881791, 10.94102 ], [ -14.871412, 10.942444 ], [ -14.866603, 10.939869 ], [ -14.862195, 10.936143 ], [ -14.856392, 10.928254 ], [ -14.851258, 10.914282 ], [ -14.850923, 10.901077 ], [ -14.851983, 10.89779 ], [ -14.858401, 10.899159 ], [ -14.859963, 10.897296 ], [ -14.865376, 10.89768 ], [ -14.868333, 10.896529 ], [ -14.871858, 10.899269 ], [ -14.876211, 10.900694 ], [ -14.877773, 10.904201 ], [ -14.873309, 10.912091 ], [ -14.874983, 10.916364 ], [ -14.877773, 10.91757 ], [ -14.884916, 10.92546 ], [ -14.886701, 10.928966 ], [ -14.886813, 10.936527 ] ] ], [ [ [ -13.727981, 9.86013 ], [ -13.719034, 9.864485 ], [ -13.717903, 9.863177 ], [ -13.725193, 9.85308 ], [ -13.727981, 9.851318 ], [ -13.75468, 9.834448 ], [ -13.766078, 9.811979 ], [ -13.772613, 9.810426 ], [ -13.778531, 9.813999 ], [ -13.781876, 9.8249 ], [ -13.778505, 9.83394 ], [ -13.770564, 9.839001 ], [ -13.75468, 9.843331 ], [ -13.738229, 9.855142 ], [ -13.727981, 9.86013 ] ] ], [ [ [ -14.797571, 11.028872 ], [ -14.793017, 11.035554 ], [ -14.779722, 11.039854 ], [ -14.776788, 11.040711 ], [ -14.762154, 11.037957 ], [ -14.755053, 11.027945 ], [ -14.762154, 11.016992 ], [ -14.764434, 11.013887 ], [ -14.779722, 11.009437 ], [ -14.78307, 11.011683 ], [ -14.783535, 11.018471 ], [ -14.795432, 11.020784 ], [ -14.797571, 11.028872 ] ] ], [ [ [ -14.812958, 10.925003 ], [ -14.796865, 10.936342 ], [ -14.779722, 10.926411 ], [ -14.776951, 10.923072 ], [ -14.772549, 10.928367 ], [ -14.767771, 10.926254 ], [ -14.770418, 10.913293 ], [ -14.775379, 10.913427 ], [ -14.777611, 10.91984 ], [ -14.779722, 10.91772 ], [ -14.788809, 10.90945 ], [ -14.797629, 10.911858 ], [ -14.801874, 10.915841 ], [ -14.804523, 10.908949 ], [ -14.799478, 10.898166 ], [ -14.79972, 10.893786 ], [ -14.802099, 10.893012 ], [ -14.805002, 10.897164 ], [ -14.807242, 10.89365 ], [ -14.809342, 10.893963 ], [ -14.810431, 10.899459 ], [ -14.806859, 10.903616 ], [ -14.810781, 10.910901 ], [ -14.812958, 10.925003 ] ] ], [ [ [ -14.951459, 11.007996 ], [ -14.949603, 11.013438 ], [ -14.943584, 11.015501 ], [ -14.936353, 11.009878 ], [ -14.929498, 11.019317 ], [ -14.928119, 11.017427 ], [ -14.930631, 11.009625 ], [ -14.92844, 11.000456 ], [ -14.924842, 11.000174 ], [ -14.910762, 11.009069 ], [ -14.904732, 11.005929 ], [ -14.901759, 10.999216 ], [ -14.903039, 10.997287 ], [ -14.913918, 10.999498 ], [ -14.917632, 10.994041 ], [ -14.924522, 10.993038 ], [ -14.921783, 10.988604 ], [ -14.917914, 10.984438 ], [ -14.921832, 10.981527 ], [ -14.917666, 10.977429 ], [ -14.917896, 10.973189 ], [ -14.924125, 10.96777 ], [ -14.926956, 10.968506 ], [ -14.927651, 10.975079 ], [ -14.933203, 10.980102 ], [ -14.932823, 10.988604 ], [ -14.93348, 10.99453 ], [ -14.950229, 11.005177 ], [ -14.951459, 11.007996 ] ] ], [ [ [ -13.839805, 9.468988 ], [ -13.83648, 9.476097 ], [ -13.83436, 9.48357 ], [ -13.828423, 9.486231 ], [ -13.826833, 9.488851 ], [ -13.820825, 9.491262 ], [ -13.819244, 9.497704 ], [ -13.816766, 9.500791 ], [ -13.816932, 9.503789 ], [ -13.811924, 9.510834 ], [ -13.805683, 9.512875 ], [ -13.803512, 9.515116 ], [ -13.799715, 9.510533 ], [ -13.794515, 9.511547 ], [ -13.793334, 9.508899 ], [ -13.799727, 9.507052 ], [ -13.801356, 9.502802 ], [ -13.805469, 9.499205 ], [ -13.806783, 9.495083 ], [ -13.813569, 9.485821 ], [ -13.816695, 9.483639 ], [ -13.823712, 9.482631 ], [ -13.824242, 9.479667 ], [ -13.827762, 9.476068 ], [ -13.831942, 9.463478 ], [ -13.830006, 9.455154 ], [ -13.831421, 9.454248 ], [ -13.83531, 9.457141 ], [ -13.839805, 9.468988 ] ] ], [ [ [ -14.789874, 10.760848 ], [ -14.788727, 10.763238 ], [ -14.779737, 10.749367 ], [ -14.775217, 10.746777 ], [ -14.764785, 10.720099 ], [ -14.755966, 10.714222 ], [ -14.754121, 10.70548 ], [ -14.755466, 10.704534 ], [ -14.762087, 10.708374 ], [ -14.771048, 10.715421 ], [ -14.784364, 10.737413 ], [ -14.789874, 10.760848 ] ] ], [ [ [ -14.906578, 11.086196 ], [ -14.897919, 11.072841 ], [ -14.877495, 11.054004 ], [ -14.886957, 11.050706 ], [ -14.899336, 11.057158 ], [ -14.907214, 11.045558 ], [ -14.911041, 11.050783 ], [ -14.906249, 11.060017 ], [ -14.908185, 11.066868 ], [ -14.90651, 11.076406 ], [ -14.910057, 11.080155 ], [ -14.906578, 11.086196 ] ] ], [ [ [ -14.62649, 10.861141 ], [ -14.619089, 10.868724 ], [ -14.615553, 10.872346 ], [ -14.607678, 10.874765 ], [ -14.602884, 10.873274 ], [ -14.601097, 10.866233 ], [ -14.591391, 10.861212 ], [ -14.586216, 10.849449 ], [ -14.592527, 10.848859 ], [ -14.594882, 10.854657 ], [ -14.600957, 10.852716 ], [ -14.615553, 10.858782 ], [ -14.619089, 10.857446 ], [ -14.623764, 10.85568 ], [ -14.62649, 10.861141 ] ] ], [ [ [ -13.768465, 9.498072 ], [ -13.766497, 9.504918 ], [ -13.758751, 9.504458 ], [ -13.752753, 9.48279 ], [ -13.746911, 9.477732 ], [ -13.745604, 9.473544 ], [ -13.74584, 9.469014 ], [ -13.743776, 9.459331 ], [ -13.748755, 9.445759 ], [ -13.753074, 9.442831 ], [ -13.754672, 9.446747 ], [ -13.750937, 9.451738 ], [ -13.752076, 9.458335 ], [ -13.749794, 9.471034 ], [ -13.752861, 9.475256 ], [ -13.754672, 9.480507 ], [ -13.760046, 9.490747 ], [ -13.768465, 9.498072 ] ] ], [ [ [ -14.802135, 10.870379 ], [ -14.801773, 10.87359 ], [ -14.797943, 10.876799 ], [ -14.784808, 10.859257 ], [ -14.779722, 10.859693 ], [ -14.772207, 10.866696 ], [ -14.767306, 10.857733 ], [ -14.773224, 10.852862 ], [ -14.779722, 10.855079 ], [ -14.783254, 10.847735 ], [ -14.787135, 10.848101 ], [ -14.789535, 10.855663 ], [ -14.802135, 10.870379 ] ] ], [ [ [ -14.012392, 10.065121 ], [ -14.004268, 10.069225 ], [ -14.009817, 10.086311 ], [ -14.006212, 10.091247 ], [ -14.000455, 10.085511 ], [ -13.996518, 10.067959 ], [ -13.9979, 10.056539 ], [ -14.003304, 10.05551 ], [ -14.012392, 10.065121 ] ] ], [ [ [ -14.571191, 10.832055 ], [ -14.570664, 10.834635 ], [ -14.566228, 10.834371 ], [ -14.565449, 10.831274 ], [ -14.55945, 10.829976 ], [ -14.557889, 10.826619 ], [ -14.555019, 10.826099 ], [ -14.555285, 10.822746 ], [ -14.55842, 10.819912 ], [ -14.557644, 10.815525 ], [ -14.560262, 10.809854 ], [ -14.565221, 10.808957 ], [ -14.568226, 10.806769 ], [ -14.570046, 10.811416 ], [ -14.56586, 10.818891 ], [ -14.566765, 10.824568 ], [ -14.565193, 10.828178 ], [ -14.566495, 10.830501 ], [ -14.569627, 10.82986 ], [ -14.571191, 10.832055 ] ] ], [ [ [ -14.769875, 10.903934 ], [ -14.767495, 10.907287 ], [ -14.768543, 10.910402 ], [ -14.765126, 10.913773 ], [ -14.762181, 10.913189 ], [ -14.751148, 10.901189 ], [ -14.753986, 10.894543 ], [ -14.759749, 10.894937 ], [ -14.762241, 10.893194 ], [ -14.763826, 10.89924 ], [ -14.762181, 10.902087 ], [ -14.769875, 10.903934 ] ] ], [ [ [ -14.815397, 11.027841 ], [ -14.813834, 11.03294 ], [ -14.810317, 11.035315 ], [ -14.806044, 11.032463 ], [ -14.804372, 11.027841 ], [ -14.80297, 11.017855 ], [ -14.807635, 11.011083 ], [ -14.812315, 11.015204 ], [ -14.815397, 11.027841 ] ] ], [ [ [ -14.044194, 10.019306 ], [ -14.037397, 10.01997 ], [ -14.035373, 10.026409 ], [ -14.029537, 10.018255 ], [ -14.020895, 10.016537 ], [ -14.020895, 10.013265 ], [ -14.025981, 10.015137 ], [ -14.030085, 10.010548 ], [ -14.023848, 10.007583 ], [ -14.02658, 10.001309 ], [ -14.044194, 10.019306 ] ] ], [ [ [ -14.591567, 10.829276 ], [ -14.581143, 10.828314 ], [ -14.579582, 10.819934 ], [ -14.574288, 10.816806 ], [ -14.573742, 10.806114 ], [ -14.575634, 10.806114 ], [ -14.584654, 10.817043 ], [ -14.589723, 10.818963 ], [ -14.591567, 10.829276 ] ] ], [ [ [ -14.754305, 10.817537 ], [ -14.748979, 10.817301 ], [ -14.746859, 10.814966 ], [ -14.744055, 10.8108 ], [ -14.742924, 10.796635 ], [ -14.746859, 10.790869 ], [ -14.750152, 10.794951 ], [ -14.754305, 10.817537 ] ] ], [ [ [ -14.061428, 10.033505 ], [ -14.060895, 10.035592 ], [ -14.056714, 10.039465 ], [ -14.055082, 10.042621 ], [ -14.049462, 10.038793 ], [ -14.04852, 10.035557 ], [ -14.045111, 10.031111 ], [ -14.04433, 10.027977 ], [ -14.047751, 10.02877 ], [ -14.048531, 10.031903 ], [ -14.050722, 10.031474 ], [ -14.049862, 10.027209 ], [ -14.051087, 10.023019 ], [ -14.05487, 10.025266 ], [ -14.061428, 10.033505 ] ] ], [ [ [ -14.692323, 11.081488 ], [ -14.690668, 11.089011 ], [ -14.6817, 11.095363 ], [ -14.678176, 11.096835 ], [ -14.67565, 11.087074 ], [ -14.6817, 11.083911 ], [ -14.687848, 11.080175 ], [ -14.692323, 11.081488 ] ] ], [ [ [ -14.691419, 10.755804 ], [ -14.689694, 10.759934 ], [ -14.687413, 10.760323 ], [ -14.686616, 10.754704 ], [ -14.6817, 10.754672 ], [ -14.679377, 10.754657 ], [ -14.678498, 10.757224 ], [ -14.673743, 10.754654 ], [ -14.671828, 10.755962 ], [ -14.671368, 10.752079 ], [ -14.668138, 10.751988 ], [ -14.669061, 10.749936 ], [ -14.667344, 10.746009 ], [ -14.669198, 10.745226 ], [ -14.668982, 10.740917 ], [ -14.672125, 10.741877 ], [ -14.67269, 10.746666 ], [ -14.674487, 10.74811 ], [ -14.675813, 10.745495 ], [ -14.677796, 10.74759 ], [ -14.678982, 10.75217 ], [ -14.6817, 10.752099 ], [ -14.683746, 10.752045 ], [ -14.687611, 10.748986 ], [ -14.688024, 10.753494 ], [ -14.691419, 10.755804 ] ] ], [ [ [ -13.431564, 9.269131 ], [ -13.430213, 9.270509 ], [ -13.430004, 9.277362 ], [ -13.427809, 9.278078 ], [ -13.413321, 9.275759 ], [ -13.416403, 9.272181 ], [ -13.417907, 9.267732 ], [ -13.423427, 9.266022 ], [ -13.43028, 9.267266 ], [ -13.431564, 9.269131 ] ] ], [ [ [ -14.914221, 10.978511 ], [ -14.908802, 10.985036 ], [ -14.905631, 10.984775 ], [ -14.904839, 10.982164 ], [ -14.902197, 10.982163 ], [ -14.901141, 10.97903 ], [ -14.905633, 10.977856 ], [ -14.903785, 10.975897 ], [ -14.907089, 10.968588 ], [ -14.907222, 10.965717 ], [ -14.909865, 10.965195 ], [ -14.912372, 10.9759 ], [ -14.914221, 10.978511 ] ] ], [ [ [ -14.79825, 10.993551 ], [ -14.793169, 11.006178 ], [ -14.788301, 11.00515 ], [ -14.788301, 11.001575 ], [ -14.785623, 10.995297 ], [ -14.788301, 10.99154 ], [ -14.796563, 10.990354 ], [ -14.79825, 10.993551 ] ] ], [ [ [ -14.717027, 10.701745 ], [ -14.707449, 10.699483 ], [ -14.702887, 10.69485 ], [ -14.701009, 10.694873 ], [ -14.702556, 10.698666 ], [ -14.698259, 10.697659 ], [ -14.697192, 10.693401 ], [ -14.699949, 10.686538 ], [ -14.702887, 10.686569 ], [ -14.702887, 10.689763 ], [ -14.705537, 10.690303 ], [ -14.716677, 10.69956 ], [ -14.717027, 10.701745 ] ] ], [ [ [ -14.733704, 10.818858 ], [ -14.731335, 10.820677 ], [ -14.726865, 10.816771 ], [ -14.722389, 10.820929 ], [ -14.719235, 10.817024 ], [ -14.717794, 10.811041 ], [ -14.721346, 10.809613 ], [ -14.726598, 10.811758 ], [ -14.731395, 10.811337 ], [ -14.733704, 10.818858 ] ] ], [ [ [ -14.308104, 10.193244 ], [ -14.30711, 10.195985 ], [ -14.302076, 10.195595 ], [ -14.3006, 10.200013 ], [ -14.293218, 10.192586 ], [ -14.293849, 10.191078 ], [ -14.300238, 10.190987 ], [ -14.297564, 10.18277 ], [ -14.299424, 10.18277 ], [ -14.308104, 10.193244 ] ] ], [ [ [ -14.569919, 10.855781 ], [ -14.567276, 10.859948 ], [ -14.559632, 10.85733 ], [ -14.556608, 10.852112 ], [ -14.558062, 10.849247 ], [ -14.563338, 10.84756 ], [ -14.566895, 10.850042 ], [ -14.569919, 10.855781 ] ] ], [ [ [ -14.046735, 10.044185 ], [ -14.040813, 10.045763 ], [ -14.040472, 10.048375 ], [ -14.037166, 10.046894 ], [ -14.038675, 10.041495 ], [ -14.035186, 10.039887 ], [ -14.036268, 10.037759 ], [ -14.03317, 10.036009 ], [ -14.031501, 10.030687 ], [ -14.039915, 10.031378 ], [ -14.038522, 10.033861 ], [ -14.039625, 10.038568 ], [ -14.042714, 10.040176 ], [ -14.045256, 10.044447 ], [ -14.046735, 10.044185 ] ] ], [ [ [ -14.932886, 11.035676 ], [ -14.930034, 11.038895 ], [ -14.928404, 11.043587 ], [ -14.921482, 11.039697 ], [ -14.924198, 11.034333 ], [ -14.922027, 11.031382 ], [ -14.925692, 11.030444 ], [ -14.931393, 11.032458 ], [ -14.932886, 11.035676 ] ] ], [ [ [ -14.765781, 10.875945 ], [ -14.765053, 10.877936 ], [ -14.762154, 10.875459 ], [ -14.759, 10.872808 ], [ -14.755625, 10.861957 ], [ -14.759565, 10.861736 ], [ -14.762154, 10.864551 ], [ -14.764004, 10.867065 ], [ -14.765781, 10.875945 ] ] ], [ [ [ -14.830749, 10.993363 ], [ -14.830749, 10.996752 ], [ -14.824333, 11.00148 ], [ -14.817056, 10.99751 ], [ -14.815857, 10.993807 ], [ -14.830749, 10.993363 ] ] ], [ [ [ -14.746896, 10.894012 ], [ -14.746896, 10.898936 ], [ -14.743746, 10.90187 ], [ -14.739129, 10.899165 ], [ -14.738767, 10.891908 ], [ -14.741485, 10.889616 ], [ -14.746206, 10.892024 ], [ -14.746896, 10.894012 ] ] ], [ [ [ -14.696396, 10.791907 ], [ -14.69565, 10.795425 ], [ -14.692324, 10.796554 ], [ -14.690352, 10.79175 ], [ -14.687702, 10.790437 ], [ -14.68894, 10.788514 ], [ -14.687311, 10.785195 ], [ -14.691685, 10.784282 ], [ -14.693272, 10.787166 ], [ -14.695922, 10.787824 ], [ -14.696396, 10.791907 ] ] ], [ [ [ -14.296573, 10.205232 ], [ -14.29558, 10.207004 ], [ -14.292239, 10.206712 ], [ -14.292252, 10.210136 ], [ -14.288879, 10.211131 ], [ -14.287038, 10.204417 ], [ -14.288888, 10.199299 ], [ -14.29426, 10.201727 ], [ -14.296573, 10.205232 ] ] ], [ [ [ -14.712194, 11.00979 ], [ -14.709893, 11.014881 ], [ -14.707293, 11.016661 ], [ -14.702418, 11.013619 ], [ -14.703832, 11.007504 ], [ -14.710798, 11.007825 ], [ -14.712194, 11.00979 ] ] ], [ [ [ -14.766476, 10.768429 ], [ -14.764294, 10.771137 ], [ -14.762154, 10.768134 ], [ -14.760819, 10.763896 ], [ -14.761328, 10.760885 ], [ -14.756511, 10.755611 ], [ -14.75664, 10.7526 ], [ -14.759304, 10.753355 ], [ -14.762154, 10.757773 ], [ -14.766476, 10.768429 ] ] ], [ [ [ -14.187605, 10.09619 ], [ -14.186949, 10.099528 ], [ -14.184387, 10.100567 ], [ -14.183069, 10.097214 ], [ -14.184063, 10.093934 ], [ -14.18204, 10.094127 ], [ -14.178939, 10.089493 ], [ -14.182369, 10.087068 ], [ -14.186578, 10.092592 ], [ -14.187605, 10.09619 ] ] ], [ [ [ -14.619108, 10.720728 ], [ -14.617193, 10.725262 ], [ -14.614891, 10.725429 ], [ -14.612633, 10.732882 ], [ -14.609482, 10.731906 ], [ -14.609393, 10.728855 ], [ -14.612886, 10.724787 ], [ -14.615817, 10.719516 ], [ -14.619108, 10.720728 ] ] ], [ [ [ -14.650694, 10.760207 ], [ -14.648712, 10.760441 ], [ -14.648807, 10.763686 ], [ -14.64611, 10.764725 ], [ -14.645332, 10.761892 ], [ -14.642202, 10.758722 ], [ -14.64551, 10.757723 ], [ -14.645105, 10.754167 ], [ -14.64714, 10.753663 ], [ -14.649932, 10.756435 ], [ -14.650694, 10.760207 ] ] ], [ [ [ -14.130661, 10.054886 ], [ -14.129037, 10.059302 ], [ -14.122268, 10.059018 ], [ -14.121783, 10.056085 ], [ -14.125709, 10.052375 ], [ -14.128695, 10.052196 ], [ -14.130661, 10.054886 ] ] ], [ [ [ -14.942887, 10.977463 ], [ -14.938528, 10.978735 ], [ -14.935405, 10.975905 ], [ -14.934104, 10.96973 ], [ -14.937488, 10.970116 ], [ -14.941393, 10.97359 ], [ -14.942887, 10.977463 ] ] ], [ [ [ -14.178779, 10.083376 ], [ -14.177447, 10.086011 ], [ -14.169709, 10.078674 ], [ -14.167614, 10.080573 ], [ -14.165652, 10.078272 ], [ -14.167058, 10.07601 ], [ -14.173544, 10.077495 ], [ -14.178779, 10.083376 ] ] ], [ [ [ -13.800143, 9.462315 ], [ -13.799387, 9.465857 ], [ -13.796215, 9.466252 ], [ -13.792563, 9.463047 ], [ -13.793751, 9.459042 ], [ -13.799472, 9.45857 ], [ -13.800143, 9.462315 ] ] ], [ [ [ -14.650292, 10.775949 ], [ -14.646609, 10.779678 ], [ -14.644639, 10.773969 ], [ -14.642325, 10.772267 ], [ -14.646481, 10.766759 ], [ -14.648574, 10.769985 ], [ -14.647695, 10.773315 ], [ -14.650292, 10.775949 ] ] ], [ [ [ -14.950916, 10.992218 ], [ -14.950646, 10.995805 ], [ -14.944546, 10.998716 ], [ -14.942985, 10.996068 ], [ -14.942986, 10.990491 ], [ -14.946077, 10.990492 ], [ -14.948765, 10.993414 ], [ -14.950916, 10.992218 ] ] ], [ [ [ -14.637565, 10.787672 ], [ -14.636145, 10.792595 ], [ -14.630526, 10.794086 ], [ -14.628421, 10.789722 ], [ -14.6322, 10.787189 ], [ -14.637565, 10.787672 ] ] ], [ [ [ -14.199687, 10.249986 ], [ -14.198325, 10.257696 ], [ -14.194296, 10.258483 ], [ -14.193497, 10.255556 ], [ -14.19593, 10.24918 ], [ -14.199687, 10.249986 ] ] ], [ [ [ -14.736129, 10.748163 ], [ -14.736129, 10.751005 ], [ -14.727202, 10.751381 ], [ -14.728295, 10.746808 ], [ -14.733466, 10.745736 ], [ -14.736129, 10.748163 ] ] ], [ [ [ -14.275415, 10.192973 ], [ -14.273877, 10.195908 ], [ -14.266827, 10.189802 ], [ -14.266879, 10.186492 ], [ -14.273522, 10.189327 ], [ -14.275415, 10.192973 ] ] ], [ [ [ -14.656102, 10.676263 ], [ -14.656081, 10.678828 ], [ -14.651074, 10.680867 ], [ -14.649848, 10.683315 ], [ -14.646977, 10.681408 ], [ -14.648166, 10.677309 ], [ -14.65175, 10.678181 ], [ -14.653927, 10.674571 ], [ -14.656102, 10.676263 ] ] ], [ [ [ -14.084497, 10.06606 ], [ -14.084234, 10.069087 ], [ -14.077867, 10.070329 ], [ -14.077559, 10.064953 ], [ -14.081704, 10.063656 ], [ -14.084497, 10.06606 ] ] ], [ [ [ -14.283937, 10.207554 ], [ -14.280626, 10.20804 ], [ -14.275287, 10.202317 ], [ -14.275287, 10.200078 ], [ -14.282406, 10.203266 ], [ -14.283937, 10.207554 ] ] ], [ [ [ -14.147596, 10.058704 ], [ -14.145812, 10.059921 ], [ -14.139213, 10.05852 ], [ -14.137086, 10.054209 ], [ -14.138448, 10.053493 ], [ -14.147596, 10.058704 ] ] ], [ [ [ -14.227497, 10.174916 ], [ -14.225791, 10.178534 ], [ -14.222145, 10.174386 ], [ -14.222935, 10.171543 ], [ -14.227378, 10.169742 ], [ -14.227497, 10.174916 ] ] ], [ [ [ -14.6403, 10.68188 ], [ -14.636572, 10.687574 ], [ -14.63473, 10.68818 ], [ -14.63228, 10.681951 ], [ -14.6403, 10.68188 ] ] ], [ [ [ -14.696573, 10.746816 ], [ -14.696298, 10.749242 ], [ -14.692766, 10.751195 ], [ -14.689753, 10.749236 ], [ -14.690879, 10.745679 ], [ -14.696573, 10.746816 ] ] ], [ [ [ -14.167198, 10.072686 ], [ -14.166232, 10.075465 ], [ -14.160249, 10.075181 ], [ -14.160105, 10.07052 ], [ -14.167198, 10.072686 ] ] ], [ [ [ -13.792048, 9.464119 ], [ -13.785963, 9.468162 ], [ -13.783679, 9.467286 ], [ -13.786224, 9.462169 ], [ -13.792048, 9.464119 ] ] ], [ [ [ -14.640977, 10.768622 ], [ -14.638538, 10.769156 ], [ -14.63773, 10.764866 ], [ -14.635648, 10.763885 ], [ -14.635566, 10.760308 ], [ -14.639359, 10.761653 ], [ -14.640977, 10.768622 ] ] ], [ [ [ -14.751583, 10.824019 ], [ -14.746859, 10.826242 ], [ -14.744532, 10.826187 ], [ -14.743523, 10.824371 ], [ -14.744634, 10.821992 ], [ -14.746859, 10.821406 ], [ -14.751583, 10.824019 ] ] ], [ [ [ -14.475489, 10.36518 ], [ -14.473908, 10.370839 ], [ -14.47005, 10.369418 ], [ -14.471775, 10.363759 ], [ -14.475489, 10.36518 ] ] ], [ [ [ -14.751649, 10.885947 ], [ -14.748848, 10.889953 ], [ -14.746829, 10.887187 ], [ -14.746829, 10.882965 ], [ -14.748426, 10.882371 ], [ -14.751649, 10.885947 ] ] ], [ [ [ -13.277299, 9.295781 ], [ -13.271592, 9.300173 ], [ -13.270757, 9.295701 ], [ -13.273847, 9.293885 ], [ -13.277299, 9.295781 ] ] ], [ [ [ -14.018033, 10.062666 ], [ -14.015004, 10.063827 ], [ -14.013224, 10.061791 ], [ -14.013968, 10.058007 ], [ -14.016361, 10.05757 ], [ -14.018033, 10.062666 ] ] ], [ [ [ -13.978751, 10.00974 ], [ -13.978751, 10.013706 ], [ -13.974304, 10.013706 ], [ -13.974978, 10.008136 ], [ -13.978751, 10.00974 ] ] ], [ [ [ -14.058615, 10.046767 ], [ -14.057092, 10.049966 ], [ -14.05276, 10.045793 ], [ -14.057582, 10.043263 ], [ -14.058615, 10.046767 ] ] ], [ [ [ -14.041096, 10.052782 ], [ -14.041084, 10.057032 ], [ -14.036674, 10.05789 ], [ -14.038313, 10.051249 ], [ -14.041096, 10.052782 ] ] ], [ [ [ -14.079308, 10.087626 ], [ -14.075231, 10.08992 ], [ -14.073539, 10.084763 ], [ -14.076431, 10.083629 ], [ -14.079308, 10.087626 ] ] ], [ [ [ -14.16736, 10.089059 ], [ -14.16271, 10.093109 ], [ -14.161867, 10.088883 ], [ -14.16358, 10.085904 ], [ -14.16736, 10.089059 ] ] ], [ [ [ -14.204724, 10.104798 ], [ -14.202241, 10.106164 ], [ -14.197857, 10.104899 ], [ -14.198484, 10.102257 ], [ -14.200301, 10.101597 ], [ -14.202396, 10.102257 ], [ -14.204724, 10.104798 ] ] ], [ [ [ -14.149421, 10.134923 ], [ -14.144131, 10.136807 ], [ -14.143736, 10.134923 ], [ -14.144764, 10.131371 ], [ -14.146836, 10.131058 ], [ -14.149421, 10.134923 ] ] ], [ [ [ -14.242911, 10.138276 ], [ -14.237278, 10.140489 ], [ -14.235884, 10.139335 ], [ -14.23946, 10.134508 ], [ -14.242911, 10.138276 ] ] ], [ [ [ -14.164473, 10.163107 ], [ -14.164154, 10.165347 ], [ -14.157681, 10.164618 ], [ -14.157848, 10.160902 ], [ -14.164473, 10.163107 ] ] ], [ [ [ -14.211148, 10.186866 ], [ -14.208878, 10.188919 ], [ -14.204504, 10.182859 ], [ -14.20813, 10.182491 ], [ -14.211148, 10.186866 ] ] ], [ [ [ -14.239108, 10.193274 ], [ -14.236351, 10.19513 ], [ -14.234536, 10.192608 ], [ -14.234536, 10.189572 ], [ -14.238061, 10.189034 ], [ -14.239108, 10.193274 ] ] ], [ [ [ -14.282733, 10.191192 ], [ -14.279534, 10.194968 ], [ -14.276534, 10.192853 ], [ -14.278744, 10.188773 ], [ -14.282733, 10.191192 ] ] ], [ [ [ -14.304164, 10.203642 ], [ -14.301648, 10.208448 ], [ -14.29783, 10.206246 ], [ -14.302143, 10.201975 ], [ -14.304164, 10.203642 ] ] ], [ [ [ -14.452705, 10.350001 ], [ -14.452124, 10.351801 ], [ -14.446893, 10.351876 ], [ -14.446591, 10.349231 ], [ -14.44931, 10.347222 ], [ -14.452705, 10.350001 ] ] ], [ [ [ -14.505741, 10.41688 ], [ -14.501938, 10.418057 ], [ -14.500219, 10.415894 ], [ -14.501947, 10.412841 ], [ -14.505537, 10.413796 ], [ -14.505741, 10.41688 ] ] ], [ [ [ -14.705685, 10.647292 ], [ -14.700598, 10.650532 ], [ -14.700602, 10.645116 ], [ -14.702966, 10.643745 ], [ -14.705685, 10.647292 ] ] ], [ [ [ -14.691475, 10.658132 ], [ -14.689755, 10.66322 ], [ -14.685898, 10.661096 ], [ -14.686758, 10.657703 ], [ -14.691475, 10.658132 ] ] ], [ [ [ -14.666473, 10.695459 ], [ -14.660683, 10.69811 ], [ -14.660262, 10.695315 ], [ -14.66211, 10.692496 ], [ -14.664002, 10.692732 ], [ -14.666473, 10.695459 ] ] ], [ [ [ -14.695502, 10.70518 ], [ -14.694303, 10.708778 ], [ -14.689067, 10.70912 ], [ -14.692029, 10.70401 ], [ -14.695502, 10.70518 ] ] ], [ [ [ -14.701194, 10.717032 ], [ -14.698707, 10.719294 ], [ -14.694297, 10.716271 ], [ -14.696981, 10.714379 ], [ -14.700239, 10.714755 ], [ -14.701194, 10.717032 ] ] ], [ [ [ -14.644059, 10.722896 ], [ -14.64342, 10.725115 ], [ -14.638969, 10.72591 ], [ -14.638721, 10.720108 ], [ -14.644059, 10.722896 ] ] ], [ [ [ -14.7508, 10.7342 ], [ -14.746736, 10.734391 ], [ -14.746736, 10.727712 ], [ -14.748663, 10.727712 ], [ -14.7508, 10.7342 ] ] ], [ [ [ -14.639967, 10.745982 ], [ -14.637241, 10.74875 ], [ -14.633903, 10.74555 ], [ -14.636751, 10.742177 ], [ -14.639967, 10.745982 ] ] ], [ [ [ -14.629415, 10.752218 ], [ -14.623165, 10.753859 ], [ -14.623586, 10.749945 ], [ -14.629003, 10.749335 ], [ -14.629415, 10.752218 ] ] ], [ [ [ -14.662271, 10.755313 ], [ -14.661885, 10.761503 ], [ -14.659378, 10.762676 ], [ -14.659378, 10.754181 ], [ -14.662271, 10.755313 ] ] ], [ [ [ -14.721079, 10.759574 ], [ -14.716986, 10.764851 ], [ -14.714557, 10.762088 ], [ -14.719872, 10.757661 ], [ -14.721079, 10.759574 ] ] ], [ [ [ -14.668976, 10.76038 ], [ -14.667568, 10.764172 ], [ -14.663538, 10.765742 ], [ -14.663935, 10.760465 ], [ -14.668976, 10.76038 ] ] ], [ [ [ -14.602447, 10.76986 ], [ -14.598575, 10.771429 ], [ -14.597619, 10.765952 ], [ -14.601086, 10.765252 ], [ -14.602447, 10.76986 ] ] ], [ [ [ -14.596108, 10.768374 ], [ -14.593308, 10.772317 ], [ -14.590913, 10.771919 ], [ -14.590521, 10.766589 ], [ -14.596108, 10.768374 ] ] ], [ [ [ -14.607166, 10.788587 ], [ -14.603212, 10.790358 ], [ -14.600881, 10.786092 ], [ -14.602462, 10.783754 ], [ -14.607166, 10.788587 ] ] ], [ [ [ -14.593471, 10.813961 ], [ -14.592863, 10.817457 ], [ -14.589288, 10.816804 ], [ -14.588573, 10.812814 ], [ -14.591312, 10.81182 ], [ -14.593471, 10.813961 ] ] ], [ [ [ -14.64291, 10.816436 ], [ -14.635935, 10.818537 ], [ -14.637132, 10.814993 ], [ -14.641519, 10.813072 ], [ -14.64291, 10.816436 ] ] ], [ [ [ -14.745846, 10.817666 ], [ -14.744477, 10.820019 ], [ -14.738322, 10.817607 ], [ -14.740861, 10.814724 ], [ -14.745846, 10.817666 ] ] ], [ [ [ -14.626433, 10.816931 ], [ -14.623233, 10.818684 ], [ -14.62323, 10.820793 ], [ -14.62041, 10.8203 ], [ -14.620035, 10.817626 ], [ -14.621747, 10.814855 ], [ -14.626433, 10.816931 ] ] ], [ [ [ -14.646889, 10.81827 ], [ -14.646887, 10.820625 ], [ -14.642121, 10.820618 ], [ -14.641351, 10.816943 ], [ -14.645105, 10.816204 ], [ -14.646889, 10.81827 ] ] ], [ [ [ -14.808168, 10.82509 ], [ -14.807451, 10.827657 ], [ -14.802907, 10.826764 ], [ -14.804733, 10.824963 ], [ -14.801678, 10.823948 ], [ -14.803824, 10.821582 ], [ -14.808168, 10.82509 ] ] ], [ [ [ -14.804932, 10.836394 ], [ -14.801227, 10.837812 ], [ -14.799494, 10.833701 ], [ -14.803425, 10.831612 ], [ -14.804932, 10.836394 ] ] ], [ [ [ -14.604083, 10.838086 ], [ -14.598811, 10.840683 ], [ -14.597498, 10.838512 ], [ -14.600134, 10.835694 ], [ -14.603207, 10.835697 ], [ -14.604083, 10.838086 ] ] ], [ [ [ -14.789638, 10.836971 ], [ -14.789638, 10.840343 ], [ -14.785221, 10.841802 ], [ -14.783054, 10.838571 ], [ -14.789638, 10.836971 ] ] ], [ [ [ -14.745899, 10.846194 ], [ -14.745897, 10.847261 ], [ -14.741574, 10.848326 ], [ -14.740225, 10.846188 ], [ -14.741038, 10.843249 ], [ -14.74536, 10.84459 ], [ -14.745899, 10.846194 ] ] ], [ [ [ -14.795677, 10.84672 ], [ -14.795063, 10.850033 ], [ -14.79277, 10.850598 ], [ -14.790193, 10.84736 ], [ -14.793136, 10.844651 ], [ -14.795677, 10.84672 ] ] ], [ [ [ -14.647966, 10.85344 ], [ -14.64516, 10.856638 ], [ -14.64173, 10.851841 ], [ -14.641934, 10.849455 ], [ -14.647966, 10.85344 ] ] ], [ [ [ -14.776233, 10.872797 ], [ -14.771095, 10.875223 ], [ -14.769234, 10.872419 ], [ -14.772073, 10.869615 ], [ -14.776233, 10.872797 ] ] ], [ [ [ -14.786446, 10.880856 ], [ -14.784379, 10.88275 ], [ -14.781532, 10.876258 ], [ -14.786058, 10.876258 ], [ -14.786446, 10.880856 ] ] ], [ [ [ -14.772837, 10.884409 ], [ -14.770962, 10.887411 ], [ -14.767221, 10.887641 ], [ -14.767044, 10.884263 ], [ -14.770038, 10.882736 ], [ -14.772837, 10.884409 ] ] ], [ [ [ -14.812492, 10.889467 ], [ -14.80606, 10.889824 ], [ -14.805102, 10.886978 ], [ -14.811007, 10.886128 ], [ -14.812492, 10.889467 ] ] ], [ [ [ -14.777678, 10.895274 ], [ -14.773319, 10.897184 ], [ -14.772355, 10.891919 ], [ -14.775261, 10.890965 ], [ -14.777678, 10.895274 ] ] ], [ [ [ -14.922029, 11.028677 ], [ -14.921144, 11.031176 ], [ -14.916723, 11.030784 ], [ -14.916723, 11.025467 ], [ -14.922029, 11.028677 ] ] ] ] } }
]
}
