{
"type": "FeatureCollection",
"name": "Guyana",
"crs": { "type": "name", "properties": { "name": "urn:ogc:def:crs:OGC:1.3:CRS84" } },
"features": [
{ "type": "Feature", "properties": { "id": "GY", "CNTR_ID": "GY", "CNTR_NAME": "Guyana", "NAME_ENGL": "Guyana", "ISO3_CODE": "GUY", "FID": "GY" }, "geometry": { "type": "MultiPolygon", "coordinates": [ [ [ [ -56.477367, 1.945942 ], [ -56.52172, 1.920031 ], [ -56.561546, 1.911804 ], [ -56.578212, 1.911041 ], [ -56.591811, 1.915415 ], [ -56.627278, 1.938611 ], [ -56.636452, 1.938623 ], [ -56.653465, 1.925095 ], [ -56.676371, 1.913541 ], [ -56.726581, 1.918117 ], [ -56.740695, 1.906416 ], [ -56.767054, 1.877161 ], [ -56.781327, 1.867395 ], [ -56.79856, 1.863919 ], [ -56.815494, 1.869639 ], [ -56.840084, 1.883173 ], [ -56.874857, 1.891811 ], [ -56.901729, 1.91176 ], [ -56.915291, 1.91794 ], [ -56.936669, 1.919255 ], [ -56.984921, 1.910898 ], [ -57.012244, 1.918825 ], [ -57.021528, 1.924923 ], [ -57.040029, 1.94602 ], [ -57.060141, 1.958497 ], [ -57.066421, 1.971302 ], [ -57.071727, 2.001823 ], [ -57.080382, 2.017501 ], [ -57.085034, 2.020724 ], [ -57.097464, 2.020707 ], [ -57.122802, 2.013716 ], [ -57.175448, 1.979877 ], [ -57.207232, 1.972702 ], [ -57.235186, 1.946715 ], [ -57.244807, 1.944214 ], [ -57.256063, 1.94769 ], [ -57.271594, 1.97576 ], [ -57.278746, 1.981972 ], [ -57.291579, 1.988192 ], [ -57.303914, 1.989575 ], [ -57.324797, 1.98288 ], [ -57.329469, 1.981383 ], [ -57.35483, 1.964491 ], [ -57.362931, 1.954292 ], [ -57.370446, 1.934791 ], [ -57.376884, 1.9263 ], [ -57.420163, 1.90642 ], [ -57.433604, 1.894704 ], [ -57.441258, 1.88266 ], [ -57.453977, 1.837956 ], [ -57.465875, 1.821637 ], [ -57.489853, 1.788747 ], [ -57.495381, 1.777854 ], [ -57.524212, 1.721045 ], [ -57.5404, 1.705514 ], [ -57.546064, 1.700081 ], [ -57.563414, 1.6941 ], [ -57.587588, 1.697359 ], [ -57.623101, 1.689713 ], [ -57.638021, 1.689652 ], [ -57.709459, 1.713318 ], [ -57.753386, 1.7166 ], [ -57.770877, 1.717907 ], [ -57.789323, 1.710097 ], [ -57.817718, 1.678825 ], [ -57.846726, 1.673845 ], [ -57.881745, 1.667833 ], [ -57.894907, 1.662234 ], [ -57.908166, 1.650165 ], [ -57.919094, 1.645688 ], [ -57.933366, 1.645225 ], [ -57.969027, 1.661743 ], [ -57.999456, 1.664134 ], [ -58.000233, 1.523625 ], [ -58.002072, 1.504731 ], [ -58.008732, 1.501018 ], [ -58.044878, 1.50502 ], [ -58.09338, 1.505568 ], [ -58.131327, 1.502143 ], [ -58.143036, 1.509701 ], [ -58.155603, 1.544927 ], [ -58.167494, 1.557913 ], [ -58.177144, 1.560915 ], [ -58.193877, 1.560735 ], [ -58.23294, 1.552107 ], [ -58.244167, 1.553063 ], [ -58.28795, 1.567411 ], [ -58.315253, 1.589335 ], [ -58.32423, 1.589657 ], [ -58.346056, 1.557334 ], [ -58.373925, 1.545609 ], [ -58.380036, 1.537885 ], [ -58.38204, 1.528709 ], [ -58.376139, 1.48866 ], [ -58.378262, 1.477546 ], [ -58.38311, 1.470229 ], [ -58.391448, 1.465856 ], [ -58.416969, 1.462742 ], [ -58.482783, 1.463169 ], [ -58.498926, 1.455558 ], [ -58.502234, 1.445433 ], [ -58.500894, 1.435462 ], [ -58.472863, 1.372731 ], [ -58.467873, 1.353644 ], [ -58.467813, 1.32021 ], [ -58.474195, 1.298661 ], [ -58.506554, 1.265107 ], [ -58.516904, 1.259836 ], [ -58.529294, 1.263446 ], [ -58.544275, 1.283113 ], [ -58.550925, 1.287608 ], [ -58.558805, 1.285724 ], [ -58.577288, 1.272655 ], [ -58.588392, 1.27102 ], [ -58.637446, 1.278548 ], [ -58.697332, 1.287738 ], [ -58.709342, 1.278879 ], [ -58.721198, 1.229531 ], [ -58.734906, 1.207929 ], [ -58.748043, 1.197645 ], [ -58.781046, 1.180694 ], [ -58.797477, 1.175333 ], [ -58.816197, 1.178301 ], [ -58.846289, 1.193048 ], [ -58.858691, 1.203251 ], [ -58.878532, 1.21386 ], [ -58.902618, 1.233306 ], [ -58.904463, 1.24144 ], [ -58.894353, 1.255804 ], [ -58.89231, 1.267899 ], [ -58.902394, 1.288021 ], [ -58.915502, 1.299185 ], [ -58.939959, 1.308819 ], [ -58.967421, 1.309248 ], [ -59.014826, 1.323063 ], [ -59.081482, 1.329421 ], [ -59.155114, 1.348345 ], [ -59.205628, 1.370258 ], [ -59.2507, 1.396255 ], [ -59.268667, 1.417612 ], [ -59.288482, 1.455776 ], [ -59.319499, 1.489752 ], [ -59.32924, 1.510737 ], [ -59.336501, 1.516804 ], [ -59.345447, 1.519049 ], [ -59.372618, 1.516882 ], [ -59.381167, 1.520202 ], [ -59.414856, 1.573716 ], [ -59.44244, 1.608267 ], [ -59.479355, 1.629698 ], [ -59.487756, 1.645461 ], [ -59.508226, 1.668013 ], [ -59.547931, 1.727524 ], [ -59.576859, 1.733581 ], [ -59.620651, 1.730105 ], [ -59.638084, 1.737817 ], [ -59.668091, 1.763359 ], [ -59.676642, 1.775581 ], [ -59.67941, 1.78498 ], [ -59.672524, 1.796298 ], [ -59.649345, 1.80983 ], [ -59.642996, 1.817545 ], [ -59.642784, 1.821637 ], [ -59.642432, 1.828416 ], [ -59.652388, 1.846425 ], [ -59.66793, 1.838288 ], [ -59.704961, 1.852107 ], [ -59.713655, 1.850662 ], [ -59.72372, 1.843728 ], [ -59.729455, 1.84375 ], [ -59.746555, 1.846549 ], [ -59.753496, 1.860729 ], [ -59.748203, 1.876975 ], [ -59.750377, 1.889894 ], [ -59.75604, 1.898605 ], [ -59.753002, 1.910156 ], [ -59.756411, 1.920849 ], [ -59.747558, 1.928856 ], [ -59.740428, 1.945535 ], [ -59.738936, 1.957195 ], [ -59.744668, 1.970511 ], [ -59.735374, 1.983538 ], [ -59.73034, 2.013261 ], [ -59.720866, 2.026391 ], [ -59.732997, 2.046505 ], [ -59.740826, 2.051469 ], [ -59.742352, 2.06006 ], [ -59.739286, 2.078222 ], [ -59.734186, 2.089617 ], [ -59.726173, 2.097029 ], [ -59.723751, 2.105531 ], [ -59.725852, 2.124949 ], [ -59.723949, 2.136986 ], [ -59.736363, 2.145028 ], [ -59.739392, 2.177024 ], [ -59.735546, 2.191711 ], [ -59.728852, 2.200399 ], [ -59.726863, 2.224872 ], [ -59.723012, 2.236055 ], [ -59.72851, 2.25388 ], [ -59.725105, 2.278418 ], [ -59.729098, 2.285775 ], [ -59.746071, 2.282587 ], [ -59.767065, 2.286306 ], [ -59.789435, 2.285226 ], [ -59.800905, 2.291247 ], [ -59.810875, 2.306048 ], [ -59.828014, 2.323682 ], [ -59.831733, 2.323899 ], [ -59.836795, 2.316701 ], [ -59.842359, 2.318197 ], [ -59.852888, 2.335243 ], [ -59.868412, 2.347589 ], [ -59.870531, 2.356597 ], [ -59.875522, 2.356307 ], [ -59.884236, 2.347857 ], [ -59.896192, 2.362841 ], [ -59.898998, 2.378611 ], [ -59.909685, 2.387908 ], [ -59.899995, 2.404749 ], [ -59.900671, 2.426645 ], [ -59.904193, 2.435904 ], [ -59.90747, 2.46473 ], [ -59.903616, 2.479854 ], [ -59.920974, 2.501988 ], [ -59.92431, 2.522162 ], [ -59.938341, 2.544154 ], [ -59.933074, 2.556656 ], [ -59.932979, 2.565153 ], [ -59.940282, 2.573624 ], [ -59.963108, 2.588518 ], [ -59.956585, 2.610073 ], [ -59.966084, 2.632603 ], [ -59.97, 2.653442 ], [ -59.989525, 2.682831 ], [ -59.987357, 2.694154 ], [ -59.991715, 2.726686 ], [ -59.986853, 2.743074 ], [ -59.99026, 2.776901 ], [ -59.988988, 2.786824 ], [ -59.987384, 2.799331 ], [ -59.991524, 2.82581 ], [ -59.989087, 2.836791 ], [ -59.982958, 2.843656 ], [ -59.985696, 2.854714 ], [ -59.982745, 2.877535 ], [ -59.97709, 2.891715 ], [ -59.983243, 2.910801 ], [ -59.981804, 2.927652 ], [ -59.962389, 2.946036 ], [ -59.966062, 2.959058 ], [ -59.956024, 2.986309 ], [ -59.957525, 2.994793 ], [ -59.965455, 3.000939 ], [ -59.968018, 3.00925 ], [ -59.966195, 3.016598 ], [ -59.953816, 3.035159 ], [ -59.95848, 3.062394 ], [ -59.945523, 3.081422 ], [ -59.941975, 3.091353 ], [ -59.921814, 3.114919 ], [ -59.902738, 3.122536 ], [ -59.901595, 3.137486 ], [ -59.911152, 3.143718 ], [ -59.914967, 3.149982 ], [ -59.911241, 3.153792 ], [ -59.900649, 3.150821 ], [ -59.897924, 3.157145 ], [ -59.899177, 3.164591 ], [ -59.909871, 3.182443 ], [ -59.908964, 3.197038 ], [ -59.900521, 3.211129 ], [ -59.886022, 3.21583 ], [ -59.877562, 3.221958 ], [ -59.882152, 3.241157 ], [ -59.877068, 3.252439 ], [ -59.871706, 3.264336 ], [ -59.869081, 3.270109 ], [ -59.859037, 3.277192 ], [ -59.851018, 3.295 ], [ -59.826186, 3.325349 ], [ -59.829595, 3.346651 ], [ -59.803582, 3.351385 ], [ -59.7995, 3.355214 ], [ -59.816487, 3.400212 ], [ -59.812837, 3.428465 ], [ -59.817724, 3.430915 ], [ -59.829631, 3.423981 ], [ -59.836366, 3.428263 ], [ -59.832836, 3.444944 ], [ -59.813544, 3.468431 ], [ -59.816252, 3.472374 ], [ -59.827642, 3.473518 ], [ -59.828991, 3.477529 ], [ -59.820218, 3.481388 ], [ -59.810223, 3.485785 ], [ -59.805194, 3.496373 ], [ -59.821642, 3.519554 ], [ -59.843995, 3.533067 ], [ -59.864031, 3.558415 ], [ -59.863403, 3.565048 ], [ -59.856386, 3.574522 ], [ -59.849826, 3.598613 ], [ -59.843691, 3.603783 ], [ -59.820848, 3.610581 ], [ -59.815322, 3.615671 ], [ -59.793557, 3.614845 ], [ -59.778832, 3.625313 ], [ -59.766698, 3.624209 ], [ -59.759688, 3.633279 ], [ -59.757373, 3.645158 ], [ -59.744046, 3.652333 ], [ -59.72285, 3.657703 ], [ -59.709818, 3.677505 ], [ -59.693272, 3.685432 ], [ -59.686043, 3.692089 ], [ -59.673413, 3.694704 ], [ -59.664419, 3.702902 ], [ -59.662077, 3.710437 ], [ -59.667235, 3.725404 ], [ -59.664236, 3.736513 ], [ -59.671396, 3.746286 ], [ -59.665704, 3.776336 ], [ -59.654726, 3.782835 ], [ -59.63725, 3.786146 ], [ -59.629508, 3.795649 ], [ -59.622889, 3.789222 ], [ -59.617895, 3.788406 ], [ -59.611986, 3.791677 ], [ -59.608104, 3.799856 ], [ -59.593499, 3.797337 ], [ -59.592423, 3.806699 ], [ -59.585299, 3.819629 ], [ -59.576168, 3.825756 ], [ -59.588567, 3.859312 ], [ -59.587596, 3.874094 ], [ -59.57871, 3.88997 ], [ -59.57961, 3.901534 ], [ -59.567564, 3.898822 ], [ -59.554632, 3.915239 ], [ -59.541187, 3.920129 ], [ -59.540902, 3.92888 ], [ -59.525964, 3.927474 ], [ -59.51703, 3.940475 ], [ -59.526735, 3.961706 ], [ -59.541181, 3.967528 ], [ -59.547249, 3.974952 ], [ -59.551442, 3.974828 ], [ -59.56794, 3.96436 ], [ -59.579917, 3.967844 ], [ -59.580968, 3.972326 ], [ -59.574598, 3.983284 ], [ -59.577154, 3.99918 ], [ -59.581053, 4.002187 ], [ -59.591122, 4.001734 ], [ -59.594975, 4.017967 ], [ -59.604167, 4.015208 ], [ -59.608082, 4.017682 ], [ -59.60943, 4.021735 ], [ -59.605141, 4.034435 ], [ -59.61914, 4.059301 ], [ -59.632969, 4.06366 ], [ -59.641354, 4.070749 ], [ -59.649158, 4.071049 ], [ -59.654233, 4.076471 ], [ -59.652447, 4.085633 ], [ -59.630753, 4.11441 ], [ -59.626762, 4.132201 ], [ -59.628328, 4.136976 ], [ -59.644953, 4.148295 ], [ -59.674639, 4.147432 ], [ -59.697778, 4.156998 ], [ -59.713272, 4.169936 ], [ -59.726599, 4.192525 ], [ -59.730146, 4.211838 ], [ -59.729473, 4.234932 ], [ -59.711863, 4.26654 ], [ -59.724291, 4.273062 ], [ -59.7273, 4.280693 ], [ -59.726714, 4.290053 ], [ -59.704216, 4.311998 ], [ -59.678911, 4.345075 ], [ -59.680744, 4.360014 ], [ -59.672487, 4.378579 ], [ -59.676358, 4.381205 ], [ -59.681843, 4.384928 ], [ -59.706202, 4.385364 ], [ -59.720405, 4.3916 ], [ -59.732977, 4.413362 ], [ -59.781677, 4.43939 ], [ -59.805847, 4.468146 ], [ -59.814394, 4.451937 ], [ -59.821117, 4.448871 ], [ -59.8344, 4.459159 ], [ -59.859999, 4.465871 ], [ -59.861437, 4.471814 ], [ -59.85326, 4.479672 ], [ -59.860578, 4.4821 ], [ -59.868621, 4.491042 ], [ -59.876699, 4.484586 ], [ -59.88682, 4.483228 ], [ -59.893116, 4.473213 ], [ -59.905283, 4.469501 ], [ -59.907137, 4.479678 ], [ -59.915032, 4.486458 ], [ -59.920926, 4.501974 ], [ -59.926436, 4.508485 ], [ -59.937378, 4.503248 ], [ -59.950939, 4.507018 ], [ -59.961985, 4.50605 ], [ -59.966226, 4.501593 ], [ -59.966571, 4.489607 ], [ -59.972275, 4.486875 ], [ -59.994024, 4.49426 ], [ -60.014921, 4.501355 ], [ -60.024414, 4.500896 ], [ -60.032624, 4.49685 ], [ -60.066186, 4.494421 ], [ -60.068528, 4.499192 ], [ -60.063608, 4.512504 ], [ -60.063354, 4.523524 ], [ -60.076365, 4.525909 ], [ -60.083376, 4.531996 ], [ -60.095145, 4.530499 ], [ -60.095871, 4.514469 ], [ -60.110435, 4.507391 ], [ -60.139118, 4.515911 ], [ -60.158666, 4.51817 ], [ -60.16258, 4.521126 ], [ -60.158614, 4.569902 ], [ -60.1354, 4.574548 ], [ -60.131618, 4.580262 ], [ -60.129792, 4.593089 ], [ -60.125514, 4.596616 ], [ -60.093015, 4.595614 ], [ -60.087628, 4.598697 ], [ -60.08105, 4.607856 ], [ -60.077708, 4.61865 ], [ -60.078532, 4.648251 ], [ -60.074515, 4.660627 ], [ -60.055185, 4.675138 ], [ -60.029979, 4.705219 ], [ -60.036133, 4.722013 ], [ -60.02531, 4.76168 ], [ -60.027309, 4.77334 ], [ -60.033236, 4.784296 ], [ -60.031484, 4.8055 ], [ -60.024068, 4.820972 ], [ -60.012414, 4.860442 ], [ -60.010184, 4.891894 ], [ -59.99787, 4.928629 ], [ -59.994024, 4.950265 ], [ -59.991721, 4.963222 ], [ -59.990788, 4.999653 ], [ -59.977675, 5.032202 ], [ -59.969758, 5.068149 ], [ -59.970264, 5.073867 ], [ -59.976052, 5.081005 ], [ -59.994024, 5.08513 ], [ -60.015546, 5.090069 ], [ -60.030239, 5.099095 ], [ -60.041042, 5.114424 ], [ -60.051579, 5.12192 ], [ -60.057597, 5.130496 ], [ -60.083949, 5.147503 ], [ -60.094709, 5.182836 ], [ -60.121919, 5.221709 ], [ -60.118102, 5.234711 ], [ -60.121294, 5.24242 ], [ -60.134338, 5.239831 ], [ -60.161897, 5.226852 ], [ -60.176089, 5.226833 ], [ -60.18287, 5.231046 ], [ -60.197574, 5.261417 ], [ -60.203144, 5.264468 ], [ -60.211977, 5.264215 ], [ -60.281344, 5.233765 ], [ -60.296834, 5.229795 ], [ -60.305967, 5.223192 ], [ -60.318365, 5.207324 ], [ -60.329977, 5.199058 ], [ -60.342295, 5.197195 ], [ -60.362464, 5.198904 ], [ -60.396213, 5.211272 ], [ -60.408027, 5.203548 ], [ -60.430968, 5.18015 ], [ -60.437315, 5.177597 ], [ -60.459392, 5.193143 ], [ -60.481418, 5.196644 ], [ -60.49633, 5.199015 ], [ -60.517244, 5.198295 ], [ -60.551681, 5.18824 ], [ -60.567753, 5.18899 ], [ -60.610754, 5.210911 ], [ -60.641938, 5.219378 ], [ -60.6664, 5.221187 ], [ -60.689648, 5.219153 ], [ -60.706307, 5.214379 ], [ -60.731769, 5.19614 ], [ -61.370581, 5.917335 ], [ -61.391656, 5.949693 ], [ -61.394385, 5.963632 ], [ -61.390847, 5.972839 ], [ -61.383727, 5.978897 ], [ -61.358327, 5.985502 ], [ -61.340032, 5.998767 ], [ -61.32528, 6.039362 ], [ -61.30249, 6.066935 ], [ -61.278439, 6.083318 ], [ -61.258759, 6.122398 ], [ -61.23341, 6.130503 ], [ -61.21836, 6.138961 ], [ -61.19476, 6.1448 ], [ -61.18276, 6.157139 ], [ -61.172382, 6.181137 ], [ -61.164515, 6.189808 ], [ -61.123505, 6.197648 ], [ -61.11674, 6.202583 ], [ -61.123211, 6.229281 ], [ -61.122053, 6.264557 ], [ -61.1551, 6.297021 ], [ -61.164705, 6.312078 ], [ -61.169051, 6.325594 ], [ -61.158323, 6.390695 ], [ -61.14541, 6.427784 ], [ -61.144842, 6.438872 ], [ -61.162634, 6.468305 ], [ -61.165367, 6.497826 ], [ -61.169348, 6.509567 ], [ -61.175085, 6.514237 ], [ -61.190263, 6.512876 ], [ -61.204467, 6.518334 ], [ -61.208991, 6.527184 ], [ -61.214524, 6.556375 ], [ -61.212689, 6.58537 ], [ -61.191208, 6.616667 ], [ -61.182763, 6.659691 ], [ -61.16583, 6.691123 ], [ -61.144801, 6.7155 ], [ -61.130164, 6.726782 ], [ -61.111748, 6.733078 ], [ -61.086252, 6.729704 ], [ -61.064364, 6.746294 ], [ -61.029108, 6.73765 ], [ -60.995364, 6.744871 ], [ -60.963511, 6.736966 ], [ -60.945234, 6.738383 ], [ -60.909075, 6.763086 ], [ -60.909741, 6.768992 ], [ -60.92411, 6.789074 ], [ -60.925683, 6.804251 ], [ -60.915081, 6.822564 ], [ -60.897718, 6.831337 ], [ -60.882666, 6.828487 ], [ -60.835552, 6.801812 ], [ -60.825176, 6.806179 ], [ -60.805022, 6.814662 ], [ -60.793876, 6.815045 ], [ -60.752986, 6.79405 ], [ -60.73241, 6.776124 ], [ -60.709554, 6.774901 ], [ -60.692738, 6.788651 ], [ -60.668423, 6.828217 ], [ -60.655237, 6.841812 ], [ -60.638942, 6.849224 ], [ -60.549829, 6.872763 ], [ -60.528886, 6.887316 ], [ -60.49633, 6.897025 ], [ -60.481418, 6.909243 ], [ -60.476028, 6.913659 ], [ -60.441259, 6.949372 ], [ -60.415948, 6.960134 ], [ -60.399095, 6.96388 ], [ -60.380849, 6.954423 ], [ -60.371701, 6.952925 ], [ -60.363848, 6.992129 ], [ -60.333306, 7.034715 ], [ -60.302367, 7.057064 ], [ -60.28688, 7.07432 ], [ -60.280038, 7.093266 ], [ -60.278105, 7.115709 ], [ -60.280298, 7.119808 ], [ -60.31477, 7.143219 ], [ -60.334808, 7.138944 ], [ -60.343053, 7.141153 ], [ -60.346387, 7.147802 ], [ -60.349687, 7.172433 ], [ -60.359404, 7.182751 ], [ -60.373039, 7.183611 ], [ -60.407019, 7.177518 ], [ -60.429649, 7.195434 ], [ -60.447018, 7.201216 ], [ -60.481418, 7.185676 ], [ -60.49633, 7.17894 ], [ -60.506847, 7.167011 ], [ -60.525772, 7.135362 ], [ -60.534194, 7.131007 ], [ -60.540757, 7.134394 ], [ -60.55398, 7.152668 ], [ -60.584243, 7.174956 ], [ -60.601475, 7.195457 ], [ -60.6163, 7.207412 ], [ -60.630845, 7.232482 ], [ -60.633405, 7.249465 ], [ -60.629833, 7.267484 ], [ -60.589568, 7.312466 ], [ -60.585843, 7.321075 ], [ -60.586719, 7.330997 ], [ -60.600081, 7.354778 ], [ -60.614937, 7.391054 ], [ -60.636018, 7.409851 ], [ -60.637656, 7.430922 ], [ -60.642441, 7.44168 ], [ -60.651374, 7.44934 ], [ -60.67137, 7.454929 ], [ -60.695159, 7.473593 ], [ -60.712064, 7.536597 ], [ -60.705882, 7.550529 ], [ -60.692955, 7.559687 ], [ -60.685818, 7.572019 ], [ -60.662474, 7.56696 ], [ -60.646511, 7.572033 ], [ -60.62651, 7.611076 ], [ -60.624095, 7.629204 ], [ -60.619822, 7.638669 ], [ -60.613297, 7.640314 ], [ -60.59859, 7.635919 ], [ -60.59096, 7.639204 ], [ -60.59297, 7.666823 ], [ -60.57542, 7.694993 ], [ -60.570833, 7.709025 ], [ -60.576891, 7.735556 ], [ -60.57067, 7.743986 ], [ -60.563064, 7.763247 ], [ -60.550191, 7.777106 ], [ -60.538064, 7.806753 ], [ -60.522862, 7.82792 ], [ -60.507709, 7.83474 ], [ -60.49633, 7.836775 ], [ -60.481418, 7.839442 ], [ -60.476522, 7.840318 ], [ -60.419307, 7.830776 ], [ -60.387787, 7.837088 ], [ -60.372953, 7.831466 ], [ -60.365483, 7.832327 ], [ -60.353255, 7.84074 ], [ -60.324075, 7.869704 ], [ -60.248233, 7.931496 ], [ -60.233793, 7.957272 ], [ -60.22431, 7.966168 ], [ -60.191793, 7.979757 ], [ -60.165812, 7.986361 ], [ -60.142941, 8.001524 ], [ -60.112201, 8.02943 ], [ -60.09625, 8.029579 ], [ -60.065867, 8.020911 ], [ -60.04635, 8.025832 ], [ -60.014875, 8.049452 ], [ -59.998309, 8.068755 ], [ -59.994024, 8.09389 ], [ -59.993364, 8.097759 ], [ -59.978506, 8.134463 ], [ -59.983678, 8.159567 ], [ -59.981805, 8.165737 ], [ -59.97984, 8.172205 ], [ -59.969226, 8.180752 ], [ -59.950969, 8.187213 ], [ -59.9349, 8.216982 ], [ -59.842351, 8.234211 ], [ -59.834805, 8.241593 ], [ -59.829926, 8.25346 ], [ -59.809063, 8.272733 ], [ -59.804107, 8.285175 ], [ -59.808127, 8.306366 ], [ -59.82444, 8.319392 ], [ -59.994024, 8.533007 ], [ -59.994024, 8.533434 ], [ -59.936195, 8.487662 ], [ -59.908214, 8.452178 ], [ -59.876445, 8.395122 ], [ -59.85765, 8.373631 ], [ -59.843995, 8.363103 ], [ -59.820614, 8.359165 ], [ -59.783567, 8.345171 ], [ -59.778535, 8.350479 ], [ -59.766396, 8.351185 ], [ -59.763853, 8.354589 ], [ -59.809118, 8.386937 ], [ -59.812784, 8.392555 ], [ -59.810547, 8.398791 ], [ -59.798455, 8.402914 ], [ -59.768543, 8.402446 ], [ -59.740006, 8.393767 ], [ -59.674934, 8.358397 ], [ -59.601287, 8.309619 ], [ -59.455082, 8.234611 ], [ -59.339938, 8.165737 ], [ -59.292092, 8.137113 ], [ -59.257722, 8.113375 ], [ -59.216895, 8.092177 ], [ -59.187831, 8.071289 ], [ -59.159687, 8.056854 ], [ -59.12191, 8.027688 ], [ -59.085257, 7.992719 ], [ -58.966296, 7.859654 ], [ -58.935689, 7.817947 ], [ -58.923584, 7.809344 ], [ -58.910846, 7.794467 ], [ -58.892909, 7.781649 ], [ -58.869246, 7.754148 ], [ -58.845017, 7.742777 ], [ -58.830158, 7.729967 ], [ -58.806611, 7.686016 ], [ -58.769189, 7.630254 ], [ -58.753548, 7.623246 ], [ -58.726823, 7.623151 ], [ -58.712758, 7.614371 ], [ -58.694551, 7.608672 ], [ -58.676426, 7.597313 ], [ -58.637446, 7.539165 ], [ -58.619075, 7.512076 ], [ -58.573332, 7.46025 ], [ -58.530803, 7.397743 ], [ -58.504937, 7.373993 ], [ -58.483313, 7.339857 ], [ -58.476369, 7.308576 ], [ -58.476362, 7.274139 ], [ -58.487379, 7.191146 ], [ -58.47484, 7.1466 ], [ -58.472102, 7.109613 ], [ -58.334818, 6.956533 ], [ -58.328661, 6.885596 ], [ -58.276645, 6.871514 ], [ -58.228275, 6.84412 ], [ -58.179118, 6.809877 ], [ -58.181409, 6.796858 ], [ -58.196681, 6.765262 ], [ -58.204435, 6.728624 ], [ -58.203606, 6.715063 ], [ -58.194404, 6.69125 ], [ -58.194422, 6.679506 ], [ -58.215577, 6.630315 ], [ -58.223264, 6.594253 ], [ -58.233334, 6.564995 ], [ -58.246335, 6.541047 ], [ -58.252907, 6.537132 ], [ -58.253494, 6.532369 ], [ -58.24206, 6.539337 ], [ -58.229552, 6.558862 ], [ -58.216411, 6.588716 ], [ -58.219514, 6.593788 ], [ -58.216992, 6.605801 ], [ -58.215089, 6.607673 ], [ -58.211615, 6.60561 ], [ -58.205522, 6.627791 ], [ -58.190836, 6.659667 ], [ -58.186254, 6.687169 ], [ -58.193732, 6.730354 ], [ -58.176535, 6.775964 ], [ -58.164055, 6.822831 ], [ -58.123057, 6.826017 ], [ -58.090302, 6.82278 ], [ -58.063098, 6.815714 ], [ -58.022172, 6.797885 ], [ -57.955419, 6.7456 ], [ -57.921999, 6.709911 ], [ -57.903114, 6.698602 ], [ -57.846726, 6.649917 ], [ -57.820366, 6.626891 ], [ -57.797202, 6.595163 ], [ -57.776971, 6.582605 ], [ -57.753386, 6.558625 ], [ -57.743508, 6.548581 ], [ -57.691028, 6.50807 ], [ -57.626718, 6.446609 ], [ -57.604387, 6.418658 ], [ -57.579377, 6.380186 ], [ -57.561434, 6.32782 ], [ -57.5404, 6.289542 ], [ -57.536207, 6.281909 ], [ -57.534632, 6.267793 ], [ -57.538512, 6.234135 ], [ -57.531138, 6.199197 ], [ -57.525672, 6.203285 ], [ -57.523521, 6.242992 ], [ -57.512705, 6.271957 ], [ -57.506585, 6.305502 ], [ -57.481399, 6.318587 ], [ -57.4653, 6.318816 ], [ -57.447546, 6.313807 ], [ -57.434229, 6.315818 ], [ -57.409766, 6.310118 ], [ -57.39559, 6.303778 ], [ -57.324797, 6.257358 ], [ -57.319616, 6.253961 ], [ -57.274337, 6.218761 ], [ -57.209343, 6.15372 ], [ -57.172396, 6.09816 ], [ -57.155234, 6.020859 ], [ -57.145027, 5.991001 ], [ -57.1409, 5.929226 ], [ -57.135088, 5.89702 ], [ -57.141136, 5.854004 ], [ -57.139302, 5.83315 ], [ -57.134004, 5.837379 ], [ -57.143622, 5.753198 ], [ -57.13782, 5.696481 ], [ -57.140754, 5.67465 ], [ -57.153307, 5.642451 ], [ -57.161646, 5.605902 ], [ -57.17743, 5.587384 ], [ -57.18345, 5.575147 ], [ -57.191893, 5.557985 ], [ -57.221332, 5.516722 ], [ -57.243528, 5.494174 ], [ -57.261041, 5.4813 ], [ -57.266666, 5.456406 ], [ -57.264721, 5.401693 ], [ -57.272731, 5.383215 ], [ -57.323055, 5.348224 ], [ -57.324797, 5.345859 ], [ -57.33877, 5.326882 ], [ -57.335729, 5.318495 ], [ -57.328647, 5.316654 ], [ -57.324797, 5.316771 ], [ -57.315517, 5.325462 ], [ -57.305915, 5.328356 ], [ -57.296559, 5.327425 ], [ -57.287061, 5.319717 ], [ -57.285926, 5.308743 ], [ -57.29212, 5.284538 ], [ -57.290727, 5.25479 ], [ -57.276796, 5.22679 ], [ -57.265812, 5.223597 ], [ -57.258444, 5.229163 ], [ -57.258948, 5.236034 ], [ -57.268162, 5.253905 ], [ -57.265618, 5.271789 ], [ -57.255251, 5.2781 ], [ -57.240299, 5.275011 ], [ -57.218817, 5.259115 ], [ -57.2114, 5.234207 ], [ -57.181609, 5.196188 ], [ -57.177677, 5.176468 ], [ -57.181516, 5.160658 ], [ -57.189032, 5.156092 ], [ -57.207987, 5.15164 ], [ -57.215241, 5.136496 ], [ -57.223029, 5.133032 ], [ -57.232223, 5.135406 ], [ -57.235513, 5.15007 ], [ -57.246427, 5.161567 ], [ -57.249051, 5.174561 ], [ -57.255714, 5.179319 ], [ -57.26891, 5.181542 ], [ -57.290189, 5.175129 ], [ -57.296448, 5.167554 ], [ -57.297854, 5.139771 ], [ -57.321475, 5.092893 ], [ -57.323491, 5.077051 ], [ -57.316857, 5.059738 ], [ -57.296439, 5.050231 ], [ -57.288336, 5.041651 ], [ -57.284877, 5.031653 ], [ -57.287956, 5.017281 ], [ -57.294197, 5.013901 ], [ -57.302845, 5.015139 ], [ -57.31713, 5.030068 ], [ -57.324797, 5.032875 ], [ -57.332924, 5.034936 ], [ -57.341722, 5.017595 ], [ -57.355937, 5.013435 ], [ -57.381962, 5.014398 ], [ -57.41446, 4.98949 ], [ -57.446912, 4.994429 ], [ -57.483939, 4.989269 ], [ -57.495381, 4.992135 ], [ -57.511179, 4.996092 ], [ -57.522286, 5.008638 ], [ -57.532713, 5.01023 ], [ -57.5404, 5.010139 ], [ -57.542205, 5.010118 ], [ -57.552791, 5.003973 ], [ -57.609931, 4.991939 ], [ -57.625145, 4.994495 ], [ -57.639747, 5.004523 ], [ -57.658069, 5.004524 ], [ -57.672571, 5.008445 ], [ -57.699545, 4.997322 ], [ -57.734496, 4.970363 ], [ -57.751256, 4.949471 ], [ -57.749304, 4.933052 ], [ -57.753386, 4.92855 ], [ -57.758176, 4.923269 ], [ -57.801844, 4.919218 ], [ -57.821708, 4.930131 ], [ -57.838563, 4.923016 ], [ -57.846726, 4.915107 ], [ -57.883858, 4.879131 ], [ -57.908166, 4.83682 ], [ -57.918635, 4.834159 ], [ -57.924811, 4.814836 ], [ -57.923332, 4.805657 ], [ -57.910802, 4.792834 ], [ -57.908166, 4.778687 ], [ -57.904663, 4.775748 ], [ -57.886779, 4.776952 ], [ -57.873836, 4.764925 ], [ -57.868525, 4.749282 ], [ -57.863772, 4.743882 ], [ -57.864085, 4.725128 ], [ -57.846726, 4.697567 ], [ -57.84011, 4.687061 ], [ -57.838303, 4.679521 ], [ -57.829362, 4.671654 ], [ -57.827659, 4.664315 ], [ -57.834604, 4.636629 ], [ -57.846726, 4.61281 ], [ -57.855187, 4.596186 ], [ -57.865453, 4.583936 ], [ -57.885561, 4.541118 ], [ -57.889143, 4.517964 ], [ -57.918796, 4.448294 ], [ -57.945128, 4.424302 ], [ -57.959969, 4.394962 ], [ -57.958579, 4.374949 ], [ -57.945731, 4.355201 ], [ -57.947715, 4.315519 ], [ -57.968438, 4.293333 ], [ -57.977951, 4.277598 ], [ -57.994273, 4.265756 ], [ -58.003333, 4.246477 ], [ -58.014172, 4.240782 ], [ -58.019956, 4.23413 ], [ -58.02086, 4.220944 ], [ -58.036143, 4.197603 ], [ -58.040691, 4.174831 ], [ -58.048684, 4.153627 ], [ -58.045829, 4.136962 ], [ -58.029167, 4.124933 ], [ -58.023748, 4.109332 ], [ -58.02399, 4.074137 ], [ -58.031124, 4.034204 ], [ -58.025547, 4.022473 ], [ -58.02702, 3.985889 ], [ -57.992503, 3.981435 ], [ -57.982016, 3.974876 ], [ -57.976743, 3.959885 ], [ -57.935224, 3.917662 ], [ -57.928529, 3.898052 ], [ -57.916526, 3.884865 ], [ -57.89156, 3.844115 ], [ -57.854077, 3.815739 ], [ -57.847473, 3.799411 ], [ -57.853906, 3.781673 ], [ -57.846726, 3.77096 ], [ -57.841512, 3.76318 ], [ -57.843995, 3.745672 ], [ -57.835951, 3.712647 ], [ -57.835933, 3.684076 ], [ -57.825496, 3.666128 ], [ -57.814372, 3.655382 ], [ -57.802543, 3.652933 ], [ -57.768165, 3.627097 ], [ -57.759289, 3.624054 ], [ -57.753386, 3.625137 ], [ -57.743813, 3.626894 ], [ -57.724884, 3.613526 ], [ -57.718655, 3.607178 ], [ -57.71581, 3.599409 ], [ -57.718704, 3.584317 ], [ -57.714408, 3.577698 ], [ -57.691772, 3.570806 ], [ -57.677316, 3.555294 ], [ -57.660483, 3.556211 ], [ -57.647739, 3.549336 ], [ -57.642067, 3.53183 ], [ -57.641261, 3.518235 ], [ -57.634225, 3.505686 ], [ -57.642589, 3.494955 ], [ -57.642824, 3.485144 ], [ -57.63072, 3.474394 ], [ -57.623176, 3.460205 ], [ -57.643165, 3.445767 ], [ -57.659126, 3.439452 ], [ -57.667466, 3.426232 ], [ -57.676496, 3.424622 ], [ -57.683617, 3.419476 ], [ -57.687492, 3.408745 ], [ -57.678347, 3.395849 ], [ -57.655626, 3.382639 ], [ -57.617866, 3.368 ], [ -57.604854, 3.367797 ], [ -57.591295, 3.373168 ], [ -57.578171, 3.360489 ], [ -57.56878, 3.356979 ], [ -57.542302, 3.36089 ], [ -57.5404, 3.362208 ], [ -57.529203, 3.36997 ], [ -57.515072, 3.369758 ], [ -57.506722, 3.364411 ], [ -57.496006, 3.362274 ], [ -57.490411, 3.347741 ], [ -57.482919, 3.342869 ], [ -57.445341, 3.353919 ], [ -57.44056, 3.361096 ], [ -57.430982, 3.367736 ], [ -57.428105, 3.383316 ], [ -57.425087, 3.387047 ], [ -57.418375, 3.384963 ], [ -57.408591, 3.371073 ], [ -57.389491, 3.367007 ], [ -57.342907, 3.369451 ], [ -57.324797, 3.379806 ], [ -57.315184, 3.388564 ], [ -57.305599, 3.386671 ], [ -57.295808, 3.369665 ], [ -57.294291, 3.356794 ], [ -57.287527, 3.346434 ], [ -57.283262, 3.332176 ], [ -57.285665, 3.307312 ], [ -57.296908, 3.286266 ], [ -57.290582, 3.26844 ], [ -57.282264, 3.254956 ], [ -57.287563, 3.244694 ], [ -57.284791, 3.228455 ], [ -57.296545, 3.188839 ], [ -57.299358, 3.179361 ], [ -57.294049, 3.171403 ], [ -57.279743, 3.169355 ], [ -57.275925, 3.163009 ], [ -57.288454, 3.143787 ], [ -57.28903, 3.137031 ], [ -57.282967, 3.130205 ], [ -57.271302, 3.128431 ], [ -57.264157, 3.130982 ], [ -57.250616, 3.143369 ], [ -57.241162, 3.141241 ], [ -57.239032, 3.130032 ], [ -57.255273, 3.111204 ], [ -57.257187, 3.09816 ], [ -57.243795, 3.088854 ], [ -57.228262, 3.084961 ], [ -57.208895, 3.072761 ], [ -57.206238, 3.055886 ], [ -57.197155, 3.045652 ], [ -57.193493, 3.026684 ], [ -57.19576, 3.019761 ], [ -57.201441, 3.0172 ], [ -57.220982, 3.019447 ], [ -57.2264, 3.0172 ], [ -57.212281, 3.006228 ], [ -57.206667, 2.998157 ], [ -57.212674, 2.984365 ], [ -57.221257, 2.975961 ], [ -57.216553, 2.965319 ], [ -57.216858, 2.949772 ], [ -57.208696, 2.945166 ], [ -57.19609, 2.951478 ], [ -57.1838, 2.953403 ], [ -57.178041, 2.950883 ], [ -57.175308, 2.945896 ], [ -57.186652, 2.916936 ], [ -57.210719, 2.906894 ], [ -57.218537, 2.898446 ], [ -57.206844, 2.871566 ], [ -57.191768, 2.854167 ], [ -57.192443, 2.849282 ], [ -57.199744, 2.841951 ], [ -57.199851, 2.835355 ], [ -57.193955, 2.830864 ], [ -57.171365, 2.826151 ], [ -57.168855, 2.812192 ], [ -57.127789, 2.824021 ], [ -57.118638, 2.820335 ], [ -57.119284, 2.810183 ], [ -57.132924, 2.790694 ], [ -57.133382, 2.779824 ], [ -57.122836, 2.773203 ], [ -57.109405, 2.777273 ], [ -57.101728, 2.769548 ], [ -57.088533, 2.763625 ], [ -57.088657, 2.757114 ], [ -57.097894, 2.739172 ], [ -57.087692, 2.71902 ], [ -57.071045, 2.70367 ], [ -57.064395, 2.689147 ], [ -57.055815, 2.680285 ], [ -57.05756, 2.661814 ], [ -57.050389, 2.642009 ], [ -57.037209, 2.646779 ], [ -57.019255, 2.642935 ], [ -57.023741, 2.604997 ], [ -57.017935, 2.590889 ], [ -57.018176, 2.574335 ], [ -56.987306, 2.550568 ], [ -56.985713, 2.538897 ], [ -56.98865, 2.52635 ], [ -56.9835, 2.518823 ], [ -56.988792, 2.511108 ], [ -56.988579, 2.50514 ], [ -56.977409, 2.501074 ], [ -56.960374, 2.503101 ], [ -56.952002, 2.497737 ], [ -56.943179, 2.50344 ], [ -56.938582, 2.501592 ], [ -56.939174, 2.477125 ], [ -56.949656, 2.471466 ], [ -56.937997, 2.455313 ], [ -56.932477, 2.438615 ], [ -56.917259, 2.433052 ], [ -56.927621, 2.394508 ], [ -56.921809, 2.385868 ], [ -56.90933, 2.382951 ], [ -56.882778, 2.36511 ], [ -56.872723, 2.352631 ], [ -56.868908, 2.339635 ], [ -56.876648, 2.316543 ], [ -56.873917, 2.293837 ], [ -56.847676, 2.284314 ], [ -56.807736, 2.261833 ], [ -56.808789, 2.225911 ], [ -56.811765, 2.215318 ], [ -56.802611, 2.205566 ], [ -56.802751, 2.193143 ], [ -56.792704, 2.187029 ], [ -56.772776, 2.145863 ], [ -56.756427, 2.125249 ], [ -56.73927, 2.113494 ], [ -56.690153, 2.048707 ], [ -56.68156, 2.016711 ], [ -56.674293, 2.013711 ], [ -56.638402, 2.013547 ], [ -56.602075, 2.026717 ], [ -56.581201, 2.025874 ], [ -56.567692, 2.018728 ], [ -56.553697, 2.020695 ], [ -56.54043, 2.017356 ], [ -56.477367, 1.945942 ] ] ], [ [ [ -57.474042, 6.32617 ], [ -57.471415, 6.327668 ], [ -57.468359, 6.325052 ], [ -57.470098, 6.321794 ], [ -57.473339, 6.323313 ], [ -57.474042, 6.32617 ] ] ] ] } }
]
}
