{
"type": "FeatureCollection",
"name": "Hala'Ib Triangle",
"crs": { "type": "name", "properties": { "name": "urn:ogc:def:crs:OGC:1.3:CRS84" } },
"features": [
{ "type": "Feature", "properties": { "id": "XF", "CNTR_ID": "XF", "CNTR_NAME": "Hala'Ib Triangle (Disputed Territory)", "NAME_ENGL": "Hala'Ib Triangle", "ISO3_CODE": "XF", "FID": "XF" }, "geometry": { "type": "MultiPolygon", "coordinates": [ [ [ [ 34.086529, 22.002508 ], [ 34.161176, 22.206606 ], [ 34.231217, 22.218772 ], [ 34.239416, 22.220196 ], [ 34.371867, 22.243201 ], [ 34.6174, 22.285168 ], [ 34.69196, 22.29791 ], [ 34.780703, 22.489451 ], [ 34.826912, 22.589082 ], [ 34.95135, 22.85757 ], [ 34.975287, 22.851121 ], [ 35.163072, 22.80053 ], [ 35.21217, 22.7873 ], [ 35.621821, 23.145528 ], [ 35.627614, 23.127035 ], [ 35.639725, 23.108757 ], [ 35.655494, 23.066579 ], [ 35.660374, 23.005055 ], [ 35.669504, 22.976054 ], [ 35.662932, 22.965954 ], [ 35.667469, 22.951423 ], [ 35.683139, 22.94334 ], [ 35.696482, 22.921345 ], [ 35.708022, 22.910226 ], [ 35.715601, 22.908514 ], [ 35.716463, 22.901747 ], [ 35.730232, 22.881095 ], [ 35.75678, 22.854621 ], [ 35.758144, 22.859249 ], [ 35.752938, 22.890314 ], [ 35.746154, 22.905348 ], [ 35.748558, 22.909048 ], [ 35.755276, 22.905653 ], [ 35.762808, 22.892015 ], [ 35.762727, 22.879191 ], [ 35.778405, 22.870718 ], [ 35.808952, 22.805427 ], [ 35.849012, 22.760772 ], [ 35.878834, 22.740536 ], [ 35.883751, 22.731316 ], [ 35.898891, 22.715464 ], [ 35.910166, 22.711537 ], [ 35.916443, 22.714765 ], [ 35.925112, 22.695423 ], [ 35.932959, 22.705555 ], [ 35.937369, 22.70732 ], [ 35.941711, 22.704318 ], [ 35.947989, 22.692669 ], [ 35.966926, 22.698746 ], [ 35.979245, 22.691822 ], [ 36.003632, 22.689604 ], [ 36.037267, 22.681697 ], [ 36.060539, 22.681004 ], [ 36.098872, 22.668505 ], [ 36.136537, 22.668116 ], [ 36.156444, 22.662402 ], [ 36.179668, 22.661523 ], [ 36.185746, 22.65833 ], [ 36.199891, 22.642088 ], [ 36.230207, 22.630531 ], [ 36.255517, 22.610698 ], [ 36.262772, 22.59754 ], [ 36.281559, 22.577056 ], [ 36.297167, 22.518619 ], [ 36.313765, 22.490529 ], [ 36.34441, 22.464146 ], [ 36.380681, 22.442616 ], [ 36.396026, 22.435163 ], [ 36.413034, 22.432564 ], [ 36.419249, 22.428603 ], [ 36.422685, 22.421722 ], [ 36.423957, 22.394431 ], [ 36.436889, 22.365843 ], [ 36.447076, 22.354315 ], [ 36.496616, 22.328643 ], [ 36.516409, 22.3224 ], [ 36.551701, 22.30599 ], [ 36.589748, 22.280962 ], [ 36.623497, 22.249317 ], [ 36.641476, 22.239625 ], [ 36.64575, 22.232678 ], [ 36.651381, 22.221979 ], [ 36.678137, 22.200186 ], [ 36.696017, 22.192902 ], [ 36.703672, 22.180616 ], [ 36.721688, 22.165251 ], [ 36.737505, 22.158772 ], [ 36.749978, 22.158539 ], [ 36.763187, 22.161539 ], [ 36.769199, 22.168801 ], [ 36.774204, 22.167466 ], [ 36.793784, 22.148932 ], [ 36.799942, 22.124957 ], [ 36.825087, 22.109274 ], [ 36.841849, 22.087795 ], [ 36.864397, 22.079264 ], [ 36.892194, 22.063823 ], [ 36.892884, 22.02648 ], [ 36.882499, 22.005133 ], [ 36.879315, 22.00513 ], [ 36.64575, 22.004911 ], [ 36.467393, 22.004744 ], [ 36.414663, 22.004694 ], [ 36.386829, 22.004668 ], [ 35.783258, 22.004101 ], [ 35.744166, 22.004065 ], [ 35.163072, 22.003519 ], [ 34.780703, 22.00316 ], [ 34.6174, 22.003007 ], [ 34.371867, 22.002776 ], [ 34.239416, 22.002652 ], [ 34.231217, 22.002644 ], [ 34.086529, 22.002508 ] ] ], [ [ [ 36.64575, 22.273671 ], [ 36.648949, 22.272154 ], [ 36.653368, 22.271961 ], [ 36.655096, 22.267619 ], [ 36.657889, 22.265605 ], [ 36.664256, 22.264412 ], [ 36.665595, 22.258524 ], [ 36.66556, 22.252359 ], [ 36.663203, 22.250964 ], [ 36.658841, 22.25817 ], [ 36.65439, 22.260288 ], [ 36.648888, 22.25931 ], [ 36.64575, 22.257507 ], [ 36.632073, 22.252789 ], [ 36.633626, 22.260073 ], [ 36.631693, 22.264983 ], [ 36.637174, 22.271246 ], [ 36.638415, 22.278591 ], [ 36.64575, 22.282836 ], [ 36.64822, 22.283955 ], [ 36.651754, 22.279934 ], [ 36.650537, 22.278138 ], [ 36.64575, 22.279317 ], [ 36.643763, 22.276959 ], [ 36.64422, 22.274397 ], [ 36.64575, 22.273671 ] ] ], [ [ [ 35.717779, 22.910059 ], [ 35.720717, 22.91526 ], [ 35.729548, 22.917471 ], [ 35.732431, 22.919916 ], [ 35.735262, 22.919736 ], [ 35.739516, 22.912836 ], [ 35.738886, 22.906434 ], [ 35.7237, 22.908513 ], [ 35.717779, 22.910059 ] ] ], [ [ [ 36.628143, 22.293252 ], [ 36.633647, 22.29564 ], [ 36.63954, 22.294657 ], [ 36.638077, 22.292446 ], [ 36.632852, 22.290877 ], [ 36.62962, 22.288532 ], [ 36.628143, 22.293252 ] ] ], [ [ [ 36.202928, 22.787726 ], [ 36.205095, 22.790567 ], [ 36.20844, 22.790287 ], [ 36.208689, 22.787322 ], [ 36.204557, 22.785859 ], [ 36.202928, 22.787726 ] ] ], [ [ [ 35.671081, 22.96229 ], [ 35.676021, 22.963155 ], [ 35.676341, 22.958592 ], [ 35.672647, 22.958465 ], [ 35.671081, 22.96229 ] ] ] ] } }
]
}
