{
"type": "FeatureCollection",
"name": "Heard Island and Mcdonald Islands",
"crs": { "type": "name", "properties": { "name": "urn:ogc:def:crs:OGC:1.3:CRS84" } },
"features": [
{ "type": "Feature", "properties": { "id": "HM", "CNTR_ID": "HM", "CNTR_NAME": "Heard Island and Mcdonald Islands", "NAME_ENGL": "Heard Island and Mcdonald Islands", "ISO3_CODE": "HMD", "FID": "HM" }, "geometry": { "type": "MultiPolygon", "coordinates": [ [ [ [ 73.252511, -52.989162 ], [ 73.259776, -52.982859 ], [ 73.271798, -52.978991 ], [ 73.277009, -52.979333 ], [ 73.298985, -52.971084 ], [ 73.303863, -52.96626 ], [ 73.304245, -52.962021 ], [ 73.306534, -52.961793 ], [ 73.310168, -52.965205 ], [ 73.309401, -52.974813 ], [ 73.321498, -52.975896 ], [ 73.332641, -52.981145 ], [ 73.334974, -52.987882 ], [ 73.344239, -52.998778 ], [ 73.360899, -53.008822 ], [ 73.370674, -53.019843 ], [ 73.385151, -53.0269 ], [ 73.391484, -53.024791 ], [ 73.388631, -53.018532 ], [ 73.389763, -53.013293 ], [ 73.399528, -53.003001 ], [ 73.404989, -53.001489 ], [ 73.410639, -53.003365 ], [ 73.415497, -53.011022 ], [ 73.414878, -53.01596 ], [ 73.409378, -53.022474 ], [ 73.416297, -53.026098 ], [ 73.426962, -53.028338 ], [ 73.457958, -53.029782 ], [ 73.482017, -53.025524 ], [ 73.49211, -53.02129 ], [ 73.493566, -53.014505 ], [ 73.498771, -53.012213 ], [ 73.506393, -53.013655 ], [ 73.513193, -53.018371 ], [ 73.524415, -53.01794 ], [ 73.536727, -53.014776 ], [ 73.55041, -53.020507 ], [ 73.57331, -53.020301 ], [ 73.607702, -53.035808 ], [ 73.638385, -53.040523 ], [ 73.650446, -53.047937 ], [ 73.674863, -53.0761 ], [ 73.67968, -53.087367 ], [ 73.708304, -53.098906 ], [ 73.739264, -53.116072 ], [ 73.752322, -53.119544 ], [ 73.769989, -53.120876 ], [ 73.843845, -53.113626 ], [ 73.858772, -53.11121 ], [ 73.859369, -53.112224 ], [ 73.853869, -53.113682 ], [ 73.830577, -53.117017 ], [ 73.749291, -53.125403 ], [ 73.735159, -53.129171 ], [ 73.720539, -53.138557 ], [ 73.694345, -53.144332 ], [ 73.670646, -53.15399 ], [ 73.669566, -53.153041 ], [ 73.676543, -53.149022 ], [ 73.650234, -53.139823 ], [ 73.646104, -53.145888 ], [ 73.648145, -53.160473 ], [ 73.637353, -53.166262 ], [ 73.629238, -53.166097 ], [ 73.619594, -53.175797 ], [ 73.589521, -53.194738 ], [ 73.538095, -53.200869 ], [ 73.505545, -53.214825 ], [ 73.492354, -53.218123 ], [ 73.44604, -53.215664 ], [ 73.426881, -53.209848 ], [ 73.411516, -53.20133 ], [ 73.397471, -53.188146 ], [ 73.400005, -53.167518 ], [ 73.395917, -53.145776 ], [ 73.399998, -53.126201 ], [ 73.391736, -53.090246 ], [ 73.386009, -53.08254 ], [ 73.363074, -53.076083 ], [ 73.374938, -53.070002 ], [ 73.379642, -53.055983 ], [ 73.378151, -53.051134 ], [ 73.365279, -53.038025 ], [ 73.365157, -53.03273 ], [ 73.370935, -53.029281 ], [ 73.370885, -53.026407 ], [ 73.36249, -53.022233 ], [ 73.332931, -53.022553 ], [ 73.324237, -53.018286 ], [ 73.297293, -53.024604 ], [ 73.280888, -53.016663 ], [ 73.263375, -53.014428 ], [ 73.254924, -53.002929 ], [ 73.255512, -52.995232 ], [ 73.252511, -52.989162 ] ] ], [ [ [ 72.583399, -53.041549 ], [ 72.58529, -53.040154 ], [ 72.585933, -53.037538 ], [ 72.588566, -53.036156 ], [ 72.591003, -53.036414 ], [ 72.596678, -53.034198 ], [ 72.600566, -53.030141 ], [ 72.603241, -53.033259 ], [ 72.603516, -53.036061 ], [ 72.609556, -53.039394 ], [ 72.616091, -53.040356 ], [ 72.616618, -53.041162 ], [ 72.608232, -53.043904 ], [ 72.607405, -53.046507 ], [ 72.608563, -53.049093 ], [ 72.603379, -53.051646 ], [ 72.599583, -53.050001 ], [ 72.593109, -53.05006 ], [ 72.594084, -53.04877 ], [ 72.58958, -53.048114 ], [ 72.585232, -53.045957 ], [ 72.583399, -53.041549 ] ] ], [ [ [ 72.577521, -53.023495 ], [ 72.577855, -53.021297 ], [ 72.582697, -53.021031 ], [ 72.581582, -53.024212 ], [ 72.577521, -53.023495 ] ] ] ] } }
]
}
