{
"type": "FeatureCollection",
"name": "Honduras",
"crs": { "type": "name", "properties": { "name": "urn:ogc:def:crs:OGC:1.3:CRS84" } },
"features": [
{ "type": "Feature", "properties": { "id": "HN", "CNTR_ID": "HN", "CNTR_NAME": "Honduras", "NAME_ENGL": "Honduras", "ISO3_CODE": "HND", "FID": "HN" }, "geometry": { "type": "MultiPolygon", "coordinates": [ [ [ [ -89.353185, 14.418488 ], [ -89.349624, 14.426266 ], [ -89.350561, 14.456365 ], [ -89.34741, 14.467929 ], [ -89.339382, 14.475469 ], [ -89.309545, 14.4868 ], [ -89.301566, 14.501531 ], [ -89.289459, 14.51167 ], [ -89.278993, 14.529796 ], [ -89.255675, 14.552243 ], [ -89.248593, 14.567461 ], [ -89.240318, 14.575722 ], [ -89.228245, 14.581972 ], [ -89.217663, 14.583142 ], [ -89.168121, 14.570216 ], [ -89.157306, 14.572852 ], [ -89.153434, 14.578999 ], [ -89.14667, 14.605348 ], [ -89.152293, 14.662363 ], [ -89.135397, 14.697408 ], [ -89.134301, 14.706328 ], [ -89.138797, 14.712125 ], [ -89.159575, 14.722272 ], [ -89.165776, 14.728308 ], [ -89.168828, 14.772367 ], [ -89.202584, 14.807429 ], [ -89.220522, 14.831992 ], [ -89.224968, 14.870909 ], [ -89.223756, 14.880011 ], [ -89.219872, 14.885664 ], [ -89.184585, 14.907921 ], [ -89.174043, 14.935512 ], [ -89.165934, 14.948938 ], [ -89.159813, 14.978582 ], [ -89.177396, 14.988007 ], [ -89.18137, 14.999612 ], [ -89.174392, 15.02005 ], [ -89.169052, 15.035691 ], [ -89.153963, 15.064482 ], [ -89.117192, 15.082262 ], [ -89.009194, 15.12228 ], [ -88.966316, 15.138166 ], [ -88.836847, 15.246183 ], [ -88.82861, 15.253053 ], [ -88.794908, 15.269295 ], [ -88.684539, 15.33655 ], [ -88.642135, 15.37134 ], [ -88.6007, 15.412989 ], [ -88.591714, 15.418449 ], [ -88.575089, 15.420299 ], [ -88.538524, 15.455127 ], [ -88.413896, 15.558869 ], [ -88.35532, 15.603753 ], [ -88.328422, 15.637944 ], [ -88.309321, 15.662221 ], [ -88.307059, 15.665096 ], [ -88.299395, 15.669351 ], [ -88.285941, 15.670638 ], [ -88.275613, 15.681278 ], [ -88.257743, 15.683576 ], [ -88.251143, 15.688259 ], [ -88.246595, 15.693691 ], [ -88.244494, 15.699378 ], [ -88.246383, 15.705491 ], [ -88.25253, 15.712535 ], [ -88.251941, 15.715551 ], [ -88.250121, 15.717199 ], [ -88.245861, 15.718198 ], [ -88.236898, 15.717135 ], [ -88.22132, 15.720487 ], [ -88.182511, 15.695448 ], [ -88.160637, 15.684787 ], [ -88.141715, 15.682693 ], [ -88.123212, 15.687214 ], [ -88.114365, 15.692965 ], [ -88.105486, 15.704481 ], [ -88.104119, 15.711003 ], [ -88.106738, 15.716917 ], [ -88.101823, 15.725215 ], [ -88.085446, 15.734366 ], [ -88.073439, 15.748562 ], [ -88.051474, 15.762372 ], [ -88.042931, 15.780827 ], [ -87.998493, 15.78824 ], [ -87.975484, 15.800467 ], [ -87.973616, 15.801083 ], [ -87.951732, 15.808301 ], [ -87.940544, 15.815893 ], [ -87.935255, 15.825335 ], [ -87.937003, 15.835786 ], [ -87.960635, 15.84937 ], [ -87.958771, 15.855565 ], [ -87.952458, 15.861522 ], [ -87.93867, 15.864836 ], [ -87.905265, 15.865656 ], [ -87.870921, 15.887406 ], [ -87.818212, 15.899788 ], [ -87.748665, 15.894321 ], [ -87.735996, 15.913619 ], [ -87.725275, 15.918873 ], [ -87.709629, 15.915536 ], [ -87.671885, 15.896766 ], [ -87.654762, 15.892166 ], [ -87.648906, 15.88092 ], [ -87.640833, 15.877123 ], [ -87.635016, 15.883095 ], [ -87.637487, 15.905419 ], [ -87.630831, 15.91049 ], [ -87.622916, 15.916199 ], [ -87.618863, 15.915822 ], [ -87.624873, 15.905916 ], [ -87.625186, 15.898073 ], [ -87.61879, 15.881974 ], [ -87.602168, 15.858071 ], [ -87.599519, 15.848798 ], [ -87.60293, 15.842502 ], [ -87.615357, 15.833732 ], [ -87.625465, 15.818813 ], [ -87.630831, 15.788942 ], [ -87.634305, 15.778357 ], [ -87.630831, 15.774111 ], [ -87.607233, 15.777413 ], [ -87.593073, 15.782838 ], [ -87.573415, 15.772799 ], [ -87.54984, 15.775028 ], [ -87.592251, 15.819318 ], [ -87.595216, 15.824682 ], [ -87.59352, 15.827705 ], [ -87.567162, 15.812225 ], [ -87.557641, 15.815502 ], [ -87.552775, 15.814348 ], [ -87.519821, 15.789228 ], [ -87.468823, 15.782594 ], [ -87.447052, 15.790231 ], [ -87.426145, 15.811415 ], [ -87.39562, 15.821208 ], [ -87.367073, 15.843223 ], [ -87.222383, 15.804701 ], [ -87.138809, 15.78958 ], [ -87.094044, 15.786239 ], [ -87.047755, 15.776902 ], [ -87.010721, 15.77461 ], [ -86.966892, 15.762909 ], [ -86.914608, 15.756688 ], [ -86.832504, 15.768698 ], [ -86.775593, 15.797809 ], [ -86.710675, 15.787832 ], [ -86.675963, 15.787823 ], [ -86.637408, 15.795982 ], [ -86.599142, 15.797764 ], [ -86.53442, 15.805911 ], [ -86.500227, 15.814117 ], [ -86.481738, 15.80981 ], [ -86.450877, 15.79215 ], [ -86.425494, 15.78195 ], [ -86.408963, 15.779521 ], [ -86.389371, 15.784189 ], [ -86.36207, 15.781963 ], [ -86.33171, 15.800024 ], [ -86.286641, 15.813574 ], [ -86.264765, 15.82866 ], [ -86.253369, 15.841944 ], [ -86.223016, 15.868031 ], [ -86.184894, 15.884634 ], [ -86.158446, 15.889352 ], [ -86.121252, 15.901941 ], [ -86.066337, 15.898338 ], [ -86.003668, 15.903021 ], [ -85.983525, 15.90848 ], [ -85.939497, 15.929303 ], [ -85.916227, 15.961789 ], [ -85.912368, 15.983263 ], [ -85.91685, 15.999226 ], [ -85.923004, 16.005273 ], [ -85.935946, 16.009479 ], [ -85.983547, 16.007374 ], [ -86.00603, 16.020785 ], [ -85.997381, 16.026047 ], [ -85.860698, 16.006195 ], [ -85.772789, 15.983521 ], [ -85.696975, 15.958291 ], [ -85.643815, 15.924979 ], [ -85.570809, 15.888991 ], [ -85.546922, 15.879762 ], [ -85.480777, 15.861576 ], [ -85.449711, 15.862059 ], [ -85.426911, 15.872041 ], [ -85.395775, 15.877848 ], [ -85.328133, 15.87691 ], [ -85.285106, 15.879554 ], [ -85.262381, 15.883929 ], [ -85.220538, 15.891984 ], [ -85.175481, 15.910635 ], [ -85.103047, 15.965362 ], [ -85.067403, 15.981488 ], [ -85.039644, 15.985746 ], [ -85.005727, 15.982238 ], [ -84.959567, 15.968073 ], [ -84.929817, 15.958582 ], [ -84.853113, 15.924062 ], [ -84.770325, 15.894277 ], [ -84.687055, 15.872731 ], [ -84.661657, 15.868849 ], [ -84.651622, 15.86318 ], [ -84.639949, 15.863589 ], [ -84.448686, 15.826109 ], [ -84.303764, 15.814585 ], [ -84.218992, 15.746191 ], [ -84.079361, 15.632391 ], [ -84.022964, 15.579048 ], [ -83.946668, 15.512456 ], [ -83.927098, 15.495373 ], [ -83.887233, 15.463951 ], [ -83.84151, 15.434341 ], [ -83.793917, 15.411222 ], [ -83.780721, 15.406679 ], [ -83.765738, 15.401521 ], [ -83.734254, 15.394612 ], [ -83.730297, 15.390603 ], [ -83.740671, 15.375984 ], [ -83.756251, 15.37704 ], [ -83.775007, 15.384537 ], [ -83.780721, 15.389129 ], [ -83.807217, 15.410223 ], [ -83.839773, 15.42612 ], [ -83.860251, 15.430119 ], [ -83.882002, 15.439567 ], [ -83.900383, 15.438565 ], [ -83.922446, 15.443141 ], [ -83.928316, 15.449015 ], [ -83.924665, 15.455733 ], [ -83.930708, 15.472453 ], [ -83.955384, 15.491123 ], [ -83.962693, 15.50222 ], [ -83.97754, 15.493612 ], [ -84.001871, 15.504957 ], [ -84.011702, 15.512456 ], [ -84.013978, 15.514193 ], [ -84.028489, 15.517078 ], [ -84.042488, 15.523785 ], [ -84.051104, 15.512456 ], [ -84.074087, 15.482234 ], [ -84.055395, 15.470072 ], [ -84.049387, 15.445411 ], [ -84.039261, 15.421403 ], [ -84.040355, 15.413224 ], [ -84.046372, 15.407902 ], [ -84.05227, 15.407787 ], [ -84.063306, 15.452022 ], [ -84.072718, 15.466012 ], [ -84.086586, 15.479451 ], [ -84.105205, 15.467422 ], [ -84.116888, 15.470028 ], [ -84.115677, 15.462345 ], [ -84.106141, 15.449961 ], [ -84.10412, 15.43534 ], [ -84.112764, 15.426587 ], [ -84.125963, 15.428159 ], [ -84.131617, 15.426145 ], [ -84.132269, 15.419203 ], [ -84.126922, 15.407502 ], [ -84.136626, 15.397425 ], [ -84.126627, 15.373532 ], [ -84.102017, 15.343094 ], [ -84.079939, 15.333024 ], [ -84.056258, 15.332672 ], [ -84.04499, 15.323563 ], [ -84.03937, 15.322409 ], [ -84.032655, 15.325997 ], [ -84.030544, 15.337047 ], [ -84.041826, 15.364315 ], [ -84.049436, 15.375179 ], [ -84.0479, 15.385902 ], [ -84.017898, 15.400756 ], [ -83.971435, 15.393685 ], [ -83.932057, 15.370739 ], [ -83.91737, 15.356465 ], [ -83.896723, 15.346056 ], [ -83.879159, 15.328868 ], [ -83.861891, 15.319733 ], [ -83.833201, 15.314761 ], [ -83.820809, 15.300976 ], [ -83.804821, 15.291109 ], [ -83.806046, 15.281514 ], [ -83.823554, 15.269029 ], [ -83.822289, 15.263003 ], [ -83.802173, 15.26803 ], [ -83.789786, 15.276633 ], [ -83.780721, 15.275475 ], [ -83.770772, 15.266514 ], [ -83.767092, 15.25755 ], [ -83.768611, 15.243926 ], [ -83.776277, 15.230302 ], [ -83.769595, 15.208475 ], [ -83.772322, 15.197591 ], [ -83.768648, 15.19424 ], [ -83.764171, 15.201327 ], [ -83.755606, 15.197991 ], [ -83.756436, 15.203735 ], [ -83.753142, 15.206305 ], [ -83.729856, 15.197393 ], [ -83.71944, 15.199627 ], [ -83.714333, 15.204917 ], [ -83.712252, 15.225893 ], [ -83.708239, 15.232651 ], [ -83.695569, 15.240995 ], [ -83.677134, 15.245465 ], [ -83.669843, 15.25404 ], [ -83.658613, 15.256887 ], [ -83.649876, 15.263752 ], [ -83.646034, 15.273197 ], [ -83.647225, 15.288949 ], [ -83.63038, 15.306359 ], [ -83.649113, 15.314627 ], [ -83.653386, 15.322696 ], [ -83.653554, 15.334827 ], [ -83.661549, 15.329808 ], [ -83.668898, 15.32887 ], [ -83.678018, 15.33876 ], [ -83.687343, 15.339695 ], [ -83.703078, 15.352712 ], [ -83.724173, 15.353741 ], [ -83.7357, 15.357787 ], [ -83.737273, 15.361399 ], [ -83.734108, 15.366617 ], [ -83.716593, 15.375351 ], [ -83.718765, 15.380386 ], [ -83.723224, 15.376333 ], [ -83.729953, 15.37538 ], [ -83.718296, 15.39436 ], [ -83.669895, 15.359831 ], [ -83.633812, 15.340466 ], [ -83.600914, 15.326547 ], [ -83.494585, 15.294536 ], [ -83.419111, 15.268234 ], [ -83.393111, 15.255219 ], [ -83.381599, 15.245236 ], [ -83.35549, 15.202425 ], [ -83.335606, 15.141859 ], [ -83.320603, 15.11227 ], [ -83.302394, 15.08513 ], [ -83.27989, 15.063541 ], [ -83.24322, 15.038531 ], [ -83.204224, 15.020846 ], [ -83.154754, 15.00706 ], [ -83.136857, 15.006777 ], [ -83.137822, 15.001541 ], [ -83.14499, 14.998131 ], [ -83.171239, 14.990288 ], [ -83.208176, 14.992528 ], [ -83.236285, 14.981442 ], [ -83.271181, 14.983624 ], [ -83.283652, 14.975328 ], [ -83.290798, 14.980431 ], [ -83.280737, 14.991402 ], [ -83.282082, 14.99785 ], [ -83.302965, 14.995452 ], [ -83.329702, 15.006879 ], [ -83.34357, 15.009929 ], [ -83.347285, 15.007947 ], [ -83.350784, 14.998607 ], [ -83.354724, 14.99741 ], [ -83.36759, 15.010261 ], [ -83.387664, 15.01548 ], [ -83.402385, 15.024792 ], [ -83.406659, 15.020418 ], [ -83.408522, 15.00463 ], [ -83.423424, 14.990605 ], [ -83.439953, 14.98746 ], [ -83.455191, 14.978433 ], [ -83.465514, 14.976044 ], [ -83.481885, 14.986747 ], [ -83.485537, 14.999862 ], [ -83.495752, 15.002744 ], [ -83.507375, 14.997146 ], [ -83.518036, 14.982478 ], [ -83.529635, 14.986801 ], [ -83.529014, 14.968876 ], [ -83.538245, 14.972139 ], [ -83.542511, 14.970793 ], [ -83.544279, 14.961515 ], [ -83.537358, 14.94522 ], [ -83.550483, 14.946437 ], [ -83.547087, 14.93363 ], [ -83.562407, 14.930166 ], [ -83.566155, 14.907089 ], [ -83.576562, 14.908172 ], [ -83.585787, 14.90509 ], [ -83.598944, 14.908551 ], [ -83.601466, 14.905408 ], [ -83.60096, 14.896181 ], [ -83.617479, 14.8896 ], [ -83.616204, 14.87929 ], [ -83.623311, 14.867535 ], [ -83.623885, 14.857436 ], [ -83.629278, 14.859996 ], [ -83.633706, 14.871646 ], [ -83.64927, 14.874679 ], [ -83.670839, 14.870478 ], [ -83.688355, 14.862135 ], [ -83.698564, 14.865773 ], [ -83.701844, 14.852585 ], [ -83.715727, 14.844883 ], [ -83.705288, 14.837737 ], [ -83.706788, 14.827333 ], [ -83.720402, 14.831465 ], [ -83.738653, 14.830309 ], [ -83.740391, 14.827588 ], [ -83.737287, 14.817107 ], [ -83.757786, 14.821286 ], [ -83.765518, 14.8032 ], [ -83.774033, 14.804685 ], [ -83.780721, 14.809628 ], [ -83.784464, 14.812395 ], [ -83.793741, 14.799513 ], [ -83.81659, 14.80384 ], [ -83.816197, 14.800095 ], [ -83.802068, 14.791745 ], [ -83.79958, 14.786525 ], [ -83.831975, 14.783977 ], [ -83.851379, 14.768123 ], [ -83.875304, 14.763239 ], [ -83.881774, 14.775642 ], [ -83.886518, 14.778875 ], [ -83.891043, 14.770683 ], [ -83.891518, 14.763119 ], [ -83.896213, 14.760519 ], [ -83.916842, 14.770515 ], [ -83.934865, 14.767318 ], [ -83.937077, 14.763046 ], [ -83.931716, 14.747957 ], [ -83.934222, 14.743878 ], [ -83.953526, 14.749866 ], [ -83.981593, 14.740904 ], [ -84.005205, 14.748457 ], [ -84.028671, 14.739238 ], [ -84.042901, 14.74362 ], [ -84.046566, 14.759679 ], [ -84.050126, 14.763516 ], [ -84.073989, 14.75398 ], [ -84.081338, 14.754083 ], [ -84.084934, 14.759538 ], [ -84.087434, 14.780363 ], [ -84.098771, 14.784514 ], [ -84.110002, 14.783825 ], [ -84.116521, 14.778503 ], [ -84.117496, 14.769585 ], [ -84.108067, 14.746518 ], [ -84.100521, 14.737131 ], [ -84.100994, 14.722802 ], [ -84.127793, 14.725441 ], [ -84.150753, 14.712968 ], [ -84.177263, 14.70844 ], [ -84.189722, 14.709472 ], [ -84.205186, 14.715588 ], [ -84.218992, 14.725212 ], [ -84.225043, 14.72943 ], [ -84.224202, 14.748822 ], [ -84.231028, 14.753668 ], [ -84.237983, 14.753858 ], [ -84.26038, 14.739664 ], [ -84.267051, 14.731696 ], [ -84.268367, 14.718679 ], [ -84.259992, 14.69712 ], [ -84.262047, 14.684239 ], [ -84.256469, 14.674155 ], [ -84.277737, 14.656794 ], [ -84.296617, 14.661729 ], [ -84.303744, 14.675979 ], [ -84.308995, 14.680184 ], [ -84.327431, 14.671636 ], [ -84.345794, 14.67513 ], [ -84.350307, 14.685139 ], [ -84.345242, 14.701005 ], [ -84.364072, 14.709898 ], [ -84.38355, 14.677538 ], [ -84.406255, 14.655362 ], [ -84.412917, 14.642412 ], [ -84.433146, 14.632492 ], [ -84.456675, 14.62947 ], [ -84.469007, 14.615716 ], [ -84.495761, 14.620961 ], [ -84.50105, 14.62461 ], [ -84.509256, 14.633689 ], [ -84.533989, 14.629535 ], [ -84.536924, 14.639708 ], [ -84.525912, 14.646891 ], [ -84.525655, 14.65345 ], [ -84.552307, 14.650651 ], [ -84.560042, 14.647217 ], [ -84.567238, 14.651575 ], [ -84.581486, 14.650786 ], [ -84.590258, 14.656796 ], [ -84.600915, 14.654936 ], [ -84.614871, 14.660725 ], [ -84.629038, 14.660883 ], [ -84.63928, 14.672297 ], [ -84.660357, 14.66848 ], [ -84.671568, 14.674872 ], [ -84.679343, 14.686047 ], [ -84.695332, 14.662016 ], [ -84.70387, 14.661819 ], [ -84.712498, 14.687802 ], [ -84.725212, 14.692941 ], [ -84.746592, 14.712125 ], [ -84.750182, 14.725422 ], [ -84.746498, 14.737246 ], [ -84.748429, 14.742793 ], [ -84.762335, 14.739469 ], [ -84.770015, 14.745509 ], [ -84.767367, 14.751838 ], [ -84.754725, 14.753883 ], [ -84.752681, 14.758309 ], [ -84.754633, 14.765344 ], [ -84.782665, 14.784464 ], [ -84.789254, 14.794032 ], [ -84.793031, 14.808383 ], [ -84.803464, 14.817062 ], [ -84.821372, 14.822679 ], [ -84.838856, 14.819293 ], [ -84.853113, 14.811454 ], [ -84.860572, 14.807353 ], [ -84.880466, 14.809804 ], [ -84.902485, 14.807828 ], [ -84.911797, 14.797473 ], [ -84.926276, 14.77176 ], [ -84.928722, 14.758797 ], [ -84.959567, 14.751312 ], [ -84.976076, 14.738592 ], [ -84.988992, 14.732851 ], [ -85.025723, 14.699646 ], [ -85.028658, 14.691952 ], [ -85.024842, 14.683151 ], [ -85.030413, 14.672473 ], [ -85.0439, 14.668933 ], [ -85.049936, 14.66374 ], [ -85.048635, 14.65245 ], [ -85.031603, 14.640014 ], [ -85.027295, 14.631492 ], [ -85.029708, 14.623975 ], [ -85.040558, 14.610269 ], [ -85.028241, 14.605213 ], [ -85.026711, 14.601109 ], [ -85.044971, 14.573481 ], [ -85.052333, 14.569153 ], [ -85.059182, 14.565126 ], [ -85.067925, 14.555905 ], [ -85.080076, 14.554908 ], [ -85.090708, 14.550304 ], [ -85.102302, 14.557559 ], [ -85.110985, 14.569153 ], [ -85.113836, 14.572959 ], [ -85.12487, 14.578453 ], [ -85.145607, 14.569153 ], [ -85.148683, 14.567773 ], [ -85.141775, 14.548811 ], [ -85.143256, 14.537537 ], [ -85.139296, 14.525507 ], [ -85.139179, 14.514133 ], [ -85.152982, 14.486841 ], [ -85.17709, 14.461965 ], [ -85.186952, 14.432229 ], [ -85.206832, 14.390276 ], [ -85.224042, 14.367137 ], [ -85.219612, 14.360364 ], [ -85.204392, 14.355086 ], [ -85.19936, 14.334685 ], [ -85.190666, 14.327071 ], [ -85.182004, 14.326344 ], [ -85.177009, 14.305707 ], [ -85.160028, 14.295889 ], [ -85.183896, 14.251293 ], [ -85.191115, 14.249194 ], [ -85.199105, 14.255801 ], [ -85.230783, 14.253754 ], [ -85.24636, 14.257508 ], [ -85.27269, 14.257458 ], [ -85.294284, 14.249776 ], [ -85.316562, 14.254067 ], [ -85.334406, 14.246067 ], [ -85.356397, 14.215539 ], [ -85.365822, 14.215236 ], [ -85.372725, 14.223426 ], [ -85.379636, 14.220537 ], [ -85.375482, 14.207505 ], [ -85.379912, 14.188146 ], [ -85.379204, 14.178193 ], [ -85.398212, 14.156943 ], [ -85.397207, 14.139375 ], [ -85.399595, 14.134349 ], [ -85.407001, 14.124584 ], [ -85.423736, 14.114555 ], [ -85.429431, 14.10744 ], [ -85.441937, 14.105583 ], [ -85.454054, 14.111521 ], [ -85.466113, 14.101408 ], [ -85.470458, 14.093543 ], [ -85.477698, 14.091238 ], [ -85.481568, 14.083381 ], [ -85.490906, 14.08989 ], [ -85.496176, 14.079825 ], [ -85.506037, 14.083641 ], [ -85.51229, 14.064959 ], [ -85.519132, 14.058988 ], [ -85.525201, 14.047427 ], [ -85.555387, 14.048783 ], [ -85.561341, 14.053804 ], [ -85.562141, 14.063247 ], [ -85.572571, 14.062521 ], [ -85.583461, 14.0468 ], [ -85.596079, 14.040709 ], [ -85.610109, 14.02509 ], [ -85.632812, 14.012926 ], [ -85.651729, 14.014084 ], [ -85.660065, 14.011679 ], [ -85.667588, 13.991997 ], [ -85.678962, 13.981937 ], [ -85.712359, 13.986746 ], [ -85.734738, 13.969601 ], [ -85.755038, 13.961504 ], [ -85.759277, 13.946315 ], [ -85.758419, 13.912075 ], [ -85.763456, 13.883039 ], [ -85.744992, 13.867515 ], [ -85.740028, 13.855339 ], [ -85.744027, 13.841538 ], [ -85.751867, 13.834824 ], [ -85.77076, 13.843445 ], [ -85.794864, 13.839821 ], [ -85.816445, 13.843628 ], [ -85.842253, 13.876129 ], [ -85.844868, 13.901845 ], [ -85.855066, 13.914486 ], [ -85.865313, 13.918987 ], [ -85.884827, 13.921006 ], [ -85.891837, 13.916198 ], [ -85.899778, 13.902874 ], [ -85.915432, 13.906545 ], [ -85.948001, 13.938797 ], [ -86.012448, 13.988041 ], [ -86.022398, 14.00937 ], [ -86.020163, 14.023646 ], [ -86.006004, 14.059341 ], [ -86.007863, 14.071154 ], [ -86.014684, 14.07551 ], [ -86.03572, 14.069293 ], [ -86.063218, 14.0687 ], [ -86.091976, 14.063278 ], [ -86.148237, 14.031805 ], [ -86.150573, 14.02111 ], [ -86.137997, 14.009461 ], [ -86.138342, 14.00163 ], [ -86.158144, 13.986931 ], [ -86.187162, 13.979515 ], [ -86.189251, 13.972604 ], [ -86.187678, 13.955212 ], [ -86.203695, 13.937369 ], [ -86.221113, 13.927531 ], [ -86.229565, 13.912289 ], [ -86.241855, 13.901389 ], [ -86.252147, 13.885104 ], [ -86.275007, 13.868457 ], [ -86.282057, 13.854653 ], [ -86.299508, 13.845218 ], [ -86.301672, 13.840151 ], [ -86.299172, 13.825992 ], [ -86.302536, 13.813186 ], [ -86.312796, 13.800381 ], [ -86.32337, 13.779604 ], [ -86.348119, 13.761568 ], [ -86.363993, 13.761652 ], [ -86.375581, 13.768584 ], [ -86.39327, 13.759761 ], [ -86.433613, 13.759701 ], [ -86.438832, 13.763734 ], [ -86.445352, 13.778597 ], [ -86.450407, 13.781714 ], [ -86.474292, 13.771651 ], [ -86.498597, 13.769693 ], [ -86.519146, 13.778858 ], [ -86.535798, 13.797656 ], [ -86.551477, 13.800449 ], [ -86.563223, 13.799174 ], [ -86.578695, 13.788576 ], [ -86.607813, 13.781939 ], [ -86.630488, 13.782711 ], [ -86.652163, 13.778727 ], [ -86.67132, 13.783054 ], [ -86.714281, 13.786137 ], [ -86.741181, 13.775188 ], [ -86.760217, 13.772154 ], [ -86.767303, 13.7535 ], [ -86.763497, 13.715437 ], [ -86.783124, 13.669365 ], [ -86.784305, 13.6597 ], [ -86.780065, 13.652387 ], [ -86.763794, 13.645488 ], [ -86.75339, 13.635773 ], [ -86.767006, 13.575419 ], [ -86.751749, 13.561481 ], [ -86.745646, 13.547685 ], [ -86.737341, 13.481236 ], [ -86.726047, 13.452441 ], [ -86.722666, 13.432962 ], [ -86.724381, 13.423351 ], [ -86.738215, 13.403694 ], [ -86.740854, 13.393793 ], [ -86.73305, 13.379734 ], [ -86.715635, 13.372574 ], [ -86.710466, 13.366544 ], [ -86.702775, 13.321788 ], [ -86.703334, 13.307857 ], [ -86.707495, 13.296449 ], [ -86.739136, 13.272677 ], [ -86.754976, 13.268257 ], [ -86.812559, 13.30231 ], [ -86.829478, 13.304536 ], [ -86.863479, 13.293703 ], [ -86.879277, 13.274151 ], [ -86.904128, 13.258137 ], [ -86.916241, 13.205807 ], [ -86.928303, 13.178673 ], [ -86.926097, 13.163192 ], [ -86.919417, 13.148056 ], [ -86.93124, 13.119232 ], [ -86.921001, 13.088438 ], [ -86.950672, 13.059944 ], [ -86.963226, 13.029462 ], [ -86.979013, 13.017119 ], [ -86.991811, 13.01633 ], [ -87.008993, 13.004984 ], [ -87.021598, 13.003744 ], [ -87.031821, 12.988278 ], [ -87.049338, 12.986292 ], [ -87.068951, 12.996746 ], [ -87.121616, 12.997898 ], [ -87.310815, 12.982723 ], [ -87.294455, 13.021615 ], [ -87.321851, 13.030005 ], [ -87.333938, 13.037528 ], [ -87.347896, 13.051914 ], [ -87.361996, 13.075834 ], [ -87.349166, 13.089248 ], [ -87.351625, 13.097721 ], [ -87.384473, 13.111635 ], [ -87.425084, 13.118608 ], [ -87.435728, 13.172682 ], [ -87.454111, 13.213183 ], [ -87.458768, 13.232363 ], [ -87.48624, 13.261432 ], [ -87.511478, 13.275218 ], [ -87.509833, 13.284709 ], [ -87.504248, 13.292861 ], [ -87.473525, 13.311639 ], [ -87.463749, 13.338982 ], [ -87.455104, 13.351418 ], [ -87.442789, 13.355148 ], [ -87.426172, 13.355339 ], [ -87.411156, 13.364606 ], [ -87.390174, 13.371243 ], [ -87.390215, 13.375336 ], [ -87.407021, 13.372387 ], [ -87.419865, 13.365382 ], [ -87.423591, 13.367187 ], [ -87.422864, 13.384977 ], [ -87.419609, 13.394258 ], [ -87.398076, 13.4032 ], [ -87.401874, 13.412508 ], [ -87.415843, 13.415729 ], [ -87.429449, 13.404224 ], [ -87.442564, 13.404959 ], [ -87.436311, 13.391741 ], [ -87.438104, 13.382754 ], [ -87.444151, 13.377662 ], [ -87.465478, 13.377238 ], [ -87.477487, 13.383554 ], [ -87.477809, 13.370015 ], [ -87.482028, 13.363033 ], [ -87.506329, 13.374095 ], [ -87.506549, 13.361767 ], [ -87.526764, 13.348771 ], [ -87.535468, 13.347954 ], [ -87.547945, 13.353439 ], [ -87.55339, 13.364669 ], [ -87.556828, 13.365304 ], [ -87.560584, 13.355785 ], [ -87.55034, 13.342018 ], [ -87.566453, 13.338444 ], [ -87.575826, 13.341864 ], [ -87.58092, 13.316578 ], [ -87.589572, 13.310204 ], [ -87.620683, 13.310694 ], [ -87.630831, 13.313922 ], [ -87.633136, 13.314655 ], [ -87.651859, 13.328048 ], [ -87.656976, 13.337705 ], [ -87.653816, 13.357615 ], [ -87.644239, 13.367619 ], [ -87.630831, 13.366905 ], [ -87.619797, 13.366317 ], [ -87.591944, 13.3816 ], [ -87.594699, 13.384251 ], [ -87.61204, 13.382737 ], [ -87.604871, 13.401281 ], [ -87.624883, 13.417164 ], [ -87.620561, 13.431853 ], [ -87.61906, 13.451564 ], [ -87.62604, 13.464847 ], [ -87.630831, 13.465371 ], [ -87.634101, 13.465729 ], [ -87.644038, 13.461962 ], [ -87.664565, 13.440319 ], [ -87.652937, 13.422601 ], [ -87.654604, 13.411894 ], [ -87.662953, 13.403363 ], [ -87.663589, 13.394246 ], [ -87.672504, 13.389453 ], [ -87.683846, 13.37266 ], [ -87.721904, 13.359674 ], [ -87.747258, 13.359038 ], [ -87.766277, 13.37477 ], [ -87.79536, 13.385144 ], [ -87.816665, 13.407165 ], [ -87.812885, 13.407329 ], [ -87.792949, 13.411549 ], [ -87.784254, 13.427132 ], [ -87.776856, 13.424398 ], [ -87.759377, 13.438973 ], [ -87.746526, 13.435868 ], [ -87.740218, 13.442706 ], [ -87.732587, 13.445533 ], [ -87.724421, 13.441727 ], [ -87.720753, 13.448736 ], [ -87.721631, 13.460011 ], [ -87.71678, 13.467216 ], [ -87.72358, 13.491942 ], [ -87.720457, 13.503801 ], [ -87.724421, 13.507472 ], [ -87.737072, 13.511825 ], [ -87.746193, 13.507454 ], [ -87.749302, 13.516336 ], [ -87.753645, 13.518376 ], [ -87.757798, 13.517096 ], [ -87.764094, 13.50886 ], [ -87.77805, 13.510643 ], [ -87.781924, 13.515188 ], [ -87.778377, 13.520331 ], [ -87.792822, 13.524342 ], [ -87.781426, 13.53481 ], [ -87.786798, 13.544859 ], [ -87.785471, 13.555783 ], [ -87.779675, 13.566843 ], [ -87.781911, 13.571123 ], [ -87.772965, 13.576 ], [ -87.773462, 13.583193 ], [ -87.767916, 13.596101 ], [ -87.754933, 13.604858 ], [ -87.756315, 13.612002 ], [ -87.755269, 13.635976 ], [ -87.752075, 13.645123 ], [ -87.756004, 13.668945 ], [ -87.753428, 13.686422 ], [ -87.743868, 13.704384 ], [ -87.733174, 13.715707 ], [ -87.732988, 13.723418 ], [ -87.726864, 13.734588 ], [ -87.735749, 13.743477 ], [ -87.736325, 13.748898 ], [ -87.727123, 13.762209 ], [ -87.718096, 13.7693 ], [ -87.708535, 13.80322 ], [ -87.7141, 13.816768 ], [ -87.728501, 13.822294 ], [ -87.73415, 13.829538 ], [ -87.744902, 13.833768 ], [ -87.746055, 13.853591 ], [ -87.75047, 13.860175 ], [ -87.782222, 13.875425 ], [ -87.786932, 13.882095 ], [ -87.79773, 13.888922 ], [ -87.799375, 13.893979 ], [ -87.795101, 13.902959 ], [ -87.79866, 13.91693 ], [ -87.803471, 13.92042 ], [ -87.812885, 13.919645 ], [ -87.830753, 13.916615 ], [ -87.841821, 13.906144 ], [ -87.845503, 13.897405 ], [ -87.854697, 13.893912 ], [ -87.871836, 13.895294 ], [ -87.882128, 13.90136 ], [ -87.890519, 13.898344 ], [ -87.899887, 13.901538 ], [ -87.907797, 13.899425 ], [ -87.913955, 13.893679 ], [ -87.919871, 13.894922 ], [ -87.920851, 13.88782 ], [ -87.923507, 13.886124 ], [ -87.93621, 13.894625 ], [ -87.942456, 13.896 ], [ -87.951424, 13.893002 ], [ -87.959914, 13.898012 ], [ -87.973616, 13.891824 ], [ -87.989694, 13.884563 ], [ -88.007092, 13.872365 ], [ -88.012983, 13.873432 ], [ -88.020056, 13.89387 ], [ -88.048133, 13.933099 ], [ -88.064025, 13.945219 ], [ -88.066149, 13.962989 ], [ -88.072193, 13.974069 ], [ -88.073765, 13.991394 ], [ -88.108291, 13.999699 ], [ -88.131077, 13.989543 ], [ -88.144299, 13.990361 ], [ -88.164189, 13.982441 ], [ -88.172282, 13.983951 ], [ -88.178707, 13.98929 ], [ -88.189594, 13.989712 ], [ -88.198777, 13.995014 ], [ -88.215178, 13.991896 ], [ -88.229376, 13.997505 ], [ -88.237171, 13.99263 ], [ -88.23462, 13.98499 ], [ -88.235571, 13.97067 ], [ -88.220812, 13.954075 ], [ -88.221272, 13.950199 ], [ -88.228003, 13.93791 ], [ -88.264149, 13.935937 ], [ -88.262998, 13.919897 ], [ -88.267776, 13.913151 ], [ -88.280228, 13.909411 ], [ -88.287736, 13.913091 ], [ -88.29215, 13.912344 ], [ -88.305083, 13.903275 ], [ -88.313505, 13.900937 ], [ -88.318852, 13.889548 ], [ -88.34449, 13.894836 ], [ -88.349752, 13.889752 ], [ -88.35222, 13.876326 ], [ -88.35851, 13.870976 ], [ -88.36834, 13.875104 ], [ -88.37713, 13.885765 ], [ -88.411531, 13.880373 ], [ -88.418726, 13.885524 ], [ -88.432069, 13.877723 ], [ -88.439118, 13.862077 ], [ -88.447427, 13.864975 ], [ -88.464781, 13.863135 ], [ -88.467848, 13.850778 ], [ -88.472704, 13.855571 ], [ -88.493334, 13.863931 ], [ -88.495085, 13.871506 ], [ -88.491891, 13.879283 ], [ -88.503886, 13.907486 ], [ -88.509912, 13.913388 ], [ -88.505845, 13.942974 ], [ -88.497497, 13.953492 ], [ -88.502348, 13.970499 ], [ -88.529698, 13.98639 ], [ -88.540343, 13.985936 ], [ -88.549547, 13.982064 ], [ -88.557855, 13.983674 ], [ -88.568306, 13.980049 ], [ -88.572188, 13.983819 ], [ -88.574654, 13.994805 ], [ -88.585436, 14.007101 ], [ -88.592463, 14.009638 ], [ -88.607468, 14.007228 ], [ -88.628676, 14.023657 ], [ -88.640625, 14.018619 ], [ -88.65368, 14.019587 ], [ -88.661707, 14.024719 ], [ -88.668643, 14.013125 ], [ -88.674148, 14.010511 ], [ -88.682322, 14.011723 ], [ -88.683994, 14.022981 ], [ -88.685777, 14.024166 ], [ -88.683994, 14.025488 ], [ -88.68262, 14.031019 ], [ -88.692814, 14.042412 ], [ -88.704241, 14.042532 ], [ -88.728593, 14.048562 ], [ -88.737033, 14.055299 ], [ -88.738267, 14.068343 ], [ -88.729666, 14.089872 ], [ -88.72923, 14.111038 ], [ -88.736881, 14.119463 ], [ -88.754394, 14.109482 ], [ -88.762827, 14.108831 ], [ -88.773819, 14.102508 ], [ -88.784543, 14.105244 ], [ -88.794018, 14.113888 ], [ -88.813427, 14.108501 ], [ -88.829748, 14.10726 ], [ -88.837078, 14.127225 ], [ -88.846719, 14.134632 ], [ -88.849683, 14.14947 ], [ -88.857791, 14.15474 ], [ -88.86047, 14.172784 ], [ -88.872749, 14.184433 ], [ -88.889784, 14.191724 ], [ -88.899256, 14.192125 ], [ -88.904829, 14.206636 ], [ -88.921213, 14.209308 ], [ -88.933618, 14.204534 ], [ -88.955854, 14.207547 ], [ -88.971579, 14.214214 ], [ -88.973862, 14.21949 ], [ -88.970505, 14.226573 ], [ -88.990878, 14.258373 ], [ -89.009194, 14.268739 ], [ -89.013357, 14.271095 ], [ -89.0252, 14.272649 ], [ -89.025491, 14.283305 ], [ -89.021669, 14.29069 ], [ -89.02214, 14.312379 ], [ -89.034464, 14.322084 ], [ -89.036088, 14.33299 ], [ -89.065904, 14.335861 ], [ -89.082593, 14.341564 ], [ -89.082824, 14.377419 ], [ -89.091788, 14.395826 ], [ -89.099338, 14.402199 ], [ -89.111977, 14.400981 ], [ -89.126914, 14.378361 ], [ -89.149244, 14.352994 ], [ -89.170154, 14.36548 ], [ -89.204429, 14.366434 ], [ -89.218149, 14.382485 ], [ -89.277131, 14.40009 ], [ -89.298812, 14.414263 ], [ -89.321443, 14.410327 ], [ -89.342014, 14.418238 ], [ -89.353185, 14.418488 ] ] ], [ [ [ -86.601966, 16.266956 ], [ -86.601966, 16.269823 ], [ -86.595444, 16.290741 ], [ -86.593714, 16.30966 ], [ -86.588128, 16.316428 ], [ -86.58351, 16.314725 ], [ -86.581604, 16.319488 ], [ -86.560868, 16.336565 ], [ -86.543859, 16.34608 ], [ -86.527797, 16.35104 ], [ -86.520222, 16.350463 ], [ -86.517425, 16.356285 ], [ -86.511574, 16.354031 ], [ -86.493849, 16.36646 ], [ -86.485228, 16.365787 ], [ -86.461017, 16.378581 ], [ -86.452137, 16.375681 ], [ -86.442363, 16.377936 ], [ -86.429309, 16.386071 ], [ -86.426386, 16.390002 ], [ -86.40761, 16.396066 ], [ -86.402554, 16.401669 ], [ -86.393913, 16.402188 ], [ -86.38895, 16.406892 ], [ -86.352556, 16.420245 ], [ -86.347199, 16.41782 ], [ -86.339843, 16.421386 ], [ -86.320558, 16.423894 ], [ -86.313246, 16.428136 ], [ -86.275832, 16.431152 ], [ -86.265042, 16.426616 ], [ -86.262376, 16.420685 ], [ -86.262376, 16.417471 ], [ -86.268559, 16.41895 ], [ -86.275132, 16.411043 ], [ -86.296009, 16.414401 ], [ -86.301406, 16.40653 ], [ -86.317202, 16.403384 ], [ -86.320618, 16.3954 ], [ -86.324375, 16.393409 ], [ -86.335051, 16.393906 ], [ -86.338362, 16.403917 ], [ -86.340059, 16.403963 ], [ -86.344622, 16.392467 ], [ -86.361599, 16.387791 ], [ -86.365507, 16.39313 ], [ -86.371915, 16.384323 ], [ -86.374842, 16.387924 ], [ -86.376448, 16.387448 ], [ -86.37682, 16.381758 ], [ -86.381358, 16.380191 ], [ -86.387788, 16.383157 ], [ -86.386422, 16.375549 ], [ -86.391326, 16.368169 ], [ -86.399118, 16.369745 ], [ -86.406232, 16.366193 ], [ -86.411816, 16.368077 ], [ -86.414798, 16.362815 ], [ -86.417971, 16.366473 ], [ -86.419339, 16.36593 ], [ -86.420491, 16.360749 ], [ -86.429309, 16.358491 ], [ -86.434267, 16.361135 ], [ -86.43726, 16.357965 ], [ -86.45179, 16.353779 ], [ -86.455892, 16.349331 ], [ -86.461994, 16.349723 ], [ -86.475549, 16.338377 ], [ -86.485007, 16.335503 ], [ -86.483057, 16.330566 ], [ -86.484881, 16.326081 ], [ -86.493377, 16.321346 ], [ -86.496155, 16.322182 ], [ -86.498651, 16.329127 ], [ -86.507937, 16.321071 ], [ -86.529885, 16.312946 ], [ -86.549419, 16.313841 ], [ -86.582494, 16.280863 ], [ -86.601966, 16.266956 ] ] ], [ [ [ -85.950929, 16.403195 ], [ -85.946233, 16.416192 ], [ -85.937129, 16.430655 ], [ -85.938014, 16.435833 ], [ -85.935913, 16.440894 ], [ -85.929511, 16.453955 ], [ -85.915894, 16.453135 ], [ -85.913215, 16.46871 ], [ -85.910573, 16.472322 ], [ -85.904568, 16.480528 ], [ -85.897188, 16.485546 ], [ -85.888859, 16.499213 ], [ -85.88072, 16.503317 ], [ -85.865546, 16.499599 ], [ -85.865664, 16.507746 ], [ -85.859981, 16.514629 ], [ -85.844238, 16.513811 ], [ -85.84203, 16.509407 ], [ -85.846877, 16.506716 ], [ -85.845713, 16.504926 ], [ -85.832363, 16.502942 ], [ -85.825231, 16.507092 ], [ -85.817234, 16.498404 ], [ -85.819182, 16.491673 ], [ -85.83067, 16.485316 ], [ -85.850236, 16.483576 ], [ -85.848728, 16.472322 ], [ -85.848184, 16.468259 ], [ -85.859792, 16.453505 ], [ -85.863921, 16.452812 ], [ -85.872748, 16.45713 ], [ -85.888931, 16.44911 ], [ -85.899903, 16.43647 ], [ -85.927787, 16.418923 ], [ -85.935913, 16.410099 ], [ -85.943599, 16.404671 ], [ -85.950929, 16.403195 ] ] ], [ [ [ -86.990108, 16.088007 ], [ -86.989411, 16.09236 ], [ -86.979184, 16.101216 ], [ -86.973215, 16.100036 ], [ -86.968349, 16.105165 ], [ -86.964949, 16.104713 ], [ -86.956974, 16.109102 ], [ -86.95386, 16.105096 ], [ -86.949876, 16.105216 ], [ -86.943636, 16.107592 ], [ -86.941475, 16.114297 ], [ -86.937204, 16.120462 ], [ -86.934018, 16.1215 ], [ -86.928093, 16.121458 ], [ -86.922625, 16.1169 ], [ -86.910915, 16.114841 ], [ -86.906892, 16.117452 ], [ -86.907337, 16.119426 ], [ -86.894602, 16.123355 ], [ -86.885648, 16.123397 ], [ -86.879447, 16.122024 ], [ -86.872875, 16.117494 ], [ -86.87349, 16.109145 ], [ -86.880908, 16.103578 ], [ -86.883132, 16.096448 ], [ -86.881215, 16.094848 ], [ -86.882841, 16.08927 ], [ -86.884824, 16.089458 ], [ -86.888523, 16.08636 ], [ -86.892803, 16.087677 ], [ -86.8922, 16.092439 ], [ -86.895233, 16.096261 ], [ -86.900679, 16.097339 ], [ -86.905938, 16.09449 ], [ -86.908416, 16.091607 ], [ -86.910948, 16.09362 ], [ -86.91358, 16.09151 ], [ -86.920609, 16.089446 ], [ -86.920593, 16.086435 ], [ -86.918126, 16.083991 ], [ -86.927485, 16.080342 ], [ -86.930151, 16.080235 ], [ -86.93657, 16.076673 ], [ -86.941975, 16.076798 ], [ -86.952139, 16.071615 ], [ -86.955577, 16.068859 ], [ -86.966861, 16.069322 ], [ -86.970222, 16.075592 ], [ -86.978263, 16.077515 ], [ -86.990066, 16.08133 ], [ -86.989127, 16.083784 ], [ -86.990108, 16.088007 ] ] ], [ [ [ -87.663435, 13.261258 ], [ -87.662724, 13.275851 ], [ -87.656741, 13.293035 ], [ -87.648052, 13.294063 ], [ -87.641874, 13.298104 ], [ -87.634472, 13.293036 ], [ -87.630831, 13.292942 ], [ -87.617413, 13.287995 ], [ -87.613341, 13.271989 ], [ -87.617599, 13.257173 ], [ -87.630831, 13.250952 ], [ -87.634472, 13.249417 ], [ -87.658413, 13.251609 ], [ -87.663435, 13.261258 ] ] ], [ [ [ -86.16885, 16.429494 ], [ -86.167088, 16.433895 ], [ -86.160884, 16.438025 ], [ -86.160068, 16.440351 ], [ -86.152797, 16.443443 ], [ -86.146341, 16.443946 ], [ -86.143642, 16.446384 ], [ -86.137468, 16.443765 ], [ -86.129401, 16.445165 ], [ -86.122694, 16.444873 ], [ -86.124849, 16.439948 ], [ -86.12917, 16.436343 ], [ -86.13348, 16.434671 ], [ -86.142111, 16.428608 ], [ -86.14478, 16.432767 ], [ -86.148265, 16.43447 ], [ -86.156604, 16.433341 ], [ -86.166312, 16.427017 ], [ -86.16885, 16.429494 ] ] ], [ [ [ -86.231544, 16.419147 ], [ -86.231251, 16.420209 ], [ -86.224213, 16.420368 ], [ -86.223812, 16.423768 ], [ -86.219056, 16.426436 ], [ -86.214762, 16.426228 ], [ -86.197766, 16.429646 ], [ -86.193317, 16.427398 ], [ -86.193386, 16.422919 ], [ -86.200069, 16.424421 ], [ -86.203957, 16.42398 ], [ -86.208765, 16.418442 ], [ -86.212327, 16.419156 ], [ -86.213713, 16.416039 ], [ -86.218185, 16.412395 ], [ -86.224005, 16.409295 ], [ -86.227127, 16.409141 ], [ -86.2264, 16.411716 ], [ -86.228646, 16.417514 ], [ -86.231544, 16.419147 ] ] ], [ [ [ -83.945451, 17.403577 ], [ -83.942844, 17.410631 ], [ -83.938801, 17.411733 ], [ -83.931746, 17.411319 ], [ -83.93019, 17.415503 ], [ -83.922084, 17.416665 ], [ -83.920912, 17.41148 ], [ -83.914373, 17.408974 ], [ -83.914615, 17.407013 ], [ -83.921124, 17.407438 ], [ -83.928138, 17.405649 ], [ -83.929725, 17.403152 ], [ -83.932191, 17.405325 ], [ -83.934991, 17.403203 ], [ -83.941338, 17.400888 ], [ -83.945451, 17.403577 ] ] ], [ [ [ -87.685213, 13.313858 ], [ -87.682629, 13.315531 ], [ -87.680473, 13.319358 ], [ -87.680715, 13.322556 ], [ -87.674932, 13.330707 ], [ -87.667809, 13.322556 ], [ -87.667901, 13.31708 ], [ -87.672192, 13.315677 ], [ -87.677301, 13.312489 ], [ -87.675571, 13.307771 ], [ -87.679285, 13.304229 ], [ -87.681407, 13.305979 ], [ -87.681188, 13.309941 ], [ -87.685213, 13.313858 ] ] ], [ [ [ -86.48602, 15.974301 ], [ -86.485879, 15.975856 ], [ -86.477538, 15.977926 ], [ -86.476992, 15.980006 ], [ -86.469731, 15.978683 ], [ -86.46853, 15.9753 ], [ -86.47164, 15.971675 ], [ -86.472458, 15.96607 ], [ -86.477109, 15.964627 ], [ -86.479719, 15.967252 ], [ -86.479971, 15.974028 ], [ -86.48602, 15.974301 ] ] ], [ [ [ -83.909814, 17.408522 ], [ -83.900692, 17.413823 ], [ -83.89937, 17.416185 ], [ -83.890971, 17.415529 ], [ -83.889578, 17.412945 ], [ -83.892788, 17.410169 ], [ -83.901671, 17.407575 ], [ -83.907082, 17.40711 ], [ -83.909814, 17.408522 ] ] ], [ [ [ -83.136323, 14.997556 ], [ -83.130498, 15.0013 ], [ -83.128205, 15.001555 ], [ -83.123172, 14.99538 ], [ -83.12721, 14.991165 ], [ -83.136323, 14.997556 ] ] ], [ [ [ -87.719893, 13.333858 ], [ -87.715086, 13.336336 ], [ -87.714214, 13.334526 ], [ -87.710033, 13.335678 ], [ -87.705633, 13.328891 ], [ -87.711076, 13.329507 ], [ -87.715421, 13.327823 ], [ -87.717376, 13.328953 ], [ -87.719893, 13.333858 ] ] ], [ [ [ -86.507944, 15.955226 ], [ -86.50738, 15.958191 ], [ -86.502651, 15.957637 ], [ -86.49929, 15.96174 ], [ -86.497087, 15.959506 ], [ -86.497943, 15.951708 ], [ -86.501283, 15.951311 ], [ -86.503778, 15.954412 ], [ -86.507944, 15.955226 ] ] ], [ [ [ -87.607372, 15.835434 ], [ -87.606828, 15.837814 ], [ -87.600085, 15.83539 ], [ -87.599463, 15.838358 ], [ -87.594827, 15.840225 ], [ -87.593718, 15.837055 ], [ -87.596991, 15.835455 ], [ -87.599545, 15.831781 ], [ -87.602982, 15.830418 ], [ -87.603402, 15.832798 ], [ -87.607372, 15.835434 ] ] ], [ [ [ -86.191841, 16.430413 ], [ -86.188027, 16.434582 ], [ -86.184781, 16.435089 ], [ -86.184273, 16.426203 ], [ -86.191663, 16.427034 ], [ -86.191841, 16.430413 ] ] ], [ [ [ -83.666147, 15.324293 ], [ -83.661186, 15.325409 ], [ -83.657322, 15.323648 ], [ -83.66013, 15.320341 ], [ -83.660355, 15.317562 ], [ -83.665276, 15.316496 ], [ -83.666147, 15.324293 ] ] ], [ [ [ -86.207563, 16.413634 ], [ -86.207507, 16.416647 ], [ -86.202809, 16.4164 ], [ -86.201096, 16.414262 ], [ -86.203096, 16.411629 ], [ -86.207563, 16.413634 ] ] ], [ [ [ -87.432288, 13.104943 ], [ -87.428848, 13.10635 ], [ -87.427395, 13.102655 ], [ -87.431106, 13.099374 ], [ -87.432288, 13.104943 ] ] ], [ [ [ -87.706991, 13.313101 ], [ -87.706256, 13.316 ], [ -87.703403, 13.317394 ], [ -87.701795, 13.314792 ], [ -87.705393, 13.310584 ], [ -87.706991, 13.313101 ] ] ], [ [ [ -87.724848, 13.325263 ], [ -87.721541, 13.328481 ], [ -87.717919, 13.325706 ], [ -87.722284, 13.322767 ], [ -87.724848, 13.325263 ] ] ], [ [ [ -87.658613, 13.442069 ], [ -87.651824, 13.443216 ], [ -87.651331, 13.439395 ], [ -87.656859, 13.439675 ], [ -87.658613, 13.442069 ] ] ], [ [ [ -87.572859, 15.827944 ], [ -87.570637, 15.829543 ], [ -87.566369, 15.824897 ], [ -87.570113, 15.823316 ], [ -87.572859, 15.827944 ] ] ], [ [ [ -87.58019, 15.834627 ], [ -87.576627, 15.834774 ], [ -87.573586, 15.83168 ], [ -87.574499, 15.830147 ], [ -87.579022, 15.831154 ], [ -87.58019, 15.834627 ] ] ], [ [ [ -87.589548, 15.839645 ], [ -87.589389, 15.843771 ], [ -87.586025, 15.843964 ], [ -87.584731, 15.840385 ], [ -87.586893, 15.838647 ], [ -87.589548, 15.839645 ] ] ], [ [ [ -83.326338, 16.026372 ], [ -83.326338, 16.02848 ], [ -83.32196, 16.02848 ], [ -83.322932, 16.03075 ], [ -83.319772, 16.030588 ], [ -83.319772, 16.026453 ], [ -83.326338, 16.026372 ] ] ], [ [ [ -85.885372, 16.405889 ], [ -85.884885, 16.408859 ], [ -85.881441, 16.410314 ], [ -85.88044, 16.406699 ], [ -85.882708, 16.404188 ], [ -85.885372, 16.405889 ] ] ], [ [ [ -86.238156, 16.425482 ], [ -86.23422, 16.427471 ], [ -86.233349, 16.422142 ], [ -86.237069, 16.421399 ], [ -86.238156, 16.425482 ] ] ], [ [ [ -85.890646, 16.443581 ], [ -85.88537, 16.443737 ], [ -85.884608, 16.439869 ], [ -85.886605, 16.438088 ], [ -85.890646, 16.443581 ] ] ], [ [ [ -85.83484, 16.457625 ], [ -85.828867, 16.460251 ], [ -85.827975, 16.456716 ], [ -85.832475, 16.455093 ], [ -85.83484, 16.457625 ] ] ] ] } }
]
}
