{
"type": "FeatureCollection",
"name": "Hong Kong",
"crs": { "type": "name", "properties": { "name": "urn:ogc:def:crs:OGC:1.3:CRS84" } },
"features": [
{ "type": "Feature", "properties": { "id": "HK", "CNTR_ID": "HK", "CNTR_NAME": "香港", "NAME_ENGL": "Hong Kong", "ISO3_CODE": "HKG", "FID": "HK" }, "geometry": { "type": "MultiPolygon", "coordinates": [ [ [ [ 114.234844, 22.55576 ], [ 114.225098, 22.541197 ], [ 114.212294, 22.531361 ], [ 114.211005, 22.527314 ], [ 114.225669, 22.527097 ], [ 114.238774, 22.540081 ], [ 114.252047, 22.541682 ], [ 114.263171, 22.530812 ], [ 114.262298, 22.520842 ], [ 114.27471, 22.522298 ], [ 114.280016, 22.5187 ], [ 114.278305, 22.51259 ], [ 114.271877, 22.508155 ], [ 114.273819, 22.505236 ], [ 114.294562, 22.498066 ], [ 114.325082, 22.497632 ], [ 114.317709, 22.489011 ], [ 114.294562, 22.473043 ], [ 114.273485, 22.465822 ], [ 114.261199, 22.457467 ], [ 114.257635, 22.46005 ], [ 114.257894, 22.463894 ], [ 114.279029, 22.475595 ], [ 114.277037, 22.483572 ], [ 114.257018, 22.480066 ], [ 114.241783, 22.481986 ], [ 114.230493, 22.466229 ], [ 114.207561, 22.461242 ], [ 114.207559, 22.456945 ], [ 114.213789, 22.450189 ], [ 114.211768, 22.444544 ], [ 114.200361, 22.451111 ], [ 114.186592, 22.454659 ], [ 114.177433, 22.452125 ], [ 114.163695, 22.448324 ], [ 114.163871, 22.445477 ], [ 114.170023, 22.441363 ], [ 114.177433, 22.438048 ], [ 114.192035, 22.431516 ], [ 114.208183, 22.416373 ], [ 114.20709, 22.400088 ], [ 114.191623, 22.380514 ], [ 114.190684, 22.375657 ], [ 114.205917, 22.382844 ], [ 114.238593, 22.430163 ], [ 114.249279, 22.425839 ], [ 114.264417, 22.425355 ], [ 114.267868, 22.413236 ], [ 114.271082, 22.410549 ], [ 114.275164, 22.411519 ], [ 114.283103, 22.421965 ], [ 114.277659, 22.442575 ], [ 114.289273, 22.449901 ], [ 114.294562, 22.451143 ], [ 114.298703, 22.452115 ], [ 114.303277, 22.461802 ], [ 114.317319, 22.473193 ], [ 114.329124, 22.464473 ], [ 114.337938, 22.443364 ], [ 114.336849, 22.430124 ], [ 114.34336, 22.426707 ], [ 114.348336, 22.419727 ], [ 114.352792, 22.42225 ], [ 114.352698, 22.440205 ], [ 114.360973, 22.451413 ], [ 114.364633, 22.448559 ], [ 114.369701, 22.436045 ], [ 114.388531, 22.435463 ], [ 114.395374, 22.432743 ], [ 114.395505, 22.42992 ], [ 114.395874, 22.421958 ], [ 114.401145, 22.411707 ], [ 114.399269, 22.409328 ], [ 114.395505, 22.409951 ], [ 114.385152, 22.411666 ], [ 114.373047, 22.397772 ], [ 114.38562, 22.380049 ], [ 114.386279, 22.364267 ], [ 114.378425, 22.367502 ], [ 114.372021, 22.360813 ], [ 114.341572, 22.376674 ], [ 114.331565, 22.372173 ], [ 114.31046, 22.381163 ], [ 114.298437, 22.380309 ], [ 114.294562, 22.381781 ], [ 114.281121, 22.386888 ], [ 114.275959, 22.384106 ], [ 114.269971, 22.370351 ], [ 114.273478, 22.347653 ], [ 114.265117, 22.350832 ], [ 114.261966, 22.358197 ], [ 114.251085, 22.352567 ], [ 114.2643, 22.342969 ], [ 114.271664, 22.318854 ], [ 114.283741, 22.315511 ], [ 114.29128, 22.305444 ], [ 114.294562, 22.305011 ], [ 114.301928, 22.30404 ], [ 114.309634, 22.296835 ], [ 114.308174, 22.289697 ], [ 114.304247, 22.285739 ], [ 114.294562, 22.282706 ], [ 114.288744, 22.280883 ], [ 114.289013, 22.274195 ], [ 114.294562, 22.272537 ], [ 114.297135, 22.271963 ], [ 114.299671, 22.266797 ], [ 114.300254, 22.262686 ], [ 114.29665, 22.257387 ], [ 114.294562, 22.258092 ], [ 114.278632, 22.263465 ], [ 114.273746, 22.271346 ], [ 114.265565, 22.269958 ], [ 114.266169, 22.274195 ], [ 114.265803, 22.279837 ], [ 114.256259, 22.292946 ], [ 114.25122, 22.292519 ], [ 114.242687, 22.284354 ], [ 114.237206, 22.284264 ], [ 114.206628, 22.312969 ], [ 114.203511, 22.308246 ], [ 114.191657, 22.31004 ], [ 114.186268, 22.299072 ], [ 114.177433, 22.294581 ], [ 114.169425, 22.29051 ], [ 114.158471, 22.296264 ], [ 114.156237, 22.315734 ], [ 114.149376, 22.323583 ], [ 114.1395, 22.324722 ], [ 114.132628, 22.322221 ], [ 114.132599, 22.318349 ], [ 114.138131, 22.314378 ], [ 114.136621, 22.312354 ], [ 114.121682, 22.314338 ], [ 114.115171, 22.323437 ], [ 114.122015, 22.346162 ], [ 114.112986, 22.345898 ], [ 114.109113, 22.357607 ], [ 114.104381, 22.361979 ], [ 114.021847, 22.350175 ], [ 113.99995, 22.358631 ], [ 113.9791, 22.374015 ], [ 113.970474, 22.384853 ], [ 113.965017, 22.383003 ], [ 113.958041, 22.372435 ], [ 113.943003, 22.363728 ], [ 113.92645, 22.367579 ], [ 113.91966, 22.372757 ], [ 113.918943, 22.383633 ], [ 113.913648, 22.39533 ], [ 113.90341, 22.404316 ], [ 113.91691, 22.414621 ], [ 113.933162, 22.418971 ], [ 113.952911, 22.43996 ], [ 113.974006, 22.452406 ], [ 113.994317, 22.476753 ], [ 114.00193, 22.473422 ], [ 114.007299, 22.474459 ], [ 114.018223, 22.465784 ], [ 114.023664, 22.446938 ], [ 114.035978, 22.44909 ], [ 114.027995, 22.456519 ], [ 114.025033, 22.46522 ], [ 114.028077, 22.472707 ], [ 114.028282, 22.486137 ], [ 114.043948, 22.498629 ], [ 114.037615, 22.5037 ], [ 114.05554, 22.5045 ], [ 114.062993, 22.514084 ], [ 114.064248, 22.515698 ], [ 114.07122, 22.51744 ], [ 114.07918, 22.51595 ], [ 114.08167, 22.52092 ], [ 114.08341, 22.52988 ], [ 114.08789, 22.53312 ], [ 114.095648, 22.532081 ], [ 114.09909, 22.53162 ], [ 114.12274, 22.5473 ], [ 114.13642, 22.54979 ], [ 114.14862, 22.56024 ], [ 114.16106, 22.56447 ], [ 114.177433, 22.563536 ], [ 114.179696, 22.563407 ], [ 114.18719, 22.56298 ], [ 114.21158, 22.55751 ], [ 114.224519, 22.556329 ], [ 114.23075, 22.55576 ], [ 114.234844, 22.55576 ] ] ], [ [ [ 113.963201, 22.234614 ], [ 113.953348, 22.231997 ], [ 113.943989, 22.231185 ], [ 113.934254, 22.227106 ], [ 113.920777, 22.221457 ], [ 113.919378, 22.216495 ], [ 113.927241, 22.21471 ], [ 113.926459, 22.210297 ], [ 113.922648, 22.208178 ], [ 113.904524, 22.209207 ], [ 113.892202, 22.221274 ], [ 113.884735, 22.217658 ], [ 113.867261, 22.203839 ], [ 113.856919, 22.202117 ], [ 113.848078, 22.197094 ], [ 113.842541, 22.206647 ], [ 113.838773, 22.224532 ], [ 113.842767, 22.231269 ], [ 113.850275, 22.232517 ], [ 113.850752, 22.234614 ], [ 113.852244, 22.241175 ], [ 113.858549, 22.246409 ], [ 113.855656, 22.25674 ], [ 113.882415, 22.270245 ], [ 113.884735, 22.276526 ], [ 113.902834, 22.289034 ], [ 113.917334, 22.290164 ], [ 113.926831, 22.28257 ], [ 113.931344, 22.287525 ], [ 113.934254, 22.287249 ], [ 113.942638, 22.286453 ], [ 113.953348, 22.292783 ], [ 113.964636, 22.296219 ], [ 113.976978, 22.294935 ], [ 113.981288, 22.302726 ], [ 113.98378, 22.303606 ], [ 113.990678, 22.306043 ], [ 113.996948, 22.315183 ], [ 114.006642, 22.319781 ], [ 114.015873, 22.329718 ], [ 114.01867, 22.329648 ], [ 114.019817, 22.323716 ], [ 114.034582, 22.333246 ], [ 114.039779, 22.342636 ], [ 114.052787, 22.332897 ], [ 114.050211, 22.312394 ], [ 114.03947, 22.311563 ], [ 114.031449, 22.317683 ], [ 114.030834, 22.305185 ], [ 114.019624, 22.307514 ], [ 114.012794, 22.302128 ], [ 114.009904, 22.293986 ], [ 114.018358, 22.294508 ], [ 114.020911, 22.291633 ], [ 114.013251, 22.282062 ], [ 114.016307, 22.274195 ], [ 114.01831, 22.269036 ], [ 114.016872, 22.262989 ], [ 114.007005, 22.261758 ], [ 113.99544, 22.266324 ], [ 113.989635, 22.261907 ], [ 114.004275, 22.248284 ], [ 114.001807, 22.243505 ], [ 113.997184, 22.243422 ], [ 113.994979, 22.239854 ], [ 113.997291, 22.234614 ], [ 113.999766, 22.229002 ], [ 114.01115, 22.223827 ], [ 114.004151, 22.21402 ], [ 114.000461, 22.212319 ], [ 113.994313, 22.215998 ], [ 113.98657, 22.212529 ], [ 113.98378, 22.214018 ], [ 113.982213, 22.214854 ], [ 113.975269, 22.228635 ], [ 113.974942, 22.234614 ], [ 113.974774, 22.237688 ], [ 113.963201, 22.234614 ] ] ], [ [ [ 114.177433, 22.279298 ], [ 114.179344, 22.279381 ], [ 114.191742, 22.288039 ], [ 114.201318, 22.290668 ], [ 114.222613, 22.275829 ], [ 114.232939, 22.278488 ], [ 114.235793, 22.277062 ], [ 114.234418, 22.274195 ], [ 114.237236, 22.270346 ], [ 114.235718, 22.262395 ], [ 114.25238, 22.254426 ], [ 114.251932, 22.244794 ], [ 114.245044, 22.240105 ], [ 114.252685, 22.228514 ], [ 114.247267, 22.222466 ], [ 114.254979, 22.206328 ], [ 114.250088, 22.20379 ], [ 114.238437, 22.20516 ], [ 114.231393, 22.21778 ], [ 114.228056, 22.240778 ], [ 114.223856, 22.24649 ], [ 114.221403, 22.238922 ], [ 114.224552, 22.228365 ], [ 114.210375, 22.219236 ], [ 114.216717, 22.210583 ], [ 114.215795, 22.203547 ], [ 114.218513, 22.197877 ], [ 114.216315, 22.194109 ], [ 114.21074, 22.19299 ], [ 114.206204, 22.195839 ], [ 114.206976, 22.213172 ], [ 114.20301, 22.214661 ], [ 114.199888, 22.209352 ], [ 114.193709, 22.208598 ], [ 114.195171, 22.213425 ], [ 114.190642, 22.220241 ], [ 114.193684, 22.224095 ], [ 114.191246, 22.231564 ], [ 114.177433, 22.239974 ], [ 114.172199, 22.234614 ], [ 114.166111, 22.228369 ], [ 114.162853, 22.234614 ], [ 114.157955, 22.244002 ], [ 114.144976, 22.2424 ], [ 114.133794, 22.245219 ], [ 114.116006, 22.267386 ], [ 114.116142, 22.274195 ], [ 114.132867, 22.282779 ], [ 114.14274, 22.284798 ], [ 114.169261, 22.278947 ], [ 114.177433, 22.279298 ] ] ], [ [ [ 113.89732, 22.298986 ], [ 113.900226, 22.30441 ], [ 113.911873, 22.309105 ], [ 113.912245, 22.317032 ], [ 113.915561, 22.321092 ], [ 113.934254, 22.32511 ], [ 113.947481, 22.327953 ], [ 113.953348, 22.324567 ], [ 113.954788, 22.321902 ], [ 113.954788, 22.320124 ], [ 113.967279, 22.324125 ], [ 113.968719, 22.321902 ], [ 113.958635, 22.313012 ], [ 113.95671, 22.307233 ], [ 113.956232, 22.304123 ], [ 113.953348, 22.302597 ], [ 113.949621, 22.301117 ], [ 113.946946, 22.293821 ], [ 113.937793, 22.290328 ], [ 113.934254, 22.291097 ], [ 113.912976, 22.295723 ], [ 113.900695, 22.294957 ], [ 113.89732, 22.298986 ] ] ], [ [ [ 114.100473, 22.213997 ], [ 114.101108, 22.217007 ], [ 114.105894, 22.221066 ], [ 114.103352, 22.223054 ], [ 114.104725, 22.225855 ], [ 114.102664, 22.228322 ], [ 114.104047, 22.230893 ], [ 114.110228, 22.23086 ], [ 114.118296, 22.232957 ], [ 114.119161, 22.222867 ], [ 114.123891, 22.214973 ], [ 114.127609, 22.214629 ], [ 114.12964, 22.219752 ], [ 114.131596, 22.220273 ], [ 114.132739, 22.215713 ], [ 114.131265, 22.209227 ], [ 114.124923, 22.20696 ], [ 114.122673, 22.201139 ], [ 114.12494, 22.199832 ], [ 114.129257, 22.203187 ], [ 114.135183, 22.203144 ], [ 114.144136, 22.208025 ], [ 114.150052, 22.208215 ], [ 114.157111, 22.204068 ], [ 114.154258, 22.201218 ], [ 114.146121, 22.200962 ], [ 114.142518, 22.198319 ], [ 114.136893, 22.196763 ], [ 114.135776, 22.193739 ], [ 114.145852, 22.181412 ], [ 114.143228, 22.178802 ], [ 114.132366, 22.189296 ], [ 114.130626, 22.185989 ], [ 114.133303, 22.180325 ], [ 114.132405, 22.177999 ], [ 114.127374, 22.180597 ], [ 114.123092, 22.176322 ], [ 114.120321, 22.177845 ], [ 114.112885, 22.178526 ], [ 114.108833, 22.181389 ], [ 114.114795, 22.187093 ], [ 114.116862, 22.197736 ], [ 114.115093, 22.212395 ], [ 114.112495, 22.215988 ], [ 114.109275, 22.216578 ], [ 114.100473, 22.213997 ] ] ], [ [ [ 114.328558, 22.357593 ], [ 114.328935, 22.361051 ], [ 114.332124, 22.361608 ], [ 114.334969, 22.364911 ], [ 114.339416, 22.364587 ], [ 114.344016, 22.367485 ], [ 114.348472, 22.367161 ], [ 114.354883, 22.360465 ], [ 114.370668, 22.354051 ], [ 114.37497, 22.350967 ], [ 114.365701, 22.347696 ], [ 114.36167, 22.342981 ], [ 114.355911, 22.345332 ], [ 114.354729, 22.343688 ], [ 114.356887, 22.338469 ], [ 114.353652, 22.332399 ], [ 114.350983, 22.330938 ], [ 114.349448, 22.3325 ], [ 114.35006, 22.336193 ], [ 114.346511, 22.338613 ], [ 114.348822, 22.343279 ], [ 114.34749, 22.345571 ], [ 114.345139, 22.349598 ], [ 114.342582, 22.345384 ], [ 114.336226, 22.343354 ], [ 114.333656, 22.346032 ], [ 114.334632, 22.353416 ], [ 114.328558, 22.357593 ] ] ], [ [ [ 114.295974, 22.37041 ], [ 114.297573, 22.374146 ], [ 114.301748, 22.374963 ], [ 114.304075, 22.372271 ], [ 114.316157, 22.372298 ], [ 114.324615, 22.366643 ], [ 114.323959, 22.365143 ], [ 114.316978, 22.366068 ], [ 114.32598, 22.348049 ], [ 114.322947, 22.340178 ], [ 114.307732, 22.339937 ], [ 114.303392, 22.342769 ], [ 114.2997, 22.349108 ], [ 114.302184, 22.35563 ], [ 114.295974, 22.37041 ] ] ], [ [ [ 114.074721, 22.350803 ], [ 114.081305, 22.352849 ], [ 114.08824, 22.352384 ], [ 114.096, 22.356307 ], [ 114.102728, 22.354683 ], [ 114.104529, 22.352672 ], [ 114.102211, 22.348462 ], [ 114.106909, 22.341491 ], [ 114.100937, 22.322458 ], [ 114.094756, 22.322949 ], [ 114.089186, 22.320016 ], [ 114.086852, 22.323159 ], [ 114.089576, 22.329449 ], [ 114.086036, 22.331636 ], [ 114.087867, 22.33583 ], [ 114.081367, 22.337919 ], [ 114.079812, 22.346599 ], [ 114.074721, 22.350803 ] ] ], [ [ [ 114.246095, 22.164574 ], [ 114.246484, 22.167344 ], [ 114.253517, 22.170549 ], [ 114.261621, 22.178614 ], [ 114.270317, 22.169921 ], [ 114.268739, 22.165736 ], [ 114.27143, 22.159384 ], [ 114.264794, 22.158949 ], [ 114.259535, 22.160858 ], [ 114.254356, 22.153802 ], [ 114.251183, 22.153242 ], [ 114.247781, 22.158651 ], [ 114.249398, 22.161689 ], [ 114.246095, 22.164574 ] ] ], [ [ [ 114.284721, 22.530547 ], [ 114.287841, 22.548669 ], [ 114.294565, 22.547414 ], [ 114.31346, 22.546421 ], [ 114.314991, 22.54509 ], [ 114.312126, 22.54248 ], [ 114.299138, 22.539556 ], [ 114.295861, 22.541293 ], [ 114.294565, 22.538462 ], [ 114.300724, 22.529738 ], [ 114.298552, 22.528296 ], [ 114.294565, 22.53032 ], [ 114.284721, 22.530547 ] ] ], [ [ [ 114.27736, 22.24229 ], [ 114.278817, 22.249686 ], [ 114.287117, 22.25224 ], [ 114.29158, 22.25169 ], [ 114.294562, 22.248781 ], [ 114.297974, 22.245453 ], [ 114.294562, 22.243496 ], [ 114.292893, 22.242539 ], [ 114.293741, 22.239579 ], [ 114.291603, 22.237212 ], [ 114.28862, 22.237811 ], [ 114.285293, 22.234491 ], [ 114.27736, 22.24229 ] ] ], [ [ [ 114.013045, 22.196936 ], [ 114.015586, 22.201382 ], [ 114.020507, 22.202004 ], [ 114.021682, 22.203877 ], [ 114.018968, 22.209997 ], [ 114.02072, 22.216257 ], [ 114.02829, 22.218339 ], [ 114.029822, 22.216781 ], [ 114.026139, 22.209767 ], [ 114.026734, 22.20703 ], [ 114.033699, 22.198982 ], [ 114.032258, 22.197787 ], [ 114.02385, 22.198432 ], [ 114.020553, 22.194192 ], [ 114.015137, 22.193786 ], [ 114.013045, 22.196936 ] ] ], [ [ [ 114.291483, 22.508231 ], [ 114.294562, 22.508893 ], [ 114.303783, 22.510873 ], [ 114.307741, 22.5175 ], [ 114.31767, 22.51206 ], [ 114.307741, 22.504198 ], [ 114.296445, 22.50183 ], [ 114.294562, 22.504259 ], [ 114.291483, 22.508231 ] ] ], [ [ [ 114.350014, 22.477939 ], [ 114.357322, 22.481148 ], [ 114.360282, 22.481007 ], [ 114.363091, 22.478335 ], [ 114.362214, 22.475552 ], [ 114.36538, 22.469446 ], [ 114.362839, 22.464545 ], [ 114.356988, 22.462302 ], [ 114.356582, 22.466653 ], [ 114.353508, 22.469777 ], [ 114.353364, 22.474138 ], [ 114.350014, 22.477939 ] ] ], [ [ [ 114.023162, 22.250112 ], [ 114.02404, 22.252898 ], [ 114.026253, 22.253429 ], [ 114.038224, 22.249909 ], [ 114.040024, 22.247899 ], [ 114.039222, 22.236387 ], [ 114.036239, 22.236747 ], [ 114.028954, 22.246854 ], [ 114.023162, 22.250112 ] ] ], [ [ [ 114.314368, 22.333034 ], [ 114.316771, 22.334946 ], [ 114.324462, 22.334032 ], [ 114.328696, 22.325893 ], [ 114.326882, 22.32124 ], [ 114.318703, 22.32237 ], [ 114.316673, 22.323915 ], [ 114.317786, 22.326937 ], [ 114.314368, 22.333034 ] ] ], [ [ [ 113.899529, 22.159912 ], [ 113.901605, 22.161909 ], [ 113.909188, 22.163307 ], [ 113.908013, 22.167275 ], [ 113.910796, 22.170487 ], [ 113.913932, 22.171004 ], [ 113.916925, 22.168218 ], [ 113.914885, 22.16146 ], [ 113.906739, 22.157187 ], [ 113.902283, 22.15651 ], [ 113.899529, 22.159912 ] ] ], [ [ [ 114.239252, 22.176541 ], [ 114.240142, 22.18599 ], [ 114.251222, 22.186563 ], [ 114.254493, 22.185057 ], [ 114.25171, 22.179913 ], [ 114.242706, 22.176417 ], [ 114.239252, 22.176541 ] ] ], [ [ [ 113.980873, 22.198308 ], [ 113.984573, 22.202109 ], [ 113.988289, 22.20095 ], [ 113.991403, 22.19526 ], [ 113.992568, 22.191085 ], [ 113.990434, 22.187644 ], [ 113.986907, 22.188178 ], [ 113.981354, 22.19374 ], [ 113.980873, 22.198308 ] ] ], [ [ [ 114.356772, 22.313651 ], [ 114.358841, 22.318081 ], [ 114.360838, 22.317452 ], [ 114.368569, 22.308268 ], [ 114.363618, 22.301225 ], [ 114.356772, 22.313651 ] ] ], [ [ [ 114.3049, 22.525958 ], [ 114.307637, 22.529058 ], [ 114.312597, 22.52723 ], [ 114.315071, 22.532313 ], [ 114.317661, 22.531332 ], [ 114.316195, 22.519479 ], [ 114.313935, 22.519336 ], [ 114.307637, 22.522986 ], [ 114.3049, 22.525958 ] ] ], [ [ [ 114.285774, 22.361306 ], [ 114.286849, 22.367459 ], [ 114.291087, 22.367079 ], [ 114.294562, 22.359635 ], [ 114.294562, 22.351818 ], [ 114.291205, 22.352814 ], [ 114.285774, 22.361306 ] ] ], [ [ [ 114.157341, 22.234614 ], [ 114.158241, 22.228454 ], [ 114.156771, 22.227693 ], [ 114.148586, 22.233895 ], [ 114.148207, 22.234614 ], [ 114.145679, 22.239577 ], [ 114.14656, 22.240766 ], [ 114.154434, 22.238626 ], [ 114.157341, 22.234614 ] ] ], [ [ [ 114.341043, 22.311794 ], [ 114.34471, 22.319718 ], [ 114.351334, 22.32107 ], [ 114.353845, 22.319996 ], [ 114.346773, 22.310363 ], [ 114.341888, 22.308834 ], [ 114.341043, 22.311794 ] ] ], [ [ [ 114.422203, 22.541226 ], [ 114.423523, 22.545859 ], [ 114.425468, 22.546605 ], [ 114.430107, 22.541003 ], [ 114.432753, 22.537944 ], [ 114.434226, 22.5355 ], [ 114.432753, 22.533095 ], [ 114.42331, 22.537582 ], [ 114.422203, 22.541226 ] ] ], [ [ [ 114.04965, 22.34081 ], [ 114.052483, 22.344575 ], [ 114.052568, 22.348943 ], [ 114.056235, 22.349752 ], [ 114.058242, 22.348897 ], [ 114.057404, 22.344962 ], [ 114.059319, 22.339969 ], [ 114.055747, 22.33641 ], [ 114.053413, 22.33932 ], [ 114.04965, 22.34081 ] ] ], [ [ [ 114.031593, 22.282327 ], [ 114.033928, 22.285617 ], [ 114.036904, 22.285483 ], [ 114.040427, 22.283528 ], [ 114.039337, 22.279586 ], [ 114.040892, 22.277569 ], [ 114.034553, 22.275755 ], [ 114.031593, 22.282327 ] ] ], [ [ [ 114.335252, 22.465135 ], [ 114.33739, 22.471416 ], [ 114.340477, 22.469331 ], [ 114.34071, 22.46245 ], [ 114.344388, 22.459944 ], [ 114.342945, 22.457053 ], [ 114.336688, 22.460425 ], [ 114.335252, 22.465135 ] ] ], [ [ [ 113.904452, 22.178963 ], [ 113.90516, 22.186422 ], [ 113.909286, 22.183159 ], [ 113.916556, 22.181044 ], [ 113.915599, 22.179003 ], [ 113.904452, 22.178963 ] ] ], [ [ [ 114.242081, 22.448665 ], [ 114.25023, 22.455809 ], [ 114.251746, 22.447584 ], [ 114.248757, 22.448409 ], [ 114.242447, 22.44523 ], [ 114.242081, 22.448665 ] ] ] ] } }
]
}
