{
"type": "FeatureCollection",
"name": "Ilemi Triangle",
"crs": { "type": "name", "properties": { "name": "urn:ogc:def:crs:OGC:1.3:CRS84" } },
"features": [
{ "type": "Feature", "properties": { "id": "XG", "CNTR_ID": "XG", "CNTR_NAME": "Ilemi Triangle (Disputed Territory)", "NAME_ENGL": "Ilemi Triangle", "ISO3_CODE": "XG", "FID": "XG" }, "geometry": { "type": "MultiPolygon", "coordinates": [ [ [ [ 34.37846, 4.62 ], [ 34.404767, 4.647892 ], [ 34.434251, 4.679151 ], [ 34.46817, 4.715111 ], [ 34.476287, 4.724049 ], [ 34.500028, 4.738421 ], [ 34.6174, 4.77137 ], [ 34.712502, 4.798067 ], [ 34.966422, 4.893073 ], [ 35.000154, 4.906246 ], [ 35.152091, 4.988797 ], [ 35.163072, 4.980711 ], [ 35.19674, 4.955915 ], [ 35.232545, 4.97759 ], [ 35.286175, 5.010864 ], [ 35.309411, 5.021635 ], [ 35.327015, 5.023029 ], [ 35.336904, 5.018697 ], [ 35.344374, 5.012538 ], [ 35.34632, 5.007719 ], [ 35.331878, 4.981201 ], [ 35.311175, 4.919902 ], [ 35.310371, 4.907567 ], [ 35.457104, 4.922482 ], [ 35.469403, 4.921075 ], [ 35.476351, 4.91413 ], [ 35.476837, 4.902546 ], [ 35.420905, 4.771104 ], [ 35.474376, 4.679151 ], [ 35.492553, 4.647892 ], [ 35.50877, 4.62 ], [ 35.438054, 4.62 ], [ 35.434784, 4.62 ], [ 35.297915, 4.62 ], [ 35.232206, 4.62 ], [ 35.163072, 4.62 ], [ 34.945189, 4.62 ], [ 34.891421, 4.62 ], [ 34.722413, 4.62 ], [ 34.6174, 4.62 ], [ 34.461447, 4.62 ], [ 34.37846, 4.62 ] ] ] ] } }
]
}
