{
"type": "FeatureCollection",
"name": "Iraq",
"crs": { "type": "name", "properties": { "name": "urn:ogc:def:crs:OGC:1.3:CRS84" } },
"features": [
{ "type": "Feature", "properties": { "id": "IQ", "CNTR_ID": "IQ", "CNTR_NAME": "العراق-Îraq", "NAME_ENGL": "Iraq", "ISO3_CODE": "IRQ", "FID": "IQ" }, "geometry": { "type": "MultiPolygon", "coordinates": [ [ [ [ 48.484424, 29.979124 ], [ 48.484716, 29.973989 ], [ 48.503938, 29.961828 ], [ 48.563, 29.945162 ], [ 48.573527, 29.938467 ], [ 48.575483, 29.933703 ], [ 48.5701, 29.927306 ], [ 48.566323, 29.916288 ], [ 48.487305, 29.90959 ], [ 48.443938, 29.914977 ], [ 48.402031, 29.927437 ], [ 48.318239, 29.967568 ], [ 48.292276, 29.983763 ], [ 48.280339, 29.991208 ], [ 48.262361, 30.006386 ], [ 48.231041, 30.024586 ], [ 48.209683, 30.032681 ], [ 48.184925, 30.036418 ], [ 48.09243, 30.041792 ], [ 48.048605, 30.029533 ], [ 48.03152, 30.019116 ], [ 48.017715, 30.003006 ], [ 48.004146, 30.000908 ], [ 47.987213, 30.005864 ], [ 47.981423, 30.010112 ], [ 47.975327, 30.030527 ], [ 47.972144, 30.036154 ], [ 47.963023, 30.052276 ], [ 47.952575, 30.058091 ], [ 47.952479, 30.051649 ], [ 47.949934, 30.050909 ], [ 47.934595, 30.062395 ], [ 47.93344, 30.057108 ], [ 47.951759, 30.030466 ], [ 47.959136, 30.003753 ], [ 47.954402, 30.008886 ], [ 47.879176, 30.037795 ], [ 47.870274, 30.041216 ], [ 47.707679, 30.103699 ], [ 47.693468, 30.103699 ], [ 47.532127, 30.103699 ], [ 47.371306, 30.103699 ], [ 47.361293, 30.097162 ], [ 47.338862, 30.091105 ], [ 47.305221, 30.068715 ], [ 47.287566, 30.058711 ], [ 47.268447, 30.052024 ], [ 47.25, 30.048968 ], [ 47.247579, 30.048567 ], [ 47.227249, 30.043239 ], [ 47.192773, 30.029629 ], [ 47.189573, 30.028366 ], [ 47.172602, 30.017468 ], [ 47.155612, 30.000265 ], [ 47.152892, 29.998005 ], [ 47.139462, 29.986527 ], [ 47.130097, 29.97149 ], [ 47.123493, 29.953208 ], [ 47.104923, 29.921894 ], [ 47.100321, 29.902082 ], [ 47.081365, 29.851196 ], [ 47.061462, 29.816859 ], [ 47.031539, 29.753076 ], [ 47.027038, 29.74743 ], [ 47.0075, 29.722921 ], [ 47.003343, 29.683671 ], [ 46.99869, 29.666542 ], [ 46.997852, 29.663458 ], [ 46.977936, 29.635656 ], [ 46.969896, 29.618335 ], [ 46.954428, 29.603274 ], [ 46.939219, 29.57158 ], [ 46.918795, 29.539905 ], [ 46.905234, 29.525443 ], [ 46.90233, 29.506055 ], [ 46.86671, 29.437854 ], [ 46.814859, 29.381266 ], [ 46.784945, 29.355917 ], [ 46.766323, 29.321516 ], [ 46.757094, 29.311178 ], [ 46.704918, 29.252704 ], [ 46.692754, 29.23638 ], [ 46.671351, 29.207651 ], [ 46.629044, 29.169967 ], [ 46.609482, 29.158911 ], [ 46.594018, 29.14658 ], [ 46.567967, 29.120625 ], [ 46.557664, 29.104165 ], [ 46.55304, 29.10117 ], [ 46.425822, 29.061234 ], [ 46.111454, 29.087591 ], [ 45.584967, 29.131718 ], [ 45.474671, 29.140253 ], [ 45.151415, 29.165265 ], [ 45.0, 29.176979 ], [ 44.900145, 29.184702 ], [ 44.750037, 29.196313 ], [ 44.721884, 29.19849 ], [ 44.426861, 29.417964 ], [ 44.317112, 29.499685 ], [ 44.203245, 29.584403 ], [ 44.092753, 29.666542 ], [ 44.062351, 29.689131 ], [ 43.982738, 29.74743 ], [ 43.817218, 29.86853 ], [ 43.567399, 30.051465 ], [ 43.40964, 30.166813 ], [ 43.303075, 30.243656 ], [ 42.783604, 30.617379 ], [ 42.771984, 30.625723 ], [ 42.745846, 30.644534 ], [ 42.388123, 30.897821 ], [ 42.176072, 31.04765 ], [ 42.08558, 31.111673 ], [ 42.01306, 31.141122 ], [ 41.440812, 31.373181 ], [ 41.166346, 31.527886 ], [ 40.931854, 31.659857 ], [ 40.454891, 31.924937 ], [ 40.413311, 31.948046 ], [ 40.149393, 31.993616 ], [ 40.130825, 31.996821 ], [ 40.019915, 32.015975 ], [ 39.791019, 32.055493 ], [ 39.20273, 32.15403 ], [ 39.200936, 32.15433 ], [ 39.300284, 32.230184 ], [ 39.274473, 32.311459 ], [ 39.2657, 32.336175 ], [ 39.255667, 32.354324 ], [ 39.197269, 32.340482 ], [ 39.047706, 32.305023 ], [ 39.043037, 32.306222 ], [ 38.994718, 32.452843 ], [ 38.986813, 32.476808 ], [ 39.082273, 32.50065 ], [ 39.085232, 32.503474 ], [ 38.877815, 33.123144 ], [ 38.847447, 33.213699 ], [ 38.818461, 33.300254 ], [ 38.797125, 33.363966 ], [ 38.7925, 33.37472 ], [ 39.164992, 33.550095 ], [ 39.197269, 33.565321 ], [ 39.905363, 33.898673 ], [ 40.019915, 33.952699 ], [ 40.115532, 33.997768 ], [ 40.636984, 34.243132 ], [ 41.012309, 34.419885 ], [ 41.017298, 34.439586 ], [ 41.019327, 34.442708 ], [ 41.027084, 34.446717 ], [ 41.033128, 34.45231 ], [ 41.139454, 34.664114 ], [ 41.166346, 34.696138 ], [ 41.23433, 34.777039 ], [ 41.237694, 34.784868 ], [ 41.229648, 34.860081 ], [ 41.229643, 34.937932 ], [ 41.218119, 35.13218 ], [ 41.22525, 35.204203 ], [ 41.233268, 35.247692 ], [ 41.242437, 35.285588 ], [ 41.274903, 35.384907 ], [ 41.282636, 35.486147 ], [ 41.373262, 35.603257 ], [ 41.394269, 35.630379 ], [ 41.381053, 35.835289 ], [ 41.373262, 35.849198 ], [ 41.258051, 36.054591 ], [ 41.266915, 36.092144 ], [ 41.29177, 36.263452 ], [ 41.293681, 36.32601 ], [ 41.294606, 36.356259 ], [ 41.373262, 36.46861 ], [ 41.411294, 36.522875 ], [ 41.706741, 36.567472 ], [ 41.828068, 36.593126 ], [ 41.938093, 36.670051 ], [ 41.991019, 36.723291 ], [ 42.01306, 36.743859 ], [ 42.034447, 36.76381 ], [ 42.092445, 36.814272 ], [ 42.137253, 36.86064 ], [ 42.176973, 36.890487 ], [ 42.249322, 36.957755 ], [ 42.384604, 37.067081 ], [ 42.385004, 37.074146 ], [ 42.381052, 37.082031 ], [ 42.37359, 37.086814 ], [ 42.366008, 37.089141 ], [ 42.362085, 37.095007 ], [ 42.357113, 37.096999 ], [ 42.353774, 37.097584 ], [ 42.355686, 37.108039 ], [ 42.379706, 37.118018 ], [ 42.388123, 37.119651 ], [ 42.53042, 37.147235 ], [ 42.578985, 37.154107 ], [ 42.589216, 37.177161 ], [ 42.723851, 37.350727 ], [ 42.783604, 37.381453 ], [ 42.786687, 37.383038 ], [ 42.894739, 37.335557 ], [ 42.924307, 37.327841 ], [ 42.959224, 37.323794 ], [ 43.004519, 37.339533 ], [ 43.157711, 37.373385 ], [ 43.424563, 37.275334 ], [ 43.49055, 37.251244 ], [ 43.567399, 37.238933 ], [ 43.62146, 37.230271 ], [ 43.816991, 37.222002 ], [ 43.912895, 37.227104 ], [ 43.936812, 37.25194 ], [ 43.956297, 37.279798 ], [ 44.010946, 37.31793 ], [ 44.047651, 37.321992 ], [ 44.072981, 37.31656 ], [ 44.118324, 37.315597 ], [ 44.203245, 37.285888 ], [ 44.230631, 37.275736 ], [ 44.260891, 37.23804 ], [ 44.268139, 37.195222 ], [ 44.26238, 37.164262 ], [ 44.230148, 37.153296 ], [ 44.203245, 37.108612 ], [ 44.19656, 37.096302 ], [ 44.203245, 37.083192 ], [ 44.256996, 36.986445 ], [ 44.318238, 36.971786 ], [ 44.340765, 37.006323 ], [ 44.350369, 37.038071 ], [ 44.43614, 37.0631 ], [ 44.487671, 37.090115 ], [ 44.549731, 37.132142 ], [ 44.586289, 37.16468 ], [ 44.644087, 37.188141 ], [ 44.746739, 37.174104 ], [ 44.750037, 37.173091 ], [ 44.772793, 37.165887 ], [ 44.785968, 37.153849 ], [ 44.793147, 37.176283 ], [ 44.804511, 37.1651 ], [ 44.805606, 37.155603 ], [ 44.788078, 37.149466 ], [ 44.777212, 37.141402 ], [ 44.766213, 37.137101 ], [ 44.762617, 37.129918 ], [ 44.750718, 37.122458 ], [ 44.75126, 37.113351 ], [ 44.765683, 37.101401 ], [ 44.78228, 37.092452 ], [ 44.778159, 37.078166 ], [ 44.798232, 37.066804 ], [ 44.80714, 37.045282 ], [ 44.818869, 37.041302 ], [ 44.8409, 37.04831 ], [ 44.852516, 37.047002 ], [ 44.865983, 37.033695 ], [ 44.886514, 37.03143 ], [ 44.895918, 37.027459 ], [ 44.900838, 37.021633 ], [ 44.903747, 37.009459 ], [ 44.897649, 36.998958 ], [ 44.883824, 36.955615 ], [ 44.887711, 36.9484 ], [ 44.89727, 36.94237 ], [ 44.902, 36.930626 ], [ 44.912364, 36.916413 ], [ 44.910075, 36.907319 ], [ 44.911284, 36.895979 ], [ 44.903254, 36.879454 ], [ 44.90174, 36.860046 ], [ 44.898623, 36.856098 ], [ 44.863032, 36.844344 ], [ 44.861841, 36.83972 ], [ 44.864703, 36.832296 ], [ 44.852076, 36.828158 ], [ 44.84179, 36.817678 ], [ 44.837883, 36.798501 ], [ 44.843148, 36.784854 ], [ 44.858026, 36.774173 ], [ 44.865371, 36.779052 ], [ 44.884702, 36.781965 ], [ 44.918977, 36.776133 ], [ 44.934268, 36.78411 ], [ 44.941584, 36.784322 ], [ 44.95851, 36.771696 ], [ 44.971546, 36.751503 ], [ 45.007517, 36.749281 ], [ 45.029487, 36.740505 ], [ 45.033816, 36.728736 ], [ 45.047724, 36.715726 ], [ 45.064877, 36.687799 ], [ 45.071066, 36.652618 ], [ 45.068449, 36.627756 ], [ 45.062788, 36.616429 ], [ 45.050491, 36.613599 ], [ 45.028553, 36.603526 ], [ 45.028596, 36.590386 ], [ 45.037799, 36.577144 ], [ 45.037616, 36.56479 ], [ 45.033023, 36.560165 ], [ 45.015097, 36.556841 ], [ 45.007594, 36.552272 ], [ 45.002663, 36.537255 ], [ 45.009583, 36.524609 ], [ 45.016505, 36.51873 ], [ 45.051941, 36.505744 ], [ 45.054412, 36.483936 ], [ 45.05906, 36.470006 ], [ 45.075318, 36.455009 ], [ 45.077741, 36.433615 ], [ 45.084925, 36.424317 ], [ 45.101537, 36.417002 ], [ 45.115983, 36.406482 ], [ 45.147693, 36.404901 ], [ 45.151415, 36.407177 ], [ 45.158634, 36.416391 ], [ 45.179272, 36.418666 ], [ 45.233741, 36.431102 ], [ 45.250227, 36.413726 ], [ 45.253228, 36.4033 ], [ 45.271107, 36.391097 ], [ 45.273993, 36.380842 ], [ 45.270576, 36.373534 ], [ 45.27292, 36.366389 ], [ 45.27158, 36.355971 ], [ 45.280432, 36.337812 ], [ 45.266938, 36.323559 ], [ 45.262498, 36.303815 ], [ 45.268067, 36.298015 ], [ 45.279395, 36.294315 ], [ 45.301135, 36.274472 ], [ 45.297051, 36.26972 ], [ 45.275903, 36.260901 ], [ 45.269192, 36.252721 ], [ 45.284132, 36.244725 ], [ 45.315312, 36.236459 ], [ 45.316781, 36.22437 ], [ 45.329247, 36.214206 ], [ 45.335316, 36.203945 ], [ 45.319108, 36.184627 ], [ 45.322812, 36.168182 ], [ 45.3299, 36.155543 ], [ 45.328814, 36.141587 ], [ 45.340576, 36.130259 ], [ 45.351616, 36.110555 ], [ 45.370121, 36.10246 ], [ 45.380184, 36.083461 ], [ 45.37189, 36.053902 ], [ 45.354343, 36.033233 ], [ 45.351593, 36.020975 ], [ 45.343899, 36.007438 ], [ 45.352823, 35.977617 ], [ 45.358105, 35.976776 ], [ 45.365671, 35.981848 ], [ 45.37123, 35.982487 ], [ 45.375833, 35.979257 ], [ 45.3777, 35.972704 ], [ 45.385189, 35.973596 ], [ 45.397835, 35.970551 ], [ 45.414984, 35.982008 ], [ 45.426393, 35.985855 ], [ 45.434265, 35.994825 ], [ 45.440688, 35.997928 ], [ 45.463241, 35.996609 ], [ 45.474671, 36.000039 ], [ 45.497651, 36.002559 ], [ 45.523804, 35.995942 ], [ 45.554087, 35.996632 ], [ 45.571432, 35.984257 ], [ 45.579488, 35.974304 ], [ 45.59125, 35.974558 ], [ 45.601805, 35.961042 ], [ 45.621812, 35.955507 ], [ 45.630644, 35.947106 ], [ 45.665187, 35.926303 ], [ 45.678872, 35.902787 ], [ 45.687968, 35.899316 ], [ 45.691951, 35.897796 ], [ 45.699023, 35.886869 ], [ 45.712936, 35.877878 ], [ 45.718242, 35.863682 ], [ 45.736686, 35.841019 ], [ 45.741649, 35.830398 ], [ 45.749891, 35.822042 ], [ 45.757763, 35.807416 ], [ 45.764178, 35.802475 ], [ 45.775716, 35.811729 ], [ 45.794306, 35.813597 ], [ 45.8034, 35.823972 ], [ 45.816107, 35.820624 ], [ 45.832071, 35.812353 ], [ 45.857205, 35.817559 ], [ 45.875803, 35.813558 ], [ 45.880585, 35.817276 ], [ 45.885851, 35.830398 ], [ 45.895635, 35.836597 ], [ 45.919468, 35.832885 ], [ 45.925602, 35.830398 ], [ 45.938155, 35.825306 ], [ 45.94749, 35.824055 ], [ 45.954981, 35.826263 ], [ 45.956766, 35.830398 ], [ 45.958597, 35.834639 ], [ 45.966283, 35.84085 ], [ 45.977051, 35.837074 ], [ 45.987313, 35.838823 ], [ 45.999368, 35.836449 ], [ 46.026314, 35.837698 ], [ 46.043558, 35.846244 ], [ 46.054776, 35.854794 ], [ 46.079349, 35.860488 ], [ 46.089309, 35.869011 ], [ 46.094576, 35.866727 ], [ 46.099309, 35.856063 ], [ 46.108536, 35.849996 ], [ 46.111454, 35.849427 ], [ 46.137062, 35.84444 ], [ 46.136325, 35.83361 ], [ 46.137392, 35.830398 ], [ 46.140027, 35.822466 ], [ 46.153828, 35.808485 ], [ 46.166078, 35.802604 ], [ 46.174021, 35.803148 ], [ 46.185227, 35.810828 ], [ 46.198311, 35.801674 ], [ 46.214413, 35.79784 ], [ 46.234016, 35.812341 ], [ 46.250187, 35.811408 ], [ 46.277029, 35.819516 ], [ 46.289223, 35.830398 ], [ 46.293394, 35.83412 ], [ 46.299591, 35.830398 ], [ 46.315397, 35.820904 ], [ 46.338577, 35.818124 ], [ 46.345427, 35.806044 ], [ 46.346229, 35.789694 ], [ 46.33267, 35.765565 ], [ 46.324525, 35.762052 ], [ 46.307104, 35.760701 ], [ 46.299803, 35.752106 ], [ 46.284651, 35.74373 ], [ 46.281745, 35.734606 ], [ 46.277497, 35.730844 ], [ 46.25955, 35.727604 ], [ 46.236157, 35.717104 ], [ 46.211992, 35.723443 ], [ 46.197965, 35.722059 ], [ 46.177698, 35.71077 ], [ 46.161392, 35.690309 ], [ 46.137583, 35.696901 ], [ 46.126508, 35.695169 ], [ 46.113522, 35.689312 ], [ 46.111454, 35.689155 ], [ 46.104119, 35.688598 ], [ 46.091465, 35.693458 ], [ 46.070721, 35.6932 ], [ 46.061881, 35.699234 ], [ 46.040844, 35.704911 ], [ 46.0349, 35.702364 ], [ 46.025779, 35.688327 ], [ 46.015814, 35.684269 ], [ 46.01056, 35.67919 ], [ 46.009898, 35.673576 ], [ 46.014085, 35.664144 ], [ 46.011792, 35.65369 ], [ 45.995241, 35.637013 ], [ 46.011753, 35.628419 ], [ 46.015122, 35.617731 ], [ 46.016931, 35.611991 ], [ 46.014674, 35.595269 ], [ 46.024037, 35.585457 ], [ 46.02746, 35.577952 ], [ 46.02276, 35.574737 ], [ 46.009705, 35.574404 ], [ 45.985417, 35.583518 ], [ 45.977921, 35.584493 ], [ 45.974745, 35.582556 ], [ 45.981403, 35.563249 ], [ 45.997357, 35.547684 ], [ 45.999288, 35.534389 ], [ 46.013698, 35.521714 ], [ 46.005862, 35.518053 ], [ 45.993709, 35.516798 ], [ 45.987146, 35.494534 ], [ 46.011929, 35.449124 ], [ 46.024265, 35.435989 ], [ 46.039205, 35.407798 ], [ 46.068045, 35.371269 ], [ 46.09115, 35.358625 ], [ 46.100146, 35.346777 ], [ 46.111454, 35.341371 ], [ 46.124296, 35.335231 ], [ 46.129565, 35.32619 ], [ 46.146698, 35.309385 ], [ 46.155671, 35.285016 ], [ 46.11246, 35.238764 ], [ 46.118192, 35.233797 ], [ 46.132226, 35.228477 ], [ 46.161789, 35.223714 ], [ 46.17821, 35.226378 ], [ 46.191901, 35.21319 ], [ 46.19868, 35.200224 ], [ 46.195471, 35.188033 ], [ 46.184913, 35.182349 ], [ 46.166564, 35.17247 ], [ 46.158774, 35.16509 ], [ 46.156065, 35.158255 ], [ 46.159528, 35.143436 ], [ 46.157853, 35.128295 ], [ 46.169158, 35.119772 ], [ 46.187921, 35.110658 ], [ 46.158734, 35.088574 ], [ 46.133331, 35.08333 ], [ 46.117926, 35.076078 ], [ 46.111454, 35.07719 ], [ 46.101883, 35.078835 ], [ 46.091759, 35.086505 ], [ 46.075419, 35.083131 ], [ 46.071208, 35.077015 ], [ 46.070076, 35.062901 ], [ 46.077479, 35.055807 ], [ 46.06581, 35.042937 ], [ 46.060098, 35.040124 ], [ 46.05197, 35.050606 ], [ 46.030548, 35.053996 ], [ 46.014104, 35.06969 ], [ 46.006764, 35.069867 ], [ 46.000666, 35.064984 ], [ 45.995172, 35.064462 ], [ 45.971545, 35.073871 ], [ 45.94976, 35.088274 ], [ 45.943561, 35.08846 ], [ 45.934581, 35.08394 ], [ 45.923739, 35.090095 ], [ 45.922042, 35.058985 ], [ 45.928025, 35.047727 ], [ 45.899289, 35.045922 ], [ 45.883248, 35.038407 ], [ 45.87732, 35.031956 ], [ 45.876305, 35.009537 ], [ 45.886297, 34.996493 ], [ 45.890635, 34.971762 ], [ 45.896153, 34.957955 ], [ 45.892238, 34.948895 ], [ 45.881152, 34.942616 ], [ 45.871726, 34.931948 ], [ 45.8687, 34.924557 ], [ 45.868376, 34.90891 ], [ 45.863967, 34.897876 ], [ 45.850218, 34.895181 ], [ 45.838899, 34.898176 ], [ 45.816346, 34.910934 ], [ 45.793042, 34.909963 ], [ 45.790316, 34.906638 ], [ 45.795325, 34.880018 ], [ 45.794247, 34.858437 ], [ 45.791665, 34.854316 ], [ 45.768978, 34.834984 ], [ 45.749093, 34.830197 ], [ 45.739023, 34.832945 ], [ 45.732949, 34.838448 ], [ 45.726726, 34.838518 ], [ 45.695858, 34.8204 ], [ 45.690428, 34.811981 ], [ 45.701554, 34.791346 ], [ 45.695874, 34.782201 ], [ 45.697045, 34.772915 ], [ 45.681547, 34.762728 ], [ 45.66451, 34.73295 ], [ 45.654535, 34.72347 ], [ 45.671289, 34.711805 ], [ 45.68833, 34.706141 ], [ 45.701256, 34.694105 ], [ 45.696916, 34.671812 ], [ 45.709801, 34.667359 ], [ 45.727906, 34.621731 ], [ 45.724007, 34.606796 ], [ 45.730765, 34.593168 ], [ 45.739445, 34.583993 ], [ 45.740461, 34.570808 ], [ 45.735815, 34.55917 ], [ 45.742111, 34.549895 ], [ 45.742183, 34.540236 ], [ 45.732345, 34.537236 ], [ 45.712915, 34.541819 ], [ 45.684905, 34.558062 ], [ 45.670603, 34.553014 ], [ 45.659103, 34.554765 ], [ 45.647697, 34.552531 ], [ 45.63693, 34.554706 ], [ 45.626932, 34.550202 ], [ 45.604928, 34.550376 ], [ 45.575679, 34.560312 ], [ 45.568548, 34.565443 ], [ 45.56594, 34.570808 ], [ 45.565037, 34.573367 ], [ 45.557251, 34.578091 ], [ 45.557554, 34.585165 ], [ 45.554, 34.591735 ], [ 45.543914, 34.59638 ], [ 45.536362, 34.593686 ], [ 45.536469, 34.600637 ], [ 45.531476, 34.601514 ], [ 45.530481, 34.587935 ], [ 45.523168, 34.576359 ], [ 45.522991, 34.570808 ], [ 45.522674, 34.560848 ], [ 45.513715, 34.548027 ], [ 45.522374, 34.538949 ], [ 45.525921, 34.527559 ], [ 45.526065, 34.498969 ], [ 45.520681, 34.482877 ], [ 45.516462, 34.477587 ], [ 45.507418, 34.473244 ], [ 45.48962, 34.474739 ], [ 45.474671, 34.475996 ], [ 45.467157, 34.476627 ], [ 45.462588, 34.473926 ], [ 45.459804, 34.467515 ], [ 45.445686, 34.464565 ], [ 45.441183, 34.458561 ], [ 45.443961, 34.441072 ], [ 45.456587, 34.432342 ], [ 45.467037, 34.383881 ], [ 45.474671, 34.372129 ], [ 45.496881, 34.338884 ], [ 45.501711, 34.34096 ], [ 45.508364, 34.350748 ], [ 45.529626, 34.34735 ], [ 45.537537, 34.351277 ], [ 45.54008, 34.350443 ], [ 45.563337, 34.329924 ], [ 45.582667, 34.303762 ], [ 45.58559, 34.291241 ], [ 45.581377, 34.240541 ], [ 45.569768, 34.214021 ], [ 45.556339, 34.195697 ], [ 45.559281, 34.187815 ], [ 45.573223, 34.170569 ], [ 45.579941, 34.147431 ], [ 45.532687, 34.121977 ], [ 45.52331, 34.112604 ], [ 45.514098, 34.110652 ], [ 45.50636, 34.099777 ], [ 45.493565, 34.090679 ], [ 45.492941, 34.083538 ], [ 45.480486, 34.079928 ], [ 45.474671, 34.075766 ], [ 45.467338, 34.064542 ], [ 45.474671, 34.059672 ], [ 45.478935, 34.05684 ], [ 45.479429, 34.042545 ], [ 45.474671, 34.033463 ], [ 45.473521, 34.031266 ], [ 45.474671, 34.027193 ], [ 45.474671, 34.02402 ], [ 45.467992, 34.017998 ], [ 45.465512, 34.009996 ], [ 45.437235, 33.998357 ], [ 45.43161, 33.99197 ], [ 45.423556, 33.990797 ], [ 45.422184, 33.984749 ], [ 45.420836, 33.981807 ], [ 45.411546, 33.977545 ], [ 45.421685, 33.960351 ], [ 45.429132, 33.954992 ], [ 45.433502, 33.947345 ], [ 45.452058, 33.946033 ], [ 45.468287, 33.949082 ], [ 45.474671, 33.948787 ], [ 45.484455, 33.948334 ], [ 45.48962, 33.949666 ], [ 45.50299, 33.953113 ], [ 45.511038, 33.945959 ], [ 45.520092, 33.925215 ], [ 45.551019, 33.891746 ], [ 45.587091, 33.832492 ], [ 45.599559, 33.819909 ], [ 45.603043, 33.804388 ], [ 45.632644, 33.786109 ], [ 45.646663, 33.767059 ], [ 45.647692, 33.763598 ], [ 45.639658, 33.744761 ], [ 45.643001, 33.73453 ], [ 45.658842, 33.722227 ], [ 45.664865, 33.710945 ], [ 45.675063, 33.69973 ], [ 45.692154, 33.690893 ], [ 45.719608, 33.662912 ], [ 45.750326, 33.644979 ], [ 45.770968, 33.636827 ], [ 45.77074, 33.624303 ], [ 45.760161, 33.610439 ], [ 45.756285, 33.595382 ], [ 45.808748, 33.617588 ], [ 45.815295, 33.627365 ], [ 45.836808, 33.625322 ], [ 45.869572, 33.633757 ], [ 45.909345, 33.635426 ], [ 45.91587, 33.627108 ], [ 45.905807, 33.6062 ], [ 45.931905, 33.593197 ], [ 45.957709, 33.569621 ], [ 45.960681, 33.561379 ], [ 45.9483, 33.546402 ], [ 45.86695, 33.494549 ], [ 45.879338, 33.492024 ], [ 45.892644, 33.494154 ], [ 45.910588, 33.490557 ], [ 45.93374, 33.491819 ], [ 45.942097, 33.484082 ], [ 45.961776, 33.500242 ], [ 45.999732, 33.510248 ], [ 46.005996, 33.508591 ], [ 46.008733, 33.504005 ], [ 46.00812, 33.488376 ], [ 46.013791, 33.483714 ], [ 46.019717, 33.48585 ], [ 46.026199, 33.48195 ], [ 46.041431, 33.45605 ], [ 46.042824, 33.447882 ], [ 46.037967, 33.441004 ], [ 46.046779, 33.42041 ], [ 46.070574, 33.400041 ], [ 46.077139, 33.390007 ], [ 46.077339, 33.35876 ], [ 46.079638, 33.354318 ], [ 46.102263, 33.334059 ], [ 46.111454, 33.317165 ], [ 46.114594, 33.311394 ], [ 46.132978, 33.293327 ], [ 46.170234, 33.271028 ], [ 46.190497, 33.263225 ], [ 46.187003, 33.249908 ], [ 46.192639, 33.236163 ], [ 46.182532, 33.222467 ], [ 46.185689, 33.213144 ], [ 46.181013, 33.206939 ], [ 46.192762, 33.202347 ], [ 46.21214, 33.201339 ], [ 46.209744, 33.196958 ], [ 46.199393, 33.191541 ], [ 46.1972, 33.18158 ], [ 46.187085, 33.177129 ], [ 46.176647, 33.161542 ], [ 46.16044, 33.151199 ], [ 46.157399, 33.142503 ], [ 46.124715, 33.117621 ], [ 46.115394, 33.115167 ], [ 46.111454, 33.118286 ], [ 46.105996, 33.122607 ], [ 46.091507, 33.119527 ], [ 46.06968, 33.126314 ], [ 46.063673, 33.12453 ], [ 46.053594, 33.125802 ], [ 46.041621, 33.098194 ], [ 46.043676, 33.094133 ], [ 46.060163, 33.089778 ], [ 46.087752, 33.08991 ], [ 46.111454, 33.077571 ], [ 46.121237, 33.073 ], [ 46.157085, 33.071856 ], [ 46.162067, 33.069552 ], [ 46.153348, 33.062987 ], [ 46.147403, 33.051063 ], [ 46.13827, 33.043444 ], [ 46.131334, 33.02303 ], [ 46.121726, 33.018318 ], [ 46.111454, 33.017771 ], [ 46.106211, 33.020219 ], [ 46.09943, 33.014369 ], [ 46.094612, 33.004491 ], [ 46.099263, 33.000432 ], [ 46.095913, 32.986417 ], [ 46.09916, 32.980287 ], [ 46.111454, 32.973515 ], [ 46.134509, 32.960813 ], [ 46.172499, 32.954021 ], [ 46.207525, 32.960307 ], [ 46.243302, 32.970209 ], [ 46.254397, 32.96937 ], [ 46.266831, 32.972467 ], [ 46.283061, 32.969365 ], [ 46.31176, 32.969103 ], [ 46.33188, 32.965247 ], [ 46.346719, 32.959962 ], [ 46.362042, 32.954504 ], [ 46.387063, 32.94943 ], [ 46.40842, 32.948023 ], [ 46.422805, 32.937981 ], [ 46.441514, 32.931708 ], [ 46.448179, 32.93328 ], [ 46.451349, 32.926595 ], [ 46.480586, 32.915998 ], [ 46.491804, 32.904001 ], [ 46.522156, 32.896525 ], [ 46.569329, 32.865561 ], [ 46.612904, 32.833472 ], [ 46.6243, 32.821981 ], [ 46.647005, 32.814659 ], [ 46.657587, 32.80751 ], [ 46.686793, 32.798574 ], [ 46.704845, 32.787076 ], [ 46.7225, 32.785325 ], [ 46.752745, 32.759269 ], [ 46.757094, 32.753731 ], [ 46.764567, 32.744215 ], [ 46.783048, 32.730725 ], [ 46.792954, 32.711502 ], [ 46.825032, 32.695229 ], [ 46.839759, 32.669551 ], [ 46.872198, 32.646553 ], [ 46.88702, 32.63273 ], [ 46.955274, 32.598263 ], [ 46.974144, 32.581438 ], [ 46.999482, 32.570169 ], [ 47.032772, 32.544936 ], [ 47.046282, 32.528528 ], [ 47.055948, 32.525581 ], [ 47.071267, 32.512199 ], [ 47.087763, 32.504148 ], [ 47.094577, 32.497399 ], [ 47.152892, 32.467721 ], [ 47.167399, 32.458371 ], [ 47.176591, 32.456832 ], [ 47.181529, 32.461518 ], [ 47.188237, 32.460658 ], [ 47.192087, 32.462983 ], [ 47.210117, 32.460929 ], [ 47.226168, 32.462782 ], [ 47.233283, 32.465904 ], [ 47.246946, 32.464028 ], [ 47.275215, 32.478316 ], [ 47.28239, 32.487662 ], [ 47.285475, 32.497026 ], [ 47.313199, 32.487285 ], [ 47.334419, 32.475203 ], [ 47.345307, 32.475849 ], [ 47.361623, 32.471646 ], [ 47.377927, 32.473596 ], [ 47.387707, 32.46992 ], [ 47.401072, 32.456982 ], [ 47.429989, 32.419951 ], [ 47.465493, 32.391759 ], [ 47.464876, 32.377636 ], [ 47.453961, 32.366461 ], [ 47.451819, 32.359225 ], [ 47.442788, 32.356038 ], [ 47.437927, 32.351505 ], [ 47.455081, 32.342693 ], [ 47.463294, 32.316601 ], [ 47.473383, 32.315206 ], [ 47.501376, 32.304676 ], [ 47.521108, 32.305186 ], [ 47.521441, 32.290479 ], [ 47.514158, 32.288918 ], [ 47.504078, 32.279884 ], [ 47.503881, 32.276853 ], [ 47.521623, 32.259811 ], [ 47.539829, 32.235459 ], [ 47.563031, 32.228663 ], [ 47.570213, 32.216237 ], [ 47.565563, 32.191606 ], [ 47.54983, 32.183807 ], [ 47.533002, 32.17048 ], [ 47.535536, 32.151369 ], [ 47.533495, 32.142309 ], [ 47.549072, 32.134646 ], [ 47.560521, 32.119349 ], [ 47.570258, 32.114619 ], [ 47.575626, 32.114593 ], [ 47.581912, 32.120593 ], [ 47.595433, 32.120014 ], [ 47.614475, 32.111 ], [ 47.630853, 32.094248 ], [ 47.649268, 32.082363 ], [ 47.650677, 32.058582 ], [ 47.667601, 32.047065 ], [ 47.673973, 32.033848 ], [ 47.686856, 32.030419 ], [ 47.686807, 32.017157 ], [ 47.691962, 32.015186 ], [ 47.693468, 32.016231 ], [ 47.701362, 32.021713 ], [ 47.710728, 32.018325 ], [ 47.710766, 32.015973 ], [ 47.70562, 32.016135 ], [ 47.703117, 32.013825 ], [ 47.712954, 32.000387 ], [ 47.707984, 31.994121 ], [ 47.714167, 31.991252 ], [ 47.716506, 31.986897 ], [ 47.712861, 31.971876 ], [ 47.72571, 31.961694 ], [ 47.734657, 31.937566 ], [ 47.757159, 31.915254 ], [ 47.781418, 31.907715 ], [ 47.788632, 31.889213 ], [ 47.807916, 31.882241 ], [ 47.79983, 31.864884 ], [ 47.805601, 31.846018 ], [ 47.819726, 31.839932 ], [ 47.827578, 31.831854 ], [ 47.853952, 31.816153 ], [ 47.864203, 31.782919 ], [ 47.693468, 31.416543 ], [ 47.683826, 31.395809 ], [ 47.682099, 31.000704 ], [ 47.693468, 31.000181 ], [ 47.761037, 30.997075 ], [ 48.031395, 30.99499 ], [ 48.026208, 30.5706 ], [ 48.025077, 30.477805 ], [ 48.04226, 30.474883 ], [ 48.06577, 30.464746 ], [ 48.105517, 30.455214 ], [ 48.112256, 30.449863 ], [ 48.142325, 30.439989 ], [ 48.166267, 30.424528 ], [ 48.184791, 30.394691 ], [ 48.185997, 30.37055 ], [ 48.197758, 30.327818 ], [ 48.202962, 30.319237 ], [ 48.215589, 30.31389 ], [ 48.224075, 30.315386 ], [ 48.236458, 30.324169 ], [ 48.243689, 30.332932 ], [ 48.25351, 30.338532 ], [ 48.27537, 30.333195 ], [ 48.298693, 30.311069 ], [ 48.351249, 30.250737 ], [ 48.412835, 30.197988 ], [ 48.419391, 30.186608 ], [ 48.417771, 30.169803 ], [ 48.406257, 30.151721 ], [ 48.387493, 30.133688 ], [ 48.384875, 30.119809 ], [ 48.398283, 30.104848 ], [ 48.432281, 30.083698 ], [ 48.444009, 30.069358 ], [ 48.452128, 30.043515 ], [ 48.45041, 30.014564 ], [ 48.453602, 30.001453 ], [ 48.459571, 29.99448 ], [ 48.484424, 29.979124 ] ] ], [ [ [ 47.95874, 30.028961 ], [ 47.959568, 30.04021 ], [ 47.965107, 30.040191 ], [ 47.969036, 30.032371 ], [ 47.968735, 30.021349 ], [ 47.971871, 30.01353 ], [ 47.97028, 30.01124 ], [ 47.965546, 30.014701 ], [ 47.960564, 30.023214 ], [ 47.961106, 30.026657 ], [ 47.95874, 30.028961 ] ] ] ] } }
]
}
