{
"type": "FeatureCollection",
"name": "Israel",
"crs": { "type": "name", "properties": { "name": "urn:ogc:def:crs:OGC:1.3:CRS84" } },
"features": [
{ "type": "Feature", "properties": { "id": "IL", "CNTR_ID": "IL", "CNTR_NAME": "إسرائيل-ישראל", "NAME_ENGL": "Israel", "ISO3_CODE": "ISR", "FID": "IL" }, "geometry": { "type": "MultiPolygon", "coordinates": [ [ [ [ 35.47596, 31.49051 ], [ 35.473613, 31.413396 ], [ 35.471219, 31.402951 ], [ 35.466721, 31.383319 ], [ 35.450885, 31.349099 ], [ 35.413309, 31.291451 ], [ 35.405401, 31.274322 ], [ 35.400336, 31.253821 ], [ 35.400747, 31.240035 ], [ 35.404943, 31.227794 ], [ 35.45124, 31.162635 ], [ 35.458117, 31.128843 ], [ 35.456317, 31.106377 ], [ 35.448195, 31.082258 ], [ 35.425005, 31.043535 ], [ 35.417042, 31.002542 ], [ 35.414329, 30.94984 ], [ 35.393536, 30.928256 ], [ 35.371878, 30.926125 ], [ 35.367917, 30.923507 ], [ 35.352723, 30.906368 ], [ 35.331755, 30.86266 ], [ 35.329891, 30.840747 ], [ 35.339406, 30.814889 ], [ 35.335996, 30.801113 ], [ 35.322235, 30.79664 ], [ 35.315738, 30.790827 ], [ 35.309012, 30.764267 ], [ 35.294996, 30.761135 ], [ 35.29408, 30.735224 ], [ 35.287292, 30.723614 ], [ 35.293254, 30.717855 ], [ 35.293048, 30.712631 ], [ 35.280618, 30.708145 ], [ 35.268982, 30.684738 ], [ 35.26957, 30.679461 ], [ 35.263999, 30.673204 ], [ 35.265558, 30.666992 ], [ 35.263036, 30.65969 ], [ 35.22237, 30.619259 ], [ 35.217277, 30.604035 ], [ 35.204078, 30.582128 ], [ 35.203473, 30.54924 ], [ 35.194723, 30.53251 ], [ 35.192363, 30.497564 ], [ 35.181333, 30.471387 ], [ 35.161984, 30.438988 ], [ 35.165013, 30.403093 ], [ 35.190925, 30.348173 ], [ 35.18581, 30.339079 ], [ 35.155046, 30.306477 ], [ 35.146246, 30.282461 ], [ 35.149491, 30.254797 ], [ 35.146153, 30.243656 ], [ 35.145208, 30.2405 ], [ 35.151092, 30.205822 ], [ 35.144669, 30.164401 ], [ 35.153994, 30.154786 ], [ 35.151377, 30.144181 ], [ 35.159865, 30.134961 ], [ 35.158296, 30.128545 ], [ 35.161123, 30.122245 ], [ 35.149272, 30.08816 ], [ 35.150961, 30.082619 ], [ 35.146933, 30.066462 ], [ 35.144774, 30.063493 ], [ 35.13006, 30.06096 ], [ 35.112609, 30.03941 ], [ 35.101285, 30.013538 ], [ 35.109148, 30.00926 ], [ 35.11077, 30.003857 ], [ 35.11584, 30.000703 ], [ 35.115586, 29.996997 ], [ 35.098281, 29.990375 ], [ 35.089582, 29.974036 ], [ 35.090126, 29.966362 ], [ 35.081736, 29.959335 ], [ 35.078035, 29.956525 ], [ 35.075907, 29.951116 ], [ 35.081736, 29.947964 ], [ 35.083633, 29.946401 ], [ 35.084272, 29.940862 ], [ 35.081736, 29.936056 ], [ 35.07831, 29.930595 ], [ 35.077508, 29.92592 ], [ 35.081736, 29.921263 ], [ 35.084239, 29.885769 ], [ 35.081736, 29.882123 ], [ 35.078829, 29.877888 ], [ 35.078656, 29.871955 ], [ 35.069395, 29.863928 ], [ 35.066562, 29.856107 ], [ 35.061715, 29.848585 ], [ 35.049887, 29.819264 ], [ 35.050683, 29.811105 ], [ 35.047834, 29.806222 ], [ 35.045552, 29.802311 ], [ 35.043959, 29.788255 ], [ 35.031134, 29.775819 ], [ 35.01305, 29.711301 ], [ 35.01149, 29.696801 ], [ 35.020598, 29.672271 ], [ 35.019154, 29.655413 ], [ 35.013983, 29.638893 ], [ 35.000481, 29.62189 ], [ 34.978725, 29.576975 ], [ 34.97819, 29.541823 ], [ 34.974212, 29.546385 ], [ 34.955289, 29.54805 ], [ 34.918499, 29.503406 ], [ 34.913636, 29.499685 ], [ 34.905101, 29.493154 ], [ 34.902842, 29.499685 ], [ 34.900839, 29.505476 ], [ 34.896778, 29.511798 ], [ 34.886879, 29.522155 ], [ 34.879392, 29.543918 ], [ 34.878607, 29.554417 ], [ 34.873739, 29.57853 ], [ 34.867388, 29.598396 ], [ 34.877379, 29.612402 ], [ 34.880318, 29.64185 ], [ 34.856667, 29.688507 ], [ 34.849238, 29.76165 ], [ 34.828651, 29.803358 ], [ 34.827714, 29.806222 ], [ 34.815118, 29.84469 ], [ 34.798865, 29.879829 ], [ 34.744978, 30.028163 ], [ 34.714552, 30.100432 ], [ 34.658793, 30.243656 ], [ 34.642937, 30.284347 ], [ 34.62662, 30.326204 ], [ 34.622597, 30.339079 ], [ 34.613538, 30.368064 ], [ 34.544338, 30.410499 ], [ 34.543589, 30.441456 ], [ 34.558597, 30.492898 ], [ 34.519602, 30.529633 ], [ 34.518844, 30.553443 ], [ 34.521763, 30.589705 ], [ 34.501389, 30.674533 ], [ 34.435009, 30.801113 ], [ 34.407482, 30.853558 ], [ 34.395115, 30.881968 ], [ 34.37685, 30.92646 ], [ 34.363146, 30.963823 ], [ 34.268839, 31.220535 ], [ 34.292095, 31.241051 ], [ 34.319769, 31.25325 ], [ 34.327622, 31.258864 ], [ 34.337063, 31.26866 ], [ 34.342988, 31.27932 ], [ 34.363146, 31.288923 ], [ 34.367752, 31.292489 ], [ 34.373549, 31.307944 ], [ 34.36374, 31.363438 ], [ 34.383513, 31.392654 ], [ 34.464547, 31.460774 ], [ 34.478447, 31.477183 ], [ 34.509536, 31.497108 ], [ 34.546456, 31.512653 ], [ 34.56579, 31.535035 ], [ 34.565286, 31.543152 ], [ 34.49086, 31.595874 ], [ 34.569496, 31.699258 ], [ 34.577978, 31.704837 ], [ 34.578627, 31.713364 ], [ 34.640211, 31.815726 ], [ 34.642937, 31.821152 ], [ 34.693113, 31.920964 ], [ 34.706141, 31.936154 ], [ 34.732671, 32.004055 ], [ 34.734526, 32.020662 ], [ 34.744396, 32.048879 ], [ 34.758694, 32.065797 ], [ 34.770456, 32.096145 ], [ 34.784163, 32.120361 ], [ 34.788395, 32.144392 ], [ 34.799575, 32.179109 ], [ 34.801847, 32.202289 ], [ 34.806561, 32.213736 ], [ 34.821371, 32.233251 ], [ 34.830679, 32.275021 ], [ 34.84325, 32.307748 ], [ 34.84802, 32.344435 ], [ 34.866306, 32.400509 ], [ 34.880017, 32.452843 ], [ 34.88609, 32.476011 ], [ 34.888404, 32.502161 ], [ 34.896765, 32.517702 ], [ 34.911835, 32.574344 ], [ 34.918004, 32.605184 ], [ 34.917039, 32.616063 ], [ 34.929078, 32.669048 ], [ 34.928689, 32.698178 ], [ 34.945085, 32.719311 ], [ 34.956387, 32.800331 ], [ 34.95411, 32.817781 ], [ 34.955646, 32.827663 ], [ 34.9738, 32.836128 ], [ 34.991542, 32.837216 ], [ 35.016237, 32.816649 ], [ 35.022377, 32.814862 ], [ 35.044898, 32.826767 ], [ 35.05898, 32.844805 ], [ 35.070874, 32.870577 ], [ 35.080314, 32.901741 ], [ 35.080008, 32.915049 ], [ 35.073346, 32.92106 ], [ 35.06941, 32.919057 ], [ 35.067003, 32.921548 ], [ 35.072065, 32.93589 ], [ 35.077357, 32.972257 ], [ 35.102076, 33.054397 ], [ 35.10559, 33.087856 ], [ 35.103415, 33.093603 ], [ 35.115037, 33.093009 ], [ 35.118575, 33.092679 ], [ 35.122922, 33.092273 ], [ 35.135064, 33.091138 ], [ 35.155694, 33.091527 ], [ 35.155591, 33.086069 ], [ 35.16009, 33.088725 ], [ 35.16912, 33.090897 ], [ 35.172704, 33.093748 ], [ 35.178179, 33.094019 ], [ 35.18566, 33.089642 ], [ 35.19008, 33.089299 ], [ 35.193358, 33.085249 ], [ 35.206778, 33.088324 ], [ 35.208535, 33.090954 ], [ 35.206778, 33.094335 ], [ 35.211772, 33.099845 ], [ 35.226618, 33.098474 ], [ 35.232149, 33.093382 ], [ 35.23895, 33.092297 ], [ 35.270389, 33.100165 ], [ 35.280987, 33.101026 ], [ 35.294278, 33.108018 ], [ 35.29943, 33.104991 ], [ 35.301119, 33.100513 ], [ 35.309349, 33.100801 ], [ 35.317246, 33.104873 ], [ 35.324551, 33.095784 ], [ 35.320842, 33.087801 ], [ 35.325022, 33.082093 ], [ 35.333996, 33.07635 ], [ 35.338769, 33.068041 ], [ 35.3438, 33.065362 ], [ 35.348459, 33.059533 ], [ 35.354362, 33.057353 ], [ 35.378014, 33.055021 ], [ 35.382022, 33.062345 ], [ 35.395829, 33.060891 ], [ 35.430896, 33.065846 ], [ 35.44596, 33.090668 ], [ 35.463442, 33.093033 ], [ 35.471219, 33.09286 ], [ 35.489723, 33.092448 ], [ 35.503563, 33.08957 ], [ 35.5024, 33.113939 ], [ 35.505645, 33.115834 ], [ 35.519889, 33.116278 ], [ 35.52473, 33.123144 ], [ 35.531281, 33.13308 ], [ 35.527126, 33.14085 ], [ 35.541906, 33.197089 ], [ 35.53713, 33.209681 ], [ 35.537618, 33.23112 ], [ 35.545968, 33.238575 ], [ 35.546631, 33.253757 ], [ 35.555331, 33.258837 ], [ 35.563508, 33.272896 ], [ 35.565876, 33.288945 ], [ 35.568923, 33.28979 ], [ 35.583603, 33.282259 ], [ 35.585092, 33.266668 ], [ 35.598903, 33.254275 ], [ 35.624445, 33.24235 ], [ 35.652593, 33.249564 ], [ 35.679684, 33.247218 ], [ 35.68404, 33.243325 ], [ 35.682245, 33.236851 ], [ 35.671619, 33.230672 ], [ 35.667221, 33.224355 ], [ 35.663239, 33.18901 ], [ 35.670127, 33.153498 ], [ 35.653372, 33.123144 ], [ 35.645982, 33.077201 ], [ 35.646299, 33.061227 ], [ 35.630377, 33.015756 ], [ 35.632974, 32.987324 ], [ 35.624706, 32.91866 ], [ 35.626312, 32.911114 ], [ 35.623407, 32.906465 ], [ 35.616143, 32.90346 ], [ 35.614263, 32.897396 ], [ 35.643333, 32.865826 ], [ 35.64951, 32.846425 ], [ 35.648862, 32.84062 ], [ 35.642241, 32.833543 ], [ 35.644903, 32.812064 ], [ 35.65529, 32.807407 ], [ 35.655375, 32.792586 ], [ 35.662158, 32.77714 ], [ 35.649105, 32.714779 ], [ 35.63785, 32.704055 ], [ 35.635678, 32.689369 ], [ 35.647785, 32.682937 ], [ 35.671631, 32.691055 ], [ 35.672223, 32.685479 ], [ 35.665454, 32.68198 ], [ 35.655885, 32.684126 ], [ 35.644868, 32.679429 ], [ 35.635019, 32.684748 ], [ 35.625835, 32.679351 ], [ 35.612866, 32.678377 ], [ 35.600487, 32.668151 ], [ 35.605997, 32.659429 ], [ 35.604516, 32.652662 ], [ 35.594722, 32.649537 ], [ 35.586784, 32.643508 ], [ 35.580791, 32.644349 ], [ 35.574919, 32.642135 ], [ 35.569662, 32.64629 ], [ 35.56475, 32.645482 ], [ 35.567257, 32.640894 ], [ 35.56552, 32.625496 ], [ 35.571965, 32.611577 ], [ 35.56783, 32.59953 ], [ 35.577574, 32.594084 ], [ 35.576764, 32.571009 ], [ 35.571885, 32.564493 ], [ 35.576818, 32.553674 ], [ 35.570096, 32.541187 ], [ 35.56174, 32.542966 ], [ 35.56033, 32.533325 ], [ 35.566069, 32.524713 ], [ 35.555981, 32.520032 ], [ 35.554203, 32.515805 ], [ 35.562304, 32.511147 ], [ 35.563362, 32.503819 ], [ 35.574715, 32.496988 ], [ 35.578779, 32.489503 ], [ 35.56475, 32.476526 ], [ 35.56355, 32.464726 ], [ 35.572087, 32.457914 ], [ 35.568372, 32.452843 ], [ 35.567374, 32.45148 ], [ 35.566174, 32.43819 ], [ 35.557415, 32.432986 ], [ 35.560608, 32.425599 ], [ 35.552984, 32.423484 ], [ 35.559403, 32.403071 ], [ 35.556474, 32.401163 ], [ 35.550595, 32.40235 ], [ 35.548216, 32.399331 ], [ 35.555121, 32.388995 ], [ 35.540384, 32.388256 ], [ 35.494285, 32.401925 ], [ 35.473848, 32.411152 ], [ 35.471219, 32.411288 ], [ 35.453638, 32.412198 ], [ 35.43979, 32.406882 ], [ 35.431425, 32.409019 ], [ 35.41925, 32.417809 ], [ 35.412961, 32.431377 ], [ 35.415472, 32.452843 ], [ 35.416639, 32.46282 ], [ 35.400897, 32.501442 ], [ 35.370772, 32.514815 ], [ 35.355305, 32.51861 ], [ 35.341008, 32.518446 ], [ 35.304649, 32.510124 ], [ 35.278939, 32.513642 ], [ 35.250856, 32.524801 ], [ 35.224388, 32.550681 ], [ 35.201967, 32.539231 ], [ 35.188447, 32.52585 ], [ 35.18004, 32.522786 ], [ 35.159396, 32.505615 ], [ 35.125729, 32.484565 ], [ 35.089809, 32.473801 ], [ 35.068547, 32.452843 ], [ 35.055245, 32.419335 ], [ 35.052697, 32.401854 ], [ 35.042188, 32.38214 ], [ 35.048537, 32.372771 ], [ 35.048778, 32.362875 ], [ 35.039401, 32.347689 ], [ 35.028227, 32.344045 ], [ 35.016131, 32.33341 ], [ 35.010269, 32.282701 ], [ 35.020953, 32.275711 ], [ 35.028472, 32.263348 ], [ 35.019561, 32.236689 ], [ 34.987792, 32.206552 ], [ 34.965008, 32.197267 ], [ 34.958557, 32.187953 ], [ 34.961002, 32.175674 ], [ 34.974067, 32.161246 ], [ 34.976827, 32.152882 ], [ 34.988188, 32.14412 ], [ 34.9858, 32.12776 ], [ 34.991316, 32.109286 ], [ 34.98381, 32.091502 ], [ 34.996508, 32.058783 ], [ 35.003066, 32.026798 ], [ 34.998848, 32.01433 ], [ 34.99416, 31.977619 ], [ 34.980326, 31.959685 ], [ 34.992579, 31.933384 ], [ 35.023422, 31.913783 ], [ 35.028564, 31.895809 ], [ 35.020542, 31.877392 ], [ 35.013952, 31.871706 ], [ 34.961116, 31.85713 ], [ 34.955897, 31.846589 ], [ 34.957177, 31.831938 ], [ 34.963878, 31.820194 ], [ 34.972601, 31.81621 ], [ 35.026225, 31.819524 ], [ 35.039092, 31.825407 ], [ 35.045108, 31.841655 ], [ 35.050009, 31.844105 ], [ 35.127031, 31.82039 ], [ 35.1655, 31.805063 ], [ 35.216604, 31.801284 ], [ 35.225679, 31.78883 ], [ 35.22718, 31.759919 ], [ 35.218768, 31.739243 ], [ 35.208956, 31.748926 ], [ 35.1972, 31.752085 ], [ 35.174986, 31.746723 ], [ 35.131155, 31.746582 ], [ 35.125749, 31.738009 ], [ 35.118937, 31.709556 ], [ 35.051954, 31.676951 ], [ 35.015101, 31.662248 ], [ 34.999785, 31.650193 ], [ 34.957704, 31.589681 ], [ 34.951754, 31.565248 ], [ 34.94637, 31.503724 ], [ 34.898177, 31.433164 ], [ 34.879549, 31.397736 ], [ 34.877357, 31.381818 ], [ 34.885704, 31.37139 ], [ 34.928409, 31.345511 ], [ 34.985488, 31.354055 ], [ 35.029632, 31.357357 ], [ 35.146345, 31.358209 ], [ 35.227782, 31.375214 ], [ 35.245363, 31.381593 ], [ 35.283924, 31.406695 ], [ 35.401342, 31.493748 ], [ 35.426878, 31.49469 ], [ 35.471219, 31.490914 ], [ 35.47596, 31.49051 ] ] ] ] } }
]
}
