{
"type": "FeatureCollection",
"name": "Jamaica",
"crs": { "type": "name", "properties": { "name": "urn:ogc:def:crs:OGC:1.3:CRS84" } },
"features": [
{ "type": "Feature", "properties": { "id": "JM", "CNTR_ID": "JM", "CNTR_NAME": "Jamaica", "NAME_ENGL": "Jamaica", "ISO3_CODE": "JAM", "FID": "JM" }, "geometry": { "type": "MultiPolygon", "coordinates": [ [ [ [ -76.897236, 17.891742 ], [ -76.911825, 17.866017 ], [ -76.928021, 17.850088 ], [ -76.949902, 17.840976 ], [ -76.96088, 17.841619 ], [ -76.973561, 17.849458 ], [ -76.992708, 17.84404 ], [ -77.012937, 17.8518 ], [ -77.037312, 17.849956 ], [ -77.039961, 17.861435 ], [ -77.052158, 17.863294 ], [ -77.076394, 17.883026 ], [ -77.073707, 17.887456 ], [ -77.064807, 17.88953 ], [ -77.040036, 17.868703 ], [ -77.031285, 17.870608 ], [ -77.029965, 17.879166 ], [ -77.034227, 17.888422 ], [ -77.05664, 17.90506 ], [ -77.067725, 17.904596 ], [ -77.076755, 17.908911 ], [ -77.086045, 17.902758 ], [ -77.09989, 17.902172 ], [ -77.120868, 17.895592 ], [ -77.135887, 17.88145 ], [ -77.150174, 17.867467 ], [ -77.161368, 17.839229 ], [ -77.161976, 17.822429 ], [ -77.172279, 17.810932 ], [ -77.171644, 17.803178 ], [ -77.165267, 17.794283 ], [ -77.172014, 17.78601 ], [ -77.170832, 17.780084 ], [ -77.181937, 17.778638 ], [ -77.186923, 17.78796 ], [ -77.191996, 17.78968 ], [ -77.211656, 17.77529 ], [ -77.208026, 17.768725 ], [ -77.172056, 17.761948 ], [ -77.160673, 17.764462 ], [ -77.152923, 17.772514 ], [ -77.144799, 17.770573 ], [ -77.141789, 17.768021 ], [ -77.140854, 17.756485 ], [ -77.135887, 17.751573 ], [ -77.12818, 17.743952 ], [ -77.129382, 17.729193 ], [ -77.135887, 17.723184 ], [ -77.143443, 17.716203 ], [ -77.166174, 17.709564 ], [ -77.178035, 17.710212 ], [ -77.212399, 17.724567 ], [ -77.236853, 17.744539 ], [ -77.248552, 17.750009 ], [ -77.264738, 17.77238 ], [ -77.287752, 17.782753 ], [ -77.298535, 17.796302 ], [ -77.326096, 17.8216 ], [ -77.348659, 17.835598 ], [ -77.374789, 17.843654 ], [ -77.395145, 17.857625 ], [ -77.408862, 17.86318 ], [ -77.44466, 17.863528 ], [ -77.512782, 17.843987 ], [ -77.521824, 17.846388 ], [ -77.551073, 17.864143 ], [ -77.566776, 17.8674 ], [ -77.602938, 17.863009 ], [ -77.6375, 17.865823 ], [ -77.663275, 17.861009 ], [ -77.696609, 17.863932 ], [ -77.738137, 17.857877 ], [ -77.74548, 17.868188 ], [ -77.791957, 17.899288 ], [ -77.803785, 17.925033 ], [ -77.836367, 17.94689 ], [ -77.839383, 17.975445 ], [ -77.833145, 17.999004 ], [ -77.840989, 18.015252 ], [ -77.852282, 18.023604 ], [ -77.877945, 18.032947 ], [ -77.900044, 18.035132 ], [ -77.920126, 18.030288 ], [ -77.941735, 18.037673 ], [ -77.953158, 18.063145 ], [ -77.978872, 18.102665 ], [ -78.003304, 18.112803 ], [ -78.023429, 18.129597 ], [ -78.030312, 18.151261 ], [ -78.030178, 18.170931 ], [ -78.039252, 18.190712 ], [ -78.050555, 18.202333 ], [ -78.075868, 18.211908 ], [ -78.089567, 18.209363 ], [ -78.105929, 18.213972 ], [ -78.136676, 18.209713 ], [ -78.16673, 18.215774 ], [ -78.200692, 18.209186 ], [ -78.228663, 18.197633 ], [ -78.238619, 18.196855 ], [ -78.253776, 18.205629 ], [ -78.26767, 18.22013 ], [ -78.279824, 18.22289 ], [ -78.303672, 18.222955 ], [ -78.351651, 18.240519 ], [ -78.363445, 18.254606 ], [ -78.366726, 18.265956 ], [ -78.360107, 18.276867 ], [ -78.346528, 18.283362 ], [ -78.340678, 18.293756 ], [ -78.337294, 18.324218 ], [ -78.340985, 18.338319 ], [ -78.336371, 18.34816 ], [ -78.34136, 18.358478 ], [ -78.338493, 18.364325 ], [ -78.324913, 18.370216 ], [ -78.317541, 18.364769 ], [ -78.312302, 18.365092 ], [ -78.293225, 18.394434 ], [ -78.269787, 18.393042 ], [ -78.267598, 18.409947 ], [ -78.251646, 18.417536 ], [ -78.248675, 18.421884 ], [ -78.238431, 18.436874 ], [ -78.213329, 18.453505 ], [ -78.184866, 18.455483 ], [ -78.173105, 18.453834 ], [ -78.167567, 18.44332 ], [ -78.161512, 18.439706 ], [ -78.156096, 18.443146 ], [ -78.151606, 18.45681 ], [ -78.139589, 18.461064 ], [ -78.115723, 18.456309 ], [ -78.108478, 18.452109 ], [ -78.096745, 18.450876 ], [ -78.091546, 18.450329 ], [ -78.027647, 18.454659 ], [ -78.007732, 18.46015 ], [ -77.989691, 18.450966 ], [ -77.972455, 18.451473 ], [ -77.939288, 18.445666 ], [ -77.939094, 18.449706 ], [ -77.934238, 18.452818 ], [ -77.938542, 18.459361 ], [ -77.92787, 18.467965 ], [ -77.929095, 18.483842 ], [ -77.919986, 18.501956 ], [ -77.885959, 18.5184 ], [ -77.84932, 18.524005 ], [ -77.822983, 18.524355 ], [ -77.723662, 18.509406 ], [ -77.686592, 18.490214 ], [ -77.682522, 18.491918 ], [ -77.681485, 18.496427 ], [ -77.658443, 18.496437 ], [ -77.636968, 18.484025 ], [ -77.629961, 18.486052 ], [ -77.634153, 18.490614 ], [ -77.63179, 18.492263 ], [ -77.60548, 18.485507 ], [ -77.581503, 18.49005 ], [ -77.552823, 18.49116 ], [ -77.523282, 18.483997 ], [ -77.470607, 18.481023 ], [ -77.455017, 18.472995 ], [ -77.445603, 18.47796 ], [ -77.435002, 18.47799 ], [ -77.42082, 18.472131 ], [ -77.412955, 18.463877 ], [ -77.407126, 18.461609 ], [ -77.395733, 18.46981 ], [ -77.376067, 18.468595 ], [ -77.354552, 18.461988 ], [ -77.326648, 18.465016 ], [ -77.310314, 18.471559 ], [ -77.273618, 18.466686 ], [ -77.234228, 18.457036 ], [ -77.219116, 18.446988 ], [ -77.204178, 18.441247 ], [ -77.179014, 18.441917 ], [ -77.156435, 18.426176 ], [ -77.145192, 18.421884 ], [ -77.135887, 18.418332 ], [ -77.11131, 18.409984 ], [ -77.079279, 18.414052 ], [ -77.045406, 18.421884 ], [ -77.041918, 18.421884 ], [ -77.025707, 18.419106 ], [ -77.010933, 18.411892 ], [ -76.958965, 18.403859 ], [ -76.934006, 18.414013 ], [ -76.901898, 18.412527 ], [ -76.897236, 18.409023 ], [ -76.890573, 18.404013 ], [ -76.892743, 18.386953 ], [ -76.888671, 18.374728 ], [ -76.871209, 18.368466 ], [ -76.832021, 18.341374 ], [ -76.809297, 18.330211 ], [ -76.805864, 18.323234 ], [ -76.805556, 18.311031 ], [ -76.795332, 18.297854 ], [ -76.788549, 18.282744 ], [ -76.780682, 18.275241 ], [ -76.751885, 18.277273 ], [ -76.748873, 18.276103 ], [ -76.724911, 18.266795 ], [ -76.707486, 18.269692 ], [ -76.689883, 18.266594 ], [ -76.673157, 18.255901 ], [ -76.658997, 18.239095 ], [ -76.644127, 18.229644 ], [ -76.616871, 18.228585 ], [ -76.597051, 18.231071 ], [ -76.574792, 18.20924 ], [ -76.557587, 18.202937 ], [ -76.536482, 18.2045 ], [ -76.519305, 18.198735 ], [ -76.500983, 18.205223 ], [ -76.486162, 18.205407 ], [ -76.464865, 18.186838 ], [ -76.454422, 18.186759 ], [ -76.448353, 18.180737 ], [ -76.433331, 18.185028 ], [ -76.418118, 18.177285 ], [ -76.37329, 18.171715 ], [ -76.360662, 18.166715 ], [ -76.34994, 18.155578 ], [ -76.336298, 18.149965 ], [ -76.330137, 18.131964 ], [ -76.319346, 18.120833 ], [ -76.313611, 18.102411 ], [ -76.287863, 18.069612 ], [ -76.275761, 18.04806 ], [ -76.276149, 18.036431 ], [ -76.268506, 18.014743 ], [ -76.234973, 17.974319 ], [ -76.235133, 17.954678 ], [ -76.232516, 17.946115 ], [ -76.220143, 17.936496 ], [ -76.199487, 17.931658 ], [ -76.185884, 17.913588 ], [ -76.193042, 17.90421 ], [ -76.217518, 17.90423 ], [ -76.234586, 17.893939 ], [ -76.251186, 17.889349 ], [ -76.261382, 17.883546 ], [ -76.282071, 17.882032 ], [ -76.307628, 17.871125 ], [ -76.316692, 17.87342 ], [ -76.317944, 17.885182 ], [ -76.323966, 17.887817 ], [ -76.331917, 17.882423 ], [ -76.336121, 17.868609 ], [ -76.344449, 17.863645 ], [ -76.406026, 17.879187 ], [ -76.434503, 17.872807 ], [ -76.486788, 17.867994 ], [ -76.511513, 17.855519 ], [ -76.529052, 17.852736 ], [ -76.559699, 17.869977 ], [ -76.571448, 17.871839 ], [ -76.595224, 17.869677 ], [ -76.605872, 17.873064 ], [ -76.614653, 17.881475 ], [ -76.63106, 17.90793 ], [ -76.660562, 17.933565 ], [ -76.703188, 17.946949 ], [ -76.71908, 17.948464 ], [ -76.741697, 17.966237 ], [ -76.748873, 17.96627 ], [ -76.800199, 17.966505 ], [ -76.831685, 17.982005 ], [ -76.870465, 17.951379 ], [ -76.878181, 17.923029 ], [ -76.892195, 17.917972 ], [ -76.891115, 17.902535 ], [ -76.897236, 17.891742 ] ] ], [ [ [ -76.800726, 17.936451 ], [ -76.798212, 17.94162 ], [ -76.783796, 17.937032 ], [ -76.779783, 17.942795 ], [ -76.77288, 17.946354 ], [ -76.760847, 17.943089 ], [ -76.778835, 17.92907 ], [ -76.782905, 17.929121 ], [ -76.78665, 17.933586 ], [ -76.79204, 17.932309 ], [ -76.796687, 17.936663 ], [ -76.798212, 17.934689 ], [ -76.800726, 17.936451 ] ] ], [ [ [ -76.84642, 17.933431 ], [ -76.84346, 17.936637 ], [ -76.843047, 17.939272 ], [ -76.835681, 17.942429 ], [ -76.831549, 17.941122 ], [ -76.829269, 17.943469 ], [ -76.834713, 17.945985 ], [ -76.83087, 17.94861 ], [ -76.827971, 17.94768 ], [ -76.824251, 17.943034 ], [ -76.81811, 17.941226 ], [ -76.81132, 17.940682 ], [ -76.808761, 17.937663 ], [ -76.818536, 17.93662 ], [ -76.832818, 17.938966 ], [ -76.837067, 17.937937 ], [ -76.840416, 17.932233 ], [ -76.84642, 17.933431 ] ] ], [ [ [ -77.950612, 18.45878 ], [ -77.942308, 18.467412 ], [ -77.937612, 18.465795 ], [ -77.944807, 18.461197 ], [ -77.948026, 18.457856 ], [ -77.950612, 18.45878 ] ] ], [ [ [ -77.146996, 17.818672 ], [ -77.141023, 17.818299 ], [ -77.140567, 17.813848 ], [ -77.145478, 17.813271 ], [ -77.146996, 17.818672 ] ] ], [ [ [ -77.168317, 17.769915 ], [ -77.166687, 17.770988 ], [ -77.160405, 17.768523 ], [ -77.16067, 17.767105 ], [ -77.165372, 17.766731 ], [ -77.168317, 17.769915 ] ] ], [ [ [ -77.159959, 17.826548 ], [ -77.154704, 17.829746 ], [ -77.153642, 17.825795 ], [ -77.157937, 17.82405 ], [ -77.159959, 17.826548 ] ] ], [ [ [ -77.141001, 17.829327 ], [ -77.136771, 17.833894 ], [ -77.135862, 17.831756 ], [ -77.135862, 17.829568 ], [ -77.137787, 17.826759 ], [ -77.141001, 17.829327 ] ] ], [ [ [ -76.808958, 17.936163 ], [ -76.803096, 17.937884 ], [ -76.801414, 17.936035 ], [ -76.80661, 17.932856 ], [ -76.808958, 17.936163 ] ] ] ] } }
]
}
