{
"type": "FeatureCollection",
"name": "Jammu Kashmir",
"crs": { "type": "name", "properties": { "name": "urn:ogc:def:crs:OGC:1.3:CRS84" } },
"features": [
{ "type": "Feature", "properties": { "id": "XH", "CNTR_ID": "XH", "CNTR_NAME": "Jammu Kashmir (Disputed Territory)", "NAME_ENGL": "Jammu Kashmir", "ISO3_CODE": "XH", "FID": "XH" }, "geometry": { "type": "MultiPolygon", "coordinates": [ [ [ [ 74.564626, 37.030852 ], [ 74.61323, 37.04388 ], [ 74.622953, 37.053342 ], [ 74.626337, 37.062853 ], [ 74.630838, 37.067085 ], [ 74.671103, 37.077666 ], [ 74.689813, 37.087842 ], [ 74.698423, 37.089058 ], [ 74.705685, 37.084769 ], [ 74.711714, 37.070452 ], [ 74.71895, 37.063897 ], [ 74.718082, 37.050114 ], [ 74.720984, 37.044478 ], [ 74.731177, 37.032711 ], [ 74.738929, 37.027819 ], [ 74.76207, 37.025829 ], [ 74.788684, 37.028052 ], [ 74.792656, 37.032113 ], [ 74.793137, 37.044786 ], [ 74.803405, 37.053847 ], [ 74.843834, 37.056428 ], [ 74.845443, 37.043555 ], [ 74.840338, 37.021556 ], [ 74.841496, 37.014573 ], [ 74.866592, 36.991564 ], [ 74.89136, 36.940371 ], [ 74.900456, 36.934865 ], [ 74.915423, 36.935862 ], [ 74.921185, 36.944721 ], [ 74.93562, 36.945045 ], [ 74.935887, 36.950909 ], [ 74.924964, 36.97541 ], [ 74.926173, 36.979169 ], [ 74.933842, 36.983562 ], [ 74.966442, 36.991166 ], [ 74.976135, 36.995443 ], [ 75.002368, 36.99527 ], [ 75.029824, 37.01667 ], [ 75.040249, 37.015881 ], [ 75.060363, 37.006597 ], [ 75.071578, 37.005881 ], [ 75.091992, 37.011091 ], [ 75.127029, 37.011546 ], [ 75.132972, 37.023036 ], [ 75.143972, 37.02572 ], [ 75.167919, 37.01407 ], [ 75.16567, 36.993597 ], [ 75.169983, 36.98905 ], [ 75.203598, 36.976712 ], [ 75.21856, 36.973707 ], [ 75.234856, 36.965062 ], [ 75.243137, 36.965113 ], [ 75.250578, 36.965159 ], [ 75.26861, 36.971273 ], [ 75.287777, 36.974648 ], [ 75.31311, 36.971238 ], [ 75.341806, 36.961743 ], [ 75.360664, 36.960517 ], [ 75.376776, 36.955576 ], [ 75.404337, 36.956353 ], [ 75.412305, 36.951462 ], [ 75.414034, 36.93985 ], [ 75.409349, 36.935273 ], [ 75.395923, 36.930436 ], [ 75.391265, 36.920183 ], [ 75.392074, 36.909257 ], [ 75.394515, 36.903582 ], [ 75.410259, 36.894168 ], [ 75.419487, 36.885394 ], [ 75.426581, 36.873343 ], [ 75.431039, 36.833828 ], [ 75.420607, 36.799915 ], [ 75.420675, 36.785587 ], [ 75.435876, 36.759241 ], [ 75.442434, 36.741321 ], [ 75.455185, 36.72204 ], [ 75.469154, 36.722323 ], [ 75.486548, 36.738578 ], [ 75.50049, 36.743393 ], [ 75.514137, 36.729581 ], [ 75.522031, 36.726511 ], [ 75.530833, 36.7285 ], [ 75.533617, 36.73175 ], [ 75.531249, 36.753144 ], [ 75.535476, 36.773028 ], [ 75.568315, 36.770425 ], [ 75.586512, 36.76377 ], [ 75.629542, 36.771843 ], [ 75.644432, 36.771547 ], [ 75.678351, 36.76225 ], [ 75.701543, 36.74703 ], [ 75.721219, 36.750475 ], [ 75.740676, 36.742274 ], [ 75.76195, 36.725763 ], [ 75.774629, 36.722265 ], [ 75.809733, 36.698217 ], [ 75.825725, 36.692051 ], [ 75.841993, 36.680891 ], [ 75.855278, 36.671775 ], [ 75.869362, 36.657677 ], [ 75.888514, 36.6385 ], [ 75.909431, 36.625829 ], [ 75.939772, 36.599956 ], [ 75.931226, 36.581778 ], [ 75.931974, 36.570979 ], [ 75.950342, 36.551065 ], [ 75.96093, 36.52369 ], [ 75.982388, 36.503648 ], [ 75.996315, 36.494907 ], [ 75.997343, 36.479182 ], [ 76.010676, 36.473265 ], [ 76.007776, 36.455653 ], [ 76.024598, 36.43144 ], [ 76.031323, 36.408142 ], [ 76.025264, 36.39268 ], [ 76.008234, 36.383853 ], [ 75.989195, 36.353832 ], [ 75.987975, 36.33442 ], [ 75.996089, 36.31329 ], [ 76.020249, 36.294042 ], [ 76.025648, 36.286058 ], [ 76.028638, 36.27046 ], [ 76.052519, 36.252528 ], [ 76.061463, 36.232831 ], [ 76.058978, 36.227324 ], [ 76.054637, 36.225689 ], [ 76.019777, 36.235176 ], [ 76.010584, 36.230939 ], [ 76.009175, 36.220034 ], [ 76.012988, 36.166902 ], [ 75.993567, 36.162341 ], [ 75.975684, 36.162551 ], [ 75.968485, 36.160502 ], [ 75.966215, 36.158671 ], [ 75.970906, 36.150252 ], [ 75.969429, 36.147417 ], [ 75.960043, 36.141589 ], [ 75.940741, 36.1386 ], [ 75.933995, 36.135077 ], [ 75.932563, 36.127455 ], [ 75.945504, 36.116852 ], [ 75.941621, 36.105025 ], [ 75.942936, 36.095488 ], [ 75.953534, 36.079791 ], [ 75.948099, 36.071386 ], [ 75.954197, 36.068332 ], [ 75.956607, 36.0563 ], [ 75.967335, 36.04187 ], [ 75.982462, 36.030908 ], [ 76.010101, 36.019413 ], [ 76.023943, 36.017686 ], [ 76.044008, 36.027244 ], [ 76.089846, 36.023676 ], [ 76.10013, 36.019504 ], [ 76.10036, 36.000121 ], [ 76.104916, 35.988684 ], [ 76.149869, 35.935318 ], [ 76.160262, 35.91579 ], [ 76.16096, 35.904806 ], [ 76.158949, 35.899316 ], [ 76.154273, 35.885677 ], [ 76.156115, 35.863527 ], [ 76.14447, 35.837387 ], [ 76.146368, 35.833023 ], [ 76.15541, 35.826765 ], [ 76.172571, 35.823113 ], [ 76.215608, 35.824237 ], [ 76.222516, 35.82761 ], [ 76.229738, 35.837966 ], [ 76.261893, 35.837888 ], [ 76.290119, 35.841921 ], [ 76.327392, 35.830289 ], [ 76.360748, 35.825849 ], [ 76.362915, 35.830296 ], [ 76.356277, 35.851823 ], [ 76.358203, 35.857793 ], [ 76.363823, 35.861812 ], [ 76.402787, 35.852516 ], [ 76.425841, 35.852074 ], [ 76.44117, 35.861098 ], [ 76.469262, 35.8861 ], [ 76.488375, 35.88936 ], [ 76.5137, 35.883216 ], [ 76.538908, 35.899316 ], [ 76.547811, 35.920506 ], [ 76.556188, 35.923759 ], [ 76.571492, 35.921982 ], [ 76.585453, 35.914119 ], [ 76.592876, 35.899316 ], [ 76.594324, 35.896428 ], [ 76.577732, 35.868896 ], [ 76.584494, 35.8408 ], [ 76.564453, 35.819271 ], [ 76.569567, 35.806443 ], [ 76.578896, 35.79587 ], [ 76.591787, 35.77307 ], [ 76.617703, 35.762417 ], [ 76.628516, 35.765365 ], [ 76.641534, 35.7656 ], [ 76.655995, 35.755486 ], [ 76.689877, 35.748202 ], [ 76.694583, 35.740083 ], [ 76.696509, 35.723439 ], [ 76.716628, 35.713509 ], [ 76.743294, 35.68742 ], [ 76.749288, 35.680208 ], [ 76.759684, 35.6568 ], [ 76.767535, 35.655152 ], [ 76.788933, 35.656917 ], [ 76.833051, 35.663047 ], [ 76.846815, 35.668146 ], [ 76.86182, 35.65104 ], [ 76.904509, 35.615697 ], [ 76.955412, 35.593867 ], [ 76.96475, 35.59302 ], [ 76.97829, 35.596753 ], [ 76.998062, 35.611718 ], [ 77.006786, 35.610946 ], [ 77.02723, 35.60113 ], [ 77.060115, 35.596642 ], [ 77.069387, 35.591494 ], [ 77.091379, 35.569871 ], [ 77.127554, 35.556161 ], [ 77.129709, 35.554693 ], [ 77.150468, 35.540555 ], [ 77.193525, 35.520262 ], [ 77.210189, 35.520468 ], [ 77.265356, 35.53505 ], [ 77.306355, 35.540614 ], [ 77.331785, 35.528362 ], [ 77.344509, 35.501853 ], [ 77.350438, 35.496511 ], [ 77.368736, 35.495826 ], [ 77.374077, 35.493252 ], [ 77.376856, 35.478983 ], [ 77.384662, 35.472538 ], [ 77.394863, 35.468791 ], [ 77.417419, 35.469596 ], [ 77.439832, 35.461821 ], [ 77.449204, 35.461809 ], [ 77.473633, 35.473872 ], [ 77.499088, 35.48101 ], [ 77.515606, 35.482676 ], [ 77.527656, 35.47812 ], [ 77.538379, 35.482166 ], [ 77.576986, 35.476032 ], [ 77.581779, 35.47195 ], [ 77.586437, 35.461826 ], [ 77.595139, 35.464228 ], [ 77.597543, 35.464891 ], [ 77.610617, 35.464307 ], [ 77.63667, 35.456717 ], [ 77.640616, 35.459831 ], [ 77.640008, 35.474627 ], [ 77.648756, 35.47907 ], [ 77.655616, 35.47787 ], [ 77.664133, 35.472561 ], [ 77.690067, 35.449611 ], [ 77.700958, 35.457335 ], [ 77.731122, 35.461193 ], [ 77.733419, 35.478761 ], [ 77.738088, 35.484951 ], [ 77.755189, 35.497519 ], [ 77.792515, 35.492653 ], [ 77.798602, 35.493773 ], [ 77.805453, 35.513317 ], [ 77.813812, 35.518645 ], [ 77.853262, 35.489619 ], [ 77.861244, 35.496244 ], [ 77.868785, 35.495546 ], [ 77.886496, 35.477283 ], [ 77.90469, 35.465861 ], [ 77.911529, 35.4663 ], [ 77.913726, 35.468608 ], [ 77.916155, 35.492347 ], [ 77.92435, 35.49361 ], [ 77.939995, 35.483547 ], [ 77.952005, 35.479632 ], [ 77.962427, 35.48109 ], [ 77.972834, 35.488684 ], [ 77.990596, 35.488895 ], [ 78.00638, 35.492087 ], [ 78.024809, 35.4724 ], [ 78.032267, 35.46923 ], [ 78.038495, 35.474858 ], [ 78.047071, 35.491736 ], [ 78.064186, 35.491874 ], [ 78.078486, 35.494367 ], [ 78.097382, 35.497662 ], [ 78.134455, 35.495376 ], [ 78.111221, 35.466987 ], [ 78.103508, 35.437368 ], [ 78.078486, 35.422834 ], [ 78.075271, 35.420967 ], [ 78.052606, 35.399803 ], [ 78.042814, 35.384353 ], [ 78.01143, 35.366376 ], [ 78.015791, 35.350158 ], [ 78.018578, 35.316533 ], [ 78.012062, 35.238132 ], [ 78.016762, 35.226687 ], [ 78.048096, 35.196743 ], [ 78.056818, 35.182877 ], [ 78.060102, 35.116951 ], [ 78.062778, 35.110069 ], [ 78.076662, 35.101423 ], [ 78.078486, 35.101736 ], [ 78.120409, 35.108924 ], [ 78.129756, 35.105814 ], [ 78.14143, 35.091634 ], [ 78.147789, 35.070858 ], [ 78.137656, 35.055559 ], [ 78.12299, 35.045755 ], [ 78.121375, 35.037061 ], [ 78.157767, 34.992844 ], [ 78.188794, 34.983509 ], [ 78.199528, 34.974787 ], [ 78.200833, 34.957448 ], [ 78.195154, 34.949486 ], [ 78.180564, 34.938742 ], [ 78.180372, 34.928374 ], [ 78.199581, 34.915193 ], [ 78.205731, 34.892265 ], [ 78.228428, 34.887609 ], [ 78.235494, 34.880793 ], [ 78.229144, 34.779761 ], [ 78.224224, 34.772096 ], [ 78.211903, 34.761478 ], [ 78.207791, 34.753348 ], [ 78.205722, 34.729561 ], [ 78.213362, 34.718569 ], [ 78.256581, 34.711726 ], [ 78.265553, 34.70569 ], [ 78.273357, 34.691398 ], [ 78.27431, 34.680645 ], [ 78.263746, 34.65692 ], [ 78.267361, 34.635888 ], [ 78.283018, 34.622718 ], [ 78.336358, 34.60734 ], [ 78.34686, 34.605688 ], [ 78.393245, 34.607004 ], [ 78.414805, 34.599403 ], [ 78.423387, 34.596376 ], [ 78.429287, 34.587131 ], [ 78.431472, 34.551849 ], [ 78.436733, 34.544369 ], [ 78.442746, 34.545359 ], [ 78.450299, 34.550882 ], [ 78.456952, 34.564425 ], [ 78.461683, 34.56863 ], [ 78.489799, 34.579517 ], [ 78.508127, 34.579568 ], [ 78.540664, 34.576176 ], [ 78.554129, 34.56468 ], [ 78.559295, 34.552353 ], [ 78.558555, 34.529699 ], [ 78.561014, 34.516568 ], [ 78.571989, 34.509167 ], [ 78.581925, 34.508548 ], [ 78.599585, 34.529395 ], [ 78.610008, 34.535964 ], [ 78.620149, 34.538606 ], [ 78.635654, 34.53887 ], [ 78.64813, 34.539083 ], [ 78.706881, 34.523246 ], [ 78.716749, 34.500987 ], [ 78.729282, 34.49348 ], [ 78.749724, 34.488178 ], [ 78.756021, 34.483192 ], [ 78.755322, 34.471329 ], [ 78.742707, 34.458379 ], [ 78.743109, 34.454558 ], [ 78.761202, 34.442666 ], [ 78.77051, 34.441124 ], [ 78.782815, 34.442583 ], [ 78.797105, 34.439161 ], [ 78.809077, 34.433626 ], [ 78.826946, 34.419673 ], [ 78.85274, 34.413952 ], [ 78.867779, 34.406014 ], [ 78.875875, 34.393616 ], [ 78.873299, 34.377615 ], [ 78.875487, 34.371033 ], [ 78.880628, 34.363887 ], [ 78.888844, 34.359027 ], [ 78.897335, 34.357457 ], [ 78.908046, 34.360221 ], [ 78.941038, 34.382563 ], [ 78.955917, 34.38783 ], [ 78.963062, 34.382461 ], [ 78.973861, 34.363026 ], [ 79.014348, 34.342756 ], [ 79.036791, 34.336102 ], [ 79.042912, 34.328077 ], [ 79.041224, 34.323596 ], [ 79.026338, 34.315708 ], [ 78.982078, 34.320168 ], [ 78.975263, 34.315549 ], [ 78.974113, 34.288416 ], [ 78.956417, 34.234168 ], [ 78.939599, 34.214573 ], [ 78.927455, 34.182089 ], [ 78.923857, 34.158059 ], [ 78.914757, 34.148527 ], [ 78.908052, 34.145531 ], [ 78.90241, 34.146321 ], [ 78.885614, 34.153849 ], [ 78.876304, 34.164451 ], [ 78.86917, 34.1654 ], [ 78.863157, 34.161052 ], [ 78.85479, 34.144823 ], [ 78.841447, 34.141842 ], [ 78.832742, 34.128421 ], [ 78.826142, 34.128117 ], [ 78.805903, 34.137566 ], [ 78.798703, 34.138191 ], [ 78.789288, 34.132253 ], [ 78.756988, 34.100537 ], [ 78.747494, 34.094629 ], [ 78.73304, 34.091694 ], [ 78.700208, 34.091868 ], [ 78.684255, 34.084365 ], [ 78.671892, 34.091795 ], [ 78.665537, 34.09201 ], [ 78.66041, 34.088994 ], [ 78.657207, 34.07774 ], [ 78.663098, 34.067582 ], [ 78.651245, 34.051521 ], [ 78.650999, 34.038704 ], [ 78.653544, 34.033844 ], [ 78.674052, 34.02424 ], [ 78.700716, 34.020576 ], [ 78.735846, 34.000083 ], [ 78.743379, 33.984749 ], [ 78.732946, 33.923045 ], [ 78.738523, 33.918745 ], [ 78.759494, 33.911566 ], [ 78.763282, 33.906922 ], [ 78.763251, 33.894609 ], [ 78.754822, 33.879754 ], [ 78.765366, 33.840292 ], [ 78.756302, 33.79131 ], [ 78.764436, 33.76487 ], [ 78.778111, 33.738205 ], [ 78.761416, 33.724535 ], [ 78.690144, 33.678309 ], [ 78.683666, 33.669505 ], [ 78.683589, 33.65623 ], [ 78.693647, 33.642168 ], [ 78.711756, 33.62509 ], [ 78.723275, 33.622809 ], [ 78.754909, 33.622711 ], [ 78.737978, 33.580768 ], [ 78.738835, 33.558166 ], [ 78.770039, 33.521062 ], [ 78.813453, 33.484813 ], [ 78.816392, 33.464852 ], [ 78.831951, 33.448315 ], [ 78.839847, 33.427862 ], [ 78.846183, 33.423429 ], [ 78.859685, 33.419398 ], [ 78.894324, 33.414511 ], [ 78.927778, 33.388407 ], [ 78.94793, 33.37869 ], [ 78.954358, 33.367035 ], [ 78.960531, 33.345688 ], [ 78.969335, 33.333373 ], [ 78.976264, 33.328716 ], [ 78.98597, 33.32634 ], [ 79.00793, 33.327744 ], [ 79.019393, 33.325506 ], [ 79.033648, 33.31298 ], [ 79.040215, 33.269931 ], [ 79.050727, 33.261257 ], [ 79.08034, 33.248985 ], [ 79.070565, 33.235102 ], [ 79.070662, 33.230284 ], [ 79.076122, 33.223842 ], [ 79.107977, 33.202173 ], [ 79.118127, 33.198078 ], [ 79.132155, 33.197761 ], [ 79.14666, 33.18827 ], [ 79.155444, 33.180251 ], [ 79.159191, 33.168353 ], [ 79.143303, 33.145681 ], [ 79.137496, 33.119205 ], [ 79.164729, 33.012792 ], [ 79.17558, 33.002574 ], [ 79.180598, 32.989577 ], [ 79.193802, 32.986724 ], [ 79.206397, 32.97757 ], [ 79.209808, 32.969708 ], [ 79.237193, 32.95919 ], [ 79.24782, 32.951151 ], [ 79.251287, 32.944355 ], [ 79.25024, 32.937538 ], [ 79.230638, 32.899829 ], [ 79.233396, 32.873406 ], [ 79.23051, 32.824736 ], [ 79.224878, 32.80476 ], [ 79.225006, 32.791258 ], [ 79.229455, 32.786559 ], [ 79.260034, 32.78897 ], [ 79.271688, 32.782313 ], [ 79.282003, 32.757925 ], [ 79.29946, 32.728852 ], [ 79.298573, 32.722872 ], [ 79.284803, 32.713324 ], [ 79.28524, 32.693364 ], [ 79.273967, 32.686046 ], [ 79.271388, 32.679672 ], [ 79.274489, 32.667926 ], [ 79.281834, 32.655255 ], [ 79.296777, 32.639755 ], [ 79.298337, 32.625335 ], [ 79.305727, 32.611069 ], [ 79.306901, 32.601692 ], [ 79.294806, 32.597911 ], [ 79.272656, 32.566969 ], [ 79.273144, 32.545941 ], [ 79.259015, 32.53269 ], [ 79.25368, 32.52334 ], [ 79.242906, 32.516773 ], [ 79.224805, 32.521325 ], [ 79.215701, 32.510334 ], [ 79.18984, 32.513839 ], [ 79.17814, 32.496105 ], [ 79.158043, 32.49019 ], [ 79.133674, 32.474151 ], [ 79.119938, 32.451329 ], [ 79.122248, 32.419379 ], [ 79.108062, 32.406758 ], [ 79.103796, 32.399036 ], [ 79.103034, 32.378072 ], [ 79.100509, 32.373278 ], [ 79.089267, 32.373057 ], [ 79.06244, 32.383493 ], [ 79.004502, 32.377672 ], [ 78.988981, 32.367646 ], [ 78.97538, 32.346867 ], [ 78.972019, 32.336389 ], [ 78.969135, 32.335242 ], [ 78.945189, 32.351538 ], [ 78.907444, 32.371916 ], [ 78.897615, 32.392392 ], [ 78.885033, 32.396461 ], [ 78.867472, 32.409643 ], [ 78.844143, 32.41265 ], [ 78.828767, 32.426547 ], [ 78.814696, 32.432773 ], [ 78.80829, 32.439998 ], [ 78.793344, 32.469736 ], [ 78.780967, 32.48323 ], [ 78.778688, 32.507097 ], [ 78.762849, 32.547752 ], [ 78.75873, 32.566035 ], [ 78.762171, 32.575031 ], [ 78.778045, 32.596302 ], [ 78.779162, 32.609691 ], [ 78.741361, 32.656376 ], [ 78.745678, 32.685006 ], [ 78.739069, 32.705426 ], [ 78.730754, 32.706689 ], [ 78.723118, 32.704023 ], [ 78.706996, 32.687834 ], [ 78.696744, 32.682829 ], [ 78.684718, 32.682276 ], [ 78.672916, 32.661883 ], [ 78.647769, 32.652061 ], [ 78.635654, 32.641626 ], [ 78.626173, 32.633459 ], [ 78.609907, 32.631123 ], [ 78.580186, 32.635628 ], [ 78.576372, 32.618964 ], [ 78.559978, 32.618177 ], [ 78.553934, 32.618329 ], [ 78.542142, 32.609993 ], [ 78.530102, 32.611108 ], [ 78.517449, 32.608764 ], [ 78.498507, 32.584644 ], [ 78.482979, 32.577348 ], [ 78.461458, 32.578207 ], [ 78.420929, 32.567242 ], [ 78.414805, 32.560395 ], [ 78.394311, 32.537483 ], [ 78.393958, 32.531136 ], [ 78.39912, 32.52108 ], [ 78.380691, 32.503424 ], [ 78.372023, 32.485417 ], [ 78.348152, 32.471853 ], [ 78.334827, 32.443403 ], [ 78.32815, 32.436559 ], [ 78.315976, 32.438076 ], [ 78.284168, 32.461649 ], [ 78.281983, 32.473823 ], [ 78.294704, 32.508519 ], [ 78.300357, 32.547573 ], [ 78.306881, 32.561582 ], [ 78.321997, 32.572853 ], [ 78.393817, 32.605207 ], [ 78.406162, 32.613334 ], [ 78.404473, 32.619619 ], [ 78.393363, 32.623869 ], [ 78.38875, 32.628368 ], [ 78.384164, 32.642321 ], [ 78.386174, 32.662806 ], [ 78.40274, 32.702012 ], [ 78.393108, 32.721834 ], [ 78.391214, 32.737296 ], [ 78.387175, 32.743804 ], [ 78.381629, 32.746416 ], [ 78.370354, 32.746175 ], [ 78.31652, 32.734804 ], [ 78.308213, 32.727737 ], [ 78.292474, 32.702396 ], [ 78.283675, 32.697442 ], [ 78.267155, 32.697672 ], [ 78.253789, 32.693643 ], [ 78.247111, 32.687991 ], [ 78.235719, 32.668671 ], [ 78.223703, 32.660672 ], [ 78.212675, 32.658735 ], [ 78.202135, 32.660135 ], [ 78.172284, 32.678535 ], [ 78.158125, 32.681185 ], [ 78.140729, 32.670693 ], [ 78.140079, 32.642195 ], [ 78.134846, 32.636681 ], [ 78.122121, 32.636322 ], [ 78.109492, 32.647214 ], [ 78.10535, 32.647813 ], [ 78.086863, 32.637379 ], [ 78.078486, 32.637227 ], [ 78.07496, 32.637163 ], [ 78.059716, 32.641285 ], [ 78.052782, 32.640157 ], [ 78.03689, 32.632313 ], [ 78.019298, 32.61879 ], [ 78.003784, 32.618798 ], [ 77.993855, 32.625818 ], [ 77.962805, 32.664003 ], [ 77.919185, 32.693149 ], [ 77.918946, 32.703875 ], [ 77.927906, 32.7189 ], [ 77.924746, 32.743737 ], [ 77.920282, 32.748095 ], [ 77.909413, 32.749635 ], [ 77.90433, 32.75358 ], [ 77.883823, 32.792473 ], [ 77.859213, 32.811273 ], [ 77.830743, 32.852559 ], [ 77.801729, 32.882582 ], [ 77.790803, 32.937844 ], [ 77.780761, 32.967278 ], [ 77.771083, 32.979504 ], [ 77.747512, 32.979536 ], [ 77.730919, 32.971775 ], [ 77.67776, 32.917083 ], [ 77.648573, 32.892605 ], [ 77.63713, 32.887266 ], [ 77.611552, 32.882695 ], [ 77.595139, 32.883402 ], [ 77.542832, 32.885656 ], [ 77.52542, 32.880851 ], [ 77.487613, 32.840216 ], [ 77.467819, 32.825873 ], [ 77.453453, 32.823706 ], [ 77.428851, 32.831135 ], [ 77.411177, 32.833678 ], [ 77.359401, 32.829109 ], [ 77.327806, 32.830343 ], [ 77.279549, 32.84009 ], [ 77.209639, 32.863376 ], [ 77.143616, 32.889255 ], [ 77.103616, 32.908355 ], [ 77.011684, 32.962077 ], [ 76.985123, 32.979985 ], [ 76.972558, 32.994573 ], [ 76.94868, 33.054081 ], [ 76.933321, 33.060423 ], [ 76.912873, 33.064116 ], [ 76.890015, 33.071598 ], [ 76.869565, 33.081001 ], [ 76.855864, 33.090708 ], [ 76.843372, 33.104651 ], [ 76.83034, 33.139952 ], [ 76.822433, 33.147113 ], [ 76.783102, 33.159126 ], [ 76.771349, 33.160327 ], [ 76.755514, 33.157803 ], [ 76.714776, 33.143356 ], [ 76.679604, 33.136099 ], [ 76.66495, 33.139934 ], [ 76.642217, 33.159631 ], [ 76.625585, 33.166262 ], [ 76.563193, 33.171275 ], [ 76.489669, 33.171172 ], [ 76.45607, 33.160726 ], [ 76.416507, 33.134042 ], [ 76.384294, 33.117742 ], [ 76.344144, 33.080746 ], [ 76.325731, 33.059869 ], [ 76.271639, 33.022955 ], [ 76.255915, 33.007985 ], [ 76.232989, 33.001287 ], [ 76.184673, 33.000021 ], [ 76.163772, 32.992937 ], [ 76.062077, 32.928039 ], [ 76.051492, 32.919454 ], [ 76.015745, 32.890451 ], [ 76.001204, 32.882541 ], [ 75.986895, 32.879301 ], [ 75.971481, 32.880314 ], [ 75.906473, 32.905319 ], [ 75.880418, 32.90414 ], [ 75.869362, 32.899538 ], [ 75.855474, 32.893756 ], [ 75.844174, 32.880847 ], [ 75.8392, 32.869047 ], [ 75.838747, 32.860609 ], [ 75.842592, 32.851144 ], [ 75.869362, 32.828939 ], [ 75.905385, 32.799049 ], [ 75.922507, 32.776079 ], [ 75.94632, 32.735667 ], [ 75.945171, 32.720392 ], [ 75.926117, 32.699384 ], [ 75.918442, 32.684784 ], [ 75.919577, 32.67231 ], [ 75.934444, 32.636833 ], [ 75.929239, 32.61431 ], [ 75.890256, 32.594438 ], [ 75.882078, 32.587904 ], [ 75.869362, 32.564546 ], [ 75.869362, 32.547286 ], [ 75.869362, 32.540852 ], [ 75.840569, 32.516433 ], [ 75.826776, 32.494857 ], [ 75.772492, 32.46754 ], [ 75.744271, 32.459281 ], [ 75.734769, 32.454137 ], [ 75.732323, 32.449456 ], [ 75.732475, 32.436993 ], [ 75.727762, 32.428895 ], [ 75.695244, 32.400868 ], [ 75.684204, 32.396158 ], [ 75.641234, 32.397218 ], [ 75.616436, 32.391535 ], [ 75.594187, 32.382836 ], [ 75.563528, 32.363507 ], [ 75.550731, 32.348997 ], [ 75.533042, 32.335132 ], [ 75.533532, 32.29207 ], [ 75.532634, 32.288918 ], [ 75.529337, 32.277346 ], [ 75.523055, 32.269488 ], [ 75.510601, 32.262577 ], [ 75.496194, 32.259711 ], [ 75.485399, 32.263559 ], [ 75.47772, 32.273042 ], [ 75.47569, 32.284966 ], [ 75.476614, 32.288918 ], [ 75.477527, 32.292827 ], [ 75.50179, 32.325686 ], [ 75.500245, 32.332871 ], [ 75.491396, 32.3406 ], [ 75.472633, 32.341796 ], [ 75.441748, 32.33102 ], [ 75.408271, 32.32393 ], [ 75.369157, 32.327892 ], [ 75.33394, 32.32658 ], [ 75.326006, 32.334601 ], [ 75.290492, 32.356965 ], [ 75.279257, 32.367394 ], [ 75.25314, 32.380655 ], [ 75.234475, 32.396963 ], [ 75.19831, 32.404459 ], [ 75.18717, 32.423828 ], [ 75.178014, 32.424423 ], [ 75.147642, 32.41404 ], [ 75.132877, 32.418493 ], [ 75.11237, 32.451029 ], [ 75.085316, 32.477363 ], [ 75.075395, 32.481715 ], [ 75.060627, 32.482779 ], [ 75.038796, 32.490956 ], [ 75.030712, 32.491003 ], [ 75.012542, 32.476642 ], [ 74.99526, 32.455499 ], [ 74.987462, 32.450114 ], [ 74.976475, 32.44818 ], [ 74.950101, 32.454475 ], [ 74.931931, 32.467163 ], [ 74.897505, 32.467443 ], [ 74.87628, 32.485297 ], [ 74.840088, 32.49537 ], [ 74.819238, 32.495407 ], [ 74.796792, 32.484217 ], [ 74.750464, 32.479577 ], [ 74.702367, 32.484564 ], [ 74.689458, 32.491543 ], [ 74.680167, 32.51205 ], [ 74.682411, 32.528477 ], [ 74.680808, 32.535806 ], [ 74.651446, 32.563303 ], [ 74.642667, 32.608463 ], [ 74.650088, 32.626425 ], [ 74.668779, 32.646063 ], [ 74.675315, 32.657847 ], [ 74.673135, 32.669045 ], [ 74.654804, 32.692563 ], [ 74.650786, 32.718943 ], [ 74.662293, 32.754891 ], [ 74.695089, 32.811429 ], [ 74.699615, 32.826497 ], [ 74.695553, 32.83851 ], [ 74.679552, 32.837293 ], [ 74.641276, 32.821044 ], [ 74.637701, 32.811196 ], [ 74.639959, 32.789894 ], [ 74.631245, 32.776181 ], [ 74.61303, 32.758293 ], [ 74.58135, 32.753965 ], [ 74.567162, 32.754649 ], [ 74.531118, 32.742111 ], [ 74.469252, 32.779767 ], [ 74.4611, 32.790574 ], [ 74.455875, 32.792403 ], [ 74.438427, 32.790297 ], [ 74.41303, 32.77523 ], [ 74.401518, 32.771107 ], [ 74.384345, 32.769599 ], [ 74.362766, 32.774944 ], [ 74.346713, 32.786714 ], [ 74.330591, 32.815172 ], [ 74.312565, 32.820198 ], [ 74.190277, 32.87769 ], [ 74.180198, 32.881883 ], [ 74.111932, 32.91028 ], [ 74.083038, 32.925505 ], [ 74.029079, 32.940563 ], [ 74.002135, 32.952177 ], [ 73.986883, 32.961774 ], [ 73.975989, 32.97294 ], [ 73.955166, 33.002998 ], [ 73.942555, 33.021196 ], [ 73.921675, 33.033651 ], [ 73.901351, 33.037457 ], [ 73.879068, 33.034913 ], [ 73.861414, 33.030228 ], [ 73.821199, 33.011578 ], [ 73.805578, 33.009429 ], [ 73.773973, 33.02399 ], [ 73.759134, 33.04621 ], [ 73.749774, 33.053076 ], [ 73.696511, 33.072451 ], [ 73.654918, 33.081859 ], [ 73.629285, 33.094419 ], [ 73.624768, 33.106055 ], [ 73.628099, 33.130183 ], [ 73.633415, 33.13663 ], [ 73.66056, 33.149259 ], [ 73.668264, 33.158525 ], [ 73.669786, 33.19102 ], [ 73.66713, 33.213416 ], [ 73.652931, 33.222614 ], [ 73.641169, 33.217386 ], [ 73.641815, 33.232162 ], [ 73.628733, 33.238517 ], [ 73.624032, 33.243533 ], [ 73.622972, 33.256254 ], [ 73.612204, 33.278457 ], [ 73.614905, 33.291623 ], [ 73.60733, 33.300135 ], [ 73.608386, 33.309943 ], [ 73.599331, 33.31858 ], [ 73.606118, 33.333586 ], [ 73.598555, 33.339278 ], [ 73.584618, 33.340289 ], [ 73.570634, 33.374521 ], [ 73.57114, 33.383471 ], [ 73.575984, 33.394199 ], [ 73.595093, 33.417526 ], [ 73.597318, 33.438389 ], [ 73.6215, 33.450473 ], [ 73.625552, 33.457433 ], [ 73.62319, 33.469876 ], [ 73.614252, 33.480994 ], [ 73.608672, 33.493926 ], [ 73.612268, 33.513503 ], [ 73.631108, 33.528726 ], [ 73.623246, 33.548835 ], [ 73.625344, 33.571011 ], [ 73.603555, 33.593874 ], [ 73.597109, 33.608118 ], [ 73.569534, 33.625066 ], [ 73.575601, 33.643428 ], [ 73.573023, 33.654046 ], [ 73.574133, 33.663868 ], [ 73.592797, 33.680994 ], [ 73.598883, 33.699981 ], [ 73.599272, 33.721887 ], [ 73.595812, 33.737525 ], [ 73.591943, 33.747445 ], [ 73.571715, 33.777382 ], [ 73.566536, 33.791574 ], [ 73.567239, 33.810425 ], [ 73.582872, 33.862463 ], [ 73.585237, 33.883676 ], [ 73.577673, 33.905399 ], [ 73.53874, 33.951695 ], [ 73.525444, 33.984749 ], [ 73.51646, 34.001435 ], [ 73.50966, 34.025589 ], [ 73.501744, 34.084169 ], [ 73.488024, 34.126147 ], [ 73.487518, 34.185979 ], [ 73.479353, 34.221968 ], [ 73.465939, 34.25633 ], [ 73.462741, 34.258724 ], [ 73.464212, 34.274457 ], [ 73.431321, 34.29892 ], [ 73.414299, 34.316147 ], [ 73.406431, 34.331039 ], [ 73.399153, 34.358425 ], [ 73.400678, 34.403762 ], [ 73.407211, 34.424808 ], [ 73.408698, 34.427986 ], [ 73.431527, 34.476792 ], [ 73.443251, 34.555482 ], [ 73.450346, 34.564496 ], [ 73.464444, 34.571633 ], [ 73.521166, 34.572826 ], [ 73.560781, 34.584491 ], [ 73.580769, 34.587509 ], [ 73.593023, 34.584316 ], [ 73.614213, 34.56848 ], [ 73.623193, 34.564654 ], [ 73.633136, 34.564261 ], [ 73.641051, 34.567295 ], [ 73.653953, 34.585973 ], [ 73.673679, 34.641712 ], [ 73.673865, 34.661351 ], [ 73.661754, 34.682986 ], [ 73.663558, 34.693503 ], [ 73.672738, 34.703029 ], [ 73.697794, 34.718029 ], [ 73.706706, 34.729043 ], [ 73.720389, 34.766359 ], [ 73.726237, 34.774885 ], [ 73.739948, 34.787204 ], [ 73.759326, 34.798733 ], [ 73.800224, 34.804147 ], [ 73.811865, 34.810117 ], [ 73.833456, 34.826648 ], [ 73.846359, 34.828365 ], [ 73.887322, 34.824494 ], [ 73.908435, 34.827094 ], [ 73.937988, 34.849524 ], [ 73.972873, 34.860877 ], [ 73.984995, 34.869513 ], [ 74.009327, 34.91197 ], [ 74.029079, 34.930228 ], [ 74.034303, 34.935055 ], [ 74.051153, 34.955294 ], [ 74.055007, 34.9711 ], [ 74.056092, 34.995802 ], [ 74.077736, 35.010607 ], [ 74.08835, 35.022796 ], [ 74.082714, 35.036083 ], [ 74.062068, 35.061656 ], [ 74.060437, 35.075217 ], [ 74.065302, 35.088759 ], [ 74.079898, 35.103547 ], [ 74.094916, 35.113845 ], [ 74.126132, 35.12556 ], [ 74.096817, 35.144186 ], [ 74.080227, 35.150777 ], [ 74.048448, 35.141838 ], [ 74.032036, 35.143511 ], [ 74.029079, 35.146624 ], [ 74.006631, 35.170258 ], [ 73.994327, 35.176211 ], [ 73.968334, 35.179428 ], [ 73.956052, 35.183207 ], [ 73.930291, 35.202766 ], [ 73.917765, 35.208446 ], [ 73.892537, 35.21159 ], [ 73.862455, 35.207668 ], [ 73.848797, 35.208197 ], [ 73.834692, 35.21434 ], [ 73.811784, 35.232217 ], [ 73.795204, 35.238736 ], [ 73.781632, 35.240327 ], [ 73.771726, 35.23865 ], [ 73.738195, 35.222151 ], [ 73.730414, 35.220258 ], [ 73.724974, 35.223447 ], [ 73.698803, 35.302916 ], [ 73.69732, 35.362407 ], [ 73.699775, 35.385233 ], [ 73.705927, 35.406085 ], [ 73.71593, 35.421377 ], [ 73.723496, 35.428187 ], [ 73.748626, 35.438391 ], [ 73.761162, 35.446636 ], [ 73.805307, 35.504047 ], [ 73.782458, 35.520869 ], [ 73.777184, 35.522448 ], [ 73.765946, 35.520174 ], [ 73.748052, 35.521146 ], [ 73.715781, 35.53177 ], [ 73.661634, 35.53429 ], [ 73.641257, 35.541982 ], [ 73.572595, 35.55489 ], [ 73.533912, 35.553598 ], [ 73.523495, 35.557284 ], [ 73.490859, 35.568831 ], [ 73.413398, 35.573654 ], [ 73.393943, 35.578417 ], [ 73.365275, 35.593314 ], [ 73.349299, 35.598799 ], [ 73.297817, 35.607264 ], [ 73.285668, 35.611955 ], [ 73.230601, 35.643788 ], [ 73.198247, 35.670267 ], [ 73.15601, 35.691276 ], [ 73.13775, 35.707287 ], [ 73.128316, 35.719677 ], [ 73.126506, 35.722812 ], [ 73.116977, 35.739315 ], [ 73.111792, 35.759716 ], [ 73.115022, 35.792113 ], [ 73.125043, 35.832449 ], [ 73.123751, 35.83854 ], [ 73.117425, 35.845539 ], [ 73.093335, 35.859782 ], [ 73.074587, 35.864216 ], [ 73.062936, 35.862328 ], [ 73.012604, 35.842256 ], [ 73.008658, 35.840939 ], [ 72.998088, 35.838604 ], [ 72.99327, 35.836658 ], [ 72.981722, 35.835271 ], [ 72.976242, 35.833895 ], [ 72.956408, 35.834996 ], [ 72.944615, 35.83737 ], [ 72.938568, 35.838587 ], [ 72.919167, 35.838608 ], [ 72.898181, 35.841359 ], [ 72.89154, 35.841408 ], [ 72.84781, 35.849715 ], [ 72.825307, 35.856079 ], [ 72.811071, 35.857192 ], [ 72.796061, 35.853028 ], [ 72.764653, 35.838982 ], [ 72.759959, 35.838297 ], [ 72.754673, 35.835828 ], [ 72.733102, 35.831946 ], [ 72.718483, 35.828369 ], [ 72.688651, 35.818632 ], [ 72.676822, 35.817521 ], [ 72.670582, 35.81842 ], [ 72.635499, 35.831537 ], [ 72.618864, 35.837756 ], [ 72.586842, 35.843574 ], [ 72.579756, 35.84416 ], [ 72.574934, 35.845867 ], [ 72.570256, 35.848647 ], [ 72.565156, 35.855333 ], [ 72.563592, 35.859954 ], [ 72.561117, 35.863043 ], [ 72.559649, 35.866733 ], [ 72.55402, 35.87441 ], [ 72.549098, 35.881122 ], [ 72.537368, 35.889485 ], [ 72.528322, 35.893865 ], [ 72.51672, 35.896945 ], [ 72.513972, 35.899316 ], [ 72.515371, 35.913853 ], [ 72.544835, 35.968366 ], [ 72.557687, 35.985824 ], [ 72.566783, 36.007803 ], [ 72.562754, 36.027648 ], [ 72.526477, 36.065117 ], [ 72.521917, 36.072957 ], [ 72.518852, 36.090163 ], [ 72.523338, 36.108608 ], [ 72.543488, 36.144061 ], [ 72.544453, 36.155589 ], [ 72.538751, 36.185055 ], [ 72.540213, 36.201418 ], [ 72.547278, 36.222805 ], [ 72.560193, 36.240739 ], [ 72.581379, 36.25755 ], [ 72.59767, 36.264535 ], [ 72.615884, 36.266843 ], [ 72.653261, 36.25921 ], [ 72.66393, 36.259794 ], [ 72.676838, 36.264699 ], [ 72.710565, 36.303989 ], [ 72.761998, 36.323872 ], [ 72.807753, 36.354081 ], [ 72.843306, 36.370953 ], [ 72.851128, 36.37681 ], [ 72.85624, 36.385858 ], [ 72.86641, 36.440583 ], [ 72.875408, 36.452794 ], [ 72.909975, 36.467724 ], [ 72.959319, 36.471205 ], [ 72.964999, 36.478676 ], [ 72.965984, 36.499662 ], [ 73.00806, 36.518164 ], [ 73.029672, 36.534063 ], [ 73.037998, 36.540508 ], [ 73.054207, 36.580099 ], [ 73.072528, 36.604475 ], [ 73.069896, 36.61859 ], [ 73.05091, 36.654793 ], [ 73.047685, 36.670878 ], [ 73.051411, 36.683836 ], [ 73.064214, 36.691882 ], [ 73.10881, 36.697781 ], [ 73.126506, 36.708895 ], [ 73.141594, 36.71837 ], [ 73.154997, 36.722333 ], [ 73.169695, 36.721479 ], [ 73.204559, 36.711573 ], [ 73.229596, 36.709762 ], [ 73.245652, 36.711123 ], [ 73.323934, 36.731494 ], [ 73.356179, 36.74632 ], [ 73.407508, 36.751368 ], [ 73.424625, 36.747432 ], [ 73.457721, 36.73121 ], [ 73.482777, 36.726613 ], [ 73.522628, 36.72333 ], [ 73.55054, 36.728584 ], [ 73.564756, 36.728428 ], [ 73.569541, 36.725966 ], [ 73.580995, 36.711971 ], [ 73.589301, 36.707162 ], [ 73.6609, 36.702854 ], [ 73.675659, 36.706382 ], [ 73.690469, 36.716567 ], [ 73.701514, 36.720085 ], [ 73.73716, 36.713552 ], [ 73.769498, 36.721217 ], [ 73.793657, 36.718521 ], [ 73.829747, 36.705839 ], [ 73.842214, 36.705906 ], [ 73.847992, 36.70812 ], [ 73.854563, 36.714229 ], [ 73.860735, 36.727725 ], [ 73.862841, 36.748652 ], [ 73.85355, 36.773268 ], [ 73.839641, 36.791645 ], [ 73.822906, 36.801426 ], [ 73.796206, 36.804463 ], [ 73.790815, 36.809426 ], [ 73.784824, 36.824849 ], [ 73.779944, 36.828809 ], [ 73.735201, 36.834439 ], [ 73.697032, 36.846688 ], [ 73.677212, 36.865537 ], [ 73.663331, 36.887645 ], [ 73.639326, 36.90344 ], [ 73.658334, 36.910584 ], [ 73.690313, 36.915509 ], [ 73.698831, 36.91385 ], [ 73.715714, 36.905226 ], [ 73.732239, 36.903316 ], [ 73.752845, 36.911396 ], [ 73.759199, 36.905555 ], [ 73.770431, 36.904989 ], [ 73.774159, 36.898676 ], [ 73.793064, 36.900133 ], [ 73.798243, 36.897252 ], [ 73.800362, 36.891409 ], [ 73.805448, 36.891202 ], [ 73.826225, 36.898982 ], [ 73.82586, 36.912151 ], [ 73.830519, 36.920364 ], [ 73.835459, 36.924821 ], [ 73.843508, 36.925631 ], [ 73.85417, 36.917458 ], [ 73.890701, 36.912167 ], [ 73.907009, 36.899237 ], [ 73.904341, 36.887696 ], [ 73.893295, 36.878472 ], [ 73.908083, 36.874217 ], [ 73.913698, 36.869801 ], [ 73.926614, 36.874013 ], [ 73.933224, 36.873766 ], [ 73.946759, 36.86596 ], [ 73.949099, 36.860846 ], [ 73.956482, 36.858449 ], [ 73.954565, 36.851192 ], [ 73.957822, 36.843006 ], [ 73.96551, 36.842156 ], [ 73.96999, 36.837582 ], [ 73.989842, 36.831068 ], [ 73.996061, 36.830895 ], [ 74.005706, 36.836779 ], [ 74.029079, 36.829515 ], [ 74.036938, 36.827073 ], [ 74.046299, 36.826462 ], [ 74.066055, 36.840593 ], [ 74.083347, 36.838029 ], [ 74.098175, 36.841937 ], [ 74.1094, 36.838166 ], [ 74.120748, 36.838935 ], [ 74.125214, 36.848645 ], [ 74.134081, 36.852125 ], [ 74.129442, 36.861745 ], [ 74.136427, 36.87271 ], [ 74.148664, 36.883054 ], [ 74.159029, 36.885843 ], [ 74.153137, 36.893486 ], [ 74.153636, 36.89739 ], [ 74.171587, 36.90362 ], [ 74.172898, 36.912319 ], [ 74.176606, 36.916159 ], [ 74.180198, 36.914571 ], [ 74.189861, 36.9103 ], [ 74.199962, 36.910552 ], [ 74.20496, 36.904657 ], [ 74.214782, 36.906533 ], [ 74.224736, 36.896931 ], [ 74.239259, 36.895042 ], [ 74.263062, 36.902975 ], [ 74.271703, 36.911918 ], [ 74.294174, 36.912828 ], [ 74.308221, 36.918926 ], [ 74.317051, 36.938378 ], [ 74.331733, 36.94493 ], [ 74.334124, 36.950651 ], [ 74.347272, 36.960649 ], [ 74.367983, 36.964672 ], [ 74.386195, 36.963879 ], [ 74.392864, 36.967602 ], [ 74.396525, 36.973148 ], [ 74.415316, 36.975496 ], [ 74.420413, 36.987297 ], [ 74.414611, 36.995975 ], [ 74.418097, 37.005524 ], [ 74.42567, 37.0103 ], [ 74.445317, 37.002596 ], [ 74.455878, 37.003614 ], [ 74.4736, 36.989965 ], [ 74.491992, 36.987208 ], [ 74.498871, 36.981538 ], [ 74.507787, 36.965542 ], [ 74.522582, 36.959455 ], [ 74.535074, 36.958046 ], [ 74.541882, 36.964377 ], [ 74.54349, 36.972163 ], [ 74.536329, 36.979751 ], [ 74.537798, 36.989367 ], [ 74.52771, 36.997068 ], [ 74.525047, 37.004187 ], [ 74.518099, 37.010447 ], [ 74.518648, 37.015774 ], [ 74.535804, 37.025038 ], [ 74.547394, 37.02506 ], [ 74.555122, 37.029793 ], [ 74.564626, 37.030852 ] ] ] ] } }
]
}
