{
"type": "FeatureCollection",
"name": "Jersey",
"crs": { "type": "name", "properties": { "name": "urn:ogc:def:crs:OGC:1.3:CRS84" } },
"features": [
{ "type": "Feature", "properties": { "id": "JE", "CNTR_ID": "JE", "CNTR_NAME": "Jersey-Jersey", "NAME_ENGL": "Jersey", "ISO3_CODE": "JEY", "FID": "JE" }, "geometry": { "type": "MultiPolygon", "coordinates": [ [ [ [ -2.254009, 49.252005 ], [ -2.247846, 49.257964 ], [ -2.244763, 49.25868 ], [ -2.236208, 49.256111 ], [ -2.230342, 49.256742 ], [ -2.229809, 49.259399 ], [ -2.227156, 49.26118 ], [ -2.226309, 49.258682 ], [ -2.219271, 49.255915 ], [ -2.212557, 49.254045 ], [ -2.207352, 49.251497 ], [ -2.203157, 49.247739 ], [ -2.196528, 49.247358 ], [ -2.187037, 49.249982 ], [ -2.183616, 49.247727 ], [ -2.179813, 49.25076 ], [ -2.174813, 49.249439 ], [ -2.174095, 49.252104 ], [ -2.165287, 49.258446 ], [ -2.16024, 49.257832 ], [ -2.159231, 49.261381 ], [ -2.156167, 49.259786 ], [ -2.151676, 49.261259 ], [ -2.147371, 49.259604 ], [ -2.144978, 49.256207 ], [ -2.136768, 49.253165 ], [ -2.127341, 49.253217 ], [ -2.122242, 49.254275 ], [ -2.120417, 49.253414 ], [ -2.120683, 49.251013 ], [ -2.115955, 49.25 ], [ -2.106748, 49.249857 ], [ -2.104392, 49.25125 ], [ -2.102348, 49.25462 ], [ -2.098698, 49.255108 ], [ -2.091552, 49.252941 ], [ -2.085198, 49.24663 ], [ -2.079839, 49.237938 ], [ -2.073255, 49.236349 ], [ -2.069968, 49.236525 ], [ -2.051851, 49.242595 ], [ -2.048045, 49.239617 ], [ -2.043708, 49.239846 ], [ -2.045794, 49.237141 ], [ -2.044898, 49.235935 ], [ -2.024196, 49.232179 ], [ -2.020954, 49.223923 ], [ -2.02939, 49.218722 ], [ -2.029053, 49.214938 ], [ -2.026996, 49.213718 ], [ -2.024197, 49.209243 ], [ -2.021762, 49.208607 ], [ -2.021761, 49.203859 ], [ -2.017523, 49.202281 ], [ -2.018451, 49.198838 ], [ -2.023129, 49.199367 ], [ -2.028807, 49.197411 ], [ -2.031622, 49.193716 ], [ -2.033541, 49.187811 ], [ -2.033215, 49.184312 ], [ -2.032842, 49.180297 ], [ -2.030518, 49.172787 ], [ -2.028064, 49.16676 ], [ -2.033799, 49.163809 ], [ -2.03922, 49.16609 ], [ -2.050531, 49.169177 ], [ -2.054913, 49.169276 ], [ -2.068353, 49.166942 ], [ -2.072991, 49.163048 ], [ -2.07837, 49.163475 ], [ -2.090631, 49.174004 ], [ -2.095558, 49.176832 ], [ -2.101409, 49.177139 ], [ -2.105676, 49.176363 ], [ -2.10725, 49.174492 ], [ -2.107836, 49.169257 ], [ -2.112603, 49.168128 ], [ -2.115007, 49.169584 ], [ -2.114388, 49.179038 ], [ -2.118055, 49.178795 ], [ -2.119396, 49.180517 ], [ -2.11709, 49.184312 ], [ -2.116316, 49.185584 ], [ -2.117164, 49.187263 ], [ -2.127772, 49.193313 ], [ -2.137292, 49.196035 ], [ -2.148161, 49.196959 ], [ -2.153494, 49.196583 ], [ -2.159955, 49.195196 ], [ -2.166345, 49.192511 ], [ -2.170079, 49.186831 ], [ -2.169917, 49.184312 ], [ -2.169216, 49.178343 ], [ -2.163921, 49.172821 ], [ -2.168657, 49.166299 ], [ -2.176869, 49.171244 ], [ -2.186522, 49.16918 ], [ -2.187838, 49.175183 ], [ -2.185688, 49.178634 ], [ -2.193453, 49.184312 ], [ -2.196547, 49.185067 ], [ -2.201706, 49.184312 ], [ -2.2055, 49.179167 ], [ -2.224067, 49.174792 ], [ -2.24193, 49.180322 ], [ -2.240874, 49.182792 ], [ -2.234997, 49.184312 ], [ -2.236002, 49.187308 ], [ -2.231865, 49.187584 ], [ -2.229742, 49.189135 ], [ -2.224072, 49.200505 ], [ -2.223573, 49.206469 ], [ -2.22758, 49.219329 ], [ -2.22987, 49.223772 ], [ -2.240932, 49.237067 ], [ -2.247448, 49.240994 ], [ -2.249542, 49.240735 ], [ -2.249233, 49.243111 ], [ -2.253563, 49.246985 ], [ -2.254009, 49.252005 ] ] ] ] } }
]
}
