{
"type": "FeatureCollection",
"name": "Kenya",
"crs": { "type": "name", "properties": { "name": "urn:ogc:def:crs:OGC:1.3:CRS84" } },
"features": [
{ "type": "Feature", "properties": { "id": "KE", "CNTR_ID": "KE", "CNTR_NAME": "Kenya-Kenya", "NAME_ENGL": "Kenya", "ISO3_CODE": "KEN", "FID": "KE" }, "geometry": { "type": "MultiPolygon", "coordinates": [ [ [ [ 41.564494, -1.655753 ], [ 41.518502, -1.704548 ], [ 41.488599, -1.747156 ], [ 41.432936, -1.804081 ], [ 41.413202, -1.834029 ], [ 41.382758, -1.863929 ], [ 41.380568, -1.876875 ], [ 41.362724, -1.898512 ], [ 41.354448, -1.916878 ], [ 41.333156, -1.933212 ], [ 41.316365, -1.95712 ], [ 41.290359, -1.973625 ], [ 41.279633, -1.967212 ], [ 41.278906, -1.951527 ], [ 41.274606, -1.945773 ], [ 41.262363, -1.945817 ], [ 41.249751, -1.954494 ], [ 41.243522, -1.954068 ], [ 41.241503, -1.942866 ], [ 41.247583, -1.927696 ], [ 41.241861, -1.92662 ], [ 41.244481, -1.920624 ], [ 41.217109, -1.901534 ], [ 41.175203, -1.93075 ], [ 41.163991, -1.943127 ], [ 41.16078, -1.954611 ], [ 41.17042, -1.961392 ], [ 41.170255, -1.967019 ], [ 41.155352, -1.970226 ], [ 41.139557, -1.967896 ], [ 41.12269, -1.973553 ], [ 41.112194, -1.972503 ], [ 41.07831, -1.986492 ], [ 41.051509, -2.015352 ], [ 41.039679, -2.033984 ], [ 41.025458, -2.045691 ], [ 41.010354, -2.047819 ], [ 40.995114, -2.038671 ], [ 40.985834, -2.022134 ], [ 40.984089, -2.000942 ], [ 40.976476, -1.997819 ], [ 40.971868, -1.996781 ], [ 40.960286, -2.012467 ], [ 40.956627, -2.023719 ], [ 40.967458, -2.051592 ], [ 40.958581, -2.069846 ], [ 40.949538, -2.075755 ], [ 40.943144, -2.071599 ], [ 40.938356, -2.055123 ], [ 40.924863, -2.035526 ], [ 40.92698, -2.021445 ], [ 40.916349, -1.998217 ], [ 40.904713, -1.992707 ], [ 40.884817, -1.989563 ], [ 40.871031, -1.972984 ], [ 40.855623, -1.976842 ], [ 40.853954, -1.984873 ], [ 40.867699, -2.001885 ], [ 40.869535, -2.012898 ], [ 40.902104, -2.020665 ], [ 40.901216, -2.043532 ], [ 40.887959, -2.048073 ], [ 40.888874, -2.058923 ], [ 40.881083, -2.06798 ], [ 40.903399, -2.081252 ], [ 40.913612, -2.097177 ], [ 40.919026, -2.174129 ], [ 40.915779, -2.211249 ], [ 40.92561, -2.219391 ], [ 40.929063, -2.226957 ], [ 40.942781, -2.228752 ], [ 40.954498, -2.236894 ], [ 40.963293, -2.252116 ], [ 40.969739, -2.247659 ], [ 40.971632, -2.23114 ], [ 40.974899, -2.232015 ], [ 40.976476, -2.235324 ], [ 40.98247, -2.247903 ], [ 40.982472, -2.266935 ], [ 40.976476, -2.276362 ], [ 40.953808, -2.309935 ], [ 40.943315, -2.316491 ], [ 40.92859, -2.318742 ], [ 40.92345, -2.316526 ], [ 40.922285, -2.312932 ], [ 40.927855, -2.298898 ], [ 40.94753, -2.296099 ], [ 40.952778, -2.290762 ], [ 40.932077, -2.281977 ], [ 40.919094, -2.268838 ], [ 40.907503, -2.241356 ], [ 40.904022, -2.223897 ], [ 40.885948, -2.200889 ], [ 40.879792, -2.205617 ], [ 40.874814, -2.234424 ], [ 40.85667, -2.244141 ], [ 40.838106, -2.247212 ], [ 40.829975, -2.237011 ], [ 40.820915, -2.235675 ], [ 40.801465, -2.241198 ], [ 40.793856, -2.252157 ], [ 40.784016, -2.257081 ], [ 40.754455, -2.252055 ], [ 40.730426, -2.242372 ], [ 40.728677, -2.260339 ], [ 40.743457, -2.273345 ], [ 40.746327, -2.292758 ], [ 40.738243, -2.2923 ], [ 40.725978, -2.282071 ], [ 40.716982, -2.280367 ], [ 40.702637, -2.292053 ], [ 40.708234, -2.305095 ], [ 40.719498, -2.311247 ], [ 40.737116, -2.314039 ], [ 40.757206, -2.325625 ], [ 40.774242, -2.363059 ], [ 40.776733, -2.381421 ], [ 40.784593, -2.376722 ], [ 40.799823, -2.356924 ], [ 40.814789, -2.361641 ], [ 40.822676, -2.374658 ], [ 40.823074, -2.385327 ], [ 40.819491, -2.394664 ], [ 40.782513, -2.429533 ], [ 40.769109, -2.448465 ], [ 40.742726, -2.457636 ], [ 40.710887, -2.474223 ], [ 40.67514, -2.502342 ], [ 40.643607, -2.535917 ], [ 40.61349, -2.555255 ], [ 40.573909, -2.550569 ], [ 40.529323, -2.534923 ], [ 40.494658, -2.535371 ], [ 40.441679, -2.547994 ], [ 40.397195, -2.565752 ], [ 40.358127, -2.585329 ], [ 40.335189, -2.592071 ], [ 40.322462, -2.601003 ], [ 40.333141, -2.598406 ], [ 40.32835, -2.605111 ], [ 40.273704, -2.642858 ], [ 40.268503, -2.640098 ], [ 40.254852, -2.661017 ], [ 40.200824, -2.727487 ], [ 40.196909, -2.71958 ], [ 40.196907, -2.700059 ], [ 40.193683, -2.696769 ], [ 40.190071, -2.698573 ], [ 40.178149, -2.732879 ], [ 40.169996, -2.745935 ], [ 40.164312, -2.771896 ], [ 40.164898, -2.790946 ], [ 40.17317, -2.808745 ], [ 40.17825, -2.833221 ], [ 40.175112, -2.854499 ], [ 40.166937, -2.878158 ], [ 40.170384, -2.895523 ], [ 40.165693, -2.936476 ], [ 40.163359, -2.941086 ], [ 40.156049, -2.945382 ], [ 40.1519, -2.955118 ], [ 40.144383, -3.046204 ], [ 40.157339, -3.042948 ], [ 40.189427, -2.999235 ], [ 40.214945, -2.993905 ], [ 40.230216, -2.986005 ], [ 40.234406, -2.988106 ], [ 40.229809, -2.994418 ], [ 40.203038, -3.013459 ], [ 40.174594, -3.051071 ], [ 40.170451, -3.070277 ], [ 40.160033, -3.090295 ], [ 40.158865, -3.13735 ], [ 40.132544, -3.180755 ], [ 40.125158, -3.197695 ], [ 40.129514, -3.254756 ], [ 40.119434, -3.285937 ], [ 40.097951, -3.307338 ], [ 39.977472, -3.384025 ], [ 39.974506, -3.383063 ], [ 39.974729, -3.379585 ], [ 39.986446, -3.367892 ], [ 39.990351, -3.358061 ], [ 39.985326, -3.330062 ], [ 39.974186, -3.325032 ], [ 39.955879, -3.333138 ], [ 39.951017, -3.344309 ], [ 39.939864, -3.354757 ], [ 39.938006, -3.369926 ], [ 39.94398, -3.380601 ], [ 39.962016, -3.392998 ], [ 39.964926, -3.411416 ], [ 39.92806, -3.493772 ], [ 39.89984, -3.573197 ], [ 39.874978, -3.622919 ], [ 39.861924, -3.634219 ], [ 39.849614, -3.633159 ], [ 39.821361, -3.614793 ], [ 39.809051, -3.6254 ], [ 39.787705, -3.626978 ], [ 39.796338, -3.640061 ], [ 39.807759, -3.646269 ], [ 39.817748, -3.646464 ], [ 39.837867, -3.636933 ], [ 39.854936, -3.641757 ], [ 39.86686, -3.659614 ], [ 39.867172, -3.703107 ], [ 39.845225, -3.765062 ], [ 39.825975, -3.831035 ], [ 39.773387, -3.944337 ], [ 39.730589, -4.003191 ], [ 39.725504, -4.026287 ], [ 39.704498, -4.054555 ], [ 39.685447, -4.065521 ], [ 39.674476, -4.078788 ], [ 39.66943, -4.104363 ], [ 39.61362, -4.207989 ], [ 39.596784, -4.273329 ], [ 39.551998, -4.384734 ], [ 39.53988, -4.430235 ], [ 39.535918, -4.431573 ], [ 39.535085, -4.419599 ], [ 39.53093, -4.410769 ], [ 39.511043, -4.406935 ], [ 39.508784, -4.432963 ], [ 39.499751, -4.450419 ], [ 39.494527, -4.468724 ], [ 39.481693, -4.484344 ], [ 39.4738, -4.499735 ], [ 39.467742, -4.518464 ], [ 39.465315, -4.539757 ], [ 39.451061, -4.577712 ], [ 39.445012, -4.584978 ], [ 39.440026, -4.585886 ], [ 39.432806, -4.5682 ], [ 39.42718, -4.562907 ], [ 39.414213, -4.584719 ], [ 39.407446, -4.588216 ], [ 39.396952, -4.588709 ], [ 39.394339, -4.608195 ], [ 39.402284, -4.639814 ], [ 39.398542, -4.645929 ], [ 39.388749, -4.647821 ], [ 39.354877, -4.64061 ], [ 39.327505, -4.642578 ], [ 39.309784, -4.63743 ], [ 39.306101, -4.632586 ], [ 39.306729, -4.623812 ], [ 39.318932, -4.604528 ], [ 39.317804, -4.584459 ], [ 39.292968, -4.574939 ], [ 39.262787, -4.581252 ], [ 39.247763, -4.574071 ], [ 39.246046, -4.579329 ], [ 39.250714, -4.589415 ], [ 39.252042, -4.602067 ], [ 39.23992, -4.605682 ], [ 39.228454, -4.614172 ], [ 39.215748, -4.637704 ], [ 39.213067, -4.648559 ], [ 39.217586, -4.658291 ], [ 39.214613, -4.666072 ], [ 39.21628, -4.676196 ], [ 39.210241, -4.676205 ], [ 39.20421, -4.670306 ], [ 39.189964, -4.660339 ], [ 38.834799, -4.411812 ], [ 38.829605, -4.408177 ], [ 38.723334, -4.333797 ], [ 38.512149, -4.185965 ], [ 38.288609, -4.029454 ], [ 38.037395, -3.853938 ], [ 37.78617, -3.678378 ], [ 37.776003, -3.642788 ], [ 37.760196, -3.613899 ], [ 37.746087, -3.544873 ], [ 37.738757, -3.531421 ], [ 37.725892, -3.52572 ], [ 37.705489, -3.528339 ], [ 37.686338, -3.514295 ], [ 37.665388, -3.505822 ], [ 37.657545, -3.507924 ], [ 37.638274, -3.521789 ], [ 37.627252, -3.524297 ], [ 37.613225, -3.52229 ], [ 37.608723, -3.508578 ], [ 37.615242, -3.497564 ], [ 37.618467, -3.479733 ], [ 37.604255, -3.463955 ], [ 37.584745, -3.456396 ], [ 37.586621, -3.438298 ], [ 37.619215, -3.401641 ], [ 37.637809, -3.383882 ], [ 37.647014, -3.378611 ], [ 37.661298, -3.36107 ], [ 37.680578, -3.354337 ], [ 37.685525, -3.324024 ], [ 37.709588, -3.308415 ], [ 37.671414, -3.065216 ], [ 37.638625, -3.039155 ], [ 37.509967, -2.954811 ], [ 35.163072, -1.633384 ], [ 34.098837, -1.033835 ], [ 34.079501, -1.025186 ], [ 34.056702, -1.038858 ], [ 34.045732, -1.038388 ], [ 34.037413, -1.029423 ], [ 34.034746, -1.015608 ], [ 34.024489, -1.000415 ], [ 33.933979, -0.999894 ], [ 33.93393, -0.901692 ], [ 33.925532, -0.561663 ], [ 33.929389, -0.459935 ], [ 33.952249, -0.325961 ], [ 33.984376, -0.137673 ], [ 33.911036, 0.099359 ], [ 33.912443, 0.106586 ], [ 34.011044, 0.239606 ], [ 34.024705, 0.263787 ], [ 34.04049, 0.273346 ], [ 34.041409, 0.288525 ], [ 34.048802, 0.292724 ], [ 34.050016, 0.301106 ], [ 34.059411, 0.310425 ], [ 34.057567, 0.320509 ], [ 34.071194, 0.323261 ], [ 34.080575, 0.32944 ], [ 34.097184, 0.348226 ], [ 34.104964, 0.363257 ], [ 34.108133, 0.376475 ], [ 34.099193, 0.41395 ], [ 34.100406, 0.433499 ], [ 34.116903, 0.448175 ], [ 34.123148, 0.462342 ], [ 34.15777, 0.591025 ], [ 34.177488, 0.602473 ], [ 34.185705, 0.604209 ], [ 34.191652, 0.617194 ], [ 34.202381, 0.624463 ], [ 34.213377, 0.62296 ], [ 34.221499, 0.627573 ], [ 34.229401, 0.627126 ], [ 34.231217, 0.627731 ], [ 34.242197, 0.631386 ], [ 34.25136, 0.630302 ], [ 34.269519, 0.64106 ], [ 34.277223, 0.641742 ], [ 34.284201, 0.67992 ], [ 34.301129, 0.694475 ], [ 34.308986, 0.71037 ], [ 34.311774, 0.726861 ], [ 34.309899, 0.759111 ], [ 34.312601, 0.767373 ], [ 34.328701, 0.778295 ], [ 34.369026, 0.789017 ], [ 34.401309, 0.812706 ], [ 34.411628, 0.824101 ], [ 34.421279, 0.857541 ], [ 34.44937, 0.877946 ], [ 34.453035, 0.896918 ], [ 34.465101, 0.908981 ], [ 34.479889, 0.935669 ], [ 34.489785, 0.979668 ], [ 34.489196, 1.013639 ], [ 34.493315, 1.035382 ], [ 34.505725, 1.071619 ], [ 34.524166, 1.104408 ], [ 34.57218, 1.097948 ], [ 34.594664, 1.137685 ], [ 34.606901, 1.152725 ], [ 34.6174, 1.16019 ], [ 34.624178, 1.165008 ], [ 34.637187, 1.16856 ], [ 34.65102, 1.17683 ], [ 34.665325, 1.189446 ], [ 34.671453, 1.206112 ], [ 34.726326, 1.215895 ], [ 34.795343, 1.219859 ], [ 34.806423, 1.229479 ], [ 34.812526, 1.243057 ], [ 34.818234, 1.24844 ], [ 34.820978, 1.259434 ], [ 34.830319, 1.266002 ], [ 34.829109, 1.303419 ], [ 34.793879, 1.361053 ], [ 34.796732, 1.376853 ], [ 34.772154, 1.416426 ], [ 34.771728, 1.418241 ], [ 34.770497, 1.423481 ], [ 34.774928, 1.426117 ], [ 34.78564, 1.425084 ], [ 34.79084, 1.433536 ], [ 34.826774, 1.443707 ], [ 34.844899, 1.4395 ], [ 34.843222, 1.460541 ], [ 34.860883, 1.521485 ], [ 34.866625, 1.532599 ], [ 34.888255, 1.555575 ], [ 34.898992, 1.556283 ], [ 34.911137, 1.56738 ], [ 34.947299, 1.58218 ], [ 34.968679, 1.618712 ], [ 34.998843, 1.682162 ], [ 35.035674, 1.918097 ], [ 35.032519, 1.926192 ], [ 34.986789, 1.991288 ], [ 34.977867, 2.050259 ], [ 34.971079, 2.072532 ], [ 34.915751, 2.398792 ], [ 34.919786, 2.417691 ], [ 34.953697, 2.455622 ], [ 34.934744, 2.483826 ], [ 34.928612, 2.516492 ], [ 34.909949, 2.520328 ], [ 34.902417, 2.527608 ], [ 34.892123, 2.586453 ], [ 34.882886, 2.586826 ], [ 34.875245, 2.569448 ], [ 34.862439, 2.570607 ], [ 34.84455, 2.593025 ], [ 34.779625, 2.689966 ], [ 34.776762, 2.775139 ], [ 34.77101, 2.812043 ], [ 34.752745, 2.824029 ], [ 34.741719, 2.845466 ], [ 34.719213, 2.857132 ], [ 34.706152, 2.873156 ], [ 34.698851, 2.873399 ], [ 34.680734, 2.864442 ], [ 34.657027, 2.864516 ], [ 34.643334, 2.878999 ], [ 34.635168, 2.899192 ], [ 34.6174, 2.908521 ], [ 34.597467, 2.918987 ], [ 34.57518, 3.027693 ], [ 34.566977, 3.0874 ], [ 34.561255, 3.099821 ], [ 34.555215, 3.105623 ], [ 34.548696, 3.1315 ], [ 34.51262, 3.146252 ], [ 34.502576, 3.146755 ], [ 34.493413, 3.143619 ], [ 34.485588, 3.154239 ], [ 34.464298, 3.168315 ], [ 34.453003, 3.191284 ], [ 34.450189, 3.243107 ], [ 34.439506, 3.291559 ], [ 34.426661, 3.329493 ], [ 34.401386, 3.38219 ], [ 34.400601, 3.405904 ], [ 34.415825, 3.438295 ], [ 34.413366, 3.449289 ], [ 34.396187, 3.482383 ], [ 34.404456, 3.487451 ], [ 34.416747, 3.488635 ], [ 34.428695, 3.495372 ], [ 34.440706, 3.505169 ], [ 34.447817, 3.517527 ], [ 34.45242, 3.547002 ], [ 34.459212, 3.668989 ], [ 34.455475, 3.67415 ], [ 34.447392, 3.677856 ], [ 34.407558, 3.689583 ], [ 34.397719, 3.699526 ], [ 34.381163, 3.727607 ], [ 34.373261, 3.73277 ], [ 34.353373, 3.736963 ], [ 34.332272, 3.733959 ], [ 34.324072, 3.729364 ], [ 34.316431, 3.719522 ], [ 34.307596, 3.694829 ], [ 34.303456, 3.692148 ], [ 34.298827, 3.716513 ], [ 34.266666, 3.747529 ], [ 34.250062, 3.781581 ], [ 34.243153, 3.782062 ], [ 34.231217, 3.777756 ], [ 34.227568, 3.776439 ], [ 34.217228, 3.780562 ], [ 34.176277, 3.766172 ], [ 34.172072, 3.767843 ], [ 34.170126, 3.775684 ], [ 34.185885, 3.785765 ], [ 34.188119, 3.79417 ], [ 34.183521, 3.798059 ], [ 34.158648, 3.800764 ], [ 34.156697, 3.806255 ], [ 34.165101, 3.818532 ], [ 34.173985, 3.825449 ], [ 34.20823, 3.829125 ], [ 34.219795, 3.834833 ], [ 34.223386, 3.849932 ], [ 34.218659, 3.86838 ], [ 34.211605, 3.879116 ], [ 34.199466, 3.881356 ], [ 34.181054, 3.880358 ], [ 34.157751, 3.870029 ], [ 34.091456, 3.874393 ], [ 34.092987, 3.885612 ], [ 34.119226, 3.901259 ], [ 34.128994, 3.939327 ], [ 34.129054, 3.952279 ], [ 34.095484, 3.977407 ], [ 34.078285, 3.996444 ], [ 34.059043, 4.00901 ], [ 34.057476, 4.019337 ], [ 34.060153, 4.024356 ], [ 34.067797, 4.028154 ], [ 34.085986, 4.037192 ], [ 34.091263, 4.049356 ], [ 34.087121, 4.064775 ], [ 34.073918, 4.0875 ], [ 34.052908, 4.108716 ], [ 34.061009, 4.150821 ], [ 34.042775, 4.181481 ], [ 33.99449, 4.21443 ], [ 34.042604, 4.259129 ], [ 34.177782, 4.398182 ], [ 34.231217, 4.45363 ], [ 34.264958, 4.48864 ], [ 34.268516, 4.494503 ], [ 34.305379, 4.535885 ], [ 34.329269, 4.557788 ], [ 34.346297, 4.576322 ], [ 34.37846, 4.62 ], [ 34.461447, 4.62 ], [ 34.6174, 4.62 ], [ 34.722413, 4.62 ], [ 34.891421, 4.62 ], [ 34.945189, 4.62 ], [ 35.163072, 4.62 ], [ 35.232206, 4.62 ], [ 35.297915, 4.62 ], [ 35.434784, 4.62 ], [ 35.438054, 4.62 ], [ 35.50877, 4.62 ], [ 35.9477, 4.62 ], [ 35.940036, 4.584844 ], [ 35.961501, 4.577106 ], [ 35.962926, 4.566802 ], [ 35.942209, 4.547268 ], [ 36.052232, 4.454096 ], [ 36.232372, 4.450608 ], [ 36.248629, 4.455533 ], [ 36.267317, 4.450057 ], [ 36.487376, 4.446406 ], [ 36.546351, 4.445427 ], [ 36.628445, 4.454562 ], [ 36.64566, 4.453527 ], [ 36.663101, 4.442452 ], [ 36.680982, 4.441473 ], [ 36.843078, 4.448831 ], [ 36.87943, 4.432352 ], [ 36.88501, 4.43093 ], [ 36.910727, 4.42438 ], [ 36.950971, 4.40737 ], [ 36.961811, 4.398377 ], [ 36.984391, 4.395044 ], [ 37.00088, 4.380629 ], [ 37.009134, 4.379753 ], [ 37.019546, 4.373559 ], [ 37.031188, 4.383829 ], [ 37.052404, 4.367865 ], [ 37.059406, 4.356937 ], [ 37.064581, 4.34886 ], [ 37.078434, 4.348267 ], [ 37.090913, 4.341529 ], [ 37.101891, 4.33065 ], [ 37.111935, 4.308462 ], [ 37.127595, 4.295614 ], [ 37.140203, 4.292662 ], [ 37.352914, 4.154288 ], [ 37.416579, 4.112868 ], [ 37.426717, 4.108667 ], [ 37.544186, 4.028154 ], [ 37.64579, 3.958509 ], [ 37.652612, 3.950192 ], [ 37.736516, 3.892671 ], [ 37.760196, 3.877093 ], [ 37.919459, 3.772307 ], [ 37.989887, 3.732718 ], [ 38.006011, 3.728501 ], [ 38.015674, 3.709851 ], [ 38.045053, 3.675245 ], [ 38.056155, 3.670125 ], [ 38.1027, 3.633489 ], [ 38.127355, 3.608612 ], [ 38.184401, 3.621635 ], [ 38.446672, 3.604367 ], [ 38.517683, 3.62885 ], [ 38.52076, 3.642186 ], [ 38.515443, 3.652639 ], [ 38.534412, 3.656174 ], [ 38.548562, 3.64349 ], [ 38.55761, 3.616727 ], [ 38.575997, 3.608296 ], [ 38.593379, 3.607786 ], [ 38.602846, 3.608189 ], [ 38.612158, 3.613572 ], [ 38.618715, 3.605247 ], [ 38.663681, 3.595844 ], [ 38.674161, 3.609385 ], [ 38.672348, 3.623158 ], [ 38.682281, 3.62634 ], [ 38.709565, 3.585858 ], [ 38.715069, 3.573444 ], [ 38.847464, 3.533897 ], [ 38.90333, 3.514222 ], [ 38.95513, 3.517074 ], [ 38.958914, 3.527322 ], [ 38.967164, 3.532173 ], [ 38.996205, 3.521454 ], [ 39.004269, 3.526743 ], [ 39.008877, 3.52008 ], [ 39.018943, 3.514846 ], [ 39.023265, 3.524794 ], [ 39.038747, 3.529452 ], [ 39.055607, 3.524477 ], [ 39.077335, 3.533626 ], [ 39.079145, 3.540588 ], [ 39.082877, 3.541735 ], [ 39.088906, 3.539921 ], [ 39.105398, 3.52441 ], [ 39.127157, 3.514481 ], [ 39.150148, 3.511879 ], [ 39.150708, 3.503598 ], [ 39.171706, 3.492803 ], [ 39.177937, 3.491307 ], [ 39.188694, 3.493801 ], [ 39.190313, 3.482991 ], [ 39.19358, 3.480554 ], [ 39.20421, 3.481292 ], [ 39.224469, 3.482699 ], [ 39.265132, 3.473263 ], [ 39.286045, 3.480999 ], [ 39.299168, 3.477778 ], [ 39.307254, 3.482217 ], [ 39.320395, 3.500161 ], [ 39.329161, 3.502607 ], [ 39.334371, 3.496792 ], [ 39.334493, 3.466983 ], [ 39.373162, 3.46823 ], [ 39.40224, 3.464565 ], [ 39.411922, 3.466557 ], [ 39.418573, 3.461924 ], [ 39.427567, 3.465715 ], [ 39.432911, 3.458405 ], [ 39.440265, 3.457026 ], [ 39.446225, 3.460847 ], [ 39.461072, 3.457025 ], [ 39.468859, 3.461578 ], [ 39.484752, 3.461003 ], [ 39.494018, 3.467978 ], [ 39.500238, 3.463447 ], [ 39.516111, 3.411074 ], [ 39.531205, 3.403066 ], [ 39.553027, 3.401866 ], [ 39.589478, 3.488631 ], [ 39.609553, 3.502378 ], [ 39.737885, 3.631867 ], [ 39.773229, 3.667527 ], [ 39.868417, 3.86812 ], [ 39.94871, 3.910093 ], [ 40.041035, 3.958354 ], [ 40.14581, 4.013119 ], [ 40.156449, 4.014847 ], [ 40.163655, 4.022339 ], [ 40.17414, 4.028154 ], [ 40.1829, 4.033013 ], [ 40.19154, 4.04656 ], [ 40.208513, 4.044261 ], [ 40.214844, 4.046835 ], [ 40.383184, 4.115275 ], [ 40.39437, 4.115434 ], [ 40.405083, 4.124254 ], [ 40.657071, 4.226327 ], [ 40.69471, 4.241573 ], [ 40.7032, 4.249735 ], [ 40.726929, 4.252342 ], [ 40.744441, 4.263331 ], [ 40.75792, 4.281452 ], [ 40.763612, 4.283933 ], [ 40.782517, 4.280693 ], [ 40.790419, 4.269647 ], [ 40.802709, 4.265528 ], [ 40.824276, 4.252343 ], [ 40.847302, 4.247881 ], [ 40.855163, 4.229347 ], [ 40.870484, 4.226359 ], [ 40.886023, 4.212731 ], [ 40.887195, 4.196196 ], [ 40.900435, 4.183089 ], [ 40.908335, 4.157461 ], [ 40.927713, 4.150543 ], [ 40.932147, 4.14896 ], [ 40.942378, 4.150305 ], [ 40.957236, 4.143691 ], [ 40.965418, 4.134654 ], [ 40.977487, 4.128671 ], [ 40.984101, 4.114854 ], [ 41.000114, 4.11095 ], [ 41.01876, 4.084626 ], [ 41.02753, 4.081692 ], [ 41.031308, 4.074804 ], [ 41.041223, 4.075012 ], [ 41.049325, 4.05988 ], [ 41.065821, 4.044888 ], [ 41.072088, 4.028154 ], [ 41.081379, 4.024007 ], [ 41.088016, 4.015239 ], [ 41.103405, 4.007821 ], [ 41.103345, 3.99967 ], [ 41.107487, 3.991235 ], [ 41.112232, 3.988118 ], [ 41.121277, 3.987955 ], [ 41.133548, 3.975833 ], [ 41.138271, 3.965596 ], [ 41.164812, 3.954903 ], [ 41.177024, 3.944681 ], [ 41.20769, 3.9356 ], [ 41.220255, 3.952443 ], [ 41.237039, 3.951666 ], [ 41.244988, 3.957304 ], [ 41.25066, 3.951519 ], [ 41.268172, 3.955298 ], [ 41.279345, 3.948188 ], [ 41.285009, 3.94921 ], [ 41.296282, 3.944703 ], [ 41.301905, 3.950054 ], [ 41.309382, 3.944962 ], [ 41.319865, 3.944508 ], [ 41.331129, 3.939622 ], [ 41.35416, 3.947113 ], [ 41.360203, 3.957509 ], [ 41.381246, 3.951888 ], [ 41.386037, 3.958838 ], [ 41.395259, 3.962526 ], [ 41.424155, 3.948244 ], [ 41.437549, 3.950121 ], [ 41.44175, 3.956013 ], [ 41.450833, 3.954919 ], [ 41.461952, 3.95846 ], [ 41.468822, 3.955727 ], [ 41.479561, 3.956109 ], [ 41.484473, 3.962249 ], [ 41.50037, 3.962079 ], [ 41.507062, 3.964681 ], [ 41.511575, 3.961811 ], [ 41.513874, 3.95452 ], [ 41.518546, 3.953404 ], [ 41.526631, 3.958797 ], [ 41.533537, 3.971001 ], [ 41.552436, 3.980694 ], [ 41.572888, 3.96802 ], [ 41.583688, 3.970919 ], [ 41.619087, 3.972279 ], [ 41.629255, 3.980101 ], [ 41.637113, 3.981966 ], [ 41.655726, 3.966423 ], [ 41.670722, 3.965476 ], [ 41.678319, 3.959433 ], [ 41.685138, 3.971637 ], [ 41.690812, 3.970947 ], [ 41.696285, 3.978053 ], [ 41.713583, 3.98436 ], [ 41.720785, 3.991107 ], [ 41.727747, 3.984809 ], [ 41.75233, 3.981192 ], [ 41.75813, 3.972505 ], [ 41.772893, 3.972326 ], [ 41.781615, 3.978767 ], [ 41.788989, 3.978107 ], [ 41.79759, 3.970329 ], [ 41.803259, 3.957638 ], [ 41.818894, 3.957511 ], [ 41.824915, 3.949443 ], [ 41.840026, 3.953641 ], [ 41.850031, 3.949849 ], [ 41.856191, 3.959379 ], [ 41.867421, 3.96118 ], [ 41.890012, 3.977791 ], [ 41.896582, 3.980177 ], [ 41.904192, 3.978484 ], [ 41.910119, 3.982319 ], [ 41.884904, 3.946221 ], [ 41.864149, 3.916508 ], [ 41.850693, 3.897245 ], [ 41.839776, 3.881615 ], [ 41.825864, 3.861699 ], [ 41.802652, 3.828469 ], [ 41.780104, 3.796189 ], [ 41.694583, 3.673757 ], [ 41.649059, 3.608584 ], [ 41.471527, 3.354429 ], [ 41.413405, 3.271222 ], [ 41.393832, 3.2432 ], [ 41.385928, 3.231884 ], [ 41.333217, 3.156423 ], [ 41.316349, 3.139697 ], [ 41.277634, 3.101307 ], [ 41.181624, 3.006103 ], [ 40.99565, 2.82169 ], [ 40.995615, 2.798365 ], [ 40.995592, 2.783619 ], [ 40.995547, 2.753641 ], [ 40.995401, 2.65785 ], [ 40.995333, 2.612791 ], [ 40.994918, 2.340036 ], [ 40.994875, 2.311588 ], [ 40.99467, 2.176726 ], [ 40.994497, 2.062996 ], [ 40.994317, 1.944448 ], [ 40.994572, 1.899179 ], [ 40.99517, 1.792671 ], [ 40.99565, 1.707357 ], [ 40.99565, 1.699522 ], [ 40.99565, 1.418241 ], [ 40.99565, 1.401316 ], [ 40.99565, 1.232742 ], [ 40.99565, 1.082447 ], [ 40.99565, 0.934637 ], [ 40.99565, 0.694074 ], [ 40.99565, 0.511567 ], [ 40.99565, 0.463695 ], [ 40.99565, 0.394629 ], [ 40.99565, 0.375592 ], [ 40.99565, 0.083628 ], [ 40.99565, 0.005737 ], [ 40.99565, -0.00085 ], [ 40.99565, -0.117002 ], [ 40.99565, -0.197391 ], [ 40.99565, -0.278816 ], [ 40.99565, -0.325961 ], [ 40.99565, -0.793265 ], [ 40.99565, -0.833242 ], [ 41.109331, -0.986719 ], [ 41.222203, -1.139105 ], [ 41.345385, -1.305419 ], [ 41.413405, -1.397252 ], [ 41.47258, -1.47714 ], [ 41.564494, -1.601221 ], [ 41.564494, -1.655753 ] ] ], [ [ [ 40.976476, -2.12205 ], [ 40.973589, -2.120729 ], [ 40.971116, -2.116015 ], [ 40.973599, -2.109885 ], [ 40.976476, -2.108731 ], [ 40.992225, -2.102416 ], [ 40.997854, -2.094858 ], [ 41.000603, -2.096257 ], [ 40.996816, -2.112215 ], [ 41.002808, -2.115301 ], [ 41.004597, -2.101607 ], [ 41.00824, -2.097735 ], [ 41.020563, -2.102733 ], [ 41.019258, -2.097866 ], [ 41.027519, -2.096182 ], [ 41.030003, -2.090438 ], [ 41.034118, -2.093283 ], [ 41.042068, -2.08545 ], [ 41.058203, -2.091691 ], [ 41.061095, -2.09356 ], [ 41.061477, -2.090309 ], [ 41.058203, -2.087813 ], [ 41.058203, -2.085025 ], [ 41.064975, -2.084001 ], [ 41.06726, -2.079859 ], [ 41.076515, -2.079515 ], [ 41.079378, -2.070169 ], [ 41.07745, -2.065647 ], [ 41.085755, -2.051227 ], [ 41.088984, -2.055724 ], [ 41.096621, -2.056808 ], [ 41.094614, -2.053012 ], [ 41.106279, -2.054876 ], [ 41.111198, -2.050875 ], [ 41.116315, -2.051677 ], [ 41.12114, -2.056808 ], [ 41.135474, -2.073508 ], [ 41.138445, -2.071931 ], [ 41.135116, -2.065514 ], [ 41.137048, -2.062084 ], [ 41.145521, -2.070742 ], [ 41.160673, -2.076135 ], [ 41.164065, -2.082452 ], [ 41.156978, -2.095276 ], [ 41.145521, -2.098879 ], [ 41.135331, -2.099812 ], [ 41.137805, -2.107982 ], [ 41.141829, -2.10944 ], [ 41.145521, -2.106591 ], [ 41.151002, -2.108029 ], [ 41.154295, -2.112819 ], [ 41.151983, -2.116692 ], [ 41.145521, -2.117569 ], [ 41.138179, -2.11682 ], [ 41.127461, -2.108147 ], [ 41.132479, -2.093794 ], [ 41.138764, -2.092346 ], [ 41.136719, -2.087775 ], [ 41.11348, -2.08483 ], [ 41.099556, -2.104317 ], [ 41.105943, -2.108666 ], [ 41.108874, -2.11572 ], [ 41.106414, -2.127641 ], [ 41.113341, -2.133588 ], [ 41.111525, -2.138855 ], [ 41.101714, -2.142528 ], [ 41.09263, -2.141577 ], [ 41.085163, -2.133027 ], [ 41.084183, -2.122798 ], [ 41.079957, -2.116017 ], [ 41.077489, -2.11946 ], [ 41.079614, -2.125566 ], [ 41.070682, -2.127799 ], [ 41.075231, -2.132069 ], [ 41.058203, -2.138988 ], [ 41.052081, -2.137161 ], [ 41.04609, -2.138439 ], [ 41.043827, -2.136127 ], [ 41.044766, -2.131581 ], [ 41.053473, -2.133601 ], [ 41.058203, -2.124885 ], [ 41.058203, -2.122768 ], [ 41.044105, -2.126166 ], [ 41.041527, -2.122652 ], [ 41.050079, -2.120832 ], [ 41.051068, -2.11554 ], [ 41.037845, -2.115031 ], [ 41.03551, -2.126108 ], [ 41.029406, -2.123463 ], [ 41.013198, -2.131325 ], [ 41.017221, -2.137373 ], [ 41.016515, -2.140857 ], [ 41.005347, -2.144391 ], [ 40.986058, -2.137931 ], [ 40.98477, -2.125846 ], [ 40.976476, -2.12205 ] ] ], [ [ [ 40.814227, -2.299221 ], [ 40.818221, -2.29307 ], [ 40.81961, -2.282452 ], [ 40.824088, -2.281463 ], [ 40.828064, -2.275774 ], [ 40.8332, -2.280396 ], [ 40.840075, -2.281121 ], [ 40.836135, -2.273953 ], [ 40.837725, -2.268175 ], [ 40.849776, -2.25861 ], [ 40.854526, -2.258317 ], [ 40.85868, -2.262179 ], [ 40.864402, -2.25945 ], [ 40.86655, -2.250132 ], [ 40.869429, -2.250132 ], [ 40.87166, -2.256815 ], [ 40.875792, -2.254238 ], [ 40.877746, -2.258083 ], [ 40.883179, -2.251869 ], [ 40.883179, -2.250132 ], [ 40.88809, -2.248877 ], [ 40.890926, -2.250132 ], [ 40.897351, -2.256898 ], [ 40.915634, -2.295409 ], [ 40.910184, -2.30123 ], [ 40.89624, -2.297433 ], [ 40.883179, -2.298584 ], [ 40.85663, -2.308319 ], [ 40.825867, -2.334553 ], [ 40.81566, -2.336667 ], [ 40.816638, -2.3142 ], [ 40.814227, -2.299221 ] ] ], [ [ [ 39.353036, -4.662745 ], [ 39.359573, -4.655546 ], [ 39.359869, -4.653613 ], [ 39.365699, -4.657746 ], [ 39.371339, -4.66043 ], [ 39.392866, -4.661798 ], [ 39.399749, -4.658705 ], [ 39.404492, -4.669273 ], [ 39.400945, -4.672778 ], [ 39.387419, -4.667185 ], [ 39.371339, -4.667259 ], [ 39.366516, -4.667368 ], [ 39.358951, -4.67128 ], [ 39.353069, -4.667347 ], [ 39.353036, -4.662745 ] ] ], [ [ [ 41.253959, -2.031393 ], [ 41.256528, -2.027212 ], [ 41.259388, -2.025375 ], [ 41.262238, -2.015944 ], [ 41.268604, -2.008865 ], [ 41.269511, -2.004936 ], [ 41.274454, -2.00362 ], [ 41.274447, -1.998906 ], [ 41.27913, -1.99759 ], [ 41.28381, -1.993394 ], [ 41.285234, -1.98894 ], [ 41.300438, -1.972946 ], [ 41.303295, -1.968752 ], [ 41.307458, -1.967961 ], [ 41.305126, -1.975296 ], [ 41.302525, -1.975954 ], [ 41.299927, -1.980017 ], [ 41.293298, -1.985525 ], [ 41.289405, -1.993648 ], [ 41.283557, -1.999155 ], [ 41.280962, -2.004396 ], [ 41.267965, -2.01659 ], [ 41.262771, -2.024847 ], [ 41.259002, -2.028518 ], [ 41.256276, -2.033759 ], [ 41.253959, -2.031393 ] ] ], [ [ [ 41.396602, -1.87938 ], [ 41.397517, -1.875357 ], [ 41.406175, -1.863085 ], [ 41.413403, -1.854912 ], [ 41.433363, -1.841521 ], [ 41.434625, -1.842751 ], [ 41.429429, -1.850912 ], [ 41.413403, -1.864481 ], [ 41.399912, -1.87792 ], [ 41.396602, -1.87938 ] ] ], [ [ [ 41.166304, -1.991333 ], [ 41.170356, -1.987245 ], [ 41.175554, -1.986473 ], [ 41.177705, -1.982387 ], [ 41.181763, -1.982892 ], [ 41.182276, -1.987229 ], [ 41.18724, -1.990367 ], [ 41.183299, -1.993479 ], [ 41.172907, -1.998342 ], [ 41.167069, -1.994905 ], [ 41.166304, -1.991333 ] ] ], [ [ [ 41.042698, -2.159028 ], [ 41.04887, -2.152681 ], [ 41.058199, -2.156133 ], [ 41.060732, -2.157391 ], [ 41.061402, -2.15922 ], [ 41.060647, -2.16191 ], [ 41.058199, -2.164492 ], [ 41.051406, -2.165842 ], [ 41.042698, -2.159028 ] ] ], [ [ [ 39.270277, -4.655567 ], [ 39.273052, -4.655221 ], [ 39.287995, -4.665785 ], [ 39.280943, -4.670134 ], [ 39.273052, -4.666858 ], [ 39.271153, -4.663852 ], [ 39.27158, -4.658521 ], [ 39.270277, -4.655567 ] ] ], [ [ [ 40.976476, -2.155751 ], [ 40.976476, -2.153627 ], [ 40.979192, -2.152408 ], [ 40.979317, -2.146834 ], [ 40.985384, -2.144569 ], [ 40.992381, -2.148409 ], [ 40.989353, -2.153192 ], [ 40.977749, -2.158383 ], [ 40.976476, -2.155751 ] ] ], [ [ [ 41.201712, -2.005404 ], [ 41.205045, -2.003348 ], [ 41.206647, -2.007095 ], [ 41.210108, -2.008162 ], [ 41.211178, -2.011909 ], [ 41.213692, -2.013041 ], [ 41.215078, -2.017896 ], [ 41.207725, -2.017269 ], [ 41.20333, -2.014598 ], [ 41.20206, -2.012186 ], [ 41.204254, -2.009241 ], [ 41.201712, -2.005404 ] ] ], [ [ [ 40.779232, -2.289256 ], [ 40.781556, -2.289122 ], [ 40.783872, -2.282496 ], [ 40.786971, -2.282232 ], [ 40.786191, -2.278594 ], [ 40.791869, -2.275732 ], [ 40.792392, -2.280667 ], [ 40.789295, -2.282749 ], [ 40.789301, -2.287165 ], [ 40.785175, -2.291586 ], [ 40.780268, -2.291462 ], [ 40.779232, -2.289256 ] ] ], [ [ [ 40.179008, -2.802791 ], [ 40.179562, -2.799169 ], [ 40.181754, -2.798569 ], [ 40.183824, -2.793128 ], [ 40.183112, -2.78638 ], [ 40.184508, -2.785164 ], [ 40.182965, -2.781162 ], [ 40.187176, -2.779471 ], [ 40.187374, -2.786349 ], [ 40.186299, -2.792544 ], [ 40.186316, -2.798746 ], [ 40.184817, -2.801723 ], [ 40.179008, -2.802791 ] ] ], [ [ [ 40.184177, -2.75535 ], [ 40.186615, -2.75399 ], [ 40.186615, -2.745661 ], [ 40.189504, -2.741539 ], [ 40.192913, -2.741882 ], [ 40.186615, -2.761078 ], [ 40.184707, -2.760991 ], [ 40.184177, -2.75535 ] ] ], [ [ [ 41.183316, -1.979733 ], [ 41.184555, -1.973483 ], [ 41.188462, -1.974024 ], [ 41.190367, -1.972394 ], [ 41.191818, -1.978167 ], [ 41.191826, -1.98439 ], [ 41.183316, -1.979733 ] ] ], [ [ [ 41.492516, -1.769663 ], [ 41.494955, -1.767676 ], [ 41.495612, -1.762542 ], [ 41.500911, -1.759066 ], [ 41.503618, -1.761361 ], [ 41.494829, -1.772282 ], [ 41.492516, -1.769663 ] ] ], [ [ [ 40.71144, -2.301678 ], [ 40.711928, -2.298714 ], [ 40.720347, -2.300643 ], [ 40.72086, -2.303715 ], [ 40.7191, -2.307113 ], [ 40.713598, -2.305976 ], [ 40.71144, -2.301678 ] ] ], [ [ [ 41.208576, -1.909796 ], [ 41.2122, -1.909792 ], [ 41.21505, -1.911871 ], [ 41.212982, -1.914218 ], [ 41.213638, -1.920989 ], [ 41.212881, -1.923732 ], [ 41.20937, -1.923339 ], [ 41.210263, -1.913701 ], [ 41.208576, -1.909796 ] ] ], [ [ [ 39.949848, -3.363227 ], [ 39.950107, -3.362445 ], [ 39.960817, -3.365012 ], [ 39.961012, -3.368693 ], [ 39.953487, -3.368962 ], [ 39.94985, -3.365835 ], [ 39.949848, -3.363227 ] ] ], [ [ [ 40.792523, -2.270868 ], [ 40.793999, -2.268364 ], [ 40.793999, -2.266145 ], [ 40.793999, -2.263571 ], [ 40.797934, -2.259843 ], [ 40.801413, -2.262211 ], [ 40.793999, -2.272674 ], [ 40.792523, -2.270868 ] ] ], [ [ [ 40.755537, -2.279541 ], [ 40.762048, -2.27684 ], [ 40.761759, -2.281692 ], [ 40.763221, -2.285207 ], [ 40.761868, -2.289037 ], [ 40.758059, -2.286307 ], [ 40.759448, -2.282138 ], [ 40.755537, -2.279541 ] ] ], [ [ [ 40.75653, -2.268892 ], [ 40.756951, -2.265783 ], [ 40.760022, -2.267586 ], [ 40.769076, -2.265493 ], [ 40.770372, -2.267573 ], [ 40.767787, -2.269138 ], [ 40.759767, -2.270058 ], [ 40.756664, -2.271624 ], [ 40.75653, -2.268892 ] ] ], [ [ [ 40.741603, -2.261453 ], [ 40.744104, -2.258881 ], [ 40.749581, -2.259576 ], [ 40.750888, -2.263505 ], [ 40.749328, -2.265865 ], [ 40.741603, -2.261453 ] ] ], [ [ [ 40.168547, -2.791158 ], [ 40.169753, -2.787164 ], [ 40.173506, -2.788357 ], [ 40.175753, -2.795722 ], [ 40.172513, -2.796615 ], [ 40.170617, -2.792169 ], [ 40.168547, -2.791158 ] ] ], [ [ [ 41.079163, -1.987846 ], [ 41.083353, -1.986637 ], [ 41.085056, -1.989303 ], [ 41.090277, -1.990464 ], [ 41.090164, -1.993513 ], [ 41.086798, -1.991343 ], [ 41.080999, -1.991643 ], [ 41.079163, -1.987846 ] ] ], [ [ [ 40.816933, -2.254098 ], [ 40.819517, -2.25034 ], [ 40.824468, -2.247858 ], [ 40.825942, -2.24992 ], [ 40.823554, -2.253957 ], [ 40.816933, -2.254098 ] ] ], [ [ [ 41.020311, -2.143125 ], [ 41.022326, -2.140836 ], [ 41.028034, -2.14378 ], [ 41.027498, -2.146902 ], [ 41.024261, -2.147857 ], [ 41.020311, -2.143125 ] ] ], [ [ [ 40.157708, -2.964702 ], [ 40.159781, -2.961638 ], [ 40.161725, -2.963207 ], [ 40.162036, -2.971019 ], [ 40.160039, -2.97248 ], [ 40.157708, -2.964702 ] ] ], [ [ [ 40.175983, -2.747723 ], [ 40.181998, -2.74304 ], [ 40.183645, -2.749366 ], [ 40.177626, -2.749097 ], [ 40.175983, -2.747723 ] ] ], [ [ [ 40.986353, -2.229294 ], [ 40.992935, -2.225876 ], [ 40.994115, -2.230362 ], [ 40.991496, -2.232201 ], [ 40.986353, -2.229294 ] ] ], [ [ [ 39.531976, -4.446091 ], [ 39.533583, -4.441979 ], [ 39.537679, -4.441682 ], [ 39.534173, -4.449027 ], [ 39.531976, -4.446091 ] ] ], [ [ [ 41.183221, -1.952436 ], [ 41.186109, -1.948738 ], [ 41.189254, -1.949261 ], [ 41.189312, -1.954145 ], [ 41.183221, -1.952436 ] ] ], [ [ [ 41.394919, -1.863669 ], [ 41.399731, -1.858629 ], [ 41.403374, -1.861157 ], [ 41.396277, -1.864425 ], [ 41.394919, -1.863669 ] ] ], [ [ [ 41.223091, -1.91899 ], [ 41.22713, -1.915185 ], [ 41.228615, -1.916864 ], [ 41.226054, -1.922899 ], [ 41.223091, -1.91899 ] ] ], [ [ [ 41.329739, -1.943568 ], [ 41.33179, -1.938186 ], [ 41.335752, -1.937558 ], [ 41.334256, -1.942427 ], [ 41.329739, -1.943568 ] ] ], [ [ [ 40.88041, -2.007215 ], [ 40.884629, -2.008058 ], [ 40.885098, -2.01314 ], [ 40.882527, -2.014002 ], [ 40.88041, -2.007215 ] ] ], [ [ [ 41.098367, -2.048619 ], [ 41.099837, -2.046001 ], [ 41.103476, -2.046114 ], [ 41.103611, -2.04969 ], [ 41.100411, -2.051327 ], [ 41.098367, -2.048619 ] ] ], [ [ [ 40.902783, -2.071422 ], [ 40.908006, -2.072033 ], [ 40.907947, -2.076815 ], [ 40.903414, -2.075045 ], [ 40.902783, -2.071422 ] ] ], [ [ [ 41.112432, -2.090416 ], [ 41.112618, -2.08871 ], [ 41.119628, -2.08819 ], [ 41.118347, -2.092541 ], [ 41.112432, -2.090416 ] ] ], [ [ [ 41.016919, -2.094395 ], [ 41.018083, -2.091165 ], [ 41.022523, -2.090861 ], [ 41.022704, -2.095446 ], [ 41.016919, -2.094395 ] ] ], [ [ [ 41.017191, -2.133696 ], [ 41.017496, -2.131846 ], [ 41.023008, -2.131223 ], [ 41.023686, -2.13455 ], [ 41.021425, -2.135682 ], [ 41.017191, -2.133696 ] ] ], [ [ [ 41.078471, -2.137047 ], [ 41.080307, -2.133887 ], [ 41.082454, -2.134032 ], [ 41.083157, -2.139288 ], [ 41.078806, -2.139386 ], [ 41.078471, -2.137047 ] ] ], [ [ [ 40.977112, -2.221688 ], [ 40.982134, -2.220566 ], [ 40.984275, -2.223775 ], [ 40.981998, -2.226155 ], [ 40.977112, -2.221688 ] ] ], [ [ [ 40.892064, -2.224919 ], [ 40.894779, -2.220492 ], [ 40.897699, -2.225711 ], [ 40.892373, -2.227308 ], [ 40.892064, -2.224919 ] ] ], [ [ [ 40.754217, -2.309436 ], [ 40.754571, -2.30707 ], [ 40.759575, -2.30568 ], [ 40.760375, -2.307237 ], [ 40.756319, -2.311546 ], [ 40.754217, -2.309436 ] ] ], [ [ [ 40.780175, -2.336639 ], [ 40.78429, -2.338178 ], [ 40.784878, -2.342978 ], [ 40.782293, -2.344058 ], [ 40.780175, -2.336639 ] ] ], [ [ [ 40.180654, -2.765678 ], [ 40.185206, -2.763739 ], [ 40.185128, -2.769483 ], [ 40.182775, -2.77068 ], [ 40.180654, -2.765678 ] ] ], [ [ [ 40.187068, -2.769417 ], [ 40.191096, -2.767049 ], [ 40.190087, -2.774946 ], [ 40.187771, -2.774309 ], [ 40.187068, -2.769417 ] ] ], [ [ [ 40.172137, -2.77797 ], [ 40.173568, -2.774805 ], [ 40.176556, -2.773535 ], [ 40.177716, -2.776237 ], [ 40.175573, -2.779694 ], [ 40.172137, -2.77797 ] ] ], [ [ [ 40.180959, -2.809447 ], [ 40.1834, -2.804173 ], [ 40.185848, -2.805526 ], [ 40.18546, -2.810763 ], [ 40.180959, -2.809447 ] ] ], [ [ [ 40.169653, -2.956764 ], [ 40.172996, -2.95689 ], [ 40.174703, -2.962101 ], [ 40.173157, -2.96309 ], [ 40.169656, -2.959578 ], [ 40.169653, -2.956764 ] ] ], [ [ [ 39.979013, -3.363197 ], [ 39.984202, -3.360574 ], [ 39.985326, -3.36162 ], [ 39.980444, -3.367893 ], [ 39.979013, -3.363197 ] ] ], [ [ [ 39.221729, -4.646939 ], [ 39.222643, -4.644184 ], [ 39.227676, -4.6451 ], [ 39.224475, -4.65038 ], [ 39.221729, -4.646939 ] ] ], [ [ [ 39.219979, -4.672601 ], [ 39.221471, -4.667804 ], [ 39.22387, -4.665998 ], [ 39.224908, -4.670183 ], [ 39.221792, -4.673388 ], [ 39.219979, -4.672601 ] ] ], [ [ [ 39.404525, -4.704803 ], [ 39.4057, -4.701159 ], [ 39.410187, -4.70253 ], [ 39.408255, -4.707235 ], [ 39.404525, -4.704803 ] ] ], [ [ [ 39.36843, -4.722511 ], [ 39.371326, -4.720846 ], [ 39.375461, -4.719078 ], [ 39.377287, -4.721159 ], [ 39.371326, -4.72405 ], [ 39.36843, -4.722511 ] ] ], [ [ [ 40.976476, -2.069458 ], [ 40.974698, -2.069644 ], [ 40.9752, -2.065698 ], [ 40.976476, -2.065426 ], [ 40.980552, -2.065546 ], [ 40.980372, -2.068277 ], [ 40.976476, -2.069458 ] ] ], [ [ [ 41.384787, -1.889706 ], [ 41.389361, -1.886932 ], [ 41.390198, -1.889684 ], [ 41.386087, -1.891715 ], [ 41.384787, -1.889706 ] ] ], [ [ [ 41.388808, -1.886937 ], [ 41.389075, -1.884965 ], [ 41.392184, -1.885057 ], [ 41.392075, -1.886866 ], [ 41.388808, -1.886937 ] ] ] ] } }
]
}
