{
"type": "FeatureCollection",
"name": "Kiribati",
"crs": { "type": "name", "properties": { "name": "urn:ogc:def:crs:OGC:1.3:CRS84" } },
"features": [
{ "type": "Feature", "properties": { "id": "KI", "CNTR_ID": "KI", "CNTR_NAME": "Kiribati", "NAME_ENGL": "Kiribati", "ISO3_CODE": "KIR", "FID": "KI" }, "geometry": { "type": "MultiPolygon", "coordinates": [ [ [ [ -157.362734, 1.993198 ], [ -157.358706, 1.99192 ], [ -157.346466, 1.990848 ], [ -157.326073, 1.990483 ], [ -157.31616, 1.988886 ], [ -157.307922, 1.979612 ], [ -157.303352, 1.971678 ], [ -157.30171, 1.96516 ], [ -157.301968, 1.960378 ], [ -157.304189, 1.953581 ], [ -157.307182, 1.949732 ], [ -157.312191, 1.948327 ], [ -157.317383, 1.944939 ], [ -157.327285, 1.941101 ], [ -157.332134, 1.936191 ], [ -157.335524, 1.929651 ], [ -157.34093, 1.913997 ], [ -157.345801, 1.904187 ], [ -157.343119, 1.890999 ], [ -157.343258, 1.879688 ], [ -157.344041, 1.874681 ], [ -157.342582, 1.864024 ], [ -157.342325, 1.854749 ], [ -157.340126, 1.844724 ], [ -157.332037, 1.832844 ], [ -157.325837, 1.828534 ], [ -157.320805, 1.828523 ], [ -157.317813, 1.826743 ], [ -157.310507, 1.817426 ], [ -157.298481, 1.810349 ], [ -157.292238, 1.807475 ], [ -157.283731, 1.80561 ], [ -157.27855, 1.805985 ], [ -157.274538, 1.804312 ], [ -157.267382, 1.798115 ], [ -157.263038, 1.795874 ], [ -157.254906, 1.794319 ], [ -157.248813, 1.791349 ], [ -157.244973, 1.787178 ], [ -157.232475, 1.779147 ], [ -157.216866, 1.776499 ], [ -157.206514, 1.770955 ], [ -157.199713, 1.769572 ], [ -157.191592, 1.766956 ], [ -157.184791, 1.766602 ], [ -157.178676, 1.764082 ], [ -157.171382, 1.756845 ], [ -157.16679, 1.746497 ], [ -157.164495, 1.73215 ], [ -157.163722, 1.714147 ], [ -157.166071, 1.704035 ], [ -157.169193, 1.69965 ], [ -157.174246, 1.697881 ], [ -157.190798, 1.697945 ], [ -157.205688, 1.693506 ], [ -157.211288, 1.693302 ], [ -157.22149, 1.696991 ], [ -157.233794, 1.6998 ], [ -157.240424, 1.702309 ], [ -157.251248, 1.714597 ], [ -157.254499, 1.719047 ], [ -157.266288, 1.725974 ], [ -157.27663, 1.730446 ], [ -157.30244, 1.747816 ], [ -157.308426, 1.754614 ], [ -157.314262, 1.758303 ], [ -157.330375, 1.7636 ], [ -157.338409, 1.766988 ], [ -157.348644, 1.77281 ], [ -157.359864, 1.774344 ], [ -157.362734, 1.775395 ], [ -157.387456, 1.776287 ], [ -157.434582, 1.786966 ], [ -157.465843, 1.81185 ], [ -157.479336, 1.841632 ], [ -157.486413, 1.849558 ], [ -157.503577, 1.858293 ], [ -157.539094, 1.847081 ], [ -157.552534, 1.858569 ], [ -157.561603, 1.872956 ], [ -157.558537, 1.87894 ], [ -157.538234, 1.895478 ], [ -157.530702, 1.908539 ], [ -157.492388, 1.933933 ], [ -157.491544, 1.928879 ], [ -157.501612, 1.923387 ], [ -157.507991, 1.91294 ], [ -157.533676, 1.897924 ], [ -157.538106, 1.885078 ], [ -157.536378, 1.874089 ], [ -157.520886, 1.88124 ], [ -157.50611, 1.879871 ], [ -157.491315, 1.885497 ], [ -157.473124, 1.877923 ], [ -157.462501, 1.887022 ], [ -157.460622, 1.895944 ], [ -157.45263, 1.90684 ], [ -157.444864, 1.908586 ], [ -157.44116, 1.916852 ], [ -157.424438, 1.920948 ], [ -157.426019, 1.934042 ], [ -157.421331, 1.943654 ], [ -157.425998, 1.951106 ], [ -157.424137, 1.957768 ], [ -157.428819, 1.973108 ], [ -157.430737, 1.997931 ], [ -157.439767, 2.007631 ], [ -157.44221, 2.003377 ], [ -157.438829, 2.00042 ], [ -157.442738, 1.995662 ], [ -157.452004, 1.996694 ], [ -157.453072, 2.00075 ], [ -157.444958, 2.000168 ], [ -157.454458, 2.008745 ], [ -157.446454, 2.01013 ], [ -157.445342, 2.01434 ], [ -157.455615, 2.02526 ], [ -157.461835, 2.018827 ], [ -157.469293, 2.026084 ], [ -157.480018, 2.022067 ], [ -157.483446, 2.017558 ], [ -157.479289, 1.999486 ], [ -157.481182, 1.996242 ], [ -157.496218, 2.029324 ], [ -157.495476, 2.038668 ], [ -157.491359, 2.044084 ], [ -157.481805, 2.04713 ], [ -157.453125, 2.048171 ], [ -157.427456, 2.040316 ], [ -157.404475, 2.014431 ], [ -157.379749, 1.998884 ], [ -157.362734, 1.993198 ] ] ], [ [ [ -154.970247, -4.012443 ], [ -154.966181, -3.999151 ], [ -154.923486, -3.995975 ], [ -154.907487, -3.98869 ], [ -154.893526, -3.987298 ], [ -154.891922, -3.993369 ], [ -154.903468, -4.018722 ], [ -154.903688, -4.042987 ], [ -154.921673, -4.05158 ], [ -154.938548, -4.041784 ], [ -154.966732, -4.018722 ], [ -154.970247, -4.012443 ] ] ], [ [ [ 173.801543, 0.455758 ], [ 173.816225, 0.4865 ], [ 173.824532, 0.492137 ], [ 173.837784, 0.494891 ], [ 173.86027, 0.480485 ], [ 173.913152, 0.435797 ], [ 173.917888, 0.428317 ], [ 173.922005, 0.417434 ], [ 173.921228, 0.412058 ], [ 173.924423, 0.409041 ], [ 173.942186, 0.360173 ], [ 173.94266, 0.347793 ], [ 173.940298, 0.344663 ], [ 173.944195, 0.340498 ], [ 173.942524, 0.336974 ], [ 173.944891, 0.323805 ], [ 173.940438, 0.310917 ], [ 173.932633, 0.305417 ], [ 173.905063, 0.308851 ], [ 173.906954, 0.314065 ], [ 173.933685, 0.316799 ], [ 173.936366, 0.331272 ], [ 173.934054, 0.364346 ], [ 173.925128, 0.383233 ], [ 173.92036, 0.402339 ], [ 173.906572, 0.428317 ], [ 173.854263, 0.478954 ], [ 173.841824, 0.486969 ], [ 173.833626, 0.486893 ], [ 173.826473, 0.482784 ], [ 173.804907, 0.45265 ], [ 173.801543, 0.455758 ] ] ], [ [ [ -155.934735, -5.632212 ], [ -155.927531, -5.630574 ], [ -155.907217, -5.627716 ], [ -155.898983, -5.62544 ], [ -155.893823, -5.621218 ], [ -155.890994, -5.620846 ], [ -155.875081, -5.624657 ], [ -155.855292, -5.624111 ], [ -155.848117, -5.628265 ], [ -155.840703, -5.636153 ], [ -155.838653, -5.637322 ], [ -155.838416, -5.641442 ], [ -155.840617, -5.644778 ], [ -155.857474, -5.649973 ], [ -155.864947, -5.654055 ], [ -155.867402, -5.656746 ], [ -155.875786, -5.663269 ], [ -155.881848, -5.661565 ], [ -155.893391, -5.655394 ], [ -155.897579, -5.650111 ], [ -155.909343, -5.641864 ], [ -155.928855, -5.63829 ], [ -155.933852, -5.635563 ], [ -155.934735, -5.632212 ] ] ], [ [ [ 174.327962, -0.575952 ], [ 174.328911, -0.575107 ], [ 174.352371, -0.576475 ], [ 174.362139, -0.580207 ], [ 174.394318, -0.604368 ], [ 174.415402, -0.627263 ], [ 174.439059, -0.642051 ], [ 174.451352, -0.658054 ], [ 174.455916, -0.687525 ], [ 174.453069, -0.715957 ], [ 174.468281, -0.750305 ], [ 174.477072, -0.788525 ], [ 174.47487, -0.806674 ], [ 174.464271, -0.812741 ], [ 174.451541, -0.802626 ], [ 174.453118, -0.793571 ], [ 174.458505, -0.790194 ], [ 174.457845, -0.799814 ], [ 174.467619, -0.803152 ], [ 174.472333, -0.785644 ], [ 174.465906, -0.758285 ], [ 174.450604, -0.730805 ], [ 174.451785, -0.688499 ], [ 174.445401, -0.65631 ], [ 174.436386, -0.650343 ], [ 174.4345, -0.643311 ], [ 174.42175, -0.638452 ], [ 174.409231, -0.628051 ], [ 174.395196, -0.609348 ], [ 174.384517, -0.604191 ], [ 174.369281, -0.591826 ], [ 174.34917, -0.581805 ], [ 174.333088, -0.580634 ], [ 174.327962, -0.575952 ] ] ], [ [ [ 174.659259, -1.127156 ], [ 174.660319, -1.115342 ], [ 174.66518, -1.104629 ], [ 174.68499, -1.127156 ], [ 174.688603, -1.137558 ], [ 174.697946, -1.14336 ], [ 174.701798, -1.140356 ], [ 174.709006, -1.146868 ], [ 174.712603, -1.145862 ], [ 174.718981, -1.150071 ], [ 174.723864, -1.156963 ], [ 174.726769, -1.157916 ], [ 174.733126, -1.169396 ], [ 174.734256, -1.174246 ], [ 174.74109, -1.182365 ], [ 174.744399, -1.182556 ], [ 174.746884, -1.187503 ], [ 174.745036, -1.19054 ], [ 174.750036, -1.199192 ], [ 174.755262, -1.198653 ], [ 174.758208, -1.20028 ], [ 174.760409, -1.205609 ], [ 174.767668, -1.214102 ], [ 174.774427, -1.219225 ], [ 174.780909, -1.227734 ], [ 174.776399, -1.229221 ], [ 174.773596, -1.224284 ], [ 174.770132, -1.221456 ], [ 174.76472, -1.219468 ], [ 174.758063, -1.21476 ], [ 174.742248, -1.198532 ], [ 174.739325, -1.194609 ], [ 174.731328, -1.187087 ], [ 174.727634, -1.181419 ], [ 174.726876, -1.175439 ], [ 174.725131, -1.17065 ], [ 174.715708, -1.162783 ], [ 174.710694, -1.159962 ], [ 174.707829, -1.156793 ], [ 174.698934, -1.153074 ], [ 174.683574, -1.143081 ], [ 174.678108, -1.138648 ], [ 174.6708, -1.135582 ], [ 174.666833, -1.135668 ], [ 174.66401, -1.133616 ], [ 174.659259, -1.127156 ] ] ], [ [ [ 176.451108, -1.327776 ], [ 176.454371, -1.337737 ], [ 176.45728, -1.349754 ], [ 176.459891, -1.356005 ], [ 176.466174, -1.36634 ], [ 176.471814, -1.371791 ], [ 176.482361, -1.378708 ], [ 176.487963, -1.384877 ], [ 176.491658, -1.392295 ], [ 176.494576, -1.402383 ], [ 176.493087, -1.404678 ], [ 176.489744, -1.404634 ], [ 176.484837, -1.40002 ], [ 176.477723, -1.395443 ], [ 176.47533, -1.39145 ], [ 176.473512, -1.379822 ], [ 176.469682, -1.372845 ], [ 176.460265, -1.364328 ], [ 176.456854, -1.362668 ], [ 176.447826, -1.352992 ], [ 176.440054, -1.347944 ], [ 176.433831, -1.341356 ], [ 176.422319, -1.331141 ], [ 176.418957, -1.327776 ], [ 176.405328, -1.317731 ], [ 176.403948, -1.313304 ], [ 176.412167, -1.311709 ], [ 176.438743, -1.315337 ], [ 176.451108, -1.327776 ] ] ], [ [ [ -159.363933, 3.855208 ], [ -159.362632, 3.85889 ], [ -159.35959, 3.857683 ], [ -159.357229, 3.853037 ], [ -159.352107, 3.849978 ], [ -159.351842, 3.844706 ], [ -159.34882, 3.836618 ], [ -159.344237, 3.82869 ], [ -159.340448, 3.825017 ], [ -159.334765, 3.823515 ], [ -159.330247, 3.820397 ], [ -159.323592, 3.819767 ], [ -159.307746, 3.814354 ], [ -159.297499, 3.815032 ], [ -159.294182, 3.817575 ], [ -159.286674, 3.817505 ], [ -159.282389, 3.819174 ], [ -159.280936, 3.818006 ], [ -159.277078, 3.821501 ], [ -159.277747, 3.823881 ], [ -159.274061, 3.824447 ], [ -159.271055, 3.827743 ], [ -159.270688, 3.830759 ], [ -159.256418, 3.833279 ], [ -159.25115, 3.839634 ], [ -159.248321, 3.841723 ], [ -159.249962, 3.84574 ], [ -159.246434, 3.846609 ], [ -159.246756, 3.854691 ], [ -159.251096, 3.859229 ], [ -159.249325, 3.862887 ], [ -159.247144, 3.86167 ], [ -159.244637, 3.863914 ], [ -159.242449, 3.861336 ], [ -159.240678, 3.850404 ], [ -159.241337, 3.843371 ], [ -159.24288, 3.837835 ], [ -159.247371, 3.831297 ], [ -159.250016, 3.829003 ], [ -159.27805, 3.811005 ], [ -159.285779, 3.80842 ], [ -159.299218, 3.807268 ], [ -159.310056, 3.80549 ], [ -159.320192, 3.805792 ], [ -159.33089, 3.808797 ], [ -159.339105, 3.81485 ], [ -159.349759, 3.828766 ], [ -159.356668, 3.83707 ], [ -159.360705, 3.845708 ], [ -159.363933, 3.855208 ] ] ], [ [ [ 176.001663, -1.327776 ], [ 176.00544, -1.337415 ], [ 176.025867, -1.36346 ], [ 176.027639, -1.369266 ], [ 176.023911, -1.373229 ], [ 176.019169, -1.372878 ], [ 175.995591, -1.356193 ], [ 175.986649, -1.344625 ], [ 175.985325, -1.338027 ], [ 175.995158, -1.33576 ], [ 175.993655, -1.327776 ], [ 175.985011, -1.309178 ], [ 175.977473, -1.300755 ], [ 175.96042, -1.297002 ], [ 175.961825, -1.281245 ], [ 175.954506, -1.281305 ], [ 175.95299, -1.294753 ], [ 175.946432, -1.292662 ], [ 175.945983, -1.287346 ], [ 175.954895, -1.272082 ], [ 175.980928, -1.294875 ], [ 176.001663, -1.327776 ] ] ], [ [ [ 173.251142, 1.990999 ], [ 173.258669, 2.01251 ], [ 173.25753, 2.031837 ], [ 173.26029, 2.048845 ], [ 173.265124, 2.057014 ], [ 173.270867, 2.060514 ], [ 173.27551, 2.058764 ], [ 173.281217, 2.051183 ], [ 173.287494, 2.031837 ], [ 173.294611, 2.006462 ], [ 173.307961, 1.980422 ], [ 173.307353, 1.974896 ], [ 173.301771, 1.971044 ], [ 173.296106, 1.971458 ], [ 173.300754, 1.979929 ], [ 173.290203, 1.994754 ], [ 173.291179, 2.001642 ], [ 173.285277, 2.017729 ], [ 173.284015, 2.031837 ], [ 173.278031, 2.041621 ], [ 173.263272, 2.039024 ], [ 173.260978, 2.031837 ], [ 173.263015, 2.014949 ], [ 173.258488, 2.000975 ], [ 173.258661, 1.983901 ], [ 173.265965, 1.978336 ], [ 173.286406, 1.973718 ], [ 173.286941, 1.971595 ], [ 173.257963, 1.974857 ], [ 173.253807, 1.978347 ], [ 173.251142, 1.990999 ] ] ], [ [ [ -160.410531, 4.690282 ], [ -160.409902, 4.693992 ], [ -160.40604, 4.697139 ], [ -160.401312, 4.699224 ], [ -160.39164, 4.699133 ], [ -160.381189, 4.696683 ], [ -160.371244, 4.69143 ], [ -160.360878, 4.688883 ], [ -160.35267, 4.68587 ], [ -160.350357, 4.678354 ], [ -160.350906, 4.674913 ], [ -160.354101, 4.671364 ], [ -160.362083, 4.668576 ], [ -160.377467, 4.669761 ], [ -160.387843, 4.674746 ], [ -160.393394, 4.67651 ], [ -160.399736, 4.679963 ], [ -160.408552, 4.686144 ], [ -160.410531, 4.690282 ] ] ], [ [ [ 172.994598, 1.023242 ], [ 172.997553, 1.027218 ], [ 172.996916, 1.029017 ], [ 173.002279, 1.030299 ], [ 173.007896, 1.028496 ], [ 173.010958, 1.02541 ], [ 173.017341, 1.023735 ], [ 173.02806, 1.013575 ], [ 173.030868, 1.012545 ], [ 173.038269, 1.005601 ], [ 173.051543, 0.998395 ], [ 173.055881, 0.99428 ], [ 173.060474, 0.987337 ], [ 173.067365, 0.982449 ], [ 173.071574, 0.976792 ], [ 173.072081, 0.97088 ], [ 173.07016, 0.960343 ], [ 173.063516, 0.951993 ], [ 173.058152, 0.948655 ], [ 173.048702, 0.944034 ], [ 173.046915, 0.945449 ], [ 173.054646, 0.949876 ], [ 173.061566, 0.957867 ], [ 173.063525, 0.966259 ], [ 173.060721, 0.974486 ], [ 173.056384, 0.980914 ], [ 173.049749, 0.988372 ], [ 173.041072, 0.995318 ], [ 173.028308, 1.001622 ], [ 173.021673, 1.008438 ], [ 173.023208, 1.014092 ], [ 173.011311, 1.011811 ], [ 173.010139, 1.01427 ], [ 173.005651, 1.014796 ], [ 173.007364, 1.01087 ], [ 173.005577, 1.007319 ], [ 173.002253, 1.004408 ], [ 173.001097, 1.005692 ], [ 173.002964, 1.009444 ], [ 173.003037, 1.01319 ], [ 173.000225, 1.013079 ], [ 172.998823, 1.016678 ], [ 172.995888, 1.018479 ], [ 172.994598, 1.023242 ] ] ], [ [ [ 172.742595, 3.079432 ], [ 172.745013, 3.080284 ], [ 172.748384, 3.078129 ], [ 172.751204, 3.073503 ], [ 172.755327, 3.072272 ], [ 172.754975, 3.069945 ], [ 172.75776, 3.066286 ], [ 172.761866, 3.067288 ], [ 172.765864, 3.065292 ], [ 172.772817, 3.067609 ], [ 172.786502, 3.069592 ], [ 172.790324, 3.071073 ], [ 172.793937, 3.077018 ], [ 172.800012, 3.08278 ], [ 172.806822, 3.086827 ], [ 172.812039, 3.087897 ], [ 172.816481, 3.090385 ], [ 172.820222, 3.096636 ], [ 172.827852, 3.099085 ], [ 172.838243, 3.099709 ], [ 172.843652, 3.102416 ], [ 172.847482, 3.101477 ], [ 172.856776, 3.101616 ], [ 172.859915, 3.103925 ], [ 172.863212, 3.10264 ], [ 172.870164, 3.10431 ], [ 172.87303, 3.102239 ], [ 172.882833, 3.102343 ], [ 172.884744, 3.103356 ], [ 172.890225, 3.102712 ], [ 172.892601, 3.104918 ], [ 172.895646, 3.103722 ], [ 172.897903, 3.096494 ], [ 172.900467, 3.096809 ], [ 172.899213, 3.091963 ], [ 172.8635, 3.098194 ], [ 172.825281, 3.091963 ], [ 172.806088, 3.082573 ], [ 172.801155, 3.079281 ], [ 172.796632, 3.073132 ], [ 172.792791, 3.069399 ], [ 172.784087, 3.066112 ], [ 172.77273, 3.060468 ], [ 172.767904, 3.053646 ], [ 172.764816, 3.053522 ], [ 172.763258, 3.045504 ], [ 172.7657, 3.043689 ], [ 172.764151, 3.040587 ], [ 172.75823, 3.039562 ], [ 172.760048, 3.049908 ], [ 172.759025, 3.054049 ], [ 172.754663, 3.062336 ], [ 172.753553, 3.067645 ], [ 172.748762, 3.073471 ], [ 172.742595, 3.079432 ] ] ], [ [ [ 172.953792, 1.610377 ], [ 172.961686, 1.624638 ], [ 172.958501, 1.634076 ], [ 172.962861, 1.633387 ], [ 172.965933, 1.62639 ], [ 172.965814, 1.61475 ], [ 172.975047, 1.583895 ], [ 172.973722, 1.572875 ], [ 172.980756, 1.561252 ], [ 172.993236, 1.555241 ], [ 172.998647, 1.540749 ], [ 173.005636, 1.527527 ], [ 173.01315, 1.520107 ], [ 173.015992, 1.502954 ], [ 173.023287, 1.49768 ], [ 173.023038, 1.49401 ], [ 173.027958, 1.492881 ], [ 173.03262, 1.478767 ], [ 173.028571, 1.478312 ], [ 173.025488, 1.487388 ], [ 173.014207, 1.497575 ], [ 172.998647, 1.531475 ], [ 172.991863, 1.547384 ], [ 172.978579, 1.55659 ], [ 172.972928, 1.564189 ], [ 172.969357, 1.571654 ], [ 172.966838, 1.596773 ], [ 172.961078, 1.605741 ], [ 172.953792, 1.610377 ] ] ], [ [ [ 173.410597, 0.231136 ], [ 173.418158, 0.231752 ], [ 173.423787, 0.228773 ], [ 173.425672, 0.230134 ], [ 173.431332, 0.226986 ], [ 173.433109, 0.227191 ], [ 173.443542, 0.220256 ], [ 173.45204, 0.216274 ], [ 173.453036, 0.213621 ], [ 173.442277, 0.209475 ], [ 173.43486, 0.204584 ], [ 173.427293, 0.198087 ], [ 173.425103, 0.194581 ], [ 173.420529, 0.194959 ], [ 173.421232, 0.199009 ], [ 173.415033, 0.205823 ], [ 173.413747, 0.216447 ], [ 173.410597, 0.231136 ] ] ], [ [ [ -159.326678, 3.90552 ], [ -159.324481, 3.9094 ], [ -159.325858, 3.917212 ], [ -159.3208, 3.928492 ], [ -159.319177, 3.926622 ], [ -159.317783, 3.910721 ], [ -159.317772, 3.904676 ], [ -159.316485, 3.900653 ], [ -159.311357, 3.893552 ], [ -159.306074, 3.889014 ], [ -159.292578, 3.882178 ], [ -159.283338, 3.880389 ], [ -159.266309, 3.879599 ], [ -159.266634, 3.878044 ], [ -159.258005, 3.873681 ], [ -159.253262, 3.873331 ], [ -159.250444, 3.87108 ], [ -159.251414, 3.867354 ], [ -159.254122, 3.863883 ], [ -159.257207, 3.864164 ], [ -159.260963, 3.869552 ], [ -159.269187, 3.870741 ], [ -159.271129, 3.86909 ], [ -159.279598, 3.869966 ], [ -159.283508, 3.871754 ], [ -159.291067, 3.872651 ], [ -159.295137, 3.874827 ], [ -159.297967, 3.878213 ], [ -159.303196, 3.87953 ], [ -159.311288, 3.885023 ], [ -159.315511, 3.88644 ], [ -159.320001, 3.89101 ], [ -159.325417, 3.899825 ], [ -159.326678, 3.90552 ] ] ], [ [ [ -159.394623, 3.90045 ], [ -159.392382, 3.907186 ], [ -159.390221, 3.90968 ], [ -159.388414, 3.915194 ], [ -159.384162, 3.921372 ], [ -159.378345, 3.926875 ], [ -159.360229, 3.937269 ], [ -159.349719, 3.939768 ], [ -159.346689, 3.938794 ], [ -159.347021, 3.936514 ], [ -159.34323, 3.929814 ], [ -159.345386, 3.928795 ], [ -159.349402, 3.930023 ], [ -159.355089, 3.926054 ], [ -159.362411, 3.92466 ], [ -159.369851, 3.925555 ], [ -159.38034, 3.91949 ], [ -159.383718, 3.915592 ], [ -159.385103, 3.911225 ], [ -159.384291, 3.898154 ], [ -159.384646, 3.890104 ], [ -159.382001, 3.885223 ], [ -159.367518, 3.876411 ], [ -159.364287, 3.875585 ], [ -159.3634, 3.870446 ], [ -159.367054, 3.863734 ], [ -159.373873, 3.87072 ], [ -159.382974, 3.877033 ], [ -159.387947, 3.882766 ], [ -159.392785, 3.891032 ], [ -159.394623, 3.90045 ] ] ], [ [ [ -171.263437, -4.453775 ], [ -171.262625, -4.45062 ], [ -171.259336, -4.447653 ], [ -171.245941, -4.439171 ], [ -171.24185, -4.438251 ], [ -171.238457, -4.44008 ], [ -171.230975, -4.452777 ], [ -171.225171, -4.461327 ], [ -171.225718, -4.464774 ], [ -171.227945, -4.466642 ], [ -171.235585, -4.467908 ], [ -171.252695, -4.466828 ], [ -171.258815, -4.462636 ], [ -171.262338, -4.457688 ], [ -171.263437, -4.453775 ] ] ], [ [ [ 173.119344, 1.395499 ], [ 173.124683, 1.400379 ], [ 173.129355, 1.396962 ], [ 173.132563, 1.396596 ], [ 173.136416, 1.393459 ], [ 173.13893, 1.394478 ], [ 173.141534, 1.391018 ], [ 173.150344, 1.385002 ], [ 173.154057, 1.38137 ], [ 173.155302, 1.382065 ], [ 173.15971, 1.379253 ], [ 173.163175, 1.37532 ], [ 173.16484, 1.371021 ], [ 173.163423, 1.362131 ], [ 173.158514, 1.358274 ], [ 173.136876, 1.36176 ], [ 173.136085, 1.364635 ], [ 173.142249, 1.366059 ], [ 173.145817, 1.365558 ], [ 173.145795, 1.373359 ], [ 173.144567, 1.379388 ], [ 173.141285, 1.378251 ], [ 173.136887, 1.381979 ], [ 173.131529, 1.382199 ], [ 173.130531, 1.389274 ], [ 173.125517, 1.392904 ], [ 173.119344, 1.395499 ] ] ], [ [ [ 176.789878, -2.613621 ], [ 176.791887, -2.612609 ], [ 176.809457, -2.617246 ], [ 176.81894, -2.623088 ], [ 176.823975, -2.629167 ], [ 176.830351, -2.639527 ], [ 176.842063, -2.653389 ], [ 176.845488, -2.660011 ], [ 176.847593, -2.67149 ], [ 176.84559, -2.671888 ], [ 176.828983, -2.652367 ], [ 176.824664, -2.64404 ], [ 176.820814, -2.6385 ], [ 176.812306, -2.629323 ], [ 176.803776, -2.622572 ], [ 176.789878, -2.613621 ] ] ], [ [ [ 169.52128, -0.852898 ], [ 169.527182, -0.845782 ], [ 169.530124, -0.844654 ], [ 169.540721, -0.845088 ], [ 169.544704, -0.84691 ], [ 169.549912, -0.853506 ], [ 169.549391, -0.863485 ], [ 169.546412, -0.870679 ], [ 169.542229, -0.87442 ], [ 169.538282, -0.867564 ], [ 169.532563, -0.865915 ], [ 169.526661, -0.865915 ], [ 169.522322, -0.857584 ], [ 169.52128, -0.852898 ] ] ], [ [ [ 173.610475, 0.120906 ], [ 173.614588, 0.127043 ], [ 173.617126, 0.129247 ], [ 173.618356, 0.134536 ], [ 173.621715, 0.132447 ], [ 173.628283, 0.139941 ], [ 173.63457, 0.153722 ], [ 173.637972, 0.166254 ], [ 173.638013, 0.171774 ], [ 173.634721, 0.179002 ], [ 173.629618, 0.183846 ], [ 173.631101, 0.189517 ], [ 173.632611, 0.190694 ], [ 173.63513, 0.187744 ], [ 173.637367, 0.192498 ], [ 173.63892, 0.192244 ], [ 173.644174, 0.176977 ], [ 173.643935, 0.167295 ], [ 173.636336, 0.146767 ], [ 173.63414, 0.13852 ], [ 173.62979, 0.129411 ], [ 173.622316, 0.121947 ], [ 173.619366, 0.122334 ], [ 173.61381, 0.117963 ], [ 173.610475, 0.120906 ] ] ], [ [ [ -171.092328, -3.110477 ], [ -171.091563, -3.107056 ], [ -171.088759, -3.104116 ], [ -171.083354, -3.103553 ], [ -171.0816, -3.106368 ], [ -171.081883, -3.110477 ], [ -171.074814, -3.142589 ], [ -171.087078, -3.1472 ], [ -171.092034, -3.141427 ], [ -171.092328, -3.110477 ] ] ], [ [ [ 172.985762, 0.861132 ], [ 172.991436, 0.864892 ], [ 172.996585, 0.865512 ], [ 173.005101, 0.873816 ], [ 173.010651, 0.882641 ], [ 173.015557, 0.893803 ], [ 173.018606, 0.906402 ], [ 173.021252, 0.914506 ], [ 173.027504, 0.927669 ], [ 173.039899, 0.939509 ], [ 173.040989, 0.937537 ], [ 173.038408, 0.935592 ], [ 173.030922, 0.924951 ], [ 173.028468, 0.9195 ], [ 173.024205, 0.905482 ], [ 173.016199, 0.887571 ], [ 173.0069, 0.860833 ], [ 173.004575, 0.855642 ], [ 173.000187, 0.849153 ], [ 172.995416, 0.852271 ], [ 172.996322, 0.856295 ], [ 173.000965, 0.857202 ], [ 172.999864, 0.861325 ], [ 172.995549, 0.859022 ], [ 172.991177, 0.861777 ], [ 172.988161, 0.857258 ], [ 172.985762, 0.861132 ] ] ], [ [ [ -171.690033, -2.773441 ], [ -171.688722, -2.77269 ], [ -171.677261, -2.779484 ], [ -171.667343, -2.789069 ], [ -171.658689, -2.795426 ], [ -171.654015, -2.797931 ], [ -171.64009, -2.803232 ], [ -171.637354, -2.805618 ], [ -171.634577, -2.811161 ], [ -171.632868, -2.817932 ], [ -171.626877, -2.828196 ], [ -171.624488, -2.844289 ], [ -171.622071, -2.847413 ], [ -171.616283, -2.857871 ], [ -171.614968, -2.865638 ], [ -171.616417, -2.870173 ], [ -171.620722, -2.870592 ], [ -171.63429, -2.861257 ], [ -171.641456, -2.852389 ], [ -171.646777, -2.847468 ], [ -171.64382, -2.846036 ], [ -171.633442, -2.858188 ], [ -171.630346, -2.85942 ], [ -171.627442, -2.863525 ], [ -171.621877, -2.865052 ], [ -171.619855, -2.86327 ], [ -171.619121, -2.85761 ], [ -171.626855, -2.845671 ], [ -171.629689, -2.837886 ], [ -171.628878, -2.834054 ], [ -171.630974, -2.826729 ], [ -171.634769, -2.820055 ], [ -171.63772, -2.809825 ], [ -171.641155, -2.807394 ], [ -171.645275, -2.80687 ], [ -171.647158, -2.802944 ], [ -171.651959, -2.801027 ], [ -171.655105, -2.801259 ], [ -171.662178, -2.797135 ], [ -171.670635, -2.788463 ], [ -171.689673, -2.77422 ], [ -171.690033, -2.773441 ] ] ], [ [ [ 173.536183, 0.183032 ], [ 173.538263, 0.186259 ], [ 173.545465, 0.189248 ], [ 173.553641, 0.18758 ], [ 173.567241, 0.186245 ], [ 173.567861, 0.18241 ], [ 173.574065, 0.178014 ], [ 173.572708, 0.175529 ], [ 173.584701, 0.173437 ], [ 173.5845, 0.171497 ], [ 173.577272, 0.171152 ], [ 173.569215, 0.171693 ], [ 173.563787, 0.16973 ], [ 173.544068, 0.176902 ], [ 173.536183, 0.183032 ] ] ], [ [ [ 175.517914, -1.796471 ], [ 175.518722, -1.792086 ], [ 175.521818, -1.793506 ], [ 175.523779, -1.791384 ], [ 175.530504, -1.794467 ], [ 175.536571, -1.799404 ], [ 175.547306, -1.801939 ], [ 175.556803, -1.806765 ], [ 175.559169, -1.814944 ], [ 175.557414, -1.817898 ], [ 175.554809, -1.828644 ], [ 175.554618, -1.84006 ], [ 175.552231, -1.841009 ], [ 175.549635, -1.835617 ], [ 175.550401, -1.828304 ], [ 175.553974, -1.819057 ], [ 175.552719, -1.815167 ], [ 175.549869, -1.811978 ], [ 175.537129, -1.808853 ], [ 175.533386, -1.806366 ], [ 175.52781, -1.800568 ], [ 175.521253, -1.802604 ], [ 175.517914, -1.796471 ] ] ], [ [ [ 172.943578, 1.921769 ], [ 172.945134, 1.922436 ], [ 172.953434, 1.913581 ], [ 172.979001, 1.893923 ], [ 172.987246, 1.881276 ], [ 172.992117, 1.863347 ], [ 173.013703, 1.832515 ], [ 173.012246, 1.831457 ], [ 172.989821, 1.861193 ], [ 172.984098, 1.878068 ], [ 172.97603, 1.889939 ], [ 172.959501, 1.904778 ], [ 172.948368, 1.909118 ], [ 172.943578, 1.921769 ] ] ], [ [ [ 173.379322, 0.261546 ], [ 173.381164, 0.264931 ], [ 173.387119, 0.271208 ], [ 173.40035, 0.262842 ], [ 173.404529, 0.258657 ], [ 173.402808, 0.256614 ], [ 173.406593, 0.249359 ], [ 173.409924, 0.239076 ], [ 173.407947, 0.236165 ], [ 173.404456, 0.241321 ], [ 173.396876, 0.247066 ], [ 173.389179, 0.254143 ], [ 173.380936, 0.259265 ], [ 173.379322, 0.261546 ] ] ], [ [ [ 172.977916, 3.374521 ], [ 172.979702, 3.377856 ], [ 172.987308, 3.383921 ], [ 172.994414, 3.391726 ], [ 172.999018, 3.392596 ], [ 173.002036, 3.391641 ], [ 173.00509, 3.394137 ], [ 173.0074, 3.391924 ], [ 173.00587, 3.389504 ], [ 173.00768, 3.38396 ], [ 173.005203, 3.378827 ], [ 173.002835, 3.380556 ], [ 172.996542, 3.379046 ], [ 172.996593, 3.376178 ], [ 172.990806, 3.371138 ], [ 172.98669, 3.364154 ], [ 172.985103, 3.361461 ], [ 172.983631, 3.361359 ], [ 172.983149, 3.364154 ], [ 172.982445, 3.368238 ], [ 172.977916, 3.374521 ] ] ], [ [ [ 175.96485, -2.486882 ], [ 175.965727, -2.484392 ], [ 175.971338, -2.483509 ], [ 175.97795, -2.486936 ], [ 175.983505, -2.491971 ], [ 175.997873, -2.507676 ], [ 176.000123, -2.511264 ], [ 175.999399, -2.515561 ], [ 175.99071, -2.51473 ], [ 175.987303, -2.510781 ], [ 175.984642, -2.505545 ], [ 175.974079, -2.495959 ], [ 175.964913, -2.490042 ], [ 175.96485, -2.486882 ] ] ], [ [ [ 175.567611, -1.85943 ], [ 175.569749, -1.857169 ], [ 175.572159, -1.861626 ], [ 175.573346, -1.859397 ], [ 175.579635, -1.864524 ], [ 175.585254, -1.86713 ], [ 175.593847, -1.869975 ], [ 175.595688, -1.868805 ], [ 175.603052, -1.873033 ], [ 175.605292, -1.873214 ], [ 175.615993, -1.884653 ], [ 175.619281, -1.89438 ], [ 175.618142, -1.90559 ], [ 175.613832, -1.917795 ], [ 175.609624, -1.924724 ], [ 175.604556, -1.931506 ], [ 175.602978, -1.930748 ], [ 175.606042, -1.924836 ], [ 175.610618, -1.919092 ], [ 175.614088, -1.908584 ], [ 175.614598, -1.895778 ], [ 175.613385, -1.889843 ], [ 175.607149, -1.880633 ], [ 175.60119, -1.876825 ], [ 175.588739, -1.871783 ], [ 175.580843, -1.869486 ], [ 175.571797, -1.864487 ], [ 175.567611, -1.85943 ] ] ], [ [ [ 173.023166, 1.819464 ], [ 173.024728, 1.820087 ], [ 173.045793, 1.797451 ], [ 173.048591, 1.779242 ], [ 173.046684, 1.76011 ], [ 173.04074, 1.742474 ], [ 173.035867, 1.73638 ], [ 173.034258, 1.737274 ], [ 173.044936, 1.767501 ], [ 173.044599, 1.781718 ], [ 173.040027, 1.795188 ], [ 173.023166, 1.819464 ] ] ], [ [ [ 175.04939, -1.470501 ], [ 175.051592, -1.47096 ], [ 175.054363, -1.467845 ], [ 175.064804, -1.468757 ], [ 175.068764, -1.467401 ], [ 175.068079, -1.470891 ], [ 175.07442, -1.478481 ], [ 175.078308, -1.480169 ], [ 175.078009, -1.484662 ], [ 175.074908, -1.49571 ], [ 175.069631, -1.494039 ], [ 175.071125, -1.482824 ], [ 175.068879, -1.483682 ], [ 175.058886, -1.481982 ], [ 175.050081, -1.47265 ], [ 175.04939, -1.470501 ] ] ], [ [ [ 173.077612, 1.437356 ], [ 173.080163, 1.441094 ], [ 173.082616, 1.437347 ], [ 173.088359, 1.439364 ], [ 173.09631, 1.433136 ], [ 173.115491, 1.409184 ], [ 173.122625, 1.404383 ], [ 173.122351, 1.401405 ], [ 173.118331, 1.399108 ], [ 173.103595, 1.419578 ], [ 173.085623, 1.429413 ], [ 173.077612, 1.437356 ] ] ], [ [ [ -172.225503, -4.517143 ], [ -172.224485, -4.513982 ], [ -172.222493, -4.512141 ], [ -172.218351, -4.509466 ], [ -172.214679, -4.50812 ], [ -172.214542, -4.507376 ], [ -172.21291, -4.506418 ], [ -172.208298, -4.505579 ], [ -172.204828, -4.504083 ], [ -172.203478, -4.5043 ], [ -172.200239, -4.503308 ], [ -172.200484, -4.505692 ], [ -172.205232, -4.50688 ], [ -172.207497, -4.507922 ], [ -172.207889, -4.508754 ], [ -172.209331, -4.508901 ], [ -172.212539, -4.510665 ], [ -172.2159, -4.511868 ], [ -172.219365, -4.514289 ], [ -172.219937, -4.515888 ], [ -172.219942, -4.519554 ], [ -172.218645, -4.523758 ], [ -172.215256, -4.527089 ], [ -172.213561, -4.528051 ], [ -172.210618, -4.531043 ], [ -172.208975, -4.531661 ], [ -172.206033, -4.533539 ], [ -172.202663, -4.533978 ], [ -172.200822, -4.534832 ], [ -172.199009, -4.53478 ], [ -172.197258, -4.535719 ], [ -172.196212, -4.5354 ], [ -172.193945, -4.537497 ], [ -172.190788, -4.537965 ], [ -172.188005, -4.538899 ], [ -172.186046, -4.538153 ], [ -172.184271, -4.536214 ], [ -172.181691, -4.534539 ], [ -172.180267, -4.532501 ], [ -172.178743, -4.531586 ], [ -172.17763, -4.529613 ], [ -172.176409, -4.529528 ], [ -172.173196, -4.52549 ], [ -172.172145, -4.52791 ], [ -172.179981, -4.535426 ], [ -172.181272, -4.536975 ], [ -172.183845, -4.539172 ], [ -172.188336, -4.541937 ], [ -172.190897, -4.542612 ], [ -172.194499, -4.542201 ], [ -172.199066, -4.540527 ], [ -172.204476, -4.537578 ], [ -172.210179, -4.534766 ], [ -172.215119, -4.531269 ], [ -172.217968, -4.52891 ], [ -172.222185, -4.524626 ], [ -172.224372, -4.521389 ], [ -172.225503, -4.517143 ] ] ], [ [ [ 175.009182, -1.439547 ], [ 175.011322, -1.434804 ], [ 175.017629, -1.434645 ], [ 175.025568, -1.440966 ], [ 175.024753, -1.44557 ], [ 175.02743, -1.44557 ], [ 175.03214, -1.442051 ], [ 175.034275, -1.44557 ], [ 175.034022, -1.448039 ], [ 175.042309, -1.454321 ], [ 175.036827, -1.459571 ], [ 175.022085, -1.448753 ], [ 175.021566, -1.44557 ], [ 175.017629, -1.443825 ], [ 175.009182, -1.439547 ] ] ], [ [ [ -150.210689, -9.905186 ], [ -150.209392, -9.903221 ], [ -150.20385, -9.906171 ], [ -150.199972, -9.914214 ], [ -150.197451, -9.932688 ], [ -150.198462, -9.937385 ], [ -150.196474, -9.948135 ], [ -150.198162, -9.948697 ], [ -150.200773, -9.943657 ], [ -150.201365, -9.935847 ], [ -150.199776, -9.933005 ], [ -150.200255, -9.927241 ], [ -150.204327, -9.927795 ], [ -150.204668, -9.934054 ], [ -150.20771, -9.931994 ], [ -150.206588, -9.924685 ], [ -150.206778, -9.917136 ], [ -150.210689, -9.905186 ] ] ], [ [ [ 173.761573, 0.38942 ], [ 173.765605, 0.39304 ], [ 173.771892, 0.393459 ], [ 173.792759, 0.380864 ], [ 173.792759, 0.378699 ], [ 173.768905, 0.382105 ], [ 173.762795, 0.385624 ], [ 173.761573, 0.38942 ] ] ], [ [ [ -171.723389, -2.787822 ], [ -171.720539, -2.784087 ], [ -171.721223, -2.769314 ], [ -171.72033, -2.765932 ], [ -171.71543, -2.764762 ], [ -171.704839, -2.767826 ], [ -171.697732, -2.768305 ], [ -171.690601, -2.771906 ], [ -171.6912, -2.773588 ], [ -171.699984, -2.771669 ], [ -171.703161, -2.772371 ], [ -171.70903, -2.769331 ], [ -171.713111, -2.768632 ], [ -171.716092, -2.770749 ], [ -171.71697, -2.774261 ], [ -171.716195, -2.780168 ], [ -171.712137, -2.782603 ], [ -171.713919, -2.786626 ], [ -171.718147, -2.7859 ], [ -171.718208, -2.792185 ], [ -171.715833, -2.79471 ], [ -171.720222, -2.795952 ], [ -171.71993, -2.793942 ], [ -171.723389, -2.787822 ] ] ], [ [ [ 175.568376, -1.949714 ], [ 175.568737, -1.94491 ], [ 175.574318, -1.942599 ], [ 175.575496, -1.93823 ], [ 175.578477, -1.940913 ], [ 175.584239, -1.941941 ], [ 175.58914, -1.941326 ], [ 175.589618, -1.943723 ], [ 175.592854, -1.945366 ], [ 175.581469, -1.953956 ], [ 175.578265, -1.953987 ], [ 175.573289, -1.95192 ], [ 175.569724, -1.952195 ], [ 175.568376, -1.949714 ] ] ], [ [ [ 172.98457, 1.719473 ], [ 172.985076, 1.722796 ], [ 172.990071, 1.727156 ], [ 172.992864, 1.722014 ], [ 172.998915, 1.717364 ], [ 173.005345, 1.715901 ], [ 173.010063, 1.715917 ], [ 173.019172, 1.719922 ], [ 173.021295, 1.722328 ], [ 173.022659, 1.72016 ], [ 173.017772, 1.714854 ], [ 173.01082, 1.712142 ], [ 173.004037, 1.712069 ], [ 172.992611, 1.714251 ], [ 172.98457, 1.719473 ] ] ], [ [ [ -174.540501, -4.671387 ], [ -174.536437, -4.669362 ], [ -174.534912, -4.671387 ], [ -174.531695, -4.679827 ], [ -174.521194, -4.680502 ], [ -174.51906, -4.678941 ], [ -174.514318, -4.681304 ], [ -174.496366, -4.693795 ], [ -174.492734, -4.692238 ], [ -174.49275, -4.696369 ], [ -174.49563, -4.696867 ], [ -174.508154, -4.687929 ], [ -174.516622, -4.684216 ], [ -174.529662, -4.682865 ], [ -174.533727, -4.681346 ], [ -174.537622, -4.67797 ], [ -174.540501, -4.671387 ] ] ], [ [ [ -174.54274, -4.662047 ], [ -174.542471, -4.658738 ], [ -174.542214, -4.65558 ], [ -174.538532, -4.654707 ], [ -174.53319, -4.658738 ], [ -174.526256, -4.66397 ], [ -174.507843, -4.673932 ], [ -174.504814, -4.676456 ], [ -174.505865, -4.677911 ], [ -174.516612, -4.671311 ], [ -174.520715, -4.670568 ], [ -174.523801, -4.66834 ], [ -174.527133, -4.669738 ], [ -174.527484, -4.665368 ], [ -174.533972, -4.661698 ], [ -174.535726, -4.667116 ], [ -174.539233, -4.667116 ], [ -174.54274, -4.662047 ] ] ], [ [ [ 172.894324, 3.110899 ], [ 172.89652, 3.119205 ], [ 172.909375, 3.137058 ], [ 172.925809, 3.145859 ], [ 172.926737, 3.144318 ], [ 172.909375, 3.132682 ], [ 172.898415, 3.111372 ], [ 172.894324, 3.110899 ] ] ], [ [ [ 172.72678, 3.247046 ], [ 172.728336, 3.247741 ], [ 172.748844, 3.231587 ], [ 172.76774, 3.221478 ], [ 172.765951, 3.219622 ], [ 172.741207, 3.232532 ], [ 172.728336, 3.244267 ], [ 172.72678, 3.247046 ] ] ], [ [ [ -150.234503, -10.002898 ], [ -150.233645, -9.998054 ], [ -150.231252, -9.992191 ], [ -150.229645, -9.985058 ], [ -150.226054, -9.985029 ], [ -150.228041, -9.992673 ], [ -150.230033, -9.994597 ], [ -150.228231, -10.000554 ], [ -150.22668, -10.001687 ], [ -150.22207, -10.000249 ], [ -150.222658, -10.006617 ], [ -150.224298, -10.010067 ], [ -150.231517, -10.006691 ], [ -150.234503, -10.002898 ] ] ], [ [ [ 174.778044, -1.231988 ], [ 174.782091, -1.228832 ], [ 174.792686, -1.24298 ], [ 174.792815, -1.254572 ], [ 174.788586, -1.254113 ], [ 174.788636, -1.249395 ], [ 174.786219, -1.242354 ], [ 174.778044, -1.231988 ] ] ], [ [ [ 173.02984, 1.47517 ], [ 173.035817, 1.477251 ], [ 173.043262, 1.47517 ], [ 173.051596, 1.462787 ], [ 173.050022, 1.459268 ], [ 173.039227, 1.471209 ], [ 173.035763, 1.468728 ], [ 173.02984, 1.47517 ] ] ], [ [ [ 172.944229, 3.157535 ], [ 172.961746, 3.177511 ], [ 172.969141, 3.176212 ], [ 172.948006, 3.157535 ], [ 172.945354, 3.155958 ], [ 172.944229, 3.157535 ] ] ], [ [ [ 172.917874, 1.356471 ], [ 172.920942, 1.359675 ], [ 172.925224, 1.357517 ], [ 172.931315, 1.361412 ], [ 172.944017, 1.352531 ], [ 172.943103, 1.351026 ], [ 172.932358, 1.354101 ], [ 172.918872, 1.353399 ], [ 172.917874, 1.356471 ] ] ], [ [ [ 174.285175, -0.552907 ], [ 174.286424, -0.549381 ], [ 174.290308, -0.549177 ], [ 174.291537, -0.55333 ], [ 174.294326, -0.550818 ], [ 174.307138, -0.560727 ], [ 174.312503, -0.56707 ], [ 174.310397, -0.569387 ], [ 174.306202, -0.562942 ], [ 174.302003, -0.56099 ], [ 174.299272, -0.556512 ], [ 174.293869, -0.555469 ], [ 174.286634, -0.556354 ], [ 174.285175, -0.552907 ] ] ], [ [ [ 173.005496, 1.332162 ], [ 173.015187, 1.335904 ], [ 173.024138, 1.340119 ], [ 173.036284, 1.347183 ], [ 173.03724, 1.345377 ], [ 173.031827, 1.340834 ], [ 173.023477, 1.336062 ], [ 173.012205, 1.331252 ], [ 173.006252, 1.329352 ], [ 173.005496, 1.332162 ] ] ], [ [ [ 172.908422, 1.951434 ], [ 172.910046, 1.954759 ], [ 172.920409, 1.948819 ], [ 172.933509, 1.934844 ], [ 172.932202, 1.933595 ], [ 172.921353, 1.944708 ], [ 172.910046, 1.949013 ], [ 172.908422, 1.951434 ] ] ], [ [ [ -172.152785, -4.518845 ], [ -172.150188, -4.515162 ], [ -172.145164, -4.516968 ], [ -172.142575, -4.515786 ], [ -172.138446, -4.510236 ], [ -172.137787, -4.500834 ], [ -172.1337, -4.501583 ], [ -172.135001, -4.505881 ], [ -172.135462, -4.513508 ], [ -172.138031, -4.516394 ], [ -172.143238, -4.518533 ], [ -172.152785, -4.518845 ] ] ], [ [ [ 172.982734, 1.390527 ], [ 172.983416, 1.393009 ], [ 172.986593, 1.393752 ], [ 172.986821, 1.398388 ], [ 172.990938, 1.400039 ], [ 172.990746, 1.392254 ], [ 172.995706, 1.390305 ], [ 172.992463, 1.385242 ], [ 172.989155, 1.385131 ], [ 172.988131, 1.387959 ], [ 172.982734, 1.390527 ] ] ], [ [ [ -150.219949, -9.975719 ], [ -150.21945, -9.972319 ], [ -150.21684, -9.969424 ], [ -150.216111, -9.962103 ], [ -150.213507, -9.956721 ], [ -150.213561, -9.952152 ], [ -150.211494, -9.949811 ], [ -150.209744, -9.951598 ], [ -150.212653, -9.965993 ], [ -150.215254, -9.969933 ], [ -150.216512, -9.976996 ], [ -150.219949, -9.975719 ] ] ], [ [ [ 173.050278, 1.454967 ], [ 173.054614, 1.457365 ], [ 173.057368, 1.460838 ], [ 173.061804, 1.457935 ], [ 173.066703, 1.451511 ], [ 173.070234, 1.448748 ], [ 173.067698, 1.447348 ], [ 173.063613, 1.449995 ], [ 173.062391, 1.452939 ], [ 173.051781, 1.453204 ], [ 173.050278, 1.454967 ] ] ], [ [ [ -171.714205, -2.815114 ], [ -171.70992, -2.814613 ], [ -171.710034, -2.819846 ], [ -171.701094, -2.834405 ], [ -171.706052, -2.833836 ], [ -171.71272, -2.823266 ], [ -171.714205, -2.815114 ] ] ], [ [ [ 172.970543, 0.856124 ], [ 172.973356, 0.861032 ], [ 172.972945, 0.864105 ], [ 172.978078, 0.863394 ], [ 172.977142, 0.858697 ], [ 172.974774, 0.855448 ], [ 172.978491, 0.854412 ], [ 172.97642, 0.849664 ], [ 172.979761, 0.848262 ], [ 172.97828, 0.843332 ], [ 172.974414, 0.846471 ], [ 172.974515, 0.85274 ], [ 172.970543, 0.856124 ] ] ], [ [ [ 174.795194, -1.300394 ], [ 174.796823, -1.296131 ], [ 174.797689, -1.288009 ], [ 174.797632, -1.281209 ], [ 174.799356, -1.280968 ], [ 174.801903, -1.290208 ], [ 174.799892, -1.297465 ], [ 174.801866, -1.298109 ], [ 174.800817, -1.302261 ], [ 174.795194, -1.300394 ] ] ], [ [ [ -157.479685, 1.990542 ], [ -157.473267, 1.990689 ], [ -157.470449, 1.989366 ], [ -157.471911, 1.980293 ], [ -157.474804, 1.982206 ], [ -157.478267, 1.980909 ], [ -157.479685, 1.990542 ] ] ], [ [ [ -172.198004, -4.502821 ], [ -172.197471, -4.501857 ], [ -172.185441, -4.496686 ], [ -172.175876, -4.48968 ], [ -172.175518, -4.493009 ], [ -172.182343, -4.498399 ], [ -172.187931, -4.501448 ], [ -172.196908, -4.503556 ], [ -172.198004, -4.502821 ] ] ], [ [ [ 172.970576, 3.311218 ], [ 172.972082, 3.319737 ], [ 172.976775, 3.32876 ], [ 172.979344, 3.328598 ], [ 172.978786, 3.321291 ], [ 172.973893, 3.314792 ], [ 172.972584, 3.310879 ], [ 172.970576, 3.311218 ] ] ], [ [ [ 175.061376, -1.523939 ], [ 175.064194, -1.5207 ], [ 175.06574, -1.521216 ], [ 175.067647, -1.528313 ], [ 175.066819, -1.532897 ], [ 175.070546, -1.538317 ], [ 175.069547, -1.54027 ], [ 175.064536, -1.535958 ], [ 175.064423, -1.531983 ], [ 175.061376, -1.523939 ] ] ], [ [ [ -172.162934, -4.486629 ], [ -172.161633, -4.485569 ], [ -172.153584, -4.48629 ], [ -172.138493, -4.494486 ], [ -172.141437, -4.496506 ], [ -172.15122, -4.491148 ], [ -172.154842, -4.487888 ], [ -172.159307, -4.488863 ], [ -172.162934, -4.486629 ] ] ], [ [ [ 175.068534, -1.500408 ], [ 175.068972, -1.498982 ], [ 175.074735, -1.497484 ], [ 175.073841, -1.505768 ], [ 175.075883, -1.516202 ], [ 175.074111, -1.516623 ], [ 175.07051, -1.50486 ], [ 175.068534, -1.500408 ] ] ], [ [ [ -170.718047, -3.717982 ], [ -170.717188, -3.716005 ], [ -170.712509, -3.717387 ], [ -170.707886, -3.720523 ], [ -170.707885, -3.723618 ], [ -170.711092, -3.726327 ], [ -170.71366, -3.725167 ], [ -170.718047, -3.717982 ] ] ], [ [ [ 172.858707, 1.960366 ], [ 172.860075, 1.964914 ], [ 172.863068, 1.966433 ], [ 172.865044, 1.971125 ], [ 172.868914, 1.970643 ], [ 172.868216, 1.964299 ], [ 172.860062, 1.959585 ], [ 172.858707, 1.960366 ] ] ], [ [ [ 174.867411, -1.349466 ], [ 174.870195, -1.347157 ], [ 174.872566, -1.347926 ], [ 174.874013, -1.353206 ], [ 174.877326, -1.353774 ], [ 174.879736, -1.356959 ], [ 174.875046, -1.360092 ], [ 174.870861, -1.352932 ], [ 174.867411, -1.349466 ] ] ], [ [ [ 173.009822, 1.006656 ], [ 173.010073, 1.008744 ], [ 173.016521, 1.009245 ], [ 173.021602, 1.005813 ], [ 173.021234, 1.003602 ], [ 173.017187, 1.002564 ], [ 173.010078, 1.0051 ], [ 173.009822, 1.006656 ] ] ], [ [ [ 174.225494, -0.531122 ], [ 174.229137, -0.526377 ], [ 174.232157, -0.527465 ], [ 174.234718, -0.536053 ], [ 174.23296, -0.537774 ], [ 174.230159, -0.537257 ], [ 174.229137, -0.532625 ], [ 174.225494, -0.531122 ] ] ], [ [ [ 172.784161, 1.891204 ], [ 172.788938, 1.892727 ], [ 172.790008, 1.891123 ], [ 172.80026, 1.887767 ], [ 172.799302, 1.885467 ], [ 172.793804, 1.885871 ], [ 172.786809, 1.888312 ], [ 172.784161, 1.891204 ] ] ], [ [ [ 173.117001, 1.364021 ], [ 173.123107, 1.369239 ], [ 173.127765, 1.369125 ], [ 173.131059, 1.366113 ], [ 173.130248, 1.364709 ], [ 173.122738, 1.364229 ], [ 173.118677, 1.362812 ], [ 173.117001, 1.364021 ] ] ], [ [ [ 173.627171, 0.200938 ], [ 173.629447, 0.205404 ], [ 173.634533, 0.201439 ], [ 173.637147, 0.197506 ], [ 173.632893, 0.195667 ], [ 173.627171, 0.200938 ] ] ], [ [ [ 175.041459, -1.462761 ], [ 175.046956, -1.45846 ], [ 175.049548, -1.460822 ], [ 175.046239, -1.463808 ], [ 175.049509, -1.467138 ], [ 175.048479, -1.469509 ], [ 175.044352, -1.467763 ], [ 175.041459, -1.462761 ] ] ], [ [ [ 174.240574, -0.541084 ], [ 174.242306, -0.539186 ], [ 174.244976, -0.53966 ], [ 174.24553, -0.543088 ], [ 174.252149, -0.545926 ], [ 174.251211, -0.548735 ], [ 174.247592, -0.546332 ], [ 174.242306, -0.546707 ], [ 174.240574, -0.541084 ] ] ], [ [ [ -174.126265, -3.592373 ], [ -174.121412, -3.591138 ], [ -174.118835, -3.595874 ], [ -174.120577, -3.599404 ], [ -174.123274, -3.599819 ], [ -174.126252, -3.59644 ], [ -174.126265, -3.592373 ] ] ], [ [ [ 172.998631, 1.386073 ], [ 172.998631, 1.388454 ], [ 173.002581, 1.39004 ], [ 173.006079, 1.394133 ], [ 173.008453, 1.391351 ], [ 173.006132, 1.386346 ], [ 173.000412, 1.385239 ], [ 172.998631, 1.386073 ] ] ], [ [ [ 173.070282, 1.358201 ], [ 173.070826, 1.359079 ], [ 173.085679, 1.365483 ], [ 173.088894, 1.364492 ], [ 173.085679, 1.362233 ], [ 173.071485, 1.357349 ], [ 173.070282, 1.358201 ] ] ], [ [ [ 172.924709, 3.232358 ], [ 172.931183, 3.235446 ], [ 172.937909, 3.23746 ], [ 172.937803, 3.232689 ], [ 172.932481, 3.232511 ], [ 172.926159, 3.230303 ], [ 172.924709, 3.232358 ] ] ], [ [ [ 173.031958, 1.464307 ], [ 173.033151, 1.467201 ], [ 173.039172, 1.46389 ], [ 173.036697, 1.461794 ], [ 173.038997, 1.459272 ], [ 173.037575, 1.455094 ], [ 173.033048, 1.458649 ], [ 173.03603, 1.460648 ], [ 173.031958, 1.464307 ] ] ], [ [ [ -150.214304, -9.983319 ], [ -150.213755, -9.979566 ], [ -150.209409, -9.977511 ], [ -150.206348, -9.973413 ], [ -150.204622, -9.976029 ], [ -150.209856, -9.98165 ], [ -150.211473, -9.985714 ], [ -150.214304, -9.983319 ] ] ], [ [ [ -171.521078, -3.582448 ], [ -171.517957, -3.579968 ], [ -171.51367, -3.584019 ], [ -171.514193, -3.589244 ], [ -171.516143, -3.590156 ], [ -171.521078, -3.582448 ] ] ], [ [ [ 173.037126, 1.348024 ], [ 173.040779, 1.354346 ], [ 173.043855, 1.356924 ], [ 173.047157, 1.353485 ], [ 173.038648, 1.347256 ], [ 173.037126, 1.348024 ] ] ], [ [ [ 174.996918, -1.440766 ], [ 175.002315, -1.437116 ], [ 175.005282, -1.430944 ], [ 175.006701, -1.432189 ], [ 175.004264, -1.441252 ], [ 174.997516, -1.441924 ], [ 174.996918, -1.440766 ] ] ], [ [ [ -150.222018, -9.995056 ], [ -150.217153, -9.989335 ], [ -150.216368, -9.985548 ], [ -150.212059, -9.986897 ], [ -150.212525, -9.989026 ], [ -150.216322, -9.990948 ], [ -150.217648, -9.99556 ], [ -150.220886, -9.997248 ], [ -150.222018, -9.995056 ] ] ], [ [ [ 172.96056, 3.204605 ], [ 172.96659, 3.206003 ], [ 172.968649, 3.201228 ], [ 172.965259, 3.19894 ], [ 172.961334, 3.198817 ], [ 172.962203, 3.202353 ], [ 172.96056, 3.204605 ] ] ], [ [ [ 172.68238, 3.268963 ], [ 172.685193, 3.268243 ], [ 172.691358, 3.261016 ], [ 172.686433, 3.259104 ], [ 172.68238, 3.268963 ] ] ], [ [ [ 174.945409, -1.412325 ], [ 174.948882, -1.409034 ], [ 174.95103, -1.409056 ], [ 174.949377, -1.411968 ], [ 174.950144, -1.414607 ], [ 174.952766, -1.414324 ], [ 174.950589, -1.419313 ], [ 174.94837, -1.417565 ], [ 174.945409, -1.412325 ] ] ], [ [ [ 174.982992, -1.425492 ], [ 174.9887, -1.422234 ], [ 174.98999, -1.424738 ], [ 174.98805, -1.428235 ], [ 174.989601, -1.430842 ], [ 174.985765, -1.432643 ], [ 174.985772, -1.427298 ], [ 174.982992, -1.425492 ] ] ], [ [ [ 172.963998, 3.291352 ], [ 172.968883, 3.300056 ], [ 172.971741, 3.296951 ], [ 172.967147, 3.290048 ], [ 172.963998, 3.291352 ] ] ], [ [ [ 173.841924, 0.343298 ], [ 173.848409, 0.347288 ], [ 173.849624, 0.343048 ], [ 173.852168, 0.340842 ], [ 173.849774, 0.339599 ], [ 173.841924, 0.343298 ] ] ], [ [ [ 172.972655, 1.327379 ], [ 172.974333, 1.332023 ], [ 172.983861, 1.330317 ], [ 172.983758, 1.328495 ], [ 172.972655, 1.327379 ] ] ], [ [ [ 174.900393, -1.388059 ], [ 174.905453, -1.38438 ], [ 174.908331, -1.389844 ], [ 174.905375, -1.39216 ], [ 174.900393, -1.388059 ] ] ], [ [ [ 173.617564, 0.195162 ], [ 173.62472, 0.204846 ], [ 173.62666, 0.200975 ], [ 173.623483, 0.200235 ], [ 173.620848, 0.193742 ], [ 173.617564, 0.195162 ] ] ], [ [ [ 174.859634, -1.343488 ], [ 174.862425, -1.339165 ], [ 174.864454, -1.339828 ], [ 174.867505, -1.344533 ], [ 174.865337, -1.346067 ], [ 174.859634, -1.343488 ] ] ], [ [ [ 174.273375, -0.550114 ], [ 174.279057, -0.548792 ], [ 174.279956, -0.550472 ], [ 174.278178, -0.554755 ], [ 174.274209, -0.554738 ], [ 174.273375, -0.550114 ] ] ], [ [ [ -171.719723, -2.802304 ], [ -171.717463, -2.800204 ], [ -171.713831, -2.806673 ], [ -171.717153, -2.809417 ], [ -171.719723, -2.802304 ] ] ], [ [ [ 174.791573, -1.263113 ], [ 174.79461, -1.261677 ], [ 174.798107, -1.269683 ], [ 174.796647, -1.271761 ], [ 174.791573, -1.263113 ] ] ], [ [ [ -172.173091, -4.525534 ], [ -172.165792, -4.521323 ], [ -172.162985, -4.523536 ], [ -172.172083, -4.527447 ], [ -172.173091, -4.525534 ] ] ], [ [ [ 172.953346, 3.231505 ], [ 172.955556, 3.233354 ], [ 172.958741, 3.227711 ], [ 172.955793, 3.225888 ], [ 172.953405, 3.227791 ], [ 172.953346, 3.231505 ] ] ], [ [ [ 172.895417, 1.952365 ], [ 172.896454, 1.956294 ], [ 172.903258, 1.953528 ], [ 172.902156, 1.951097 ], [ 172.895417, 1.952365 ] ] ], [ [ [ -150.203478, -9.967363 ], [ -150.203247, -9.965125 ], [ -150.199521, -9.961369 ], [ -150.198379, -9.963098 ], [ -150.200699, -9.970071 ], [ -150.203478, -9.967363 ] ] ], [ [ [ 173.107474, 1.364015 ], [ 173.110265, 1.366254 ], [ 173.116645, 1.36441 ], [ 173.114712, 1.361507 ], [ 173.107474, 1.364015 ] ] ], [ [ [ -174.503273, -4.679711 ], [ -174.501641, -4.678899 ], [ -174.494803, -4.685346 ], [ -174.496591, -4.68752 ], [ -174.503273, -4.679711 ] ] ], [ [ [ 172.69157, 3.263838 ], [ 172.695239, 3.268135 ], [ 172.6977, 3.268428 ], [ 172.698133, 3.265187 ], [ 172.696169, 3.263093 ], [ 172.69157, 3.263838 ] ] ], [ [ [ 174.891524, -1.370007 ], [ 174.893219, -1.368586 ], [ 174.898266, -1.375441 ], [ 174.89501, -1.376214 ], [ 174.891524, -1.370007 ] ] ], [ [ [ 174.313458, -0.569676 ], [ 174.314876, -0.568027 ], [ 174.317566, -0.569237 ], [ 174.319274, -0.572266 ], [ 174.317566, -0.575285 ], [ 174.313458, -0.569676 ] ] ], [ [ [ 173.590579, 0.167827 ], [ 173.592691, 0.169977 ], [ 173.597828, 0.170113 ], [ 173.595973, 0.165446 ], [ 173.590579, 0.167827 ] ] ], [ [ [ 174.219881, -0.536636 ], [ 174.22165, -0.532558 ], [ 174.226114, -0.535521 ], [ 174.222454, -0.538887 ], [ 174.219881, -0.536636 ] ] ], [ [ [ 174.233, -0.541315 ], [ 174.237076, -0.53826 ], [ 174.238734, -0.54234 ], [ 174.236646, -0.54522 ], [ 174.233, -0.541315 ] ] ], [ [ [ 174.255261, -0.550829 ], [ 174.256769, -0.547933 ], [ 174.263334, -0.549611 ], [ 174.262495, -0.552066 ], [ 174.255261, -0.550829 ] ] ], [ [ [ 174.212795, -0.594281 ], [ 174.214672, -0.591587 ], [ 174.216981, -0.593175 ], [ 174.216404, -0.59866 ], [ 174.214191, -0.598419 ], [ 174.212795, -0.594281 ] ] ], [ [ [ 172.980158, 0.840572 ], [ 172.982299, 0.842313 ], [ 172.987224, 0.842284 ], [ 172.986912, 0.838853 ], [ 172.981644, 0.839011 ], [ 172.980158, 0.840572 ] ] ], [ [ [ 172.989444, 0.846464 ], [ 172.994779, 0.847288 ], [ 172.995186, 0.842331 ], [ 172.992038, 0.842235 ], [ 172.989444, 0.846464 ] ] ], [ [ [ 172.979995, 0.856725 ], [ 172.981273, 0.860272 ], [ 172.984493, 0.860533 ], [ 172.984017, 0.853626 ], [ 172.979995, 0.856725 ] ] ], [ [ [ 174.800975, -1.31762 ], [ 174.801305, -1.31345 ], [ 174.804742, -1.310178 ], [ 174.806845, -1.311527 ], [ 174.802889, -1.316715 ], [ 174.800975, -1.31762 ] ] ], [ [ [ 174.815265, -1.324505 ], [ 174.818663, -1.319486 ], [ 174.821188, -1.32118 ], [ 174.81789, -1.32673 ], [ 174.815265, -1.324505 ] ] ], [ [ [ 174.820604, -1.334323 ], [ 174.825743, -1.332037 ], [ 174.826816, -1.336242 ], [ 174.822994, -1.337682 ], [ 174.820604, -1.334323 ] ] ], [ [ [ 174.837371, -1.338641 ], [ 174.84098, -1.334421 ], [ 174.843885, -1.336515 ], [ 174.842053, -1.340264 ], [ 174.837371, -1.338641 ] ] ], [ [ [ 174.848144, -1.342978 ], [ 174.849356, -1.338585 ], [ 174.853811, -1.340358 ], [ 174.851786, -1.344579 ], [ 174.848144, -1.342978 ] ] ], [ [ [ 174.875171, -1.362353 ], [ 174.881372, -1.360518 ], [ 174.882075, -1.3634 ], [ 174.878742, -1.365962 ], [ 174.875171, -1.362353 ] ] ], [ [ [ 173.093815, 1.364661 ], [ 173.096158, 1.36678 ], [ 173.100967, 1.365836 ], [ 173.100302, 1.362934 ], [ 173.094884, 1.363149 ], [ 173.093815, 1.364661 ] ] ], [ [ [ 174.883884, -1.365202 ], [ 174.886367, -1.362253 ], [ 174.890589, -1.363803 ], [ 174.887527, -1.368028 ], [ 174.883884, -1.365202 ] ] ], [ [ [ 174.893745, -1.385566 ], [ 174.897923, -1.382737 ], [ 174.899419, -1.384337 ], [ 174.898202, -1.388579 ], [ 174.895188, -1.388079 ], [ 174.893745, -1.385566 ] ] ], [ [ [ 174.925324, -1.40257 ], [ 174.928541, -1.397701 ], [ 174.931623, -1.400222 ], [ 174.929284, -1.403827 ], [ 174.925324, -1.40257 ] ] ], [ [ [ 174.939436, -1.409943 ], [ 174.942838, -1.404441 ], [ 174.945607, -1.406569 ], [ 174.941685, -1.411608 ], [ 174.939436, -1.409943 ] ] ], [ [ [ 174.970571, -1.42613 ], [ 174.971179, -1.42028 ], [ 174.973883, -1.419874 ], [ 174.973577, -1.427928 ], [ 174.970571, -1.42613 ] ] ], [ [ [ 174.973818, -1.428273 ], [ 174.97898, -1.424191 ], [ 174.979943, -1.42902 ], [ 174.975201, -1.430316 ], [ 174.973818, -1.428273 ] ] ], [ [ [ 174.992165, -1.428706 ], [ 174.993863, -1.426318 ], [ 174.998656, -1.42962 ], [ 174.997272, -1.433012 ], [ 174.992165, -1.428706 ] ] ], [ [ [ 173.070407, 1.441086 ], [ 173.074273, 1.447973 ], [ 173.075754, 1.446706 ], [ 173.073855, 1.439989 ], [ 173.070407, 1.441086 ] ] ], [ [ [ 175.072558, -1.52243 ], [ 175.075388, -1.517779 ], [ 175.077132, -1.519797 ], [ 175.076949, -1.525698 ], [ 175.072558, -1.52243 ] ] ], [ [ [ 172.868662, 1.865834 ], [ 172.870988, 1.867626 ], [ 172.874471, 1.864427 ], [ 172.876342, 1.864405 ], [ 172.87656, 1.861272 ], [ 172.871247, 1.863657 ], [ 172.868662, 1.865834 ] ] ], [ [ [ 172.839507, 1.881359 ], [ 172.842718, 1.885399 ], [ 172.846036, 1.884286 ], [ 172.8466, 1.880963 ], [ 172.839507, 1.881359 ] ] ], [ [ [ 172.810753, 1.885735 ], [ 172.812559, 1.887381 ], [ 172.819696, 1.886386 ], [ 172.819756, 1.883397 ], [ 172.810753, 1.885735 ] ] ], [ [ [ 172.779056, 1.898123 ], [ 172.784215, 1.897693 ], [ 172.783669, 1.893147 ], [ 172.781553, 1.891823 ], [ 172.779056, 1.898123 ] ] ], [ [ [ 175.592824, -1.93961 ], [ 175.599082, -1.937759 ], [ 175.599901, -1.939404 ], [ 175.595468, -1.943562 ], [ 175.592824, -1.93961 ] ] ], [ [ [ -157.485374, 1.956207 ], [ -157.47962, 1.957336 ], [ -157.480756, 1.952193 ], [ -157.484512, 1.952857 ], [ -157.485374, 1.956207 ] ] ], [ [ [ -157.484938, 1.960767 ], [ -157.482312, 1.965515 ], [ -157.479452, 1.963834 ], [ -157.481494, 1.958622 ], [ -157.484938, 1.960767 ] ] ], [ [ [ 172.87226, 1.963041 ], [ 172.874497, 1.967429 ], [ 172.877873, 1.964265 ], [ 172.875913, 1.960555 ], [ 172.87226, 1.963041 ] ] ], [ [ [ -157.459897, 2.017098 ], [ -157.453241, 2.017273 ], [ -157.453547, 2.013416 ], [ -157.458957, 2.014238 ], [ -157.459897, 2.017098 ] ] ], [ [ [ 172.886973, 3.107416 ], [ 172.887813, 3.109338 ], [ 172.893771, 3.109665 ], [ 172.89336, 3.106362 ], [ 172.8877, 3.106109 ], [ 172.886973, 3.107416 ] ] ], [ [ [ 172.960421, 3.210226 ], [ 172.965767, 3.213704 ], [ 172.966928, 3.20948 ], [ 172.962677, 3.207868 ], [ 172.960421, 3.210226 ] ] ], [ [ [ 172.954952, 3.219282 ], [ 172.958358, 3.221304 ], [ 172.961134, 3.217373 ], [ 172.956922, 3.215231 ], [ 172.954952, 3.219282 ] ] ], [ [ [ 172.70024, 3.268078 ], [ 172.703607, 3.269851 ], [ 172.706982, 3.26728 ], [ 172.70617, 3.263572 ], [ 172.70024, 3.268078 ] ] ], [ [ [ 172.69386, 3.27703 ], [ 172.695497, 3.277806 ], [ 172.699185, 3.272627 ], [ 172.694354, 3.271187 ], [ 172.69386, 3.27703 ] ] ], [ [ [ -159.33877, 3.932708 ], [ -159.33318, 3.93322 ], [ -159.334701, 3.9295 ], [ -159.33863, 3.927625 ], [ -159.33877, 3.932708 ] ] ], [ [ [ -172.174499, -4.489332 ], [ -172.171265, -4.487107 ], [ -172.167728, -4.488219 ], [ -172.170954, -4.492997 ], [ -172.174499, -4.489332 ] ] ], [ [ [ -150.203179, -9.95713 ], [ -150.199855, -9.954734 ], [ -150.196163, -9.955763 ], [ -150.197421, -9.959924 ], [ -150.203179, -9.95713 ] ] ], [ [ [ 172.989062, 1.401798 ], [ 172.991668, 1.402692 ], [ 172.99235, 1.400542 ], [ 172.990729, 1.399983 ], [ 172.989062, 1.401798 ] ] ] ] } }
]
}
