{
"type": "FeatureCollection",
"name": "Kuril Islands",
"crs": { "type": "name", "properties": { "name": "urn:ogc:def:crs:OGC:1.3:CRS84" } },
"features": [
{ "type": "Feature", "properties": { "id": "XI", "CNTR_ID": "XI", "CNTR_NAME": "Kuril Islands (Disputed Territory)", "NAME_ENGL": "Kuril Islands", "ISO3_CODE": "XI", "FID": "XI" }, "geometry": { "type": "MultiPolygon", "coordinates": [ [ [ [ 147.346541, 44.714596 ], [ 147.335461, 44.713033 ], [ 147.326641, 44.700588 ], [ 147.316648, 44.692807 ], [ 147.300594, 44.669673 ], [ 147.284786, 44.65939 ], [ 147.273517, 44.646839 ], [ 147.261827, 44.626339 ], [ 147.258849, 44.613385 ], [ 147.249447, 44.601002 ], [ 147.23189, 44.59147 ], [ 147.206803, 44.571199 ], [ 147.190277, 44.570947 ], [ 147.143622, 44.56037 ], [ 147.106534, 44.567927 ], [ 147.091484, 44.563948 ], [ 147.076178, 44.556499 ], [ 147.063217, 44.547673 ], [ 147.056314, 44.539293 ], [ 147.039598, 44.528988 ], [ 147.023356, 44.513668 ], [ 147.004859, 44.489747 ], [ 146.989245, 44.460616 ], [ 146.986662, 44.450252 ], [ 146.956942, 44.429401 ], [ 146.945888, 44.426684 ], [ 146.906867, 44.429923 ], [ 146.874766, 44.43929 ], [ 146.864302, 44.445544 ], [ 146.860289, 44.456803 ], [ 146.877327, 44.499901 ], [ 146.895779, 44.51773 ], [ 146.924649, 44.526579 ], [ 146.950927, 44.549617 ], [ 146.951533, 44.558788 ], [ 146.933456, 44.580195 ], [ 146.93187, 44.58508 ], [ 146.935342, 44.607683 ], [ 146.946975, 44.627505 ], [ 146.951496, 44.625341 ], [ 146.952254, 44.615683 ], [ 146.961475, 44.592846 ], [ 146.976258, 44.579576 ], [ 146.994649, 44.577831 ], [ 147.004948, 44.582078 ], [ 147.017137, 44.590858 ], [ 147.02565, 44.59907 ], [ 147.031192, 44.609806 ], [ 147.031763, 44.636913 ], [ 147.008476, 44.651192 ], [ 147.006234, 44.655333 ], [ 147.008409, 44.658436 ], [ 147.025679, 44.660851 ], [ 147.04388, 44.658054 ], [ 147.049428, 44.654762 ], [ 147.058688, 44.653126 ], [ 147.075307, 44.638312 ], [ 147.096974, 44.638923 ], [ 147.12762, 44.651246 ], [ 147.160781, 44.679786 ], [ 147.177036, 44.687575 ], [ 147.184785, 44.695579 ], [ 147.192008, 44.709093 ], [ 147.19979, 44.736615 ], [ 147.199669, 44.750189 ], [ 147.195816, 44.758195 ], [ 147.187259, 44.764254 ], [ 147.172496, 44.764384 ], [ 147.157947, 44.76904 ], [ 147.130105, 44.770972 ], [ 147.114685, 44.780397 ], [ 147.101946, 44.802176 ], [ 147.102631, 44.814849 ], [ 147.106612, 44.819895 ], [ 147.134133, 44.828842 ], [ 147.145342, 44.82359 ], [ 147.172018, 44.816231 ], [ 147.195078, 44.798069 ], [ 147.221132, 44.800979 ], [ 147.245404, 44.812112 ], [ 147.262359, 44.848686 ], [ 147.264334, 44.863821 ], [ 147.27142, 44.870485 ], [ 147.283624, 44.876495 ], [ 147.335757, 44.89037 ], [ 147.346541, 44.895026 ], [ 147.379961, 44.909937 ], [ 147.41867, 44.938247 ], [ 147.458551, 44.973875 ], [ 147.485976, 44.988172 ], [ 147.505914, 44.990235 ], [ 147.509439, 44.995244 ], [ 147.516241, 44.99819 ], [ 147.517127, 45.011403 ], [ 147.512783, 45.025201 ], [ 147.523777, 45.037958 ], [ 147.524754, 45.06067 ], [ 147.533477, 45.073548 ], [ 147.532007, 45.087854 ], [ 147.525831, 45.098782 ], [ 147.499769, 45.108449 ], [ 147.498249, 45.111068 ], [ 147.501091, 45.113326 ], [ 147.508257, 45.116112 ], [ 147.5345, 45.106899 ], [ 147.552603, 45.10835 ], [ 147.565622, 45.104325 ], [ 147.571523, 45.100696 ], [ 147.571068, 45.093989 ], [ 147.584487, 45.084754 ], [ 147.621072, 45.080655 ], [ 147.631603, 45.075675 ], [ 147.651746, 45.079018 ], [ 147.687378, 45.093715 ], [ 147.695866, 45.101749 ], [ 147.697789, 45.123312 ], [ 147.692612, 45.132105 ], [ 147.692848, 45.139563 ], [ 147.703911, 45.150499 ], [ 147.707165, 45.167143 ], [ 147.728092, 45.177306 ], [ 147.732328, 45.191801 ], [ 147.74936, 45.196369 ], [ 147.765704, 45.196115 ], [ 147.776476, 45.207118 ], [ 147.801728, 45.20937 ], [ 147.818574, 45.216321 ], [ 147.827835, 45.216134 ], [ 147.838957, 45.208715 ], [ 147.84496, 45.208188 ], [ 147.854799, 45.212023 ], [ 147.869027, 45.223392 ], [ 147.871526, 45.227969 ], [ 147.869804, 45.2347 ], [ 147.879834, 45.246523 ], [ 147.882589, 45.256677 ], [ 147.868416, 45.265053 ], [ 147.870335, 45.274841 ], [ 147.868322, 45.282583 ], [ 147.871635, 45.296176 ], [ 147.85781, 45.319367 ], [ 147.85835, 45.329771 ], [ 147.852934, 45.344807 ], [ 147.854728, 45.35382 ], [ 147.84976, 45.366142 ], [ 147.875324, 45.40486 ], [ 147.886512, 45.412273 ], [ 147.903521, 45.429463 ], [ 147.925492, 45.437132 ], [ 147.940169, 45.430907 ], [ 147.948196, 45.424318 ], [ 147.962643, 45.419249 ], [ 147.965325, 45.396848 ], [ 147.97392, 45.388716 ], [ 147.970181, 45.381394 ], [ 147.977218, 45.362314 ], [ 147.988993, 45.346273 ], [ 147.997919, 45.341669 ], [ 148.002585, 45.336001 ], [ 147.997127, 45.331393 ], [ 147.99672, 45.32781 ], [ 148.006087, 45.310143 ], [ 148.005354, 45.300603 ], [ 148.008349, 45.29293 ], [ 148.018313, 45.287378 ], [ 148.01956, 45.279701 ], [ 148.026279, 45.278727 ], [ 148.03331, 45.269273 ], [ 148.04419, 45.264936 ], [ 148.074176, 45.259075 ], [ 148.076518, 45.258964 ], [ 148.124944, 45.256659 ], [ 148.223073, 45.264587 ], [ 148.300454, 45.277844 ], [ 148.337966, 45.288958 ], [ 148.355148, 45.307703 ], [ 148.393345, 45.32118 ], [ 148.409395, 45.329437 ], [ 148.417852, 45.327511 ], [ 148.4185, 45.336991 ], [ 148.424288, 45.34326 ], [ 148.442299, 45.351298 ], [ 148.449359, 45.358313 ], [ 148.458467, 45.360167 ], [ 148.456295, 45.367426 ], [ 148.459543, 45.373565 ], [ 148.470029, 45.375417 ], [ 148.476851, 45.380473 ], [ 148.479496, 45.388005 ], [ 148.472242, 45.399596 ], [ 148.485646, 45.418166 ], [ 148.497873, 45.421943 ], [ 148.509662, 45.429649 ], [ 148.521475, 45.445396 ], [ 148.545398, 45.451948 ], [ 148.556164, 45.457849 ], [ 148.578989, 45.488605 ], [ 148.587055, 45.491031 ], [ 148.607177, 45.491953 ], [ 148.616704, 45.498018 ], [ 148.629103, 45.501321 ], [ 148.638409, 45.50887 ], [ 148.640957, 45.523685 ], [ 148.654158, 45.537413 ], [ 148.674584, 45.536995 ], [ 148.700013, 45.539759 ], [ 148.728771, 45.545576 ], [ 148.753762, 45.553385 ], [ 148.779451, 45.553253 ], [ 148.786184, 45.555409 ], [ 148.823651, 45.549513 ], [ 148.830412, 45.548013 ], [ 148.83867, 45.549668 ], [ 148.842664, 45.543691 ], [ 148.856594, 45.540275 ], [ 148.872918, 45.53204 ], [ 148.878101, 45.52505 ], [ 148.889761, 45.516472 ], [ 148.893534, 45.505805 ], [ 148.889949, 45.485794 ], [ 148.874215, 45.474846 ], [ 148.8351, 45.461596 ], [ 148.827681, 45.445489 ], [ 148.829293, 45.428535 ], [ 148.840818, 45.425967 ], [ 148.845873, 45.41915 ], [ 148.855238, 45.417703 ], [ 148.862034, 45.40835 ], [ 148.872674, 45.401508 ], [ 148.876779, 45.394256 ], [ 148.875661, 45.388134 ], [ 148.869959, 45.384355 ], [ 148.8694, 45.379621 ], [ 148.851779, 45.357916 ], [ 148.843824, 45.353812 ], [ 148.843376, 45.349853 ], [ 148.848315, 45.344785 ], [ 148.842676, 45.337266 ], [ 148.823651, 45.337151 ], [ 148.809914, 45.336923 ], [ 148.798624, 45.334225 ], [ 148.777728, 45.323653 ], [ 148.753864, 45.334723 ], [ 148.742495, 45.337071 ], [ 148.728037, 45.333803 ], [ 148.712871, 45.335679 ], [ 148.691514, 45.334125 ], [ 148.681882, 45.335894 ], [ 148.663626, 45.33384 ], [ 148.656072, 45.334964 ], [ 148.649801, 45.332033 ], [ 148.637239, 45.334033 ], [ 148.605435, 45.32156 ], [ 148.574086, 45.316176 ], [ 148.565013, 45.312197 ], [ 148.544912, 45.296653 ], [ 148.532842, 45.29246 ], [ 148.517918, 45.280488 ], [ 148.50682, 45.27851 ], [ 148.506139, 45.273001 ], [ 148.500536, 45.269888 ], [ 148.500811, 45.261832 ], [ 148.495795, 45.258017 ], [ 148.484401, 45.261002 ], [ 148.47685, 45.260814 ], [ 148.459591, 45.250839 ], [ 148.435144, 45.251716 ], [ 148.402561, 45.232602 ], [ 148.391572, 45.232906 ], [ 148.376616, 45.227846 ], [ 148.313191, 45.219534 ], [ 148.281912, 45.203317 ], [ 148.278789, 45.195708 ], [ 148.270755, 45.193071 ], [ 148.26406, 45.185972 ], [ 148.252976, 45.187481 ], [ 148.229595, 45.178268 ], [ 148.216752, 45.169474 ], [ 148.213148, 45.163099 ], [ 148.201142, 45.157831 ], [ 148.19378, 45.150373 ], [ 148.166831, 45.145592 ], [ 148.157902, 45.138812 ], [ 148.150297, 45.137803 ], [ 148.13238, 45.126685 ], [ 148.111857, 45.118874 ], [ 148.096845, 45.110488 ], [ 148.07803, 45.095183 ], [ 148.076518, 45.092786 ], [ 148.073751, 45.088401 ], [ 148.064574, 45.082483 ], [ 148.058321, 45.070551 ], [ 148.041417, 45.064247 ], [ 148.031742, 45.057398 ], [ 148.025664, 45.048757 ], [ 147.998826, 45.023936 ], [ 147.983262, 45.004002 ], [ 147.955393, 44.996907 ], [ 147.94613, 44.990517 ], [ 147.934264, 44.986809 ], [ 147.927252, 44.981675 ], [ 147.920996, 44.971779 ], [ 147.912168, 44.969827 ], [ 147.909464, 44.964691 ], [ 147.903854, 44.961846 ], [ 147.897852, 44.962104 ], [ 147.891438, 44.967658 ], [ 147.8793, 44.963302 ], [ 147.867364, 44.965374 ], [ 147.850662, 44.964818 ], [ 147.812923, 44.952124 ], [ 147.784384, 44.948271 ], [ 147.752972, 44.961276 ], [ 147.731788, 44.976199 ], [ 147.728731, 44.981131 ], [ 147.729665, 44.993305 ], [ 147.725818, 45.00213 ], [ 147.699627, 45.005547 ], [ 147.668127, 44.999417 ], [ 147.645238, 44.988654 ], [ 147.620019, 44.965125 ], [ 147.612606, 44.949029 ], [ 147.612691, 44.938273 ], [ 147.632861, 44.92727 ], [ 147.647594, 44.92455 ], [ 147.650153, 44.919952 ], [ 147.636663, 44.911095 ], [ 147.617069, 44.889776 ], [ 147.61171, 44.879496 ], [ 147.600434, 44.866746 ], [ 147.593965, 44.851129 ], [ 147.56674, 44.830373 ], [ 147.561356, 44.822995 ], [ 147.549568, 44.816315 ], [ 147.526752, 44.8155 ], [ 147.505882, 44.806512 ], [ 147.498064, 44.800207 ], [ 147.495294, 44.788206 ], [ 147.488269, 44.782085 ], [ 147.46002, 44.778511 ], [ 147.44106, 44.772322 ], [ 147.43323, 44.764719 ], [ 147.425568, 44.765018 ], [ 147.417391, 44.762621 ], [ 147.399634, 44.750677 ], [ 147.37973, 44.741651 ], [ 147.367432, 44.723884 ], [ 147.349971, 44.720454 ], [ 147.346541, 44.714596 ] ] ], [ [ [ 145.57795, 43.84442 ], [ 145.575031, 43.837802 ], [ 145.569749, 43.796501 ], [ 145.571305, 43.770612 ], [ 145.560617, 43.725418 ], [ 145.554561, 43.672784 ], [ 145.547235, 43.656596 ], [ 145.540184, 43.655598 ], [ 145.535494, 43.67227 ], [ 145.537576, 43.688649 ], [ 145.544325, 43.707005 ], [ 145.550025, 43.70699 ], [ 145.554262, 43.709921 ], [ 145.553208, 43.715519 ], [ 145.557003, 43.723023 ], [ 145.554733, 43.726993 ], [ 145.544337, 43.731876 ], [ 145.513509, 43.734657 ], [ 145.431741, 43.724022 ], [ 145.422453, 43.737477 ], [ 145.419241, 43.748879 ], [ 145.424829, 43.767378 ], [ 145.425236, 43.781587 ], [ 145.410777, 43.816341 ], [ 145.40038, 43.827731 ], [ 145.402373, 43.835879 ], [ 145.409961, 43.842905 ], [ 145.416178, 43.84442 ], [ 145.433689, 43.848686 ], [ 145.443706, 43.853967 ], [ 145.455032, 43.876596 ], [ 145.463619, 43.888935 ], [ 145.473633, 43.898021 ], [ 145.528598, 43.919845 ], [ 145.536141, 43.930261 ], [ 145.551159, 43.936259 ], [ 145.559684, 43.942202 ], [ 145.582038, 43.948625 ], [ 145.586432, 43.951057 ], [ 145.600827, 43.972207 ], [ 145.623959, 43.984444 ], [ 145.641063, 43.990524 ], [ 145.655668, 44.003511 ], [ 145.676401, 44.013541 ], [ 145.679621, 44.025713 ], [ 145.715886, 44.037634 ], [ 145.738117, 44.04988 ], [ 145.746771, 44.064376 ], [ 145.743157, 44.092166 ], [ 145.746647, 44.104657 ], [ 145.781222, 44.137608 ], [ 145.789648, 44.149406 ], [ 145.817625, 44.166143 ], [ 145.849293, 44.195796 ], [ 145.863173, 44.220861 ], [ 145.890142, 44.249731 ], [ 145.92705, 44.272873 ], [ 145.945702, 44.280364 ], [ 145.986044, 44.317277 ], [ 146.000858, 44.341102 ], [ 146.00796, 44.366279 ], [ 146.008858, 44.381443 ], [ 146.025256, 44.393158 ], [ 146.052158, 44.419896 ], [ 146.08356, 44.474332 ], [ 146.133082, 44.507762 ], [ 146.143768, 44.511486 ], [ 146.16905, 44.515146 ], [ 146.173611, 44.508298 ], [ 146.185987, 44.503455 ], [ 146.196687, 44.493297 ], [ 146.22279, 44.481657 ], [ 146.245617, 44.453572 ], [ 146.26383, 44.444592 ], [ 146.277784, 44.441085 ], [ 146.288527, 44.433868 ], [ 146.340762, 44.41833 ], [ 146.36107, 44.417801 ], [ 146.400263, 44.421343 ], [ 146.458816, 44.419996 ], [ 146.498854, 44.425278 ], [ 146.535614, 44.434402 ], [ 146.555104, 44.445982 ], [ 146.565925, 44.447236 ], [ 146.550991, 44.42462 ], [ 146.530935, 44.380403 ], [ 146.492126, 44.356363 ], [ 146.484015, 44.356123 ], [ 146.455668, 44.374255 ], [ 146.444274, 44.376565 ], [ 146.426213, 44.37388 ], [ 146.398553, 44.363679 ], [ 146.385582, 44.356134 ], [ 146.368708, 44.339575 ], [ 146.363684, 44.321404 ], [ 146.347594, 44.31657 ], [ 146.327115, 44.298734 ], [ 146.308463, 44.289503 ], [ 146.293197, 44.277012 ], [ 146.22279, 44.272281 ], [ 146.217103, 44.272423 ], [ 146.193562, 44.269369 ], [ 146.16732, 44.270375 ], [ 146.145621, 44.265669 ], [ 146.12299, 44.26494 ], [ 146.105281, 44.258939 ], [ 146.081492, 44.243904 ], [ 146.06448, 44.228413 ], [ 146.052362, 44.208812 ], [ 146.051168, 44.194757 ], [ 146.044556, 44.186324 ], [ 146.031768, 44.183744 ], [ 146.024316, 44.176248 ], [ 146.017178, 44.173307 ], [ 145.983876, 44.169193 ], [ 145.974736, 44.162477 ], [ 145.968177, 44.153601 ], [ 145.954009, 44.153433 ], [ 145.937888, 44.147023 ], [ 145.907378, 44.120554 ], [ 145.901242, 44.107655 ], [ 145.903451, 44.097108 ], [ 145.892815, 44.093513 ], [ 145.88394, 44.086015 ], [ 145.879658, 44.076798 ], [ 145.867318, 44.061695 ], [ 145.864321, 44.0525 ], [ 145.864662, 44.037025 ], [ 145.871198, 44.023819 ], [ 145.857867, 44.022162 ], [ 145.852109, 44.028472 ], [ 145.842185, 44.030563 ], [ 145.829602, 44.028096 ], [ 145.81684, 44.019136 ], [ 145.792359, 43.980356 ], [ 145.788923, 43.96857 ], [ 145.788667, 43.950946 ], [ 145.778613, 43.934993 ], [ 145.707718, 43.910679 ], [ 145.676048, 43.907145 ], [ 145.660527, 43.909536 ], [ 145.64855, 43.907135 ], [ 145.637036, 43.900322 ], [ 145.62529, 43.88686 ], [ 145.61367, 43.881015 ], [ 145.605397, 43.87167 ], [ 145.591275, 43.867398 ], [ 145.582038, 43.853683 ], [ 145.57795, 43.84442 ] ] ], [ [ [ 146.911025, 43.84442 ], [ 146.916796, 43.835426 ], [ 146.913371, 43.831651 ], [ 146.904405, 43.828161 ], [ 146.904499, 43.813887 ], [ 146.898242, 43.807939 ], [ 146.880035, 43.81301 ], [ 146.878029, 43.809328 ], [ 146.872528, 43.810899 ], [ 146.860686, 43.807302 ], [ 146.845091, 43.809053 ], [ 146.827905, 43.799347 ], [ 146.83376, 43.792524 ], [ 146.845403, 43.788203 ], [ 146.841468, 43.784802 ], [ 146.83195, 43.783802 ], [ 146.821843, 43.78878 ], [ 146.812665, 43.790166 ], [ 146.804736, 43.781148 ], [ 146.795431, 43.78385 ], [ 146.788793, 43.778675 ], [ 146.791878, 43.768111 ], [ 146.785128, 43.758798 ], [ 146.779512, 43.758664 ], [ 146.771509, 43.763246 ], [ 146.770534, 43.757568 ], [ 146.764135, 43.752578 ], [ 146.760099, 43.751379 ], [ 146.753257, 43.753549 ], [ 146.747239, 43.748609 ], [ 146.732497, 43.746015 ], [ 146.731809, 43.738815 ], [ 146.72593, 43.735854 ], [ 146.714285, 43.737997 ], [ 146.704865, 43.744181 ], [ 146.69465, 43.743388 ], [ 146.682321, 43.730054 ], [ 146.68111, 43.725167 ], [ 146.685224, 43.720313 ], [ 146.677873, 43.71399 ], [ 146.675101, 43.707775 ], [ 146.643854, 43.70276 ], [ 146.642341, 43.706912 ], [ 146.647475, 43.713667 ], [ 146.631759, 43.722077 ], [ 146.622763, 43.731822 ], [ 146.61995, 43.740542 ], [ 146.621808, 43.750406 ], [ 146.632006, 43.758092 ], [ 146.643965, 43.75783 ], [ 146.643329, 43.76059 ], [ 146.63395, 43.761465 ], [ 146.624948, 43.757608 ], [ 146.611522, 43.755591 ], [ 146.607878, 43.749188 ], [ 146.613074, 43.74263 ], [ 146.607957, 43.736508 ], [ 146.603258, 43.738514 ], [ 146.594553, 43.737856 ], [ 146.595364, 43.744967 ], [ 146.586865, 43.74564 ], [ 146.591629, 43.756619 ], [ 146.604488, 43.764054 ], [ 146.606676, 43.769214 ], [ 146.605689, 43.776818 ], [ 146.594776, 43.784376 ], [ 146.586299, 43.799581 ], [ 146.586308, 43.804549 ], [ 146.6126, 43.820361 ], [ 146.635019, 43.819731 ], [ 146.662554, 43.826811 ], [ 146.680363, 43.82602 ], [ 146.69751, 43.829362 ], [ 146.707428, 43.825166 ], [ 146.712686, 43.82988 ], [ 146.720579, 43.831087 ], [ 146.7461, 43.823088 ], [ 146.743987, 43.829575 ], [ 146.723477, 43.837011 ], [ 146.721631, 43.84442 ], [ 146.762042, 43.865718 ], [ 146.773287, 43.874872 ], [ 146.785558, 43.871783 ], [ 146.791953, 43.86423 ], [ 146.799497, 43.859837 ], [ 146.801156, 43.862121 ], [ 146.793959, 43.866144 ], [ 146.789542, 43.873601 ], [ 146.791274, 43.878025 ], [ 146.804786, 43.871252 ], [ 146.813279, 43.875507 ], [ 146.815287, 43.867924 ], [ 146.822929, 43.867414 ], [ 146.825907, 43.871413 ], [ 146.820252, 43.876318 ], [ 146.819061, 43.88391 ], [ 146.824416, 43.888566 ], [ 146.844962, 43.886345 ], [ 146.850297, 43.877388 ], [ 146.873403, 43.868032 ], [ 146.882932, 43.855279 ], [ 146.899796, 43.844979 ], [ 146.90327, 43.84442 ], [ 146.909716, 43.84442 ], [ 146.911025, 43.84442 ] ] ], [ [ [ 146.061455, 43.524639 ], [ 146.07851, 43.531755 ], [ 146.095579, 43.53489 ], [ 146.109184, 43.540213 ], [ 146.119675, 43.541085 ], [ 146.134537, 43.548386 ], [ 146.140614, 43.547674 ], [ 146.149173, 43.540122 ], [ 146.161512, 43.534939 ], [ 146.176095, 43.532594 ], [ 146.199244, 43.534209 ], [ 146.20365, 43.532563 ], [ 146.183517, 43.514335 ], [ 146.179091, 43.504557 ], [ 146.182477, 43.497345 ], [ 146.194035, 43.494827 ], [ 146.190242, 43.490787 ], [ 146.192195, 43.488304 ], [ 146.183476, 43.481267 ], [ 146.168687, 43.477166 ], [ 146.163965, 43.477646 ], [ 146.161512, 43.47414 ], [ 146.147456, 43.471864 ], [ 146.116455, 43.459186 ], [ 146.117681, 43.471555 ], [ 146.107912, 43.478366 ], [ 146.105308, 43.491901 ], [ 146.097685, 43.499011 ], [ 146.088158, 43.502327 ], [ 146.07851, 43.517469 ], [ 146.061455, 43.524639 ] ] ], [ [ [ 145.862724, 43.454845 ], [ 145.863314, 43.45648 ], [ 145.869642, 43.457056 ], [ 145.872905, 43.455805 ], [ 145.878055, 43.455843 ], [ 145.889642, 43.459316 ], [ 145.890969, 43.457784 ], [ 145.896703, 43.449545 ], [ 145.915849, 43.446724 ], [ 145.925989, 43.448368 ], [ 145.9338, 43.456479 ], [ 145.947319, 43.455363 ], [ 145.948085, 43.451981 ], [ 145.937457, 43.448576 ], [ 145.934704, 43.440875 ], [ 145.951713, 43.424847 ], [ 145.934101, 43.423042 ], [ 145.916479, 43.426628 ], [ 145.905188, 43.42115 ], [ 145.899504, 43.426568 ], [ 145.893556, 43.427447 ], [ 145.899916, 43.437973 ], [ 145.897037, 43.445388 ], [ 145.890969, 43.448659 ], [ 145.887741, 43.448294 ], [ 145.885761, 43.450806 ], [ 145.882544, 43.45234 ], [ 145.874, 43.450752 ], [ 145.866445, 43.451298 ], [ 145.862724, 43.454845 ] ] ], [ [ [ 146.27127, 43.626648 ], [ 146.271746, 43.628252 ], [ 146.296839, 43.630519 ], [ 146.309621, 43.639863 ], [ 146.308372, 43.646661 ], [ 146.30876, 43.649231 ], [ 146.312521, 43.651148 ], [ 146.316513, 43.649776 ], [ 146.318426, 43.646661 ], [ 146.327203, 43.644644 ], [ 146.327303, 43.640916 ], [ 146.330792, 43.638508 ], [ 146.349988, 43.638841 ], [ 146.352721, 43.633457 ], [ 146.350827, 43.628349 ], [ 146.356079, 43.622707 ], [ 146.355937, 43.618318 ], [ 146.333037, 43.619107 ], [ 146.320588, 43.622874 ], [ 146.306741, 43.621428 ], [ 146.293899, 43.624679 ], [ 146.278547, 43.624493 ], [ 146.27127, 43.626648 ] ] ], [ [ [ 146.024852, 43.409744 ], [ 146.027905, 43.418729 ], [ 146.036569, 43.418258 ], [ 146.040531, 43.424681 ], [ 146.048841, 43.429837 ], [ 146.058235, 43.422774 ], [ 146.062707, 43.424911 ], [ 146.062946, 43.432932 ], [ 146.068171, 43.431852 ], [ 146.071572, 43.42423 ], [ 146.07851, 43.426017 ], [ 146.083245, 43.424726 ], [ 146.086891, 43.426529 ], [ 146.087953, 43.432931 ], [ 146.082706, 43.437592 ], [ 146.083813, 43.440354 ], [ 146.09981, 43.446815 ], [ 146.101307, 43.440461 ], [ 146.106144, 43.436727 ], [ 146.105585, 43.433205 ], [ 146.094644, 43.430579 ], [ 146.086019, 43.420157 ], [ 146.083713, 43.41296 ], [ 146.07851, 43.4167 ], [ 146.072985, 43.418565 ], [ 146.062324, 43.416512 ], [ 146.055447, 43.413407 ], [ 146.049286, 43.404735 ], [ 146.043888, 43.402513 ], [ 146.024852, 43.409744 ] ] ], [ [ [ 145.987272, 43.369753 ], [ 145.992347, 43.374323 ], [ 145.996262, 43.372665 ], [ 146.004533, 43.371769 ], [ 146.017482, 43.37812 ], [ 146.021372, 43.377086 ], [ 146.014983, 43.372955 ], [ 146.006306, 43.361668 ], [ 145.999268, 43.363391 ], [ 145.996262, 43.366857 ], [ 145.989972, 43.367114 ], [ 145.987272, 43.369753 ] ] ], [ [ [ 146.78806, 43.747368 ], [ 146.791909, 43.748123 ], [ 146.793902, 43.751637 ], [ 146.791186, 43.752638 ], [ 146.793574, 43.75541 ], [ 146.791793, 43.756918 ], [ 146.795838, 43.760192 ], [ 146.798032, 43.759098 ], [ 146.801632, 43.759523 ], [ 146.804471, 43.755756 ], [ 146.807271, 43.75386 ], [ 146.803801, 43.749504 ], [ 146.789727, 43.744262 ], [ 146.78806, 43.747368 ] ] ], [ [ [ 146.684471, 43.729312 ], [ 146.685321, 43.731083 ], [ 146.69145, 43.73287 ], [ 146.69437, 43.730934 ], [ 146.696794, 43.727656 ], [ 146.702389, 43.72857 ], [ 146.703247, 43.727009 ], [ 146.700886, 43.725785 ], [ 146.69615, 43.720514 ], [ 146.693542, 43.721214 ], [ 146.69554, 43.724999 ], [ 146.693013, 43.727348 ], [ 146.684901, 43.726959 ], [ 146.684471, 43.729312 ] ] ], [ [ [ 146.15639, 43.415004 ], [ 146.165444, 43.421479 ], [ 146.166964, 43.420883 ], [ 146.164688, 43.414181 ], [ 146.161519, 43.413017 ], [ 146.15639, 43.415004 ] ] ], [ [ [ 146.399641, 43.567255 ], [ 146.400879, 43.57017 ], [ 146.404223, 43.569154 ], [ 146.408562, 43.571278 ], [ 146.409758, 43.569317 ], [ 146.40748, 43.566939 ], [ 146.405369, 43.567555 ], [ 146.402568, 43.563554 ], [ 146.399641, 43.567255 ] ] ], [ [ [ 146.149142, 43.406587 ], [ 146.151166, 43.410362 ], [ 146.154548, 43.411694 ], [ 146.159567, 43.408635 ], [ 146.149142, 43.406587 ] ] ], [ [ [ 146.84833, 43.79205 ], [ 146.851512, 43.792942 ], [ 146.854726, 43.792167 ], [ 146.853183, 43.789607 ], [ 146.850004, 43.788065 ], [ 146.84833, 43.79205 ] ] ], [ [ [ 146.427625, 43.576949 ], [ 146.432424, 43.578455 ], [ 146.432929, 43.575457 ], [ 146.429916, 43.573649 ], [ 146.427625, 43.576949 ] ] ], [ [ [ 145.435081, 43.718478 ], [ 145.437808, 43.721019 ], [ 145.441136, 43.719683 ], [ 145.438917, 43.716423 ], [ 145.435081, 43.718478 ] ] ], [ [ [ 146.710338, 43.733709 ], [ 146.711445, 43.736342 ], [ 146.71437, 43.735746 ], [ 146.715355, 43.732451 ], [ 146.710561, 43.732556 ], [ 146.710338, 43.733709 ] ] ], [ [ [ 146.83843, 43.801639 ], [ 146.844348, 43.802126 ], [ 146.844108, 43.800171 ], [ 146.839521, 43.798244 ], [ 146.83843, 43.801639 ] ] ], [ [ [ 147.264456, 44.606594 ], [ 147.266806, 44.608988 ], [ 147.271305, 44.606481 ], [ 147.265067, 44.604822 ], [ 147.264456, 44.606594 ] ] ], [ [ [ 146.974471, 44.651841 ], [ 146.978729, 44.653633 ], [ 146.980028, 44.653235 ], [ 146.976959, 44.648665 ], [ 146.975149, 44.649544 ], [ 146.974471, 44.651841 ] ] ] ] } }
]
}
