{
"type": "FeatureCollection",
"name": "Kuwait",
"crs": { "type": "name", "properties": { "name": "urn:ogc:def:crs:OGC:1.3:CRS84" } },
"features": [
{ "type": "Feature", "properties": { "id": "KW", "CNTR_ID": "KW", "CNTR_NAME": "الكويت", "NAME_ENGL": "Kuwait", "ISO3_CODE": "KWT", "FID": "KW" }, "geometry": { "type": "MultiPolygon", "coordinates": [ [ [ [ 46.55304, 29.10117 ], [ 46.557664, 29.104165 ], [ 46.567967, 29.120625 ], [ 46.594018, 29.14658 ], [ 46.609482, 29.158911 ], [ 46.629044, 29.169967 ], [ 46.671351, 29.207651 ], [ 46.692754, 29.23638 ], [ 46.704918, 29.252704 ], [ 46.757094, 29.311178 ], [ 46.766323, 29.321516 ], [ 46.784945, 29.355917 ], [ 46.814859, 29.381266 ], [ 46.86671, 29.437854 ], [ 46.90233, 29.506055 ], [ 46.905234, 29.525443 ], [ 46.918795, 29.539905 ], [ 46.939219, 29.57158 ], [ 46.954428, 29.603274 ], [ 46.969896, 29.618335 ], [ 46.977936, 29.635656 ], [ 46.997852, 29.663458 ], [ 46.99869, 29.666542 ], [ 47.003343, 29.683671 ], [ 47.0075, 29.722921 ], [ 47.027038, 29.74743 ], [ 47.031539, 29.753076 ], [ 47.061462, 29.816859 ], [ 47.081365, 29.851196 ], [ 47.100321, 29.902082 ], [ 47.104923, 29.921894 ], [ 47.123493, 29.953208 ], [ 47.130097, 29.97149 ], [ 47.139462, 29.986527 ], [ 47.152892, 29.998005 ], [ 47.155612, 30.000265 ], [ 47.172602, 30.017468 ], [ 47.189573, 30.028366 ], [ 47.192773, 30.029629 ], [ 47.227249, 30.043239 ], [ 47.247579, 30.048567 ], [ 47.25, 30.048968 ], [ 47.268447, 30.052024 ], [ 47.287566, 30.058711 ], [ 47.305221, 30.068715 ], [ 47.338862, 30.091105 ], [ 47.361293, 30.097162 ], [ 47.371306, 30.103699 ], [ 47.532127, 30.103699 ], [ 47.693468, 30.103699 ], [ 47.707679, 30.103699 ], [ 47.870274, 30.041216 ], [ 47.879176, 30.037795 ], [ 47.954402, 30.008886 ], [ 47.959136, 30.003753 ], [ 47.957069, 29.993252 ], [ 47.964818, 29.987747 ], [ 47.972144, 29.989177 ], [ 47.990315, 29.98849 ], [ 48.013178, 29.981544 ], [ 48.006614, 29.956779 ], [ 48.013642, 29.939255 ], [ 48.013834, 29.924302 ], [ 48.017321, 29.912837 ], [ 48.012494, 29.874186 ], [ 48.017899, 29.845024 ], [ 48.057974, 29.759943 ], [ 48.074232, 29.751718 ], [ 48.078978, 29.74743 ], [ 48.082843, 29.743938 ], [ 48.096797, 29.738144 ], [ 48.106271, 29.728981 ], [ 48.106957, 29.707388 ], [ 48.11116, 29.690132 ], [ 48.117568, 29.681494 ], [ 48.123752, 29.666542 ], [ 48.126468, 29.659974 ], [ 48.133636, 29.651152 ], [ 48.146801, 29.621008 ], [ 48.154637, 29.612751 ], [ 48.164742, 29.581763 ], [ 48.187489, 29.552439 ], [ 48.189468, 29.543476 ], [ 48.167481, 29.512595 ], [ 48.14853, 29.533118 ], [ 48.102624, 29.557505 ], [ 48.042569, 29.571706 ], [ 47.998319, 29.573474 ], [ 47.972144, 29.568266 ], [ 47.879176, 29.521038 ], [ 47.859875, 29.510176 ], [ 47.838844, 29.494608 ], [ 47.823853, 29.478104 ], [ 47.809929, 29.468027 ], [ 47.80204, 29.459545 ], [ 47.792221, 29.445137 ], [ 47.785473, 29.43523 ], [ 47.772606, 29.424 ], [ 47.765511, 29.414595 ], [ 47.758686, 29.410242 ], [ 47.754211, 29.399223 ], [ 47.747391, 29.394182 ], [ 47.74477, 29.395105 ], [ 47.744251, 29.400391 ], [ 47.740849, 29.403612 ], [ 47.731934, 29.402479 ], [ 47.727734, 29.398352 ], [ 47.718029, 29.393543 ], [ 47.715126, 29.378614 ], [ 47.704273, 29.375807 ], [ 47.703327, 29.373117 ], [ 47.707249, 29.363234 ], [ 47.71196, 29.359091 ], [ 47.719036, 29.35931 ], [ 47.729786, 29.362738 ], [ 47.731361, 29.365492 ], [ 47.750767, 29.37373 ], [ 47.759941, 29.374172 ], [ 47.768581, 29.369329 ], [ 47.772774, 29.368633 ], [ 47.781689, 29.369993 ], [ 47.791908, 29.369284 ], [ 47.807636, 29.371086 ], [ 47.821541, 29.377258 ], [ 47.825539, 29.378239 ], [ 47.835442, 29.380671 ], [ 47.841217, 29.384792 ], [ 47.846519, 29.385084 ], [ 47.854534, 29.378561 ], [ 47.864204, 29.380205 ], [ 47.868099, 29.384981 ], [ 47.873253, 29.385519 ], [ 47.872559, 29.377628 ], [ 47.8587, 29.375439 ], [ 47.851944, 29.377413 ], [ 47.845394, 29.377199 ], [ 47.84198, 29.374451 ], [ 47.837524, 29.374693 ], [ 47.828606, 29.370808 ], [ 47.823612, 29.365536 ], [ 47.821503, 29.359339 ], [ 47.823071, 29.356808 ], [ 47.826473, 29.355881 ], [ 47.828556, 29.349213 ], [ 47.828144, 29.347038 ], [ 47.825642, 29.333828 ], [ 47.827194, 29.324863 ], [ 47.835571, 29.323235 ], [ 47.841545, 29.320987 ], [ 47.849709, 29.317915 ], [ 47.858089, 29.318125 ], [ 47.864181, 29.319986 ], [ 47.872246, 29.322451 ], [ 47.879176, 29.322782 ], [ 47.892313, 29.325563 ], [ 47.916026, 29.34302 ], [ 47.926915, 29.344891 ], [ 47.950533, 29.355544 ], [ 47.972144, 29.377426 ], [ 47.987608, 29.388199 ], [ 48.002084, 29.388806 ], [ 48.009451, 29.372942 ], [ 48.023533, 29.36544 ], [ 48.034843, 29.35086 ], [ 48.053721, 29.339893 ], [ 48.077594, 29.342264 ], [ 48.096631, 29.34823 ], [ 48.100227, 29.347059 ], [ 48.091695, 29.304327 ], [ 48.09273, 29.266245 ], [ 48.105809, 29.221411 ], [ 48.125441, 29.174824 ], [ 48.127892, 29.154064 ], [ 48.135289, 29.136984 ], [ 48.140533, 29.112836 ], [ 48.143781, 29.077926 ], [ 48.152921, 29.065488 ], [ 48.162301, 29.014349 ], [ 48.187566, 28.955022 ], [ 48.206502, 28.938477 ], [ 48.218694, 28.912413 ], [ 48.245464, 28.89002 ], [ 48.264828, 28.883038 ], [ 48.285388, 28.879916 ], [ 48.291289, 28.875328 ], [ 48.283752, 28.844978 ], [ 48.283901, 28.805659 ], [ 48.305277, 28.768917 ], [ 48.32483, 28.755162 ], [ 48.357796, 28.740234 ], [ 48.396809, 28.737369 ], [ 48.385064, 28.70952 ], [ 48.382166, 28.691349 ], [ 48.395345, 28.658973 ], [ 48.395565, 28.632485 ], [ 48.38976, 28.613483 ], [ 48.392338, 28.602238 ], [ 48.401011, 28.590469 ], [ 48.405394, 28.568858 ], [ 48.433273, 28.531404 ], [ 47.972144, 28.525045 ], [ 47.879176, 28.523763 ], [ 47.707761, 28.522142 ], [ 47.710241, 28.541313 ], [ 47.693468, 28.557597 ], [ 47.656879, 28.593108 ], [ 47.640831, 28.627493 ], [ 47.607834, 28.654413 ], [ 47.598194, 28.686912 ], [ 47.596562, 28.724165 ], [ 47.602345, 28.757316 ], [ 47.598011, 28.793855 ], [ 47.589462, 28.833495 ], [ 47.567188, 28.859406 ], [ 47.545241, 28.896079 ], [ 47.516529, 28.928292 ], [ 47.496778, 28.968086 ], [ 47.469147, 28.996248 ], [ 47.199804, 29.026989 ], [ 47.152892, 29.032342 ], [ 46.757094, 29.076268 ], [ 46.575737, 29.096389 ], [ 46.55304, 29.10117 ] ] ], [ [ [ 48.040025, 29.825867 ], [ 48.072477, 29.822446 ], [ 48.078028, 29.811355 ], [ 48.084404, 29.816201 ], [ 48.099896, 29.819903 ], [ 48.133238, 29.816146 ], [ 48.136042, 29.818574 ], [ 48.13385, 29.820339 ], [ 48.104297, 29.824132 ], [ 48.085427, 29.822731 ], [ 48.080319, 29.828021 ], [ 48.08405, 29.834982 ], [ 48.107794, 29.843049 ], [ 48.118424, 29.838163 ], [ 48.126936, 29.837528 ], [ 48.134273, 29.832664 ], [ 48.142438, 29.832431 ], [ 48.13873, 29.84675 ], [ 48.125274, 29.847255 ], [ 48.115036, 29.853225 ], [ 48.121468, 29.859583 ], [ 48.133807, 29.864249 ], [ 48.155312, 29.856052 ], [ 48.173447, 29.825814 ], [ 48.177606, 29.824704 ], [ 48.180115, 29.835454 ], [ 48.16986, 29.844438 ], [ 48.170924, 29.860352 ], [ 48.164583, 29.863608 ], [ 48.144697, 29.866826 ], [ 48.13504, 29.87437 ], [ 48.140026, 29.876761 ], [ 48.157143, 29.876311 ], [ 48.167784, 29.882428 ], [ 48.177606, 29.865085 ], [ 48.186358, 29.863159 ], [ 48.186639, 29.866679 ], [ 48.179575, 29.876557 ], [ 48.188514, 29.878108 ], [ 48.18397, 29.886604 ], [ 48.194944, 29.892078 ], [ 48.205442, 29.912816 ], [ 48.196031, 29.919581 ], [ 48.193302, 29.928139 ], [ 48.190176, 29.92863 ], [ 48.187611, 29.922283 ], [ 48.182815, 29.923608 ], [ 48.180388, 29.912591 ], [ 48.186528, 29.901955 ], [ 48.186101, 29.897909 ], [ 48.155017, 29.889881 ], [ 48.152853, 29.896344 ], [ 48.156054, 29.901079 ], [ 48.148634, 29.901625 ], [ 48.145679, 29.904778 ], [ 48.149413, 29.923494 ], [ 48.14731, 29.930349 ], [ 48.134502, 29.934705 ], [ 48.124139, 29.942451 ], [ 48.120561, 29.953808 ], [ 48.11076, 29.960613 ], [ 48.112647, 29.971161 ], [ 48.138129, 29.977893 ], [ 48.164787, 29.976351 ], [ 48.203994, 29.962144 ], [ 48.226633, 29.946858 ], [ 48.236936, 29.935471 ], [ 48.276001, 29.903298 ], [ 48.294191, 29.884015 ], [ 48.343707, 29.8034 ], [ 48.359554, 29.793656 ], [ 48.368205, 29.797276 ], [ 48.374894, 29.790505 ], [ 48.377066, 29.77001 ], [ 48.381663, 29.757723 ], [ 48.38125, 29.748465 ], [ 48.365854, 29.705269 ], [ 48.333658, 29.660886 ], [ 48.266594, 29.598613 ], [ 48.244848, 29.583945 ], [ 48.225045, 29.577141 ], [ 48.200746, 29.580799 ], [ 48.18716, 29.588942 ], [ 48.171959, 29.613082 ], [ 48.168701, 29.634294 ], [ 48.162802, 29.638304 ], [ 48.159249, 29.644785 ], [ 48.155066, 29.666542 ], [ 48.152461, 29.677725 ], [ 48.129134, 29.700901 ], [ 48.121532, 29.717372 ], [ 48.120997, 29.737265 ], [ 48.111293, 29.74355 ], [ 48.101544, 29.759601 ], [ 48.075304, 29.76563 ], [ 48.069853, 29.769383 ], [ 48.066861, 29.785923 ], [ 48.071228, 29.797668 ], [ 48.069845, 29.79854 ], [ 48.061539, 29.793316 ], [ 48.057174, 29.79317 ], [ 48.040025, 29.825867 ] ] ], [ [ [ 48.270348, 29.431772 ], [ 48.275387, 29.440245 ], [ 48.278622, 29.45401 ], [ 48.282837, 29.457203 ], [ 48.288666, 29.466129 ], [ 48.29155, 29.465883 ], [ 48.296814, 29.46838 ], [ 48.298462, 29.466042 ], [ 48.299412, 29.464689 ], [ 48.310719, 29.4683 ], [ 48.315205, 29.472637 ], [ 48.318287, 29.462742 ], [ 48.327694, 29.457632 ], [ 48.333996, 29.458282 ], [ 48.345226, 29.451094 ], [ 48.357021, 29.450331 ], [ 48.365372, 29.444077 ], [ 48.367428, 29.438551 ], [ 48.375263, 29.433907 ], [ 48.376804, 29.429762 ], [ 48.390347, 29.416811 ], [ 48.404213, 29.408823 ], [ 48.405991, 29.405451 ], [ 48.404366, 29.392427 ], [ 48.396435, 29.389662 ], [ 48.390152, 29.390621 ], [ 48.386772, 29.394318 ], [ 48.375526, 29.398525 ], [ 48.367928, 29.399033 ], [ 48.36401, 29.400894 ], [ 48.360386, 29.407351 ], [ 48.356209, 29.409674 ], [ 48.353634, 29.416351 ], [ 48.345982, 29.41976 ], [ 48.344223, 29.420546 ], [ 48.33902, 29.426319 ], [ 48.326946, 29.424555 ], [ 48.323036, 29.428482 ], [ 48.308594, 29.425352 ], [ 48.29237, 29.430729 ], [ 48.278179, 29.425755 ], [ 48.273201, 29.426472 ], [ 48.270348, 29.431772 ] ] ], [ [ [ 48.045082, 29.930132 ], [ 48.045097, 29.933575 ], [ 48.047215, 29.935404 ], [ 48.054855, 29.935835 ], [ 48.060909, 29.934431 ], [ 48.075153, 29.938047 ], [ 48.091854, 29.959335 ], [ 48.099522, 29.965044 ], [ 48.102417, 29.963654 ], [ 48.105011, 29.955605 ], [ 48.108425, 29.952833 ], [ 48.112209, 29.95244 ], [ 48.115967, 29.952049 ], [ 48.117832, 29.950069 ], [ 48.117344, 29.944527 ], [ 48.128967, 29.931635 ], [ 48.144009, 29.929239 ], [ 48.146236, 29.925945 ], [ 48.14328, 29.914783 ], [ 48.138226, 29.905392 ], [ 48.135586, 29.904026 ], [ 48.133183, 29.898066 ], [ 48.127911, 29.89694 ], [ 48.124722, 29.891443 ], [ 48.119175, 29.888023 ], [ 48.112343, 29.891268 ], [ 48.101028, 29.893845 ], [ 48.092598, 29.893421 ], [ 48.091042, 29.898479 ], [ 48.075718, 29.906145 ], [ 48.071594, 29.908207 ], [ 48.064751, 29.909384 ], [ 48.056843, 29.908037 ], [ 48.053181, 29.914022 ], [ 48.050846, 29.9223 ], [ 48.045082, 29.930132 ] ] ], [ [ [ 48.01935, 29.954797 ], [ 48.022315, 29.970174 ], [ 48.033154, 29.977944 ], [ 48.03951, 29.985498 ], [ 48.046946, 29.998331 ], [ 48.054885, 30.004502 ], [ 48.077067, 30.01176 ], [ 48.099756, 30.013962 ], [ 48.154825, 30.004755 ], [ 48.156355, 30.008618 ], [ 48.160079, 30.009517 ], [ 48.163028, 30.007188 ], [ 48.159053, 30.00186 ], [ 48.15428, 30.001312 ], [ 48.138695, 29.996102 ], [ 48.128676, 29.995919 ], [ 48.118104, 29.990683 ], [ 48.098566, 29.985027 ], [ 48.078483, 29.974546 ], [ 48.067895, 29.965174 ], [ 48.054687, 29.958566 ], [ 48.041235, 29.956552 ], [ 48.03729, 29.958635 ], [ 48.031212, 29.954753 ], [ 48.0275, 29.949484 ], [ 48.022235, 29.950423 ], [ 48.01935, 29.954797 ] ] ], [ [ [ 48.024863, 29.884542 ], [ 48.030789, 29.887687 ], [ 48.026015, 29.894937 ], [ 48.02662, 29.900429 ], [ 48.029646, 29.902496 ], [ 48.0394, 29.888119 ], [ 48.039356, 29.883995 ], [ 48.034464, 29.885369 ], [ 48.038501, 29.873871 ], [ 48.040367, 29.870562 ], [ 48.050838, 29.862629 ], [ 48.051994, 29.865572 ], [ 48.054256, 29.866215 ], [ 48.058384, 29.864878 ], [ 48.068928, 29.865795 ], [ 48.078701, 29.864422 ], [ 48.086933, 29.858795 ], [ 48.090694, 29.858772 ], [ 48.097435, 29.854794 ], [ 48.09848, 29.84495 ], [ 48.090923, 29.841064 ], [ 48.085655, 29.841425 ], [ 48.073555, 29.833961 ], [ 48.075428, 29.832966 ], [ 48.075405, 29.830015 ], [ 48.073513, 29.828714 ], [ 48.048687, 29.828869 ], [ 48.033714, 29.838142 ], [ 48.033749, 29.842731 ], [ 48.039066, 29.849257 ], [ 48.033836, 29.853552 ], [ 48.034603, 29.855843 ], [ 48.029732, 29.858166 ], [ 48.028618, 29.86014 ], [ 48.028679, 29.867682 ], [ 48.025185, 29.873871 ], [ 48.024863, 29.884542 ] ] ], [ [ [ 47.905094, 29.357281 ], [ 47.906937, 29.359343 ], [ 47.913757, 29.362078 ], [ 47.920437, 29.362724 ], [ 47.921066, 29.360746 ], [ 47.918465, 29.358389 ], [ 47.910835, 29.349222 ], [ 47.905609, 29.354061 ], [ 47.905094, 29.357281 ] ] ], [ [ [ 48.099911, 29.880352 ], [ 48.101059, 29.882639 ], [ 48.106331, 29.882933 ], [ 48.113445, 29.878624 ], [ 48.110409, 29.87602 ], [ 48.101013, 29.877394 ], [ 48.099911, 29.880352 ] ] ] ] } }
]
}
