{
"type": "FeatureCollection",
"name": "Kyrgyzstan",
"crs": { "type": "name", "properties": { "name": "urn:ogc:def:crs:OGC:1.3:CRS84" } },
"features": [
{ "type": "Feature", "properties": { "id": "KG", "CNTR_ID": "KG", "CNTR_NAME": "Kırgızstan-Кыргызстан", "NAME_ENGL": "Kyrgyzstan", "ISO3_CODE": "KGZ", "FID": "KG" }, "geometry": { "type": "MultiPolygon", "coordinates": [ [ [ [ 70.96761, 40.22851 ], [ 70.969553, 40.243478 ], [ 70.964281, 40.259261 ], [ 70.969801, 40.265744 ], [ 71.021914, 40.284197 ], [ 71.064641, 40.290831 ], [ 71.121119, 40.319938 ], [ 71.132555, 40.322526 ], [ 71.153442, 40.322915 ], [ 71.199315, 40.331493 ], [ 71.221951, 40.330117 ], [ 71.245616, 40.325305 ], [ 71.272801, 40.326465 ], [ 71.276791, 40.323594 ], [ 71.27928, 40.309779 ], [ 71.286124, 40.305384 ], [ 71.303326, 40.306296 ], [ 71.336242, 40.314684 ], [ 71.340727, 40.312104 ], [ 71.345674, 40.302134 ], [ 71.368325, 40.30408 ], [ 71.378674, 40.302209 ], [ 71.427075, 40.26967 ], [ 71.46026, 40.26302 ], [ 71.486714, 40.261232 ], [ 71.491486, 40.253747 ], [ 71.488819, 40.232008 ], [ 71.495056, 40.221998 ], [ 71.547762, 40.200862 ], [ 71.583683, 40.202083 ], [ 71.60036, 40.190242 ], [ 71.604968, 40.187719 ], [ 71.610023, 40.190242 ], [ 71.613118, 40.213733 ], [ 71.608837, 40.238608 ], [ 71.610942, 40.250148 ], [ 71.635913, 40.254058 ], [ 71.654808, 40.252248 ], [ 71.66624, 40.245798 ], [ 71.680679, 40.229654 ], [ 71.683806, 40.217593 ], [ 71.681087, 40.190242 ], [ 71.684634, 40.181624 ], [ 71.704206, 40.166236 ], [ 71.716265, 40.15212 ], [ 71.726765, 40.150018 ], [ 71.750811, 40.160556 ], [ 71.782139, 40.169616 ], [ 71.825014, 40.190242 ], [ 71.829363, 40.19234 ], [ 71.844513, 40.194057 ], [ 71.856504, 40.199914 ], [ 71.859501, 40.20418 ], [ 71.85893, 40.209046 ], [ 71.842644, 40.233206 ], [ 71.845266, 40.241016 ], [ 71.853497, 40.246736 ], [ 71.863353, 40.247233 ], [ 71.871691, 40.245542 ], [ 71.895741, 40.240665 ], [ 71.927293, 40.225278 ], [ 71.940285, 40.225395 ], [ 71.95526, 40.231812 ], [ 71.97043, 40.252975 ], [ 71.992796, 40.270028 ], [ 71.994743, 40.276504 ], [ 71.989418, 40.283868 ], [ 71.976815, 40.291536 ], [ 71.953005, 40.298339 ], [ 71.949523, 40.303827 ], [ 71.951959, 40.309696 ], [ 71.970083, 40.322882 ], [ 71.997667, 40.333636 ], [ 72.046531, 40.378119 ], [ 72.070352, 40.383742 ], [ 72.07931, 40.388869 ], [ 72.086407, 40.402782 ], [ 72.100904, 40.418801 ], [ 72.093462, 40.44758 ], [ 72.101625, 40.462871 ], [ 72.13284, 40.453112 ], [ 72.149372, 40.456399 ], [ 72.167512, 40.469462 ], [ 72.186035, 40.49814 ], [ 72.242936, 40.495321 ], [ 72.250542, 40.488867 ], [ 72.245097, 40.469964 ], [ 72.249372, 40.463518 ], [ 72.274915, 40.460208 ], [ 72.296931, 40.443961 ], [ 72.313397, 40.446941 ], [ 72.322427, 40.44513 ], [ 72.337809, 40.436482 ], [ 72.36889, 40.412451 ], [ 72.37952, 40.407415 ], [ 72.408507, 40.401941 ], [ 72.417878, 40.40382 ], [ 72.421575, 40.414889 ], [ 72.417487, 40.431232 ], [ 72.439629, 40.475631 ], [ 72.435369, 40.485044 ], [ 72.424828, 40.495942 ], [ 72.417197, 40.52107 ], [ 72.410836, 40.524597 ], [ 72.39332, 40.523729 ], [ 72.389098, 40.530965 ], [ 72.395595, 40.540513 ], [ 72.413721, 40.542316 ], [ 72.421076, 40.545097 ], [ 72.427193, 40.551144 ], [ 72.428019, 40.557754 ], [ 72.419015, 40.56814 ], [ 72.395633, 40.575722 ], [ 72.381619, 40.594349 ], [ 72.35586, 40.603293 ], [ 72.353959, 40.608103 ], [ 72.359512, 40.614181 ], [ 72.383567, 40.616195 ], [ 72.403627, 40.622006 ], [ 72.41096, 40.620889 ], [ 72.443939, 40.600672 ], [ 72.458799, 40.582038 ], [ 72.486139, 40.557452 ], [ 72.51107, 40.55844 ], [ 72.548801, 40.538565 ], [ 72.583032, 40.535016 ], [ 72.616285, 40.518266 ], [ 72.63418, 40.520747 ], [ 72.648331, 40.537189 ], [ 72.654884, 40.560214 ], [ 72.673428, 40.574171 ], [ 72.677531, 40.586316 ], [ 72.683221, 40.591231 ], [ 72.715638, 40.586736 ], [ 72.744089, 40.568945 ], [ 72.756417, 40.568478 ], [ 72.760293, 40.570771 ], [ 72.763189, 40.588114 ], [ 72.7606, 40.633491 ], [ 72.763757, 40.640258 ], [ 72.776423, 40.65181 ], [ 72.767474, 40.669787 ], [ 72.772407, 40.679026 ], [ 72.79002, 40.682564 ], [ 72.816832, 40.681395 ], [ 72.844743, 40.688098 ], [ 72.878209, 40.707837 ], [ 72.900335, 40.716886 ], [ 72.937898, 40.727548 ], [ 72.967707, 40.740133 ], [ 72.990599, 40.752515 ], [ 73.006898, 40.766197 ], [ 73.029672, 40.769818 ], [ 73.045441, 40.772326 ], [ 73.106509, 40.793272 ], [ 73.124656, 40.812121 ], [ 73.130939, 40.83465 ], [ 73.125343, 40.84981 ], [ 73.117489, 40.85531 ], [ 73.09067, 40.857201 ], [ 73.078611, 40.85531 ], [ 73.060885, 40.851962 ], [ 73.053477, 40.85531 ], [ 73.041438, 40.860751 ], [ 73.029672, 40.864109 ], [ 73.021951, 40.866312 ], [ 72.996468, 40.887359 ], [ 72.986801, 40.884418 ], [ 72.978044, 40.863891 ], [ 72.983361, 40.85531 ], [ 72.994344, 40.846439 ], [ 72.994605, 40.839454 ], [ 72.976672, 40.832643 ], [ 72.951579, 40.818009 ], [ 72.929975, 40.813075 ], [ 72.911017, 40.817775 ], [ 72.89544, 40.838574 ], [ 72.87523, 40.85531 ], [ 72.868194, 40.861082 ], [ 72.850448, 40.868403 ], [ 72.832, 40.868737 ], [ 72.789502, 40.861109 ], [ 72.768215, 40.862728 ], [ 72.734035, 40.85531 ], [ 72.727719, 40.85531 ], [ 72.697706, 40.858331 ], [ 72.678111, 40.856936 ], [ 72.595979, 40.880657 ], [ 72.578778, 40.889207 ], [ 72.569659, 40.924112 ], [ 72.52872, 40.971913 ], [ 72.514455, 40.980032 ], [ 72.506946, 40.98087 ], [ 72.491796, 40.971202 ], [ 72.485682, 40.972227 ], [ 72.485391, 40.978201 ], [ 72.501649, 41.006643 ], [ 72.500776, 41.021939 ], [ 72.495667, 41.029879 ], [ 72.476183, 41.036487 ], [ 72.44819, 41.038029 ], [ 72.428542, 41.04342 ], [ 72.411447, 41.045484 ], [ 72.388327, 41.055771 ], [ 72.359441, 41.063152 ], [ 72.341046, 41.06046 ], [ 72.318107, 41.04273 ], [ 72.294699, 41.029421 ], [ 72.226358, 41.006622 ], [ 72.202927, 41.003596 ], [ 72.188442, 41.008686 ], [ 72.180046, 41.015567 ], [ 72.180266, 41.021362 ], [ 72.212803, 41.032864 ], [ 72.222838, 41.042342 ], [ 72.226397, 41.051285 ], [ 72.217338, 41.0722 ], [ 72.203237, 41.139485 ], [ 72.19128, 41.154373 ], [ 72.181485, 41.158424 ], [ 72.162441, 41.157941 ], [ 72.140996, 41.161959 ], [ 72.126705, 41.162211 ], [ 72.105036, 41.153768 ], [ 72.085914, 41.142961 ], [ 72.076286, 41.140953 ], [ 72.059047, 41.145743 ], [ 72.024409, 41.16182 ], [ 71.999754, 41.167302 ], [ 71.972996, 41.168726 ], [ 71.9435, 41.158825 ], [ 71.921466, 41.162994 ], [ 71.890508, 41.173713 ], [ 71.884789, 41.179811 ], [ 71.881911, 41.191474 ], [ 71.871691, 41.196097 ], [ 71.866016, 41.198663 ], [ 71.864842, 41.207313 ], [ 71.871691, 41.222585 ], [ 71.876699, 41.23375 ], [ 71.895057, 41.258003 ], [ 71.920575, 41.283533 ], [ 71.932062, 41.303307 ], [ 71.932752, 41.309841 ], [ 71.910565, 41.322862 ], [ 71.892562, 41.339625 ], [ 71.887111, 41.350971 ], [ 71.887603, 41.369747 ], [ 71.882321, 41.377035 ], [ 71.873615, 41.377874 ], [ 71.871691, 41.376809 ], [ 71.8541, 41.367077 ], [ 71.846508, 41.366403 ], [ 71.841561, 41.368284 ], [ 71.838586, 41.397343 ], [ 71.826821, 41.411386 ], [ 71.798678, 41.433405 ], [ 71.774087, 41.466537 ], [ 71.769917, 41.467032 ], [ 71.76663, 41.464372 ], [ 71.763301, 41.443507 ], [ 71.759352, 41.437801 ], [ 71.751631, 41.438412 ], [ 71.741688, 41.453354 ], [ 71.730554, 41.455263 ], [ 71.721931, 41.451505 ], [ 71.717896, 41.446214 ], [ 71.722226, 41.432486 ], [ 71.720428, 41.424323 ], [ 71.71411, 41.422516 ], [ 71.704806, 41.428472 ], [ 71.699295, 41.437347 ], [ 71.699165, 41.447542 ], [ 71.717314, 41.469626 ], [ 71.726591, 41.488008 ], [ 71.724145, 41.5219 ], [ 71.731572, 41.544854 ], [ 71.728899, 41.550103 ], [ 71.722093, 41.553347 ], [ 71.704245, 41.554045 ], [ 71.691383, 41.55073 ], [ 71.676332, 41.539875 ], [ 71.652895, 41.513924 ], [ 71.627695, 41.504888 ], [ 71.620414, 41.498625 ], [ 71.620711, 41.493053 ], [ 71.624847, 41.489543 ], [ 71.649856, 41.485474 ], [ 71.664188, 41.480099 ], [ 71.671901, 41.471655 ], [ 71.675249, 41.461713 ], [ 71.669828, 41.440638 ], [ 71.660904, 41.421215 ], [ 71.673016, 41.395367 ], [ 71.654124, 41.373177 ], [ 71.641949, 41.351783 ], [ 71.624753, 41.348149 ], [ 71.6036, 41.327146 ], [ 71.591987, 41.30647 ], [ 71.584415, 41.300442 ], [ 71.571216, 41.301467 ], [ 71.556966, 41.310943 ], [ 71.545166, 41.315117 ], [ 71.530918, 41.31514 ], [ 71.507952, 41.309039 ], [ 71.484786, 41.314215 ], [ 71.476357, 41.310423 ], [ 71.46026, 41.295682 ], [ 71.452102, 41.288209 ], [ 71.449773, 41.2804 ], [ 71.452473, 41.266682 ], [ 71.44969, 41.24529 ], [ 71.454805, 41.238896 ], [ 71.46026, 41.236157 ], [ 71.470014, 41.23126 ], [ 71.474851, 41.219044 ], [ 71.46026, 41.191794 ], [ 71.459001, 41.189441 ], [ 71.450509, 41.156262 ], [ 71.436126, 41.127102 ], [ 71.416714, 41.108932 ], [ 71.405827, 41.105792 ], [ 71.396847, 41.108467 ], [ 71.39344, 41.113066 ], [ 71.387526, 41.138368 ], [ 71.38188, 41.148272 ], [ 71.366025, 41.161066 ], [ 71.351612, 41.16493 ], [ 71.341329, 41.162988 ], [ 71.329443, 41.154943 ], [ 71.321071, 41.131541 ], [ 71.308919, 41.116077 ], [ 71.293659, 41.106808 ], [ 71.279283, 41.106866 ], [ 71.27431, 41.115069 ], [ 71.277436, 41.149685 ], [ 71.272749, 41.170076 ], [ 71.260176, 41.183623 ], [ 71.244891, 41.189562 ], [ 71.229446, 41.186406 ], [ 71.223763, 41.173394 ], [ 71.218335, 41.16962 ], [ 71.211539, 41.171026 ], [ 71.202652, 41.182498 ], [ 71.196277, 41.183819 ], [ 71.178341, 41.171252 ], [ 71.162454, 41.166288 ], [ 71.144114, 41.153293 ], [ 71.129075, 41.148014 ], [ 71.119655, 41.148647 ], [ 71.099007, 41.154605 ], [ 71.088363, 41.161773 ], [ 71.074505, 41.176297 ], [ 71.029482, 41.19241 ], [ 71.01504, 41.190362 ], [ 70.958554, 41.164752 ], [ 70.948498, 41.168996 ], [ 70.932912, 41.18966 ], [ 70.899807, 41.2097 ], [ 70.878056, 41.22883 ], [ 70.869357, 41.231114 ], [ 70.856205, 41.227217 ], [ 70.847167, 41.218926 ], [ 70.819727, 41.176488 ], [ 70.811345, 41.173723 ], [ 70.79961, 41.17665 ], [ 70.78425, 41.18843 ], [ 70.778882, 41.205416 ], [ 70.780345, 41.220592 ], [ 70.793562, 41.235513 ], [ 70.797552, 41.245318 ], [ 70.794967, 41.253054 ], [ 70.782924, 41.268043 ], [ 70.777646, 41.283227 ], [ 70.776965, 41.306586 ], [ 70.785545, 41.325224 ], [ 70.788439, 41.348377 ], [ 70.777636, 41.378257 ], [ 70.727189, 41.439346 ], [ 70.712032, 41.462071 ], [ 70.681198, 41.467866 ], [ 70.653631, 41.455606 ], [ 70.626824, 41.455088 ], [ 70.599876, 41.449082 ], [ 70.583553, 41.4417 ], [ 70.562091, 41.420734 ], [ 70.530634, 41.401409 ], [ 70.516816, 41.39889 ], [ 70.488141, 41.399715 ], [ 70.476397, 41.404706 ], [ 70.454409, 41.430865 ], [ 70.431725, 41.44473 ], [ 70.41111, 41.463336 ], [ 70.376275, 41.47325 ], [ 70.35656, 41.500034 ], [ 70.345571, 41.506153 ], [ 70.314872, 41.514815 ], [ 70.299334, 41.516926 ], [ 70.27785, 41.516237 ], [ 70.26365, 41.511954 ], [ 70.24821, 41.510657 ], [ 70.226438, 41.513528 ], [ 70.198642, 41.513949 ], [ 70.18833, 41.518397 ], [ 70.18408, 41.523652 ], [ 70.179503, 41.543853 ], [ 70.180978, 41.574275 ], [ 70.186437, 41.587518 ], [ 70.194052, 41.596016 ], [ 70.227102, 41.607213 ], [ 70.26365, 41.607564 ], [ 70.301827, 41.630955 ], [ 70.328492, 41.63175 ], [ 70.344968, 41.636911 ], [ 70.378926, 41.660169 ], [ 70.399961, 41.679003 ], [ 70.458946, 41.701827 ], [ 70.488492, 41.717031 ], [ 70.506293, 41.741177 ], [ 70.508936, 41.773218 ], [ 70.515088, 41.784242 ], [ 70.52941, 41.794311 ], [ 70.557228, 41.804653 ], [ 70.598484, 41.826784 ], [ 70.609859, 41.847192 ], [ 70.638314, 41.865507 ], [ 70.656883, 41.890909 ], [ 70.677905, 41.907324 ], [ 70.708728, 41.917931 ], [ 70.745789, 41.914982 ], [ 70.758857, 41.931354 ], [ 70.794746, 41.921079 ], [ 70.812619, 41.920435 ], [ 70.828579, 41.925833 ], [ 70.839989, 41.93433 ], [ 70.849502, 41.946137 ], [ 70.85284, 41.970416 ], [ 70.836125, 42.003025 ], [ 70.841739, 42.013743 ], [ 70.853904, 42.024649 ], [ 70.858317, 42.036109 ], [ 70.863648, 42.041845 ], [ 70.874915, 42.045749 ], [ 70.890382, 42.04588 ], [ 70.934073, 42.029529 ], [ 70.950976, 42.026743 ], [ 70.969915, 42.028083 ], [ 70.989056, 42.035391 ], [ 71.014036, 42.050614 ], [ 71.032665, 42.058601 ], [ 71.066452, 42.083781 ], [ 71.090284, 42.093864 ], [ 71.146311, 42.132593 ], [ 71.173516, 42.139146 ], [ 71.213664, 42.136451 ], [ 71.24998, 42.160614 ], [ 71.253414, 42.183435 ], [ 71.259356, 42.195406 ], [ 71.256909, 42.201518 ], [ 71.223597, 42.218629 ], [ 71.157192, 42.262748 ], [ 71.136706, 42.271866 ], [ 71.099623, 42.276539 ], [ 71.072926, 42.286424 ], [ 71.059386, 42.28758 ], [ 71.041982, 42.284414 ], [ 71.018982, 42.276926 ], [ 70.988246, 42.258773 ], [ 70.974666, 42.258184 ], [ 70.953916, 42.262126 ], [ 70.94022, 42.2592 ], [ 70.88987, 42.255826 ], [ 70.879005, 42.259812 ], [ 70.87599, 42.264789 ], [ 70.879705, 42.278487 ], [ 70.87132, 42.294672 ], [ 70.871848, 42.318122 ], [ 70.897608, 42.361794 ], [ 70.916636, 42.372705 ], [ 70.934719, 42.39337 ], [ 70.950619, 42.426257 ], [ 70.956684, 42.459071 ], [ 70.963684, 42.471229 ], [ 70.978753, 42.484856 ], [ 70.995927, 42.4943 ], [ 71.016304, 42.485486 ], [ 71.038232, 42.468247 ], [ 71.056927, 42.463915 ], [ 71.068125, 42.46456 ], [ 71.079549, 42.471689 ], [ 71.08554, 42.485926 ], [ 71.095367, 42.499663 ], [ 71.092057, 42.511034 ], [ 71.074774, 42.524185 ], [ 71.035196, 42.542247 ], [ 71.018988, 42.553247 ], [ 71.007606, 42.568648 ], [ 71.010331, 42.578287 ], [ 71.030679, 42.59437 ], [ 71.0429, 42.598847 ], [ 71.055753, 42.600864 ], [ 71.1377, 42.603704 ], [ 71.15662, 42.605844 ], [ 71.162454, 42.608208 ], [ 71.17647, 42.633654 ], [ 71.173179, 42.658997 ], [ 71.175584, 42.671491 ], [ 71.188106, 42.679435 ], [ 71.208421, 42.684381 ], [ 71.229609, 42.695682 ], [ 71.245005, 42.714021 ], [ 71.2683, 42.752621 ], [ 71.269651, 42.7713 ], [ 71.276835, 42.778876 ], [ 71.297452, 42.780934 ], [ 71.363662, 42.777458 ], [ 71.393954, 42.79726 ], [ 71.439737, 42.80083 ], [ 71.46026, 42.800085 ], [ 71.471383, 42.799681 ], [ 71.484712, 42.802034 ], [ 71.499903, 42.808884 ], [ 71.513521, 42.80899 ], [ 71.54196, 42.798303 ], [ 71.554439, 42.790777 ], [ 71.573708, 42.774201 ], [ 71.583833, 42.771679 ], [ 71.601709, 42.771418 ], [ 71.627727, 42.765353 ], [ 71.64038, 42.768989 ], [ 71.676183, 42.789495 ], [ 71.759932, 42.807532 ], [ 71.793928, 42.818463 ], [ 71.816882, 42.830271 ], [ 71.864281, 42.832126 ], [ 71.871691, 42.829908 ], [ 71.904102, 42.820205 ], [ 71.936556, 42.814398 ], [ 71.953657, 42.799356 ], [ 71.983037, 42.784989 ], [ 72.019017, 42.77418 ], [ 72.038033, 42.773432 ], [ 72.054421, 42.769329 ], [ 72.088161, 42.745191 ], [ 72.116163, 42.737656 ], [ 72.144944, 42.74038 ], [ 72.168045, 42.753922 ], [ 72.19006, 42.750968 ], [ 72.233146, 42.760028 ], [ 72.27858, 42.759325 ], [ 72.383764, 42.726458 ], [ 72.399745, 42.720454 ], [ 72.419425, 42.709077 ], [ 72.497616, 42.685674 ], [ 72.55268, 42.677227 ], [ 72.587876, 42.683435 ], [ 72.609534, 42.68049 ], [ 72.669862, 42.656308 ], [ 72.706964, 42.646315 ], [ 72.731236, 42.644022 ], [ 72.741707, 42.639872 ], [ 72.773137, 42.612792 ], [ 72.797446, 42.580915 ], [ 72.824078, 42.563207 ], [ 72.840677, 42.557318 ], [ 72.87826, 42.552128 ], [ 72.89889, 42.538868 ], [ 72.909277, 42.535606 ], [ 72.948621, 42.53386 ], [ 72.961116, 42.528958 ], [ 72.972306, 42.527889 ], [ 73.011762, 42.534894 ], [ 73.029672, 42.531856 ], [ 73.037783, 42.53048 ], [ 73.089315, 42.535967 ], [ 73.103042, 42.535605 ], [ 73.117042, 42.53202 ], [ 73.137245, 42.530654 ], [ 73.18771, 42.518041 ], [ 73.240528, 42.508647 ], [ 73.298322, 42.505477 ], [ 73.306218, 42.501776 ], [ 73.310739, 42.492802 ], [ 73.309997, 42.450247 ], [ 73.320879, 42.441019 ], [ 73.342589, 42.429262 ], [ 73.395279, 42.425944 ], [ 73.422285, 42.418897 ], [ 73.447882, 42.4197 ], [ 73.475301, 42.408283 ], [ 73.48994, 42.409288 ], [ 73.51071, 42.417404 ], [ 73.51403, 42.425322 ], [ 73.513489, 42.437636 ], [ 73.495422, 42.457673 ], [ 73.470646, 42.476225 ], [ 73.444152, 42.501662 ], [ 73.438637, 42.510425 ], [ 73.42505, 42.546569 ], [ 73.422298, 42.564975 ], [ 73.426138, 42.594324 ], [ 73.423362, 42.61003 ], [ 73.424319, 42.626294 ], [ 73.428302, 42.640511 ], [ 73.440101, 42.658769 ], [ 73.451439, 42.700642 ], [ 73.460911, 42.721968 ], [ 73.487219, 42.756996 ], [ 73.503432, 42.783899 ], [ 73.506409, 42.80352 ], [ 73.498436, 42.864714 ], [ 73.500438, 42.90591 ], [ 73.514502, 42.933372 ], [ 73.541276, 42.959719 ], [ 73.560502, 42.989881 ], [ 73.56308, 43.002318 ], [ 73.55572, 43.015131 ], [ 73.556267, 43.018784 ], [ 73.573479, 43.034665 ], [ 73.639385, 43.055233 ], [ 73.778415, 43.108581 ], [ 73.819946, 43.111939 ], [ 73.872143, 43.09792 ], [ 73.891384, 43.097866 ], [ 73.897598, 43.103374 ], [ 73.906016, 43.133956 ], [ 73.913733, 43.140456 ], [ 73.934277, 43.169089 ], [ 73.954637, 43.191308 ], [ 73.983466, 43.185476 ], [ 74.004378, 43.169258 ], [ 74.02253, 43.167155 ], [ 74.029079, 43.164517 ], [ 74.040171, 43.16005 ], [ 74.05123, 43.158409 ], [ 74.099172, 43.167622 ], [ 74.139483, 43.18402 ], [ 74.160548, 43.185964 ], [ 74.17339, 43.191286 ], [ 74.176715, 43.198532 ], [ 74.171846, 43.209598 ], [ 74.157142, 43.227458 ], [ 74.15706, 43.233223 ], [ 74.163463, 43.236824 ], [ 74.171087, 43.237332 ], [ 74.180198, 43.235841 ], [ 74.196125, 43.233236 ], [ 74.292719, 43.237947 ], [ 74.308326, 43.216819 ], [ 74.320874, 43.213034 ], [ 74.333701, 43.212248 ], [ 74.342616, 43.20577 ], [ 74.35047, 43.205884 ], [ 74.369219, 43.200383 ], [ 74.385825, 43.201358 ], [ 74.405371, 43.194266 ], [ 74.415999, 43.199692 ], [ 74.422258, 43.20014 ], [ 74.437057, 43.187942 ], [ 74.454138, 43.18858 ], [ 74.485106, 43.18393 ], [ 74.49473, 43.176376 ], [ 74.497035, 43.166656 ], [ 74.5038, 43.159871 ], [ 74.515648, 43.162502 ], [ 74.524604, 43.16018 ], [ 74.534702, 43.154103 ], [ 74.549254, 43.156635 ], [ 74.560083, 43.147056 ], [ 74.579454, 43.140802 ], [ 74.591299, 43.129698 ], [ 74.612937, 43.121492 ], [ 74.617169, 43.116886 ], [ 74.620993, 43.10011 ], [ 74.625451, 43.094091 ], [ 74.648311, 43.082873 ], [ 74.667165, 43.077472 ], [ 74.693736, 43.060042 ], [ 74.6973, 43.055233 ], [ 74.703013, 43.047045 ], [ 74.708192, 43.027392 ], [ 74.738895, 42.9957 ], [ 74.768742, 42.991779 ], [ 74.790275, 42.995244 ], [ 74.817165, 42.994872 ], [ 74.824232, 42.996809 ], [ 74.831005, 43.004346 ], [ 74.836173, 43.005525 ], [ 74.878844, 42.989939 ], [ 74.909658, 42.982875 ], [ 74.919349, 42.976088 ], [ 74.920004, 42.964043 ], [ 74.924413, 42.958183 ], [ 74.937888, 42.958279 ], [ 74.946875, 42.951004 ], [ 74.96396, 42.943885 ], [ 74.988944, 42.943543 ], [ 75.002931, 42.939916 ], [ 75.011527, 42.932301 ], [ 75.02507, 42.928131 ], [ 75.035956, 42.918402 ], [ 75.076327, 42.903164 ], [ 75.084878, 42.893051 ], [ 75.127715, 42.878632 ], [ 75.158498, 42.85053 ], [ 75.190553, 42.848197 ], [ 75.204732, 42.841272 ], [ 75.232454, 42.838219 ], [ 75.252366, 42.842761 ], [ 75.276502, 42.851423 ], [ 75.322693, 42.855865 ], [ 75.341268, 42.851083 ], [ 75.375633, 42.836803 ], [ 75.428819, 42.822064 ], [ 75.452554, 42.819986 ], [ 75.492634, 42.824981 ], [ 75.544542, 42.821855 ], [ 75.557893, 42.823597 ], [ 75.582571, 42.820284 ], [ 75.614874, 42.820445 ], [ 75.660352, 42.812698 ], [ 75.699086, 42.799097 ], [ 75.712559, 42.797362 ], [ 75.737106, 42.806624 ], [ 75.756207, 42.819265 ], [ 75.768595, 42.833748 ], [ 75.788984, 42.899064 ], [ 75.813676, 42.931545 ], [ 75.841993, 42.941947 ], [ 75.8611, 42.948965 ], [ 75.895133, 42.94385 ], [ 75.921791, 42.95368 ], [ 75.929739, 42.953033 ], [ 75.962782, 42.933622 ], [ 75.982876, 42.929435 ], [ 76.005682, 42.929734 ], [ 76.022667, 42.914728 ], [ 76.037351, 42.910202 ], [ 76.080222, 42.913009 ], [ 76.112748, 42.920516 ], [ 76.13397, 42.923144 ], [ 76.182724, 42.919073 ], [ 76.270067, 42.918508 ], [ 76.280984, 42.915041 ], [ 76.300718, 42.903787 ], [ 76.305502, 42.896766 ], [ 76.310938, 42.878806 ], [ 76.317905, 42.869698 ], [ 76.32532, 42.866278 ], [ 76.342599, 42.865704 ], [ 76.379834, 42.869796 ], [ 76.444006, 42.885489 ], [ 76.484237, 42.889274 ], [ 76.500316, 42.901459 ], [ 76.50884, 42.915822 ], [ 76.514753, 42.918261 ], [ 76.533173, 42.9173 ], [ 76.568767, 42.909763 ], [ 76.608663, 42.912443 ], [ 76.702261, 42.904412 ], [ 76.722453, 42.90554 ], [ 76.739214, 42.915794 ], [ 76.756643, 42.945789 ], [ 76.77565, 42.950696 ], [ 76.802917, 42.951957 ], [ 76.844139, 42.980974 ], [ 76.861633, 42.984771 ], [ 76.929135, 42.98309 ], [ 76.956307, 42.979839 ], [ 76.986664, 42.971826 ], [ 77.008533, 42.969426 ], [ 77.042737, 42.961526 ], [ 77.088894, 42.966157 ], [ 77.175203, 42.959536 ], [ 77.193643, 42.951637 ], [ 77.224341, 42.922059 ], [ 77.243443, 42.915888 ], [ 77.261117, 42.913634 ], [ 77.280232, 42.912827 ], [ 77.348946, 42.916064 ], [ 77.421337, 42.93255 ], [ 77.447334, 42.93541 ], [ 77.483987, 42.927666 ], [ 77.533223, 42.930818 ], [ 77.559442, 42.926379 ], [ 77.583942, 42.91737 ], [ 77.595139, 42.917145 ], [ 77.643148, 42.91618 ], [ 77.708808, 42.906243 ], [ 77.728495, 42.90525 ], [ 77.76963, 42.910487 ], [ 77.784529, 42.910317 ], [ 77.792988, 42.907427 ], [ 77.802393, 42.896328 ], [ 77.817155, 42.885459 ], [ 77.831822, 42.88074 ], [ 77.868706, 42.880478 ], [ 77.905884, 42.86868 ], [ 77.938095, 42.874027 ], [ 77.944648, 42.871223 ], [ 77.960238, 42.855165 ], [ 77.968606, 42.850792 ], [ 77.980374, 42.853464 ], [ 78.004968, 42.865874 ], [ 78.023228, 42.86648 ], [ 78.03958, 42.858636 ], [ 78.059315, 42.839968 ], [ 78.082905, 42.857581 ], [ 78.103548, 42.863176 ], [ 78.140035, 42.857106 ], [ 78.157682, 42.858447 ], [ 78.163637, 42.862509 ], [ 78.172543, 42.876788 ], [ 78.181345, 42.880732 ], [ 78.205714, 42.874422 ], [ 78.227803, 42.874509 ], [ 78.248436, 42.871886 ], [ 78.316082, 42.856944 ], [ 78.338121, 42.856621 ], [ 78.35825, 42.863905 ], [ 78.367217, 42.881427 ], [ 78.371417, 42.884813 ], [ 78.380639, 42.884674 ], [ 78.396422, 42.878627 ], [ 78.408188, 42.877848 ], [ 78.474913, 42.895833 ], [ 78.492409, 42.902641 ], [ 78.512522, 42.896166 ], [ 78.527499, 42.894169 ], [ 78.541419, 42.875019 ], [ 78.552846, 42.867506 ], [ 78.578834, 42.865026 ], [ 78.620088, 42.853251 ], [ 78.655859, 42.848606 ], [ 78.663677, 42.842696 ], [ 78.674474, 42.828063 ], [ 78.68487, 42.821647 ], [ 78.693491, 42.821561 ], [ 78.718313, 42.830499 ], [ 78.739193, 42.822678 ], [ 78.767407, 42.822715 ], [ 78.796724, 42.805723 ], [ 78.822124, 42.806383 ], [ 78.847194, 42.797246 ], [ 78.872664, 42.795701 ], [ 78.899371, 42.789253 ], [ 78.9155, 42.778943 ], [ 78.927781, 42.775634 ], [ 78.93841, 42.775522 ], [ 78.957727, 42.78107 ], [ 78.984682, 42.774326 ], [ 79.006121, 42.777724 ], [ 79.023899, 42.776355 ], [ 79.041441, 42.768982 ], [ 79.058331, 42.750393 ], [ 79.073577, 42.740884 ], [ 79.081151, 42.743854 ], [ 79.093306, 42.764368 ], [ 79.10069, 42.770513 ], [ 79.151746, 42.783013 ], [ 79.17714, 42.782947 ], [ 79.181229, 42.778468 ], [ 79.171123, 42.766825 ], [ 79.166657, 42.75051 ], [ 79.176497, 42.709389 ], [ 79.187402, 42.688 ], [ 79.202464, 42.675571 ], [ 79.215779, 42.657108 ], [ 79.2323, 42.649584 ], [ 79.253178, 42.631749 ], [ 79.268633, 42.626057 ], [ 79.295569, 42.623487 ], [ 79.303942, 42.616828 ], [ 79.337422, 42.601402 ], [ 79.359411, 42.587784 ], [ 79.370059, 42.579543 ], [ 79.379571, 42.55868 ], [ 79.393135, 42.542612 ], [ 79.410465, 42.534132 ], [ 79.468786, 42.494155 ], [ 79.484766, 42.486509 ], [ 79.508809, 42.457782 ], [ 79.570638, 42.457141 ], [ 79.602088, 42.451741 ], [ 79.613991, 42.451858 ], [ 79.62705, 42.456011 ], [ 79.655538, 42.474197 ], [ 79.667459, 42.476491 ], [ 79.740102, 42.467916 ], [ 79.758552, 42.45214 ], [ 79.779608, 42.453887 ], [ 79.782766, 42.452542 ], [ 79.794869, 42.447387 ], [ 79.809035, 42.4477 ], [ 79.823583, 42.443895 ], [ 79.845474, 42.442537 ], [ 79.849366, 42.439162 ], [ 79.85118, 42.426111 ], [ 79.858369, 42.421476 ], [ 79.868763, 42.423658 ], [ 79.873605, 42.433697 ], [ 79.88189, 42.438065 ], [ 79.908573, 42.436347 ], [ 79.930649, 42.437368 ], [ 79.938619, 42.435699 ], [ 79.951807, 42.428994 ], [ 79.964187, 42.412872 ], [ 79.973186, 42.387975 ], [ 79.984424, 42.373998 ], [ 80.023593, 42.346711 ], [ 80.033908, 42.343259 ], [ 80.066048, 42.338328 ], [ 80.08481, 42.327725 ], [ 80.101158, 42.294487 ], [ 80.117144, 42.279649 ], [ 80.119331, 42.274686 ], [ 80.111939, 42.223253 ], [ 80.119417, 42.205351 ], [ 80.128778, 42.202634 ], [ 80.152272, 42.214957 ], [ 80.16699, 42.213248 ], [ 80.198464, 42.231172 ], [ 80.210092, 42.230429 ], [ 80.22748, 42.220548 ], [ 80.245629, 42.22089 ], [ 80.24944, 42.213622 ], [ 80.262528, 42.204016 ], [ 80.265042, 42.198191 ], [ 80.256438, 42.169547 ], [ 80.268057, 42.145512 ], [ 80.269792, 42.135428 ], [ 80.265826, 42.12771 ], [ 80.253472, 42.116481 ], [ 80.249619, 42.094051 ], [ 80.252803, 42.090058 ], [ 80.265672, 42.085553 ], [ 80.276464, 42.077993 ], [ 80.282813, 42.067134 ], [ 80.280404, 42.058726 ], [ 80.229547, 42.055698 ], [ 80.216549, 42.052533 ], [ 80.196677, 42.041361 ], [ 80.174047, 42.040714 ], [ 80.129282, 42.034967 ], [ 80.032003, 42.051346 ], [ 79.985142, 42.040065 ], [ 79.918188, 42.04226 ], [ 79.88189, 42.037541 ], [ 79.879456, 42.037225 ], [ 79.862461, 42.030733 ], [ 79.844434, 42.016616 ], [ 79.835067, 42.000987 ], [ 79.839793, 41.9899 ], [ 79.836257, 41.972903 ], [ 79.797175, 41.935329 ], [ 79.785379, 41.909285 ], [ 79.782766, 41.906708 ], [ 79.767777, 41.89192 ], [ 79.762416, 41.862924 ], [ 79.737573, 41.853348 ], [ 79.732141, 41.847088 ], [ 79.731744, 41.836516 ], [ 79.726618, 41.827102 ], [ 79.670439, 41.790365 ], [ 79.601961, 41.780985 ], [ 79.554075, 41.781221 ], [ 79.538903, 41.785045 ], [ 79.513243, 41.786342 ], [ 79.481561, 41.78114 ], [ 79.461291, 41.794666 ], [ 79.464148, 41.797668 ], [ 79.478788, 41.798569 ], [ 79.475248, 41.805641 ], [ 79.485833, 41.809088 ], [ 79.484879, 41.81709 ], [ 79.493856, 41.823031 ], [ 79.492486, 41.825681 ], [ 79.476364, 41.831674 ], [ 79.475498, 41.844496 ], [ 79.469823, 41.847421 ], [ 79.452068, 41.848981 ], [ 79.411568, 41.841132 ], [ 79.389748, 41.830374 ], [ 79.360548, 41.801787 ], [ 79.346372, 41.799253 ], [ 79.324405, 41.806062 ], [ 79.313201, 41.806222 ], [ 79.307006, 41.803786 ], [ 79.289824, 41.789623 ], [ 79.265387, 41.784636 ], [ 79.259076, 41.7783 ], [ 79.253293, 41.76426 ], [ 79.246162, 41.756029 ], [ 79.226807, 41.739009 ], [ 79.216506, 41.734256 ], [ 79.200696, 41.730321 ], [ 79.16121, 41.730216 ], [ 79.146076, 41.727749 ], [ 79.13621, 41.723622 ], [ 79.103687, 41.70008 ], [ 79.082415, 41.692927 ], [ 79.042072, 41.686334 ], [ 79.033673, 41.683035 ], [ 79.028458, 41.678865 ], [ 79.019776, 41.664194 ], [ 79.010393, 41.658139 ], [ 78.987845, 41.658742 ], [ 78.93626, 41.644984 ], [ 78.928525, 41.640171 ], [ 78.917611, 41.62641 ], [ 78.893132, 41.614818 ], [ 78.879565, 41.599633 ], [ 78.835047, 41.57509 ], [ 78.744363, 41.552591 ], [ 78.706558, 41.549658 ], [ 78.692125, 41.534614 ], [ 78.679516, 41.513326 ], [ 78.64348, 41.472123 ], [ 78.638833, 41.470255 ], [ 78.620149, 41.473789 ], [ 78.601669, 41.46825 ], [ 78.575518, 41.468835 ], [ 78.53378, 41.456502 ], [ 78.500734, 41.43032 ], [ 78.476886, 41.421056 ], [ 78.436538, 41.414505 ], [ 78.414805, 41.4135 ], [ 78.403369, 41.412971 ], [ 78.388688, 41.407651 ], [ 78.384811, 41.400372 ], [ 78.380101, 41.358375 ], [ 78.393109, 41.34764 ], [ 78.398848, 41.333058 ], [ 78.407389, 41.322842 ], [ 78.408433, 41.316686 ], [ 78.404138, 41.307021 ], [ 78.387476, 41.29249 ], [ 78.384201, 41.269889 ], [ 78.37839, 41.26489 ], [ 78.363998, 41.259502 ], [ 78.341386, 41.260057 ], [ 78.297752, 41.234206 ], [ 78.273218, 41.213872 ], [ 78.258464, 41.189747 ], [ 78.216142, 41.138442 ], [ 78.201074, 41.105811 ], [ 78.188255, 41.078038 ], [ 78.18095, 41.073854 ], [ 78.166401, 41.076425 ], [ 78.152314, 41.071287 ], [ 78.127993, 41.071616 ], [ 78.117762, 41.069314 ], [ 78.091536, 41.052533 ], [ 78.078486, 41.049985 ], [ 78.073659, 41.047987 ], [ 78.066432, 41.036714 ], [ 78.060246, 41.034181 ], [ 78.044343, 41.040974 ], [ 78.012477, 41.06715 ], [ 77.984839, 41.076762 ], [ 77.915045, 41.061834 ], [ 77.902928, 41.063827 ], [ 77.885533, 41.071665 ], [ 77.876151, 41.072367 ], [ 77.795372, 41.045096 ], [ 77.777039, 41.03658 ], [ 77.768286, 41.027582 ], [ 77.760292, 41.023809 ], [ 77.749732, 41.022996 ], [ 77.726289, 41.028091 ], [ 77.707944, 41.024303 ], [ 77.685796, 41.008185 ], [ 77.666037, 40.99991 ], [ 77.641611, 41.008418 ], [ 77.621391, 41.012137 ], [ 77.595139, 41.003885 ], [ 77.5718, 40.996547 ], [ 77.544192, 40.992636 ], [ 77.524514, 40.993506 ], [ 77.502836, 40.999821 ], [ 77.471352, 41.001578 ], [ 77.460201, 41.014914 ], [ 77.447032, 41.020884 ], [ 77.420818, 41.021864 ], [ 77.359555, 41.032397 ], [ 77.331763, 41.0296 ], [ 77.304186, 41.017834 ], [ 77.271089, 41.007469 ], [ 77.257733, 41.008587 ], [ 77.251451, 41.012602 ], [ 77.245245, 41.021648 ], [ 77.226764, 41.02758 ], [ 77.196907, 41.026921 ], [ 77.186578, 41.024738 ], [ 77.167037, 41.016062 ], [ 77.156499, 41.016195 ], [ 77.130033, 41.027466 ], [ 77.092826, 41.047967 ], [ 77.070197, 41.055113 ], [ 77.047546, 41.059233 ], [ 77.026339, 41.056684 ], [ 76.949542, 41.039137 ], [ 76.912209, 41.024018 ], [ 76.887391, 41.025788 ], [ 76.865668, 41.020946 ], [ 76.852232, 41.010254 ], [ 76.829698, 40.978049 ], [ 76.803313, 40.969945 ], [ 76.785597, 40.95818 ], [ 76.775495, 40.921963 ], [ 76.788115, 40.862553 ], [ 76.784563, 40.849005 ], [ 76.778466, 40.844147 ], [ 76.744524, 40.829774 ], [ 76.681485, 40.793795 ], [ 76.676629, 40.791022 ], [ 76.653101, 40.774904 ], [ 76.634718, 40.75707 ], [ 76.630199, 40.738069 ], [ 76.646923, 40.695984 ], [ 76.64623, 40.687889 ], [ 76.639385, 40.672505 ], [ 76.646219, 40.643496 ], [ 76.645205, 40.629561 ], [ 76.638482, 40.622184 ], [ 76.599575, 40.599691 ], [ 76.574149, 40.569962 ], [ 76.540118, 40.536484 ], [ 76.529409, 40.503444 ], [ 76.527319, 40.474823 ], [ 76.522527, 40.465071 ], [ 76.49795, 40.444631 ], [ 76.475359, 40.430427 ], [ 76.457412, 40.411661 ], [ 76.436288, 40.401436 ], [ 76.367449, 40.382919 ], [ 76.341739, 40.363927 ], [ 76.332338, 40.361207 ], [ 76.324866, 40.372465 ], [ 76.322049, 40.400187 ], [ 76.314418, 40.422211 ], [ 76.310244, 40.452529 ], [ 76.302549, 40.459681 ], [ 76.291643, 40.460661 ], [ 76.274232, 40.44915 ], [ 76.221382, 40.397879 ], [ 76.190009, 40.383839 ], [ 76.173997, 40.383317 ], [ 76.159395, 40.385696 ], [ 76.107921, 40.404095 ], [ 76.090474, 40.406966 ], [ 76.067273, 40.402806 ], [ 76.020135, 40.382083 ], [ 76.007921, 40.379976 ], [ 75.977408, 40.37991 ], [ 75.969164, 40.377503 ], [ 75.960401, 40.370741 ], [ 75.923584, 40.32819 ], [ 75.921962, 40.317431 ], [ 75.924711, 40.298897 ], [ 75.916916, 40.286834 ], [ 75.910737, 40.288222 ], [ 75.900527, 40.300467 ], [ 75.891904, 40.305924 ], [ 75.882692, 40.307649 ], [ 75.869362, 40.307403 ], [ 75.853393, 40.307107 ], [ 75.841993, 40.30973 ], [ 75.829464, 40.334882 ], [ 75.824016, 40.337675 ], [ 75.816261, 40.333767 ], [ 75.794326, 40.309838 ], [ 75.780931, 40.300822 ], [ 75.741178, 40.294703 ], [ 75.703147, 40.279515 ], [ 75.696775, 40.282346 ], [ 75.694745, 40.288848 ], [ 75.698029, 40.300282 ], [ 75.688493, 40.316825 ], [ 75.688117, 40.335305 ], [ 75.664216, 40.351489 ], [ 75.662866, 40.355674 ], [ 75.665928, 40.365882 ], [ 75.648807, 40.376865 ], [ 75.645165, 40.383273 ], [ 75.650237, 40.389624 ], [ 75.671452, 40.403628 ], [ 75.68647, 40.424272 ], [ 75.712703, 40.436194 ], [ 75.720273, 40.479704 ], [ 75.71329, 40.486564 ], [ 75.65289, 40.501302 ], [ 75.641954, 40.507964 ], [ 75.63719, 40.526626 ], [ 75.621696, 40.563448 ], [ 75.618421, 40.614726 ], [ 75.59914, 40.651425 ], [ 75.592913, 40.657033 ], [ 75.556609, 40.650599 ], [ 75.534368, 40.641728 ], [ 75.515125, 40.628843 ], [ 75.486873, 40.621519 ], [ 75.462976, 40.609437 ], [ 75.455839, 40.602289 ], [ 75.44754, 40.583887 ], [ 75.416957, 40.558334 ], [ 75.409051, 40.554464 ], [ 75.393092, 40.55494 ], [ 75.386049, 40.55282 ], [ 75.351315, 40.522205 ], [ 75.328644, 40.516999 ], [ 75.316682, 40.511905 ], [ 75.301878, 40.500679 ], [ 75.289812, 40.483543 ], [ 75.261082, 40.477045 ], [ 75.246148, 40.459135 ], [ 75.229331, 40.446183 ], [ 75.21647, 40.441528 ], [ 75.192178, 40.439942 ], [ 75.167896, 40.449627 ], [ 75.141178, 40.454433 ], [ 75.122779, 40.449387 ], [ 75.108228, 40.442326 ], [ 75.096482, 40.440911 ], [ 75.08521, 40.441663 ], [ 75.06425, 40.449338 ], [ 75.01824, 40.457633 ], [ 75.010115, 40.45679 ], [ 74.997814, 40.451383 ], [ 74.98842, 40.451353 ], [ 74.936872, 40.474338 ], [ 74.921146, 40.490601 ], [ 74.89838, 40.495953 ], [ 74.839071, 40.521628 ], [ 74.827766, 40.522952 ], [ 74.822978, 40.518677 ], [ 74.819348, 40.507231 ], [ 74.82447, 40.488656 ], [ 74.8203, 40.465715 ], [ 74.812616, 40.456088 ], [ 74.794202, 40.452104 ], [ 74.791291, 40.445873 ], [ 74.806983, 40.428271 ], [ 74.847988, 40.396325 ], [ 74.868606, 40.3707 ], [ 74.903086, 40.349643 ], [ 74.905251, 40.344363 ], [ 74.898655, 40.337639 ], [ 74.859004, 40.318991 ], [ 74.842031, 40.326068 ], [ 74.818511, 40.342943 ], [ 74.801103, 40.349892 ], [ 74.789239, 40.350059 ], [ 74.770244, 40.346189 ], [ 74.739398, 40.348885 ], [ 74.702758, 40.344817 ], [ 74.696676, 40.339901 ], [ 74.699564, 40.327493 ], [ 74.697385, 40.314411 ], [ 74.684637, 40.294385 ], [ 74.686478, 40.272602 ], [ 74.683532, 40.266932 ], [ 74.677121, 40.265358 ], [ 74.648036, 40.269145 ], [ 74.635698, 40.276716 ], [ 74.628988, 40.278302 ], [ 74.582768, 40.27197 ], [ 74.569121, 40.261179 ], [ 74.554659, 40.239129 ], [ 74.526436, 40.207381 ], [ 74.494403, 40.195472 ], [ 74.490102, 40.190242 ], [ 74.482376, 40.180845 ], [ 74.461678, 40.164353 ], [ 74.447728, 40.147907 ], [ 74.409609, 40.12916 ], [ 74.384676, 40.111355 ], [ 74.34285, 40.086434 ], [ 74.332597, 40.088384 ], [ 74.310403, 40.104087 ], [ 74.283308, 40.098954 ], [ 74.274577, 40.106297 ], [ 74.26457, 40.121834 ], [ 74.255987, 40.125642 ], [ 74.240529, 40.121653 ], [ 74.224073, 40.122858 ], [ 74.197392, 40.117747 ], [ 74.180198, 40.109624 ], [ 74.151007, 40.100347 ], [ 74.125725, 40.100382 ], [ 74.117883, 40.093087 ], [ 74.112137, 40.082134 ], [ 74.106499, 40.079218 ], [ 74.076907, 40.075117 ], [ 74.048644, 40.085792 ], [ 74.034704, 40.085724 ], [ 74.026189, 40.079524 ], [ 74.010166, 40.055455 ], [ 73.996915, 40.044282 ], [ 73.955624, 40.028774 ], [ 73.947504, 40.023113 ], [ 73.94913, 40.015039 ], [ 73.970946, 40.005897 ], [ 73.977479, 39.995957 ], [ 73.95914, 39.969717 ], [ 73.913335, 39.916512 ], [ 73.91203, 39.9061 ], [ 73.918766, 39.881407 ], [ 73.916205, 39.86931 ], [ 73.908732, 39.862976 ], [ 73.878666, 39.852888 ], [ 73.862575, 39.838127 ], [ 73.845778, 39.811192 ], [ 73.832387, 39.772536 ], [ 73.836294, 39.759258 ], [ 73.84792, 39.748253 ], [ 73.892764, 39.737259 ], [ 73.901814, 39.732837 ], [ 73.90969, 39.725394 ], [ 73.940314, 39.606611 ], [ 73.936988, 39.594649 ], [ 73.88799, 39.541696 ], [ 73.879432, 39.526451 ], [ 73.863114, 39.480173 ], [ 73.845976, 39.466299 ], [ 73.813923, 39.458986 ], [ 73.726513, 39.458144 ], [ 73.658239, 39.46508 ], [ 73.63499, 39.466066 ], [ 73.612522, 39.459818 ], [ 73.563382, 39.452722 ], [ 73.50926, 39.467381 ], [ 73.490226, 39.468519 ], [ 73.463084, 39.465477 ], [ 73.438447, 39.451637 ], [ 73.421925, 39.445272 ], [ 73.38966, 39.449909 ], [ 73.378049, 39.439221 ], [ 73.357165, 39.400502 ], [ 73.338538, 39.391636 ], [ 73.312527, 39.386337 ], [ 73.279087, 39.387604 ], [ 73.265897, 39.390264 ], [ 73.2472, 39.405072 ], [ 73.240393, 39.405257 ], [ 73.227733, 39.386117 ], [ 73.21864, 39.361692 ], [ 73.211424, 39.356759 ], [ 73.176217, 39.355198 ], [ 73.147705, 39.357916 ], [ 73.113259, 39.369641 ], [ 73.096486, 39.372763 ], [ 73.037852, 39.354791 ], [ 73.029672, 39.354296 ], [ 73.027204, 39.354146 ], [ 72.994403, 39.35921 ], [ 72.956883, 39.351652 ], [ 72.944615, 39.354215 ], [ 72.9318, 39.362399 ], [ 72.921443, 39.365315 ], [ 72.906233, 39.362906 ], [ 72.867851, 39.351661 ], [ 72.836267, 39.353302 ], [ 72.81954, 39.357124 ], [ 72.77839, 39.341004 ], [ 72.773426, 39.343658 ], [ 72.769023, 39.352568 ], [ 72.689425, 39.384447 ], [ 72.655859, 39.38179 ], [ 72.635499, 39.385163 ], [ 72.623573, 39.387139 ], [ 72.614837, 39.382619 ], [ 72.595294, 39.357829 ], [ 72.576291, 39.350586 ], [ 72.562035, 39.351128 ], [ 72.552278, 39.355463 ], [ 72.543327, 39.369236 ], [ 72.533658, 39.374431 ], [ 72.523535, 39.376993 ], [ 72.49653, 39.37591 ], [ 72.487699, 39.370723 ], [ 72.478273, 39.354903 ], [ 72.469216, 39.349109 ], [ 72.441703, 39.344185 ], [ 72.435481, 39.343072 ], [ 72.38728, 39.326803 ], [ 72.348384, 39.329443 ], [ 72.322726, 39.313839 ], [ 72.307927, 39.297598 ], [ 72.286524, 39.246948 ], [ 72.263855, 39.212265 ], [ 72.261464, 39.185045 ], [ 72.258564, 39.178527 ], [ 72.255386, 39.17501 ], [ 72.244505, 39.173164 ], [ 72.232561, 39.175826 ], [ 72.220404, 39.183894 ], [ 72.216327, 39.193978 ], [ 72.216475, 39.205978 ], [ 72.212736, 39.219448 ], [ 72.207878, 39.225752 ], [ 72.182405, 39.241728 ], [ 72.167974, 39.261323 ], [ 72.15586, 39.264639 ], [ 72.108213, 39.264755 ], [ 72.096686, 39.271671 ], [ 72.085931, 39.285011 ], [ 72.077916, 39.304391 ], [ 72.065955, 39.322005 ], [ 72.058233, 39.351887 ], [ 72.049937, 39.360285 ], [ 72.040092, 39.365292 ], [ 72.034704, 39.365506 ], [ 72.012744, 39.351385 ], [ 71.994518, 39.347278 ], [ 71.971486, 39.334858 ], [ 71.957313, 39.330389 ], [ 71.933503, 39.303819 ], [ 71.919262, 39.281403 ], [ 71.912534, 39.277906 ], [ 71.899829, 39.275745 ], [ 71.878313, 39.281144 ], [ 71.871691, 39.281551 ], [ 71.847292, 39.28305 ], [ 71.814797, 39.274636 ], [ 71.801771, 39.274073 ], [ 71.790595, 39.27832 ], [ 71.778404, 39.288417 ], [ 71.753012, 39.324912 ], [ 71.758352, 39.351705 ], [ 71.773066, 39.366246 ], [ 71.79524, 39.375146 ], [ 71.800286, 39.381719 ], [ 71.803251, 39.405098 ], [ 71.797545, 39.428248 ], [ 71.787545, 39.441897 ], [ 71.770585, 39.451946 ], [ 71.757271, 39.456726 ], [ 71.731249, 39.454747 ], [ 71.705089, 39.455811 ], [ 71.675837, 39.450925 ], [ 71.637953, 39.439952 ], [ 71.577548, 39.449059 ], [ 71.563793, 39.454471 ], [ 71.552551, 39.473094 ], [ 71.543762, 39.507507 ], [ 71.547295, 39.531211 ], [ 71.55772, 39.545635 ], [ 71.560753, 39.55596 ], [ 71.559553, 39.574733 ], [ 71.548602, 39.588807 ], [ 71.525864, 39.60234 ], [ 71.498942, 39.613246 ], [ 71.485247, 39.611317 ], [ 71.46026, 39.591992 ], [ 71.457511, 39.589866 ], [ 71.435672, 39.577724 ], [ 71.417375, 39.572031 ], [ 71.393048, 39.572136 ], [ 71.359979, 39.576112 ], [ 71.337911, 39.569492 ], [ 71.334176, 39.552128 ], [ 71.328943, 39.54388 ], [ 71.308287, 39.524133 ], [ 71.296034, 39.518557 ], [ 71.286759, 39.518434 ], [ 71.278608, 39.522932 ], [ 71.259288, 39.547831 ], [ 71.253112, 39.551221 ], [ 71.244622, 39.545351 ], [ 71.237871, 39.534845 ], [ 71.193431, 39.511516 ], [ 71.168874, 39.507634 ], [ 71.162454, 39.50795 ], [ 71.115185, 39.510275 ], [ 71.100495, 39.506622 ], [ 71.08977, 39.49878 ], [ 71.080946, 39.480655 ], [ 71.078003, 39.46937 ], [ 71.080503, 39.432503 ], [ 71.066311, 39.414664 ], [ 71.031306, 39.404213 ], [ 70.994947, 39.403226 ], [ 70.975885, 39.414008 ], [ 70.95828, 39.43087 ], [ 70.951198, 39.43412 ], [ 70.943088, 39.433656 ], [ 70.935842, 39.425935 ], [ 70.934467, 39.40666 ], [ 70.922441, 39.390727 ], [ 70.911811, 39.383521 ], [ 70.894682, 39.381949 ], [ 70.866633, 39.393122 ], [ 70.813895, 39.388538 ], [ 70.788817, 39.389624 ], [ 70.773045, 39.394896 ], [ 70.767748, 39.401305 ], [ 70.762966, 39.427704 ], [ 70.761692, 39.460488 ], [ 70.754167, 39.477482 ], [ 70.744578, 39.487404 ], [ 70.702759, 39.507913 ], [ 70.660782, 39.565386 ], [ 70.632623, 39.57907 ], [ 70.593353, 39.581051 ], [ 70.570013, 39.584902 ], [ 70.556767, 39.592677 ], [ 70.544152, 39.608139 ], [ 70.528036, 39.614028 ], [ 70.50777, 39.617828 ], [ 70.495892, 39.617238 ], [ 70.487532, 39.613786 ], [ 70.471161, 39.586182 ], [ 70.465158, 39.58059 ], [ 70.453429, 39.577369 ], [ 70.433702, 39.581912 ], [ 70.416699, 39.590401 ], [ 70.400033, 39.594055 ], [ 70.389357, 39.594149 ], [ 70.375672, 39.590958 ], [ 70.363527, 39.582193 ], [ 70.330329, 39.547728 ], [ 70.318448, 39.538623 ], [ 70.314872, 39.536503 ], [ 70.308833, 39.532926 ], [ 70.304253, 39.530212 ], [ 70.284786, 39.525842 ], [ 70.271343, 39.528513 ], [ 70.26365, 39.535948 ], [ 70.241546, 39.557306 ], [ 70.22534, 39.565656 ], [ 70.218189, 39.574089 ], [ 70.210401, 39.596572 ], [ 70.205201, 39.596099 ], [ 70.198859, 39.590133 ], [ 70.191879, 39.56741 ], [ 70.178906, 39.555683 ], [ 70.153195, 39.557828 ], [ 70.140937, 39.564292 ], [ 70.137829, 39.569244 ], [ 70.13406, 39.582324 ], [ 70.130001, 39.585188 ], [ 70.122937, 39.586753 ], [ 70.106135, 39.58247 ], [ 70.078144, 39.563866 ], [ 70.070844, 39.551782 ], [ 70.06626, 39.526688 ], [ 70.060878, 39.521828 ], [ 70.057537, 39.532114 ], [ 70.059534, 39.557378 ], [ 70.051072, 39.566778 ], [ 70.041197, 39.564711 ], [ 70.030872, 39.545876 ], [ 70.011247, 39.53988 ], [ 69.998967, 39.541611 ], [ 69.99048, 39.546575 ], [ 69.980937, 39.561663 ], [ 69.965205, 39.57145 ], [ 69.932534, 39.576842 ], [ 69.930282, 39.576549 ], [ 69.913122, 39.574316 ], [ 69.904044, 39.568953 ], [ 69.899035, 39.55242 ], [ 69.894988, 39.54739 ], [ 69.869095, 39.525122 ], [ 69.86468, 39.52367 ], [ 69.859372, 39.527224 ], [ 69.853021, 39.539893 ], [ 69.810147, 39.565747 ], [ 69.792538, 39.572603 ], [ 69.759371, 39.57853 ], [ 69.745464, 39.586715 ], [ 69.722573, 39.590938 ], [ 69.71133, 39.593012 ], [ 69.695127, 39.590222 ], [ 69.671996, 39.576146 ], [ 69.657727, 39.575928 ], [ 69.62365, 39.584206 ], [ 69.595234, 39.573518 ], [ 69.581864, 39.55678 ], [ 69.578524, 39.552599 ], [ 69.563529, 39.551921 ], [ 69.547421, 39.544117 ], [ 69.536052, 39.543756 ], [ 69.520833, 39.537431 ], [ 69.504023, 39.534367 ], [ 69.483994, 39.525626 ], [ 69.46602, 39.533463 ], [ 69.448276, 39.529125 ], [ 69.429007, 39.533876 ], [ 69.415293, 39.541103 ], [ 69.409965, 39.551005 ], [ 69.403593, 39.551696 ], [ 69.398193, 39.547873 ], [ 69.383275, 39.523262 ], [ 69.374058, 39.516868 ], [ 69.366096, 39.516808 ], [ 69.340983, 39.539136 ], [ 69.346964, 39.55678 ], [ 69.357795, 39.588719 ], [ 69.342549, 39.597222 ], [ 69.340672, 39.616858 ], [ 69.332972, 39.628808 ], [ 69.331121, 39.648016 ], [ 69.321188, 39.66217 ], [ 69.325786, 39.693448 ], [ 69.319809, 39.70982 ], [ 69.289943, 39.748542 ], [ 69.276964, 39.791048 ], [ 69.279945, 39.802704 ], [ 69.296349, 39.825667 ], [ 69.301659, 39.839305 ], [ 69.307895, 39.881392 ], [ 69.328833, 39.90054 ], [ 69.342513, 39.934282 ], [ 69.354837, 39.975434 ], [ 69.353417, 39.998726 ], [ 69.359263, 40.012116 ], [ 69.38415, 40.002594 ], [ 69.393478, 39.976112 ], [ 69.415156, 39.949787 ], [ 69.420985, 39.922644 ], [ 69.428542, 39.905816 ], [ 69.450109, 39.897394 ], [ 69.468963, 39.897554 ], [ 69.532553, 39.934492 ], [ 69.534072, 39.944881 ], [ 69.526612, 39.969893 ], [ 69.529978, 39.994875 ], [ 69.507889, 40.033314 ], [ 69.514541, 40.052695 ], [ 69.518554, 40.079522 ], [ 69.527495, 40.090177 ], [ 69.562825, 40.103462 ], [ 69.610146, 40.109062 ], [ 69.645349, 40.116462 ], [ 69.685947, 40.115013 ], [ 69.700688, 40.116665 ], [ 69.722573, 40.125759 ], [ 69.799514, 40.157723 ], [ 69.865419, 40.175877 ], [ 69.907137, 40.190242 ], [ 69.921388, 40.195148 ], [ 69.958806, 40.208066 ], [ 69.979848, 40.219332 ], [ 69.988354, 40.22793 ], [ 70.006886, 40.23589 ], [ 70.037111, 40.238677 ], [ 70.047908, 40.23528 ], [ 70.108216, 40.191769 ], [ 70.112008, 40.190242 ], [ 70.128002, 40.183799 ], [ 70.137829, 40.175246 ], [ 70.140046, 40.173242 ], [ 70.145366, 40.171748 ], [ 70.163361, 40.162266 ], [ 70.180434, 40.151763 ], [ 70.195989, 40.139894 ], [ 70.201936, 40.133339 ], [ 70.215097, 40.128386 ], [ 70.221169, 40.127935 ], [ 70.246439, 40.128178 ], [ 70.26365, 40.130868 ], [ 70.26884, 40.131679 ], [ 70.279897, 40.128308 ], [ 70.299496, 40.124832 ], [ 70.308833, 40.121367 ], [ 70.314872, 40.119127 ], [ 70.325787, 40.115076 ], [ 70.335285, 40.109882 ], [ 70.350073, 40.095966 ], [ 70.364607, 40.091836 ], [ 70.389091, 40.089675 ], [ 70.402024, 40.072723 ], [ 70.416849, 40.065562 ], [ 70.430042, 40.062884 ], [ 70.500706, 40.056176 ], [ 70.505652, 40.054061 ], [ 70.523463, 40.051421 ], [ 70.558165, 40.033031 ], [ 70.56404, 40.026398 ], [ 70.565038, 40.0207 ], [ 70.549754, 40.007257 ], [ 70.544433, 39.999978 ], [ 70.519971, 39.983706 ], [ 70.513112, 39.980093 ], [ 70.480856, 39.969638 ], [ 70.467004, 39.958711 ], [ 70.456519, 39.947706 ], [ 70.462539, 39.938454 ], [ 70.481421, 39.92517 ], [ 70.492984, 39.925903 ], [ 70.505089, 39.929373 ], [ 70.522233, 39.938916 ], [ 70.545412, 39.940647 ], [ 70.563752, 39.942542 ], [ 70.575532, 39.943462 ], [ 70.626843, 39.972105 ], [ 70.640544, 39.979268 ], [ 70.653847, 40.000397 ], [ 70.657638, 40.020321 ], [ 70.654427, 40.066009 ], [ 70.659473, 40.076483 ], [ 70.666962, 40.083088 ], [ 70.681715, 40.088019 ], [ 70.720276, 40.08644 ], [ 70.758709, 40.089822 ], [ 70.77718, 40.097645 ], [ 70.790859, 40.108293 ], [ 70.808698, 40.119003 ], [ 70.815146, 40.127887 ], [ 70.824262, 40.159631 ], [ 70.832478, 40.165269 ], [ 70.842105, 40.166368 ], [ 70.860697, 40.163689 ], [ 70.910377, 40.14418 ], [ 70.919789, 40.144793 ], [ 70.930181, 40.150188 ], [ 70.949391, 40.15372 ], [ 70.954176, 40.155026 ], [ 70.955752, 40.156909 ], [ 70.962822, 40.158196 ], [ 70.971206, 40.164648 ], [ 70.977909, 40.184629 ], [ 70.981061, 40.187005 ], [ 70.981154, 40.190242 ], [ 70.981432, 40.199983 ], [ 70.984318, 40.210172 ], [ 70.983641, 40.215674 ], [ 70.979713, 40.222039 ], [ 70.96761, 40.22851 ] ], [ [ 70.996027, 40.168937 ], [ 70.999887, 40.16824 ], [ 71.000777, 40.163699 ], [ 71.000367, 40.142646 ], [ 70.996887, 40.141136 ], [ 70.999997, 40.134625 ], [ 71.000637, 40.120234 ], [ 71.005336, 40.112175 ], [ 71.005828, 40.0955 ], [ 71.002368, 40.086399 ], [ 71.002428, 40.074558 ], [ 71.005888, 40.057986 ], [ 71.004478, 40.051285 ], [ 71.007678, 40.039533 ], [ 71.014089, 40.027882 ], [ 71.02442, 40.020041 ], [ 71.034402, 40.01745 ], [ 71.065496, 40.01497 ], [ 71.085458, 40.009779 ], [ 71.087258, 39.999998 ], [ 71.09724, 39.992787 ], [ 71.09785, 39.983086 ], [ 71.095119, 39.970624 ], [ 71.091599, 39.964964 ], [ 71.087248, 39.956433 ], [ 71.079747, 39.93834 ], [ 71.073927, 39.926489 ], [ 71.067636, 39.917058 ], [ 71.056844, 39.905876 ], [ 71.056104, 39.894785 ], [ 71.062045, 39.889714 ], [ 71.074577, 39.889214 ], [ 71.088749, 39.894455 ], [ 71.10146, 39.915237 ], [ 71.107791, 39.915947 ], [ 71.112772, 39.915257 ], [ 71.132644, 39.893185 ], [ 71.139844, 39.881392 ], [ 71.141125, 39.879293 ], [ 71.155277, 39.874862 ], [ 71.162454, 39.875124 ], [ 71.18046, 39.875782 ], [ 71.190406, 39.881392 ], [ 71.194842, 39.883893 ], [ 71.210214, 39.897305 ], [ 71.217165, 39.907176 ], [ 71.226446, 39.914057 ], [ 71.229357, 39.919738 ], [ 71.226856, 39.929039 ], [ 71.216995, 39.94105 ], [ 71.216145, 39.946881 ], [ 71.221616, 39.953432 ], [ 71.220625, 39.957343 ], [ 71.184851, 39.958313 ], [ 71.170529, 39.960343 ], [ 71.167019, 39.964354 ], [ 71.169439, 39.981186 ], [ 71.168449, 39.999998 ], [ 71.167509, 40.005519 ], [ 71.170509, 40.004949 ], [ 71.174839, 40.007169 ], [ 71.185071, 40.01463 ], [ 71.186021, 40.01856 ], [ 71.181931, 40.026871 ], [ 71.17857, 40.028342 ], [ 71.169969, 40.027562 ], [ 71.162454, 40.024668 ], [ 71.135145, 40.01415 ], [ 71.126223, 40.01405 ], [ 71.119762, 40.017471 ], [ 71.113082, 40.038493 ], [ 71.095519, 40.064316 ], [ 71.092549, 40.065467 ], [ 71.090029, 40.077418 ], [ 71.091539, 40.085099 ], [ 71.090169, 40.09266 ], [ 71.095829, 40.105922 ], [ 71.086507, 40.122717 ], [ 71.083678, 40.131116 ], [ 71.081438, 40.150707 ], [ 71.068316, 40.161239 ], [ 71.063925, 40.16931 ], [ 71.052054, 40.182362 ], [ 71.041182, 40.184472 ], [ 71.036272, 40.181991 ], [ 71.030161, 40.175121 ], [ 71.02043, 40.17338 ], [ 71.012529, 40.175591 ], [ 71.003928, 40.174811 ], [ 70.996027, 40.168937 ] ], [ [ 70.503962, 39.883472 ], [ 70.505511, 39.881392 ], [ 70.525423, 39.85466 ], [ 70.545985, 39.838628 ], [ 70.573757, 39.832538 ], [ 70.602719, 39.818747 ], [ 70.613569, 39.806876 ], [ 70.62796, 39.798706 ], [ 70.647692, 39.796716 ], [ 70.659712, 39.803926 ], [ 70.668603, 39.813807 ], [ 70.677864, 39.830048 ], [ 70.684864, 39.836168 ], [ 70.701695, 39.840649 ], [ 70.725447, 39.849979 ], [ 70.730797, 39.85616 ], [ 70.738678, 39.876271 ], [ 70.736274, 39.881392 ], [ 70.731367, 39.891842 ], [ 70.717126, 39.902573 ], [ 70.673603, 39.895242 ], [ 70.648652, 39.893602 ], [ 70.62875, 39.893042 ], [ 70.565866, 39.894032 ], [ 70.521243, 39.895612 ], [ 70.506282, 39.894862 ], [ 70.503962, 39.883472 ] ], [ [ 71.68945, 39.94 ], [ 71.695, 39.93139 ], [ 71.71667, 39.91917 ], [ 71.74052, 39.91276 ], [ 71.74667, 39.91111 ], [ 71.75077, 39.90945 ], [ 71.75972, 39.90584 ], [ 71.76695, 39.90389 ], [ 71.775, 39.90306 ], [ 71.78611, 39.9075 ], [ 71.78944, 39.9125 ], [ 71.79144, 39.9198 ], [ 71.79278, 39.92472 ], [ 71.7975, 39.93722 ], [ 71.7975, 39.94333 ], [ 71.79916, 39.94889 ], [ 71.80889, 39.96472 ], [ 71.81222, 39.96972 ], [ 71.817779, 39.98833 ], [ 71.81556, 39.99306 ], [ 71.81111, 39.99667 ], [ 71.80334, 39.99722 ], [ 71.79666, 39.99639 ], [ 71.79083, 39.99444 ], [ 71.78722, 39.99166 ], [ 71.77361, 39.985 ], [ 71.76889, 39.98167 ], [ 71.76056, 39.97389 ], [ 71.75195, 39.96639 ], [ 71.742229, 39.96028 ], [ 71.73556, 39.95944 ], [ 71.72694, 39.96083 ], [ 71.71917, 39.96167 ], [ 71.70472, 39.96139 ], [ 71.69472, 39.95528 ], [ 71.69083, 39.95111 ], [ 71.68945, 39.94583 ], [ 71.68945, 39.94 ] ] ] ] } }
]
}
