{
"type": "FeatureCollection",
"name": "Laos",
"crs": { "type": "name", "properties": { "name": "urn:ogc:def:crs:OGC:1.3:CRS84" } },
"features": [
{ "type": "Feature", "properties": { "id": "LA", "CNTR_ID": "LA", "CNTR_NAME": "ປະເທດລາວ", "NAME_ENGL": "Laos", "ISO3_CODE": "LAO", "FID": "LA" }, "geometry": { "type": "MultiPolygon", "coordinates": [ [ [ [ 100.085316, 20.352732 ], [ 100.090459, 20.369303 ], [ 100.103008, 20.3804 ], [ 100.122877, 20.406239 ], [ 100.120003, 20.43891 ], [ 100.126935, 20.458587 ], [ 100.13448, 20.470522 ], [ 100.139687, 20.519008 ], [ 100.146056, 20.534059 ], [ 100.150261, 20.543996 ], [ 100.177261, 20.64008 ], [ 100.187749, 20.658191 ], [ 100.189512, 20.661234 ], [ 100.20391, 20.676111 ], [ 100.210112, 20.695464 ], [ 100.223729, 20.713175 ], [ 100.2389, 20.72388 ], [ 100.239831, 20.725431 ], [ 100.254365, 20.749662 ], [ 100.269122, 20.757927 ], [ 100.270383, 20.759265 ], [ 100.278942, 20.768343 ], [ 100.297264, 20.779919 ], [ 100.325299, 20.786086 ], [ 100.331303, 20.787407 ], [ 100.346401, 20.799193 ], [ 100.359697, 20.821608 ], [ 100.369704, 20.827378 ], [ 100.393633, 20.832408 ], [ 100.418754, 20.8321 ], [ 100.437406, 20.825068 ], [ 100.45764, 20.825111 ], [ 100.495351, 20.816194 ], [ 100.520962, 20.816966 ], [ 100.543523, 20.824254 ], [ 100.569725, 20.82353 ], [ 100.608087, 20.840818 ], [ 100.623585, 20.854769 ], [ 100.636418, 20.872192 ], [ 100.647181, 20.879853 ], [ 100.647602, 20.893035 ], [ 100.64384, 20.896952 ], [ 100.636314, 20.897888 ], [ 100.5991, 20.89006 ], [ 100.576342, 20.880857 ], [ 100.564759, 20.879024 ], [ 100.556382, 20.872741 ], [ 100.542251, 20.871139 ], [ 100.520962, 20.876341 ], [ 100.511107, 20.886771 ], [ 100.509944, 20.893725 ], [ 100.515743, 20.909416 ], [ 100.520962, 20.938294 ], [ 100.525127, 20.961697 ], [ 100.534335, 20.975348 ], [ 100.546082, 20.982837 ], [ 100.550275, 20.98874 ], [ 100.551999, 21.006996 ], [ 100.546443, 21.023671 ], [ 100.573167, 21.030366 ], [ 100.585876, 21.028021 ], [ 100.596328, 21.02969 ], [ 100.616159, 21.053088 ], [ 100.637608, 21.06213 ], [ 100.642556, 21.075524 ], [ 100.642101, 21.092744 ], [ 100.64537, 21.10397 ], [ 100.664097, 21.117112 ], [ 100.674735, 21.131583 ], [ 100.683129, 21.162597 ], [ 100.69807, 21.178728 ], [ 100.699963, 21.221034 ], [ 100.711133, 21.256659 ], [ 100.71783, 21.268357 ], [ 100.717401, 21.285988 ], [ 100.72426, 21.311697 ], [ 100.735397, 21.314715 ], [ 100.761298, 21.307072 ], [ 100.778589, 21.298514 ], [ 100.806558, 21.293647 ], [ 100.828497, 21.297912 ], [ 100.83954, 21.30474 ], [ 100.848647, 21.305117 ], [ 100.872226, 21.324142 ], [ 100.885677, 21.348935 ], [ 100.892881, 21.351079 ], [ 100.901956, 21.349957 ], [ 100.906153, 21.355343 ], [ 100.917393, 21.356521 ], [ 100.947748, 21.378612 ], [ 100.972025, 21.387336 ], [ 100.999736, 21.386961 ], [ 101.021622, 21.409659 ], [ 101.030248, 21.418604 ], [ 101.040857, 21.438439 ], [ 101.059382, 21.45461 ], [ 101.072397, 21.459734 ], [ 101.083268, 21.459194 ], [ 101.092032, 21.461769 ], [ 101.092839, 21.465457 ], [ 101.10124, 21.472277 ], [ 101.102126, 21.475536 ], [ 101.106854, 21.481006 ], [ 101.119074, 21.489769 ], [ 101.12754, 21.502605 ], [ 101.144473, 21.513491 ], [ 101.145603, 21.517736 ], [ 101.148779, 21.520966 ], [ 101.156269, 21.522837 ], [ 101.162025, 21.524276 ], [ 101.16252, 21.526201 ], [ 101.163321, 21.529315 ], [ 101.159955, 21.533138 ], [ 101.156282, 21.543411 ], [ 101.155441, 21.553342 ], [ 101.150927, 21.558915 ], [ 101.144656, 21.563083 ], [ 101.143187, 21.564059 ], [ 101.175355, 21.561125 ], [ 101.18626, 21.557372 ], [ 101.207132, 21.560722 ], [ 101.211646, 21.555139 ], [ 101.215809, 21.53656 ], [ 101.20658, 21.529178 ], [ 101.206264, 21.512087 ], [ 101.210351, 21.503723 ], [ 101.220127, 21.49971 ], [ 101.21469, 21.491665 ], [ 101.191009, 21.475284 ], [ 101.194833, 21.444197 ], [ 101.193706, 21.431462 ], [ 101.187766, 21.41868 ], [ 101.19433, 21.409659 ], [ 101.196906, 21.406118 ], [ 101.225315, 21.398885 ], [ 101.246078, 21.376839 ], [ 101.260037, 21.374192 ], [ 101.264463, 21.369435 ], [ 101.262777, 21.36048 ], [ 101.24772, 21.356502 ], [ 101.249579, 21.344456 ], [ 101.246248, 21.339425 ], [ 101.244904, 21.327495 ], [ 101.226665, 21.310137 ], [ 101.226958, 21.307447 ], [ 101.235959, 21.308995 ], [ 101.246876, 21.303685 ], [ 101.25015, 21.292582 ], [ 101.243634, 21.273157 ], [ 101.231086, 21.259157 ], [ 101.224013, 21.255157 ], [ 101.244421, 21.232636 ], [ 101.250929, 21.203194 ], [ 101.269361, 21.19364 ], [ 101.285331, 21.176585 ], [ 101.299013, 21.182718 ], [ 101.304842, 21.189985 ], [ 101.312977, 21.193261 ], [ 101.327723, 21.191446 ], [ 101.351682, 21.208556 ], [ 101.359122, 21.208904 ], [ 101.366673, 21.218864 ], [ 101.37632, 21.22029 ], [ 101.400012, 21.232662 ], [ 101.412277, 21.229345 ], [ 101.426478, 21.233155 ], [ 101.451512, 21.233178 ], [ 101.466639, 21.243625 ], [ 101.476399, 21.24446 ], [ 101.484254, 21.249003 ], [ 101.502634, 21.249177 ], [ 101.509822, 21.252189 ], [ 101.523131, 21.250344 ], [ 101.533698, 21.256164 ], [ 101.564757, 21.248836 ], [ 101.582667, 21.241522 ], [ 101.587883, 21.235244 ], [ 101.597922, 21.238691 ], [ 101.618703, 21.227239 ], [ 101.61105, 21.216366 ], [ 101.594475, 21.202825 ], [ 101.590607, 21.193036 ], [ 101.596205, 21.183456 ], [ 101.605889, 21.177163 ], [ 101.612657, 21.179781 ], [ 101.630213, 21.198891 ], [ 101.645701, 21.194992 ], [ 101.667614, 21.202796 ], [ 101.68384, 21.203612 ], [ 101.687261, 21.198272 ], [ 101.688878, 21.175615 ], [ 101.701129, 21.164439 ], [ 101.694415, 21.154138 ], [ 101.709336, 21.145917 ], [ 101.715925, 21.144472 ], [ 101.72036, 21.143499 ], [ 101.729809, 21.144595 ], [ 101.746169, 21.151626 ], [ 101.762692, 21.150515 ], [ 101.780903, 21.142981 ], [ 101.797242, 21.147167 ], [ 101.816125, 21.142562 ], [ 101.82617, 21.159039 ], [ 101.845942, 21.163829 ], [ 101.850339, 21.175306 ], [ 101.86834, 21.190099 ], [ 101.865871, 21.19653 ], [ 101.856629, 21.200959 ], [ 101.851165, 21.210457 ], [ 101.835545, 21.22186 ], [ 101.836777, 21.234927 ], [ 101.844272, 21.251898 ], [ 101.820098, 21.265976 ], [ 101.806326, 21.265052 ], [ 101.800653, 21.272697 ], [ 101.795641, 21.288347 ], [ 101.789177, 21.28604 ], [ 101.776967, 21.293242 ], [ 101.76424, 21.28874 ], [ 101.756387, 21.293341 ], [ 101.735074, 21.319275 ], [ 101.727077, 21.354087 ], [ 101.738002, 21.367578 ], [ 101.738218, 21.375192 ], [ 101.742487, 21.378338 ], [ 101.736542, 21.400784 ], [ 101.739064, 21.409659 ], [ 101.745442, 21.432097 ], [ 101.753346, 21.44382 ], [ 101.75247, 21.449647 ], [ 101.742659, 21.460442 ], [ 101.744268, 21.46632 ], [ 101.738723, 21.484432 ], [ 101.776185, 21.517577 ], [ 101.768606, 21.526717 ], [ 101.758819, 21.532277 ], [ 101.754374, 21.546475 ], [ 101.762578, 21.563703 ], [ 101.75716, 21.568929 ], [ 101.745244, 21.572424 ], [ 101.747626, 21.585994 ], [ 101.7888, 21.578814 ], [ 101.801692, 21.579481 ], [ 101.809208, 21.589903 ], [ 101.824046, 21.591275 ], [ 101.824543, 21.595863 ], [ 101.825619, 21.605777 ], [ 101.831921, 21.615653 ], [ 101.833977, 21.624819 ], [ 101.829404, 21.627894 ], [ 101.812818, 21.627462 ], [ 101.805357, 21.643726 ], [ 101.785721, 21.638589 ], [ 101.781358, 21.640026 ], [ 101.779706, 21.654046 ], [ 101.769377, 21.66068 ], [ 101.773291, 21.688608 ], [ 101.769761, 21.712438 ], [ 101.74703, 21.731614 ], [ 101.745329, 21.746206 ], [ 101.75998, 21.763179 ], [ 101.758947, 21.783795 ], [ 101.768625, 21.797656 ], [ 101.773125, 21.819779 ], [ 101.782379, 21.825042 ], [ 101.77157, 21.836948 ], [ 101.753505, 21.837744 ], [ 101.745469, 21.843251 ], [ 101.737567, 21.854083 ], [ 101.737748, 21.873381 ], [ 101.725167, 21.882475 ], [ 101.715925, 21.884328 ], [ 101.710034, 21.885508 ], [ 101.707398, 21.891652 ], [ 101.696635, 21.901885 ], [ 101.704495, 21.925739 ], [ 101.696835, 21.944444 ], [ 101.685025, 21.9446 ], [ 101.670776, 21.933657 ], [ 101.650317, 21.95225 ], [ 101.635369, 21.951029 ], [ 101.62981, 21.953816 ], [ 101.621447, 21.968294 ], [ 101.598439, 21.972619 ], [ 101.599947, 21.98014 ], [ 101.6166, 21.999301 ], [ 101.62192, 22.021196 ], [ 101.611421, 22.039288 ], [ 101.613934, 22.053509 ], [ 101.602429, 22.063344 ], [ 101.579995, 22.063449 ], [ 101.575326, 22.067523 ], [ 101.578827, 22.078824 ], [ 101.574609, 22.088772 ], [ 101.577553, 22.105548 ], [ 101.574712, 22.122695 ], [ 101.576827, 22.126819 ], [ 101.598727, 22.13403 ], [ 101.597822, 22.146736 ], [ 101.601828, 22.159006 ], [ 101.585442, 22.173222 ], [ 101.582604, 22.182069 ], [ 101.572145, 22.197166 ], [ 101.569196, 22.215256 ], [ 101.553687, 22.227086 ], [ 101.549681, 22.234006 ], [ 101.53975, 22.239474 ], [ 101.53516, 22.245743 ], [ 101.535315, 22.253279 ], [ 101.549188, 22.257855 ], [ 101.560266, 22.270897 ], [ 101.560526, 22.278228 ], [ 101.584795, 22.283209 ], [ 101.610675, 22.275796 ], [ 101.62686, 22.28917 ], [ 101.628042, 22.299601 ], [ 101.633577, 22.306392 ], [ 101.635062, 22.314238 ], [ 101.646945, 22.327274 ], [ 101.65086, 22.335857 ], [ 101.649372, 22.344686 ], [ 101.652002, 22.353928 ], [ 101.647539, 22.360263 ], [ 101.650792, 22.363729 ], [ 101.661732, 22.365581 ], [ 101.668716, 22.370151 ], [ 101.668046, 22.381474 ], [ 101.656297, 22.393044 ], [ 101.645828, 22.415818 ], [ 101.656231, 22.415105 ], [ 101.666905, 22.419095 ], [ 101.664869, 22.432366 ], [ 101.668642, 22.45023 ], [ 101.678637, 22.459642 ], [ 101.689423, 22.463331 ], [ 101.693453, 22.472191 ], [ 101.704385, 22.473525 ], [ 101.713436, 22.479311 ], [ 101.715925, 22.479744 ], [ 101.725321, 22.481378 ], [ 101.738247, 22.499008 ], [ 101.750939, 22.497916 ], [ 101.767995, 22.504206 ], [ 101.780862, 22.50227 ], [ 101.795745, 22.485864 ], [ 101.81212, 22.480708 ], [ 101.819919, 22.467134 ], [ 101.827889, 22.459592 ], [ 101.824351, 22.436951 ], [ 101.835291, 22.418237 ], [ 101.837215, 22.398813 ], [ 101.841396, 22.392938 ], [ 101.849497, 22.388509 ], [ 101.899752, 22.385784 ], [ 101.911777, 22.404495 ], [ 101.913825, 22.440842 ], [ 101.954664, 22.438204 ], [ 101.97347, 22.428061 ], [ 101.989818, 22.431295 ], [ 101.996796, 22.435359 ], [ 102.008205, 22.455018 ], [ 102.038462, 22.455962 ], [ 102.045942, 22.458332 ], [ 102.064677, 22.447701 ], [ 102.084547, 22.442193 ], [ 102.103577, 22.441545 ], [ 102.127783, 22.434034 ], [ 102.127583, 22.417843 ], [ 102.134037, 22.407312 ], [ 102.143885, 22.400694 ], [ 102.149257, 22.389059 ], [ 102.158121, 22.384065 ], [ 102.168698, 22.372381 ], [ 102.163666, 22.360835 ], [ 102.167364, 22.350584 ], [ 102.187296, 22.33293 ], [ 102.188571, 22.323292 ], [ 102.19485, 22.318745 ], [ 102.178282, 22.308922 ], [ 102.178975, 22.30535 ], [ 102.210523, 22.29002 ], [ 102.237582, 22.270722 ], [ 102.242058, 22.25622 ], [ 102.238785, 22.247199 ], [ 102.240495, 22.239349 ], [ 102.24762, 22.238706 ], [ 102.271686, 22.236536 ], [ 102.275968, 22.230822 ], [ 102.283718, 22.206998 ], [ 102.30149, 22.201892 ], [ 102.311039, 22.205899 ], [ 102.320142, 22.2027 ], [ 102.331695, 22.190841 ], [ 102.335983, 22.166729 ], [ 102.346839, 22.163667 ], [ 102.358589, 22.166406 ], [ 102.365998, 22.162084 ], [ 102.381905, 22.14881 ], [ 102.385655, 22.128555 ], [ 102.409891, 22.124393 ], [ 102.420003, 22.116697 ], [ 102.432173, 22.113802 ], [ 102.428889, 22.101975 ], [ 102.431819, 22.095451 ], [ 102.443671, 22.083807 ], [ 102.442922, 22.073491 ], [ 102.458295, 22.068648 ], [ 102.480241, 22.051793 ], [ 102.483868, 22.043047 ], [ 102.493988, 22.041456 ], [ 102.517658, 22.031285 ], [ 102.521027, 22.021896 ], [ 102.508123, 22.014285 ], [ 102.48868, 22.008392 ], [ 102.487487, 21.994928 ], [ 102.50555, 21.973196 ], [ 102.526929, 21.962708 ], [ 102.537175, 21.957682 ], [ 102.55234, 21.945207 ], [ 102.562979, 21.942702 ], [ 102.582556, 21.928314 ], [ 102.610543, 21.921786 ], [ 102.620189, 21.90131 ], [ 102.60928, 21.877808 ], [ 102.610454, 21.873125 ], [ 102.621063, 21.864854 ], [ 102.633094, 21.860337 ], [ 102.6449, 21.858708 ], [ 102.649681, 21.859302 ], [ 102.661157, 21.860727 ], [ 102.676319, 21.857791 ], [ 102.691647, 21.848181 ], [ 102.711559, 21.830573 ], [ 102.728216, 21.824567 ], [ 102.806265, 21.818204 ], [ 102.824641, 21.8116 ], [ 102.848595, 21.795186 ], [ 102.887327, 21.792782 ], [ 102.928527, 21.785658 ], [ 102.941653, 21.775797 ], [ 102.966514, 21.728293 ], [ 102.979875, 21.688707 ], [ 102.989018, 21.682319 ], [ 102.984826, 21.664372 ], [ 102.979239, 21.654628 ], [ 102.98312, 21.644404 ], [ 102.983367, 21.634048 ], [ 102.989263, 21.623429 ], [ 102.98532, 21.606988 ], [ 102.990979, 21.601854 ], [ 102.992784, 21.595863 ], [ 102.996482, 21.583589 ], [ 102.996228, 21.575364 ], [ 102.985266, 21.556646 ], [ 102.985875, 21.541161 ], [ 102.980921, 21.535901 ], [ 102.980164, 21.527426 ], [ 102.967424, 21.502306 ], [ 102.964633, 21.483232 ], [ 102.94344, 21.46562 ], [ 102.940564, 21.45403 ], [ 102.925287, 21.434168 ], [ 102.917749, 21.409659 ], [ 102.91709, 21.407516 ], [ 102.896818, 21.384007 ], [ 102.898826, 21.366034 ], [ 102.893783, 21.358374 ], [ 102.891813, 21.327781 ], [ 102.884026, 21.322135 ], [ 102.871845, 21.320747 ], [ 102.865219, 21.301222 ], [ 102.852694, 21.299171 ], [ 102.848676, 21.290629 ], [ 102.841598, 21.291447 ], [ 102.838369, 21.283458 ], [ 102.833157, 21.282206 ], [ 102.80843, 21.263298 ], [ 102.813985, 21.256998 ], [ 102.812047, 21.251867 ], [ 102.819783, 21.25234 ], [ 102.821794, 21.248685 ], [ 102.828889, 21.249355 ], [ 102.845338, 21.244935 ], [ 102.856099, 21.248151 ], [ 102.884179, 21.242989 ], [ 102.892745, 21.238179 ], [ 102.900891, 21.225465 ], [ 102.922786, 21.213443 ], [ 102.922318, 21.207252 ], [ 102.904158, 21.191524 ], [ 102.907812, 21.179498 ], [ 102.90357, 21.173424 ], [ 102.903985, 21.167121 ], [ 102.90977, 21.161324 ], [ 102.93421, 21.158642 ], [ 102.947872, 21.140044 ], [ 102.938642, 21.126123 ], [ 102.950576, 21.12125 ], [ 102.960288, 21.113189 ], [ 102.967543, 21.094753 ], [ 102.961351, 21.079234 ], [ 102.97205, 21.067582 ], [ 102.995331, 21.060106 ], [ 103.009372, 21.062631 ], [ 103.020944, 21.060381 ], [ 103.040596, 21.046444 ], [ 103.043164, 21.033227 ], [ 103.051898, 21.023323 ], [ 103.059508, 21.00046 ], [ 103.068289, 20.99254 ], [ 103.0831, 20.969807 ], [ 103.086595, 20.941318 ], [ 103.091012, 20.936888 ], [ 103.105189, 20.922666 ], [ 103.109402, 20.903907 ], [ 103.120003, 20.886655 ], [ 103.12984, 20.88465 ], [ 103.136627, 20.876277 ], [ 103.168391, 20.864465 ], [ 103.179875, 20.860195 ], [ 103.190636, 20.848779 ], [ 103.204526, 20.843793 ], [ 103.216306, 20.844569 ], [ 103.228478, 20.841868 ], [ 103.257418, 20.824498 ], [ 103.282361, 20.824216 ], [ 103.305138, 20.820455 ], [ 103.312031, 20.822177 ], [ 103.328171, 20.81561 ], [ 103.347628, 20.825726 ], [ 103.354194, 20.834504 ], [ 103.364957, 20.835986 ], [ 103.372926, 20.839797 ], [ 103.386578, 20.845582 ], [ 103.414269, 20.842445 ], [ 103.42366, 20.849483 ], [ 103.433212, 20.84985 ], [ 103.440713, 20.843352 ], [ 103.438741, 20.831529 ], [ 103.44148, 20.82567 ], [ 103.464471, 20.818104 ], [ 103.466963, 20.812399 ], [ 103.476613, 20.805488 ], [ 103.484972, 20.785245 ], [ 103.496302, 20.77603 ], [ 103.514656, 20.779874 ], [ 103.531523, 20.786892 ], [ 103.54975, 20.786372 ], [ 103.567377, 20.800969 ], [ 103.581174, 20.806323 ], [ 103.597181, 20.808086 ], [ 103.61773, 20.804602 ], [ 103.642422, 20.793273 ], [ 103.657557, 20.789989 ], [ 103.687361, 20.787457 ], [ 103.75264, 20.775805 ], [ 103.787887, 20.777187 ], [ 103.82134, 20.785803 ], [ 103.86276, 20.807144 ], [ 103.922477, 20.84245 ], [ 103.968596, 20.878059 ], [ 103.991547, 20.886114 ], [ 104.012111, 20.889662 ], [ 104.025002, 20.895467 ], [ 104.033709, 20.905882 ], [ 104.046733, 20.91516 ], [ 104.047037, 20.928208 ], [ 104.054111, 20.940107 ], [ 104.052212, 20.948914 ], [ 104.071518, 20.959782 ], [ 104.082253, 20.960965 ], [ 104.105492, 20.976605 ], [ 104.117931, 20.969676 ], [ 104.11967, 20.958226 ], [ 104.130278, 20.949641 ], [ 104.143785, 20.94842 ], [ 104.155638, 20.954353 ], [ 104.183495, 20.956758 ], [ 104.194853, 20.947615 ], [ 104.243533, 20.931243 ], [ 104.246943, 20.925109 ], [ 104.240012, 20.918078 ], [ 104.239368, 20.91347 ], [ 104.24235, 20.908215 ], [ 104.250116, 20.90324 ], [ 104.284406, 20.912116 ], [ 104.30381, 20.907268 ], [ 104.317809, 20.898677 ], [ 104.328395, 20.888185 ], [ 104.332619, 20.875488 ], [ 104.330835, 20.860577 ], [ 104.359135, 20.838199 ], [ 104.368991, 20.827074 ], [ 104.381047, 20.82264 ], [ 104.391093, 20.823513 ], [ 104.405687, 20.808979 ], [ 104.413606, 20.777821 ], [ 104.464199, 20.771903 ], [ 104.478182, 20.765979 ], [ 104.487495, 20.748065 ], [ 104.491893, 20.725431 ], [ 104.495024, 20.716608 ], [ 104.524821, 20.703036 ], [ 104.527164, 20.700249 ], [ 104.534717, 20.690247 ], [ 104.547956, 20.658191 ], [ 104.561911, 20.624395 ], [ 104.587971, 20.577705 ], [ 104.598292, 20.535886 ], [ 104.594996, 20.529496 ], [ 104.587989, 20.525719 ], [ 104.565497, 20.527428 ], [ 104.537395, 20.520017 ], [ 104.508221, 20.5247 ], [ 104.49254, 20.517188 ], [ 104.477548, 20.491166 ], [ 104.448278, 20.466356 ], [ 104.442391, 20.458127 ], [ 104.461499, 20.403086 ], [ 104.4692, 20.398538 ], [ 104.498397, 20.397094 ], [ 104.532625, 20.412896 ], [ 104.58688, 20.416921 ], [ 104.622559, 20.428003 ], [ 104.646207, 20.421518 ], [ 104.679957, 20.412262 ], [ 104.702936, 20.398365 ], [ 104.754916, 20.38899 ], [ 104.756078, 20.372022 ], [ 104.767455, 20.345527 ], [ 104.771514, 20.316594 ], [ 104.779485, 20.291313 ], [ 104.779404, 20.279835 ], [ 104.765674, 20.27171 ], [ 104.726362, 20.27006 ], [ 104.710464, 20.262341 ], [ 104.696948, 20.250555 ], [ 104.680079, 20.245435 ], [ 104.672201, 20.21955 ], [ 104.724169, 20.20167 ], [ 104.765933, 20.19887 ], [ 104.781533, 20.195053 ], [ 104.810676, 20.175509 ], [ 104.877066, 20.145707 ], [ 104.89635, 20.148474 ], [ 104.915632, 20.155996 ], [ 104.928256, 20.15647 ], [ 104.931885, 20.148951 ], [ 104.926747, 20.14067 ], [ 104.932565, 20.132548 ], [ 104.957942, 20.116651 ], [ 104.990353, 20.096345 ], [ 104.980549, 20.08668 ], [ 104.965509, 20.081934 ], [ 104.958465, 20.069959 ], [ 104.975925, 20.011718 ], [ 104.964443, 19.99824 ], [ 104.94948, 19.991453 ], [ 104.932933, 19.98978 ], [ 104.905395, 19.998868 ], [ 104.891824, 19.995186 ], [ 104.884887, 19.989793 ], [ 104.889337, 19.978312 ], [ 104.885879, 19.972329 ], [ 104.858142, 19.959244 ], [ 104.829214, 19.938658 ], [ 104.79883, 19.922479 ], [ 104.76955, 19.874993 ], [ 104.775426, 19.868852 ], [ 104.822218, 19.863425 ], [ 104.84155, 19.846939 ], [ 104.843035, 19.838534 ], [ 104.834903, 19.822426 ], [ 104.833831, 19.796228 ], [ 104.819822, 19.786699 ], [ 104.791585, 19.787745 ], [ 104.766279, 19.773713 ], [ 104.763379, 19.763379 ], [ 104.752708, 19.752217 ], [ 104.738751, 19.750216 ], [ 104.723207, 19.752806 ], [ 104.703177, 19.737945 ], [ 104.694074, 19.724873 ], [ 104.665071, 19.701753 ], [ 104.666541, 19.68089 ], [ 104.658951, 19.671893 ], [ 104.656419, 19.662358 ], [ 104.648849, 19.654962 ], [ 104.650342, 19.635692 ], [ 104.646207, 19.630051 ], [ 104.64158, 19.623736 ], [ 104.605032, 19.630484 ], [ 104.584583, 19.626657 ], [ 104.563543, 19.612505 ], [ 104.546188, 19.615599 ], [ 104.521396, 19.614073 ], [ 104.505183, 19.623202 ], [ 104.494797, 19.649509 ], [ 104.489921, 19.654949 ], [ 104.481399, 19.656576 ], [ 104.458583, 19.651615 ], [ 104.447974, 19.657678 ], [ 104.439475, 19.66686 ], [ 104.424924, 19.670813 ], [ 104.418622, 19.68012 ], [ 104.41699, 19.697709 ], [ 104.403614, 19.705359 ], [ 104.39479, 19.705033 ], [ 104.380147, 19.697572 ], [ 104.368991, 19.694627 ], [ 104.351897, 19.689867 ], [ 104.337384, 19.677428 ], [ 104.323038, 19.67126 ], [ 104.319929, 19.674195 ], [ 104.318711, 19.685508 ], [ 104.306356, 19.694898 ], [ 104.277823, 19.695913 ], [ 104.259761, 19.703237 ], [ 104.241529, 19.706382 ], [ 104.222507, 19.704848 ], [ 104.19602, 19.693502 ], [ 104.175371, 19.690432 ], [ 104.162484, 19.692905 ], [ 104.15807, 19.687441 ], [ 104.156056, 19.673623 ], [ 104.151792, 19.667853 ], [ 104.134889, 19.662557 ], [ 104.115188, 19.661504 ], [ 104.092733, 19.667035 ], [ 104.076424, 19.679293 ], [ 104.062621, 19.684465 ], [ 104.050254, 19.694103 ], [ 104.040354, 19.696739 ], [ 104.031439, 19.677624 ], [ 104.040663, 19.646877 ], [ 104.035613, 19.61893 ], [ 104.047705, 19.60372 ], [ 104.065153, 19.590059 ], [ 104.071891, 19.57783 ], [ 104.09156, 19.5719 ], [ 104.099644, 19.565436 ], [ 104.108773, 19.53993 ], [ 104.106194, 19.521872 ], [ 104.120453, 19.499399 ], [ 104.110544, 19.489836 ], [ 104.09363, 19.4926 ], [ 104.079523, 19.479983 ], [ 104.074362, 19.454624 ], [ 104.078279, 19.42557 ], [ 104.075488, 19.419257 ], [ 104.062989, 19.417434 ], [ 104.046598, 19.422978 ], [ 104.024046, 19.414104 ], [ 104.013399, 19.404557 ], [ 103.994545, 19.403919 ], [ 103.977932, 19.397653 ], [ 103.961545, 19.38469 ], [ 103.95931, 19.371654 ], [ 103.950589, 19.357651 ], [ 103.90884, 19.332005 ], [ 103.887791, 19.326265 ], [ 103.878619, 19.318388 ], [ 103.877112, 19.310291 ], [ 103.885861, 19.30265 ], [ 103.900163, 19.306499 ], [ 103.915257, 19.301588 ], [ 103.924604, 19.291565 ], [ 103.949122, 19.278944 ], [ 103.963028, 19.252974 ], [ 104.00055, 19.232898 ], [ 104.067017, 19.244832 ], [ 104.078082, 19.240884 ], [ 104.097061, 19.224596 ], [ 104.111187, 19.220963 ], [ 104.130002, 19.205512 ], [ 104.168765, 19.198526 ], [ 104.186298, 19.198405 ], [ 104.200643, 19.164379 ], [ 104.207258, 19.159785 ], [ 104.220497, 19.157097 ], [ 104.22386, 19.152984 ], [ 104.217363, 19.134584 ], [ 104.20847, 19.123444 ], [ 104.209697, 19.118418 ], [ 104.236767, 19.11215 ], [ 104.251688, 19.112308 ], [ 104.276307, 19.119104 ], [ 104.292334, 19.115007 ], [ 104.300396, 19.109656 ], [ 104.307491, 19.094857 ], [ 104.316196, 19.087243 ], [ 104.342609, 19.074027 ], [ 104.368991, 19.070379 ], [ 104.397897, 19.056573 ], [ 104.408541, 19.034166 ], [ 104.426833, 19.014741 ], [ 104.435045, 19.000403 ], [ 104.448652, 18.988783 ], [ 104.469833, 18.990022 ], [ 104.491676, 19.001425 ], [ 104.501019, 18.998915 ], [ 104.509668, 18.987119 ], [ 104.511966, 18.983986 ], [ 104.52519, 18.982652 ], [ 104.541442, 18.972394 ], [ 104.547064, 18.955341 ], [ 104.5606, 18.939572 ], [ 104.582026, 18.903717 ], [ 104.621212, 18.890398 ], [ 104.638525, 18.871117 ], [ 104.646207, 18.867401 ], [ 104.660337, 18.860152 ], [ 104.674558, 18.841468 ], [ 104.718376, 18.823409 ], [ 104.733447, 18.814205 ], [ 104.746219, 18.800359 ], [ 104.762171, 18.795892 ], [ 104.780644, 18.799248 ], [ 104.800633, 18.784728 ], [ 104.838228, 18.784591 ], [ 104.855394, 18.778494 ], [ 104.885038, 18.784767 ], [ 104.914821, 18.783993 ], [ 104.9268, 18.774995 ], [ 104.931404, 18.760578 ], [ 104.94473, 18.742772 ], [ 105.009532, 18.739785 ], [ 105.02342, 18.728341 ], [ 105.037162, 18.72459 ], [ 105.052918, 18.725935 ], [ 105.056986, 18.721266 ], [ 105.055604, 18.708505 ], [ 105.0642, 18.7082 ], [ 105.086807, 18.707396 ], [ 105.113193, 18.700062 ], [ 105.126091, 18.694118 ], [ 105.140858, 18.680939 ], [ 105.153847, 18.674033 ], [ 105.16748, 18.659879 ], [ 105.181966, 18.654726 ], [ 105.190193, 18.639161 ], [ 105.190454, 18.609274 ], [ 105.185982, 18.605843 ], [ 105.17315, 18.607672 ], [ 105.15784, 18.605822 ], [ 105.144202, 18.594946 ], [ 105.137859, 18.586074 ], [ 105.124147, 18.543386 ], [ 105.123768, 18.524812 ], [ 105.112551, 18.506286 ], [ 105.111859, 18.488785 ], [ 105.103212, 18.443047 ], [ 105.107398, 18.437537 ], [ 105.118193, 18.433643 ], [ 105.135866, 18.412346 ], [ 105.148184, 18.403553 ], [ 105.16224, 18.388135 ], [ 105.178127, 18.381438 ], [ 105.187553, 18.350513 ], [ 105.184574, 18.331545 ], [ 105.18746, 18.321446 ], [ 105.208969, 18.312261 ], [ 105.220134, 18.300773 ], [ 105.232771, 18.300968 ], [ 105.239494, 18.297661 ], [ 105.254782, 18.272724 ], [ 105.258005, 18.255798 ], [ 105.278104, 18.253866 ], [ 105.296393, 18.241562 ], [ 105.30991, 18.26114 ], [ 105.315842, 18.264452 ], [ 105.323468, 18.263169 ], [ 105.328236, 18.250696 ], [ 105.323063, 18.229859 ], [ 105.327801, 18.188803 ], [ 105.336772, 18.180996 ], [ 105.35204, 18.176811 ], [ 105.363026, 18.164667 ], [ 105.383495, 18.164891 ], [ 105.398328, 18.157889 ], [ 105.40632, 18.149737 ], [ 105.412892, 18.159789 ], [ 105.417193, 18.177261 ], [ 105.424143, 18.181088 ], [ 105.439238, 18.182347 ], [ 105.45122, 18.201682 ], [ 105.462543, 18.200696 ], [ 105.471854, 18.191401 ], [ 105.48573, 18.194563 ], [ 105.484051, 18.173811 ], [ 105.498907, 18.180224 ], [ 105.507606, 18.159468 ], [ 105.506439, 18.12261 ], [ 105.509783, 18.120807 ], [ 105.519096, 18.123481 ], [ 105.530594, 18.114027 ], [ 105.533472, 18.105013 ], [ 105.532308, 18.090467 ], [ 105.537547, 18.08473 ], [ 105.548657, 18.080891 ], [ 105.564713, 18.080698 ], [ 105.570514, 18.077274 ], [ 105.583732, 18.045671 ], [ 105.581998, 18.024438 ], [ 105.592481, 18.009431 ], [ 105.612956, 18.009301 ], [ 105.626908, 17.995583 ], [ 105.640837, 17.987334 ], [ 105.64093, 17.966169 ], [ 105.63096, 17.950692 ], [ 105.625168, 17.942204 ], [ 105.621302, 17.918637 ], [ 105.611269, 17.899332 ], [ 105.612559, 17.885924 ], [ 105.627877, 17.867241 ], [ 105.643954, 17.858547 ], [ 105.663633, 17.854375 ], [ 105.682391, 17.835418 ], [ 105.68327, 17.821543 ], [ 105.677359, 17.803081 ], [ 105.678045, 17.794743 ], [ 105.68987, 17.775657 ], [ 105.699504, 17.765551 ], [ 105.718119, 17.755536 ], [ 105.727749, 17.746355 ], [ 105.732289, 17.722483 ], [ 105.746369, 17.705808 ], [ 105.751599, 17.675832 ], [ 105.778154, 17.673535 ], [ 105.791329, 17.664109 ], [ 105.80394, 17.661271 ], [ 105.82223, 17.64584 ], [ 105.864799, 17.618278 ], [ 105.902979, 17.573576 ], [ 106.025166, 17.430442 ], [ 106.0871, 17.357848 ], [ 106.10007, 17.348774 ], [ 106.128207, 17.339467 ], [ 106.147609, 17.321677 ], [ 106.154915, 17.309452 ], [ 106.176903, 17.294674 ], [ 106.199615, 17.273553 ], [ 106.25024, 17.24627 ], [ 106.27815, 17.265011 ], [ 106.279298, 17.294797 ], [ 106.291835, 17.29603 ], [ 106.300931, 17.292408 ], [ 106.307435, 17.281082 ], [ 106.306649, 17.259539 ], [ 106.313303, 17.248536 ], [ 106.310899, 17.237768 ], [ 106.332272, 17.230645 ], [ 106.328828, 17.226545 ], [ 106.312529, 17.219929 ], [ 106.31149, 17.21003 ], [ 106.323576, 17.197786 ], [ 106.326935, 17.181374 ], [ 106.353272, 17.157454 ], [ 106.354914, 17.136918 ], [ 106.368141, 17.124937 ], [ 106.374986, 17.11046 ], [ 106.392499, 17.099904 ], [ 106.405642, 17.087635 ], [ 106.406577, 17.066152 ], [ 106.402848, 17.051695 ], [ 106.421399, 17.029497 ], [ 106.42576, 17.019533 ], [ 106.426387, 17.007152 ], [ 106.43477, 16.997724 ], [ 106.441202, 16.995863 ], [ 106.456553, 17.000322 ], [ 106.467349, 16.98516 ], [ 106.485406, 16.97774 ], [ 106.500265, 16.979979 ], [ 106.506341, 16.973064 ], [ 106.51238, 16.971515 ], [ 106.526858, 16.977615 ], [ 106.543587, 17.004409 ], [ 106.549601, 17.004635 ], [ 106.555337, 16.691758 ], [ 106.568924, 16.661201 ], [ 106.571421, 16.63906 ], [ 106.584702, 16.603719 ], [ 106.602392, 16.60674 ], [ 106.614857, 16.605804 ], [ 106.624576, 16.601131 ], [ 106.6245, 16.590189 ], [ 106.628123, 16.584377 ], [ 106.634045, 16.591009 ], [ 106.644874, 16.593324 ], [ 106.655553, 16.582972 ], [ 106.664906, 16.582509 ], [ 106.663095, 16.573479 ], [ 106.670179, 16.560791 ], [ 106.658298, 16.553011 ], [ 106.649115, 16.542508 ], [ 106.647333, 16.52461 ], [ 106.661722, 16.503198 ], [ 106.661101, 16.475552 ], [ 106.672416, 16.474878 ], [ 106.676151, 16.455302 ], [ 106.685237, 16.455841 ], [ 106.690962, 16.450661 ], [ 106.688847, 16.440508 ], [ 106.714964, 16.433993 ], [ 106.733371, 16.438113 ], [ 106.735347, 16.421474 ], [ 106.740213, 16.413362 ], [ 106.744805, 16.41671 ], [ 106.747742, 16.423858 ], [ 106.76377, 16.426457 ], [ 106.771301, 16.432824 ], [ 106.773891, 16.439722 ], [ 106.774511, 16.467316 ], [ 106.787873, 16.470692 ], [ 106.80255, 16.465004 ], [ 106.813627, 16.481418 ], [ 106.82789, 16.519402 ], [ 106.825955, 16.529564 ], [ 106.832226, 16.54484 ], [ 106.840226, 16.546418 ], [ 106.860269, 16.540787 ], [ 106.867334, 16.533578 ], [ 106.876254, 16.529696 ], [ 106.889562, 16.512449 ], [ 106.886468, 16.493886 ], [ 106.878086, 16.471337 ], [ 106.88328, 16.463999 ], [ 106.885974, 16.450775 ], [ 106.875332, 16.438902 ], [ 106.874118, 16.429271 ], [ 106.883802, 16.423082 ], [ 106.900884, 16.425767 ], [ 106.894968, 16.406007 ], [ 106.904574, 16.38908 ], [ 106.924359, 16.371615 ], [ 106.96336, 16.353329 ], [ 106.968973, 16.33069 ], [ 106.965862, 16.312763 ], [ 106.969838, 16.303429 ], [ 106.976072, 16.301876 ], [ 107.006703, 16.311168 ], [ 107.016138, 16.308201 ], [ 107.026868, 16.309693 ], [ 107.047521, 16.299896 ], [ 107.055282, 16.305405 ], [ 107.07215, 16.304335 ], [ 107.081462, 16.311491 ], [ 107.090895, 16.309282 ], [ 107.144869, 16.269168 ], [ 107.155671, 16.257839 ], [ 107.150002, 16.23874 ], [ 107.154336, 16.231834 ], [ 107.144992, 16.215181 ], [ 107.153527, 16.1782 ], [ 107.160315, 16.169785 ], [ 107.171773, 16.163869 ], [ 107.185832, 16.150639 ], [ 107.216594, 16.141801 ], [ 107.242732, 16.141805 ], [ 107.24672, 16.140012 ], [ 107.259736, 16.134163 ], [ 107.269131, 16.122576 ], [ 107.280581, 16.118083 ], [ 107.304801, 16.129153 ], [ 107.318384, 16.130331 ], [ 107.333129, 16.125829 ], [ 107.35599, 16.112367 ], [ 107.3924, 16.118463 ], [ 107.408767, 16.127899 ], [ 107.41957, 16.146855 ], [ 107.427281, 16.149431 ], [ 107.433441, 16.145462 ], [ 107.452029, 16.113953 ], [ 107.465605, 16.097203 ], [ 107.472403, 16.08189 ], [ 107.474219, 16.066502 ], [ 107.471612, 16.044811 ], [ 107.459186, 16.000943 ], [ 107.439776, 15.964621 ], [ 107.422378, 15.918833 ], [ 107.393046, 15.89436 ], [ 107.373336, 15.896886 ], [ 107.359634, 15.893288 ], [ 107.332278, 15.892375 ], [ 107.319939, 15.884415 ], [ 107.304893, 15.86743 ], [ 107.259736, 15.84992 ], [ 107.249139, 15.842797 ], [ 107.24672, 15.842771 ], [ 107.225476, 15.84254 ], [ 107.220692, 15.820804 ], [ 107.228049, 15.794385 ], [ 107.21646, 15.760303 ], [ 107.221886, 15.755622 ], [ 107.240293, 15.754572 ], [ 107.24672, 15.751984 ], [ 107.260152, 15.730249 ], [ 107.282838, 15.709605 ], [ 107.281802, 15.697153 ], [ 107.267141, 15.656999 ], [ 107.276127, 15.637263 ], [ 107.286618, 15.628442 ], [ 107.330247, 15.621595 ], [ 107.348686, 15.608092 ], [ 107.35273, 15.59569 ], [ 107.350637, 15.577072 ], [ 107.366961, 15.563185 ], [ 107.37076, 15.539982 ], [ 107.384484, 15.503936 ], [ 107.425198, 15.48943 ], [ 107.450749, 15.493776 ], [ 107.479167, 15.478149 ], [ 107.510394, 15.474574 ], [ 107.522713, 15.455985 ], [ 107.524121, 15.439363 ], [ 107.521922, 15.424628 ], [ 107.52717, 15.414029 ], [ 107.559349, 15.397682 ], [ 107.587968, 15.397734 ], [ 107.611032, 15.391891 ], [ 107.672254, 15.348443 ], [ 107.682961, 15.334636 ], [ 107.704005, 15.305505 ], [ 107.683169, 15.28446 ], [ 107.619641, 15.289018 ], [ 107.597316, 15.28002 ], [ 107.588658, 15.268506 ], [ 107.581892, 15.222893 ], [ 107.548368, 15.159322 ], [ 107.550992, 15.151307 ], [ 107.564162, 15.139698 ], [ 107.586573, 15.106982 ], [ 107.594239, 15.053792 ], [ 107.590716, 15.034837 ], [ 107.579664, 15.030784 ], [ 107.560132, 15.040546 ], [ 107.541517, 15.043898 ], [ 107.504859, 15.024661 ], [ 107.480105, 15.023898 ], [ 107.471088, 15.012336 ], [ 107.469988, 15.000404 ], [ 107.484968, 14.951671 ], [ 107.504238, 14.931184 ], [ 107.525441, 14.927048 ], [ 107.534426, 14.911458 ], [ 107.574386, 14.891931 ], [ 107.58864, 14.870892 ], [ 107.566657, 14.845448 ], [ 107.507057, 14.797946 ], [ 107.502427, 14.791532 ], [ 107.504828, 14.783667 ], [ 107.533837, 14.750855 ], [ 107.532302, 14.742727 ], [ 107.521399, 14.730718 ], [ 107.521025, 14.721901 ], [ 107.527202, 14.717141 ], [ 107.548952, 14.71303 ], [ 107.556132, 14.686602 ], [ 107.540169, 14.688819 ], [ 107.53366, 14.686563 ], [ 107.525793, 14.678933 ], [ 107.518313, 14.651905 ], [ 107.502652, 14.638618 ], [ 107.493202, 14.625367 ], [ 107.478483, 14.622685 ], [ 107.45845, 14.614586 ], [ 107.458265, 14.608833 ], [ 107.466443, 14.595495 ], [ 107.456273, 14.587153 ], [ 107.453587, 14.556519 ], [ 107.444645, 14.53757 ], [ 107.436945, 14.528168 ], [ 107.42618, 14.528358 ], [ 107.400193, 14.538736 ], [ 107.37472, 14.544791 ], [ 107.365416, 14.554336 ], [ 107.359565, 14.569201 ], [ 107.332446, 14.587083 ], [ 107.298854, 14.585586 ], [ 107.284587, 14.569599 ], [ 107.283374, 14.556054 ], [ 107.277032, 14.541745 ], [ 107.270909, 14.534708 ], [ 107.260677, 14.530457 ], [ 107.256524, 14.525777 ], [ 107.248752, 14.490117 ], [ 107.24883, 14.467057 ], [ 107.235403, 14.44748 ], [ 107.218477, 14.442572 ], [ 107.201905, 14.430753 ], [ 107.188179, 14.435213 ], [ 107.176583, 14.433316 ], [ 107.157322, 14.416594 ], [ 107.125103, 14.416623 ], [ 107.117346, 14.396684 ], [ 107.102836, 14.397003 ], [ 107.085133, 14.392009 ], [ 107.080488, 14.395634 ], [ 107.075069, 14.42179 ], [ 107.045327, 14.434102 ], [ 107.043364, 14.416934 ], [ 107.022399, 14.401817 ], [ 106.995837, 14.365424 ], [ 106.976091, 14.356583 ], [ 106.974082, 14.350316 ], [ 106.976084, 14.334164 ], [ 106.96343, 14.319687 ], [ 106.951119, 14.315608 ], [ 106.94615, 14.316167 ], [ 106.937814, 14.323128 ], [ 106.912647, 14.330043 ], [ 106.903064, 14.325794 ], [ 106.892108, 14.315571 ], [ 106.86577, 14.317255 ], [ 106.843642, 14.298416 ], [ 106.839035, 14.299256 ], [ 106.831809, 14.310607 ], [ 106.816536, 14.310239 ], [ 106.812314, 14.319551 ], [ 106.799154, 14.327159 ], [ 106.788646, 14.341184 ], [ 106.774367, 14.374207 ], [ 106.755838, 14.386424 ], [ 106.751867, 14.404254 ], [ 106.739951, 14.424116 ], [ 106.721248, 14.431081 ], [ 106.705197, 14.424262 ], [ 106.697871, 14.429463 ], [ 106.670911, 14.433523 ], [ 106.655623, 14.449172 ], [ 106.630884, 14.450991 ], [ 106.619631, 14.490924 ], [ 106.610588, 14.506403 ], [ 106.590943, 14.508921 ], [ 106.567789, 14.503299 ], [ 106.576241, 14.518556 ], [ 106.576567, 14.533937 ], [ 106.559371, 14.549397 ], [ 106.551969, 14.573157 ], [ 106.543785, 14.587899 ], [ 106.530611, 14.59149 ], [ 106.506188, 14.584497 ], [ 106.492737, 14.571463 ], [ 106.461381, 14.550394 ], [ 106.460651, 14.540093 ], [ 106.475364, 14.520577 ], [ 106.475003, 14.513718 ], [ 106.468374, 14.512158 ], [ 106.44279, 14.521511 ], [ 106.433365, 14.517627 ], [ 106.431493, 14.506156 ], [ 106.437796, 14.494559 ], [ 106.438043, 14.48855 ], [ 106.423816, 14.474009 ], [ 106.418719, 14.460662 ], [ 106.409083, 14.452318 ], [ 106.370616, 14.453537 ], [ 106.328913, 14.43821 ], [ 106.317805, 14.437458 ], [ 106.292378, 14.467457 ], [ 106.273838, 14.476702 ], [ 106.265383, 14.474611 ], [ 106.253313, 14.481298 ], [ 106.244551, 14.462762 ], [ 106.246848, 14.443033 ], [ 106.219392, 14.378795 ], [ 106.197564, 14.371126 ], [ 106.175696, 14.357049 ], [ 106.16344, 14.357116 ], [ 106.145427, 14.366945 ], [ 106.123719, 14.364274 ], [ 106.10654, 14.372094 ], [ 106.091854, 14.373847 ], [ 106.088609, 14.370792 ], [ 106.087019, 14.355625 ], [ 106.080219, 14.342768 ], [ 106.07514, 14.339869 ], [ 106.052001, 14.350136 ], [ 106.024942, 14.349995 ], [ 106.014302, 14.362284 ], [ 106.00835, 14.377254 ], [ 106.000977, 14.379845 ], [ 106.000439, 14.35442 ], [ 105.994938, 14.336109 ], [ 105.994809, 14.324744 ], [ 106.0137, 14.319351 ], [ 106.025156, 14.308733 ], [ 106.03187, 14.279379 ], [ 106.027374, 14.258129 ], [ 106.046061, 14.23395 ], [ 106.046308, 14.213113 ], [ 106.062478, 14.205668 ], [ 106.088938, 14.178842 ], [ 106.095012, 14.158841 ], [ 106.119464, 14.136048 ], [ 106.133536, 14.103551 ], [ 106.149866, 14.091002 ], [ 106.168306, 14.085338 ], [ 106.171057, 14.074684 ], [ 106.184531, 14.060467 ], [ 106.176182, 14.032181 ], [ 106.169793, 14.021784 ], [ 106.152079, 14.006227 ], [ 106.117624, 13.991443 ], [ 106.115712, 13.977313 ], [ 106.1219, 13.960856 ], [ 106.110082, 13.941671 ], [ 106.110303, 13.92151 ], [ 106.107331, 13.916117 ], [ 106.074213, 13.922348 ], [ 106.052726, 13.922345 ], [ 106.003608, 13.934602 ], [ 105.994969, 13.933417 ], [ 105.986076, 13.924429 ], [ 105.958124, 13.931995 ], [ 105.932651, 13.928803 ], [ 105.910678, 13.930256 ], [ 105.898522, 13.938478 ], [ 105.889622, 13.951943 ], [ 105.853788, 13.974811 ], [ 105.834955, 13.983566 ], [ 105.821743, 14.001239 ], [ 105.790783, 14.0226 ], [ 105.781995, 14.048925 ], [ 105.781539, 14.06048 ], [ 105.785294, 14.076208 ], [ 105.781481, 14.085083 ], [ 105.738049, 14.095512 ], [ 105.723521, 14.108109 ], [ 105.717583, 14.105354 ], [ 105.708883, 14.090342 ], [ 105.703225, 14.088592 ], [ 105.681801, 14.108295 ], [ 105.659872, 14.118459 ], [ 105.657557, 14.117083 ], [ 105.659417, 14.111854 ], [ 105.652577, 14.109764 ], [ 105.64854, 14.100059 ], [ 105.644935, 14.098895 ], [ 105.63425, 14.10843 ], [ 105.63491, 14.119512 ], [ 105.631233, 14.1276 ], [ 105.621493, 14.132592 ], [ 105.614602, 14.128833 ], [ 105.603456, 14.146143 ], [ 105.587495, 14.148118 ], [ 105.587745, 14.140473 ], [ 105.584032, 14.139718 ], [ 105.56067, 14.158761 ], [ 105.548513, 14.157116 ], [ 105.527932, 14.142688 ], [ 105.509783, 14.134192 ], [ 105.507255, 14.132609 ], [ 105.498894, 14.133424 ], [ 105.487199, 14.120511 ], [ 105.47417, 14.119753 ], [ 105.46663, 14.112036 ], [ 105.458787, 14.110192 ], [ 105.453911, 14.10273 ], [ 105.440268, 14.103903 ], [ 105.435701, 14.109075 ], [ 105.424147, 14.105614 ], [ 105.414309, 14.110054 ], [ 105.395918, 14.099734 ], [ 105.390856, 14.100155 ], [ 105.385211, 14.105009 ], [ 105.370407, 14.103765 ], [ 105.360918, 14.109727 ], [ 105.326356, 14.144872 ], [ 105.326379, 14.153262 ], [ 105.321971, 14.161795 ], [ 105.305857, 14.168942 ], [ 105.293056, 14.174619 ], [ 105.287389, 14.174923 ], [ 105.280858, 14.175274 ], [ 105.272083, 14.183579 ], [ 105.264757, 14.20393 ], [ 105.257009, 14.209952 ], [ 105.255491, 14.225979 ], [ 105.248515, 14.232737 ], [ 105.248929, 14.240513 ], [ 105.226524, 14.260223 ], [ 105.210276, 14.28993 ], [ 105.201185, 14.315967 ], [ 105.202986, 14.328743 ], [ 105.20007, 14.342709 ], [ 105.215633, 14.340791 ], [ 105.22408, 14.331863 ], [ 105.230139, 14.331481 ], [ 105.235007, 14.336014 ], [ 105.23799, 14.348545 ], [ 105.257141, 14.34754 ], [ 105.268112, 14.354519 ], [ 105.283734, 14.35382 ], [ 105.287389, 14.3611 ], [ 105.307897, 14.367443 ], [ 105.321888, 14.387655 ], [ 105.33043, 14.387 ], [ 105.357241, 14.37546 ], [ 105.370538, 14.387376 ], [ 105.388011, 14.394632 ], [ 105.396811, 14.403782 ], [ 105.414934, 14.412692 ], [ 105.432669, 14.416733 ], [ 105.44246, 14.425986 ], [ 105.461184, 14.460318 ], [ 105.472064, 14.47081 ], [ 105.493046, 14.506875 ], [ 105.500048, 14.511697 ], [ 105.509783, 14.524927 ], [ 105.512524, 14.528653 ], [ 105.517121, 14.531303 ], [ 105.526723, 14.536839 ], [ 105.529615, 14.549735 ], [ 105.537815, 14.555349 ], [ 105.533651, 14.570639 ], [ 105.542551, 14.582217 ], [ 105.537776, 14.598379 ], [ 105.544415, 14.616513 ], [ 105.542045, 14.620707 ], [ 105.53278, 14.625702 ], [ 105.531764, 14.642484 ], [ 105.524205, 14.653269 ], [ 105.522925, 14.663492 ], [ 105.530392, 14.679461 ], [ 105.527499, 14.690352 ], [ 105.530227, 14.705573 ], [ 105.526338, 14.715486 ], [ 105.528385, 14.724986 ], [ 105.544687, 14.730422 ], [ 105.54773, 14.734458 ], [ 105.523485, 14.756197 ], [ 105.519359, 14.770313 ], [ 105.52752, 14.781474 ], [ 105.522337, 14.792484 ], [ 105.524962, 14.798262 ], [ 105.547946, 14.80898 ], [ 105.565022, 14.809102 ], [ 105.572328, 14.813922 ], [ 105.559601, 14.845795 ], [ 105.545998, 14.863302 ], [ 105.548659, 14.869106 ], [ 105.565258, 14.876915 ], [ 105.579758, 14.873785 ], [ 105.583688, 14.876725 ], [ 105.579448, 14.900287 ], [ 105.56739, 14.917637 ], [ 105.555431, 14.934351 ], [ 105.557698, 14.943347 ], [ 105.564905, 14.946896 ], [ 105.581048, 14.940219 ], [ 105.588998, 14.941144 ], [ 105.597241, 14.950514 ], [ 105.606811, 14.956018 ], [ 105.61128, 14.963865 ], [ 105.624635, 14.971261 ], [ 105.627578, 14.976226 ], [ 105.623397, 14.98333 ], [ 105.603644, 14.992836 ], [ 105.572098, 14.992748 ], [ 105.565971, 15.018799 ], [ 105.549936, 15.027471 ], [ 105.544292, 15.03388 ], [ 105.547089, 15.040529 ], [ 105.549936, 15.042823 ], [ 105.553354, 15.047143 ], [ 105.554899, 15.060279 ], [ 105.549936, 15.069505 ], [ 105.525653, 15.070183 ], [ 105.513526, 15.08578 ], [ 105.509783, 15.087631 ], [ 105.486597, 15.099094 ], [ 105.484114, 15.107628 ], [ 105.486947, 15.116984 ], [ 105.480702, 15.12209 ], [ 105.478821, 15.127814 ], [ 105.482165, 15.135641 ], [ 105.490653, 15.141275 ], [ 105.491078, 15.144586 ], [ 105.48897, 15.149513 ], [ 105.478319, 15.153468 ], [ 105.471805, 15.163862 ], [ 105.479272, 15.169152 ], [ 105.47836, 15.179749 ], [ 105.48556, 15.186789 ], [ 105.489799, 15.198307 ], [ 105.509783, 15.212335 ], [ 105.533622, 15.243261 ], [ 105.553779, 15.246576 ], [ 105.562976, 15.257532 ], [ 105.585879, 15.259216 ], [ 105.59247, 15.265624 ], [ 105.594848, 15.273795 ], [ 105.591214, 15.285197 ], [ 105.578226, 15.299273 ], [ 105.581796, 15.3175 ], [ 105.572995, 15.325378 ], [ 105.550567, 15.321813 ], [ 105.537266, 15.324062 ], [ 105.509783, 15.319576 ], [ 105.505895, 15.318934 ], [ 105.481073, 15.333441 ], [ 105.477251, 15.334636 ], [ 105.468164, 15.337479 ], [ 105.46295, 15.345843 ], [ 105.476128, 15.369614 ], [ 105.50126, 15.391667 ], [ 105.509783, 15.392659 ], [ 105.549936, 15.397335 ], [ 105.569434, 15.404286 ], [ 105.59226, 15.429162 ], [ 105.592622, 15.454653 ], [ 105.601184, 15.468015 ], [ 105.602116, 15.478242 ], [ 105.592827, 15.510644 ], [ 105.601603, 15.530137 ], [ 105.603431, 15.543035 ], [ 105.623834, 15.568663 ], [ 105.62422, 15.586924 ], [ 105.635843, 15.636542 ], [ 105.635542, 15.656122 ], [ 105.628778, 15.67332 ], [ 105.611902, 15.691108 ], [ 105.597655, 15.722364 ], [ 105.56452, 15.736988 ], [ 105.550032, 15.749579 ], [ 105.531299, 15.750147 ], [ 105.509783, 15.762374 ], [ 105.503194, 15.766118 ], [ 105.493485, 15.762738 ], [ 105.483653, 15.750672 ], [ 105.474414, 15.746881 ], [ 105.463775, 15.745964 ], [ 105.443416, 15.750444 ], [ 105.423241, 15.769851 ], [ 105.414828, 15.784277 ], [ 105.390496, 15.805137 ], [ 105.386546, 15.833404 ], [ 105.378653, 15.84553 ], [ 105.35712, 15.894299 ], [ 105.340298, 15.920784 ], [ 105.350443, 15.943395 ], [ 105.36316, 15.956983 ], [ 105.369319, 15.975499 ], [ 105.379112, 15.98699 ], [ 105.389911, 15.991374 ], [ 105.416999, 15.987566 ], [ 105.422667, 15.990879 ], [ 105.423728, 15.998878 ], [ 105.417181, 16.011575 ], [ 105.368401, 16.021373 ], [ 105.350619, 16.028044 ], [ 105.320194, 16.029982 ], [ 105.286376, 16.039691 ], [ 105.23051, 16.046266 ], [ 105.205416, 16.05179 ], [ 105.131064, 16.078791 ], [ 105.120844, 16.077582 ], [ 105.106363, 16.085871 ], [ 105.085054, 16.086839 ], [ 105.0642, 16.095799 ], [ 105.048036, 16.102743 ], [ 105.041531, 16.11001 ], [ 105.036082, 16.13812 ], [ 105.013043, 16.189076 ], [ 105.011219, 16.207325 ], [ 105.017358, 16.233594 ], [ 105.012007, 16.246022 ], [ 104.987328, 16.273231 ], [ 104.957674, 16.292553 ], [ 104.929564, 16.33058 ], [ 104.889473, 16.357343 ], [ 104.863368, 16.423208 ], [ 104.839185, 16.458714 ], [ 104.796946, 16.479969 ], [ 104.771468, 16.4981 ], [ 104.740152, 16.530384 ], [ 104.735348, 16.545046 ], [ 104.735282, 16.572452 ], [ 104.741129, 16.588556 ], [ 104.743527, 16.625163 ], [ 104.75938, 16.695646 ], [ 104.757181, 16.727098 ], [ 104.743349, 16.773287 ], [ 104.739141, 16.805066 ], [ 104.742796, 16.818857 ], [ 104.761359, 16.842659 ], [ 104.762731, 16.849695 ], [ 104.759806, 16.860071 ], [ 104.740661, 16.888437 ], [ 104.734884, 16.90708 ], [ 104.734074, 16.958509 ], [ 104.729368, 17.007516 ], [ 104.736024, 17.031785 ], [ 104.756945, 17.056662 ], [ 104.763715, 17.071902 ], [ 104.769574, 17.100958 ], [ 104.783509, 17.126471 ], [ 104.78315, 17.140414 ], [ 104.803625, 17.2026 ], [ 104.807657, 17.29779 ], [ 104.80322, 17.338145 ], [ 104.796325, 17.361772 ], [ 104.798801, 17.386729 ], [ 104.796791, 17.397305 ], [ 104.774786, 17.429926 ], [ 104.752191, 17.450242 ], [ 104.72505, 17.500278 ], [ 104.699289, 17.529453 ], [ 104.68554, 17.538534 ], [ 104.652547, 17.553442 ], [ 104.625417, 17.571137 ], [ 104.603232, 17.579635 ], [ 104.569429, 17.600176 ], [ 104.533716, 17.614615 ], [ 104.519753, 17.626709 ], [ 104.478028, 17.646551 ], [ 104.39929, 17.745444 ], [ 104.383748, 17.776184 ], [ 104.368991, 17.790599 ], [ 104.36757, 17.791987 ], [ 104.362288, 17.812335 ], [ 104.355023, 17.824055 ], [ 104.340439, 17.835571 ], [ 104.299406, 17.845197 ], [ 104.2768, 17.86099 ], [ 104.266441, 17.878896 ], [ 104.256078, 17.909763 ], [ 104.23838, 17.950692 ], [ 104.226063, 17.979173 ], [ 104.215294, 17.9949 ], [ 104.110469, 18.108907 ], [ 104.087937, 18.161578 ], [ 104.069668, 18.189535 ], [ 104.060321, 18.221201 ], [ 104.015639, 18.277291 ], [ 103.984914, 18.326013 ], [ 103.967042, 18.338191 ], [ 103.952433, 18.338346 ], [ 103.924427, 18.328432 ], [ 103.88725, 18.295732 ], [ 103.858232, 18.284779 ], [ 103.850614, 18.292812 ], [ 103.835929, 18.323855 ], [ 103.815434, 18.337394 ], [ 103.801349, 18.342104 ], [ 103.776353, 18.344552 ], [ 103.754245, 18.340242 ], [ 103.741643, 18.343233 ], [ 103.69806, 18.343834 ], [ 103.675505, 18.359523 ], [ 103.65781, 18.367718 ], [ 103.626847, 18.393655 ], [ 103.614596, 18.400722 ], [ 103.595662, 18.405819 ], [ 103.571281, 18.405984 ], [ 103.548352, 18.419242 ], [ 103.534279, 18.423991 ], [ 103.461395, 18.426194 ], [ 103.422514, 18.444932 ], [ 103.409853, 18.44801 ], [ 103.371994, 18.439852 ], [ 103.308428, 18.432429 ], [ 103.27626, 18.407428 ], [ 103.269299, 18.390751 ], [ 103.24745, 18.369797 ], [ 103.243533, 18.360485 ], [ 103.25171, 18.339829 ], [ 103.275819, 18.3319 ], [ 103.289228, 18.323539 ], [ 103.294618, 18.313599 ], [ 103.293151, 18.30504 ], [ 103.278748, 18.294264 ], [ 103.184165, 18.266266 ], [ 103.168391, 18.25612 ], [ 103.166409, 18.254845 ], [ 103.150747, 18.229551 ], [ 103.154182, 18.197495 ], [ 103.148523, 18.176117 ], [ 103.132774, 18.160692 ], [ 103.091012, 18.137409 ], [ 103.082297, 18.129366 ], [ 103.072459, 18.077412 ], [ 103.07998, 18.053573 ], [ 103.07898, 18.040054 ], [ 103.064086, 18.011566 ], [ 103.041187, 17.981677 ], [ 103.029379, 17.974118 ], [ 103.017672, 17.973373 ], [ 102.990721, 17.993522 ], [ 102.96565, 18.002836 ], [ 102.953281, 18.004426 ], [ 102.930355, 17.998078 ], [ 102.897357, 17.981966 ], [ 102.855908, 17.970872 ], [ 102.829811, 17.950692 ], [ 102.818837, 17.942205 ], [ 102.79548, 17.937987 ], [ 102.785709, 17.932661 ], [ 102.76826, 17.903652 ], [ 102.755985, 17.893767 ], [ 102.738628, 17.886149 ], [ 102.701609, 17.876791 ], [ 102.688201, 17.868411 ], [ 102.680215, 17.857821 ], [ 102.678287, 17.848469 ], [ 102.684164, 17.835633 ], [ 102.695744, 17.823961 ], [ 102.695623, 17.81635 ], [ 102.688588, 17.808569 ], [ 102.677006, 17.804426 ], [ 102.651421, 17.809992 ], [ 102.649681, 17.811036 ], [ 102.621107, 17.828192 ], [ 102.598482, 17.835406 ], [ 102.593356, 17.840696 ], [ 102.58952, 17.853744 ], [ 102.584445, 17.860443 ], [ 102.584497, 17.866447 ], [ 102.589199, 17.875571 ], [ 102.608922, 17.896943 ], [ 102.612355, 17.906483 ], [ 102.609474, 17.943914 ], [ 102.604515, 17.950692 ], [ 102.599737, 17.957223 ], [ 102.555575, 17.968784 ], [ 102.531919, 17.96363 ], [ 102.526929, 17.965205 ], [ 102.510556, 17.970374 ], [ 102.4889, 17.966644 ], [ 102.467558, 17.968737 ], [ 102.42331, 17.988889 ], [ 102.344998, 18.045167 ], [ 102.332378, 18.048394 ], [ 102.309805, 18.046894 ], [ 102.295297, 18.052056 ], [ 102.26327, 18.077656 ], [ 102.24762, 18.099191 ], [ 102.221596, 18.11621 ], [ 102.188905, 18.146437 ], [ 102.161252, 18.202089 ], [ 102.137987, 18.209023 ], [ 102.113045, 18.207504 ], [ 102.095536, 18.214334 ], [ 102.081211, 18.214243 ], [ 102.070546, 18.21068 ], [ 102.04448, 18.191494 ], [ 102.033033, 18.155399 ], [ 101.994116, 18.121675 ], [ 101.968076, 18.106601 ], [ 101.94653, 18.088232 ], [ 101.936968, 18.069424 ], [ 101.90601, 18.031967 ], [ 101.886897, 18.027866 ], [ 101.87568, 18.029054 ], [ 101.828437, 18.054967 ], [ 101.810179, 18.056516 ], [ 101.790824, 18.068377 ], [ 101.780087, 18.064696 ], [ 101.76081, 18.025782 ], [ 101.754414, 18.000958 ], [ 101.745108, 17.989473 ], [ 101.743817, 17.967537 ], [ 101.729841, 17.947374 ], [ 101.731631, 17.924327 ], [ 101.722081, 17.911509 ], [ 101.710365, 17.905543 ], [ 101.700011, 17.911446 ], [ 101.691816, 17.911762 ], [ 101.648934, 17.897394 ], [ 101.638392, 17.89569 ], [ 101.617856, 17.89237 ], [ 101.603778, 17.8609 ], [ 101.59325, 17.851324 ], [ 101.586595, 17.853416 ], [ 101.579153, 17.865355 ], [ 101.572505, 17.864773 ], [ 101.565347, 17.844094 ], [ 101.562771, 17.839553 ], [ 101.553702, 17.823564 ], [ 101.552337, 17.81464 ], [ 101.553967, 17.809582 ], [ 101.562771, 17.804338 ], [ 101.567992, 17.801228 ], [ 101.572465, 17.787513 ], [ 101.562771, 17.787403 ], [ 101.551569, 17.787276 ], [ 101.537643, 17.776038 ], [ 101.51552, 17.767785 ], [ 101.499942, 17.754763 ], [ 101.499936, 17.743977 ], [ 101.48997, 17.726462 ], [ 101.486423, 17.730179 ], [ 101.488867, 17.743481 ], [ 101.477548, 17.747841 ], [ 101.481634, 17.755533 ], [ 101.479985, 17.758209 ], [ 101.466815, 17.754256 ], [ 101.464188, 17.748352 ], [ 101.443283, 17.734243 ], [ 101.422205, 17.736251 ], [ 101.401933, 17.732504 ], [ 101.399638, 17.72905 ], [ 101.401451, 17.725615 ], [ 101.420042, 17.72307 ], [ 101.428163, 17.716085 ], [ 101.409129, 17.702035 ], [ 101.405027, 17.686466 ], [ 101.401457, 17.685166 ], [ 101.393542, 17.69227 ], [ 101.382629, 17.694794 ], [ 101.376854, 17.68369 ], [ 101.362087, 17.67893 ], [ 101.347859, 17.661652 ], [ 101.309517, 17.649957 ], [ 101.30905, 17.636149 ], [ 101.295471, 17.62965 ], [ 101.281879, 17.611147 ], [ 101.273119, 17.608626 ], [ 101.264494, 17.601766 ], [ 101.249565, 17.576087 ], [ 101.245672, 17.560125 ], [ 101.233652, 17.549345 ], [ 101.22789, 17.53709 ], [ 101.211316, 17.531428 ], [ 101.188105, 17.530041 ], [ 101.178378, 17.524924 ], [ 101.177232, 17.51581 ], [ 101.181004, 17.500107 ], [ 101.164875, 17.489825 ], [ 101.160333, 17.469071 ], [ 101.150824, 17.468455 ], [ 101.143436, 17.476232 ], [ 101.133357, 17.475171 ], [ 101.129097, 17.482234 ], [ 101.112717, 17.480758 ], [ 101.10606, 17.491043 ], [ 101.096805, 17.497338 ], [ 101.098216, 17.506733 ], [ 101.077258, 17.505226 ], [ 101.06565, 17.511957 ], [ 101.059463, 17.525073 ], [ 101.049172, 17.530027 ], [ 101.044079, 17.539961 ], [ 101.036146, 17.546814 ], [ 101.020075, 17.55559 ], [ 101.003033, 17.55762 ], [ 100.991632, 17.56554 ], [ 100.971277, 17.571749 ], [ 100.966671, 17.581174 ], [ 100.969145, 17.590373 ], [ 100.979036, 17.600011 ], [ 100.993971, 17.624019 ], [ 101.007928, 17.634436 ], [ 101.012225, 17.649023 ], [ 101.026829, 17.666264 ], [ 101.029828, 17.676546 ], [ 101.003619, 17.710381 ], [ 100.999308, 17.732376 ], [ 100.978599, 17.75432 ], [ 100.982366, 17.7668 ], [ 100.996774, 17.774431 ], [ 101.002772, 17.78261 ], [ 100.995386, 17.808485 ], [ 101.001117, 17.818341 ], [ 101.011336, 17.824048 ], [ 101.041735, 17.827346 ], [ 101.047316, 17.837628 ], [ 101.05524, 17.845112 ], [ 101.080193, 17.841749 ], [ 101.08658, 17.845902 ], [ 101.118877, 17.89569 ], [ 101.120776, 17.898617 ], [ 101.114081, 17.928397 ], [ 101.119019, 17.950605 ], [ 101.116599, 17.979504 ], [ 101.119788, 17.995652 ], [ 101.137055, 18.018774 ], [ 101.16567, 18.037263 ], [ 101.184749, 18.065782 ], [ 101.176666, 18.081199 ], [ 101.160723, 18.128745 ], [ 101.167259, 18.143835 ], [ 101.170406, 18.161114 ], [ 101.189057, 18.196166 ], [ 101.166279, 18.216247 ], [ 101.163842, 18.230547 ], [ 101.148526, 18.262383 ], [ 101.154864, 18.272857 ], [ 101.180492, 18.294925 ], [ 101.189056, 18.309802 ], [ 101.188282, 18.323749 ], [ 101.177829, 18.333489 ], [ 101.09153, 18.378972 ], [ 101.080432, 18.401981 ], [ 101.066124, 18.411931 ], [ 101.055977, 18.425222 ], [ 101.053635, 18.443509 ], [ 101.074509, 18.470932 ], [ 101.08886, 18.480703 ], [ 101.092987, 18.500514 ], [ 101.10243, 18.520503 ], [ 101.132381, 18.529169 ], [ 101.144117, 18.540322 ], [ 101.148096, 18.552799 ], [ 101.170025, 18.559531 ], [ 101.180193, 18.567237 ], [ 101.183307, 18.57791 ], [ 101.178826, 18.589861 ], [ 101.181126, 18.611979 ], [ 101.212307, 18.620328 ], [ 101.231954, 18.632214 ], [ 101.239643, 18.640726 ], [ 101.241938, 18.651421 ], [ 101.254413, 18.662296 ], [ 101.256895, 18.677446 ], [ 101.235334, 18.692676 ], [ 101.224146, 18.727707 ], [ 101.237901, 18.745608 ], [ 101.237121, 18.760323 ], [ 101.249646, 18.780685 ], [ 101.246454, 18.810933 ], [ 101.254482, 18.84897 ], [ 101.254566, 18.861439 ], [ 101.246482, 18.879973 ], [ 101.245689, 18.889972 ], [ 101.254567, 18.905819 ], [ 101.273055, 18.917407 ], [ 101.278021, 18.93373 ], [ 101.293051, 18.938646 ], [ 101.292417, 18.973851 ], [ 101.308843, 19.00042 ], [ 101.344896, 19.00808 ], [ 101.346671, 19.028614 ], [ 101.353892, 19.048272 ], [ 101.326702, 19.077298 ], [ 101.300487, 19.091936 ], [ 101.29398, 19.101685 ], [ 101.269356, 19.11545 ], [ 101.256068, 19.130572 ], [ 101.254164, 19.158856 ], [ 101.245599, 19.179028 ], [ 101.252005, 19.194669 ], [ 101.251452, 19.206874 ], [ 101.257874, 19.229541 ], [ 101.245602, 19.251341 ], [ 101.237602, 19.283793 ], [ 101.227003, 19.306348 ], [ 101.232977, 19.3201 ], [ 101.245367, 19.327357 ], [ 101.224479, 19.34415 ], [ 101.205384, 19.351356 ], [ 101.199331, 19.371167 ], [ 101.196915, 19.401284 ], [ 101.201749, 19.407578 ], [ 101.219616, 19.41979 ], [ 101.216934, 19.429216 ], [ 101.209522, 19.438313 ], [ 101.211266, 19.445565 ], [ 101.209384, 19.45471 ], [ 101.212793, 19.465442 ], [ 101.23652, 19.474982 ], [ 101.242175, 19.471667 ], [ 101.248099, 19.460882 ], [ 101.263874, 19.464804 ], [ 101.267979, 19.482774 ], [ 101.268264, 19.503569 ], [ 101.283486, 19.532082 ], [ 101.275806, 19.552649 ], [ 101.286142, 19.570165 ], [ 101.279079, 19.578858 ], [ 101.25247, 19.592849 ], [ 101.246774, 19.600885 ], [ 101.241403, 19.602831 ], [ 101.208358, 19.603496 ], [ 101.202625, 19.587534 ], [ 101.195019, 19.578067 ], [ 101.180233, 19.578062 ], [ 101.160635, 19.582666 ], [ 101.122639, 19.573658 ], [ 101.107737, 19.584153 ], [ 101.090784, 19.583272 ], [ 101.074331, 19.591172 ], [ 101.06627, 19.599939 ], [ 101.066602, 19.61023 ], [ 101.063196, 19.615876 ], [ 101.029776, 19.629279 ], [ 101.02417, 19.629349 ], [ 101.013548, 19.621181 ], [ 100.996134, 19.62475 ], [ 100.918643, 19.625561 ], [ 100.896202, 19.633638 ], [ 100.8929, 19.631587 ], [ 100.882059, 19.607854 ], [ 100.872436, 19.600547 ], [ 100.860469, 19.585064 ], [ 100.857508, 19.573635 ], [ 100.846251, 19.566661 ], [ 100.815676, 19.526965 ], [ 100.792607, 19.510898 ], [ 100.781202, 19.496492 ], [ 100.769595, 19.488129 ], [ 100.755886, 19.511222 ], [ 100.729519, 19.525987 ], [ 100.696209, 19.535875 ], [ 100.676326, 19.548292 ], [ 100.660563, 19.550318 ], [ 100.648888, 19.556617 ], [ 100.631017, 19.557426 ], [ 100.609967, 19.552102 ], [ 100.608338, 19.537107 ], [ 100.602573, 19.528204 ], [ 100.597644, 19.506835 ], [ 100.584227, 19.500686 ], [ 100.573288, 19.50219 ], [ 100.536737, 19.520217 ], [ 100.520962, 19.520887 ], [ 100.489357, 19.542664 ], [ 100.474304, 19.558373 ], [ 100.483098, 19.564403 ], [ 100.489509, 19.573527 ], [ 100.489996, 19.581836 ], [ 100.481969, 19.607494 ], [ 100.488579, 19.616334 ], [ 100.485551, 19.632141 ], [ 100.489559, 19.652687 ], [ 100.478753, 19.66509 ], [ 100.462781, 19.669522 ], [ 100.454661, 19.681759 ], [ 100.453618, 19.694333 ], [ 100.445062, 19.702335 ], [ 100.443996, 19.709978 ], [ 100.425741, 19.727569 ], [ 100.415763, 19.73018 ], [ 100.40876, 19.735234 ], [ 100.404255, 19.744906 ], [ 100.40393, 19.753255 ], [ 100.416006, 19.782489 ], [ 100.43277, 19.788038 ], [ 100.438429, 19.792514 ], [ 100.446423, 19.827152 ], [ 100.442299, 19.837315 ], [ 100.449126, 19.847683 ], [ 100.461275, 19.857442 ], [ 100.474661, 19.858601 ], [ 100.486856, 19.865501 ], [ 100.498153, 19.867926 ], [ 100.501792, 19.884875 ], [ 100.510476, 19.890576 ], [ 100.519339, 19.904193 ], [ 100.520962, 19.926398 ], [ 100.520962, 19.929903 ], [ 100.51656, 19.935729 ], [ 100.516442, 19.940576 ], [ 100.520962, 19.952393 ], [ 100.540372, 20.003127 ], [ 100.541813, 20.021296 ], [ 100.550298, 20.032484 ], [ 100.560831, 20.087675 ], [ 100.569545, 20.101526 ], [ 100.571084, 20.116651 ], [ 100.576429, 20.169143 ], [ 100.565989, 20.175508 ], [ 100.551963, 20.17576 ], [ 100.540443, 20.164312 ], [ 100.52965, 20.145383 ], [ 100.520962, 20.144247 ], [ 100.508427, 20.151213 ], [ 100.477081, 20.189491 ], [ 100.455541, 20.200053 ], [ 100.453385, 20.206176 ], [ 100.455464, 20.222786 ], [ 100.451744, 20.231413 ], [ 100.435122, 20.244205 ], [ 100.420775, 20.249614 ], [ 100.414562, 20.254711 ], [ 100.405216, 20.282393 ], [ 100.383312, 20.315176 ], [ 100.374702, 20.349999 ], [ 100.361079, 20.358194 ], [ 100.355336, 20.37836 ], [ 100.331124, 20.398257 ], [ 100.325299, 20.399508 ], [ 100.313748, 20.401988 ], [ 100.291334, 20.398829 ], [ 100.274166, 20.400541 ], [ 100.270383, 20.398862 ], [ 100.259824, 20.394177 ], [ 100.246474, 20.370796 ], [ 100.227253, 20.355126 ], [ 100.228071, 20.33309 ], [ 100.221829, 20.318742 ], [ 100.211655, 20.313252 ], [ 100.182797, 20.308729 ], [ 100.169454, 20.299685 ], [ 100.169673, 20.27541 ], [ 100.176006, 20.257485 ], [ 100.173851, 20.248958 ], [ 100.168728, 20.24576 ], [ 100.112924, 20.251238 ], [ 100.094632, 20.265271 ], [ 100.091193, 20.279196 ], [ 100.094386, 20.289219 ], [ 100.095645, 20.318924 ], [ 100.085316, 20.352732 ] ] ] ] } }
]
}
