{
"type": "FeatureCollection",
"name": "Latvia",
"crs": { "type": "name", "properties": { "name": "urn:ogc:def:crs:OGC:1.3:CRS84" } },
"features": [
{ "type": "Feature", "properties": { "id": "LV", "CNTR_ID": "LV", "CNTR_NAME": "Latvija", "NAME_ENGL": "Latvia", "ISO3_CODE": "LVA", "FID": "LV" }, "geometry": { "type": "MultiPolygon", "coordinates": [ [ [ [ 27.351579, 57.518237 ], [ 27.365109, 57.52554 ], [ 27.367322, 57.531196 ], [ 27.375528, 57.53506 ], [ 27.381406, 57.534362 ], [ 27.397499, 57.525854 ], [ 27.415814, 57.523205 ], [ 27.433341, 57.52623 ], [ 27.446153, 57.531703 ], [ 27.46112, 57.529588 ], [ 27.469143, 57.530342 ], [ 27.471789, 57.534536 ], [ 27.484458, 57.535538 ], [ 27.504101, 57.539995 ], [ 27.554698, 57.537724 ], [ 27.547647, 57.519762 ], [ 27.554185, 57.521117 ], [ 27.56647, 57.513748 ], [ 27.566509, 57.509091 ], [ 27.556109, 57.497415 ], [ 27.556659, 57.485861 ], [ 27.549925, 57.47259 ], [ 27.551468, 57.467141 ], [ 27.546658, 57.459813 ], [ 27.536118, 57.459776 ], [ 27.524184, 57.439013 ], [ 27.518208, 57.427412 ], [ 27.525161, 57.426665 ], [ 27.554894, 57.41642 ], [ 27.560454, 57.411621 ], [ 27.582492, 57.416031 ], [ 27.600206, 57.416131 ], [ 27.624446, 57.401699 ], [ 27.670897, 57.394802 ], [ 27.674453, 57.387876 ], [ 27.680251, 57.383336 ], [ 27.682643, 57.37345 ], [ 27.690777, 57.370561 ], [ 27.703996, 57.366588 ], [ 27.721245, 57.361404 ], [ 27.756551, 57.354622 ], [ 27.7608, 57.350608 ], [ 27.778023, 57.343748 ], [ 27.779358, 57.336255 ], [ 27.775623, 57.332052 ], [ 27.773729, 57.329921 ], [ 27.776924, 57.326495 ], [ 27.783262, 57.321242 ], [ 27.815025, 57.32376 ], [ 27.823485, 57.322599 ], [ 27.826868, 57.320379 ], [ 27.842449, 57.310155 ], [ 27.847952, 57.303366 ], [ 27.857836, 57.303752 ], [ 27.861401, 57.301645 ], [ 27.867218, 57.296856 ], [ 27.869601, 57.290945 ], [ 27.868024, 57.281361 ], [ 27.862445, 57.275591 ], [ 27.860902, 57.264339 ], [ 27.865764, 57.260953 ], [ 27.864639, 57.257501 ], [ 27.868956, 57.247009 ], [ 27.866179, 57.244838 ], [ 27.859228, 57.243862 ], [ 27.852838, 57.235282 ], [ 27.843864, 57.22978 ], [ 27.83851, 57.219895 ], [ 27.84079, 57.211401 ], [ 27.83532, 57.209001 ], [ 27.829629, 57.208274 ], [ 27.830323, 57.204404 ], [ 27.82637, 57.200555 ], [ 27.830154, 57.198585 ], [ 27.826337, 57.19156 ], [ 27.834763, 57.181679 ], [ 27.828867, 57.173943 ], [ 27.832703, 57.166783 ], [ 27.823206, 57.159027 ], [ 27.823563, 57.153802 ], [ 27.819481, 57.150246 ], [ 27.817774, 57.143401 ], [ 27.80574, 57.140763 ], [ 27.80099, 57.137371 ], [ 27.791604, 57.135519 ], [ 27.787028, 57.132775 ], [ 27.781141, 57.134952 ], [ 27.757937, 57.13075 ], [ 27.752825, 57.126921 ], [ 27.754366, 57.123046 ], [ 27.737165, 57.118484 ], [ 27.735221, 57.112092 ], [ 27.742936, 57.111334 ], [ 27.752892, 57.106809 ], [ 27.751271, 57.098343 ], [ 27.745624, 57.098929 ], [ 27.744117, 57.101555 ], [ 27.739177, 57.102691 ], [ 27.722839, 57.100768 ], [ 27.719759, 57.103872 ], [ 27.715748, 57.097568 ], [ 27.720257, 57.092928 ], [ 27.74141, 57.089832 ], [ 27.751872, 57.084556 ], [ 27.765336, 57.08622 ], [ 27.768107, 57.084759 ], [ 27.763115, 57.080216 ], [ 27.753201, 57.077171 ], [ 27.741206, 57.067173 ], [ 27.748779, 57.054401 ], [ 27.743647, 57.049311 ], [ 27.735771, 57.046173 ], [ 27.729114, 57.037923 ], [ 27.72788, 57.026816 ], [ 27.718258, 57.012571 ], [ 27.715333, 57.00702 ], [ 27.718252, 57.002971 ], [ 27.732791, 57.001476 ], [ 27.765616, 57.00462 ], [ 27.768084, 57.002919 ], [ 27.742806, 56.956062 ], [ 27.737758, 56.921591 ], [ 27.729767, 56.919871 ], [ 27.723207, 56.915005 ], [ 27.716821, 56.913544 ], [ 27.712447, 56.914541 ], [ 27.70374, 56.912618 ], [ 27.686088, 56.915014 ], [ 27.682738, 56.906726 ], [ 27.672092, 56.894418 ], [ 27.673707, 56.886476 ], [ 27.672213, 56.879387 ], [ 27.670218, 56.869923 ], [ 27.657552, 56.856054 ], [ 27.655791, 56.852355 ], [ 27.659445, 56.834365 ], [ 27.691297, 56.837405 ], [ 27.701467, 56.84145 ], [ 27.704089, 56.847258 ], [ 27.718432, 56.847854 ], [ 27.72139, 56.851066 ], [ 27.727824, 56.85331 ], [ 27.731445, 56.856573 ], [ 27.742531, 56.855275 ], [ 27.765404, 56.862097 ], [ 27.788466, 56.864093 ], [ 27.798813, 56.863266 ], [ 27.821127, 56.866928 ], [ 27.84295, 56.874769 ], [ 27.849194, 56.87944 ], [ 27.871274, 56.87731 ], [ 27.874564, 56.874085 ], [ 27.871904, 56.866611 ], [ 27.883858, 56.856531 ], [ 27.898181, 56.837644 ], [ 27.902589, 56.822428 ], [ 27.937288, 56.827499 ], [ 27.949811, 56.831889 ], [ 27.959185, 56.833118 ], [ 27.965382, 56.836827 ], [ 27.970347, 56.83129 ], [ 27.966903, 56.827093 ], [ 27.974726, 56.825035 ], [ 27.970286, 56.82095 ], [ 27.976424, 56.816193 ], [ 27.976113, 56.812271 ], [ 27.96506, 56.806424 ], [ 27.957549, 56.807393 ], [ 27.943893, 56.801455 ], [ 27.940687, 56.791029 ], [ 27.946591, 56.783275 ], [ 27.944573, 56.776952 ], [ 27.935486, 56.773697 ], [ 27.921492, 56.774649 ], [ 27.916309, 56.773456 ], [ 27.901201, 56.760072 ], [ 27.899475, 56.752714 ], [ 27.905516, 56.746322 ], [ 27.913471, 56.748526 ], [ 27.912454, 56.74197 ], [ 27.917994, 56.733934 ], [ 27.927617, 56.729467 ], [ 27.937229, 56.7274 ], [ 27.945238, 56.721921 ], [ 27.947098, 56.716443 ], [ 27.959952, 56.713355 ], [ 27.963431, 56.707251 ], [ 27.979861, 56.706784 ], [ 27.981481, 56.703184 ], [ 27.977461, 56.695427 ], [ 27.978792, 56.688393 ], [ 27.99414, 56.688315 ], [ 28.001876, 56.683703 ], [ 28.012244, 56.67242 ], [ 28.011796, 56.636678 ], [ 28.040389, 56.604449 ], [ 28.042897, 56.59097 ], [ 28.049908, 56.58902 ], [ 28.055544, 56.584707 ], [ 28.069344, 56.585472 ], [ 28.076703, 56.58588 ], [ 28.098554, 56.582578 ], [ 28.125907, 56.582149 ], [ 28.133767, 56.579347 ], [ 28.142375, 56.572411 ], [ 28.137641, 56.564326 ], [ 28.140787, 56.551571 ], [ 28.105723, 56.542719 ], [ 28.100622, 56.5388 ], [ 28.099765, 56.531393 ], [ 28.093126, 56.528779 ], [ 28.096262, 56.523458 ], [ 28.095229, 56.517413 ], [ 28.098399, 56.515532 ], [ 28.10014, 56.509713 ], [ 28.109823, 56.508741 ], [ 28.119551, 56.51336 ], [ 28.129366, 56.50864 ], [ 28.129681, 56.499883 ], [ 28.125775, 56.496388 ], [ 28.143435, 56.478375 ], [ 28.154409, 56.472994 ], [ 28.158826, 56.466634 ], [ 28.176107, 56.454594 ], [ 28.191279, 56.449426 ], [ 28.193558, 56.440741 ], [ 28.188444, 56.431244 ], [ 28.182873, 56.426622 ], [ 28.186397, 56.41292 ], [ 28.19303, 56.406136 ], [ 28.187146, 56.403865 ], [ 28.185624, 56.401644 ], [ 28.184306, 56.400841 ], [ 28.163828, 56.378651 ], [ 28.167277, 56.373566 ], [ 28.184306, 56.363686 ], [ 28.193298, 56.357985 ], [ 28.193936, 56.352135 ], [ 28.200827, 56.343382 ], [ 28.199757, 56.337605 ], [ 28.203572, 56.331013 ], [ 28.207238, 56.321975 ], [ 28.214462, 56.31406 ], [ 28.230577, 56.296397 ], [ 28.240576, 56.276056 ], [ 28.23777, 56.26997 ], [ 28.218613, 56.249651 ], [ 28.197849, 56.240856 ], [ 28.18662, 56.231075 ], [ 28.184728, 56.225956 ], [ 28.188226, 56.220025 ], [ 28.200434, 56.216706 ], [ 28.202253, 56.214094 ], [ 28.196732, 56.209225 ], [ 28.17879, 56.205276 ], [ 28.186227, 56.197669 ], [ 28.178069, 56.188756 ], [ 28.177676, 56.179948 ], [ 28.154556, 56.169843 ], [ 28.138016, 56.171326 ], [ 28.130759, 56.166899 ], [ 28.115549, 56.163227 ], [ 28.103584, 56.153306 ], [ 28.09524, 56.14922 ], [ 28.091959, 56.137552 ], [ 28.069344, 56.139787 ], [ 28.06437, 56.13664 ], [ 28.045961, 56.129114 ], [ 28.043067, 56.118942 ], [ 28.027317, 56.119449 ], [ 28.021698, 56.12389 ], [ 28.006564, 56.126389 ], [ 27.992383, 56.125527 ], [ 27.985413, 56.122306 ], [ 27.971893, 56.120337 ], [ 27.9682, 56.109221 ], [ 27.96176, 56.105374 ], [ 27.951222, 56.10297 ], [ 27.948735, 56.096881 ], [ 27.938864, 56.091159 ], [ 27.934135, 56.080946 ], [ 27.933992, 56.072262 ], [ 27.922693, 56.064161 ], [ 27.920541, 56.060001 ], [ 27.910932, 56.05862 ], [ 27.903558, 56.048452 ], [ 27.890602, 56.052725 ], [ 27.875266, 56.052961 ], [ 27.866732, 56.050138 ], [ 27.86518, 56.04741 ], [ 27.857673, 56.043726 ], [ 27.836753, 56.037869 ], [ 27.821132, 56.039855 ], [ 27.80652, 56.035496 ], [ 27.812408, 56.029947 ], [ 27.820862, 56.029312 ], [ 27.832698, 56.022891 ], [ 27.816225, 56.011172 ], [ 27.81515, 56.00826 ], [ 27.806655, 56.008127 ], [ 27.809771, 56.003531 ], [ 27.810427, 55.990078 ], [ 27.807241, 55.988678 ], [ 27.802589, 55.989363 ], [ 27.799079, 55.982709 ], [ 27.788176, 55.979969 ], [ 27.785341, 55.976249 ], [ 27.769523, 55.975495 ], [ 27.764992, 55.979006 ], [ 27.758355, 55.97981 ], [ 27.750483, 55.978865 ], [ 27.74787, 55.975253 ], [ 27.743597, 55.971936 ], [ 27.734018, 55.967265 ], [ 27.658597, 55.932052 ], [ 27.65309, 55.929588 ], [ 27.653332, 55.915967 ], [ 27.651351, 55.911731 ], [ 27.62529, 55.891924 ], [ 27.639389, 55.848717 ], [ 27.632511, 55.829652 ], [ 27.618677, 55.793309 ], [ 27.613599, 55.786757 ], [ 27.56497, 55.784301 ], [ 27.484385, 55.790308 ], [ 27.467681, 55.794126 ], [ 27.43112, 55.794633 ], [ 27.410005, 55.801449 ], [ 27.372947, 55.808966 ], [ 27.36706, 55.814649 ], [ 27.356698, 55.811719 ], [ 27.353759, 55.808966 ], [ 27.346388, 55.801107 ], [ 27.307487, 55.793088 ], [ 27.289279, 55.78589 ], [ 27.285115, 55.785815 ], [ 27.249563, 55.794787 ], [ 27.24498, 55.803061 ], [ 27.237253, 55.808966 ], [ 27.214067, 55.821187 ], [ 27.199395, 55.833742 ], [ 27.172301, 55.837701 ], [ 27.168184, 55.844791 ], [ 27.154046, 55.851631 ], [ 27.143368, 55.849038 ], [ 27.136954, 55.85049 ], [ 27.123022, 55.850355 ], [ 27.107799, 55.84649 ], [ 27.102098, 55.843092 ], [ 27.101004, 55.834549 ], [ 27.097693, 55.829201 ], [ 27.093663, 55.827421 ], [ 27.082007, 55.826458 ], [ 27.070619, 55.829172 ], [ 27.050918, 55.83058 ], [ 27.041181, 55.82942 ], [ 27.031681, 55.823326 ], [ 27.024648, 55.826668 ], [ 27.014832, 55.82828 ], [ 26.996872, 55.818722 ], [ 26.978542, 55.814584 ], [ 26.973582, 55.813938 ], [ 26.966336, 55.805354 ], [ 26.952867, 55.797823 ], [ 26.947213, 55.788277 ], [ 26.92864, 55.789883 ], [ 26.920028, 55.786877 ], [ 26.899826, 55.758157 ], [ 26.898178, 55.753794 ], [ 26.900289, 55.750941 ], [ 26.876385, 55.734821 ], [ 26.878355, 55.728204 ], [ 26.874467, 55.719053 ], [ 26.869104, 55.712439 ], [ 26.850237, 55.709353 ], [ 26.844361, 55.706922 ], [ 26.828612, 55.705243 ], [ 26.816556, 55.699892 ], [ 26.800553, 55.697859 ], [ 26.789078, 55.685526 ], [ 26.782088, 55.678385 ], [ 26.763498, 55.680588 ], [ 26.742123, 55.683121 ], [ 26.718052, 55.702737 ], [ 26.653237, 55.70727 ], [ 26.645367, 55.704483 ], [ 26.650171, 55.70001 ], [ 26.641859, 55.695335 ], [ 26.635745, 55.682372 ], [ 26.630365, 55.680667 ], [ 26.618155, 55.680823 ], [ 26.598111, 55.67513 ], [ 26.591535, 55.676465 ], [ 26.57721, 55.675862 ], [ 26.569633, 55.680013 ], [ 26.531908, 55.677023 ], [ 26.518126, 55.679972 ], [ 26.511284, 55.687046 ], [ 26.502149, 55.686084 ], [ 26.494029, 55.68787 ], [ 26.489905, 55.695689 ], [ 26.481945, 55.696783 ], [ 26.466781, 55.703203 ], [ 26.438839, 55.709401 ], [ 26.427246, 55.710422 ], [ 26.41728, 55.708996 ], [ 26.40617, 55.711082 ], [ 26.394277, 55.709197 ], [ 26.385645, 55.705007 ], [ 26.375279, 55.710447 ], [ 26.365951, 55.730766 ], [ 26.352483, 55.740602 ], [ 26.346902, 55.742154 ], [ 26.330043, 55.74189 ], [ 26.325957, 55.741826 ], [ 26.31058, 55.743992 ], [ 26.269111, 55.767662 ], [ 26.257889, 55.782847 ], [ 26.231163, 55.812847 ], [ 26.23521, 55.820344 ], [ 26.229682, 55.837172 ], [ 26.213839, 55.850748 ], [ 26.202857, 55.85913 ], [ 26.186089, 55.867175 ], [ 26.172866, 55.866288 ], [ 26.150319, 55.876512 ], [ 26.120307, 55.880259 ], [ 26.091079, 55.900494 ], [ 26.081424, 55.912493 ], [ 26.065335, 55.926917 ], [ 26.046155, 55.944106 ], [ 26.044599, 55.954584 ], [ 26.011547, 55.966452 ], [ 25.998397, 55.963754 ], [ 25.988196, 55.973824 ], [ 25.980887, 55.975904 ], [ 25.974244, 55.981142 ], [ 25.954542, 55.985541 ], [ 25.94704, 55.98497 ], [ 25.943784, 55.988004 ], [ 25.900572, 55.996925 ], [ 25.89438, 56.000393 ], [ 25.882574, 56.000528 ], [ 25.861691, 56.000228 ], [ 25.851856, 56.006247 ], [ 25.851002, 56.009173 ], [ 25.858916, 56.015615 ], [ 25.857799, 56.022844 ], [ 25.851151, 56.02941 ], [ 25.841101, 56.030744 ], [ 25.835777, 56.033281 ], [ 25.825739, 56.043149 ], [ 25.821387, 56.052179 ], [ 25.819176, 56.054709 ], [ 25.810331, 56.056781 ], [ 25.761736, 56.063701 ], [ 25.751268, 56.070769 ], [ 25.737265, 56.076457 ], [ 25.716442, 56.081073 ], [ 25.701797, 56.082495 ], [ 25.689684, 56.086041 ], [ 25.686852, 56.09203 ], [ 25.694985, 56.095164 ], [ 25.699245, 56.10112 ], [ 25.693559, 56.104764 ], [ 25.698799, 56.119492 ], [ 25.677134, 56.130325 ], [ 25.682684, 56.144772 ], [ 25.67257, 56.148788 ], [ 25.65256, 56.135882 ], [ 25.643714, 56.134839 ], [ 25.623047, 56.135946 ], [ 25.601723, 56.134572 ], [ 25.566609, 56.139823 ], [ 25.552035, 56.160839 ], [ 25.546069, 56.162538 ], [ 25.537229, 56.165057 ], [ 25.525891, 56.163532 ], [ 25.509473, 56.158475 ], [ 25.503707, 56.14471 ], [ 25.480328, 56.14296 ], [ 25.466945, 56.144934 ], [ 25.458019, 56.146597 ], [ 25.455102, 56.14714 ], [ 25.45344, 56.152631 ], [ 25.434151, 56.154166 ], [ 25.430784, 56.153527 ], [ 25.420798, 56.14553 ], [ 25.408732, 56.147279 ], [ 25.403014, 56.148968 ], [ 25.402756, 56.157905 ], [ 25.393058, 56.156971 ], [ 25.365837, 56.154351 ], [ 25.337252, 56.153836 ], [ 25.314722, 56.145515 ], [ 25.296653, 56.152379 ], [ 25.280464, 56.158528 ], [ 25.269884, 56.170231 ], [ 25.254477, 56.173738 ], [ 25.249224, 56.182443 ], [ 25.24729, 56.185015 ], [ 25.238525, 56.187189 ], [ 25.233887, 56.191604 ], [ 25.229766, 56.191879 ], [ 25.214953, 56.187105 ], [ 25.199676, 56.176628 ], [ 25.171267, 56.174247 ], [ 25.151308, 56.174755 ], [ 25.143038, 56.179483 ], [ 25.133708, 56.180999 ], [ 25.126341, 56.183769 ], [ 25.112047, 56.185631 ], [ 25.103809, 56.184664 ], [ 25.093447, 56.185966 ], [ 25.085367, 56.196365 ], [ 25.076307, 56.195805 ], [ 25.074613, 56.205172 ], [ 25.070586, 56.210379 ], [ 25.074154, 56.21909 ], [ 25.0638, 56.227122 ], [ 25.068682, 56.238257 ], [ 25.066895, 56.2412 ], [ 25.059108, 56.243505 ], [ 25.062825, 56.24959 ], [ 25.056896, 56.253578 ], [ 25.056652, 56.264732 ], [ 25.043039, 56.268723 ], [ 25.041356, 56.273769 ], [ 25.033171, 56.272986 ], [ 25.019951, 56.276914 ], [ 25.018651, 56.282078 ], [ 25.014053, 56.284997 ], [ 25.014157, 56.29264 ], [ 24.993336, 56.298585 ], [ 24.986732, 56.30576 ], [ 24.973916, 56.311012 ], [ 24.973665, 56.31406 ], [ 24.973369, 56.317651 ], [ 24.968486, 56.325517 ], [ 24.970947, 56.332994 ], [ 24.966951, 56.343594 ], [ 24.968276, 56.348937 ], [ 24.97214, 56.351858 ], [ 24.969654, 56.364494 ], [ 24.964941, 56.368093 ], [ 24.95602, 56.370025 ], [ 24.950355, 56.376488 ], [ 24.942755, 56.375651 ], [ 24.926203, 56.400944 ], [ 24.915462, 56.403133 ], [ 24.906759, 56.411709 ], [ 24.903284, 56.420629 ], [ 24.9108, 56.425341 ], [ 24.918942, 56.438226 ], [ 24.917317, 56.440793 ], [ 24.901043, 56.447803 ], [ 24.891264, 56.446902 ], [ 24.885516, 56.450151 ], [ 24.875059, 56.449774 ], [ 24.870033, 56.447605 ], [ 24.862993, 56.440055 ], [ 24.852511, 56.436051 ], [ 24.853494, 56.425855 ], [ 24.862677, 56.419355 ], [ 24.859294, 56.415208 ], [ 24.841137, 56.414198 ], [ 24.829863, 56.410971 ], [ 24.823826, 56.41251 ], [ 24.820652, 56.41833 ], [ 24.806062, 56.421318 ], [ 24.80019, 56.418692 ], [ 24.804667, 56.415686 ], [ 24.80312, 56.411801 ], [ 24.784808, 56.402466 ], [ 24.770575, 56.400383 ], [ 24.759394, 56.404196 ], [ 24.73403, 56.400919 ], [ 24.723075, 56.402322 ], [ 24.712474, 56.400948 ], [ 24.702741, 56.403504 ], [ 24.699753, 56.401161 ], [ 24.699702, 56.395471 ], [ 24.704004, 56.387575 ], [ 24.694471, 56.379773 ], [ 24.687039, 56.37657 ], [ 24.657799, 56.375738 ], [ 24.646302, 56.377827 ], [ 24.628572, 56.374686 ], [ 24.630461, 56.367578 ], [ 24.624204, 56.361155 ], [ 24.62749, 56.355042 ], [ 24.626776, 56.349416 ], [ 24.622735, 56.345867 ], [ 24.613524, 56.343857 ], [ 24.606589, 56.336473 ], [ 24.588747, 56.332513 ], [ 24.582557, 56.325165 ], [ 24.576748, 56.323154 ], [ 24.575971, 56.315576 ], [ 24.576994, 56.31406 ], [ 24.583032, 56.305111 ], [ 24.57922, 56.288913 ], [ 24.56356, 56.288858 ], [ 24.537441, 56.283092 ], [ 24.519278, 56.281162 ], [ 24.50387, 56.276158 ], [ 24.483752, 56.269599 ], [ 24.463164, 56.266403 ], [ 24.459801, 56.260568 ], [ 24.454839, 56.258545 ], [ 24.42607, 56.260781 ], [ 24.391136, 56.278351 ], [ 24.379459, 56.278802 ], [ 24.357891, 56.272959 ], [ 24.347178, 56.285549 ], [ 24.344882, 56.292602 ], [ 24.332251, 56.298413 ], [ 24.316798, 56.300872 ], [ 24.296557, 56.298672 ], [ 24.285725, 56.300644 ], [ 24.289607, 56.286561 ], [ 24.284254, 56.284949 ], [ 24.269804, 56.282991 ], [ 24.257635, 56.276936 ], [ 24.239648, 56.277692 ], [ 24.202713, 56.267488 ], [ 24.176707, 56.251311 ], [ 24.154193, 56.2537 ], [ 24.1518, 56.253348 ], [ 24.119038, 56.249636 ], [ 24.115093, 56.251822 ], [ 24.11834, 56.261499 ], [ 24.097861, 56.270041 ], [ 24.096735, 56.277076 ], [ 24.04674, 56.280051 ], [ 24.048665, 56.299106 ], [ 24.022972, 56.311039 ], [ 24.02232, 56.31406 ], [ 24.018936, 56.329754 ], [ 23.985475, 56.330135 ], [ 23.961721, 56.330435 ], [ 23.956111, 56.330538 ], [ 23.925816, 56.331093 ], [ 23.916413, 56.331265 ], [ 23.913443, 56.337563 ], [ 23.910544, 56.338619 ], [ 23.865579, 56.338439 ], [ 23.830329, 56.33815 ], [ 23.813437, 56.342101 ], [ 23.803471, 56.341943 ], [ 23.794753, 56.338228 ], [ 23.781477, 56.320518 ], [ 23.766571, 56.323811 ], [ 23.76748, 56.331846 ], [ 23.762662, 56.333798 ], [ 23.762413, 56.336179 ], [ 23.772894, 56.354494 ], [ 23.779963, 56.360908 ], [ 23.779812, 56.367607 ], [ 23.765272, 56.372856 ], [ 23.743844, 56.369206 ], [ 23.723612, 56.370171 ], [ 23.702551, 56.366236 ], [ 23.662594, 56.364698 ], [ 23.626641, 56.358734 ], [ 23.605246, 56.349882 ], [ 23.582927, 56.345271 ], [ 23.572217, 56.338758 ], [ 23.562254, 56.337004 ], [ 23.554885, 56.333528 ], [ 23.544522, 56.332393 ], [ 23.534004, 56.334559 ], [ 23.512024, 56.335811 ], [ 23.505925, 56.338235 ], [ 23.489875, 56.345803 ], [ 23.466922, 56.348545 ], [ 23.440906, 56.351653 ], [ 23.435648, 56.354858 ], [ 23.418667, 56.370002 ], [ 23.39247, 56.377277 ], [ 23.385722, 56.37901 ], [ 23.332657, 56.381712 ], [ 23.309456, 56.382725 ], [ 23.304086, 56.378788 ], [ 23.282279, 56.372202 ], [ 23.249691, 56.370819 ], [ 23.196595, 56.368983 ], [ 23.178078, 56.368515 ], [ 23.171524, 56.366467 ], [ 23.180276, 56.358922 ], [ 23.173002, 56.35346 ], [ 23.176369, 56.345164 ], [ 23.183913, 56.34162 ], [ 23.182992, 56.337009 ], [ 23.175293, 56.333458 ], [ 23.146052, 56.326664 ], [ 23.128216, 56.319455 ], [ 23.113541, 56.313139 ], [ 23.113621, 56.30797 ], [ 23.09325, 56.304642 ], [ 23.084848, 56.317239 ], [ 23.071976, 56.323557 ], [ 23.046217, 56.320402 ], [ 23.034973, 56.325783 ], [ 23.028078, 56.331653 ], [ 23.023851, 56.340218 ], [ 23.015347, 56.346521 ], [ 23.006006, 56.366724 ], [ 23.006441, 56.368477 ], [ 23.018204, 56.371885 ], [ 23.003086, 56.404584 ], [ 22.99968, 56.406348 ], [ 22.978903, 56.405869 ], [ 22.968532, 56.413653 ], [ 22.943218, 56.414699 ], [ 22.935968, 56.410166 ], [ 22.935438, 56.402305 ], [ 22.920517, 56.399143 ], [ 22.927331, 56.390679 ], [ 22.927386, 56.386985 ], [ 22.918705, 56.379205 ], [ 22.897917, 56.373907 ], [ 22.868852, 56.37111 ], [ 22.858433, 56.369311 ], [ 22.857783, 56.368203 ], [ 22.856933, 56.366755 ], [ 22.848426, 56.367775 ], [ 22.839789, 56.365397 ], [ 22.833991, 56.367116 ], [ 22.81328, 56.366124 ], [ 22.792197, 56.367925 ], [ 22.763068, 56.367197 ], [ 22.748454, 56.372079 ], [ 22.730025, 56.372385 ], [ 22.708235, 56.362388 ], [ 22.702483, 56.356434 ], [ 22.700549, 56.354881 ], [ 22.697481, 56.353217 ], [ 22.694983, 56.353031 ], [ 22.692945, 56.353558 ], [ 22.678826, 56.352157 ], [ 22.661362, 56.36168 ], [ 22.642414, 56.363517 ], [ 22.635564, 56.368168 ], [ 22.61579, 56.382285 ], [ 22.60045, 56.382567 ], [ 22.588453, 56.38474 ], [ 22.580415, 56.389946 ], [ 22.562459, 56.387581 ], [ 22.539344, 56.389493 ], [ 22.529423, 56.393224 ], [ 22.513259, 56.393293 ], [ 22.511067, 56.393302 ], [ 22.494272, 56.39674 ], [ 22.476076, 56.40346 ], [ 22.452963, 56.402713 ], [ 22.442967, 56.404731 ], [ 22.43728, 56.406041 ], [ 22.425235, 56.409769 ], [ 22.410911, 56.408446 ], [ 22.389639, 56.400906 ], [ 22.36334, 56.4011 ], [ 22.348182, 56.394123 ], [ 22.34232, 56.395431 ], [ 22.333084, 56.400807 ], [ 22.322846, 56.402104 ], [ 22.319211, 56.407586 ], [ 22.313441, 56.409528 ], [ 22.296666, 56.407246 ], [ 22.286205, 56.409715 ], [ 22.277389, 56.403767 ], [ 22.242797, 56.400073 ], [ 22.237088, 56.401236 ], [ 22.232479, 56.407339 ], [ 22.224532, 56.407717 ], [ 22.220527, 56.411384 ], [ 22.216654, 56.411991 ], [ 22.212745, 56.42059 ], [ 22.207975, 56.424313 ], [ 22.166192, 56.419917 ], [ 22.153646, 56.42526 ], [ 22.127325, 56.431869 ], [ 22.117855, 56.430917 ], [ 22.113504, 56.428325 ], [ 22.105938, 56.428551 ], [ 22.10157, 56.426437 ], [ 22.090303, 56.427772 ], [ 22.085142, 56.425857 ], [ 22.084159, 56.423004 ], [ 22.071707, 56.424237 ], [ 22.062095, 56.419536 ], [ 22.051897, 56.420934 ], [ 22.047559, 56.417449 ], [ 22.033543, 56.424406 ], [ 22.022689, 56.424764 ], [ 22.015485, 56.423695 ], [ 22.012333, 56.421545 ], [ 22.012832, 56.414268 ], [ 21.998423, 56.414583 ], [ 21.995404, 56.413434 ], [ 21.98831, 56.401066 ], [ 21.984109, 56.398991 ], [ 21.980536, 56.395544 ], [ 21.977012, 56.391345 ], [ 21.978209, 56.385143 ], [ 21.970922, 56.377196 ], [ 21.963726, 56.377669 ], [ 21.954597, 56.381351 ], [ 21.944387, 56.3752 ], [ 21.921188, 56.372306 ], [ 21.918043, 56.368434 ], [ 21.903554, 56.365722 ], [ 21.872229, 56.361849 ], [ 21.862762, 56.367046 ], [ 21.836653, 56.371327 ], [ 21.823315, 56.363625 ], [ 21.81549, 56.361912 ], [ 21.808519, 56.361798 ], [ 21.801596, 56.352128 ], [ 21.791441, 56.348391 ], [ 21.786089, 56.343542 ], [ 21.764916, 56.337205 ], [ 21.757986, 56.33736 ], [ 21.740801, 56.329525 ], [ 21.733443, 56.322105 ], [ 21.727284, 56.319575 ], [ 21.722964, 56.313746 ], [ 21.700439, 56.31384 ], [ 21.690955, 56.311588 ], [ 21.678988, 56.313319 ], [ 21.672686, 56.311943 ], [ 21.660844, 56.317875 ], [ 21.6515, 56.317988 ], [ 21.642976, 56.320683 ], [ 21.618054, 56.324488 ], [ 21.598495, 56.323427 ], [ 21.588658, 56.322496 ], [ 21.580088, 56.3196 ], [ 21.575858, 56.315312 ], [ 21.561721, 56.315923 ], [ 21.555709, 56.303855 ], [ 21.535417, 56.294033 ], [ 21.523656, 56.293448 ], [ 21.515355, 56.290146 ], [ 21.51035, 56.292686 ], [ 21.504121, 56.292581 ], [ 21.501124, 56.294713 ], [ 21.492625, 56.291209 ], [ 21.491734, 56.288891 ], [ 21.467327, 56.270531 ], [ 21.465195, 56.260888 ], [ 21.452281, 56.249032 ], [ 21.440515, 56.246116 ], [ 21.431351, 56.241105 ], [ 21.417174, 56.241571 ], [ 21.408366, 56.237599 ], [ 21.403835, 56.235556 ], [ 21.372862, 56.22702 ], [ 21.353691, 56.224536 ], [ 21.336202, 56.217781 ], [ 21.327733, 56.217553 ], [ 21.304886, 56.20022 ], [ 21.300895, 56.194868 ], [ 21.283726, 56.184811 ], [ 21.278535, 56.175683 ], [ 21.272051, 56.171397 ], [ 21.254266, 56.165661 ], [ 21.229861, 56.16091 ], [ 21.226793, 56.157064 ], [ 21.228721, 56.151338 ], [ 21.226958, 56.146124 ], [ 21.231583, 56.142143 ], [ 21.229692, 56.137577 ], [ 21.235226, 56.134722 ], [ 21.237697, 56.130357 ], [ 21.235774, 56.127826 ], [ 21.238114, 56.123373 ], [ 21.23415, 56.120411 ], [ 21.233087, 56.115538 ], [ 21.225609, 56.112675 ], [ 21.221647, 56.108621 ], [ 21.22414, 56.103577 ], [ 21.217023, 56.101721 ], [ 21.211421, 56.094193 ], [ 21.210943, 56.087942 ], [ 21.201179, 56.077552 ], [ 21.181983, 56.075352 ], [ 21.167302, 56.083776 ], [ 21.15957, 56.085839 ], [ 21.147375, 56.083182 ], [ 21.142253, 56.080096 ], [ 21.122619, 56.077172 ], [ 21.084775, 56.071964 ], [ 21.064238, 56.069137 ], [ 21.06296, 56.071964 ], [ 21.033955, 56.136069 ], [ 20.985171, 56.212103 ], [ 20.980266, 56.231183 ], [ 20.980547, 56.237599 ], [ 20.981283, 56.254433 ], [ 20.985283, 56.290504 ], [ 20.983181, 56.307741 ], [ 20.971184, 56.344651 ], [ 20.970778, 56.353261 ], [ 20.972913, 56.373118 ], [ 20.993729, 56.426817 ], [ 20.999753, 56.465328 ], [ 20.994884, 56.489797 ], [ 20.985268, 56.517679 ], [ 20.977347, 56.523689 ], [ 20.981614, 56.524315 ], [ 20.987857, 56.522017 ], [ 20.99566, 56.52478 ], [ 20.998876, 56.538943 ], [ 20.992807, 56.546242 ], [ 20.998574, 56.548439 ], [ 20.997729, 56.556961 ], [ 21.006881, 56.571603 ], [ 21.017285, 56.597291 ], [ 21.025833, 56.60908 ], [ 21.038029, 56.633355 ], [ 21.052268, 56.674737 ], [ 21.055929, 56.692842 ], [ 21.058046, 56.70331 ], [ 21.05994, 56.752906 ], [ 21.058046, 56.788174 ], [ 21.05798, 56.789376 ], [ 21.053568, 56.812185 ], [ 21.052367, 56.823761 ], [ 21.058046, 56.835695 ], [ 21.064753, 56.841839 ], [ 21.096635, 56.855118 ], [ 21.119802, 56.869237 ], [ 21.159866, 56.885221 ], [ 21.167299, 56.890097 ], [ 21.186795, 56.894318 ], [ 21.209788, 56.90374 ], [ 21.23906, 56.915732 ], [ 21.25642, 56.925628 ], [ 21.27895, 56.944556 ], [ 21.288733, 56.953432 ], [ 21.305069, 56.958615 ], [ 21.333687, 56.975623 ], [ 21.353432, 56.985036 ], [ 21.374714, 57.003078 ], [ 21.383924, 57.0172 ], [ 21.399364, 57.033316 ], [ 21.409265, 57.049997 ], [ 21.414536, 57.066092 ], [ 21.417319, 57.080986 ], [ 21.416439, 57.106968 ], [ 21.410692, 57.146433 ], [ 21.406598, 57.174522 ], [ 21.414376, 57.213077 ], [ 21.412191, 57.259628 ], [ 21.411784, 57.268299 ], [ 21.419337, 57.290952 ], [ 21.42734, 57.30103 ], [ 21.452955, 57.317186 ], [ 21.467481, 57.332052 ], [ 21.481979, 57.346882 ], [ 21.497618, 57.356989 ], [ 21.517421, 57.378782 ], [ 21.524926, 57.386893 ], [ 21.529506, 57.396898 ], [ 21.526293, 57.406434 ], [ 21.533453, 57.408035 ], [ 21.552017, 57.405644 ], [ 21.579881, 57.420565 ], [ 21.593861, 57.431009 ], [ 21.608787, 57.452765 ], [ 21.624752, 57.469716 ], [ 21.636448, 57.484744 ], [ 21.66167, 57.506847 ], [ 21.67965, 57.535733 ], [ 21.689328, 57.557839 ], [ 21.703408, 57.568586 ], [ 21.722361, 57.576392 ], [ 21.755368, 57.58214 ], [ 21.848431, 57.598343 ], [ 21.942959, 57.598966 ], [ 21.984109, 57.602553 ], [ 22.016596, 57.607962 ], [ 22.049427, 57.615772 ], [ 22.057636, 57.61805 ], [ 22.117478, 57.63465 ], [ 22.147446, 57.644628 ], [ 22.196017, 57.656989 ], [ 22.320766, 57.691736 ], [ 22.473127, 57.733617 ], [ 22.483934, 57.736586 ], [ 22.513259, 57.744641 ], [ 22.518788, 57.746159 ], [ 22.539344, 57.750059 ], [ 22.563647, 57.75467 ], [ 22.574604, 57.756748 ], [ 22.603395, 57.758685 ], [ 22.604089, 57.755823 ], [ 22.58508, 57.730691 ], [ 22.577765, 57.714872 ], [ 22.574023, 57.69547 ], [ 22.574684, 57.676655 ], [ 22.579169, 57.657607 ], [ 22.586721, 57.641114 ], [ 22.60596, 57.612807 ], [ 22.627483, 57.592088 ], [ 22.660089, 57.569503 ], [ 22.693509, 57.551106 ], [ 22.73097, 57.535105 ], [ 22.802815, 57.510458 ], [ 22.813292, 57.510281 ], [ 22.815041, 57.503758 ], [ 22.827899, 57.497546 ], [ 22.845902, 57.49195 ], [ 22.857783, 57.481936 ], [ 22.870209, 57.47499 ], [ 22.886375, 57.458843 ], [ 22.907539, 57.444458 ], [ 22.914199, 57.432836 ], [ 22.929183, 57.422406 ], [ 22.946042, 57.414207 ], [ 23.001187, 57.396358 ], [ 23.011397, 57.393145 ], [ 23.026921, 57.38194 ], [ 23.041963, 57.377345 ], [ 23.066534, 57.373287 ], [ 23.086379, 57.367637 ], [ 23.122104, 57.36626 ], [ 23.132234, 57.359325 ], [ 23.132066, 57.356276 ], [ 23.127892, 57.353586 ], [ 23.128015, 57.341177 ], [ 23.139149, 57.334707 ], [ 23.136786, 57.332052 ], [ 23.132913, 57.327699 ], [ 23.134384, 57.326495 ], [ 23.146891, 57.316258 ], [ 23.16094, 57.302163 ], [ 23.1681, 57.275438 ], [ 23.178637, 57.264002 ], [ 23.175223, 57.247925 ], [ 23.17861, 57.233618 ], [ 23.187061, 57.222193 ], [ 23.199756, 57.21091 ], [ 23.21198, 57.189238 ], [ 23.226587, 57.171469 ], [ 23.238202, 57.163418 ], [ 23.231437, 57.158509 ], [ 23.230578, 57.146433 ], [ 23.230155, 57.140494 ], [ 23.234755, 57.129185 ], [ 23.237517, 57.109211 ], [ 23.259952, 57.089308 ], [ 23.277162, 57.078056 ], [ 23.304914, 57.064202 ], [ 23.332657, 57.05458 ], [ 23.375919, 57.043766 ], [ 23.421686, 57.037339 ], [ 23.459215, 57.035431 ], [ 23.466922, 57.035865 ], [ 23.476365, 57.036397 ], [ 23.487613, 57.03447 ], [ 23.493733, 57.031001 ], [ 23.510493, 57.013638 ], [ 23.524942, 56.99508 ], [ 23.552946, 56.979897 ], [ 23.562738, 56.976209 ], [ 23.591405, 56.973034 ], [ 23.625389, 56.964455 ], [ 23.65389, 56.96253 ], [ 23.698092, 56.964168 ], [ 23.752856, 56.96967 ], [ 23.802787, 56.977772 ], [ 23.869798, 56.990982 ], [ 23.925816, 57.005978 ], [ 23.934533, 57.00637 ], [ 23.939873, 57.012032 ], [ 23.956111, 57.018106 ], [ 23.975813, 57.025475 ], [ 23.984037, 57.030645 ], [ 24.002806, 57.04244 ], [ 24.019992, 57.057607 ], [ 24.019388, 57.060587 ], [ 24.011119, 57.0653 ], [ 24.013701, 57.067652 ], [ 24.030329, 57.065066 ], [ 24.082998, 57.075544 ], [ 24.119203, 57.08629 ], [ 24.160809, 57.101627 ], [ 24.198753, 57.118541 ], [ 24.227526, 57.134621 ], [ 24.261402, 57.158975 ], [ 24.297224, 57.173497 ], [ 24.33949, 57.195793 ], [ 24.369408, 57.216466 ], [ 24.388793, 57.233659 ], [ 24.401827, 57.249968 ], [ 24.410664, 57.267452 ], [ 24.412248, 57.283912 ], [ 24.410232, 57.289365 ], [ 24.406499, 57.301399 ], [ 24.408289, 57.311619 ], [ 24.402087, 57.316728 ], [ 24.40341, 57.320379 ], [ 24.404259, 57.322721 ], [ 24.404108, 57.326495 ], [ 24.403885, 57.332052 ], [ 24.403153, 57.350274 ], [ 24.401639, 57.353586 ], [ 24.398305, 57.403015 ], [ 24.384866, 57.4493 ], [ 24.385049, 57.465047 ], [ 24.380695, 57.480234 ], [ 24.380518, 57.508613 ], [ 24.375871, 57.524813 ], [ 24.362905, 57.541879 ], [ 24.368003, 57.554305 ], [ 24.368204, 57.56699 ], [ 24.363591, 57.578186 ], [ 24.375871, 57.603459 ], [ 24.386241, 57.615034 ], [ 24.384556, 57.622648 ], [ 24.375871, 57.633534 ], [ 24.368273, 57.648048 ], [ 24.369549, 57.654932 ], [ 24.363674, 57.675069 ], [ 24.355273, 57.690302 ], [ 24.343323, 57.701158 ], [ 24.345604, 57.733205 ], [ 24.345008, 57.751534 ], [ 24.340386, 57.754991 ], [ 24.348483, 57.757819 ], [ 24.347052, 57.783347 ], [ 24.346931, 57.785521 ], [ 24.347305, 57.792039 ], [ 24.341611, 57.802909 ], [ 24.333914, 57.818609 ], [ 24.336369, 57.836451 ], [ 24.344499, 57.852703 ], [ 24.345137, 57.863933 ], [ 24.352134, 57.869669 ], [ 24.352818, 57.876556 ], [ 24.358306, 57.87461 ], [ 24.36649, 57.875782 ], [ 24.375871, 57.875025 ], [ 24.381127, 57.874469 ], [ 24.407975, 57.871677 ], [ 24.41232, 57.865078 ], [ 24.458069, 57.879622 ], [ 24.452835, 57.899048 ], [ 24.458538, 57.906175 ], [ 24.446432, 57.908633 ], [ 24.461373, 57.923955 ], [ 24.511473, 57.930649 ], [ 24.510877, 57.934838 ], [ 24.517875, 57.937018 ], [ 24.522179, 57.943877 ], [ 24.531255, 57.946616 ], [ 24.542818, 57.945264 ], [ 24.552842, 57.950545 ], [ 24.57196, 57.954198 ], [ 24.576935, 57.956798 ], [ 24.586418, 57.961356 ], [ 24.608888, 57.951519 ], [ 24.615149, 57.945066 ], [ 24.616087, 57.944099 ], [ 24.627065, 57.942181 ], [ 24.644359, 57.952006 ], [ 24.642106, 57.955004 ], [ 24.645337, 57.958936 ], [ 24.673099, 57.959147 ], [ 24.678076, 57.9561 ], [ 24.692197, 57.947015 ], [ 24.714819, 57.962039 ], [ 24.73403, 57.962717 ], [ 24.743189, 57.965528 ], [ 24.743435, 57.982029 ], [ 24.805369, 57.990129 ], [ 24.809621, 57.989429 ], [ 24.830659, 57.973265 ], [ 24.834083, 57.972779 ], [ 24.854981, 57.97807 ], [ 24.866194, 57.980907 ], [ 24.948114, 58.008999 ], [ 24.994453, 58.011083 ], [ 25.018565, 58.017359 ], [ 25.035903, 58.031602 ], [ 25.046307, 58.040146 ], [ 25.076853, 58.065916 ], [ 25.105101, 58.066228 ], [ 25.105899, 58.075791 ], [ 25.109331, 58.077923 ], [ 25.133579, 58.079502 ], [ 25.156665, 58.075044 ], [ 25.18468, 58.075813 ], [ 25.189812, 58.076726 ], [ 25.191451, 58.080744 ], [ 25.198329, 58.084425 ], [ 25.208516, 58.08211 ], [ 25.215248, 58.074319 ], [ 25.205654, 58.066164 ], [ 25.205164, 58.063259 ], [ 25.215171, 58.059625 ], [ 25.218259, 58.051309 ], [ 25.224068, 58.052762 ], [ 25.227591, 58.051715 ], [ 25.217689, 58.040328 ], [ 25.219532, 58.031602 ], [ 25.219869, 58.030007 ], [ 25.225125, 58.023258 ], [ 25.233452, 58.024353 ], [ 25.243823, 58.020451 ], [ 25.242623, 58.018547 ], [ 25.230227, 58.016846 ], [ 25.245868, 58.002958 ], [ 25.254902, 58.002563 ], [ 25.257972, 57.994499 ], [ 25.269983, 57.993927 ], [ 25.283114, 57.990445 ], [ 25.300005, 57.993544 ], [ 25.297189, 57.99846 ], [ 25.302209, 58.000578 ], [ 25.297641, 58.013625 ], [ 25.301335, 58.018403 ], [ 25.30291, 58.035374 ], [ 25.296653, 58.042532 ], [ 25.293666, 58.045949 ], [ 25.278915, 58.051175 ], [ 25.265153, 58.060854 ], [ 25.266921, 58.06712 ], [ 25.281289, 58.070719 ], [ 25.28742, 58.081265 ], [ 25.296653, 58.080741 ], [ 25.317359, 58.06984 ], [ 25.329275, 58.059617 ], [ 25.337511, 58.055598 ], [ 25.365746, 58.031074 ], [ 25.373682, 58.029177 ], [ 25.407654, 58.028976 ], [ 25.451211, 58.015247 ], [ 25.458019, 58.010398 ], [ 25.464969, 58.005447 ], [ 25.458019, 58.003288 ], [ 25.449248, 58.000563 ], [ 25.444888, 57.995132 ], [ 25.458019, 57.990232 ], [ 25.476734, 57.983247 ], [ 25.485854, 57.974814 ], [ 25.517589, 57.979277 ], [ 25.520936, 57.975181 ], [ 25.514375, 57.970586 ], [ 25.515006, 57.968974 ], [ 25.521373, 57.968382 ], [ 25.528972, 57.971694 ], [ 25.549068, 57.971915 ], [ 25.558745, 57.961402 ], [ 25.564719, 57.96317 ], [ 25.571762, 57.971807 ], [ 25.577852, 57.972655 ], [ 25.592746, 57.961316 ], [ 25.592047, 57.955942 ], [ 25.581883, 57.94403 ], [ 25.609547, 57.937477 ], [ 25.637777, 57.930789 ], [ 25.646902, 57.922717 ], [ 25.650029, 57.916443 ], [ 25.676653, 57.912391 ], [ 25.680148, 57.904539 ], [ 25.703259, 57.90332 ], [ 25.720301, 57.912913 ], [ 25.728215, 57.922225 ], [ 25.737461, 57.923771 ], [ 25.748648, 57.919246 ], [ 25.772734, 57.912466 ], [ 25.786125, 57.905677 ], [ 25.786101, 57.898273 ], [ 25.821556, 57.864959 ], [ 25.858595, 57.857656 ], [ 25.875724, 57.864471 ], [ 25.877307, 57.859092 ], [ 25.885665, 57.855794 ], [ 25.884599, 57.84977 ], [ 25.888127, 57.847054 ], [ 25.896369, 57.850588 ], [ 25.916609, 57.852245 ], [ 25.932105, 57.853141 ], [ 25.962499, 57.846263 ], [ 26.001025, 57.858841 ], [ 26.011006, 57.857647 ], [ 26.021129, 57.846693 ], [ 26.036447, 57.850064 ], [ 26.056459, 57.848431 ], [ 26.058213, 57.836878 ], [ 26.050194, 57.822495 ], [ 26.039128, 57.810507 ], [ 26.03492, 57.798843 ], [ 26.033937, 57.794604 ], [ 26.033565, 57.793586 ], [ 26.025591, 57.783742 ], [ 26.02631, 57.774715 ], [ 26.021426, 57.771253 ], [ 26.024847, 57.76912 ], [ 26.035907, 57.77083 ], [ 26.044483, 57.767446 ], [ 26.05053, 57.761961 ], [ 26.058979, 57.761297 ], [ 26.065335, 57.764232 ], [ 26.070111, 57.766437 ], [ 26.075347, 57.764806 ], [ 26.079837, 57.765814 ], [ 26.085068, 57.764819 ], [ 26.114303, 57.755919 ], [ 26.136486, 57.750237 ], [ 26.141007, 57.74515 ], [ 26.138072, 57.7394 ], [ 26.143496, 57.73344 ], [ 26.17156, 57.729497 ], [ 26.180355, 57.726818 ], [ 26.197858, 57.71976 ], [ 26.204894, 57.71494 ], [ 26.188707, 57.694976 ], [ 26.179316, 57.687608 ], [ 26.18651, 57.685391 ], [ 26.196827, 57.684796 ], [ 26.203106, 57.680942 ], [ 26.211159, 57.67936 ], [ 26.21349, 57.665532 ], [ 26.228108, 57.659134 ], [ 26.238765, 57.657424 ], [ 26.242148, 57.651425 ], [ 26.233015, 57.648009 ], [ 26.240429, 57.645605 ], [ 26.246241, 57.638735 ], [ 26.246901, 57.635865 ], [ 26.241136, 57.633787 ], [ 26.252495, 57.625941 ], [ 26.24973, 57.625202 ], [ 26.248487, 57.620916 ], [ 26.255104, 57.620812 ], [ 26.253455, 57.618555 ], [ 26.255588, 57.614654 ], [ 26.266281, 57.609002 ], [ 26.271501, 57.600842 ], [ 26.273039, 57.598438 ], [ 26.283113, 57.595546 ], [ 26.287067, 57.591975 ], [ 26.309096, 57.59311 ], [ 26.310873, 57.58838 ], [ 26.315352, 57.587271 ], [ 26.312659, 57.584673 ], [ 26.324231, 57.583405 ], [ 26.328308, 57.58016 ], [ 26.335059, 57.579631 ], [ 26.346283, 57.583669 ], [ 26.400384, 57.572546 ], [ 26.424738, 57.573369 ], [ 26.440756, 57.574158 ], [ 26.445104, 57.57437 ], [ 26.453985, 57.574804 ], [ 26.468086, 57.575482 ], [ 26.490572, 57.545959 ], [ 26.499887, 57.525074 ], [ 26.524906, 57.516247 ], [ 26.559358, 57.514841 ], [ 26.56533, 57.519456 ], [ 26.561528, 57.523338 ], [ 26.562078, 57.528102 ], [ 26.578301, 57.534068 ], [ 26.584929, 57.539143 ], [ 26.588431, 57.535992 ], [ 26.586901, 57.529887 ], [ 26.591703, 57.520402 ], [ 26.589872, 57.516927 ], [ 26.59594, 57.514554 ], [ 26.604114, 57.514301 ], [ 26.605747, 57.512061 ], [ 26.616547, 57.50931 ], [ 26.615231, 57.529429 ], [ 26.633605, 57.542838 ], [ 26.64263, 57.546861 ], [ 26.647018, 57.553305 ], [ 26.670414, 57.554338 ], [ 26.671654, 57.563672 ], [ 26.67604, 57.566322 ], [ 26.693563, 57.566502 ], [ 26.698716, 57.570663 ], [ 26.709327, 57.566661 ], [ 26.723297, 57.571858 ], [ 26.72577, 57.571278 ], [ 26.731203, 57.570002 ], [ 26.736939, 57.575803 ], [ 26.72904, 57.58025 ], [ 26.738204, 57.58711 ], [ 26.751357, 57.580724 ], [ 26.750521, 57.577805 ], [ 26.769099, 57.576637 ], [ 26.771812, 57.57303 ], [ 26.755802, 57.563387 ], [ 26.776289, 57.559984 ], [ 26.776289, 57.561008 ], [ 26.776289, 57.563045 ], [ 26.782022, 57.57212 ], [ 26.787814, 57.574877 ], [ 26.793921, 57.574335 ], [ 26.799263, 57.582371 ], [ 26.808624, 57.584239 ], [ 26.816768, 57.581871 ], [ 26.835452, 57.583406 ], [ 26.847189, 57.589169 ], [ 26.862038, 57.59273 ], [ 26.858125, 57.600353 ], [ 26.863471, 57.607885 ], [ 26.858784, 57.610113 ], [ 26.865604, 57.615942 ], [ 26.873086, 57.618197 ], [ 26.879902, 57.62025 ], [ 26.895752, 57.626 ], [ 26.905525, 57.63258 ], [ 26.926342, 57.633293 ], [ 26.930036, 57.624316 ], [ 26.940297, 57.62025 ], [ 26.950399, 57.61958 ], [ 26.950478, 57.615364 ], [ 26.940698, 57.608914 ], [ 26.945795, 57.603282 ], [ 26.960056, 57.605928 ], [ 26.970207, 57.605215 ], [ 26.977218, 57.612458 ], [ 26.987875, 57.609608 ], [ 26.992555, 57.61014 ], [ 26.996712, 57.604715 ], [ 27.031049, 57.604271 ], [ 27.044065, 57.596388 ], [ 27.041159, 57.588046 ], [ 27.035185, 57.584952 ], [ 27.048513, 57.580879 ], [ 27.057394, 57.58223 ], [ 27.069986, 57.580644 ], [ 27.074336, 57.57736 ], [ 27.086314, 57.576581 ], [ 27.089022, 57.574473 ], [ 27.102678, 57.565937 ], [ 27.125976, 57.561758 ], [ 27.148209, 57.560982 ], [ 27.162109, 57.560206 ], [ 27.19403, 57.550888 ], [ 27.224744, 57.554416 ], [ 27.246086, 57.549046 ], [ 27.259963, 57.550206 ], [ 27.264722, 57.548591 ], [ 27.266807, 57.54467 ], [ 27.275552, 57.54327 ], [ 27.280953, 57.537903 ], [ 27.29804, 57.539173 ], [ 27.325258, 57.524004 ], [ 27.345967, 57.521867 ], [ 27.350638, 57.517714 ], [ 27.351579, 57.518237 ] ] ], [ [ [ 26.781096, 57.576213 ], [ 26.778468, 57.58062 ], [ 26.782486, 57.580697 ], [ 26.781957, 57.57861 ], [ 26.786822, 57.576241 ], [ 26.785942, 57.575413 ], [ 26.781096, 57.576213 ] ] ] ] } }
]
}
