{
"type": "FeatureCollection",
"name": "Lebanon",
"crs": { "type": "name", "properties": { "name": "urn:ogc:def:crs:OGC:1.3:CRS84" } },
"features": [
{ "type": "Feature", "properties": { "id": "LB", "CNTR_ID": "LB", "CNTR_NAME": "لبنان", "NAME_ENGL": "Lebanon", "ISO3_CODE": "LBN", "FID": "LB" }, "geometry": { "type": "MultiPolygon", "coordinates": [ [ [ [ 35.103415, 33.093603 ], [ 35.112658, 33.112026 ], [ 35.132112, 33.123144 ], [ 35.144161, 33.127864 ], [ 35.150897, 33.134142 ], [ 35.168306, 33.164007 ], [ 35.174616, 33.165031 ], [ 35.187037, 33.172981 ], [ 35.195876, 33.194369 ], [ 35.204109, 33.201667 ], [ 35.212581, 33.248469 ], [ 35.207211, 33.262013 ], [ 35.202695, 33.265821 ], [ 35.19287, 33.26817 ], [ 35.192724, 33.274303 ], [ 35.199269, 33.274362 ], [ 35.214442, 33.280427 ], [ 35.222051, 33.306522 ], [ 35.232695, 33.31851 ], [ 35.242745, 33.335552 ], [ 35.257801, 33.396065 ], [ 35.280071, 33.45039 ], [ 35.290583, 33.463038 ], [ 35.319205, 33.479052 ], [ 35.355876, 33.520331 ], [ 35.361076, 33.533584 ], [ 35.365208, 33.557728 ], [ 35.382423, 33.581018 ], [ 35.388987, 33.606524 ], [ 35.395324, 33.607565 ], [ 35.400199, 33.614806 ], [ 35.399876, 33.648313 ], [ 35.416257, 33.65765 ], [ 35.417119, 33.690766 ], [ 35.420483, 33.695201 ], [ 35.440696, 33.706718 ], [ 35.444623, 33.718173 ], [ 35.445992, 33.739946 ], [ 35.471219, 33.78317 ], [ 35.475773, 33.79097 ], [ 35.48301, 33.814042 ], [ 35.481608, 33.872143 ], [ 35.478395, 33.880592 ], [ 35.471219, 33.887804 ], [ 35.468408, 33.891022 ], [ 35.469789, 33.899781 ], [ 35.471219, 33.900556 ], [ 35.48396, 33.904174 ], [ 35.526006, 33.902874 ], [ 35.539506, 33.906326 ], [ 35.558508, 33.900343 ], [ 35.572637, 33.905234 ], [ 35.581251, 33.922437 ], [ 35.587432, 33.943145 ], [ 35.613995, 33.986189 ], [ 35.634686, 33.987413 ], [ 35.640149, 33.991968 ], [ 35.642848, 34.004111 ], [ 35.641382, 34.011737 ], [ 35.625091, 34.013968 ], [ 35.622253, 34.021903 ], [ 35.628341, 34.045091 ], [ 35.640106, 34.057188 ], [ 35.649441, 34.086423 ], [ 35.65112, 34.104177 ], [ 35.648221, 34.113175 ], [ 35.641886, 34.119292 ], [ 35.641632, 34.135735 ], [ 35.628312, 34.142252 ], [ 35.626421, 34.149008 ], [ 35.630704, 34.156106 ], [ 35.632685, 34.190642 ], [ 35.637986, 34.20321 ], [ 35.648123, 34.212637 ], [ 35.658996, 34.241879 ], [ 35.655283, 34.252316 ], [ 35.657442, 34.264433 ], [ 35.653439, 34.272895 ], [ 35.654453, 34.283019 ], [ 35.663756, 34.287362 ], [ 35.673417, 34.305671 ], [ 35.689873, 34.318726 ], [ 35.705448, 34.316923 ], [ 35.714757, 34.312128 ], [ 35.718637, 34.312897 ], [ 35.719775, 34.320668 ], [ 35.72948, 34.338644 ], [ 35.727822, 34.344946 ], [ 35.730811, 34.353164 ], [ 35.728177, 34.36068 ], [ 35.733157, 34.361897 ], [ 35.736854, 34.377758 ], [ 35.74428, 34.378899 ], [ 35.752946, 34.384021 ], [ 35.772361, 34.38655 ], [ 35.800935, 34.398251 ], [ 35.818621, 34.410325 ], [ 35.820919, 34.418753 ], [ 35.818968, 34.422796 ], [ 35.811486, 34.434899 ], [ 35.812926, 34.445105 ], [ 35.806797, 34.44999 ], [ 35.809276, 34.456227 ], [ 35.816089, 34.454975 ], [ 35.819721, 34.458469 ], [ 35.828503, 34.457102 ], [ 35.834719, 34.460425 ], [ 35.8439, 34.458635 ], [ 35.906876, 34.474185 ], [ 35.930091, 34.487045 ], [ 35.957573, 34.516481 ], [ 35.985085, 34.527367 ], [ 35.991839, 34.552738 ], [ 35.992026, 34.570468 ], [ 35.985203, 34.604006 ], [ 35.975583, 34.63341 ], [ 35.978497, 34.643365 ], [ 35.986748, 34.649623 ], [ 35.994932, 34.644968 ], [ 36.00769, 34.643268 ], [ 36.038769, 34.628892 ], [ 36.049454, 34.629391 ], [ 36.0632, 34.63367 ], [ 36.07315, 34.630944 ], [ 36.090407, 34.631027 ], [ 36.125733, 34.640001 ], [ 36.169878, 34.630078 ], [ 36.194711, 34.63638 ], [ 36.22485, 34.627703 ], [ 36.234828, 34.628525 ], [ 36.24563, 34.633178 ], [ 36.264286, 34.628483 ], [ 36.276181, 34.62879 ], [ 36.290226, 34.632719 ], [ 36.299853, 34.641373 ], [ 36.305711, 34.655221 ], [ 36.305948, 34.672234 ], [ 36.311957, 34.680577 ], [ 36.322897, 34.683815 ], [ 36.334594, 34.682105 ], [ 36.343613, 34.67746 ], [ 36.358099, 34.651729 ], [ 36.386829, 34.631352 ], [ 36.404766, 34.62893 ], [ 36.42728, 34.617477 ], [ 36.453021, 34.632042 ], [ 36.461325, 34.633114 ], [ 36.459615, 34.60323 ], [ 36.45407, 34.593093 ], [ 36.436535, 34.59231 ], [ 36.421462, 34.606081 ], [ 36.413636, 34.608025 ], [ 36.408367, 34.606488 ], [ 36.403473, 34.586176 ], [ 36.413737, 34.568582 ], [ 36.41391, 34.560135 ], [ 36.386829, 34.545555 ], [ 36.366037, 34.534358 ], [ 36.333843, 34.522596 ], [ 36.330404, 34.516191 ], [ 36.331749, 34.509505 ], [ 36.342265, 34.500082 ], [ 36.359792, 34.502616 ], [ 36.37387, 34.4991 ], [ 36.386829, 34.499935 ], [ 36.417329, 34.509889 ], [ 36.442427, 34.506743 ], [ 36.447703, 34.487733 ], [ 36.45776, 34.478131 ], [ 36.465262, 34.46489 ], [ 36.494971, 34.451237 ], [ 36.507407, 34.448122 ], [ 36.523889, 34.432689 ], [ 36.550611, 34.421087 ], [ 36.554918, 34.409958 ], [ 36.553077, 34.398797 ], [ 36.533627, 34.369425 ], [ 36.55889, 34.333105 ], [ 36.564152, 34.31821 ], [ 36.589535, 34.311963 ], [ 36.598942, 34.304763 ], [ 36.598238, 34.295337 ], [ 36.580212, 34.280391 ], [ 36.577561, 34.270597 ], [ 36.584688, 34.251731 ], [ 36.588661, 34.229386 ], [ 36.608644, 34.21717 ], [ 36.62134, 34.202204 ], [ 36.594899, 34.1831 ], [ 36.583905, 34.164997 ], [ 36.571092, 34.153464 ], [ 36.567424, 34.137551 ], [ 36.545643, 34.126637 ], [ 36.531965, 34.109835 ], [ 36.516017, 34.095851 ], [ 36.514768, 34.07682 ], [ 36.507592, 34.058502 ], [ 36.509827, 34.048207 ], [ 36.501595, 34.045747 ], [ 36.495502, 34.037428 ], [ 36.487848, 34.044125 ], [ 36.473472, 34.040838 ], [ 36.429214, 34.05196 ], [ 36.417234, 34.044198 ], [ 36.406262, 34.041327 ], [ 36.403137, 34.029878 ], [ 36.392165, 34.026197 ], [ 36.386829, 34.017405 ], [ 36.382682, 34.009734 ], [ 36.371925, 34.003684 ], [ 36.364794, 33.995942 ], [ 36.352439, 33.991618 ], [ 36.32867, 33.968881 ], [ 36.318547, 33.953754 ], [ 36.306806, 33.944744 ], [ 36.291062, 33.921324 ], [ 36.287168, 33.902908 ], [ 36.310405, 33.89303 ], [ 36.323477, 33.87743 ], [ 36.336501, 33.873945 ], [ 36.362464, 33.872179 ], [ 36.372143, 33.861147 ], [ 36.386829, 33.851213 ], [ 36.38992, 33.843367 ], [ 36.389206, 33.835475 ], [ 36.386829, 33.832237 ], [ 36.377046, 33.822648 ], [ 36.36424, 33.819357 ], [ 36.327889, 33.82547 ], [ 36.309068, 33.833961 ], [ 36.292112, 33.836133 ], [ 36.275637, 33.845874 ], [ 36.249271, 33.852154 ], [ 36.24339, 33.849707 ], [ 36.234549, 33.836656 ], [ 36.222479, 33.834536 ], [ 36.213852, 33.828977 ], [ 36.199038, 33.829102 ], [ 36.173742, 33.834783 ], [ 36.163331, 33.849488 ], [ 36.156893, 33.851937 ], [ 36.140574, 33.838139 ], [ 36.115389, 33.832426 ], [ 36.100837, 33.819721 ], [ 36.089602, 33.816767 ], [ 36.077998, 33.821146 ], [ 36.070327, 33.819522 ], [ 36.057866, 33.804463 ], [ 36.046404, 33.782587 ], [ 36.034692, 33.770029 ], [ 36.013226, 33.765541 ], [ 36.001015, 33.748519 ], [ 35.991779, 33.723874 ], [ 35.973604, 33.708412 ], [ 35.975232, 33.695414 ], [ 35.968925, 33.680481 ], [ 35.947904, 33.665959 ], [ 35.933581, 33.645282 ], [ 35.941137, 33.637373 ], [ 35.952797, 33.633778 ], [ 35.977822, 33.635512 ], [ 36.000806, 33.616892 ], [ 36.024274, 33.61182 ], [ 36.054629, 33.590098 ], [ 36.060869, 33.581163 ], [ 36.05969, 33.57211 ], [ 36.028539, 33.542083 ], [ 36.014504, 33.540946 ], [ 35.993612, 33.533657 ], [ 35.975485, 33.534809 ], [ 35.945609, 33.521318 ], [ 35.939997, 33.51299 ], [ 35.949378, 33.500356 ], [ 35.944211, 33.468767 ], [ 35.897575, 33.433618 ], [ 35.849241, 33.410554 ], [ 35.8276, 33.397224 ], [ 35.819624, 33.385057 ], [ 35.81543, 33.360475 ], [ 35.799859, 33.349015 ], [ 35.779103, 33.337176 ], [ 35.749868, 33.326904 ], [ 35.72744, 33.327989 ], [ 35.720064, 33.326296 ], [ 35.713778, 33.320564 ], [ 35.706419, 33.303922 ], [ 35.686003, 33.293625 ], [ 35.662464, 33.277423 ], [ 35.6423, 33.278553 ], [ 35.624954, 33.272353 ], [ 35.621542, 33.256549 ], [ 35.624445, 33.24235 ], [ 35.598903, 33.254275 ], [ 35.585092, 33.266668 ], [ 35.583603, 33.282259 ], [ 35.568923, 33.28979 ], [ 35.565876, 33.288945 ], [ 35.563508, 33.272896 ], [ 35.555331, 33.258837 ], [ 35.546631, 33.253757 ], [ 35.545968, 33.238575 ], [ 35.537618, 33.23112 ], [ 35.53713, 33.209681 ], [ 35.541906, 33.197089 ], [ 35.527126, 33.14085 ], [ 35.531281, 33.13308 ], [ 35.52473, 33.123144 ], [ 35.519889, 33.116278 ], [ 35.505645, 33.115834 ], [ 35.5024, 33.113939 ], [ 35.503563, 33.08957 ], [ 35.489723, 33.092448 ], [ 35.471219, 33.09286 ], [ 35.463442, 33.093033 ], [ 35.44596, 33.090668 ], [ 35.430896, 33.065846 ], [ 35.395829, 33.060891 ], [ 35.382022, 33.062345 ], [ 35.378014, 33.055021 ], [ 35.354362, 33.057353 ], [ 35.348459, 33.059533 ], [ 35.3438, 33.065362 ], [ 35.338769, 33.068041 ], [ 35.333996, 33.07635 ], [ 35.325022, 33.082093 ], [ 35.320842, 33.087801 ], [ 35.324551, 33.095784 ], [ 35.317246, 33.104873 ], [ 35.309349, 33.100801 ], [ 35.301119, 33.100513 ], [ 35.29943, 33.104991 ], [ 35.294278, 33.108018 ], [ 35.280987, 33.101026 ], [ 35.270389, 33.100165 ], [ 35.23895, 33.092297 ], [ 35.232149, 33.093382 ], [ 35.226618, 33.098474 ], [ 35.211772, 33.099845 ], [ 35.206778, 33.094335 ], [ 35.208535, 33.090954 ], [ 35.206778, 33.088324 ], [ 35.193358, 33.085249 ], [ 35.19008, 33.089299 ], [ 35.18566, 33.089642 ], [ 35.178179, 33.094019 ], [ 35.172704, 33.093748 ], [ 35.16912, 33.090897 ], [ 35.16009, 33.088725 ], [ 35.155591, 33.086069 ], [ 35.155694, 33.091527 ], [ 35.135064, 33.091138 ], [ 35.122922, 33.092273 ], [ 35.118575, 33.092679 ], [ 35.115037, 33.093009 ], [ 35.103415, 33.093603 ] ] ] ] } }
]
}
