{
"type": "FeatureCollection",
"name": "Lesotho",
"crs": { "type": "name", "properties": { "name": "urn:ogc:def:crs:OGC:1.3:CRS84" } },
"features": [
{ "type": "Feature", "properties": { "id": "LS", "CNTR_ID": "LS", "CNTR_NAME": "Lesotho-Lesotho", "NAME_ENGL": "Lesotho", "ISO3_CODE": "LSO", "FID": "LS" }, "geometry": { "type": "MultiPolygon", "coordinates": [ [ [ [ 27.029823, -29.617129 ], [ 27.033156, -29.612265 ], [ 27.042852, -29.612501 ], [ 27.059981, -29.628936 ], [ 27.066792, -29.63072 ], [ 27.0719, -29.624443 ], [ 27.07629, -29.59819 ], [ 27.081134, -29.595681 ], [ 27.086018, -29.59674 ], [ 27.093209, -29.606729 ], [ 27.116926, -29.596713 ], [ 27.124003, -29.578316 ], [ 27.130619, -29.571037 ], [ 27.136655, -29.567994 ], [ 27.148896, -29.566737 ], [ 27.163436, -29.556187 ], [ 27.178085, -29.555791 ], [ 27.20704, -29.561498 ], [ 27.212688, -29.558162 ], [ 27.217819, -29.549093 ], [ 27.234145, -29.54025 ], [ 27.253333, -29.547934 ], [ 27.263829, -29.542435 ], [ 27.270327, -29.530877 ], [ 27.277459, -29.525595 ], [ 27.29011, -29.522875 ], [ 27.307966, -29.526766 ], [ 27.313864, -29.525286 ], [ 27.312826, -29.504325 ], [ 27.317767, -29.490656 ], [ 27.337862, -29.479959 ], [ 27.359292, -29.481371 ], [ 27.367896, -29.477104 ], [ 27.369643, -29.456959 ], [ 27.384778, -29.445545 ], [ 27.407097, -29.41351 ], [ 27.430753, -29.40464 ], [ 27.432671, -29.398812 ], [ 27.43055, -29.389691 ], [ 27.415492, -29.367823 ], [ 27.423164, -29.363763 ], [ 27.443396, -29.367383 ], [ 27.450271, -29.329902 ], [ 27.455844, -29.324623 ], [ 27.476945, -29.314644 ], [ 27.476486, -29.309172 ], [ 27.462323, -29.297455 ], [ 27.463165, -29.291353 ], [ 27.471823, -29.287528 ], [ 27.49854, -29.28836 ], [ 27.504593, -29.279223 ], [ 27.52589, -29.27089 ], [ 27.544749, -29.25488 ], [ 27.549425, -29.247708 ], [ 27.54642, -29.238289 ], [ 27.532099, -29.231002 ], [ 27.530388, -29.216174 ], [ 27.580449, -29.17695 ], [ 27.587394, -29.169197 ], [ 27.590655, -29.165555 ], [ 27.607429, -29.164622 ], [ 27.618724, -29.159072 ], [ 27.622983, -29.15088 ], [ 27.617953, -29.130138 ], [ 27.633897, -29.12677 ], [ 27.641386, -29.120919 ], [ 27.645937, -29.111725 ], [ 27.659591, -29.10699 ], [ 27.662821, -29.09709 ], [ 27.662257, -29.085159 ], [ 27.658785, -29.081437 ], [ 27.649463, -29.080155 ], [ 27.649145, -29.077032 ], [ 27.654149, -29.075526 ], [ 27.674336, -29.079657 ], [ 27.681217, -29.075652 ], [ 27.678066, -29.06226 ], [ 27.671694, -29.056879 ], [ 27.652753, -29.050874 ], [ 27.650099, -29.044507 ], [ 27.658539, -29.040949 ], [ 27.671737, -29.043503 ], [ 27.68159, -29.041876 ], [ 27.68379, -29.026189 ], [ 27.697108, -29.018717 ], [ 27.68923, -29.005935 ], [ 27.691119, -29.002719 ], [ 27.702075, -29.002415 ], [ 27.716078, -29.006133 ], [ 27.724297, -29.005675 ], [ 27.728267, -29.002249 ], [ 27.728636, -28.998169 ], [ 27.725882, -28.994648 ], [ 27.71941, -28.986371 ], [ 27.720627, -28.982198 ], [ 27.731314, -28.97485 ], [ 27.731427, -28.95191 ], [ 27.74346, -28.940833 ], [ 27.745391, -28.94075 ], [ 27.763541, -28.939978 ], [ 27.766728, -28.92932 ], [ 27.773387, -28.920953 ], [ 27.770354, -28.911235 ], [ 27.757195, -28.901238 ], [ 27.759451, -28.896299 ], [ 27.765455, -28.895683 ], [ 27.778685, -28.902674 ], [ 27.791801, -28.906126 ], [ 27.809598, -28.916303 ], [ 27.824492, -28.91475 ], [ 27.836698, -28.900474 ], [ 27.856921, -28.901515 ], [ 27.874683, -28.9143 ], [ 27.88989, -28.914381 ], [ 27.905318, -28.903807 ], [ 27.900388, -28.884168 ], [ 27.915203, -28.880102 ], [ 27.922715, -28.867369 ], [ 27.943882, -28.85187 ], [ 27.956345, -28.852219 ], [ 27.966931, -28.856868 ], [ 27.975248, -28.871642 ], [ 27.981932, -28.877791 ], [ 28.006597, -28.873014 ], [ 28.02447, -28.876895 ], [ 28.036135, -28.876677 ], [ 28.03916, -28.872404 ], [ 28.034709, -28.858105 ], [ 28.056372, -28.844664 ], [ 28.06001, -28.838881 ], [ 28.05989, -28.834495 ], [ 28.059354, -28.814916 ], [ 28.082155, -28.808009 ], [ 28.088737, -28.791942 ], [ 28.096423, -28.784288 ], [ 28.103884, -28.768879 ], [ 28.117715, -28.757205 ], [ 28.122595, -28.742438 ], [ 28.135539, -28.738573 ], [ 28.152244, -28.720294 ], [ 28.162131, -28.715312 ], [ 28.171593, -28.703318 ], [ 28.180521, -28.69972 ], [ 28.189838, -28.691051 ], [ 28.19364, -28.690717 ], [ 28.199694, -28.702229 ], [ 28.207284, -28.705327 ], [ 28.248193, -28.694313 ], [ 28.256423, -28.694799 ], [ 28.265634, -28.70092 ], [ 28.292049, -28.707287 ], [ 28.317751, -28.69724 ], [ 28.330465, -28.69914 ], [ 28.346407, -28.694789 ], [ 28.363196, -28.697766 ], [ 28.372426, -28.692314 ], [ 28.368172, -28.686587 ], [ 28.374237, -28.662665 ], [ 28.399288, -28.640338 ], [ 28.40764, -28.624726 ], [ 28.41393, -28.619397 ], [ 28.426734, -28.618092 ], [ 28.470536, -28.603225 ], [ 28.490469, -28.605347 ], [ 28.503118, -28.603299 ], [ 28.51071, -28.607941 ], [ 28.529255, -28.599342 ], [ 28.542159, -28.602437 ], [ 28.559287, -28.600509 ], [ 28.585628, -28.60281 ], [ 28.600282, -28.596174 ], [ 28.613893, -28.595758 ], [ 28.628522, -28.582237 ], [ 28.6534, -28.572436 ], [ 28.668622, -28.574635 ], [ 28.678383, -28.57964 ], [ 28.700248, -28.6011 ], [ 28.704726, -28.610196 ], [ 28.714459, -28.666278 ], [ 28.720823, -28.678009 ], [ 28.737604, -28.687458 ], [ 28.765859, -28.687378 ], [ 28.808344, -28.70353 ], [ 28.816737, -28.722557 ], [ 28.815636, -28.735964 ], [ 28.822005, -28.751061 ], [ 28.829937, -28.757629 ], [ 28.856733, -28.756809 ], [ 28.869406, -28.759452 ], [ 28.915352, -28.795142 ], [ 28.943173, -28.834495 ], [ 28.955291, -28.851631 ], [ 28.964091, -28.877071 ], [ 28.999098, -28.912492 ], [ 29.005492, -28.914088 ], [ 29.019963, -28.908364 ], [ 29.03027, -28.910089 ], [ 29.073989, -28.936527 ], [ 29.077237, -28.94298 ], [ 29.074095, -28.961345 ], [ 29.08165, -28.971622 ], [ 29.105124, -28.982536 ], [ 29.133683, -28.987997 ], [ 29.139515, -28.989112 ], [ 29.148568, -28.994648 ], [ 29.152225, -28.996884 ], [ 29.167208, -29.010953 ], [ 29.204583, -29.021991 ], [ 29.219482, -29.029699 ], [ 29.224303, -29.036037 ], [ 29.224267, -29.046315 ], [ 29.228728, -29.056494 ], [ 29.261138, -29.088351 ], [ 29.26951, -29.089436 ], [ 29.281338, -29.080954 ], [ 29.292534, -29.077827 ], [ 29.322765, -29.084249 ], [ 29.338941, -29.09362 ], [ 29.347394, -29.108978 ], [ 29.344018, -29.145953 ], [ 29.350197, -29.155375 ], [ 29.366224, -29.164933 ], [ 29.368641, -29.169197 ], [ 29.370936, -29.173246 ], [ 29.384045, -29.183753 ], [ 29.391559, -29.195007 ], [ 29.405017, -29.232173 ], [ 29.4101, -29.246206 ], [ 29.419244, -29.25779 ], [ 29.435826, -29.271311 ], [ 29.445049, -29.286451 ], [ 29.445375, -29.294074 ], [ 29.439563, -29.309913 ], [ 29.441602, -29.320063 ], [ 29.459639, -29.333163 ], [ 29.465367, -29.351397 ], [ 29.450884, -29.366727 ], [ 29.450448, -29.385109 ], [ 29.44684, -29.397194 ], [ 29.436268, -29.411572 ], [ 29.427059, -29.431692 ], [ 29.405017, -29.440505 ], [ 29.400187, -29.442436 ], [ 29.383123, -29.444455 ], [ 29.350374, -29.455794 ], [ 29.341583, -29.464095 ], [ 29.333491, -29.478983 ], [ 29.322598, -29.484118 ], [ 29.313573, -29.484317 ], [ 29.305879, -29.490541 ], [ 29.304845, -29.495941 ], [ 29.31134, -29.527175 ], [ 29.304453, -29.546976 ], [ 29.304982, -29.561938 ], [ 29.327033, -29.572941 ], [ 29.331516, -29.579073 ], [ 29.322853, -29.585787 ], [ 29.302126, -29.587193 ], [ 29.296046, -29.590673 ], [ 29.300978, -29.606909 ], [ 29.299858, -29.623492 ], [ 29.296577, -29.628881 ], [ 29.289037, -29.632327 ], [ 29.266648, -29.633365 ], [ 29.242968, -29.638888 ], [ 29.224214, -29.647479 ], [ 29.210447, -29.660222 ], [ 29.184734, -29.665178 ], [ 29.178372, -29.675437 ], [ 29.17741, -29.690215 ], [ 29.176903, -29.697995 ], [ 29.15002, -29.72029 ], [ 29.147835, -29.728631 ], [ 29.156527, -29.750973 ], [ 29.149413, -29.763831 ], [ 29.148807, -29.790292 ], [ 29.145657, -29.805092 ], [ 29.133683, -29.827611 ], [ 29.131211, -29.841999 ], [ 29.133683, -29.849899 ], [ 29.135296, -29.853903 ], [ 29.157316, -29.865887 ], [ 29.174265, -29.912859 ], [ 29.168716, -29.92726 ], [ 29.157698, -29.93393 ], [ 29.133683, -29.936148 ], [ 29.127843, -29.936687 ], [ 29.120184, -29.943625 ], [ 29.114506, -29.963544 ], [ 29.109138, -29.963845 ], [ 29.098228, -29.957146 ], [ 29.092186, -29.958157 ], [ 29.058655, -29.982765 ], [ 29.049782, -29.989275 ], [ 28.952468, -30.037684 ], [ 28.90456, -30.066955 ], [ 28.879095, -30.075444 ], [ 28.864705, -30.086908 ], [ 28.848928, -30.094207 ], [ 28.813006, -30.09954 ], [ 28.797963, -30.108678 ], [ 28.787199, -30.111654 ], [ 28.761961, -30.108947 ], [ 28.748487, -30.111018 ], [ 28.682253, -30.138053 ], [ 28.66736, -30.138565 ], [ 28.640785, -30.13316 ], [ 28.622911, -30.136002 ], [ 28.602497, -30.132031 ], [ 28.573813, -30.120558 ], [ 28.557321, -30.118447 ], [ 28.518298, -30.145559 ], [ 28.501925, -30.146777 ], [ 28.474978, -30.156368 ], [ 28.459003, -30.155411 ], [ 28.413165, -30.141401 ], [ 28.398628, -30.147271 ], [ 28.374402, -30.165748 ], [ 28.368977, -30.17971 ], [ 28.361189, -30.204064 ], [ 28.328942, -30.233721 ], [ 28.316446, -30.252375 ], [ 28.2718, -30.255814 ], [ 28.245301, -30.263358 ], [ 28.222988, -30.287152 ], [ 28.221514, -30.294103 ], [ 28.224385, -30.298242 ], [ 28.246685, -30.311024 ], [ 28.262137, -30.324639 ], [ 28.265509, -30.342412 ], [ 28.27821, -30.354972 ], [ 28.279221, -30.362304 ], [ 28.269097, -30.383746 ], [ 28.241105, -30.410508 ], [ 28.225917, -30.41963 ], [ 28.199221, -30.426971 ], [ 28.183226, -30.441472 ], [ 28.161038, -30.452565 ], [ 28.155965, -30.458042 ], [ 28.159778, -30.46635 ], [ 28.183484, -30.48599 ], [ 28.185486, -30.493158 ], [ 28.174623, -30.505712 ], [ 28.170995, -30.514398 ], [ 28.160767, -30.561342 ], [ 28.144555, -30.576948 ], [ 28.126236, -30.585842 ], [ 28.114891, -30.601484 ], [ 28.111141, -30.619152 ], [ 28.114268, -30.646623 ], [ 28.118888, -30.662028 ], [ 28.117456, -30.668029 ], [ 28.109578, -30.664748 ], [ 28.09786, -30.653156 ], [ 28.089322, -30.649737 ], [ 28.047835, -30.659718 ], [ 28.020179, -30.655919 ], [ 27.999894, -30.656036 ], [ 27.929216, -30.641643 ], [ 27.921266, -30.633211 ], [ 27.912497, -30.610359 ], [ 27.896347, -30.597865 ], [ 27.889545, -30.59875 ], [ 27.873306, -30.609012 ], [ 27.864824, -30.61102 ], [ 27.781693, -30.60211 ], [ 27.750243, -30.594232 ], [ 27.745391, -30.590148 ], [ 27.735441, -30.581772 ], [ 27.723869, -30.562735 ], [ 27.705848, -30.547794 ], [ 27.69848, -30.532142 ], [ 27.687667, -30.521174 ], [ 27.646569, -30.502359 ], [ 27.620646, -30.482713 ], [ 27.618548, -30.477593 ], [ 27.621404, -30.466502 ], [ 27.612464, -30.450401 ], [ 27.604285, -30.445728 ], [ 27.59263, -30.445488 ], [ 27.586768, -30.442403 ], [ 27.57104, -30.400913 ], [ 27.559174, -30.385479 ], [ 27.543456, -30.378558 ], [ 27.514366, -30.376772 ], [ 27.504593, -30.367668 ], [ 27.500154, -30.359618 ], [ 27.482372, -30.341598 ], [ 27.480517, -30.333602 ], [ 27.482514, -30.319943 ], [ 27.475557, -30.311529 ], [ 27.463279, -30.311796 ], [ 27.43141, -30.319807 ], [ 27.408919, -30.331335 ], [ 27.39492, -30.329784 ], [ 27.394202, -30.320298 ], [ 27.40576, -30.309459 ], [ 27.406287, -30.305777 ], [ 27.390942, -30.294972 ], [ 27.396132, -30.286836 ], [ 27.395023, -30.28067 ], [ 27.374812, -30.269467 ], [ 27.372971, -30.246517 ], [ 27.37873, -30.201427 ], [ 27.388496, -30.193378 ], [ 27.398386, -30.19002 ], [ 27.395698, -30.178405 ], [ 27.408949, -30.171829 ], [ 27.415044, -30.150632 ], [ 27.408308, -30.143576 ], [ 27.402293, -30.141972 ], [ 27.341129, -30.151764 ], [ 27.335724, -30.150295 ], [ 27.311945, -30.068642 ], [ 27.255275, -30.014577 ], [ 27.236959, -30.002959 ], [ 27.225279, -29.982765 ], [ 27.222221, -29.977477 ], [ 27.206683, -29.937724 ], [ 27.123447, -29.7558 ], [ 27.085566, -29.707452 ], [ 27.062695, -29.690215 ], [ 27.053788, -29.683502 ], [ 27.030065, -29.646937 ], [ 27.036867, -29.633755 ], [ 27.029823, -29.617129 ] ] ] ] } }
]
}
