{
"type": "FeatureCollection",
"name": "Libya",
"crs": { "type": "name", "properties": { "name": "urn:ogc:def:crs:OGC:1.3:CRS84" } },
"features": [
{ "type": "Feature", "properties": { "id": "LY", "CNTR_ID": "LY", "CNTR_NAME": "دولة ليبيا", "NAME_ENGL": "Libya", "ISO3_CODE": "LBY", "FID": "LY" }, "geometry": { "type": "MultiPolygon", "coordinates": [ [ [ [ 25.0, 22.0 ], [ 24.999994, 21.588081 ], [ 24.99999, 21.301333 ], [ 24.99997, 19.998054 ], [ 24.000097, 19.997894 ], [ 24.0, 19.5 ], [ 23.925816, 19.536683 ], [ 23.466922, 19.763418 ], [ 22.857783, 20.063889 ], [ 22.776427, 20.103976 ], [ 22.5, 20.240425 ], [ 22.473127, 20.253658 ], [ 21.984109, 20.494271 ], [ 21.20811, 20.875313 ], [ 20.980026, 20.987127 ], [ 20.341955, 21.301333 ], [ 20.324787, 21.309803 ], [ 20.085303, 21.427909 ], [ 19.740556, 21.597759 ], [ 19.642215, 21.646174 ], [ 19.18635, 21.870388 ], [ 19.093425, 21.916157 ], [ 18.973126, 21.975386 ], [ 18.387426, 22.265035 ], [ 17.918411, 22.496547 ], [ 17.58537, 22.660707 ], [ 16.802958, 23.045592 ], [ 16.467525, 23.210264 ], [ 15.99942, 23.438827 ], [ 14.998419, 22.997183 ], [ 14.997852, 22.999234 ], [ 14.995724, 23.001815 ], [ 14.97259, 22.993053 ], [ 14.961037, 22.986566 ], [ 14.901709, 22.960716 ], [ 14.897489, 22.956391 ], [ 14.883103, 22.949967 ], [ 14.877655, 22.949632 ], [ 14.866002, 22.944476 ], [ 14.861207, 22.944008 ], [ 14.811773, 22.92074 ], [ 14.70357, 22.874203 ], [ 14.698618, 22.870564 ], [ 14.685543, 22.865921 ], [ 14.612935, 22.832778 ], [ 14.605455, 22.828013 ], [ 14.589217, 22.822186 ], [ 14.572547, 22.814698 ], [ 14.543457, 22.80163 ], [ 14.521017, 22.793446 ], [ 14.517246, 22.790244 ], [ 14.514089, 22.788786 ], [ 14.451273, 22.759786 ], [ 14.415654, 22.746889 ], [ 14.411242, 22.743263 ], [ 14.382155, 22.730876 ], [ 14.376824, 22.727139 ], [ 14.189329, 22.644552 ], [ 14.175695, 22.655458 ], [ 14.161511, 22.670657 ], [ 14.151695, 22.675602 ], [ 14.146061, 22.682117 ], [ 14.133501, 22.692778 ], [ 14.126958, 22.696337 ], [ 14.061141, 22.751423 ], [ 14.026483, 22.782481 ], [ 14.024968, 22.783629 ], [ 14.001631, 22.801298 ], [ 13.939977, 22.85391 ], [ 13.922338, 22.866806 ], [ 13.917219, 22.872846 ], [ 13.879623, 22.90487 ], [ 13.776485, 22.992073 ], [ 13.748839, 23.012589 ], [ 13.743242, 23.019049 ], [ 13.69374, 23.05963 ], [ 13.680318, 23.07229 ], [ 13.646747, 23.095258 ], [ 13.631783, 23.105494 ], [ 13.545008, 23.15684 ], [ 13.53988, 23.158096 ], [ 13.523512, 23.166827 ], [ 13.480581, 23.186127 ], [ 13.411843, 23.210002 ], [ 13.407682, 23.213451 ], [ 13.397984, 23.217502 ], [ 13.383329, 23.217866 ], [ 13.374833, 23.221788 ], [ 13.310321, 23.234312 ], [ 13.241617, 23.251503 ], [ 13.222771, 23.253586 ], [ 13.199006, 23.26026 ], [ 13.187768, 23.260744 ], [ 13.049659, 23.291513 ], [ 13.029573, 23.294896 ], [ 13.018613, 23.298743 ], [ 13.006669, 23.300089 ], [ 12.977551, 23.306399 ], [ 12.789957, 23.347042 ], [ 12.769656, 23.348357 ], [ 12.766308, 23.351927 ], [ 12.75564, 23.353935 ], [ 12.745044, 23.357732 ], [ 12.728433, 23.359821 ], [ 12.646338, 23.377968 ], [ 12.622825, 23.381873 ], [ 12.614221, 23.385331 ], [ 12.584481, 23.390365 ], [ 12.575989, 23.393787 ], [ 12.567529, 23.394527 ], [ 12.545072, 23.399187 ], [ 12.434989, 23.422027 ], [ 12.385008, 23.43493 ], [ 12.376877, 23.435024 ], [ 12.230555, 23.466845 ], [ 12.158749, 23.481414 ], [ 12.156926, 23.481323 ], [ 12.152851, 23.481121 ], [ 12.121934, 23.48943 ], [ 12.109458, 23.490263 ], [ 12.078581, 23.499075 ], [ 11.9985, 23.512696 ], [ 11.608962, 24.259566 ], [ 11.604177, 24.259915 ], [ 11.589618, 24.252697 ], [ 11.560481, 24.250832 ], [ 11.506374, 24.223961 ], [ 11.468171, 24.214825 ], [ 11.424398, 24.199738 ], [ 11.271063, 24.303318 ], [ 11.135605, 24.390562 ], [ 11.046639, 24.434385 ], [ 11.041609, 24.441151 ], [ 11.026292, 24.461755 ], [ 11.007601, 24.471277 ], [ 10.963042, 24.474783 ], [ 10.714443, 24.566105 ], [ 10.482687, 24.479232 ], [ 10.422996, 24.47883 ], [ 10.254287, 24.604764 ], [ 10.216854, 24.751088 ], [ 10.055053, 24.839687 ], [ 10.036914, 24.961818 ], [ 10.024586, 25.336557 ], [ 9.398587, 26.200378 ], [ 9.447416, 26.249206 ], [ 9.467455, 26.292275 ], [ 9.486082, 26.316591 ], [ 9.526086, 26.38362 ], [ 9.864916, 26.522872 ], [ 9.917085, 26.647513 ], [ 9.903082, 26.745012 ], [ 9.927572, 26.860266 ], [ 9.90982, 26.874766 ], [ 9.878918, 26.911788 ], [ 9.875972, 26.930213 ], [ 9.864217, 26.955878 ], [ 9.845621, 27.023232 ], [ 9.846231, 27.065833 ], [ 9.837992, 27.104588 ], [ 9.831894, 27.118401 ], [ 9.829159, 27.152366 ], [ 9.814975, 27.188568 ], [ 9.807755, 27.221475 ], [ 9.782027, 27.278073 ], [ 9.790875, 27.345641 ], [ 9.782195, 27.352702 ], [ 9.789641, 27.367639 ], [ 9.790383, 27.378113 ], [ 9.796658, 27.394162 ], [ 9.807943, 27.411543 ], [ 9.809168, 27.43373 ], [ 9.816519, 27.446213 ], [ 9.815516, 27.459205 ], [ 9.83108, 27.482946 ], [ 9.857633, 27.500684 ], [ 9.86304, 27.529318 ], [ 9.875467, 27.55778 ], [ 9.836571, 27.562216 ], [ 9.831461, 27.565255 ], [ 9.830967, 27.570189 ], [ 9.836493, 27.575935 ], [ 9.862526, 27.585114 ], [ 9.880307, 27.601545 ], [ 9.8905, 27.61462 ], [ 9.915596, 27.664529 ], [ 9.925145, 27.697923 ], [ 9.938249, 27.730577 ], [ 9.941162, 27.737835 ], [ 9.940468, 27.769057 ], [ 9.946182, 27.842486 ], [ 9.95028, 27.84999 ], [ 9.961004, 27.858214 ], [ 9.963049, 27.865188 ], [ 9.961094, 27.886224 ], [ 9.838752, 28.283445 ], [ 9.837679, 28.286923 ], [ 9.838752, 28.294526 ], [ 9.905404, 28.765687 ], [ 9.875058, 29.026989 ], [ 9.838752, 29.184214 ], [ 9.81569, 29.28396 ], [ 9.782621, 29.426821 ], [ 9.745294, 29.499685 ], [ 9.653729, 29.678203 ], [ 9.587966, 29.806222 ], [ 9.537705, 29.903953 ], [ 9.421401, 30.039755 ], [ 9.418158, 30.04628 ], [ 9.391033, 30.165665 ], [ 9.536736, 30.234489 ], [ 9.548155, 30.243656 ], [ 9.551556, 30.246386 ], [ 9.575947, 30.241082 ], [ 9.595981, 30.243637 ], [ 9.617597, 30.251215 ], [ 9.653729, 30.270336 ], [ 9.67478, 30.281473 ], [ 9.706924, 30.292751 ], [ 9.745695, 30.31605 ], [ 9.776085, 30.323841 ], [ 9.824366, 30.34324 ], [ 9.838752, 30.344624 ], [ 9.887179, 30.349286 ], [ 9.918164, 30.374881 ], [ 9.94569, 30.393111 ], [ 9.961676, 30.421798 ], [ 9.978043, 30.435265 ], [ 10.005212, 30.472964 ], [ 10.021698, 30.507211 ], [ 10.099097, 30.585224 ], [ 10.115685, 30.610281 ], [ 10.152448, 30.650943 ], [ 10.176248, 30.687842 ], [ 10.21493, 30.716068 ], [ 10.276971, 30.823428 ], [ 10.295504, 30.876599 ], [ 10.295943, 30.892835 ], [ 10.306807, 30.908194 ], [ 10.296002, 30.934111 ], [ 10.288457, 30.964235 ], [ 10.286176, 30.989296 ], [ 10.275489, 31.027181 ], [ 10.276087, 31.046633 ], [ 10.286849, 31.081295 ], [ 10.285144, 31.093953 ], [ 10.262131, 31.133861 ], [ 10.242086, 31.198211 ], [ 10.217117, 31.247556 ], [ 10.193857, 31.306207 ], [ 10.153137, 31.391441 ], [ 10.145469, 31.420328 ], [ 10.144782, 31.446343 ], [ 10.137843, 31.465706 ], [ 10.141146, 31.492893 ], [ 10.221423, 31.586005 ], [ 10.278274, 31.666214 ], [ 10.291572, 31.689562 ], [ 10.313223, 31.705525 ], [ 10.376541, 31.738377 ], [ 10.394258, 31.74002 ], [ 10.439366, 31.728049 ], [ 10.456644, 31.728413 ], [ 10.530133, 31.748098 ], [ 10.55239, 31.762709 ], [ 10.561175, 31.772958 ], [ 10.573292, 31.809619 ], [ 10.58134, 31.822632 ], [ 10.632245, 31.86271 ], [ 10.642045, 31.880026 ], [ 10.642981, 31.893894 ], [ 10.627404, 31.916696 ], [ 10.625523, 31.923504 ], [ 10.628405, 31.931632 ], [ 10.639519, 31.944673 ], [ 10.63953, 31.96586 ], [ 10.643697, 31.972842 ], [ 10.669369, 31.986547 ], [ 10.725556, 31.978978 ], [ 10.765704, 31.994585 ], [ 10.792346, 31.999923 ], [ 10.848044, 32.079587 ], [ 10.8597, 32.110836 ], [ 10.978976, 32.18476 ], [ 11.03274, 32.201737 ], [ 11.041609, 32.207385 ], [ 11.072383, 32.226979 ], [ 11.088602, 32.229957 ], [ 11.102564, 32.237613 ], [ 11.13688, 32.248139 ], [ 11.158891, 32.260198 ], [ 11.201822, 32.275756 ], [ 11.335793, 32.315368 ], [ 11.364264, 32.321722 ], [ 11.39236, 32.334149 ], [ 11.424546, 32.353437 ], [ 11.449338, 32.356154 ], [ 11.461021, 32.35998 ], [ 11.52801, 32.404324 ], [ 11.556361, 32.452843 ], [ 11.597576, 32.523328 ], [ 11.589735, 32.540005 ], [ 11.577481, 32.555538 ], [ 11.564169, 32.56561 ], [ 11.541375, 32.591537 ], [ 11.519381, 32.604197 ], [ 11.508692, 32.613638 ], [ 11.494242, 32.644568 ], [ 11.489052, 32.66569 ], [ 11.498477, 32.719391 ], [ 11.489186, 32.767405 ], [ 11.496308, 32.807221 ], [ 11.507205, 32.843179 ], [ 11.489792, 32.893581 ], [ 11.516507, 32.975382 ], [ 11.529307, 32.990113 ], [ 11.528124, 33.000895 ], [ 11.521914, 33.007822 ], [ 11.528849, 33.073642 ], [ 11.532404, 33.08631 ], [ 11.550186, 33.113589 ], [ 11.553693, 33.123144 ], [ 11.561633, 33.147739 ], [ 11.560186, 33.155697 ], [ 11.56432, 33.165109 ], [ 11.597377, 33.137135 ], [ 11.607921, 33.126057 ], [ 11.607984, 33.123144 ], [ 11.614892, 33.113913 ], [ 11.636891, 33.109698 ], [ 11.642049, 33.099738 ], [ 11.65641, 33.092789 ], [ 11.666977, 33.09093 ], [ 11.72448, 33.080815 ], [ 11.751304, 33.077964 ], [ 11.809398, 33.071791 ], [ 11.811401, 33.075285 ], [ 11.805799, 33.079078 ], [ 11.806508, 33.081708 ], [ 11.878214, 33.059921 ], [ 11.910356, 33.044382 ], [ 11.971958, 33.00571 ], [ 11.991827, 32.995537 ], [ 12.021945, 32.980116 ], [ 12.042674, 32.96293 ], [ 12.06774, 32.947445 ], [ 12.119143, 32.925262 ], [ 12.126465, 32.913857 ], [ 12.153747, 32.900317 ], [ 12.191857, 32.887544 ], [ 12.20047, 32.876761 ], [ 12.210713, 32.870756 ], [ 12.224088, 32.868607 ], [ 12.26838, 32.846558 ], [ 12.331482, 32.827868 ], [ 12.354628, 32.822945 ], [ 12.369787, 32.81972 ], [ 12.399992, 32.816005 ], [ 12.422432, 32.817604 ], [ 12.448875, 32.815117 ], [ 12.460318, 32.811655 ], [ 12.467473, 32.812836 ], [ 12.483082, 32.807553 ], [ 12.551902, 32.799272 ], [ 12.56009, 32.796176 ], [ 12.638201, 32.792587 ], [ 12.655359, 32.791798 ], [ 12.743567, 32.793065 ], [ 12.868991, 32.805477 ], [ 12.970317, 32.826658 ], [ 13.009949, 32.837805 ], [ 13.040875, 32.850536 ], [ 13.050017, 32.850779 ], [ 13.074878, 32.861157 ], [ 13.089197, 32.863583 ], [ 13.117484, 32.877933 ], [ 13.124172, 32.8767 ], [ 13.136189, 32.881966 ], [ 13.142473, 32.880643 ], [ 13.154442, 32.883214 ], [ 13.160069, 32.886715 ], [ 13.163741, 32.894473 ], [ 13.171707, 32.902059 ], [ 13.192219, 32.911015 ], [ 13.194323, 32.909239 ], [ 13.189811, 32.904259 ], [ 13.184542, 32.905548 ], [ 13.178457, 32.900043 ], [ 13.186384, 32.896187 ], [ 13.193361, 32.89613 ], [ 13.199172, 32.898096 ], [ 13.200661, 32.90127 ], [ 13.214751, 32.902013 ], [ 13.220393, 32.905661 ], [ 13.220295, 32.909383 ], [ 13.227788, 32.9077 ], [ 13.234318, 32.911989 ], [ 13.251516, 32.908842 ], [ 13.288804, 32.909422 ], [ 13.326046, 32.897156 ], [ 13.388324, 32.896255 ], [ 13.405217, 32.876903 ], [ 13.41569, 32.869501 ], [ 13.447785, 32.854493 ], [ 13.476476, 32.845928 ], [ 13.495056, 32.834713 ], [ 13.533045, 32.820298 ], [ 13.581102, 32.797792 ], [ 13.604867, 32.791508 ], [ 13.646747, 32.789337 ], [ 13.650583, 32.789523 ], [ 13.701619, 32.791999 ], [ 13.706814, 32.794299 ], [ 13.726023, 32.795413 ], [ 13.733627, 32.792102 ], [ 13.740035, 32.792213 ], [ 13.754231, 32.797889 ], [ 13.802533, 32.801651 ], [ 13.810167, 32.794726 ], [ 13.842255, 32.785466 ], [ 13.865645, 32.782279 ], [ 13.883073, 32.784 ], [ 13.943218, 32.772672 ], [ 13.954987, 32.761291 ], [ 13.990284, 32.745372 ], [ 14.004282, 32.733108 ], [ 14.014676, 32.72948 ], [ 14.054017, 32.724103 ], [ 14.063384, 32.72487 ], [ 14.096815, 32.717239 ], [ 14.121104, 32.717727 ], [ 14.12522, 32.715979 ], [ 14.128438, 32.714613 ], [ 14.146113, 32.714776 ], [ 14.165065, 32.710443 ], [ 14.175548, 32.711249 ], [ 14.209832, 32.697734 ], [ 14.242103, 32.692185 ], [ 14.245647, 32.688181 ], [ 14.23877, 32.680651 ], [ 14.24812, 32.673397 ], [ 14.253311, 32.664013 ], [ 14.272393, 32.656757 ], [ 14.275221, 32.648921 ], [ 14.282603, 32.644018 ], [ 14.300404, 32.63989 ], [ 14.30617, 32.635109 ], [ 14.329852, 32.627355 ], [ 14.338391, 32.616963 ], [ 14.340935, 32.609122 ], [ 14.352642, 32.597699 ], [ 14.383918, 32.576626 ], [ 14.433441, 32.552467 ], [ 14.437727, 32.545314 ], [ 14.443364, 32.541686 ], [ 14.447915, 32.528591 ], [ 14.475246, 32.512772 ], [ 14.502899, 32.506309 ], [ 14.543093, 32.503269 ], [ 14.56009, 32.498544 ], [ 14.567192, 32.499558 ], [ 14.607657, 32.495781 ], [ 14.641474, 32.484708 ], [ 14.655411, 32.480143 ], [ 14.699829, 32.455355 ], [ 14.708422, 32.452843 ], [ 14.754684, 32.439316 ], [ 14.837241, 32.437487 ], [ 14.86667, 32.441826 ], [ 14.894681, 32.439841 ], [ 14.948719, 32.428532 ], [ 14.970633, 32.418936 ], [ 15.006825, 32.417298 ], [ 15.029911, 32.412178 ], [ 15.099862, 32.410096 ], [ 15.120094, 32.404573 ], [ 15.183044, 32.387387 ], [ 15.213405, 32.373476 ], [ 15.216227, 32.366804 ], [ 15.221947, 32.363444 ], [ 15.224189, 32.354252 ], [ 15.229587, 32.347647 ], [ 15.272017, 32.315871 ], [ 15.296149, 32.271782 ], [ 15.317411, 32.214412 ], [ 15.349668, 32.176042 ], [ 15.356831, 32.162136 ], [ 15.359034, 32.13137 ], [ 15.349014, 32.073542 ], [ 15.355422, 32.026161 ], [ 15.353424, 31.9963 ], [ 15.366237, 31.942014 ], [ 15.395057, 31.859127 ], [ 15.462008, 31.727904 ], [ 15.482997, 31.678564 ], [ 15.489865, 31.666811 ], [ 15.515798, 31.622422 ], [ 15.531717, 31.59906 ], [ 15.565133, 31.565035 ], [ 15.608839, 31.502277 ], [ 15.65383, 31.454503 ], [ 15.738428, 31.399209 ], [ 15.807279, 31.363035 ], [ 15.884943, 31.333525 ], [ 15.963027, 31.297706 ], [ 16.019492, 31.2778 ], [ 16.09866, 31.261628 ], [ 16.128735, 31.251583 ], [ 16.213045, 31.23654 ], [ 16.372234, 31.219076 ], [ 16.504904, 31.211722 ], [ 16.621682, 31.211095 ], [ 16.696459, 31.217715 ], [ 16.716238, 31.21388 ], [ 16.763408, 31.210999 ], [ 16.802958, 31.198955 ], [ 16.814137, 31.19555 ], [ 16.872367, 31.183589 ], [ 17.000736, 31.163306 ], [ 17.118165, 31.134471 ], [ 17.143938, 31.123738 ], [ 17.170432, 31.119658 ], [ 17.207196, 31.108777 ], [ 17.24042, 31.105071 ], [ 17.264461, 31.097254 ], [ 17.28673, 31.0934 ], [ 17.304765, 31.083754 ], [ 17.383999, 31.076315 ], [ 17.391229, 31.075286 ], [ 17.398768, 31.065304 ], [ 17.437324, 31.047723 ], [ 17.45967, 31.029414 ], [ 17.512062, 31.009157 ], [ 17.602279, 30.986502 ], [ 17.689482, 30.951415 ], [ 17.749714, 30.937878 ], [ 17.85535, 30.92377 ], [ 17.866565, 30.914799 ], [ 17.869426, 30.903484 ], [ 17.881097, 30.8951 ], [ 17.889241, 30.871149 ], [ 17.913899, 30.855123 ], [ 17.994689, 30.834213 ], [ 18.018237, 30.828117 ], [ 18.096184, 30.803044 ], [ 18.172382, 30.789391 ], [ 18.187588, 30.783466 ], [ 18.196565, 30.773757 ], [ 18.219677, 30.765816 ], [ 18.224715, 30.755777 ], [ 18.249112, 30.737682 ], [ 18.254959, 30.727836 ], [ 18.281607, 30.709624 ], [ 18.292655, 30.698245 ], [ 18.294182, 30.687065 ], [ 18.321026, 30.661455 ], [ 18.343511, 30.646103 ], [ 18.365892, 30.63791 ], [ 18.371372, 30.626422 ], [ 18.381773, 30.619968 ], [ 18.384384, 30.618348 ], [ 18.408411, 30.59736 ], [ 18.428971, 30.588018 ], [ 18.44645, 30.573284 ], [ 18.469389, 30.563301 ], [ 18.494728, 30.546034 ], [ 18.511497, 30.538145 ], [ 18.529876, 30.523218 ], [ 18.571453, 30.512873 ], [ 18.571295, 30.500439 ], [ 18.608546, 30.466273 ], [ 18.648832, 30.439142 ], [ 18.650587, 30.426508 ], [ 18.662975, 30.415468 ], [ 18.684471, 30.405321 ], [ 18.739405, 30.392164 ], [ 18.750549, 30.386472 ], [ 18.789462, 30.382762 ], [ 18.792851, 30.368395 ], [ 18.80225, 30.357272 ], [ 18.842047, 30.339385 ], [ 18.882672, 30.328794 ], [ 18.893951, 30.322047 ], [ 18.901728, 30.31311 ], [ 18.943728, 30.287476 ], [ 18.993556, 30.274428 ], [ 19.055924, 30.267578 ], [ 19.091226, 30.268363 ], [ 19.113646, 30.271468 ], [ 19.160571, 30.266481 ], [ 19.185099, 30.266921 ], [ 19.264856, 30.281089 ], [ 19.304444, 30.291304 ], [ 19.379002, 30.316855 ], [ 19.481921, 30.367674 ], [ 19.495896, 30.377349 ], [ 19.542933, 30.401068 ], [ 19.554039, 30.409495 ], [ 19.564432, 30.411112 ], [ 19.57253, 30.416848 ], [ 19.579293, 30.418086 ], [ 19.583301, 30.412866 ], [ 19.593242, 30.41037 ], [ 19.604033, 30.414394 ], [ 19.613929, 30.414692 ], [ 19.626445, 30.421616 ], [ 19.64058, 30.437352 ], [ 19.686306, 30.462836 ], [ 19.713034, 30.485759 ], [ 19.740556, 30.505607 ], [ 19.781913, 30.535427 ], [ 19.800913, 30.562537 ], [ 19.821904, 30.585044 ], [ 19.845289, 30.604239 ], [ 19.872151, 30.626283 ], [ 19.910848, 30.66693 ], [ 19.964135, 30.736638 ], [ 19.97728, 30.760268 ], [ 20.008692, 30.78923 ], [ 20.041082, 30.82814 ], [ 20.061645, 30.857712 ], [ 20.071697, 30.878318 ], [ 20.072666, 30.880336 ], [ 20.075467, 30.89891 ], [ 20.085303, 30.909197 ], [ 20.087428, 30.911419 ], [ 20.098119, 30.934237 ], [ 20.110441, 30.948677 ], [ 20.119467, 30.964704 ], [ 20.156978, 31.044362 ], [ 20.166323, 31.078807 ], [ 20.17493, 31.148588 ], [ 20.17024, 31.176964 ], [ 20.149273, 31.237707 ], [ 20.134626, 31.250457 ], [ 20.113065, 31.2995 ], [ 20.087248, 31.340527 ], [ 20.085303, 31.341475 ], [ 20.07593, 31.346048 ], [ 20.071697, 31.351624 ], [ 20.066702, 31.358201 ], [ 20.053089, 31.360023 ], [ 20.030481, 31.391187 ], [ 20.016749, 31.422951 ], [ 20.013953, 31.46667 ], [ 20.00668, 31.475052 ], [ 19.995166, 31.475481 ], [ 19.992834, 31.477556 ], [ 19.990256, 31.518157 ], [ 19.98405, 31.542022 ], [ 19.96594, 31.585032 ], [ 19.965361, 31.608925 ], [ 19.958412, 31.632595 ], [ 19.955341, 31.673237 ], [ 19.943483, 31.698701 ], [ 19.934011, 31.710129 ], [ 19.923847, 31.743334 ], [ 19.921607, 31.759922 ], [ 19.930956, 31.798302 ], [ 19.926925, 31.827828 ], [ 19.942246, 31.870442 ], [ 19.94654, 31.905679 ], [ 19.953115, 31.931481 ], [ 19.952141, 31.94198 ], [ 19.942967, 31.953084 ], [ 19.947655, 31.972894 ], [ 19.961464, 31.992946 ], [ 19.974799, 32.002176 ], [ 19.982858, 32.012788 ], [ 19.997831, 32.024416 ], [ 20.035758, 32.06375 ], [ 20.044693, 32.079103 ], [ 20.04449, 32.088457 ], [ 20.051889, 32.097779 ], [ 20.05045, 32.10133 ], [ 20.039905, 32.103249 ], [ 20.044242, 32.107241 ], [ 20.043305, 32.115236 ], [ 20.052117, 32.112686 ], [ 20.054018, 32.1061 ], [ 20.060752, 32.100677 ], [ 20.069515, 32.103992 ], [ 20.070587, 32.106292 ], [ 20.064106, 32.110348 ], [ 20.057239, 32.106489 ], [ 20.05787, 32.114815 ], [ 20.050221, 32.119193 ], [ 20.059326, 32.122882 ], [ 20.071697, 32.13513 ], [ 20.085303, 32.15524 ], [ 20.101695, 32.17946 ], [ 20.120435, 32.191332 ], [ 20.210429, 32.283505 ], [ 20.2438, 32.311124 ], [ 20.299938, 32.351402 ], [ 20.324787, 32.37315 ], [ 20.363922, 32.40739 ], [ 20.43306, 32.452843 ], [ 20.561857, 32.537455 ], [ 20.673918, 32.592907 ], [ 20.750096, 32.618542 ], [ 20.75239, 32.61952 ], [ 20.882072, 32.674788 ], [ 20.923681, 32.697643 ], [ 20.945185, 32.714611 ], [ 20.957703, 32.717639 ], [ 20.99269, 32.734117 ], [ 21.022828, 32.742388 ], [ 21.063699, 32.761324 ], [ 21.113343, 32.770591 ], [ 21.158603, 32.769036 ], [ 21.17281, 32.770094 ], [ 21.206299, 32.772588 ], [ 21.240281, 32.770087 ], [ 21.297563, 32.774097 ], [ 21.35084, 32.774352 ], [ 21.405082, 32.786899 ], [ 21.433566, 32.796858 ], [ 21.473287, 32.817463 ], [ 21.484397, 32.820304 ], [ 21.508773, 32.836201 ], [ 21.545886, 32.866447 ], [ 21.561216, 32.873281 ], [ 21.565938, 32.879891 ], [ 21.592066, 32.900877 ], [ 21.61233, 32.910439 ], [ 21.628493, 32.925051 ], [ 21.635766, 32.924858 ], [ 21.645971, 32.928779 ], [ 21.674526, 32.931127 ], [ 21.698614, 32.93863 ], [ 21.716354, 32.940342 ], [ 21.766093, 32.927476 ], [ 21.781561, 32.919957 ], [ 21.811165, 32.911883 ], [ 21.922389, 32.894741 ], [ 21.945444, 32.897687 ], [ 21.96392, 32.903299 ], [ 21.990777, 32.902633 ], [ 22.008218, 32.905883 ], [ 22.054743, 32.907268 ], [ 22.071638, 32.910902 ], [ 22.114423, 32.933918 ], [ 22.14717, 32.9371 ], [ 22.175014, 32.925031 ], [ 22.176099, 32.919002 ], [ 22.169204, 32.910488 ], [ 22.16874, 32.904757 ], [ 22.181487, 32.889078 ], [ 22.19558, 32.880734 ], [ 22.21571, 32.875934 ], [ 22.243108, 32.873622 ], [ 22.297558, 32.872135 ], [ 22.315867, 32.876284 ], [ 22.343652, 32.868865 ], [ 22.373262, 32.871768 ], [ 22.385951, 32.869103 ], [ 22.417021, 32.854061 ], [ 22.432481, 32.85096 ], [ 22.440562, 32.840928 ], [ 22.46628, 32.829138 ], [ 22.473127, 32.824811 ], [ 22.493013, 32.812244 ], [ 22.528037, 32.802875 ], [ 22.557112, 32.801265 ], [ 22.561816, 32.798484 ], [ 22.565853, 32.790682 ], [ 22.583344, 32.786117 ], [ 22.584955, 32.784678 ], [ 22.592188, 32.778212 ], [ 22.600786, 32.774896 ], [ 22.643345, 32.774137 ], [ 22.658859, 32.75743 ], [ 22.77656, 32.723164 ], [ 22.812045, 32.715981 ], [ 22.843262, 32.704389 ], [ 22.857783, 32.695533 ], [ 22.913164, 32.67179 ], [ 22.916493, 32.671366 ], [ 22.936815, 32.668775 ], [ 22.982833, 32.655901 ], [ 23.001107, 32.653728 ], [ 23.005264, 32.650514 ], [ 23.015674, 32.654212 ], [ 23.028721, 32.654177 ], [ 23.062822, 32.642753 ], [ 23.075146, 32.64244 ], [ 23.096214, 32.636876 ], [ 23.101051, 32.633458 ], [ 23.106883, 32.633594 ], [ 23.116257, 32.626886 ], [ 23.125047, 32.615555 ], [ 23.126083, 32.604111 ], [ 23.117396, 32.585989 ], [ 23.099481, 32.569509 ], [ 23.099787, 32.557508 ], [ 23.105822, 32.535938 ], [ 23.103108, 32.523843 ], [ 23.10937, 32.507628 ], [ 23.12214, 32.496392 ], [ 23.131336, 32.481787 ], [ 23.141811, 32.477938 ], [ 23.153823, 32.466168 ], [ 23.156328, 32.458509 ], [ 23.156328, 32.453042 ], [ 23.145189, 32.430242 ], [ 23.136461, 32.423223 ], [ 23.13739, 32.405334 ], [ 23.132194, 32.392713 ], [ 23.122702, 32.393874 ], [ 23.115469, 32.401362 ], [ 23.118065, 32.403738 ], [ 23.1287, 32.402637 ], [ 23.129631, 32.406935 ], [ 23.106376, 32.429614 ], [ 23.096428, 32.430575 ], [ 23.090577, 32.416444 ], [ 23.098318, 32.405548 ], [ 23.099892, 32.396732 ], [ 23.083214, 32.364023 ], [ 23.086347, 32.336876 ], [ 23.096993, 32.317885 ], [ 23.105402, 32.315019 ], [ 23.108133, 32.310137 ], [ 23.117078, 32.305436 ], [ 23.127777, 32.31322 ], [ 23.156328, 32.30716 ], [ 23.159178, 32.307071 ], [ 23.16804, 32.296534 ], [ 23.182836, 32.293777 ], [ 23.209235, 32.278976 ], [ 23.215571, 32.272428 ], [ 23.226483, 32.243686 ], [ 23.253052, 32.205796 ], [ 23.26548, 32.199322 ], [ 23.28256, 32.200553 ], [ 23.291033, 32.197345 ], [ 23.296071, 32.191898 ], [ 23.302931, 32.165277 ], [ 23.316337, 32.154056 ], [ 23.324603, 32.156411 ], [ 23.317723, 32.17245 ], [ 23.317089, 32.183929 ], [ 23.307376, 32.201045 ], [ 23.310944, 32.209908 ], [ 23.316853, 32.212516 ], [ 23.350082, 32.202454 ], [ 23.368132, 32.203021 ], [ 23.424349, 32.173935 ], [ 23.460787, 32.177384 ], [ 23.466922, 32.175661 ], [ 23.47126, 32.174442 ], [ 23.496945, 32.174373 ], [ 23.50961, 32.170538 ], [ 23.562668, 32.174618 ], [ 23.639307, 32.175061 ], [ 23.668286, 32.181142 ], [ 23.714172, 32.177642 ], [ 23.730263, 32.172443 ], [ 23.771228, 32.165157 ], [ 23.784294, 32.158136 ], [ 23.812972, 32.149354 ], [ 23.830728, 32.138302 ], [ 23.854109, 32.132517 ], [ 23.859848, 32.127187 ], [ 23.865925, 32.128513 ], [ 23.86994, 32.1252 ], [ 23.871153, 32.119351 ], [ 23.875803, 32.120721 ], [ 23.881935, 32.117121 ], [ 23.890862, 32.119052 ], [ 23.905602, 32.118153 ], [ 23.911635, 32.114202 ], [ 23.919755, 32.115675 ], [ 23.925816, 32.111017 ], [ 23.929869, 32.107902 ], [ 23.939056, 32.11168 ], [ 23.977349, 32.103056 ], [ 24.006884, 32.086718 ], [ 24.00458, 32.079716 ], [ 24.006356, 32.072909 ], [ 23.970592, 32.078584 ], [ 23.967354, 32.0749 ], [ 23.971549, 32.068609 ], [ 24.009247, 32.054734 ], [ 24.012481, 32.049855 ], [ 24.020944, 32.050034 ], [ 24.02893, 32.042923 ], [ 24.036231, 32.042074 ], [ 24.045048, 32.032087 ], [ 24.058492, 32.02364 ], [ 24.090559, 32.012019 ], [ 24.200703, 31.997972 ], [ 24.222156, 31.999232 ], [ 24.242179, 32.005614 ], [ 24.265366, 32.003726 ], [ 24.270696, 32.005411 ], [ 24.284127, 32.000464 ], [ 24.297301, 31.999227 ], [ 24.330528, 31.997456 ], [ 24.355995, 31.999688 ], [ 24.367067, 31.994598 ], [ 24.377158, 31.997738 ], [ 24.386705, 31.993516 ], [ 24.408365, 31.9962 ], [ 24.414549, 31.992122 ], [ 24.418736, 31.994219 ], [ 24.424267, 31.992081 ], [ 24.429289, 31.995453 ], [ 24.447753, 31.995371 ], [ 24.464037, 31.989864 ], [ 24.480243, 31.993031 ], [ 24.495169, 31.992975 ], [ 24.521735, 31.987658 ], [ 24.527554, 31.982984 ], [ 24.546489, 31.981422 ], [ 24.567911, 31.990005 ], [ 24.602128, 31.997344 ], [ 24.663403, 32.020376 ], [ 24.685283, 32.018857 ], [ 24.710689, 32.021944 ], [ 24.761579, 32.016478 ], [ 24.788389, 32.001439 ], [ 24.834449, 31.991344 ], [ 24.84781, 31.985913 ], [ 24.870927, 31.985335 ], [ 24.881904, 31.978703 ], [ 24.900957, 31.978321 ], [ 24.914091, 31.973971 ], [ 24.9306, 31.97532 ], [ 24.941829, 31.970287 ], [ 24.978157, 31.969403 ], [ 24.995578, 31.961449 ], [ 25.006394, 31.948868 ], [ 25.031069, 31.936525 ], [ 25.038777, 31.92702 ], [ 25.040268, 31.919646 ], [ 25.032682, 31.895648 ], [ 25.028689, 31.852458 ], [ 25.05981, 31.811597 ], [ 25.063909, 31.797804 ], [ 25.072625, 31.791533 ], [ 25.077434, 31.780217 ], [ 25.085846, 31.770806 ], [ 25.094296, 31.768454 ], [ 25.096207, 31.761328 ], [ 25.090669, 31.751453 ], [ 25.095574, 31.750659 ], [ 25.100837, 31.754717 ], [ 25.107167, 31.753091 ], [ 25.113166, 31.746256 ], [ 25.123562, 31.724479 ], [ 25.129405, 31.719151 ], [ 25.129353, 31.712963 ], [ 25.125051, 31.708795 ], [ 25.130676, 31.705876 ], [ 25.140339, 31.680813 ], [ 25.145227, 31.675598 ], [ 25.148947, 31.660724 ], [ 25.147155, 31.64969 ], [ 25.142598, 31.656101 ], [ 25.142035, 31.666584 ], [ 25.131882, 31.66599 ], [ 25.117788, 31.644408 ], [ 25.090364, 31.619678 ], [ 25.078728, 31.596314 ], [ 25.071014, 31.5571 ], [ 25.061916, 31.541721 ], [ 24.964024, 31.480362 ], [ 24.938089, 31.45844 ], [ 24.863311, 31.407348 ], [ 24.859465, 31.39806 ], [ 24.866996, 31.344439 ], [ 24.880926, 31.323684 ], [ 24.88689, 31.302865 ], [ 24.888041, 31.261944 ], [ 24.877862, 31.169185 ], [ 24.882957, 31.135163 ], [ 24.919652, 31.06395 ], [ 24.944378, 31.000155 ], [ 24.951454, 30.965275 ], [ 24.962164, 30.939118 ], [ 24.981085, 30.911246 ], [ 24.990179, 30.88197 ], [ 24.990629, 30.860468 ], [ 25.01794, 30.777396 ], [ 25.015317, 30.763761 ], [ 24.992499, 30.71287 ], [ 24.978469, 30.644475 ], [ 24.954583, 30.596701 ], [ 24.949491, 30.577627 ], [ 24.947695, 30.545324 ], [ 24.927011, 30.482827 ], [ 24.889963, 30.44796 ], [ 24.868106, 30.414249 ], [ 24.85808, 30.394927 ], [ 24.834547, 30.369093 ], [ 24.783118, 30.33132 ], [ 24.769535, 30.287744 ], [ 24.759668, 30.264869 ], [ 24.753058, 30.254585 ], [ 24.746034, 30.243656 ], [ 24.734524, 30.225745 ], [ 24.709462, 30.182007 ], [ 24.69816, 30.14895 ], [ 24.753058, 30.095865 ], [ 24.813812, 29.915871 ], [ 24.819962, 29.885729 ], [ 24.816599, 29.816202 ], [ 24.817738, 29.806222 ], [ 24.819722, 29.788842 ], [ 24.857623, 29.714168 ], [ 24.897231, 29.624941 ], [ 24.894765, 29.609139 ], [ 24.874785, 29.586531 ], [ 24.858767, 29.550621 ], [ 24.860522, 29.534309 ], [ 24.875229, 29.499685 ], [ 24.882731, 29.482021 ], [ 24.899426, 29.459821 ], [ 24.910835, 29.429636 ], [ 24.956884, 29.345873 ], [ 24.982148, 29.28396 ], [ 24.987999, 29.269617 ], [ 24.999367, 29.248489 ], [ 24.999453, 29.026989 ], [ 24.999951, 27.730577 ], [ 25.0, 27.602212 ], [ 25.0, 25.526773 ], [ 25.0, 24.987548 ], [ 25.0, 22.0 ] ] ], [ [ [ 11.698938, 33.119456 ], [ 11.701814, 33.121291 ], [ 11.751304, 33.105306 ], [ 11.772115, 33.097577 ], [ 11.781921, 33.094272 ], [ 11.787683, 33.091333 ], [ 11.787359, 33.089662 ], [ 11.779734, 33.088999 ], [ 11.774332, 33.091459 ], [ 11.774569, 33.093615 ], [ 11.770194, 33.092495 ], [ 11.770139, 33.095972 ], [ 11.765163, 33.093696 ], [ 11.760362, 33.095722 ], [ 11.761217, 33.098775 ], [ 11.756895, 33.101557 ], [ 11.753241, 33.101382 ], [ 11.751304, 33.102335 ], [ 11.726676, 33.107058 ], [ 11.714781, 33.1056 ], [ 11.698938, 33.119456 ] ] ], [ [ [ 23.274368, 32.235329 ], [ 23.275655, 32.237781 ], [ 23.284819, 32.236443 ], [ 23.287365, 32.234052 ], [ 23.28814, 32.228305 ], [ 23.285408, 32.223405 ], [ 23.277276, 32.229023 ], [ 23.274368, 32.235329 ] ] ], [ [ [ 23.232668, 32.374924 ], [ 23.233931, 32.376888 ], [ 23.238564, 32.375485 ], [ 23.236387, 32.371342 ], [ 23.232668, 32.374924 ] ] ], [ [ [ 23.163085, 32.392509 ], [ 23.164546, 32.394483 ], [ 23.16873, 32.392011 ], [ 23.169388, 32.39 ], [ 23.166312, 32.389452 ], [ 23.163085, 32.392509 ] ] ], [ [ [ 11.790783, 33.088067 ], [ 11.792598, 33.088898 ], [ 11.799842, 33.084732 ], [ 11.796234, 33.083828 ], [ 11.790783, 33.088067 ] ] ] ] } }
]
}
