{
"type": "FeatureCollection",
"name": "Macau",
"crs": { "type": "name", "properties": { "name": "urn:ogc:def:crs:OGC:1.3:CRS84" } },
"features": [
{ "type": "Feature", "properties": { "id": "MO", "CNTR_ID": "MO", "CNTR_NAME": "澳門-Macau", "NAME_ENGL": "Macau", "ISO3_CODE": "MAC", "FID": "MO" }, "geometry": { "type": "MultiPolygon", "coordinates": [ [ [ [ 113.53219, 22.207921 ], [ 113.534964, 22.212794 ], [ 113.550891, 22.21452 ], [ 113.553346, 22.203234 ], [ 113.564292, 22.19428 ], [ 113.564799, 22.189288 ], [ 113.560587, 22.187201 ], [ 113.557997, 22.186401 ], [ 113.550411, 22.184059 ], [ 113.533091, 22.18558 ], [ 113.533945, 22.189288 ], [ 113.537356, 22.204086 ], [ 113.53219, 22.207921 ] ] ], [ [ [ 113.550411, 22.113357 ], [ 113.550411, 22.117893 ], [ 113.551887, 22.120785 ], [ 113.556055, 22.125408 ], [ 113.572229, 22.137506 ], [ 113.576446, 22.137788 ], [ 113.581144, 22.134453 ], [ 113.583152, 22.133027 ], [ 113.589569, 22.132615 ], [ 113.591043, 22.1305 ], [ 113.590509, 22.127831 ], [ 113.581144, 22.124403 ], [ 113.573883, 22.121744 ], [ 113.572006, 22.113326 ], [ 113.5513, 22.110674 ], [ 113.550411, 22.113357 ] ] ], [ [ [ 113.54519, 22.157175 ], [ 113.548286, 22.162873 ], [ 113.550398, 22.163225 ], [ 113.563071, 22.160997 ], [ 113.574532, 22.155825 ], [ 113.574385, 22.154274 ], [ 113.560103, 22.150488 ], [ 113.550398, 22.154453 ], [ 113.546459, 22.15527 ], [ 113.54519, 22.157175 ] ] ] ] } }
]
}
