{
"type": "FeatureCollection",
"name": "Malawi",
"crs": { "type": "name", "properties": { "name": "urn:ogc:def:crs:OGC:1.3:CRS84" } },
"features": [
{ "type": "Feature", "properties": { "id": "MW", "CNTR_ID": "MW", "CNTR_NAME": "Malawi-Malaŵi", "NAME_ENGL": "Malawi", "ISO3_CODE": "MWI", "FID": "MW" }, "geometry": { "type": "MultiPolygon", "coordinates": [ [ [ [ 33.242222, -13.998521 ], [ 33.197654, -13.991141 ], [ 33.190292, -13.979467 ], [ 33.188314, -13.965791 ], [ 33.182027, -13.95404 ], [ 33.155569, -13.937259 ], [ 33.14696, -13.936562 ], [ 33.14161, -13.939749 ], [ 33.129758, -13.958193 ], [ 33.104572, -13.96096 ], [ 33.080068, -13.978461 ], [ 33.069791, -13.991147 ], [ 33.061485, -14.025943 ], [ 33.041739, -14.047554 ], [ 33.036756, -14.048513 ], [ 33.028714, -14.045002 ], [ 33.012737, -14.029374 ], [ 33.000247, -14.022853 ], [ 32.991966, -14.012487 ], [ 32.990334, -13.99987 ], [ 32.992359, -13.984343 ], [ 33.002932, -13.962425 ], [ 32.99999, -13.949662 ], [ 32.989666, -13.941172 ], [ 32.975159, -13.935797 ], [ 32.952016, -13.9362 ], [ 32.946994, -13.933795 ], [ 32.944104, -13.925349 ], [ 32.950447, -13.900231 ], [ 32.937596, -13.876024 ], [ 32.903157, -13.849242 ], [ 32.897567, -13.839673 ], [ 32.894891, -13.823709 ], [ 32.89082, -13.816737 ], [ 32.873862, -13.803027 ], [ 32.863986, -13.801375 ], [ 32.859704, -13.792346 ], [ 32.848303, -13.792279 ], [ 32.834105, -13.782966 ], [ 32.818303, -13.781005 ], [ 32.810834, -13.794147 ], [ 32.807217, -13.795512 ], [ 32.789897, -13.777693 ], [ 32.772787, -13.773486 ], [ 32.782491, -13.749616 ], [ 32.796023, -13.744603 ], [ 32.810257, -13.725938 ], [ 32.817145, -13.722747 ], [ 32.831895, -13.722361 ], [ 32.842646, -13.713189 ], [ 32.840682, -13.706338 ], [ 32.827579, -13.689737 ], [ 32.80136, -13.66875 ], [ 32.795749, -13.649532 ], [ 32.786271, -13.640789 ], [ 32.774065, -13.636264 ], [ 32.76176, -13.637385 ], [ 32.751899, -13.644069 ], [ 32.72794, -13.639713 ], [ 32.683954, -13.619718 ], [ 32.675472, -13.609853 ], [ 32.683396, -13.595217 ], [ 32.682217, -13.578306 ], [ 32.689037, -13.573548 ], [ 32.693306, -13.566003 ], [ 32.705391, -13.565495 ], [ 32.730121, -13.577863 ], [ 32.746051, -13.578107 ], [ 32.765867, -13.551973 ], [ 32.790608, -13.547624 ], [ 32.80339, -13.537305 ], [ 32.823083, -13.530758 ], [ 32.841661, -13.516108 ], [ 32.846381, -13.506568 ], [ 32.843557, -13.485284 ], [ 32.845021, -13.460025 ], [ 32.850796, -13.456805 ], [ 32.87401, -13.458098 ], [ 32.882198, -13.455126 ], [ 32.913754, -13.40996 ], [ 32.922201, -13.385139 ], [ 32.923651, -13.352022 ], [ 32.945845, -13.273521 ], [ 32.955266, -13.260952 ], [ 32.969342, -13.25688 ], [ 32.983174, -13.22875 ], [ 33.005757, -13.218775 ], [ 33.015313, -13.210828 ], [ 33.005429, -13.184407 ], [ 32.980817, -13.156164 ], [ 32.97458, -13.121832 ], [ 32.974781, -13.110856 ], [ 32.979911, -13.098807 ], [ 32.980078, -13.076217 ], [ 32.995899, -13.054165 ], [ 32.995043, -13.043875 ], [ 32.988407, -13.034416 ], [ 32.987583, -13.02777 ], [ 32.99943, -13.004859 ], [ 33.007943, -12.9964 ], [ 33.012175, -12.988471 ], [ 33.011144, -12.98027 ], [ 33.012443, -12.963337 ], [ 33.017464, -12.945923 ], [ 33.017379, -12.935487 ], [ 33.024939, -12.916624 ], [ 33.025934, -12.910767 ], [ 33.022067, -12.90314 ], [ 33.020204, -12.893928 ], [ 33.015671, -12.887341 ], [ 33.000395, -12.879713 ], [ 32.989939, -12.869312 ], [ 32.980236, -12.85966 ], [ 32.970821, -12.854433 ], [ 32.960857, -12.846577 ], [ 32.957341, -12.842542 ], [ 32.956009, -12.833477 ], [ 32.958068, -12.779496 ], [ 32.960407, -12.756133 ], [ 32.963755, -12.748842 ], [ 32.974839, -12.740588 ], [ 32.989939, -12.724564 ], [ 33.006514, -12.701054 ], [ 33.015325, -12.657837 ], [ 33.02679, -12.65027 ], [ 33.040197, -12.627568 ], [ 33.055762, -12.612297 ], [ 33.086627, -12.594711 ], [ 33.091028, -12.596565 ], [ 33.100083, -12.608038 ], [ 33.108401, -12.611875 ], [ 33.1158, -12.610473 ], [ 33.130357, -12.598674 ], [ 33.153322, -12.595975 ], [ 33.168331, -12.601552 ], [ 33.177365, -12.610726 ], [ 33.174725, -12.637758 ], [ 33.177226, -12.641419 ], [ 33.183354, -12.640701 ], [ 33.19269, -12.632994 ], [ 33.201715, -12.608751 ], [ 33.208955, -12.602753 ], [ 33.232723, -12.591719 ], [ 33.261699, -12.553932 ], [ 33.262831, -12.542391 ], [ 33.268331, -12.538477 ], [ 33.293423, -12.534444 ], [ 33.315441, -12.526447 ], [ 33.326766, -12.53257 ], [ 33.3388, -12.544893 ], [ 33.360963, -12.552744 ], [ 33.370682, -12.548672 ], [ 33.393668, -12.528364 ], [ 33.409779, -12.520894 ], [ 33.414053, -12.515518 ], [ 33.416706, -12.500788 ], [ 33.433327, -12.47799 ], [ 33.457457, -12.460931 ], [ 33.470652, -12.459719 ], [ 33.477194, -12.453273 ], [ 33.472468, -12.421573 ], [ 33.476899, -12.414425 ], [ 33.497883, -12.407909 ], [ 33.510131, -12.393191 ], [ 33.543865, -12.371389 ], [ 33.547723, -12.357666 ], [ 33.541385, -12.342729 ], [ 33.530105, -12.332056 ], [ 33.5129, -12.341955 ], [ 33.501814, -12.334763 ], [ 33.485571, -12.331914 ], [ 33.475496, -12.323225 ], [ 33.457117, -12.322651 ], [ 33.424951, -12.340493 ], [ 33.393503, -12.33997 ], [ 33.366962, -12.347681 ], [ 33.363017, -12.320046 ], [ 33.357621, -12.30773 ], [ 33.336039, -12.285707 ], [ 33.32797, -12.257969 ], [ 33.317352, -12.254721 ], [ 33.31009, -12.245955 ], [ 33.307791, -12.23166 ], [ 33.311438, -12.205037 ], [ 33.308485, -12.165681 ], [ 33.303998, -12.161536 ], [ 33.27206, -12.154846 ], [ 33.265583, -12.149916 ], [ 33.261251, -12.140435 ], [ 33.261086, -12.117735 ], [ 33.27816, -12.061631 ], [ 33.308499, -12.000515 ], [ 33.310606, -11.955493 ], [ 33.322264, -11.92118 ], [ 33.323028, -11.899575 ], [ 33.317444, -11.884966 ], [ 33.307121, -11.87221 ], [ 33.305319, -11.862049 ], [ 33.31415, -11.843021 ], [ 33.329148, -11.82116 ], [ 33.333563, -11.801385 ], [ 33.323223, -11.769354 ], [ 33.3231, -11.756614 ], [ 33.315232, -11.722328 ], [ 33.317465, -11.629353 ], [ 33.313706, -11.609852 ], [ 33.311071, -11.596185 ], [ 33.306182, -11.591303 ], [ 33.293703, -11.586155 ], [ 33.28581, -11.577002 ], [ 33.278024, -11.582523 ], [ 33.260386, -11.578341 ], [ 33.240704, -11.586429 ], [ 33.224574, -11.587547 ], [ 33.225149, -11.554521 ], [ 33.235665, -11.539981 ], [ 33.24819, -11.528574 ], [ 33.252086, -11.511591 ], [ 33.250715, -11.503049 ], [ 33.241749, -11.492153 ], [ 33.247552, -11.470817 ], [ 33.246617, -11.460425 ], [ 33.228335, -11.432813 ], [ 33.227493, -11.424399 ], [ 33.23262, -11.409637 ], [ 33.241096, -11.401797 ], [ 33.247813, -11.405826 ], [ 33.251661, -11.415524 ], [ 33.272677, -11.433804 ], [ 33.281585, -11.435874 ], [ 33.288684, -11.431296 ], [ 33.293327, -11.42069 ], [ 33.292064, -11.399048 ], [ 33.284073, -11.384398 ], [ 33.284028, -11.376495 ], [ 33.290468, -11.368554 ], [ 33.310148, -11.367858 ], [ 33.316991, -11.361992 ], [ 33.316957, -11.355514 ], [ 33.308602, -11.34143 ], [ 33.308687, -11.332987 ], [ 33.337324, -11.304163 ], [ 33.343037, -11.294714 ], [ 33.347079, -11.288026 ], [ 33.359777, -11.253666 ], [ 33.38105, -11.23177 ], [ 33.391905, -11.202961 ], [ 33.393775, -11.186728 ], [ 33.400732, -11.175228 ], [ 33.405801, -11.158663 ], [ 33.401566, -11.147417 ], [ 33.392326, -11.143533 ], [ 33.379596, -11.144644 ], [ 33.376025, -11.141289 ], [ 33.372563, -11.130388 ], [ 33.375503, -11.11823 ], [ 33.366887, -11.101598 ], [ 33.332665, -11.068058 ], [ 33.328935, -11.053619 ], [ 33.31998, -11.0429 ], [ 33.308148, -10.992678 ], [ 33.312789, -10.945338 ], [ 33.310127, -10.937155 ], [ 33.298291, -10.919782 ], [ 33.280268, -10.900996 ], [ 33.276442, -10.900144 ], [ 33.270902, -10.905238 ], [ 33.262713, -10.903491 ], [ 33.253492, -10.90764 ], [ 33.246558, -10.892582 ], [ 33.268386, -10.867876 ], [ 33.281016, -10.866586 ], [ 33.288064, -10.875465 ], [ 33.310722, -10.869208 ], [ 33.335275, -10.829063 ], [ 33.364828, -10.828627 ], [ 33.376312, -10.823792 ], [ 33.388284, -10.813304 ], [ 33.39455, -10.812139 ], [ 33.413597, -10.812883 ], [ 33.441892, -10.82036 ], [ 33.452541, -10.820171 ], [ 33.460308, -10.816033 ], [ 33.479755, -10.796434 ], [ 33.496963, -10.790215 ], [ 33.517262, -10.77677 ], [ 33.531984, -10.763067 ], [ 33.532642, -10.736316 ], [ 33.544768, -10.73607 ], [ 33.549413, -10.732818 ], [ 33.559615, -10.714263 ], [ 33.570298, -10.70325 ], [ 33.598112, -10.6603 ], [ 33.602841, -10.657382 ], [ 33.616052, -10.66022 ], [ 33.624348, -10.658275 ], [ 33.647858, -10.628761 ], [ 33.664474, -10.621264 ], [ 33.679224, -10.61022 ], [ 33.683476, -10.607036 ], [ 33.688265, -10.597842 ], [ 33.701286, -10.584983 ], [ 33.705254, -10.572448 ], [ 33.703097, -10.57054 ], [ 33.687413, -10.577184 ], [ 33.681179, -10.575402 ], [ 33.679224, -10.559507 ], [ 33.678392, -10.552738 ], [ 33.66905, -10.53168 ], [ 33.648273, -10.520957 ], [ 33.636114, -10.500544 ], [ 33.625354, -10.498764 ], [ 33.622404, -10.494926 ], [ 33.630268, -10.476399 ], [ 33.619519, -10.450556 ], [ 33.589021, -10.43816 ], [ 33.577513, -10.428873 ], [ 33.563742, -10.405823 ], [ 33.556232, -10.382533 ], [ 33.549067, -10.373325 ], [ 33.549304, -10.350155 ], [ 33.535517, -10.328905 ], [ 33.538758, -10.317751 ], [ 33.538412, -10.30561 ], [ 33.548117, -10.292649 ], [ 33.550984, -10.265896 ], [ 33.562545, -10.238191 ], [ 33.559086, -10.22679 ], [ 33.537248, -10.213806 ], [ 33.51922, -10.207637 ], [ 33.493818, -10.178973 ], [ 33.458817, -10.170535 ], [ 33.437261, -10.149361 ], [ 33.419445, -10.125853 ], [ 33.385275, -10.105738 ], [ 33.363773, -10.101959 ], [ 33.350915, -10.091788 ], [ 33.339138, -10.088032 ], [ 33.319617, -10.065239 ], [ 33.318979, -10.045003 ], [ 33.344592, -9.972071 ], [ 33.348174, -9.946559 ], [ 33.365693, -9.926251 ], [ 33.377243, -9.918225 ], [ 33.380896, -9.905706 ], [ 33.370979, -9.883026 ], [ 33.367597, -9.860398 ], [ 33.346776, -9.829128 ], [ 33.338046, -9.823265 ], [ 33.311151, -9.816095 ], [ 33.30072, -9.809642 ], [ 33.289687, -9.809567 ], [ 33.284783, -9.806559 ], [ 33.279562, -9.798833 ], [ 33.270648, -9.765332 ], [ 33.262444, -9.753755 ], [ 33.236701, -9.731715 ], [ 33.227162, -9.718175 ], [ 33.2244, -9.685524 ], [ 33.226876, -9.655035 ], [ 33.219457, -9.64179 ], [ 33.213405, -9.621069 ], [ 33.194247, -9.605671 ], [ 33.180021, -9.605183 ], [ 33.154114, -9.613549 ], [ 33.134394, -9.610552 ], [ 33.125623, -9.602307 ], [ 33.120944, -9.601854 ], [ 33.113136, -9.610445 ], [ 33.108776, -9.624441 ], [ 33.109354, -9.631828 ], [ 33.117757, -9.64532 ], [ 33.111611, -9.649056 ], [ 33.110246, -9.662201 ], [ 33.101381, -9.684618 ], [ 33.098009, -9.686887 ], [ 33.087117, -9.680105 ], [ 33.08169, -9.664092 ], [ 33.060374, -9.633842 ], [ 33.050781, -9.633291 ], [ 33.038797, -9.647593 ], [ 33.030483, -9.649962 ], [ 33.007336, -9.641454 ], [ 33.003098, -9.615159 ], [ 33.004277, -9.601093 ], [ 33.011617, -9.574776 ], [ 33.011706, -9.557264 ], [ 33.0279, -9.525814 ], [ 33.02708, -9.510621 ], [ 33.022665, -9.501975 ], [ 33.015118, -9.497403 ], [ 32.989939, -9.492326 ], [ 32.975384, -9.481874 ], [ 32.95206, -9.489288 ], [ 32.947855, -9.485072 ], [ 32.946622, -9.469551 ], [ 32.943609, -9.425782 ], [ 32.94717, -9.41181 ], [ 32.953163, -9.4043 ], [ 32.95351, -9.40145 ], [ 32.967345, -9.395357 ], [ 32.967881, -9.389476 ], [ 32.989939, -9.36968 ], [ 32.997026, -9.368035 ], [ 33.003693, -9.371352 ], [ 33.010003, -9.37756 ], [ 33.027071, -9.407394 ], [ 33.047217, -9.419739 ], [ 33.069128, -9.441478 ], [ 33.079688, -9.449162 ], [ 33.095573, -9.454093 ], [ 33.103906, -9.462232 ], [ 33.111478, -9.465056 ], [ 33.12564, -9.481316 ], [ 33.152007, -9.493839 ], [ 33.186321, -9.497511 ], [ 33.198797, -9.506282 ], [ 33.209153, -9.508508 ], [ 33.22036, -9.503586 ], [ 33.226986, -9.495121 ], [ 33.255537, -9.486999 ], [ 33.260726, -9.488677 ], [ 33.26825, -9.4975 ], [ 33.281402, -9.500775 ], [ 33.292744, -9.492744 ], [ 33.308297, -9.488908 ], [ 33.328736, -9.491414 ], [ 33.347144, -9.507826 ], [ 33.356956, -9.520916 ], [ 33.370493, -9.524439 ], [ 33.382012, -9.534504 ], [ 33.391477, -9.538024 ], [ 33.398009, -9.549137 ], [ 33.419721, -9.570706 ], [ 33.422959, -9.582455 ], [ 33.420219, -9.594492 ], [ 33.443902, -9.613929 ], [ 33.48598, -9.624597 ], [ 33.497941, -9.621131 ], [ 33.518784, -9.626642 ], [ 33.541869, -9.613222 ], [ 33.552941, -9.59216 ], [ 33.571529, -9.590259 ], [ 33.589145, -9.581216 ], [ 33.613874, -9.596674 ], [ 33.622206, -9.598872 ], [ 33.628911, -9.605065 ], [ 33.648643, -9.602404 ], [ 33.664437, -9.608656 ], [ 33.679224, -9.608348 ], [ 33.684478, -9.608239 ], [ 33.701581, -9.617287 ], [ 33.714131, -9.59949 ], [ 33.725619, -9.589282 ], [ 33.738559, -9.585037 ], [ 33.764119, -9.583015 ], [ 33.776088, -9.588088 ], [ 33.791177, -9.603899 ], [ 33.804261, -9.608707 ], [ 33.818689, -9.630787 ], [ 33.846281, -9.644081 ], [ 33.858028, -9.655703 ], [ 33.898308, -9.684054 ], [ 33.916409, -9.691364 ], [ 33.918237, -9.695568 ], [ 33.914744, -9.702903 ], [ 33.919317, -9.707534 ], [ 33.930955, -9.707168 ], [ 33.938009, -9.710606 ], [ 33.943528, -9.704595 ], [ 33.954303, -9.668484 ], [ 33.957523, -9.643948 ], [ 33.966763, -9.62634 ], [ 33.958524, -9.600699 ], [ 33.946066, -9.579015 ], [ 33.945945, -9.570874 ], [ 33.954785, -9.546428 ], [ 33.965061, -9.528485 ], [ 33.986799, -9.510945 ], [ 34.014748, -9.494994 ], [ 34.037066, -9.492691 ], [ 34.055829, -9.509631 ], [ 34.063718, -9.521922 ], [ 34.071677, -9.525562 ], [ 34.076934, -9.527966 ], [ 34.110713, -9.556671 ], [ 34.139575, -9.586316 ], [ 34.175164, -9.612903 ], [ 34.195551, -9.636835 ], [ 34.231217, -9.668753 ], [ 34.269828, -9.709811 ], [ 34.30642, -9.741136 ], [ 34.325707, -9.768137 ], [ 34.338627, -9.799042 ], [ 34.362959, -9.820602 ], [ 34.393013, -9.863941 ], [ 34.429647, -9.902052 ], [ 34.458609, -9.941089 ], [ 34.503337, -9.979311 ], [ 34.524162, -10.01711 ], [ 34.536422, -10.04847 ], [ 34.536765, -10.067454 ], [ 34.518636, -10.099996 ], [ 34.522019, -10.113668 ], [ 34.533144, -10.131772 ], [ 34.553458, -10.184306 ], [ 34.555605, -10.208321 ], [ 34.553417, -10.234657 ], [ 34.557776, -10.253581 ], [ 34.566774, -10.269439 ], [ 34.570375, -10.292684 ], [ 34.568691, -10.308427 ], [ 34.55986, -10.325042 ], [ 34.548055, -10.378561 ], [ 34.542242, -10.390465 ], [ 34.541992, -10.413367 ], [ 34.550947, -10.440162 ], [ 34.553214, -10.442357 ], [ 34.563309, -10.440639 ], [ 34.567935, -10.443788 ], [ 34.569116, -10.456088 ], [ 34.574722, -10.468141 ], [ 34.570693, -10.479558 ], [ 34.549131, -10.50597 ], [ 34.549414, -10.510615 ], [ 34.558487, -10.518866 ], [ 34.550578, -10.524391 ], [ 34.559114, -10.555871 ], [ 34.595644, -10.585774 ], [ 34.590801, -10.594324 ], [ 34.588458, -10.606737 ], [ 34.596912, -10.622856 ], [ 34.608154, -10.6339 ], [ 34.624187, -10.678395 ], [ 34.618139, -10.707833 ], [ 34.622936, -10.716499 ], [ 34.638591, -10.730972 ], [ 34.649166, -10.748642 ], [ 34.651214, -10.75888 ], [ 34.645633, -10.785293 ], [ 34.649829, -10.814961 ], [ 34.647687, -10.827455 ], [ 34.64227, -10.852795 ], [ 34.645229, -10.878373 ], [ 34.641393, -10.895416 ], [ 34.649157, -10.911156 ], [ 34.638526, -10.943281 ], [ 34.621786, -10.960687 ], [ 34.6174, -10.967942 ], [ 34.6046, -10.989117 ], [ 34.601305, -11.00818 ], [ 34.603619, -11.033258 ], [ 34.611163, -11.048787 ], [ 34.6174, -11.048501 ], [ 34.621065, -11.048334 ], [ 34.635037, -11.055114 ], [ 34.637473, -11.067304 ], [ 34.629657, -11.067101 ], [ 34.636474, -11.080492 ], [ 34.628788, -11.103206 ], [ 34.633835, -11.116853 ], [ 34.646206, -11.126006 ], [ 34.685143, -11.140959 ], [ 34.697731, -11.150805 ], [ 34.710868, -11.173632 ], [ 34.723769, -11.181856 ], [ 34.729872, -11.18973 ], [ 34.737779, -11.21242 ], [ 34.759894, -11.243465 ], [ 34.763802, -11.259698 ], [ 34.776619, -11.264448 ], [ 34.786294, -11.274708 ], [ 34.789838, -11.282043 ], [ 34.788976, -11.287599 ], [ 34.786493, -11.291245 ], [ 34.779365, -11.293454 ], [ 34.775806, -11.301099 ], [ 34.783788, -11.325163 ], [ 34.804638, -11.32148 ], [ 34.810108, -11.323421 ], [ 34.833864, -11.331854 ], [ 34.881163, -11.354587 ], [ 34.890538, -11.36498 ], [ 34.910626, -11.379049 ], [ 34.925259, -11.413597 ], [ 34.936212, -11.482003 ], [ 34.948201, -11.514523 ], [ 34.948093, -11.535928 ], [ 34.95957, -11.573331 ], [ 34.810108, -11.573347 ], [ 34.6174, -11.573369 ], [ 34.612839, -11.573369 ], [ 34.6174, -11.58523 ], [ 34.626871, -11.609852 ], [ 34.635545, -11.632402 ], [ 34.644629, -11.663835 ], [ 34.646241, -11.685883 ], [ 34.644198, -11.702121 ], [ 34.636744, -11.731846 ], [ 34.625703, -11.757194 ], [ 34.6174, -11.771382 ], [ 34.61576, -11.774184 ], [ 34.597233, -11.799701 ], [ 34.568025, -11.832634 ], [ 34.553187, -11.854507 ], [ 34.543301, -11.881036 ], [ 34.542511, -11.893257 ], [ 34.546558, -11.92174 ], [ 34.543281, -11.933555 ], [ 34.536105, -11.945939 ], [ 34.510026, -11.973402 ], [ 34.503049, -11.982415 ], [ 34.49472, -11.998967 ], [ 34.486819, -12.007766 ], [ 34.463448, -12.041804 ], [ 34.447818, -12.072204 ], [ 34.442167, -12.079913 ], [ 34.417272, -12.10653 ], [ 34.404204, -12.123584 ], [ 34.383554, -12.150529 ], [ 34.374859, -12.16583 ], [ 34.36666, -12.182242 ], [ 34.360079, -12.206453 ], [ 34.356344, -12.258411 ], [ 34.35967, -12.292368 ], [ 34.36583, -12.312064 ], [ 34.381822, -12.34897 ], [ 34.395911, -12.371409 ], [ 34.404204, -12.387408 ], [ 34.418496, -12.41498 ], [ 34.419339, -12.421573 ], [ 34.421604, -12.439291 ], [ 34.422034, -12.471801 ], [ 34.425774, -12.491217 ], [ 34.436878, -12.509323 ], [ 34.459941, -12.539425 ], [ 34.46937, -12.556643 ], [ 34.477182, -12.575563 ], [ 34.480912, -12.600723 ], [ 34.48299, -12.631219 ], [ 34.493629, -12.679132 ], [ 34.506038, -12.707818 ], [ 34.514279, -12.732598 ], [ 34.518798, -12.774479 ], [ 34.518415, -12.802625 ], [ 34.524997, -12.848659 ], [ 34.537765, -12.889908 ], [ 34.554228, -12.960665 ], [ 34.565898, -12.9964 ], [ 34.569482, -13.007374 ], [ 34.574812, -13.049057 ], [ 34.572756, -13.10403 ], [ 34.563707, -13.185609 ], [ 34.563705, -13.221349 ], [ 34.56534, -13.246483 ], [ 34.564528, -13.263719 ], [ 34.563236, -13.27548 ], [ 34.550539, -13.310908 ], [ 34.553409, -13.358491 ], [ 34.558342, -13.382783 ], [ 34.566999, -13.406313 ], [ 34.577674, -13.430952 ], [ 34.604409, -13.4813 ], [ 34.6174, -13.481308 ], [ 34.810108, -13.481435 ], [ 34.880471, -13.481481 ], [ 34.940904, -13.544197 ], [ 35.103037, -13.697152 ], [ 35.163072, -13.77629 ], [ 35.240847, -13.878774 ], [ 35.344407, -13.994633 ], [ 35.436331, -14.097426 ], [ 35.500038, -14.169081 ], [ 35.535617, -14.258899 ], [ 35.884374, -14.672601 ], [ 35.884805, -14.741823 ], [ 35.885737, -14.891511 ], [ 35.931041, -14.894796 ], [ 35.821627, -15.130229 ], [ 35.803992, -15.16815 ], [ 35.855477, -15.366993 ], [ 35.866076, -15.417897 ], [ 35.855812, -15.537421 ], [ 35.841924, -15.699231 ], [ 35.827236, -15.925808 ], [ 35.811374, -15.946044 ], [ 35.806123, -15.963059 ], [ 35.807207, -15.988827 ], [ 35.816275, -15.997296 ], [ 35.818408, -16.003072 ], [ 35.8183, -16.018553 ], [ 35.813258, -16.031279 ], [ 35.772484, -16.055115 ], [ 35.758401, -16.073346 ], [ 35.715984, -16.091467 ], [ 35.705549, -16.101101 ], [ 35.690212, -16.102 ], [ 35.677702, -16.096951 ], [ 35.670089, -16.097011 ], [ 35.631557, -16.112721 ], [ 35.622129, -16.123233 ], [ 35.592406, -16.1308 ], [ 35.577352, -16.12618 ], [ 35.568134, -16.130819 ], [ 35.556997, -16.124769 ], [ 35.545171, -16.140908 ], [ 35.538575, -16.157402 ], [ 35.52411, -16.166013 ], [ 35.520095, -16.164943 ], [ 35.514937, -16.157853 ], [ 35.500545, -16.154042 ], [ 35.498122, -16.146424 ], [ 35.487745, -16.138257 ], [ 35.483939, -16.122283 ], [ 35.465317, -16.12149 ], [ 35.447456, -16.115102 ], [ 35.431558, -16.114815 ], [ 35.407101, -16.126099 ], [ 35.391334, -16.149999 ], [ 35.375129, -16.156631 ], [ 35.351231, -16.177872 ], [ 35.341371, -16.192094 ], [ 35.315704, -16.206629 ], [ 35.305863, -16.224831 ], [ 35.296757, -16.234518 ], [ 35.294174, -16.244413 ], [ 35.298081, -16.263492 ], [ 35.295618, -16.279354 ], [ 35.287834, -16.295321 ], [ 35.280478, -16.32263 ], [ 35.29933, -16.350021 ], [ 35.290468, -16.365445 ], [ 35.27215, -16.384346 ], [ 35.264319, -16.398496 ], [ 35.262387, -16.419565 ], [ 35.266464, -16.437379 ], [ 35.260368, -16.475262 ], [ 35.244979, -16.490169 ], [ 35.216193, -16.498692 ], [ 35.207537, -16.515579 ], [ 35.18448, -16.521518 ], [ 35.178126, -16.528216 ], [ 35.174563, -16.540555 ], [ 35.163072, -16.547169 ], [ 35.150608, -16.554344 ], [ 35.145632, -16.560756 ], [ 35.149066, -16.568819 ], [ 35.147808, -16.576763 ], [ 35.154396, -16.588195 ], [ 35.158673, -16.604199 ], [ 35.163072, -16.606294 ], [ 35.169834, -16.609514 ], [ 35.171425, -16.621052 ], [ 35.204086, -16.637484 ], [ 35.215008, -16.65123 ], [ 35.228526, -16.649756 ], [ 35.236741, -16.670077 ], [ 35.246966, -16.677846 ], [ 35.258586, -16.681482 ], [ 35.274587, -16.702822 ], [ 35.28668, -16.713118 ], [ 35.283427, -16.731883 ], [ 35.290563, -16.739308 ], [ 35.287183, -16.749181 ], [ 35.295537, -16.765127 ], [ 35.288843, -16.778791 ], [ 35.28947, -16.791817 ], [ 35.303959, -16.808486 ], [ 35.312399, -16.830869 ], [ 35.305954, -16.842134 ], [ 35.301706, -16.85866 ], [ 35.293113, -16.868889 ], [ 35.282438, -16.875893 ], [ 35.2812, -16.885927 ], [ 35.273881, -16.892725 ], [ 35.275292, -16.895846 ], [ 35.282123, -16.898399 ], [ 35.283181, -16.902208 ], [ 35.268821, -16.928494 ], [ 35.264792, -16.942026 ], [ 35.271386, -16.950813 ], [ 35.271586, -16.96005 ], [ 35.282113, -16.964797 ], [ 35.293379, -16.96418 ], [ 35.302975, -16.982075 ], [ 35.301345, -16.995546 ], [ 35.294633, -17.006663 ], [ 35.296222, -17.018383 ], [ 35.293322, -17.031711 ], [ 35.299798, -17.046768 ], [ 35.299355, -17.05809 ], [ 35.311105, -17.062489 ], [ 35.30826, -17.081908 ], [ 35.302569, -17.095568 ], [ 35.306922, -17.120628 ], [ 35.3029, -17.123889 ], [ 35.284712, -17.127165 ], [ 35.163072, -17.12822 ], [ 35.107455, -17.128703 ], [ 35.093233, -17.125274 ], [ 35.080794, -17.108781 ], [ 35.089049, -17.095444 ], [ 35.100552, -17.092051 ], [ 35.103814, -17.086931 ], [ 35.095346, -17.078781 ], [ 35.085576, -17.075257 ], [ 35.079008, -17.064689 ], [ 35.058363, -17.047632 ], [ 35.062086, -17.021557 ], [ 35.054975, -17.007175 ], [ 35.062442, -16.99507 ], [ 35.071884, -16.989249 ], [ 35.094116, -16.985439 ], [ 35.110924, -16.976823 ], [ 35.133264, -16.97077 ], [ 35.139301, -16.964747 ], [ 35.139348, -16.95505 ], [ 35.149075, -16.939409 ], [ 35.163072, -16.936611 ], [ 35.167677, -16.93569 ], [ 35.163072, -16.912572 ], [ 35.160267, -16.898488 ], [ 35.149003, -16.874234 ], [ 35.150317, -16.86657 ], [ 35.16023, -16.855814 ], [ 35.160686, -16.847926 ], [ 35.156995, -16.839602 ], [ 35.128139, -16.817277 ], [ 35.107261, -16.815847 ], [ 35.073438, -16.820043 ], [ 35.056497, -16.830845 ], [ 35.041731, -16.826974 ], [ 35.03524, -16.822194 ], [ 35.028086, -16.809245 ], [ 35.007557, -16.801945 ], [ 34.994547, -16.791144 ], [ 34.992053, -16.773376 ], [ 34.981178, -16.751359 ], [ 34.964251, -16.742006 ], [ 34.951906, -16.74331 ], [ 34.939067, -16.748898 ], [ 34.923329, -16.744937 ], [ 34.917833, -16.731906 ], [ 34.916002, -16.715468 ], [ 34.907925, -16.697105 ], [ 34.900155, -16.691995 ], [ 34.880699, -16.686552 ], [ 34.858141, -16.671926 ], [ 34.852803, -16.652044 ], [ 34.852212, -16.634911 ], [ 34.846154, -16.617095 ], [ 34.831691, -16.605315 ], [ 34.816062, -16.603725 ], [ 34.810108, -16.59956 ], [ 34.791005, -16.586196 ], [ 34.774477, -16.580888 ], [ 34.778331, -16.565762 ], [ 34.776238, -16.54934 ], [ 34.75204, -16.520313 ], [ 34.736288, -16.506259 ], [ 34.718508, -16.498132 ], [ 34.708546, -16.498054 ], [ 34.697948, -16.502673 ], [ 34.68694, -16.498972 ], [ 34.681721, -16.492234 ], [ 34.679732, -16.483333 ], [ 34.682449, -16.463126 ], [ 34.673037, -16.446124 ], [ 34.665448, -16.444029 ], [ 34.64955, -16.45002 ], [ 34.641349, -16.439424 ], [ 34.621723, -16.426857 ], [ 34.6174, -16.425456 ], [ 34.60199, -16.420461 ], [ 34.594351, -16.415219 ], [ 34.584848, -16.390609 ], [ 34.58757, -16.366363 ], [ 34.571356, -16.34466 ], [ 34.572799, -16.326639 ], [ 34.568745, -16.315531 ], [ 34.546002, -16.303169 ], [ 34.538353, -16.29308 ], [ 34.52552, -16.283054 ], [ 34.491198, -16.293926 ], [ 34.475107, -16.283468 ], [ 34.453628, -16.279374 ], [ 34.42994, -16.260071 ], [ 34.420417, -16.246271 ], [ 34.415626, -16.222106 ], [ 34.406788, -16.214152 ], [ 34.401029, -16.198505 ], [ 34.398376, -16.17919 ], [ 34.402534, -16.159717 ], [ 34.392149, -16.136142 ], [ 34.402866, -16.110803 ], [ 34.416529, -16.092155 ], [ 34.414773, -16.074327 ], [ 34.424921, -16.064148 ], [ 34.4237, -16.04036 ], [ 34.378373, -16.011989 ], [ 34.367957, -15.998039 ], [ 34.332541, -15.963969 ], [ 34.308703, -15.931823 ], [ 34.300644, -15.928691 ], [ 34.282351, -15.931843 ], [ 34.276412, -15.922692 ], [ 34.263694, -15.918512 ], [ 34.258524, -15.913359 ], [ 34.254787, -15.894787 ], [ 34.260305, -15.886331 ], [ 34.254024, -15.878492 ], [ 34.257507, -15.862502 ], [ 34.251751, -15.84217 ], [ 34.257238, -15.822897 ], [ 34.270661, -15.812146 ], [ 34.271227, -15.798453 ], [ 34.286938, -15.783629 ], [ 34.306026, -15.755936 ], [ 34.332042, -15.741839 ], [ 34.349103, -15.741932 ], [ 34.369211, -15.733353 ], [ 34.385606, -15.708049 ], [ 34.392154, -15.685645 ], [ 34.401695, -15.682831 ], [ 34.407902, -15.674116 ], [ 34.432493, -15.659603 ], [ 34.431841, -15.623992 ], [ 34.438805, -15.614133 ], [ 34.453547, -15.606212 ], [ 34.450044, -15.591971 ], [ 34.439346, -15.580253 ], [ 34.441855, -15.569351 ], [ 34.441069, -15.537421 ], [ 34.434012, -15.512744 ], [ 34.42699, -15.498823 ], [ 34.425396, -15.479886 ], [ 34.425944, -15.475075 ], [ 34.443356, -15.454411 ], [ 34.440116, -15.437738 ], [ 34.441463, -15.425397 ], [ 34.468079, -15.428384 ], [ 34.491469, -15.412483 ], [ 34.512751, -15.409492 ], [ 34.520506, -15.387463 ], [ 34.517312, -15.371875 ], [ 34.521837, -15.350587 ], [ 34.539156, -15.330287 ], [ 34.556163, -15.336658 ], [ 34.562105, -15.327953 ], [ 34.572744, -15.323725 ], [ 34.575002, -15.315187 ], [ 34.573253, -15.306737 ], [ 34.600378, -15.280715 ], [ 34.602149, -15.266431 ], [ 34.599282, -15.253687 ], [ 34.603387, -15.239485 ], [ 34.592733, -15.224466 ], [ 34.590402, -15.213505 ], [ 34.57923, -15.201901 ], [ 34.583588, -15.181996 ], [ 34.578605, -15.170514 ], [ 34.577378, -15.137788 ], [ 34.57422, -15.130229 ], [ 34.570747, -15.121916 ], [ 34.572638, -15.11491 ], [ 34.584058, -15.105896 ], [ 34.590696, -15.094211 ], [ 34.58533, -15.087171 ], [ 34.574371, -15.084132 ], [ 34.572358, -15.076291 ], [ 34.576836, -15.061621 ], [ 34.589579, -15.047848 ], [ 34.60337, -15.039152 ], [ 34.606922, -15.022482 ], [ 34.6174, -15.01183 ], [ 34.618714, -15.010494 ], [ 34.621858, -15.001465 ], [ 34.6174, -14.994198 ], [ 34.61447, -14.989421 ], [ 34.614141, -14.978512 ], [ 34.600975, -14.971469 ], [ 34.593999, -14.960126 ], [ 34.587911, -14.933719 ], [ 34.575973, -14.907835 ], [ 34.566935, -14.896852 ], [ 34.569124, -14.885733 ], [ 34.577571, -14.872123 ], [ 34.573272, -14.82633 ], [ 34.582283, -14.814173 ], [ 34.582774, -14.808682 ], [ 34.574344, -14.790265 ], [ 34.56646, -14.781048 ], [ 34.564824, -14.770686 ], [ 34.547058, -14.750504 ], [ 34.544879, -14.741823 ], [ 34.541721, -14.729238 ], [ 34.53066, -14.711417 ], [ 34.521141, -14.68697 ], [ 34.523291, -14.681065 ], [ 34.537545, -14.673496 ], [ 34.541507, -14.658546 ], [ 34.549744, -14.645542 ], [ 34.542455, -14.630869 ], [ 34.541418, -14.599771 ], [ 34.529002, -14.581206 ], [ 34.522628, -14.565697 ], [ 34.513871, -14.554252 ], [ 34.498801, -14.55203 ], [ 34.493048, -14.540465 ], [ 34.475695, -14.531807 ], [ 34.465203, -14.51923 ], [ 34.452111, -14.497805 ], [ 34.446969, -14.478884 ], [ 34.42845, -14.456199 ], [ 34.419381, -14.433021 ], [ 34.404089, -14.419372 ], [ 34.392691, -14.396576 ], [ 34.377514, -14.39542 ], [ 34.369779, -14.388873 ], [ 34.358848, -14.386764 ], [ 34.345224, -14.396161 ], [ 34.329286, -14.397871 ], [ 34.314151, -14.403119 ], [ 34.298019, -14.39984 ], [ 34.281274, -14.411837 ], [ 34.272435, -14.425419 ], [ 34.264857, -14.429642 ], [ 34.236156, -14.425168 ], [ 34.231217, -14.428238 ], [ 34.212348, -14.439967 ], [ 34.179732, -14.437558 ], [ 34.090279, -14.45642 ], [ 34.085129, -14.462165 ], [ 34.081632, -14.487553 ], [ 33.981438, -14.48129 ], [ 33.920649, -14.47749 ], [ 33.894335, -14.491019 ], [ 33.879898, -14.513339 ], [ 33.871578, -14.515277 ], [ 33.857114, -14.510532 ], [ 33.830432, -14.53685 ], [ 33.812634, -14.548188 ], [ 33.799369, -14.546361 ], [ 33.787935, -14.536287 ], [ 33.74829, -14.513836 ], [ 33.735864, -14.500824 ], [ 33.718356, -14.500236 ], [ 33.71058, -14.506697 ], [ 33.710374, -14.524967 ], [ 33.704378, -14.539253 ], [ 33.713488, -14.564762 ], [ 33.714349, -14.577155 ], [ 33.694811, -14.590642 ], [ 33.682352, -14.611879 ], [ 33.668969, -14.617307 ], [ 33.660284, -14.602151 ], [ 33.635181, -14.583926 ], [ 33.623034, -14.552533 ], [ 33.627366, -14.534032 ], [ 33.604742, -14.492227 ], [ 33.587072, -14.481662 ], [ 33.56543, -14.476345 ], [ 33.554552, -14.451493 ], [ 33.540406, -14.430182 ], [ 33.528157, -14.423059 ], [ 33.504276, -14.418078 ], [ 33.49078, -14.407679 ], [ 33.473029, -14.39993 ], [ 33.466768, -14.383311 ], [ 33.449112, -14.362358 ], [ 33.449705, -14.347013 ], [ 33.443459, -14.326498 ], [ 33.431538, -14.314614 ], [ 33.418341, -14.286721 ], [ 33.407114, -14.276597 ], [ 33.395477, -14.25056 ], [ 33.384425, -14.237759 ], [ 33.376041, -14.213742 ], [ 33.367351, -14.210779 ], [ 33.356844, -14.219741 ], [ 33.342084, -14.213767 ], [ 33.331996, -14.185626 ], [ 33.299867, -14.142562 ], [ 33.316573, -14.088366 ], [ 33.312986, -14.062689 ], [ 33.294522, -14.034445 ], [ 33.266694, -14.027762 ], [ 33.242222, -13.998521 ] ] ], [ [ [ 34.676847, -12.088511 ], [ 34.677686, -12.075704 ], [ 34.680972, -12.067771 ], [ 34.688807, -12.05574 ], [ 34.693835, -12.037415 ], [ 34.694009, -12.030466 ], [ 34.696232, -12.022171 ], [ 34.700525, -12.014735 ], [ 34.707702, -12.006891 ], [ 34.714841, -12.00212 ], [ 34.722973, -11.99936 ], [ 34.73142, -11.998359 ], [ 34.739933, -11.99948 ], [ 34.763922, -12.009594 ], [ 34.785493, -12.025435 ], [ 34.791911, -12.03655 ], [ 34.793586, -12.049275 ], [ 34.791173, -12.06065 ], [ 34.787375, -12.068351 ], [ 34.782423, -12.074505 ], [ 34.780271, -12.085103 ], [ 34.768797, -12.094168 ], [ 34.72768, -12.133255 ], [ 34.714288, -12.129036 ], [ 34.695152, -12.117807 ], [ 34.6834, -12.105076 ], [ 34.679069, -12.096805 ], [ 34.676847, -12.088511 ] ] ], [ [ [ 34.574038, -12.01719 ], [ 34.575889, -12.002363 ], [ 34.584934, -11.986342 ], [ 34.597076, -11.977641 ], [ 34.611942, -11.974612 ], [ 34.6174, -11.975836 ], [ 34.634292, -11.979626 ], [ 34.645414, -11.986046 ], [ 34.653315, -11.993875 ], [ 34.658086, -12.001015 ], [ 34.663247, -12.019894 ], [ 34.661759, -12.041683 ], [ 34.652956, -12.060379 ], [ 34.63766, -12.077573 ], [ 34.630223, -12.081867 ], [ 34.619787, -12.0843 ], [ 34.6174, -12.084158 ], [ 34.608853, -12.083651 ], [ 34.600722, -12.080891 ], [ 34.591305, -12.074894 ], [ 34.585643, -12.068438 ], [ 34.580381, -12.054456 ], [ 34.580381, -12.045869 ], [ 34.582515, -12.03779 ], [ 34.576472, -12.027626 ], [ 34.574038, -12.01719 ] ] ] ] } }
]
}
