{
"type": "FeatureCollection",
"name": "Maldives",
"crs": { "type": "name", "properties": { "name": "urn:ogc:def:crs:OGC:1.3:CRS84" } },
"features": [
{ "type": "Feature", "properties": { "id": "MV", "CNTR_ID": "MV", "CNTR_NAME": "Republic of Maldives", "NAME_ENGL": "Maldives", "ISO3_CODE": "MDV", "FID": "MV" }, "geometry": { "type": "MultiPolygon", "coordinates": [ [ [ [ 73.515858, 1.852321 ], [ 73.522748, 1.869488 ], [ 73.524053, 1.869654 ], [ 73.526888, 1.880067 ], [ 73.529528, 1.883771 ], [ 73.532953, 1.891273 ], [ 73.536694, 1.90534 ], [ 73.538495, 1.918103 ], [ 73.539267, 1.932596 ], [ 73.539203, 1.940707 ], [ 73.541025, 1.943154 ], [ 73.544588, 1.943451 ], [ 73.551031, 1.93973 ], [ 73.552977, 1.933481 ], [ 73.55324, 1.928272 ], [ 73.547171, 1.913683 ], [ 73.542388, 1.905605 ], [ 73.53722, 1.895184 ], [ 73.537739, 1.894403 ], [ 73.53307, 1.882954 ], [ 73.529964, 1.879569 ], [ 73.531012, 1.872446 ], [ 73.529344, 1.867565 ], [ 73.525885, 1.867618 ], [ 73.523915, 1.860975 ], [ 73.524788, 1.85811 ], [ 73.522233, 1.852483 ], [ 73.515858, 1.852321 ] ] ], [ [ [ 73.076316, -0.591066 ], [ 73.077336, -0.583995 ], [ 73.087914, -0.579999 ], [ 73.087491, -0.587722 ], [ 73.084377, -0.587288 ], [ 73.081641, -0.591066 ], [ 73.09453, -0.605775 ], [ 73.099297, -0.618648 ], [ 73.099514, -0.627323 ], [ 73.097977, -0.62798 ], [ 73.090627, -0.620585 ], [ 73.076316, -0.591066 ] ] ], [ [ [ 73.550975, 2.11692 ], [ 73.556528, 2.120528 ], [ 73.571379, 2.123038 ], [ 73.580253, 2.12772 ], [ 73.583967, 2.132806 ], [ 73.58587, 2.130804 ], [ 73.585783, 2.126868 ], [ 73.583802, 2.122442 ], [ 73.568891, 2.115764 ], [ 73.564689, 2.112799 ], [ 73.559245, 2.106478 ], [ 73.554204, 2.105627 ], [ 73.554688, 2.111896 ], [ 73.550975, 2.11692 ] ] ], [ [ [ 73.447316, 4.952962 ], [ 73.447444, 4.954267 ], [ 73.453428, 4.955195 ], [ 73.457589, 4.957032 ], [ 73.463172, 4.962397 ], [ 73.465374, 4.96697 ], [ 73.469282, 4.965674 ], [ 73.471761, 4.962678 ], [ 73.47177, 4.958762 ], [ 73.470086, 4.955495 ], [ 73.465412, 4.950785 ], [ 73.456051, 4.946847 ], [ 73.449276, 4.949703 ], [ 73.447316, 4.952962 ] ] ], [ [ [ 73.143406, -0.691638 ], [ 73.144882, -0.685328 ], [ 73.154247, -0.689299 ], [ 73.1608, -0.690398 ], [ 73.167571, -0.694001 ], [ 73.166844, -0.698013 ], [ 73.163781, -0.700523 ], [ 73.153281, -0.70096 ], [ 73.149061, -0.699339 ], [ 73.143406, -0.691638 ] ] ], [ [ [ 73.162388, 6.73617 ], [ 73.174046, 6.766918 ], [ 73.179415, 6.772157 ], [ 73.182532, 6.775198 ], [ 73.184071, 6.770665 ], [ 73.179415, 6.760835 ], [ 73.175068, 6.751656 ], [ 73.164046, 6.73563 ], [ 73.162388, 6.73617 ] ] ], [ [ [ 73.197796, 6.812626 ], [ 73.198434, 6.816011 ], [ 73.203369, 6.819283 ], [ 73.205732, 6.814386 ], [ 73.210014, 6.817876 ], [ 73.210131, 6.82152 ], [ 73.20609, 6.822807 ], [ 73.209851, 6.826854 ], [ 73.214018, 6.82674 ], [ 73.216889, 6.824929 ], [ 73.218334, 6.82129 ], [ 73.2177, 6.816864 ], [ 73.21122, 6.808901 ], [ 73.206018, 6.80732 ], [ 73.202106, 6.808998 ], [ 73.197796, 6.812626 ] ] ], [ [ [ 73.222194, -0.582038 ], [ 73.227194, -0.581023 ], [ 73.235991, -0.579239 ], [ 73.23927, -0.582389 ], [ 73.235707, -0.591104 ], [ 73.227194, -0.598794 ], [ 73.223518, -0.602114 ], [ 73.222795, -0.599706 ], [ 73.225698, -0.591104 ], [ 73.222194, -0.582038 ] ] ], [ [ [ 72.945287, 3.816635 ], [ 72.949735, 3.818806 ], [ 72.953508, 3.816439 ], [ 72.956828, 3.819787 ], [ 72.963008, 3.819441 ], [ 72.96459, 3.81639 ], [ 72.965537, 3.809305 ], [ 72.965256, 3.80415 ], [ 72.959225, 3.804646 ], [ 72.953066, 3.808722 ], [ 72.950981, 3.813055 ], [ 72.949251, 3.812921 ], [ 72.945287, 3.816635 ] ] ], [ [ [ 73.263123, 0.224577 ], [ 73.270263, 0.231635 ], [ 73.277017, 0.233858 ], [ 73.282733, 0.233728 ], [ 73.281435, 0.227713 ], [ 73.277278, 0.222873 ], [ 73.271563, 0.220257 ], [ 73.264288, 0.222087 ], [ 73.263123, 0.224577 ] ] ], [ [ [ 73.076756, 6.662407 ], [ 73.077223, 6.667636 ], [ 73.081147, 6.672673 ], [ 73.085083, 6.670658 ], [ 73.088089, 6.663939 ], [ 73.087786, 6.65708 ], [ 73.082567, 6.652629 ], [ 73.078315, 6.654851 ], [ 73.076756, 6.662407 ] ] ], [ [ [ 73.500463, 4.173135 ], [ 73.502092, 4.17744 ], [ 73.505885, 4.180978 ], [ 73.518764, 4.177539 ], [ 73.517578, 4.17027 ], [ 73.510585, 4.169077 ], [ 73.502588, 4.169262 ], [ 73.500463, 4.173135 ] ] ], [ [ [ 73.425138, 0.271946 ], [ 73.427519, 0.280433 ], [ 73.432355, 0.284755 ], [ 73.442867, 0.283498 ], [ 73.432355, 0.26986 ], [ 73.426748, 0.266809 ], [ 73.425138, 0.271946 ] ] ], [ [ [ 73.063301, 6.631382 ], [ 73.063812, 6.634525 ], [ 73.066167, 6.634665 ], [ 73.073781, 6.629067 ], [ 73.07602, 6.625411 ], [ 73.0763, 6.620701 ], [ 73.074751, 6.614936 ], [ 73.072276, 6.612047 ], [ 73.068341, 6.614388 ], [ 73.068309, 6.622632 ], [ 73.065812, 6.62511 ], [ 73.063301, 6.631382 ] ] ], [ [ [ 73.209412, 6.960155 ], [ 73.215068, 6.96598 ], [ 73.219668, 6.963571 ], [ 73.222164, 6.956567 ], [ 73.217277, 6.942521 ], [ 73.215055, 6.941744 ], [ 73.213597, 6.953417 ], [ 73.209412, 6.960155 ] ] ], [ [ [ 73.377518, 1.78255 ], [ 73.379445, 1.786408 ], [ 73.37887, 1.794187 ], [ 73.385974, 1.800318 ], [ 73.388731, 1.801324 ], [ 73.395473, 1.800061 ], [ 73.396745, 1.797694 ], [ 73.384645, 1.789969 ], [ 73.386779, 1.786838 ], [ 73.380257, 1.782219 ], [ 73.377518, 1.78255 ] ] ], [ [ [ 73.534579, 4.207887 ], [ 73.539036, 4.223481 ], [ 73.546945, 4.221073 ], [ 73.544822, 4.212828 ], [ 73.541098, 4.201553 ], [ 73.539511, 4.201296 ], [ 73.534579, 4.207887 ] ] ], [ [ [ 73.045813, 6.576449 ], [ 73.04923, 6.581561 ], [ 73.051102, 6.581736 ], [ 73.05661, 6.576958 ], [ 73.057675, 6.5722 ], [ 73.057592, 6.565999 ], [ 73.054255, 6.560536 ], [ 73.046653, 6.572522 ], [ 73.045813, 6.576449 ] ] ], [ [ [ 72.988186, 0.488702 ], [ 72.991404, 0.497808 ], [ 72.9967, 0.495941 ], [ 72.998369, 0.489474 ], [ 72.999007, 0.481272 ], [ 72.994808, 0.478196 ], [ 72.992517, 0.478323 ], [ 72.989817, 0.482252 ], [ 72.988186, 0.488702 ] ] ], [ [ [ 72.946126, 3.838871 ], [ 72.947236, 3.841172 ], [ 72.956635, 3.84254 ], [ 72.961009, 3.841997 ], [ 72.963272, 3.836917 ], [ 72.962815, 3.830729 ], [ 72.95731, 3.830425 ], [ 72.95224, 3.832401 ], [ 72.946126, 3.838871 ] ] ], [ [ [ 73.221173, 6.877676 ], [ 73.222846, 6.88099 ], [ 73.22507, 6.87899 ], [ 73.230263, 6.881089 ], [ 73.232073, 6.883954 ], [ 73.234039, 6.891233 ], [ 73.235839, 6.891109 ], [ 73.235598, 6.880069 ], [ 73.234454, 6.873047 ], [ 73.230043, 6.870301 ], [ 73.225621, 6.870675 ], [ 73.222618, 6.873783 ], [ 73.221173, 6.877676 ] ] ], [ [ [ 73.525091, 4.193491 ], [ 73.526416, 4.201987 ], [ 73.529098, 4.202635 ], [ 73.531787, 4.19061 ], [ 73.534935, 4.190463 ], [ 73.536513, 4.187495 ], [ 73.52975, 4.176115 ], [ 73.527727, 4.176333 ], [ 73.527669, 4.181639 ], [ 73.526254, 4.183052 ], [ 73.526754, 4.193301 ], [ 73.525091, 4.193491 ] ] ], [ [ [ 72.995518, 0.455811 ], [ 72.996907, 0.462961 ], [ 73.000833, 0.45999 ], [ 73.00162, 0.45202 ], [ 73.004077, 0.452158 ], [ 73.007451, 0.444849 ], [ 73.004988, 0.440932 ], [ 73.0046, 0.436102 ], [ 73.001229, 0.436623 ], [ 72.998633, 0.443802 ], [ 73.000708, 0.444064 ], [ 73.000637, 0.447731 ], [ 72.996689, 0.44772 ], [ 72.99864, 0.452715 ], [ 72.995518, 0.455811 ] ] ], [ [ [ 73.123933, 0.239668 ], [ 73.123933, 0.238915 ], [ 73.121005, 0.237006 ], [ 73.11265, 0.242888 ], [ 73.104033, 0.249724 ], [ 73.099829, 0.256478 ], [ 73.09024, 0.264656 ], [ 73.092643, 0.265114 ], [ 73.101824, 0.2585 ], [ 73.108105, 0.252784 ], [ 73.10971, 0.249225 ], [ 73.123933, 0.239668 ] ] ], [ [ [ 72.952282, 4.437099 ], [ 72.954804, 4.442464 ], [ 72.959069, 4.444485 ], [ 72.964721, 4.440603 ], [ 72.966108, 4.432926 ], [ 72.962314, 4.428955 ], [ 72.954559, 4.434292 ], [ 72.952282, 4.437099 ] ] ], [ [ [ 72.972401, 6.543038 ], [ 72.976256, 6.547997 ], [ 72.982129, 6.549357 ], [ 72.98789, 6.545238 ], [ 72.98644, 6.540423 ], [ 72.980307, 6.537324 ], [ 72.975495, 6.537839 ], [ 72.972412, 6.540366 ], [ 72.972401, 6.543038 ] ] ], [ [ [ 73.405845, 5.96526 ], [ 73.409642, 5.967443 ], [ 73.411647, 5.962776 ], [ 73.417557, 5.953329 ], [ 73.423567, 5.946307 ], [ 73.428921, 5.937431 ], [ 73.42743, 5.935021 ], [ 73.423064, 5.938691 ], [ 73.409115, 5.961462 ], [ 73.405845, 5.96526 ] ] ], [ [ [ 73.114894, 6.703401 ], [ 73.115781, 6.704876 ], [ 73.123746, 6.709147 ], [ 73.124544, 6.697545 ], [ 73.122857, 6.692772 ], [ 73.118994, 6.686021 ], [ 73.117303, 6.686594 ], [ 73.118158, 6.699829 ], [ 73.114894, 6.703401 ] ] ], [ [ [ 73.485969, 1.823522 ], [ 73.491999, 1.826748 ], [ 73.491999, 1.828297 ], [ 73.507017, 1.842647 ], [ 73.508465, 1.841582 ], [ 73.503855, 1.832301 ], [ 73.491999, 1.821941 ], [ 73.486789, 1.822015 ], [ 73.485969, 1.823522 ] ] ], [ [ [ 72.994255, 4.876547 ], [ 72.994255, 4.878184 ], [ 73.000493, 4.87986 ], [ 73.00594, 4.87848 ], [ 73.007337, 4.875532 ], [ 73.002109, 4.8737 ], [ 72.99969, 4.865795 ], [ 72.99595, 4.862228 ], [ 72.994255, 4.876547 ] ] ], [ [ [ 73.12461, 0.23365 ], [ 73.12821, 0.23365 ], [ 73.132086, 0.22958 ], [ 73.135153, 0.228991 ], [ 73.136954, 0.225108 ], [ 73.141298, 0.221237 ], [ 73.137726, 0.216435 ], [ 73.133612, 0.220189 ], [ 73.124867, 0.231061 ], [ 73.12461, 0.23365 ] ] ], [ [ [ 73.239153, 6.29559 ], [ 73.240997, 6.29758 ], [ 73.245905, 6.292438 ], [ 73.2503, 6.282665 ], [ 73.24965, 6.279488 ], [ 73.24265, 6.277612 ], [ 73.24355, 6.285023 ], [ 73.239153, 6.29559 ] ] ], [ [ [ 72.991904, 0.524212 ], [ 72.993841, 0.536968 ], [ 73.002391, 0.535694 ], [ 72.997956, 0.522811 ], [ 72.991904, 0.524212 ] ] ], [ [ [ 73.418698, 2.770287 ], [ 73.422445, 2.774975 ], [ 73.421939, 2.778704 ], [ 73.425156, 2.784626 ], [ 73.4267, 2.793741 ], [ 73.429284, 2.794524 ], [ 73.428299, 2.785794 ], [ 73.428688, 2.782176 ], [ 73.425561, 2.772111 ], [ 73.423101, 2.76963 ], [ 73.418698, 2.770287 ] ] ], [ [ [ 72.994255, 7.018661 ], [ 72.994255, 7.020789 ], [ 72.99606, 7.021145 ], [ 72.997629, 7.018299 ], [ 73.002578, 7.014172 ], [ 73.003757, 7.011584 ], [ 73.003, 7.006395 ], [ 72.998208, 7.0043 ], [ 72.99572, 7.009475 ], [ 72.994255, 7.018661 ] ] ], [ [ [ 73.048759, 6.747194 ], [ 73.049935, 6.752516 ], [ 73.053055, 6.753056 ], [ 73.056124, 6.749794 ], [ 73.058457, 6.743924 ], [ 73.056574, 6.739454 ], [ 73.053876, 6.739141 ], [ 73.049134, 6.744032 ], [ 73.048759, 6.747194 ] ] ], [ [ [ 72.944329, 6.549146 ], [ 72.947728, 6.552357 ], [ 72.952233, 6.553539 ], [ 72.957985, 6.553406 ], [ 72.961457, 6.551209 ], [ 72.959221, 6.547337 ], [ 72.953788, 6.546168 ], [ 72.948902, 6.546434 ], [ 72.944329, 6.549146 ] ] ], [ [ [ 73.056899, 0.284038 ], [ 73.060991, 0.28439 ], [ 73.067952, 0.274267 ], [ 73.077086, 0.270412 ], [ 73.073312, 0.267727 ], [ 73.067952, 0.268586 ], [ 73.056899, 0.284038 ] ] ], [ [ [ 72.923392, 7.089162 ], [ 72.927165, 7.08842 ], [ 72.931789, 7.082926 ], [ 72.933121, 7.078993 ], [ 72.930383, 7.074123 ], [ 72.92683, 7.075027 ], [ 72.923704, 7.085628 ], [ 72.923392, 7.089162 ] ] ], [ [ [ 73.10398, 6.300463 ], [ 73.107733, 6.308267 ], [ 73.113685, 6.307116 ], [ 73.114464, 6.304724 ], [ 73.11122, 6.298273 ], [ 73.108351, 6.295651 ], [ 73.105029, 6.297546 ], [ 73.10398, 6.300463 ] ] ], [ [ [ 73.543738, 0.505929 ], [ 73.546018, 0.506889 ], [ 73.552317, 0.499438 ], [ 73.554719, 0.491655 ], [ 73.549982, 0.492192 ], [ 73.544245, 0.501047 ], [ 73.543738, 0.505929 ] ] ], [ [ [ 73.404935, 5.771641 ], [ 73.416566, 5.767393 ], [ 73.416712, 5.763117 ], [ 73.415114, 5.761369 ], [ 73.409238, 5.761085 ], [ 73.406422, 5.765224 ], [ 73.404935, 5.771641 ] ] ], [ [ [ 73.359504, 1.782264 ], [ 73.360154, 1.784281 ], [ 73.367518, 1.784612 ], [ 73.369368, 1.786705 ], [ 73.373199, 1.785694 ], [ 73.37586, 1.78692 ], [ 73.377153, 1.785062 ], [ 73.372106, 1.781874 ], [ 73.371336, 1.778961 ], [ 73.360427, 1.780317 ], [ 73.359504, 1.782264 ] ] ], [ [ [ 72.9217, 6.428687 ], [ 72.926089, 6.431813 ], [ 72.932034, 6.434556 ], [ 72.937736, 6.433155 ], [ 72.937749, 6.430047 ], [ 72.92689, 6.425988 ], [ 72.9217, 6.428687 ] ] ], [ [ [ 73.501034, 0.330322 ], [ 73.504241, 0.332704 ], [ 73.504175, 0.336594 ], [ 73.515149, 0.342178 ], [ 73.518545, 0.340486 ], [ 73.501676, 0.328162 ], [ 73.501034, 0.330322 ] ] ], [ [ [ 73.462358, 5.882678 ], [ 73.464536, 5.885775 ], [ 73.467618, 5.887199 ], [ 73.469937, 5.885789 ], [ 73.471752, 5.880386 ], [ 73.467134, 5.876123 ], [ 73.465078, 5.87586 ], [ 73.462625, 5.878815 ], [ 73.462358, 5.882678 ] ] ], [ [ [ 73.263214, 6.234093 ], [ 73.264648, 6.238846 ], [ 73.268595, 6.24097 ], [ 73.27243, 6.237289 ], [ 73.272047, 6.233331 ], [ 73.268105, 6.229888 ], [ 73.264413, 6.23014 ], [ 73.263214, 6.234093 ] ] ], [ [ [ 73.463296, 5.813853 ], [ 73.464683, 5.816364 ], [ 73.472777, 5.823081 ], [ 73.479035, 5.832413 ], [ 73.48069, 5.831931 ], [ 73.480793, 5.826554 ], [ 73.472777, 5.819579 ], [ 73.465176, 5.813961 ], [ 73.463296, 5.813853 ] ] ], [ [ [ 73.204323, 6.351814 ], [ 73.208108, 6.354131 ], [ 73.215164, 6.351038 ], [ 73.213827, 6.345883 ], [ 73.208414, 6.344101 ], [ 73.206103, 6.346127 ], [ 73.204323, 6.351814 ] ] ], [ [ [ 73.043882, 6.361436 ], [ 73.046213, 6.364891 ], [ 73.053655, 6.365334 ], [ 73.054084, 6.360922 ], [ 73.04983, 6.356079 ], [ 73.044449, 6.3573 ], [ 73.043882, 6.361436 ] ] ], [ [ [ 73.004571, 6.60535 ], [ 73.005104, 6.607793 ], [ 73.008355, 6.608891 ], [ 73.013126, 6.602942 ], [ 73.013417, 6.59779 ], [ 73.010847, 6.596287 ], [ 73.005811, 6.600472 ], [ 73.004571, 6.60535 ] ] ], [ [ [ 73.123933, -0.673921 ], [ 73.117099, -0.667279 ], [ 73.114332, -0.660326 ], [ 73.116641, -0.660774 ], [ 73.123933, -0.668243 ], [ 73.12919, -0.674828 ], [ 73.126876, -0.677161 ], [ 73.123933, -0.673921 ] ] ], [ [ [ 72.909742, 6.438214 ], [ 72.914347, 6.444042 ], [ 72.918964, 6.445149 ], [ 72.922505, 6.443803 ], [ 72.923878, 6.440273 ], [ 72.917365, 6.437391 ], [ 72.909742, 6.438214 ] ] ], [ [ [ 72.913904, 2.323645 ], [ 72.914812, 2.32864 ], [ 72.917164, 2.328644 ], [ 72.919394, 2.322076 ], [ 72.919146, 2.313139 ], [ 72.915096, 2.313396 ], [ 72.913904, 2.323645 ] ] ], [ [ [ 73.152279, 6.83306 ], [ 73.155283, 6.834425 ], [ 73.163298, 6.828279 ], [ 73.163298, 6.824782 ], [ 73.154468, 6.825522 ], [ 73.152279, 6.83306 ] ] ], [ [ [ 73.005082, 0.395208 ], [ 73.008908, 0.397373 ], [ 73.011473, 0.395308 ], [ 73.011046, 0.39253 ], [ 73.015243, 0.39382 ], [ 73.017775, 0.389498 ], [ 73.015363, 0.389637 ], [ 73.013023, 0.386611 ], [ 73.007358, 0.387812 ], [ 73.009782, 0.391673 ], [ 73.007113, 0.392079 ], [ 73.005082, 0.395208 ] ] ], [ [ [ 73.287539, 6.150548 ], [ 73.288033, 6.156122 ], [ 73.290093, 6.156122 ], [ 73.293481, 6.150027 ], [ 73.293954, 6.142849 ], [ 73.291463, 6.140123 ], [ 73.287539, 6.150548 ] ] ], [ [ [ 73.53683, 1.97344 ], [ 73.543585, 1.971087 ], [ 73.541789, 1.962763 ], [ 73.542695, 1.95907 ], [ 73.538432, 1.959857 ], [ 73.538136, 1.967629 ], [ 73.53683, 1.97344 ] ] ], [ [ [ 72.888644, 2.669869 ], [ 72.893099, 2.67639 ], [ 72.897613, 2.673876 ], [ 72.898454, 2.667162 ], [ 72.891855, 2.667767 ], [ 72.888644, 2.669869 ] ] ], [ [ [ 73.578508, 2.949074 ], [ 73.583312, 2.952571 ], [ 73.589599, 2.945059 ], [ 73.588135, 2.940492 ], [ 73.586265, 2.940758 ], [ 73.583053, 2.946125 ], [ 73.578508, 2.949074 ] ] ], [ [ [ 72.700455, 6.405405 ], [ 72.705204, 6.415008 ], [ 72.709688, 6.415294 ], [ 72.708791, 6.408956 ], [ 72.707088, 6.406574 ], [ 72.701309, 6.404424 ], [ 72.700455, 6.405405 ] ] ], [ [ [ 73.444207, 1.819728 ], [ 73.450399, 1.82194 ], [ 73.453609, 1.825643 ], [ 73.457406, 1.825683 ], [ 73.452057, 1.818577 ], [ 73.452668, 1.816088 ], [ 73.444585, 1.816644 ], [ 73.444207, 1.819728 ] ] ], [ [ [ 72.88971, 6.986432 ], [ 72.892792, 6.987608 ], [ 72.897773, 6.986005 ], [ 72.900303, 6.979564 ], [ 72.898346, 6.976331 ], [ 72.895732, 6.977759 ], [ 72.893403, 6.983105 ], [ 72.88971, 6.986432 ] ] ], [ [ [ 73.28087, 6.108012 ], [ 73.283366, 6.111364 ], [ 73.290531, 6.107835 ], [ 73.290974, 6.101341 ], [ 73.287741, 6.098083 ], [ 73.286517, 6.098972 ], [ 73.288141, 6.105003 ], [ 73.287013, 6.107612 ], [ 73.283239, 6.104895 ], [ 73.28087, 6.108012 ] ] ], [ [ [ 72.830244, 3.476746 ], [ 72.836685, 3.479741 ], [ 72.840724, 3.479133 ], [ 72.842534, 3.475308 ], [ 72.836685, 3.473229 ], [ 72.833419, 3.472778 ], [ 72.830244, 3.476746 ] ] ], [ [ [ 73.007122, 6.838792 ], [ 73.009318, 6.841151 ], [ 73.0129, 6.840563 ], [ 73.014523, 6.838284 ], [ 73.014686, 6.831293 ], [ 73.011997, 6.831013 ], [ 73.0074, 6.836642 ], [ 73.007122, 6.838792 ] ] ], [ [ [ 73.182971, 0.202822 ], [ 73.190004, 0.202312 ], [ 73.19303, 0.193606 ], [ 73.191729, 0.192521 ], [ 73.18702, 0.195187 ], [ 73.182971, 0.202822 ] ] ], [ [ [ 72.922041, 6.95094 ], [ 72.924357, 6.957461 ], [ 72.929109, 6.956613 ], [ 72.93084, 6.950744 ], [ 72.927234, 6.948348 ], [ 72.922041, 6.95094 ] ] ], [ [ [ 73.146192, 6.324055 ], [ 73.146192, 6.327964 ], [ 73.146763, 6.329504 ], [ 73.152852, 6.332021 ], [ 73.1537, 6.327587 ], [ 73.150669, 6.322445 ], [ 73.14679, 6.322154 ], [ 73.146192, 6.324055 ] ] ], [ [ [ 73.129517, -0.679921 ], [ 73.130619, -0.677134 ], [ 73.142507, -0.683941 ], [ 73.142114, -0.685679 ], [ 73.132073, -0.684272 ], [ 73.129517, -0.679921 ] ] ], [ [ [ 73.431245, 0.761934 ], [ 73.432355, 0.763874 ], [ 73.435377, 0.763889 ], [ 73.434417, 0.760916 ], [ 73.438552, 0.750642 ], [ 73.437361, 0.748362 ], [ 73.43428, 0.750181 ], [ 73.432355, 0.758474 ], [ 73.431245, 0.761934 ] ] ], [ [ [ 72.947631, 5.967942 ], [ 72.954645, 5.971283 ], [ 72.959025, 5.965888 ], [ 72.955519, 5.962981 ], [ 72.953186, 5.963394 ], [ 72.947631, 5.967942 ] ] ], [ [ [ 72.953355, 3.79333 ], [ 72.960342, 3.794101 ], [ 72.967971, 3.792775 ], [ 72.967454, 3.789203 ], [ 72.960947, 3.78927 ], [ 72.954119, 3.792002 ], [ 72.953355, 3.79333 ] ] ], [ [ [ 73.440693, 0.640777 ], [ 73.444386, 0.641815 ], [ 73.451062, 0.634199 ], [ 73.449133, 0.630462 ], [ 73.445216, 0.63216 ], [ 73.445462, 0.634616 ], [ 73.440693, 0.640777 ] ] ], [ [ [ 73.105316, 2.19889 ], [ 73.110178, 2.19911 ], [ 73.118726, 2.19238 ], [ 73.115182, 2.189996 ], [ 73.109132, 2.194482 ], [ 73.105316, 2.19889 ] ] ], [ [ [ 73.027983, 5.464623 ], [ 73.032002, 5.466553 ], [ 73.039701, 5.465131 ], [ 73.041016, 5.461332 ], [ 73.034332, 5.460504 ], [ 73.027983, 5.464623 ] ] ], [ [ [ 73.529386, 2.031493 ], [ 73.532121, 2.034591 ], [ 73.53612, 2.025713 ], [ 73.535639, 2.022856 ], [ 73.531657, 2.022644 ], [ 73.529386, 2.031493 ] ] ], [ [ [ 73.109914, 6.892308 ], [ 73.113921, 6.89338 ], [ 73.1171, 6.886566 ], [ 73.117128, 6.879608 ], [ 73.11397, 6.88104 ], [ 73.113554, 6.886552 ], [ 73.109914, 6.892308 ] ] ], [ [ [ 73.009947, 5.766384 ], [ 73.011036, 5.772132 ], [ 73.013183, 5.771829 ], [ 73.01567, 5.758797 ], [ 73.011188, 5.760684 ], [ 73.009947, 5.766384 ] ] ], [ [ [ 72.894174, 6.668039 ], [ 72.894234, 6.672196 ], [ 72.901624, 6.670382 ], [ 72.907029, 6.672127 ], [ 72.908163, 6.671028 ], [ 72.905324, 6.668184 ], [ 72.894889, 6.667062 ], [ 72.894174, 6.668039 ] ] ], [ [ [ 73.42991, 0.737028 ], [ 73.432355, 0.739907 ], [ 73.434947, 0.738576 ], [ 73.436064, 0.728302 ], [ 73.432355, 0.729374 ], [ 73.42991, 0.737028 ] ] ], [ [ [ 72.970989, 6.335777 ], [ 72.973444, 6.341572 ], [ 72.978164, 6.343718 ], [ 72.979637, 6.337295 ], [ 72.972172, 6.334854 ], [ 72.970989, 6.335777 ] ] ], [ [ [ 73.293031, 6.183062 ], [ 73.296492, 6.188433 ], [ 73.298673, 6.195082 ], [ 73.300422, 6.194875 ], [ 73.300831, 6.189733 ], [ 73.296754, 6.185762 ], [ 73.299154, 6.183328 ], [ 73.296109, 6.180612 ], [ 73.293031, 6.183062 ] ] ], [ [ [ 73.63849, 5.424877 ], [ 73.640744, 5.425133 ], [ 73.645508, 5.419768 ], [ 73.646291, 5.415507 ], [ 73.643748, 5.414099 ], [ 73.640695, 5.417605 ], [ 73.63849, 5.424877 ] ] ], [ [ [ 73.124157, 5.16022 ], [ 73.127428, 5.161187 ], [ 73.13589, 5.159434 ], [ 73.136852, 5.156975 ], [ 73.133447, 5.15546 ], [ 73.127441, 5.15681 ], [ 73.124157, 5.16022 ] ] ], [ [ [ 73.029584, 6.745823 ], [ 73.032327, 6.746094 ], [ 73.036353, 6.739929 ], [ 73.036838, 6.735315 ], [ 73.033094, 6.735023 ], [ 73.029584, 6.745823 ] ] ], [ [ [ 72.884912, 3.05684 ], [ 72.886588, 3.058769 ], [ 72.891893, 3.059312 ], [ 72.893625, 3.055582 ], [ 72.892703, 3.051978 ], [ 72.88766, 3.053169 ], [ 72.884912, 3.05684 ] ] ], [ [ [ 73.565785, 0.437684 ], [ 73.566971, 0.43848 ], [ 73.566443, 0.447763 ], [ 73.570131, 0.448559 ], [ 73.571318, 0.440072 ], [ 73.567059, 0.436032 ], [ 73.565785, 0.437684 ] ] ], [ [ [ 73.568095, 0.417964 ], [ 73.569431, 0.426851 ], [ 73.57322, 0.426863 ], [ 73.573483, 0.421846 ], [ 73.570074, 0.414848 ], [ 73.568095, 0.417964 ] ] ], [ [ [ 72.793581, 3.485015 ], [ 72.805931, 3.485149 ], [ 72.80895, 3.48305 ], [ 72.804417, 3.480786 ], [ 72.7997, 3.482423 ], [ 72.795395, 3.482013 ], [ 72.793581, 3.485015 ] ] ], [ [ [ 73.108258, 6.835608 ], [ 73.113681, 6.838927 ], [ 73.11715, 6.835917 ], [ 73.117164, 6.832461 ], [ 73.112318, 6.831154 ], [ 73.108258, 6.835608 ] ] ], [ [ [ 73.436437, 0.71932 ], [ 73.438606, 0.720664 ], [ 73.441501, 0.716566 ], [ 73.441093, 0.708576 ], [ 73.438327, 0.708397 ], [ 73.436437, 0.71932 ] ] ], [ [ [ 73.412219, 5.708 ], [ 73.415529, 5.721453 ], [ 73.417477, 5.719761 ], [ 73.416226, 5.706865 ], [ 73.412219, 5.708 ] ] ], [ [ [ 73.484292, 0.327616 ], [ 73.48997, 0.33174 ], [ 73.491347, 0.327534 ], [ 73.494709, 0.326944 ], [ 73.493761, 0.32198 ], [ 73.488617, 0.323465 ], [ 73.489886, 0.326026 ], [ 73.484292, 0.327616 ] ] ], [ [ [ 73.02116, 5.448866 ], [ 73.025727, 5.450729 ], [ 73.03413, 5.449771 ], [ 73.035841, 5.446864 ], [ 73.023047, 5.44691 ], [ 73.02116, 5.448866 ] ] ], [ [ [ 73.039172, 5.606418 ], [ 73.039433, 5.607746 ], [ 73.045781, 5.610287 ], [ 73.047086, 5.609715 ], [ 73.047397, 5.6022 ], [ 73.043685, 5.603249 ], [ 73.039172, 5.606418 ] ] ], [ [ [ 73.023662, 6.659811 ], [ 73.027406, 6.662467 ], [ 73.030335, 6.660116 ], [ 73.031185, 6.655949 ], [ 73.02744, 6.653848 ], [ 73.024651, 6.655923 ], [ 73.023662, 6.659811 ] ] ], [ [ [ 73.021489, 5.710813 ], [ 73.024703, 5.714254 ], [ 73.026302, 5.713171 ], [ 73.026576, 5.702866 ], [ 73.022386, 5.70467 ], [ 73.021489, 5.710813 ] ] ], [ [ [ 73.036155, 0.292576 ], [ 73.038733, 0.297782 ], [ 73.042276, 0.296329 ], [ 73.045204, 0.292578 ], [ 73.042141, 0.289621 ], [ 73.036155, 0.292576 ] ] ], [ [ [ 73.465692, 3.900695 ], [ 73.468809, 3.904567 ], [ 73.471816, 3.90349 ], [ 73.473803, 3.906718 ], [ 73.476151, 3.902115 ], [ 73.473905, 3.89983 ], [ 73.470174, 3.900837 ], [ 73.469251, 3.897486 ], [ 73.465692, 3.900695 ] ] ], [ [ [ 73.38125, 5.472016 ], [ 73.381374, 5.475196 ], [ 73.390874, 5.482508 ], [ 73.392994, 5.480791 ], [ 73.386265, 5.475474 ], [ 73.386798, 5.473886 ], [ 73.38125, 5.472016 ] ] ], [ [ [ 73.118324, 6.785124 ], [ 73.120777, 6.783503 ], [ 73.125814, 6.773823 ], [ 73.12054, 6.774532 ], [ 73.118759, 6.778058 ], [ 73.118324, 6.785124 ] ] ], [ [ [ 72.932377, 6.659679 ], [ 72.933749, 6.661894 ], [ 72.939553, 6.660814 ], [ 72.939852, 6.655293 ], [ 72.933775, 6.655544 ], [ 72.932377, 6.659679 ] ] ], [ [ [ 73.271134, 5.666122 ], [ 73.274079, 5.667903 ], [ 73.277888, 5.666763 ], [ 73.278961, 5.662778 ], [ 73.277124, 5.660556 ], [ 73.274079, 5.660899 ], [ 73.271134, 5.666122 ] ] ], [ [ [ 73.028955, 5.478517 ], [ 73.03484, 5.479135 ], [ 73.043277, 5.47733 ], [ 73.040822, 5.474431 ], [ 73.03081, 5.476621 ], [ 73.028955, 5.478517 ] ] ], [ [ [ 73.354551, 5.73775 ], [ 73.357442, 5.738193 ], [ 73.361936, 5.734295 ], [ 73.363063, 5.729644 ], [ 73.358332, 5.730519 ], [ 73.354551, 5.73775 ] ] ], [ [ [ 72.71975, 4.050963 ], [ 72.724085, 4.053958 ], [ 72.730952, 4.051253 ], [ 72.72889, 4.04902 ], [ 72.723961, 4.048126 ], [ 72.71975, 4.050963 ] ] ], [ [ [ 73.167883, 5.810061 ], [ 73.173526, 5.808735 ], [ 73.175552, 5.804708 ], [ 73.174219, 5.801746 ], [ 73.171131, 5.802005 ], [ 73.167883, 5.810061 ] ] ], [ [ [ 73.547986, 0.370492 ], [ 73.550856, 0.37812 ], [ 73.55266, 0.377972 ], [ 73.552021, 0.372395 ], [ 73.555176, 0.36931 ], [ 73.554442, 0.366649 ], [ 73.547986, 0.370492 ] ] ], [ [ [ 73.020539, 6.725521 ], [ 73.021812, 6.729823 ], [ 73.026265, 6.72669 ], [ 73.028002, 6.7224 ], [ 73.025576, 6.720241 ], [ 73.020539, 6.725521 ] ] ], [ [ [ 73.163872, 6.839547 ], [ 73.167888, 6.84226 ], [ 73.170667, 6.837841 ], [ 73.170394, 6.833653 ], [ 73.16751, 6.833347 ], [ 73.163872, 6.839547 ] ] ], [ [ [ 73.225219, 6.921411 ], [ 73.227194, 6.923019 ], [ 73.230341, 6.924573 ], [ 73.234095, 6.924155 ], [ 73.235143, 6.920423 ], [ 73.227194, 6.919128 ], [ 73.225219, 6.921411 ] ] ], [ [ [ 73.025022, 6.195533 ], [ 73.027502, 6.199147 ], [ 73.034704, 6.200006 ], [ 73.035543, 6.197791 ], [ 73.030291, 6.194444 ], [ 73.025022, 6.195533 ] ] ], [ [ [ 73.543185, 2.089931 ], [ 73.544602, 2.094782 ], [ 73.543846, 2.10228 ], [ 73.547185, 2.101788 ], [ 73.548188, 2.097517 ], [ 73.545031, 2.089572 ], [ 73.543185, 2.089931 ] ] ], [ [ [ 73.214961, 6.266551 ], [ 73.215784, 6.268492 ], [ 73.219658, 6.268228 ], [ 73.221477, 6.262144 ], [ 73.219684, 6.260615 ], [ 73.215805, 6.262402 ], [ 73.214961, 6.266551 ] ] ], [ [ [ 73.596548, 2.950564 ], [ 73.59842, 2.958404 ], [ 73.602173, 2.961225 ], [ 73.602723, 2.956788 ], [ 73.599773, 2.951109 ], [ 73.596548, 2.950564 ] ] ], [ [ [ 72.981574, 6.852588 ], [ 72.982754, 6.857116 ], [ 72.985157, 6.857366 ], [ 72.987159, 6.853942 ], [ 72.985052, 6.848612 ], [ 72.982659, 6.847803 ], [ 72.981574, 6.852588 ] ] ], [ [ [ 73.147381, 6.283865 ], [ 73.14838, 6.287626 ], [ 73.153289, 6.288222 ], [ 73.154607, 6.282734 ], [ 73.149268, 6.281414 ], [ 73.147381, 6.283865 ] ] ], [ [ [ 73.038999, 5.63027 ], [ 73.041257, 5.63518 ], [ 73.04276, 5.633772 ], [ 73.044971, 5.62481 ], [ 73.04061, 5.625768 ], [ 73.038999, 5.63027 ] ] ], [ [ [ 73.248239, 6.164184 ], [ 73.248661, 6.167058 ], [ 73.253248, 6.168509 ], [ 73.255124, 6.165356 ], [ 73.253276, 6.160179 ], [ 73.248239, 6.164184 ] ] ], [ [ [ 73.360218, 2.401774 ], [ 73.364288, 2.398875 ], [ 73.362496, 2.388719 ], [ 73.360674, 2.38891 ], [ 73.360218, 2.401774 ] ] ], [ [ [ 72.90312, 6.963097 ], [ 72.904761, 6.963755 ], [ 72.908851, 6.956511 ], [ 72.907042, 6.952172 ], [ 72.903656, 6.956967 ], [ 72.90312, 6.963097 ] ] ], [ [ [ 73.227123, 6.322881 ], [ 73.227123, 6.324551 ], [ 73.231872, 6.327524 ], [ 73.233472, 6.32016 ], [ 73.230859, 6.318303 ], [ 73.227123, 6.322881 ] ] ], [ [ [ 73.155001, 0.207733 ], [ 73.15951, 0.209453 ], [ 73.162728, 0.212576 ], [ 73.165399, 0.210864 ], [ 73.161346, 0.207988 ], [ 73.162251, 0.205492 ], [ 73.1573, 0.20466 ], [ 73.155001, 0.207733 ] ] ], [ [ [ 73.453699, 5.90533 ], [ 73.458195, 5.904181 ], [ 73.460382, 5.899253 ], [ 73.456771, 5.895325 ], [ 73.453699, 5.90533 ] ] ], [ [ [ 73.071908, 5.115466 ], [ 73.074819, 5.116553 ], [ 73.083007, 5.110324 ], [ 73.078587, 5.108698 ], [ 73.071908, 5.115466 ] ] ], [ [ [ 73.536727, 0.347305 ], [ 73.539596, 0.355561 ], [ 73.541783, 0.35735 ], [ 73.543286, 0.354186 ], [ 73.540964, 0.348131 ], [ 73.536727, 0.347305 ] ] ], [ [ [ 72.920229, 3.061893 ], [ 72.926416, 3.065287 ], [ 72.930649, 3.065012 ], [ 72.932065, 3.062321 ], [ 72.923604, 3.06046 ], [ 72.920229, 3.061893 ] ] ], [ [ [ 73.552258, 0.481994 ], [ 73.556394, 0.483264 ], [ 73.558437, 0.481857 ], [ 73.560849, 0.474624 ], [ 73.559515, 0.472952 ], [ 73.556858, 0.477685 ], [ 73.552258, 0.481994 ] ] ], [ [ [ 73.566161, 4.308384 ], [ 73.568067, 4.311666 ], [ 73.571669, 4.312559 ], [ 73.574855, 4.310021 ], [ 73.568144, 4.305405 ], [ 73.566161, 4.308384 ] ] ], [ [ [ 73.035367, 5.532776 ], [ 73.037442, 5.53414 ], [ 73.047156, 5.532662 ], [ 73.047921, 5.530003 ], [ 73.044391, 5.529291 ], [ 73.035367, 5.532776 ] ] ], [ [ [ 73.367026, 4.516542 ], [ 73.367221, 4.518808 ], [ 73.37117, 4.517792 ], [ 73.371342, 4.507711 ], [ 73.368186, 4.50872 ], [ 73.367384, 4.511595 ], [ 73.369552, 4.514858 ], [ 73.367026, 4.516542 ] ] ], [ [ [ 73.049478, 6.51661 ], [ 73.051764, 6.518482 ], [ 73.0575, 6.518075 ], [ 73.058088, 6.514349 ], [ 73.051784, 6.513321 ], [ 73.049478, 6.51661 ] ] ], [ [ [ 72.992226, 6.847009 ], [ 72.994255, 6.848961 ], [ 72.99865, 6.844348 ], [ 72.999832, 6.841236 ], [ 72.995808, 6.84057 ], [ 72.994255, 6.842706 ], [ 72.992226, 6.847009 ] ] ], [ [ [ 72.897496, 6.541082 ], [ 72.899826, 6.544771 ], [ 72.90488, 6.544394 ], [ 72.90411, 6.537874 ], [ 72.897496, 6.541082 ] ] ], [ [ [ 73.091425, 2.185641 ], [ 73.092732, 2.190456 ], [ 73.09696, 2.18993 ], [ 73.09868, 2.18754 ], [ 73.098818, 2.183287 ], [ 73.096173, 2.185276 ], [ 73.091425, 2.185641 ] ] ], [ [ [ 73.384335, 5.667951 ], [ 73.385784, 5.673282 ], [ 73.391134, 5.673806 ], [ 73.392324, 5.671176 ], [ 73.3858, 5.667262 ], [ 73.384335, 5.667951 ] ] ], [ [ [ 73.538438, 2.075399 ], [ 73.53953, 2.08091 ], [ 73.541123, 2.082489 ], [ 73.544374, 2.08091 ], [ 73.54035, 2.072393 ], [ 73.538438, 2.075399 ] ] ], [ [ [ 73.237077, 1.886131 ], [ 73.238164, 1.887847 ], [ 73.242706, 1.886782 ], [ 73.245461, 1.889199 ], [ 73.247431, 1.886197 ], [ 73.246162, 1.881786 ], [ 73.24201, 1.8851 ], [ 73.237077, 1.886131 ] ] ], [ [ [ 73.340643, 5.770316 ], [ 73.342266, 5.772905 ], [ 73.34526, 5.770873 ], [ 73.34772, 5.765982 ], [ 73.343376, 5.764881 ], [ 73.340643, 5.770316 ] ] ], [ [ [ 73.041307, 5.584268 ], [ 73.042415, 5.586528 ], [ 73.046833, 5.588233 ], [ 73.046458, 5.579816 ], [ 73.045092, 5.579368 ], [ 73.041307, 5.584268 ] ] ], [ [ [ 73.298956, 6.000496 ], [ 73.303328, 6.003663 ], [ 73.306344, 6.002713 ], [ 73.306084, 5.998325 ], [ 73.301979, 5.997352 ], [ 73.298956, 6.000496 ] ] ], [ [ [ 73.06512, 6.433547 ], [ 73.069873, 6.437756 ], [ 73.073927, 6.435604 ], [ 73.071625, 6.432848 ], [ 73.06614, 6.431382 ], [ 73.06512, 6.433547 ] ] ], [ [ [ 73.550696, 4.283015 ], [ 73.551069, 4.287115 ], [ 73.555284, 4.287726 ], [ 73.556101, 4.28217 ], [ 73.552364, 4.280211 ], [ 73.550696, 4.283015 ] ] ], [ [ [ 73.19232, -0.673177 ], [ 73.196538, -0.67294 ], [ 73.197573, -0.675433 ], [ 73.196272, -0.67941 ], [ 73.193065, -0.680409 ], [ 73.19232, -0.673177 ] ] ], [ [ [ 73.408511, 5.369611 ], [ 73.412378, 5.369968 ], [ 73.417209, 5.361602 ], [ 73.415011, 5.360823 ], [ 73.408511, 5.369611 ] ] ], [ [ [ 73.650177, 5.334435 ], [ 73.651682, 5.341929 ], [ 73.654173, 5.342212 ], [ 73.654736, 5.337774 ], [ 73.653362, 5.333055 ], [ 73.650177, 5.334435 ] ] ], [ [ [ 72.950948, 5.457004 ], [ 72.953831, 5.460819 ], [ 72.959596, 5.459442 ], [ 72.957744, 5.456692 ], [ 72.953261, 5.455133 ], [ 72.950948, 5.457004 ] ] ], [ [ [ 73.039539, 5.549423 ], [ 73.041224, 5.551264 ], [ 73.04714, 5.55199 ], [ 73.048421, 5.547759 ], [ 73.045184, 5.547041 ], [ 73.039539, 5.549423 ] ] ], [ [ [ 73.004287, 5.792977 ], [ 73.005684, 5.797267 ], [ 73.007927, 5.797016 ], [ 73.009939, 5.789955 ], [ 73.006572, 5.789446 ], [ 73.004287, 5.792977 ] ] ], [ [ [ 73.020049, 2.166821 ], [ 73.021176, 2.168972 ], [ 73.027963, 2.170372 ], [ 73.028972, 2.168098 ], [ 73.020429, 2.164419 ], [ 73.020049, 2.166821 ] ] ], [ [ [ 73.026809, 5.669232 ], [ 73.029991, 5.672276 ], [ 73.032035, 5.670747 ], [ 73.032685, 5.664845 ], [ 73.029343, 5.665035 ], [ 73.026809, 5.669232 ] ] ], [ [ [ 73.646525, 4.37288 ], [ 73.651325, 4.377875 ], [ 73.655559, 4.374006 ], [ 73.654464, 4.372044 ], [ 73.646525, 4.37288 ] ] ], [ [ [ 73.461968, 5.54839 ], [ 73.465462, 5.552107 ], [ 73.469292, 5.553478 ], [ 73.471826, 5.551518 ], [ 73.46515, 5.547431 ], [ 73.461968, 5.54839 ] ] ], [ [ [ 72.944071, 6.717675 ], [ 72.948608, 6.718212 ], [ 72.9499, 6.714767 ], [ 72.947378, 6.710887 ], [ 72.945103, 6.712616 ], [ 72.944071, 6.717675 ] ] ], [ [ [ 73.494921, 0.331637 ], [ 73.499981, 0.334555 ], [ 73.499251, 0.326505 ], [ 73.49516, 0.327672 ], [ 73.494921, 0.331637 ] ] ], [ [ [ 73.579116, 2.924136 ], [ 73.580871, 2.926041 ], [ 73.584919, 2.925589 ], [ 73.581284, 2.917974 ], [ 73.580053, 2.918273 ], [ 73.579116, 2.924136 ] ] ], [ [ [ 73.35876, 5.777853 ], [ 73.360161, 5.779122 ], [ 73.365779, 5.778435 ], [ 73.36467, 5.773651 ], [ 73.359611, 5.775043 ], [ 73.35876, 5.777853 ] ] ], [ [ [ 73.061689, 2.168706 ], [ 73.069934, 2.171208 ], [ 73.067769, 2.165432 ], [ 73.063389, 2.16586 ], [ 73.061689, 2.168706 ] ] ], [ [ [ 73.445854, 4.179863 ], [ 73.447071, 4.184657 ], [ 73.450079, 4.184834 ], [ 73.452505, 4.178293 ], [ 73.445854, 4.179863 ] ] ], [ [ [ 73.37362, 5.81782 ], [ 73.376223, 5.819225 ], [ 73.380152, 5.81782 ], [ 73.381581, 5.813872 ], [ 73.379779, 5.81241 ], [ 73.37362, 5.81782 ] ] ], [ [ [ 72.994255, 6.664351 ], [ 72.994255, 6.667948 ], [ 72.996443, 6.668925 ], [ 72.998679, 6.667841 ], [ 72.99979, 6.663543 ], [ 72.997649, 6.662135 ], [ 72.994255, 6.664351 ] ] ], [ [ [ 73.714418, 4.450398 ], [ 73.714603, 4.454894 ], [ 73.717755, 4.457274 ], [ 73.719265, 4.452933 ], [ 73.71527, 4.448098 ], [ 73.714418, 4.450398 ] ] ], [ [ [ 73.320583, 5.985219 ], [ 73.32199, 5.987346 ], [ 73.325104, 5.986082 ], [ 73.327522, 5.981277 ], [ 73.321724, 5.981826 ], [ 73.320583, 5.985219 ] ] ], [ [ [ 73.107705, 6.007596 ], [ 73.111854, 6.009982 ], [ 73.11666, 6.006771 ], [ 73.115122, 6.004991 ], [ 73.1083, 6.006151 ], [ 73.107705, 6.007596 ] ] ], [ [ [ 73.18022, 0.841136 ], [ 73.183713, 0.842707 ], [ 73.186702, 0.836195 ], [ 73.181801, 0.836374 ], [ 73.18022, 0.841136 ] ] ], [ [ [ 72.988104, 5.861497 ], [ 72.990826, 5.861793 ], [ 72.99342, 5.858052 ], [ 72.993814, 5.853381 ], [ 72.992442, 5.852582 ], [ 72.988104, 5.861497 ] ] ], [ [ [ 72.980865, 3.119433 ], [ 72.984492, 3.12226 ], [ 72.987935, 3.116564 ], [ 72.984505, 3.115207 ], [ 72.980865, 3.119433 ] ] ], [ [ [ 73.00075, 5.80888 ], [ 73.001611, 5.81226 ], [ 73.004586, 5.810893 ], [ 73.006072, 5.805486 ], [ 73.004586, 5.803682 ], [ 73.00075, 5.80888 ] ] ], [ [ [ 73.121477, 5.217333 ], [ 73.126273, 5.218249 ], [ 73.129437, 5.213147 ], [ 73.124189, 5.213131 ], [ 73.121477, 5.217333 ] ] ], [ [ [ 73.057859, 6.209953 ], [ 73.061878, 6.213371 ], [ 73.064016, 6.211789 ], [ 73.063032, 6.207954 ], [ 73.05913, 6.206931 ], [ 73.057859, 6.209953 ] ] ], [ [ [ 73.065699, 5.103799 ], [ 73.070883, 5.106136 ], [ 73.074665, 5.102405 ], [ 73.071284, 5.100705 ], [ 73.065699, 5.103799 ] ] ], [ [ [ 72.925023, 3.53034 ], [ 72.930225, 3.540269 ], [ 72.932034, 3.538261 ], [ 72.926897, 3.52966 ], [ 72.925023, 3.53034 ] ] ], [ [ [ 72.908981, 5.46485 ], [ 72.915539, 5.466718 ], [ 72.917611, 5.463518 ], [ 72.913021, 5.461554 ], [ 72.908981, 5.46485 ] ] ], [ [ [ 72.741907, 4.191478 ], [ 72.74542, 4.194396 ], [ 72.748575, 4.194224 ], [ 72.749427, 4.188977 ], [ 72.741907, 4.191478 ] ] ], [ [ [ 72.931749, 6.744985 ], [ 72.93626, 6.751139 ], [ 72.937677, 6.750187 ], [ 72.935413, 6.742472 ], [ 72.931749, 6.744985 ] ] ], [ [ [ 73.280491, 6.037658 ], [ 73.285963, 6.040114 ], [ 73.287199, 6.034327 ], [ 73.281716, 6.035224 ], [ 73.280491, 6.037658 ] ] ], [ [ [ 73.485836, 3.937179 ], [ 73.487563, 3.939372 ], [ 73.488927, 3.943451 ], [ 73.491379, 3.94546 ], [ 73.493897, 3.945552 ], [ 73.487563, 3.936336 ], [ 73.485836, 3.937179 ] ] ], [ [ [ 73.049487, 6.846242 ], [ 73.052156, 6.847213 ], [ 73.052149, 6.844191 ], [ 73.054822, 6.839486 ], [ 73.052913, 6.83771 ], [ 73.049498, 6.84359 ], [ 73.049487, 6.846242 ] ] ], [ [ [ 73.595389, 4.330617 ], [ 73.59947, 4.335476 ], [ 73.603248, 4.335544 ], [ 73.600912, 4.330471 ], [ 73.595389, 4.330617 ] ] ], [ [ [ 73.635895, 3.092993 ], [ 73.63963, 3.092998 ], [ 73.642036, 3.089515 ], [ 73.638104, 3.0863 ], [ 73.635895, 3.092993 ] ] ], [ [ [ 73.254521, 5.688036 ], [ 73.25766, 5.689763 ], [ 73.261116, 5.681042 ], [ 73.259402, 5.680894 ], [ 73.254521, 5.688036 ] ] ], [ [ [ 73.324182, 0.250239 ], [ 73.326507, 0.25433 ], [ 73.331774, 0.254888 ], [ 73.330226, 0.250552 ], [ 73.324182, 0.250239 ] ] ], [ [ [ 73.478868, 5.308433 ], [ 73.485826, 5.309949 ], [ 73.487005, 5.305067 ], [ 73.480187, 5.306632 ], [ 73.478868, 5.308433 ] ] ], [ [ [ 73.28128, 6.075516 ], [ 73.284154, 6.077153 ], [ 73.284722, 6.067882 ], [ 73.281875, 6.069064 ], [ 73.28128, 6.075516 ] ] ], [ [ [ 73.482348, 4.173441 ], [ 73.484596, 4.176172 ], [ 73.487563, 4.175355 ], [ 73.487563, 4.16993 ], [ 73.484673, 4.170563 ], [ 73.482348, 4.173441 ] ] ], [ [ [ 72.853087, 3.478321 ], [ 72.855859, 3.479442 ], [ 72.857265, 3.471082 ], [ 72.854491, 3.471075 ], [ 72.853087, 3.478321 ] ] ], [ [ [ 73.245884, 5.752572 ], [ 73.251519, 5.753779 ], [ 73.254053, 5.749922 ], [ 73.249456, 5.749016 ], [ 73.245884, 5.752572 ] ] ], [ [ [ 73.333546, 2.337531 ], [ 73.335749, 2.341189 ], [ 73.339161, 2.341904 ], [ 73.339904, 2.339367 ], [ 73.335236, 2.335574 ], [ 73.333546, 2.337531 ] ] ], [ [ [ 73.039594, 5.563071 ], [ 73.040573, 5.564412 ], [ 73.045788, 5.565075 ], [ 73.047477, 5.562275 ], [ 73.046025, 5.560914 ], [ 73.042317, 5.561401 ], [ 73.039594, 5.563071 ] ] ], [ [ [ 72.91781, 6.642975 ], [ 72.922472, 6.645348 ], [ 72.925602, 6.643657 ], [ 72.924478, 6.640955 ], [ 72.921072, 6.640799 ], [ 72.91781, 6.642975 ] ] ], [ [ [ 72.939503, 2.2927 ], [ 72.94052, 2.295011 ], [ 72.944091, 2.294759 ], [ 72.943334, 2.288729 ], [ 72.940528, 2.289367 ], [ 72.939503, 2.2927 ] ] ], [ [ [ 73.213709, 5.744057 ], [ 73.215514, 5.746857 ], [ 73.21886, 5.747426 ], [ 73.217761, 5.742114 ], [ 73.215814, 5.740291 ], [ 73.213709, 5.744057 ] ] ], [ [ [ 73.051179, 6.786211 ], [ 73.054237, 6.78812 ], [ 73.056287, 6.786524 ], [ 73.056013, 6.781999 ], [ 73.053679, 6.781698 ], [ 73.051179, 6.786211 ] ] ], [ [ [ 73.105082, 2.559899 ], [ 73.106048, 2.560723 ], [ 73.11404, 2.560432 ], [ 73.110568, 2.556213 ], [ 73.105082, 2.559899 ] ] ], [ [ [ 73.343198, 5.97175 ], [ 73.345161, 5.976169 ], [ 73.349725, 5.975118 ], [ 73.348064, 5.971156 ], [ 73.343198, 5.97175 ] ] ], [ [ [ 73.314544, 2.322386 ], [ 73.318389, 2.327901 ], [ 73.322095, 2.326764 ], [ 73.322095, 2.324441 ], [ 73.314544, 2.322386 ] ] ], [ [ [ 73.499374, 5.286065 ], [ 73.505309, 5.286675 ], [ 73.504725, 5.282507 ], [ 73.499827, 5.282496 ], [ 73.499374, 5.286065 ] ] ], [ [ [ 73.428838, 5.356076 ], [ 73.428838, 5.359134 ], [ 73.430112, 5.36055 ], [ 73.432246, 5.360403 ], [ 73.434394, 5.354908 ], [ 73.428838, 5.356076 ] ] ], [ [ [ 73.293003, 6.200483 ], [ 73.296436, 6.204179 ], [ 73.300229, 6.199303 ], [ 73.298453, 6.19809 ], [ 73.293003, 6.200483 ] ] ], [ [ [ 73.409595, 5.489459 ], [ 73.412846, 5.495358 ], [ 73.414936, 5.495495 ], [ 73.415206, 5.492092 ], [ 73.411557, 5.488679 ], [ 73.409595, 5.489459 ] ] ], [ [ [ 72.987398, 2.937656 ], [ 72.992592, 2.939202 ], [ 72.993973, 2.935516 ], [ 72.987555, 2.934582 ], [ 72.987398, 2.937656 ] ] ], [ [ [ 73.418433, 5.356005 ], [ 73.419412, 5.359996 ], [ 73.42513, 5.357804 ], [ 73.424092, 5.355111 ], [ 73.418433, 5.356005 ] ] ], [ [ [ 73.125524, 2.198998 ], [ 73.128091, 2.201587 ], [ 73.132097, 2.195846 ], [ 73.127813, 2.195553 ], [ 73.125524, 2.198998 ] ] ], [ [ [ 73.192776, 6.281245 ], [ 73.197937, 6.282175 ], [ 73.199165, 6.278531 ], [ 73.193091, 6.277902 ], [ 73.192776, 6.281245 ] ] ], [ [ [ 73.195305, 0.188875 ], [ 73.195722, 0.192546 ], [ 73.200215, 0.192546 ], [ 73.200964, 0.190452 ], [ 73.197439, 0.187558 ], [ 73.195305, 0.188875 ] ] ], [ [ [ 73.168587, 0.211743 ], [ 73.17385, 0.211743 ], [ 73.173266, 0.207622 ], [ 73.169319, 0.207111 ], [ 73.168587, 0.211743 ] ] ], [ [ [ 73.151998, 0.218763 ], [ 73.15214, 0.221332 ], [ 73.1564, 0.221702 ], [ 73.157442, 0.217774 ], [ 73.154515, 0.216633 ], [ 73.151998, 0.218763 ] ] ], [ [ [ 73.292954, 0.257477 ], [ 73.296422, 0.259222 ], [ 73.298719, 0.257534 ], [ 73.298307, 0.253691 ], [ 73.295654, 0.254007 ], [ 73.292954, 0.257477 ] ] ], [ [ [ 73.345951, 0.255154 ], [ 73.346631, 0.259258 ], [ 73.351077, 0.259259 ], [ 73.350522, 0.254502 ], [ 73.345951, 0.255154 ] ] ], [ [ [ 73.079619, 0.271072 ], [ 73.086253, 0.269851 ], [ 73.085651, 0.267122 ], [ 73.080225, 0.26711 ], [ 73.079619, 0.271072 ] ] ], [ [ [ 73.354739, 0.27849 ], [ 73.355443, 0.282037 ], [ 73.358084, 0.279555 ], [ 73.35879, 0.274235 ], [ 73.355267, 0.275299 ], [ 73.354739, 0.27849 ] ] ], [ [ [ 73.047512, 0.289295 ], [ 73.053453, 0.291144 ], [ 73.053089, 0.286788 ], [ 73.048881, 0.285965 ], [ 73.047512, 0.289295 ] ] ], [ [ [ 73.45251, 0.287605 ], [ 73.452661, 0.289421 ], [ 73.45894, 0.291798 ], [ 73.459423, 0.290027 ], [ 73.45287, 0.285432 ], [ 73.45251, 0.287605 ] ] ], [ [ [ 73.031502, 0.29955 ], [ 73.035187, 0.299613 ], [ 73.035936, 0.29559 ], [ 73.034108, 0.293786 ], [ 73.031589, 0.29543 ], [ 73.031502, 0.29955 ] ] ], [ [ [ 73.024216, 0.305031 ], [ 73.027711, 0.308827 ], [ 73.03136, 0.307069 ], [ 73.02827, 0.303339 ], [ 73.024216, 0.305031 ] ] ], [ [ [ 73.481773, 0.321269 ], [ 73.488798, 0.321943 ], [ 73.489359, 0.318557 ], [ 73.483987, 0.318344 ], [ 73.481773, 0.321269 ] ] ], [ [ [ 73.023345, 0.338896 ], [ 73.025757, 0.34406 ], [ 73.028998, 0.343166 ], [ 73.028998, 0.339371 ], [ 73.023345, 0.338896 ] ] ], [ [ [ 73.022217, 0.370482 ], [ 73.024427, 0.372364 ], [ 73.02792, 0.366272 ], [ 73.023358, 0.36608 ], [ 73.022217, 0.370482 ] ] ], [ [ [ 73.55417, 0.377027 ], [ 73.556105, 0.382097 ], [ 73.558865, 0.379937 ], [ 73.556051, 0.373471 ], [ 73.55417, 0.377027 ] ] ], [ [ [ 73.00243, 0.398701 ], [ 73.002856, 0.40171 ], [ 73.008621, 0.403001 ], [ 73.008836, 0.399346 ], [ 73.00243, 0.398701 ] ] ], [ [ [ 73.561428, 0.464818 ], [ 73.564817, 0.464136 ], [ 73.566342, 0.458678 ], [ 73.562615, 0.458677 ], [ 73.561428, 0.464818 ] ] ], [ [ [ 73.151672, 0.462682 ], [ 73.153457, 0.465602 ], [ 73.157697, 0.463133 ], [ 73.157475, 0.460437 ], [ 73.153012, 0.460885 ], [ 73.151672, 0.462682 ] ] ], [ [ [ 72.987635, 0.503915 ], [ 72.990745, 0.509826 ], [ 72.994089, 0.506533 ], [ 72.991449, 0.50386 ], [ 72.987635, 0.503915 ] ] ], [ [ [ 72.989677, 0.516407 ], [ 72.993883, 0.519879 ], [ 72.996409, 0.516182 ], [ 72.994344, 0.51387 ], [ 72.989677, 0.516407 ] ] ], [ [ [ 73.071617, 0.523285 ], [ 73.075883, 0.526023 ], [ 73.076506, 0.520006 ], [ 73.07218, 0.520255 ], [ 73.071617, 0.523285 ] ] ], [ [ [ 73.187086, 0.535476 ], [ 73.189066, 0.537173 ], [ 73.193817, 0.532427 ], [ 73.192048, 0.529827 ], [ 73.187086, 0.535476 ] ] ], [ [ [ 73.092894, 0.538768 ], [ 73.093093, 0.542039 ], [ 73.095881, 0.543572 ], [ 73.097315, 0.53911 ], [ 73.094333, 0.53632 ], [ 73.092894, 0.538768 ] ] ], [ [ [ 73.238788, 0.556474 ], [ 73.241098, 0.559777 ], [ 73.245676, 0.557288 ], [ 73.241188, 0.55393 ], [ 73.238788, 0.556474 ] ] ], [ [ [ 73.523489, 0.564489 ], [ 73.527542, 0.563908 ], [ 73.529914, 0.559262 ], [ 73.526005, 0.558879 ], [ 73.523489, 0.564489 ] ] ], [ [ [ 73.516484, 0.570689 ], [ 73.521333, 0.572099 ], [ 73.522925, 0.570496 ], [ 73.520282, 0.565867 ], [ 73.516484, 0.570689 ] ] ], [ [ [ 73.18853, 0.572305 ], [ 73.192133, 0.574179 ], [ 73.194926, 0.569601 ], [ 73.191144, 0.568289 ], [ 73.18853, 0.572305 ] ] ], [ [ [ 73.090741, 0.588578 ], [ 73.092306, 0.590456 ], [ 73.096074, 0.588719 ], [ 73.093651, 0.584233 ], [ 73.09192, 0.584423 ], [ 73.090741, 0.588578 ] ] ], [ [ [ 73.49739, 0.595034 ], [ 73.501497, 0.598827 ], [ 73.503545, 0.595593 ], [ 73.500873, 0.592215 ], [ 73.49739, 0.595034 ] ] ], [ [ [ 73.483616, 0.604276 ], [ 73.486322, 0.60545 ], [ 73.492324, 0.602958 ], [ 73.490157, 0.600236 ], [ 73.483616, 0.604276 ] ] ], [ [ [ 73.306384, 0.604331 ], [ 73.306851, 0.607601 ], [ 73.312257, 0.605633 ], [ 73.311371, 0.601733 ], [ 73.306384, 0.604331 ] ] ], [ [ [ 73.222971, -0.609674 ], [ 73.226275, -0.60901 ], [ 73.226785, -0.615353 ], [ 73.224002, -0.616206 ], [ 73.222971, -0.609674 ] ] ], [ [ [ 73.458154, 0.622876 ], [ 73.460042, 0.624531 ], [ 73.465087, 0.620824 ], [ 73.463265, 0.617758 ], [ 73.458154, 0.622876 ] ] ], [ [ [ 73.224076, -0.620557 ], [ 73.227428, -0.621494 ], [ 73.227076, -0.628298 ], [ 73.22429, -0.626847 ], [ 73.224076, -0.620557 ] ] ], [ [ [ 73.101251, -0.638979 ], [ 73.105609, -0.639435 ], [ 73.106786, -0.644893 ], [ 73.103898, -0.644895 ], [ 73.101251, -0.638979 ] ] ], [ [ [ 73.436606, 0.659464 ], [ 73.439762, 0.661325 ], [ 73.441367, 0.654517 ], [ 73.437597, 0.6551 ], [ 73.436606, 0.659464 ] ] ], [ [ [ 73.405268, 0.850218 ], [ 73.40785, 0.850785 ], [ 73.410743, 0.844047 ], [ 73.408008, 0.843239 ], [ 73.405268, 0.850218 ] ] ], [ [ [ 73.239708, 0.85004 ], [ 73.241777, 0.852806 ], [ 73.243657, 0.851629 ], [ 73.24495, 0.846867 ], [ 73.24192, 0.84644 ], [ 73.239708, 0.85004 ] ] ], [ [ [ 73.327382, 1.789457 ], [ 73.330538, 1.790962 ], [ 73.335022, 1.789342 ], [ 73.332584, 1.785653 ], [ 73.327382, 1.789457 ] ] ], [ [ [ 73.292042, 1.801277 ], [ 73.296379, 1.802653 ], [ 73.299815, 1.799339 ], [ 73.29833, 1.796979 ], [ 73.292042, 1.801277 ] ] ], [ [ [ 73.402148, 1.818204 ], [ 73.406008, 1.819318 ], [ 73.40855, 1.81391 ], [ 73.404934, 1.81374 ], [ 73.402148, 1.818204 ] ] ], [ [ [ 73.386491, 1.81747 ], [ 73.390158, 1.82044 ], [ 73.392679, 1.814119 ], [ 73.388253, 1.814955 ], [ 73.386491, 1.81747 ] ] ], [ [ [ 73.390953, 1.821594 ], [ 73.393809, 1.825504 ], [ 73.397263, 1.823836 ], [ 73.395449, 1.819696 ], [ 73.390953, 1.821594 ] ] ], [ [ [ 73.53475, 1.985311 ], [ 73.535474, 1.990398 ], [ 73.538078, 1.990288 ], [ 73.539559, 1.987277 ], [ 73.53572, 1.983711 ], [ 73.53475, 1.985311 ] ] ], [ [ [ 73.531673, 2.018963 ], [ 73.53526, 2.017886 ], [ 73.535651, 2.011408 ], [ 73.533024, 2.011996 ], [ 73.531673, 2.018963 ] ] ], [ [ [ 73.355174, 2.017018 ], [ 73.357134, 2.01924 ], [ 73.360651, 2.020084 ], [ 73.362048, 2.015852 ], [ 73.358609, 2.01546 ], [ 73.355174, 2.017018 ] ] ], [ [ [ 73.532498, 2.052284 ], [ 73.532881, 2.057834 ], [ 73.536347, 2.059137 ], [ 73.537361, 2.055334 ], [ 73.532498, 2.052284 ] ] ], [ [ [ 73.537357, 2.11577 ], [ 73.540075, 2.118212 ], [ 73.544147, 2.116741 ], [ 73.543807, 2.112808 ], [ 73.537357, 2.11577 ] ] ], [ [ [ 73.010169, 2.16938 ], [ 73.015326, 2.17124 ], [ 73.015197, 2.167258 ], [ 73.010542, 2.165241 ], [ 73.010169, 2.16938 ] ] ], [ [ [ 73.076949, 2.171023 ], [ 73.081073, 2.174113 ], [ 73.082598, 2.170457 ], [ 73.079456, 2.167137 ], [ 73.076949, 2.171023 ] ] ], [ [ [ 73.140375, 2.204955 ], [ 73.141149, 2.208086 ], [ 73.145504, 2.208717 ], [ 73.143335, 2.201829 ], [ 73.140375, 2.204955 ] ] ], [ [ [ 73.209987, 2.252087 ], [ 73.212336, 2.254885 ], [ 73.215508, 2.254227 ], [ 73.216318, 2.25058 ], [ 73.210893, 2.250603 ], [ 73.209987, 2.252087 ] ] ], [ [ [ 72.928009, 2.272093 ], [ 72.929037, 2.274613 ], [ 72.934005, 2.272357 ], [ 72.932873, 2.269433 ], [ 72.928159, 2.270316 ], [ 72.928009, 2.272093 ] ] ], [ [ [ 73.252833, 2.281385 ], [ 73.253519, 2.28411 ], [ 73.256651, 2.285165 ], [ 73.257182, 2.278861 ], [ 73.255093, 2.278594 ], [ 73.252833, 2.281385 ] ] ], [ [ [ 72.941657, 2.315677 ], [ 72.945561, 2.318555 ], [ 72.947367, 2.3175 ], [ 72.944067, 2.312505 ], [ 72.941964, 2.311747 ], [ 72.941657, 2.315677 ] ] ], [ [ [ 73.351731, 2.354904 ], [ 73.355693, 2.360746 ], [ 73.357017, 2.35897 ], [ 73.355157, 2.352707 ], [ 73.351731, 2.354904 ] ] ], [ [ [ 73.305257, 2.506969 ], [ 73.30934, 2.506027 ], [ 73.311074, 2.500029 ], [ 73.308562, 2.500026 ], [ 73.305257, 2.506969 ] ] ], [ [ [ 73.254396, 2.505776 ], [ 73.259237, 2.508416 ], [ 73.26194, 2.50435 ], [ 73.257894, 2.503326 ], [ 73.254396, 2.505776 ] ] ], [ [ [ 73.151657, 2.548319 ], [ 73.155595, 2.550209 ], [ 73.157307, 2.548984 ], [ 73.155027, 2.543009 ], [ 73.151657, 2.548319 ] ] ], [ [ [ 72.925656, 2.679788 ], [ 72.92913, 2.680667 ], [ 72.930388, 2.678337 ], [ 72.92914, 2.674551 ], [ 72.926097, 2.67586 ], [ 72.925656, 2.679788 ] ] ], [ [ [ 72.959863, 2.694602 ], [ 72.961614, 2.697892 ], [ 72.966156, 2.6979 ], [ 72.966899, 2.695714 ], [ 72.962242, 2.693675 ], [ 72.959863, 2.694602 ] ] ], [ [ [ 73.007622, 2.730768 ], [ 73.008352, 2.734713 ], [ 73.013155, 2.733743 ], [ 73.012282, 2.729542 ], [ 73.007622, 2.730768 ] ] ], [ [ [ 73.017785, 2.745463 ], [ 73.01943, 2.75068 ], [ 73.02246, 2.749863 ], [ 73.021217, 2.743741 ], [ 73.017785, 2.745463 ] ] ], [ [ [ 73.418606, 2.764027 ], [ 73.420222, 2.768051 ], [ 73.422476, 2.768169 ], [ 73.423392, 2.763255 ], [ 73.420901, 2.761858 ], [ 73.418606, 2.764027 ] ] ], [ [ [ 73.369443, 2.782299 ], [ 73.371181, 2.782965 ], [ 73.374646, 2.780284 ], [ 73.373947, 2.77738 ], [ 73.371242, 2.7766 ], [ 73.369443, 2.782299 ] ] ], [ [ [ 73.022983, 2.783972 ], [ 73.024589, 2.789702 ], [ 73.028036, 2.78958 ], [ 73.027537, 2.784998 ], [ 73.022983, 2.783972 ] ] ], [ [ [ 73.429935, 2.79623 ], [ 73.431141, 2.801008 ], [ 73.433983, 2.801478 ], [ 73.434638, 2.798203 ], [ 73.431789, 2.794755 ], [ 73.429935, 2.79623 ] ] ], [ [ [ 72.841175, 2.85811 ], [ 72.84695, 2.860887 ], [ 72.849237, 2.85764 ], [ 72.842482, 2.856149 ], [ 72.841175, 2.85811 ] ] ], [ [ [ 73.550655, 2.861686 ], [ 73.555589, 2.86252 ], [ 73.556005, 2.858799 ], [ 73.553129, 2.856314 ], [ 73.550655, 2.861686 ] ] ], [ [ [ 72.835752, 2.882385 ], [ 72.83661, 2.887726 ], [ 72.839668, 2.886547 ], [ 72.838494, 2.880361 ], [ 72.83661, 2.880434 ], [ 72.835752, 2.882385 ] ] ], [ [ [ 73.376794, 2.899066 ], [ 73.380272, 2.901646 ], [ 73.381685, 2.894628 ], [ 73.377649, 2.895787 ], [ 73.376794, 2.899066 ] ] ], [ [ [ 72.862397, 2.910664 ], [ 72.865747, 2.914119 ], [ 72.869108, 2.911562 ], [ 72.869892, 2.90867 ], [ 72.862397, 2.910664 ] ] ], [ [ [ 72.881243, 2.918293 ], [ 72.885342, 2.919823 ], [ 72.887289, 2.917207 ], [ 72.885896, 2.914881 ], [ 72.881562, 2.91569 ], [ 72.881243, 2.918293 ] ] ], [ [ [ 72.891871, 2.925679 ], [ 72.897421, 2.925979 ], [ 72.89964, 2.921718 ], [ 72.893783, 2.922646 ], [ 72.891871, 2.925679 ] ] ], [ [ [ 72.911217, 2.948354 ], [ 72.916642, 2.950369 ], [ 72.917809, 2.945713 ], [ 72.913756, 2.945413 ], [ 72.911217, 2.948354 ] ] ], [ [ [ 72.981337, 2.957213 ], [ 72.984891, 2.959305 ], [ 72.989043, 2.958419 ], [ 72.987864, 2.954541 ], [ 72.981337, 2.957213 ] ] ], [ [ [ 72.943866, 2.962247 ], [ 72.945469, 2.965213 ], [ 72.948149, 2.96495 ], [ 72.949496, 2.96118 ], [ 72.94387, 2.960091 ], [ 72.943866, 2.962247 ] ] ], [ [ [ 72.986408, 2.968211 ], [ 72.988417, 2.972271 ], [ 72.993186, 2.972121 ], [ 72.993466, 2.969238 ], [ 72.986408, 2.968211 ] ] ], [ [ [ 73.004057, 2.998355 ], [ 73.007964, 3.001859 ], [ 73.010143, 2.998803 ], [ 73.005802, 2.995079 ], [ 73.004057, 2.998355 ] ] ], [ [ [ 72.961391, 3.077757 ], [ 72.965609, 3.082005 ], [ 72.968854, 3.080744 ], [ 72.965979, 3.076754 ], [ 72.961391, 3.077757 ] ] ], [ [ [ 73.636434, 3.081304 ], [ 73.637179, 3.084873 ], [ 73.640436, 3.082709 ], [ 73.639398, 3.078158 ], [ 73.636787, 3.077455 ], [ 73.636434, 3.081304 ] ] ], [ [ [ 73.569699, 3.104355 ], [ 73.573012, 3.108903 ], [ 73.576019, 3.108848 ], [ 73.575291, 3.104148 ], [ 73.569699, 3.104355 ] ] ], [ [ [ 73.033876, 3.212945 ], [ 73.038364, 3.216162 ], [ 73.040264, 3.214426 ], [ 73.040844, 3.21043 ], [ 73.033876, 3.212945 ] ] ], [ [ [ 72.998953, 3.270573 ], [ 73.00441, 3.272559 ], [ 73.005061, 3.266952 ], [ 73.003031, 3.266781 ], [ 72.998953, 3.270573 ] ] ], [ [ [ 73.762611, 3.431158 ], [ 73.767087, 3.431165 ], [ 73.767097, 3.424417 ], [ 73.764857, 3.424414 ], [ 73.764853, 3.428913 ], [ 73.762615, 3.428909 ], [ 73.762611, 3.431158 ] ] ], [ [ [ 73.546841, 3.458909 ], [ 73.547331, 3.463401 ], [ 73.552617, 3.463829 ], [ 73.552303, 3.460663 ], [ 73.546841, 3.458909 ] ] ], [ [ [ 73.543235, 3.470419 ], [ 73.546499, 3.474325 ], [ 73.550998, 3.471663 ], [ 73.548141, 3.469399 ], [ 73.543235, 3.470419 ] ] ], [ [ [ 72.872719, 3.486591 ], [ 72.87583, 3.489208 ], [ 72.878433, 3.486604 ], [ 72.875326, 3.482159 ], [ 72.872719, 3.486591 ] ] ], [ [ [ 73.536347, 3.48741 ], [ 73.541192, 3.491975 ], [ 73.542744, 3.488244 ], [ 73.539344, 3.485438 ], [ 73.536347, 3.48741 ] ] ], [ [ [ 72.779781, 3.490005 ], [ 72.782301, 3.491819 ], [ 72.787662, 3.489032 ], [ 72.785374, 3.48633 ], [ 72.779781, 3.490005 ] ] ], [ [ [ 72.714547, 3.571036 ], [ 72.71915, 3.572677 ], [ 72.722546, 3.571068 ], [ 72.720038, 3.567647 ], [ 72.714547, 3.571036 ] ] ], [ [ [ 73.494966, 3.59428 ], [ 73.499656, 3.597433 ], [ 73.500446, 3.592192 ], [ 73.49758, 3.590876 ], [ 73.494966, 3.59428 ] ] ], [ [ [ 72.95314, 3.609394 ], [ 72.956718, 3.611802 ], [ 72.95733, 3.604903 ], [ 72.954195, 3.604896 ], [ 72.95314, 3.609394 ] ] ], [ [ [ 72.721338, 3.620795 ], [ 72.723397, 3.621628 ], [ 72.72567, 3.618735 ], [ 72.725062, 3.615007 ], [ 72.723004, 3.614174 ], [ 72.721338, 3.620795 ] ] ], [ [ [ 72.954387, 3.633687 ], [ 72.95901, 3.636524 ], [ 72.961706, 3.631883 ], [ 72.955378, 3.631917 ], [ 72.954387, 3.633687 ] ] ], [ [ [ 72.705935, 3.699954 ], [ 72.709679, 3.702479 ], [ 72.712437, 3.697783 ], [ 72.70991, 3.696209 ], [ 72.705935, 3.699954 ] ] ], [ [ [ 72.964282, 3.757245 ], [ 72.96641, 3.75924 ], [ 72.9732, 3.758171 ], [ 72.971176, 3.75522 ], [ 72.964282, 3.757245 ] ] ], [ [ [ 72.949205, 3.85081 ], [ 72.958104, 3.850174 ], [ 72.9566, 3.847226 ], [ 72.950339, 3.848493 ], [ 72.949205, 3.85081 ] ] ], [ [ [ 73.363052, 3.876424 ], [ 73.367576, 3.88017 ], [ 73.370513, 3.878272 ], [ 73.368777, 3.875072 ], [ 73.363052, 3.876424 ] ] ], [ [ [ 73.45198, 3.912062 ], [ 73.456401, 3.917678 ], [ 73.459028, 3.913734 ], [ 73.453414, 3.911258 ], [ 73.45198, 3.912062 ] ] ], [ [ [ 72.740682, 3.921053 ], [ 72.742705, 3.922791 ], [ 72.749349, 3.921325 ], [ 72.746293, 3.918259 ], [ 72.740682, 3.921053 ] ] ], [ [ [ 73.453635, 3.920143 ], [ 73.456275, 3.925949 ], [ 73.459028, 3.922883 ], [ 73.457765, 3.919243 ], [ 73.453635, 3.920143 ] ] ], [ [ [ 73.5025, 3.96885 ], [ 73.507575, 3.969426 ], [ 73.507583, 3.964895 ], [ 73.502506, 3.965451 ], [ 73.5025, 3.96885 ] ] ], [ [ [ 73.506697, 3.99116 ], [ 73.511846, 3.992894 ], [ 73.509568, 3.986277 ], [ 73.506989, 3.987136 ], [ 73.506697, 3.99116 ] ] ], [ [ [ 73.433279, 4.121352 ], [ 73.436671, 4.124022 ], [ 73.439287, 4.121453 ], [ 73.436113, 4.117315 ], [ 73.433279, 4.121352 ] ] ], [ [ [ 72.762786, 4.181165 ], [ 72.766424, 4.183803 ], [ 72.770633, 4.18156 ], [ 72.769062, 4.178807 ], [ 72.762786, 4.181165 ] ] ], [ [ [ 72.770692, 4.184039 ], [ 72.771152, 4.188044 ], [ 72.775713, 4.187544 ], [ 72.773991, 4.182012 ], [ 72.770692, 4.184039 ] ] ], [ [ [ 72.815858, 4.194321 ], [ 72.817342, 4.197235 ], [ 72.821972, 4.195889 ], [ 72.820851, 4.192835 ], [ 72.816568, 4.192539 ], [ 72.815858, 4.194321 ] ] ], [ [ [ 72.860684, 4.217435 ], [ 72.863323, 4.218304 ], [ 72.866343, 4.213847 ], [ 72.868291, 4.210973 ], [ 72.865796, 4.210913 ], [ 72.863496, 4.213847 ], [ 72.860684, 4.217435 ] ] ], [ [ [ 73.516995, 4.225903 ], [ 73.519406, 4.228813 ], [ 73.522038, 4.22917 ], [ 73.522331, 4.226332 ], [ 73.520866, 4.22374 ], [ 73.518553, 4.223749 ], [ 73.516995, 4.225903 ] ] ], [ [ [ 73.544028, 4.250492 ], [ 73.546337, 4.253412 ], [ 73.549713, 4.249771 ], [ 73.546623, 4.246298 ], [ 73.544028, 4.250492 ] ] ], [ [ [ 73.48811, 4.269754 ], [ 73.493068, 4.272448 ], [ 73.494712, 4.270303 ], [ 73.491417, 4.266217 ], [ 73.48811, 4.269754 ] ] ], [ [ [ 73.008722, 4.295836 ], [ 73.013196, 4.295847 ], [ 73.013211, 4.291354 ], [ 73.008731, 4.291342 ], [ 73.008722, 4.295836 ] ] ], [ [ [ 73.605786, 4.343161 ], [ 73.608856, 4.34715 ], [ 73.611375, 4.346171 ], [ 73.610971, 4.342816 ], [ 73.607341, 4.341197 ], [ 73.605786, 4.343161 ] ] ], [ [ [ 73.61544, 4.349038 ], [ 73.617138, 4.353656 ], [ 73.620551, 4.349954 ], [ 73.619629, 4.346231 ], [ 73.61544, 4.349038 ] ] ], [ [ [ 73.710878, 4.43816 ], [ 73.713649, 4.445665 ], [ 73.716205, 4.443202 ], [ 73.712414, 4.436944 ], [ 73.710878, 4.43816 ] ] ], [ [ [ 73.495974, 4.735192 ], [ 73.499144, 4.738443 ], [ 73.503705, 4.736372 ], [ 73.501136, 4.734016 ], [ 73.498047, 4.734016 ], [ 73.495974, 4.735192 ] ] ], [ [ [ 72.97177, 4.880403 ], [ 72.975113, 4.882313 ], [ 72.979948, 4.879748 ], [ 72.976408, 4.877293 ], [ 72.97177, 4.880403 ] ] ], [ [ [ 72.930293, 4.885281 ], [ 72.932346, 4.887017 ], [ 72.937823, 4.886648 ], [ 72.938141, 4.882729 ], [ 72.930293, 4.885281 ] ] ], [ [ [ 72.920279, 5.00621 ], [ 72.921765, 5.010423 ], [ 72.925061, 5.010734 ], [ 72.92478, 5.004871 ], [ 72.920279, 5.00621 ] ] ], [ [ [ 72.836648, 5.025604 ], [ 72.840799, 5.025319 ], [ 72.843567, 5.022409 ], [ 72.839968, 5.019895 ], [ 72.836648, 5.025604 ] ] ], [ [ [ 72.878879, 5.042727 ], [ 72.881535, 5.043811 ], [ 72.884108, 5.039187 ], [ 72.881136, 5.036395 ], [ 72.878879, 5.042727 ] ] ], [ [ [ 73.059502, 5.093766 ], [ 73.060669, 5.094759 ], [ 73.066597, 5.093343 ], [ 73.06721, 5.090616 ], [ 73.061463, 5.091205 ], [ 73.059502, 5.093766 ] ] ], [ [ [ 72.906511, 5.13415 ], [ 72.908131, 5.135643 ], [ 72.915727, 5.134499 ], [ 72.912471, 5.131447 ], [ 72.906511, 5.13415 ] ] ], [ [ [ 73.104077, 5.135942 ], [ 73.106655, 5.137743 ], [ 73.108912, 5.137743 ], [ 73.11115, 5.134141 ], [ 73.105364, 5.133539 ], [ 73.104077, 5.135942 ] ] ], [ [ [ 73.111179, 5.144191 ], [ 73.115697, 5.144438 ], [ 73.118127, 5.141014 ], [ 73.113691, 5.139571 ], [ 73.111179, 5.144191 ] ] ], [ [ [ 73.049552, 5.164247 ], [ 73.052482, 5.165323 ], [ 73.056428, 5.163719 ], [ 73.05769, 5.16085 ], [ 73.052852, 5.161373 ], [ 73.049552, 5.164247 ] ] ], [ [ [ 72.992654, 5.178457 ], [ 72.996643, 5.17847 ], [ 72.997608, 5.172801 ], [ 72.992665, 5.174902 ], [ 72.992654, 5.178457 ] ] ], [ [ [ 73.119575, 5.18898 ], [ 73.124693, 5.190449 ], [ 73.126852, 5.186035 ], [ 73.122151, 5.185956 ], [ 73.119575, 5.18898 ] ] ], [ [ [ 73.128639, 5.192648 ], [ 73.132306, 5.1945 ], [ 73.135741, 5.190765 ], [ 73.130945, 5.189203 ], [ 73.128639, 5.192648 ] ] ], [ [ [ 73.081473, 5.207567 ], [ 73.084955, 5.20918 ], [ 73.089418, 5.205626 ], [ 73.086305, 5.203793 ], [ 73.081473, 5.207567 ] ] ], [ [ [ 72.87363, 5.23355 ], [ 72.874767, 5.235453 ], [ 72.881144, 5.233322 ], [ 72.880715, 5.229924 ], [ 72.87363, 5.23355 ] ] ], [ [ [ 73.110804, 5.236049 ], [ 73.115144, 5.236109 ], [ 73.118445, 5.23085 ], [ 73.11516, 5.23084 ], [ 73.110804, 5.236049 ] ] ], [ [ [ 73.158466, 5.27089 ], [ 73.165183, 5.27091 ], [ 73.162141, 5.266922 ], [ 73.158477, 5.267218 ], [ 73.158466, 5.27089 ] ] ], [ [ [ 73.029771, 5.275564 ], [ 73.03352, 5.277038 ], [ 73.036234, 5.275585 ], [ 73.035619, 5.272447 ], [ 73.032283, 5.272436 ], [ 73.029771, 5.275564 ] ] ], [ [ [ 73.039355, 5.274163 ], [ 73.043571, 5.277853 ], [ 73.045663, 5.273231 ], [ 73.043021, 5.271565 ], [ 73.039355, 5.274163 ] ] ], [ [ [ 73.006401, 5.27631 ], [ 73.008917, 5.277942 ], [ 73.013603, 5.276694 ], [ 73.012176, 5.272537 ], [ 73.006401, 5.27631 ] ] ], [ [ [ 73.602915, 5.275942 ], [ 73.605283, 5.279274 ], [ 73.609993, 5.281219 ], [ 73.610523, 5.278994 ], [ 73.605582, 5.275626 ], [ 73.602915, 5.275942 ] ] ], [ [ [ 73.133997, 5.281042 ], [ 73.134151, 5.282965 ], [ 73.13926, 5.284902 ], [ 73.13959, 5.281379 ], [ 73.137039, 5.279288 ], [ 73.133997, 5.281042 ] ] ], [ [ [ 73.620624, 5.281602 ], [ 73.625547, 5.28528 ], [ 73.626839, 5.280785 ], [ 73.622097, 5.27927 ], [ 73.620624, 5.281602 ] ] ], [ [ [ 73.109151, 5.286631 ], [ 73.110677, 5.288136 ], [ 73.116368, 5.288689 ], [ 73.11611, 5.285705 ], [ 73.10962, 5.284923 ], [ 73.109151, 5.286631 ] ] ], [ [ [ 73.053798, 5.298788 ], [ 73.059749, 5.297889 ], [ 73.058956, 5.293878 ], [ 73.054954, 5.294663 ], [ 73.053798, 5.298788 ] ] ], [ [ [ 72.965358, 5.297759 ], [ 72.970952, 5.299649 ], [ 72.970967, 5.29497 ], [ 72.966612, 5.294644 ], [ 72.965358, 5.297759 ] ] ], [ [ [ 73.067595, 5.301673 ], [ 73.072898, 5.303108 ], [ 73.074327, 5.299033 ], [ 73.06902, 5.298662 ], [ 73.067595, 5.301673 ] ] ], [ [ [ 73.470787, 5.322288 ], [ 73.47274, 5.32433 ], [ 73.47465, 5.325187 ], [ 73.474669, 5.317574 ], [ 73.47274, 5.31773 ], [ 73.470787, 5.322288 ] ] ], [ [ [ 73.460533, 5.336743 ], [ 73.464507, 5.336446 ], [ 73.467271, 5.331245 ], [ 73.464522, 5.330472 ], [ 73.460533, 5.336743 ] ] ], [ [ [ 72.948716, 5.336169 ], [ 72.952472, 5.337909 ], [ 72.956708, 5.336196 ], [ 72.953429, 5.332885 ], [ 72.948716, 5.336169 ] ] ], [ [ [ 72.964604, 5.342926 ], [ 72.972065, 5.344652 ], [ 72.972076, 5.34125 ], [ 72.96563, 5.340718 ], [ 72.964604, 5.342926 ] ] ], [ [ [ 72.915985, 5.364112 ], [ 72.921685, 5.36299 ], [ 72.920071, 5.357983 ], [ 72.917423, 5.35955 ], [ 72.915985, 5.364112 ] ] ], [ [ [ 73.655058, 5.357318 ], [ 73.655886, 5.366447 ], [ 73.658008, 5.36637 ], [ 73.65719, 5.35683 ], [ 73.655058, 5.357318 ] ] ], [ [ [ 73.3293, 5.366927 ], [ 73.336607, 5.365419 ], [ 73.336638, 5.363297 ], [ 73.331379, 5.36253 ], [ 73.3293, 5.366927 ] ] ], [ [ [ 73.649988, 5.369042 ], [ 73.651933, 5.370446 ], [ 73.654012, 5.362254 ], [ 73.649999, 5.363726 ], [ 73.649988, 5.369042 ] ] ], [ [ [ 73.646658, 5.402247 ], [ 73.650146, 5.403949 ], [ 73.650543, 5.396697 ], [ 73.647543, 5.397329 ], [ 73.646658, 5.402247 ] ] ], [ [ [ 72.987967, 5.398788 ], [ 72.990279, 5.403694 ], [ 72.994422, 5.402766 ], [ 72.994422, 5.400023 ], [ 72.987967, 5.398788 ] ] ], [ [ [ 73.627765, 5.432108 ], [ 73.633221, 5.433186 ], [ 73.635039, 5.429112 ], [ 73.630374, 5.428837 ], [ 73.627765, 5.432108 ] ] ], [ [ [ 72.904925, 5.440314 ], [ 72.910741, 5.443227 ], [ 72.911916, 5.438773 ], [ 72.908106, 5.438062 ], [ 72.904925, 5.440314 ] ] ], [ [ [ 73.364114, 5.443478 ], [ 73.365059, 5.447308 ], [ 73.368337, 5.445676 ], [ 73.368619, 5.442259 ], [ 73.366169, 5.440476 ], [ 73.364114, 5.443478 ] ] ], [ [ [ 72.937011, 5.446942 ], [ 72.941806, 5.449903 ], [ 72.944128, 5.449156 ], [ 72.941856, 5.444275 ], [ 72.937011, 5.446942 ] ] ], [ [ [ 73.368849, 5.461993 ], [ 73.372451, 5.462883 ], [ 73.37212, 5.456374 ], [ 73.369085, 5.456387 ], [ 73.368849, 5.461993 ] ] ], [ [ [ 73.558933, 5.468801 ], [ 73.559762, 5.470203 ], [ 73.564688, 5.468604 ], [ 73.565547, 5.466372 ], [ 73.562014, 5.464757 ], [ 73.558933, 5.468801 ] ] ], [ [ [ 72.951013, 5.475317 ], [ 72.953239, 5.477519 ], [ 72.959861, 5.476437 ], [ 72.958538, 5.47365 ], [ 72.951013, 5.475317 ] ] ], [ [ [ 72.972557, 5.484543 ], [ 72.973408, 5.486379 ], [ 72.979388, 5.486082 ], [ 72.979362, 5.484024 ], [ 72.974444, 5.482208 ], [ 72.972557, 5.484543 ] ] ], [ [ [ 72.892548, 5.486685 ], [ 72.894262, 5.488916 ], [ 72.899509, 5.486499 ], [ 72.899651, 5.48477 ], [ 72.893423, 5.484717 ], [ 72.892548, 5.486685 ] ] ], [ [ [ 72.933997, 5.491574 ], [ 72.936041, 5.49362 ], [ 72.942142, 5.493672 ], [ 72.940125, 5.489741 ], [ 72.933997, 5.491574 ] ] ], [ [ [ 73.034684, 5.492966 ], [ 73.041616, 5.494783 ], [ 73.042985, 5.491354 ], [ 73.036017, 5.491032 ], [ 73.034684, 5.492966 ] ] ], [ [ [ 72.877591, 5.494607 ], [ 72.883653, 5.496484 ], [ 72.885687, 5.493944 ], [ 72.878415, 5.491952 ], [ 72.877591, 5.494607 ] ] ], [ [ [ 72.964227, 5.50835 ], [ 72.967079, 5.510024 ], [ 72.972288, 5.508606 ], [ 72.969365, 5.505115 ], [ 72.964227, 5.50835 ] ] ], [ [ [ 73.039378, 5.511165 ], [ 73.042252, 5.512547 ], [ 73.044791, 5.511256 ], [ 73.043353, 5.507251 ], [ 73.041349, 5.506359 ], [ 73.039378, 5.511165 ] ] ], [ [ [ 72.975638, 5.509188 ], [ 72.976382, 5.51107 ], [ 72.983073, 5.512846 ], [ 72.984497, 5.50966 ], [ 72.975638, 5.509188 ] ] ], [ [ [ 72.823867, 5.512902 ], [ 72.824368, 5.515284 ], [ 72.826591, 5.51615 ], [ 72.830234, 5.51615 ], [ 72.82967, 5.513856 ], [ 72.825601, 5.511345 ], [ 72.823867, 5.512902 ] ] ], [ [ [ 73.439534, 5.521428 ], [ 73.444076, 5.522892 ], [ 73.444761, 5.517846 ], [ 73.440732, 5.5175 ], [ 73.439534, 5.521428 ] ] ], [ [ [ 73.503769, 5.534748 ], [ 73.508008, 5.534632 ], [ 73.509798, 5.529823 ], [ 73.507049, 5.528755 ], [ 73.503769, 5.534748 ] ] ], [ [ [ 72.94905, 5.60689 ], [ 72.954451, 5.611232 ], [ 72.955822, 5.608761 ], [ 72.953346, 5.604997 ], [ 72.94905, 5.60689 ] ] ], [ [ [ 73.326759, 5.646826 ], [ 73.332019, 5.649388 ], [ 73.332757, 5.645388 ], [ 73.327677, 5.643735 ], [ 73.326759, 5.646826 ] ] ], [ [ [ 73.296379, 5.648928 ], [ 73.300262, 5.65096 ], [ 73.30274, 5.647543 ], [ 73.298381, 5.645057 ], [ 73.296379, 5.648928 ] ] ], [ [ [ 73.023908, 5.690324 ], [ 73.024086, 5.693318 ], [ 73.028194, 5.693518 ], [ 73.029697, 5.690718 ], [ 73.027463, 5.688652 ], [ 73.023908, 5.690324 ] ] ], [ [ [ 73.40652, 5.692718 ], [ 73.408164, 5.698584 ], [ 73.411268, 5.696557 ], [ 73.409235, 5.690994 ], [ 73.40652, 5.692718 ] ] ], [ [ [ 73.309843, 5.695668 ], [ 73.310308, 5.699475 ], [ 73.314423, 5.699804 ], [ 73.313176, 5.693298 ], [ 73.309843, 5.695668 ] ] ], [ [ [ 72.931179, 5.732422 ], [ 72.936185, 5.733515 ], [ 72.937633, 5.728861 ], [ 72.933698, 5.728667 ], [ 72.931179, 5.732422 ] ] ], [ [ [ 73.322002, 5.745849 ], [ 73.326822, 5.74574 ], [ 73.327424, 5.740461 ], [ 73.324103, 5.741038 ], [ 73.322002, 5.745849 ] ] ], [ [ [ 73.012655, 5.749465 ], [ 73.013011, 5.751279 ], [ 73.018072, 5.752746 ], [ 73.018092, 5.746946 ], [ 73.012655, 5.749465 ] ] ], [ [ [ 72.958115, 5.753613 ], [ 72.961692, 5.754163 ], [ 72.964926, 5.750411 ], [ 72.961354, 5.748427 ], [ 72.958115, 5.753613 ] ] ], [ [ [ 73.260658, 5.752177 ], [ 73.261265, 5.756842 ], [ 73.265916, 5.758411 ], [ 73.265618, 5.754368 ], [ 73.260658, 5.752177 ] ] ], [ [ [ 72.961399, 5.770454 ], [ 72.967128, 5.770474 ], [ 72.967203, 5.76576 ], [ 72.963322, 5.766635 ], [ 72.961399, 5.770454 ] ] ], [ [ [ 73.27399, 5.785858 ], [ 73.27399, 5.789537 ], [ 73.279322, 5.78742 ], [ 73.276977, 5.782884 ], [ 73.27399, 5.785858 ] ] ], [ [ [ 73.358546, 5.79175 ], [ 73.363349, 5.793246 ], [ 73.366164, 5.789878 ], [ 73.360033, 5.788791 ], [ 73.358546, 5.79175 ] ] ], [ [ [ 73.341923, 5.798379 ], [ 73.34381, 5.799814 ], [ 73.347858, 5.798347 ], [ 73.348594, 5.795427 ], [ 73.345437, 5.794686 ], [ 73.341923, 5.798379 ] ] ], [ [ [ 73.224686, 5.796039 ], [ 73.228117, 5.800242 ], [ 73.231421, 5.798115 ], [ 73.230461, 5.795004 ], [ 73.224686, 5.796039 ] ] ], [ [ [ 73.29464, 5.802899 ], [ 73.296322, 5.804933 ], [ 73.300376, 5.804269 ], [ 73.300388, 5.800379 ], [ 73.296673, 5.800537 ], [ 73.29464, 5.802899 ] ] ], [ [ [ 73.322407, 5.814981 ], [ 73.327354, 5.817549 ], [ 73.329906, 5.814969 ], [ 73.327879, 5.812195 ], [ 73.322407, 5.814981 ] ] ], [ [ [ 73.384733, 5.824104 ], [ 73.388125, 5.826111 ], [ 73.389991, 5.821168 ], [ 73.387084, 5.819058 ], [ 73.384733, 5.824104 ] ] ], [ [ [ 73.206463, 5.832387 ], [ 73.210305, 5.834165 ], [ 73.212883, 5.829999 ], [ 73.207757, 5.82886 ], [ 73.206463, 5.832387 ] ] ], [ [ [ 73.302729, 5.838289 ], [ 73.309015, 5.837845 ], [ 73.308202, 5.833975 ], [ 73.303193, 5.8351 ], [ 73.302729, 5.838289 ] ] ], [ [ [ 73.442695, 5.847818 ], [ 73.445241, 5.849102 ], [ 73.448235, 5.841876 ], [ 73.444834, 5.842292 ], [ 73.442695, 5.847818 ] ] ], [ [ [ 73.333498, 5.853076 ], [ 73.337158, 5.855885 ], [ 73.33927, 5.850295 ], [ 73.33508, 5.849933 ], [ 73.333498, 5.853076 ] ] ], [ [ [ 73.361934, 5.862492 ], [ 73.364932, 5.863842 ], [ 73.370274, 5.860334 ], [ 73.368634, 5.858071 ], [ 73.361934, 5.862492 ] ] ], [ [ [ 73.34053, 5.876377 ], [ 73.34328, 5.878025 ], [ 73.346924, 5.875366 ], [ 73.347176, 5.872454 ], [ 73.341351, 5.874621 ], [ 73.34053, 5.876377 ] ] ], [ [ [ 73.396605, 5.883014 ], [ 73.398982, 5.884958 ], [ 73.403449, 5.884525 ], [ 73.4039, 5.882737 ], [ 73.399888, 5.880489 ], [ 73.396605, 5.883014 ] ] ], [ [ [ 73.375237, 5.886764 ], [ 73.377833, 5.889621 ], [ 73.380095, 5.883065 ], [ 73.378211, 5.881071 ], [ 73.375237, 5.886764 ] ] ], [ [ [ 73.313877, 5.912113 ], [ 73.314178, 5.915852 ], [ 73.317542, 5.91738 ], [ 73.318731, 5.913842 ], [ 73.316213, 5.911136 ], [ 73.313877, 5.912113 ] ] ], [ [ [ 73.433828, 5.922689 ], [ 73.438109, 5.923091 ], [ 73.439871, 5.919198 ], [ 73.435398, 5.918016 ], [ 73.433828, 5.922689 ] ] ], [ [ [ 73.303578, 5.948474 ], [ 73.303745, 5.950916 ], [ 73.312101, 5.952337 ], [ 73.310717, 5.949367 ], [ 73.303578, 5.948474 ] ] ], [ [ [ 73.383153, 5.964024 ], [ 73.388089, 5.965452 ], [ 73.389472, 5.962149 ], [ 73.387375, 5.959313 ], [ 73.383153, 5.964024 ] ] ], [ [ [ 73.365213, 5.965544 ], [ 73.370922, 5.967542 ], [ 73.373003, 5.963881 ], [ 73.36775, 5.963068 ], [ 73.365213, 5.965544 ] ] ], [ [ [ 73.39008, 5.969169 ], [ 73.395782, 5.969624 ], [ 73.396014, 5.964794 ], [ 73.392284, 5.965441 ], [ 73.39008, 5.969169 ] ] ], [ [ [ 73.122479, 5.966671 ], [ 73.122689, 5.971893 ], [ 73.12498, 5.973108 ], [ 73.126895, 5.966672 ], [ 73.122479, 5.966671 ] ] ], [ [ [ 72.934364, 5.978873 ], [ 72.938705, 5.982031 ], [ 72.94154, 5.977357 ], [ 72.939644, 5.976241 ], [ 72.934364, 5.978873 ] ] ], [ [ [ 73.050528, 6.054195 ], [ 73.054816, 6.057181 ], [ 73.05788, 6.05463 ], [ 73.054328, 6.051695 ], [ 73.050528, 6.054195 ] ] ], [ [ [ 73.043913, 6.055906 ], [ 73.044578, 6.060516 ], [ 73.048622, 6.059362 ], [ 73.047577, 6.054197 ], [ 73.043913, 6.055906 ] ] ], [ [ [ 73.282624, 6.065488 ], [ 73.28408, 6.067042 ], [ 73.288573, 6.065452 ], [ 73.288922, 6.062986 ], [ 73.28583, 6.061648 ], [ 73.282624, 6.065488 ] ] ], [ [ [ 73.225071, 6.115055 ], [ 73.227194, 6.116856 ], [ 73.228873, 6.11828 ], [ 73.230693, 6.113467 ], [ 73.228495, 6.111251 ], [ 73.227194, 6.112697 ], [ 73.225071, 6.115055 ] ] ], [ [ [ 73.251405, 6.119354 ], [ 73.252575, 6.124106 ], [ 73.258512, 6.121751 ], [ 73.256147, 6.119665 ], [ 73.251405, 6.119354 ] ] ], [ [ [ 73.24206, 6.189932 ], [ 73.245985, 6.191911 ], [ 73.248393, 6.187131 ], [ 73.242806, 6.186983 ], [ 73.24206, 6.189932 ] ] ], [ [ [ 73.239082, 6.227016 ], [ 73.239842, 6.231674 ], [ 73.242942, 6.232201 ], [ 73.244508, 6.227551 ], [ 73.239082, 6.227016 ] ] ], [ [ [ 73.010404, 6.283714 ], [ 73.011598, 6.289576 ], [ 73.014587, 6.28733 ], [ 73.01361, 6.281727 ], [ 73.010404, 6.283714 ] ] ], [ [ [ 73.057027, 6.450323 ], [ 73.058728, 6.452817 ], [ 73.063084, 6.4519 ], [ 73.061853, 6.448475 ], [ 73.057502, 6.448303 ], [ 73.057027, 6.450323 ] ] ], [ [ [ 72.899299, 6.480375 ], [ 72.904451, 6.480396 ], [ 72.906393, 6.477828 ], [ 72.901895, 6.475663 ], [ 72.899299, 6.480375 ] ] ], [ [ [ 72.886212, 6.539385 ], [ 72.887486, 6.541882 ], [ 72.892082, 6.541446 ], [ 72.890573, 6.536137 ], [ 72.886212, 6.539385 ] ] ], [ [ [ 72.910459, 6.672275 ], [ 72.914256, 6.675644 ], [ 72.917775, 6.67632 ], [ 72.915815, 6.671029 ], [ 72.910459, 6.672275 ] ] ], [ [ [ 72.94563, 6.702946 ], [ 72.946155, 6.704542 ], [ 72.951208, 6.702969 ], [ 72.950429, 6.698716 ], [ 72.94777, 6.699501 ], [ 72.94563, 6.702946 ] ] ], [ [ [ 73.084146, 6.770861 ], [ 73.086919, 6.773914 ], [ 73.090005, 6.77079 ], [ 73.088331, 6.767058 ], [ 73.084146, 6.770861 ] ] ], [ [ [ 73.148744, 6.849195 ], [ 73.150865, 6.852139 ], [ 73.155643, 6.849114 ], [ 73.154517, 6.846289 ], [ 73.148744, 6.849195 ] ] ], [ [ [ 73.123065, 6.894419 ], [ 73.128601, 6.897932 ], [ 73.129955, 6.894234 ], [ 73.126568, 6.892173 ], [ 73.123065, 6.894419 ] ] ], [ [ [ 73.158455, 6.896609 ], [ 73.163315, 6.899785 ], [ 73.167956, 6.901146 ], [ 73.167177, 6.898869 ], [ 73.159702, 6.895347 ], [ 73.158455, 6.896609 ] ] ], [ [ [ 72.980322, 6.948969 ], [ 72.983041, 6.950149 ], [ 72.986325, 6.944822 ], [ 72.98314, 6.943408 ], [ 72.980322, 6.948969 ] ] ], [ [ [ 72.93694, 6.999077 ], [ 72.941754, 6.9999 ], [ 72.942781, 6.994289 ], [ 72.940978, 6.993679 ], [ 72.93694, 6.999077 ] ] ], [ [ [ 72.859186, 7.003175 ], [ 72.864617, 7.004459 ], [ 72.866196, 7.00067 ], [ 72.861409, 6.999893 ], [ 72.859186, 7.003175 ] ] ], [ [ [ 72.931857, 7.010637 ], [ 72.932042, 7.013385 ], [ 72.937546, 7.012428 ], [ 72.937166, 7.009483 ], [ 72.932455, 7.008873 ], [ 72.931857, 7.010637 ] ] ], [ [ [ 72.826885, 7.0219 ], [ 72.827457, 7.023144 ], [ 72.833082, 7.020933 ], [ 72.83301, 7.019158 ], [ 72.82851, 7.01779 ], [ 72.826885, 7.0219 ] ] ], [ [ [ 72.968764, 7.050978 ], [ 72.972115, 7.051364 ], [ 72.974177, 7.048395 ], [ 72.971561, 7.04423 ], [ 72.968764, 7.050978 ] ] ], [ [ [ 72.951308, 7.05608 ], [ 72.955289, 7.056857 ], [ 72.956711, 7.055247 ], [ 72.956124, 7.050801 ], [ 72.953694, 7.0518 ], [ 72.951308, 7.05608 ] ] ], [ [ [ 72.807881, 7.071175 ], [ 72.812247, 7.076332 ], [ 72.813437, 7.075822 ], [ 72.813165, 7.070809 ], [ 72.808082, 7.070199 ], [ 72.807881, 7.071175 ] ] ], [ [ [ 72.876241, 7.095037 ], [ 72.87928, 7.096877 ], [ 72.880833, 7.090643 ], [ 72.877178, 7.09017 ], [ 72.876241, 7.095037 ] ] ], [ [ [ 72.896396, 7.104022 ], [ 72.900252, 7.106642 ], [ 72.904443, 7.105318 ], [ 72.900573, 7.101718 ], [ 72.896396, 7.104022 ] ] ], [ [ [ 73.146192, 5.871526 ], [ 73.143007, 5.870499 ], [ 73.141063, 5.873353 ], [ 73.142349, 5.876098 ], [ 73.146192, 5.874483 ], [ 73.146192, 5.871526 ] ] ], [ [ [ 73.338556, 2.343206 ], [ 73.338795, 2.344778 ], [ 73.343214, 2.346616 ], [ 73.343996, 2.34439 ], [ 73.339501, 2.342159 ], [ 73.338556, 2.343206 ] ] ] ] } }
]
}
