{
"type": "FeatureCollection",
"name": "Mali",
"crs": { "type": "name", "properties": { "name": "urn:ogc:def:crs:OGC:1.3:CRS84" } },
"features": [
{ "type": "Feature", "properties": { "id": "ML", "CNTR_ID": "ML", "CNTR_NAME": "Mali", "NAME_ENGL": "Mali", "ISO3_CODE": "MLI", "FID": "ML" }, "geometry": { "type": "MultiPolygon", "coordinates": [ [ [ [ -5.51892, 10.43327 ], [ -5.527568, 10.436531 ], [ -5.534849, 10.439276 ], [ -5.561067, 10.461607 ], [ -5.568155, 10.464132 ], [ -5.59991, 10.452975 ], [ -5.625627, 10.453678 ], [ -5.676224, 10.46184 ], [ -5.705947, 10.442475 ], [ -5.733538, 10.437442 ], [ -5.74785, 10.431768 ], [ -5.757878, 10.432233 ], [ -5.772181, 10.439334 ], [ -5.779742, 10.438988 ], [ -5.819182, 10.419332 ], [ -5.825911, 10.41047 ], [ -5.83091, 10.396802 ], [ -5.84665, 10.384255 ], [ -5.859476, 10.379601 ], [ -5.872402, 10.379299 ], [ -5.884487, 10.372049 ], [ -5.887355, 10.363649 ], [ -5.896796, 10.328033 ], [ -5.908954, 10.311189 ], [ -5.909361, 10.281809 ], [ -5.921625, 10.276816 ], [ -5.942182, 10.282207 ], [ -5.972975, 10.276952 ], [ -5.97701, 10.253131 ], [ -5.986825, 10.229108 ], [ -6.011635, 10.204577 ], [ -6.024959, 10.199793 ], [ -6.055812, 10.203279 ], [ -6.084153, 10.198971 ], [ -6.100282, 10.199669 ], [ -6.112001, 10.202896 ], [ -6.119865, 10.205062 ], [ -6.150663, 10.220731 ], [ -6.174169, 10.224335 ], [ -6.190802, 10.235762 ], [ -6.198841, 10.254591 ], [ -6.221207, 10.260484 ], [ -6.226589, 10.281295 ], [ -6.236308, 10.296561 ], [ -6.230892, 10.305321 ], [ -6.215631, 10.313206 ], [ -6.206447, 10.312367 ], [ -6.198797, 10.30495 ], [ -6.193501, 10.30712 ], [ -6.187886, 10.318936 ], [ -6.196227, 10.332746 ], [ -6.195397, 10.341207 ], [ -6.170074, 10.363478 ], [ -6.183436, 10.373726 ], [ -6.190034, 10.3893 ], [ -6.183001, 10.408829 ], [ -6.178007, 10.411476 ], [ -6.168435, 10.410929 ], [ -6.163701, 10.4183 ], [ -6.167929, 10.426879 ], [ -6.183362, 10.437812 ], [ -6.188304, 10.446401 ], [ -6.186961, 10.467127 ], [ -6.166788, 10.484692 ], [ -6.169529, 10.492309 ], [ -6.179979, 10.497272 ], [ -6.204692, 10.497937 ], [ -6.208485, 10.512065 ], [ -6.219749, 10.523066 ], [ -6.236719, 10.51458 ], [ -6.24556, 10.517426 ], [ -6.249748, 10.524225 ], [ -6.244314, 10.544732 ], [ -6.225357, 10.556243 ], [ -6.211701, 10.573826 ], [ -6.211067, 10.580656 ], [ -6.21466, 10.586235 ], [ -6.211298, 10.597399 ], [ -6.221738, 10.600815 ], [ -6.222928, 10.614007 ], [ -6.215682, 10.620498 ], [ -6.19882, 10.622689 ], [ -6.190034, 10.633785 ], [ -6.192268, 10.63856 ], [ -6.209657, 10.644786 ], [ -6.218322, 10.654928 ], [ -6.229942, 10.658371 ], [ -6.234193, 10.664326 ], [ -6.233736, 10.6711 ], [ -6.226919, 10.684604 ], [ -6.231462, 10.699725 ], [ -6.220081, 10.711954 ], [ -6.217134, 10.723647 ], [ -6.222685, 10.7275 ], [ -6.256774, 10.735825 ], [ -6.347836, 10.696416 ], [ -6.357876, 10.707457 ], [ -6.383059, 10.711947 ], [ -6.398383, 10.710038 ], [ -6.415344, 10.70034 ], [ -6.42126, 10.677391 ], [ -6.42009, 10.62926 ], [ -6.401083, 10.619208 ], [ -6.397155, 10.607665 ], [ -6.402121, 10.598488 ], [ -6.43071, 10.573819 ], [ -6.447083, 10.565612 ], [ -6.463097, 10.565822 ], [ -6.490418, 10.577602 ], [ -6.511725, 10.576804 ], [ -6.539654, 10.587271 ], [ -6.56645, 10.6131 ], [ -6.598032, 10.624955 ], [ -6.609937, 10.63887 ], [ -6.616064, 10.658432 ], [ -6.622351, 10.666096 ], [ -6.642531, 10.670091 ], [ -6.651632, 10.658686 ], [ -6.657142, 10.645761 ], [ -6.655936, 10.642038 ], [ -6.649432, 10.640287 ], [ -6.649282, 10.637197 ], [ -6.667429, 10.629408 ], [ -6.673124, 10.620876 ], [ -6.676312, 10.601277 ], [ -6.66782, 10.591253 ], [ -6.670013, 10.555147 ], [ -6.665498, 10.537896 ], [ -6.679421, 10.529866 ], [ -6.680823, 10.520149 ], [ -6.678463, 10.506975 ], [ -6.68339, 10.490879 ], [ -6.677422, 10.482614 ], [ -6.67861, 10.468315 ], [ -6.677034, 10.467127 ], [ -6.6631, 10.456618 ], [ -6.646966, 10.454457 ], [ -6.64402, 10.44403 ], [ -6.633272, 10.441431 ], [ -6.631017, 10.435461 ], [ -6.637507, 10.415399 ], [ -6.65378, 10.398282 ], [ -6.672013, 10.366537 ], [ -6.687944, 10.357686 ], [ -6.70211, 10.357539 ], [ -6.710195, 10.361086 ], [ -6.725224, 10.37527 ], [ -6.764004, 10.390349 ], [ -6.836669, 10.375709 ], [ -6.856963, 10.362953 ], [ -6.898845, 10.369385 ], [ -6.932057, 10.365264 ], [ -6.950468, 10.366975 ], [ -6.978628, 10.336629 ], [ -6.993547, 10.313164 ], [ -6.996382, 10.304277 ], [ -6.99405, 10.287503 ], [ -6.972581, 10.252817 ], [ -6.968004, 10.240077 ], [ -6.965693, 10.220814 ], [ -6.968544, 10.205244 ], [ -6.979839, 10.192582 ], [ -7.007581, 10.175897 ], [ -7.03138, 10.161582 ], [ -7.041274, 10.160532 ], [ -7.050901, 10.16605 ], [ -7.064025, 10.181338 ], [ -7.080154, 10.213552 ], [ -7.089181, 10.223611 ], [ -7.118079, 10.230481 ], [ -7.137413, 10.240838 ], [ -7.159287, 10.242476 ], [ -7.175939, 10.255872 ], [ -7.215271, 10.257444 ], [ -7.248564, 10.268701 ], [ -7.281407, 10.265485 ], [ -7.297592, 10.287124 ], [ -7.317388, 10.281244 ], [ -7.334476, 10.270011 ], [ -7.358063, 10.275893 ], [ -7.379028, 10.276243 ], [ -7.38264, 10.284628 ], [ -7.370829, 10.307664 ], [ -7.364579, 10.333422 ], [ -7.365792, 10.360859 ], [ -7.374685, 10.368193 ], [ -7.403526, 10.37789 ], [ -7.427695, 10.392894 ], [ -7.437588, 10.41095 ], [ -7.448741, 10.460941 ], [ -7.4553, 10.467127 ], [ -7.457992, 10.469665 ], [ -7.487359, 10.477533 ], [ -7.50997, 10.478393 ], [ -7.528898, 10.469904 ], [ -7.531449, 10.467127 ], [ -7.551682, 10.445105 ], [ -7.563049, 10.442383 ], [ -7.585491, 10.452756 ], [ -7.607209, 10.449413 ], [ -7.616458, 10.450706 ], [ -7.620165, 10.455575 ], [ -7.62227, 10.467127 ], [ -7.623815, 10.475609 ], [ -7.630523, 10.482152 ], [ -7.641795, 10.486963 ], [ -7.648149, 10.483582 ], [ -7.656774, 10.467127 ], [ -7.662653, 10.45591 ], [ -7.676352, 10.442003 ], [ -7.688575, 10.435925 ], [ -7.725018, 10.42657 ], [ -7.735774, 10.416622 ], [ -7.742567, 10.397545 ], [ -7.729735, 10.388577 ], [ -7.730313, 10.380745 ], [ -7.737374, 10.374323 ], [ -7.729923, 10.365516 ], [ -7.729188, 10.351823 ], [ -7.734967, 10.346469 ], [ -7.75027, 10.344437 ], [ -7.756647, 10.340601 ], [ -7.759188, 10.323958 ], [ -7.771121, 10.320256 ], [ -7.774576, 10.314114 ], [ -7.772178, 10.309514 ], [ -7.760409, 10.30669 ], [ -7.75898, 10.301572 ], [ -7.766833, 10.29213 ], [ -7.794601, 10.273916 ], [ -7.814686, 10.238372 ], [ -7.837685, 10.22474 ], [ -7.856219, 10.205721 ], [ -7.893326, 10.197143 ], [ -7.911755, 10.180483 ], [ -7.927575, 10.171024 ], [ -7.939416, 10.169239 ], [ -7.946363, 10.168191 ], [ -7.965448, 10.174795 ], [ -7.97855, 10.17511 ], [ -7.97701, 10.180566 ], [ -7.953402, 10.208369 ], [ -7.947574, 10.241642 ], [ -7.961387, 10.295687 ], [ -7.971607, 10.316753 ], [ -7.993956, 10.33714 ], [ -8.005839, 10.342556 ], [ -8.050505, 10.351003 ], [ -8.068541, 10.352483 ], [ -8.079724, 10.3534 ], [ -8.09115, 10.358199 ], [ -8.111486, 10.387067 ], [ -8.118341, 10.417899 ], [ -8.122175, 10.422458 ], [ -8.140644, 10.420902 ], [ -8.163268, 10.401901 ], [ -8.17289, 10.399264 ], [ -8.200269, 10.400986 ], [ -8.224345, 10.409778 ], [ -8.231754, 10.41718 ], [ -8.239375, 10.436979 ], [ -8.243976, 10.463449 ], [ -8.248414, 10.467127 ], [ -8.262163, 10.478522 ], [ -8.262892, 10.500971 ], [ -8.273538, 10.513246 ], [ -8.27698, 10.523745 ], [ -8.272702, 10.560371 ], [ -8.273648, 10.577929 ], [ -8.277917, 10.586764 ], [ -8.288565, 10.593046 ], [ -8.290607, 10.615063 ], [ -8.301254, 10.637029 ], [ -8.29661, 10.687254 ], [ -8.30654, 10.715808 ], [ -8.296289, 10.75166 ], [ -8.299154, 10.75515 ], [ -8.323024, 10.756553 ], [ -8.328729, 10.764946 ], [ -8.326481, 10.776682 ], [ -8.323024, 10.782829 ], [ -8.307854, 10.807778 ], [ -8.305078, 10.823113 ], [ -8.299759, 10.829242 ], [ -8.283067, 10.835887 ], [ -8.275902, 10.853573 ], [ -8.281586, 10.897273 ], [ -8.279406, 10.926378 ], [ -8.29077, 10.970163 ], [ -8.287192, 10.982281 ], [ -8.287425, 10.995114 ], [ -8.292625, 11.006218 ], [ -8.32094, 11.04528 ], [ -8.323024, 11.047018 ], [ -8.347794, 11.067666 ], [ -8.373053, 11.074727 ], [ -8.382277, 11.075156 ], [ -8.403907, 11.0627 ], [ -8.42889, 11.072321 ], [ -8.446783, 11.073406 ], [ -8.472066, 11.068716 ], [ -8.482612, 11.063977 ], [ -8.502999, 11.030996 ], [ -8.51343, 10.995441 ], [ -8.514786, 10.973006 ], [ -8.537114, 10.975569 ], [ -8.589657, 10.950899 ], [ -8.609668, 10.957314 ], [ -8.622723, 10.964947 ], [ -8.661632, 10.949496 ], [ -8.671542, 10.950574 ], [ -8.677959, 10.957116 ], [ -8.680371, 10.964876 ], [ -8.678046, 10.97864 ], [ -8.681974, 11.001187 ], [ -8.680754, 11.008548 ], [ -8.651405, 11.033033 ], [ -8.645079, 11.063006 ], [ -8.621919, 11.087119 ], [ -8.620926, 11.093828 ], [ -8.622398, 11.100195 ], [ -8.62514, 11.112053 ], [ -8.621283, 11.120967 ], [ -8.610485, 11.127643 ], [ -8.583395, 11.125355 ], [ -8.572863, 11.136663 ], [ -8.564898, 11.154825 ], [ -8.572989, 11.185172 ], [ -8.566646, 11.203763 ], [ -8.555065, 11.211416 ], [ -8.530762, 11.210394 ], [ -8.516997, 11.219036 ], [ -8.497147, 11.216549 ], [ -8.487364, 11.22158 ], [ -8.485069, 11.229399 ], [ -8.49145, 11.238285 ], [ -8.49895, 11.263117 ], [ -8.493319, 11.27709 ], [ -8.480393, 11.288076 ], [ -8.466343, 11.288546 ], [ -8.419855, 11.270371 ], [ -8.393235, 11.272535 ], [ -8.377993, 11.278726 ], [ -8.371374, 11.29098 ], [ -8.364996, 11.315431 ], [ -8.366026, 11.321357 ], [ -8.371251, 11.324326 ], [ -8.402756, 11.322303 ], [ -8.417827, 11.327743 ], [ -8.421522, 11.334398 ], [ -8.41624, 11.352314 ], [ -8.410584, 11.359666 ], [ -8.377142, 11.368419 ], [ -8.382554, 11.37549 ], [ -8.39658, 11.381829 ], [ -8.418938, 11.378509 ], [ -8.436323, 11.383484 ], [ -8.454982, 11.381516 ], [ -8.500015, 11.398165 ], [ -8.509526, 11.419071 ], [ -8.527275, 11.433157 ], [ -8.527008, 11.43834 ], [ -8.518695, 11.44448 ], [ -8.524968, 11.458776 ], [ -8.526189, 11.469635 ], [ -8.533412, 11.4768 ], [ -8.564844, 11.459027 ], [ -8.571596, 11.446885 ], [ -8.576297, 11.443764 ], [ -8.582418, 11.444359 ], [ -8.596769, 11.45634 ], [ -8.614548, 11.454898 ], [ -8.653227, 11.498257 ], [ -8.66534, 11.523929 ], [ -8.672631, 11.563035 ], [ -8.68483, 11.57037 ], [ -8.688331, 11.575588 ], [ -8.690247, 11.588204 ], [ -8.682566, 11.623036 ], [ -8.685256, 11.630583 ], [ -8.690252, 11.63452 ], [ -8.701259, 11.635904 ], [ -8.719321, 11.629995 ], [ -8.73344, 11.629748 ], [ -8.751777, 11.614572 ], [ -8.759874, 11.607871 ], [ -8.77282, 11.617156 ], [ -8.786106, 11.62159 ], [ -8.792332, 11.621324 ], [ -8.799446, 11.615295 ], [ -8.821601, 11.625873 ], [ -8.853447, 11.629198 ], [ -8.822251, 11.769436 ], [ -8.795321, 11.921899 ], [ -8.802295, 11.945748 ], [ -8.813541, 11.961509 ], [ -8.815679, 11.969906 ], [ -8.806154, 12.005457 ], [ -8.829706, 12.029946 ], [ -8.834045, 12.039075 ], [ -8.843622, 12.036625 ], [ -8.856283, 12.041232 ], [ -8.872961, 12.023853 ], [ -8.885958, 12.035517 ], [ -8.895802, 12.039565 ], [ -8.905442, 12.038705 ], [ -8.91254, 12.042511 ], [ -8.918297, 12.060458 ], [ -8.91529, 12.089532 ], [ -8.903426, 12.102389 ], [ -8.901063, 12.12913 ], [ -8.8963, 12.14655 ], [ -8.904482, 12.159845 ], [ -8.904583, 12.168659 ], [ -8.914666, 12.183745 ], [ -8.923223, 12.187225 ], [ -8.926609, 12.197474 ], [ -8.936793, 12.196905 ], [ -8.943032, 12.186453 ], [ -8.953247, 12.188163 ], [ -8.973693, 12.185002 ], [ -8.977795, 12.19302 ], [ -8.979357, 12.21144 ], [ -8.992667, 12.224741 ], [ -8.993412, 12.251571 ], [ -8.987169, 12.278943 ], [ -8.980734, 12.289398 ], [ -8.966349, 12.302511 ], [ -8.95867, 12.318852 ], [ -8.960422, 12.331441 ], [ -8.968845, 12.347533 ], [ -9.009054, 12.385073 ], [ -9.024785, 12.411926 ], [ -9.035321, 12.4229 ], [ -9.086814, 12.440075 ], [ -9.157151, 12.484413 ], [ -9.202422, 12.48717 ], [ -9.224061, 12.495538 ], [ -9.237088, 12.496414 ], [ -9.253292, 12.501787 ], [ -9.272476, 12.495779 ], [ -9.281178, 12.484934 ], [ -9.286982, 12.482706 ], [ -9.317034, 12.49944 ], [ -9.325424, 12.483667 ], [ -9.331957, 12.478584 ], [ -9.337476, 12.480584 ], [ -9.341747, 12.492497 ], [ -9.360202, 12.494388 ], [ -9.369086, 12.475242 ], [ -9.386658, 12.47075 ], [ -9.401428, 12.463114 ], [ -9.404124, 12.458955 ], [ -9.405304, 12.453395 ], [ -9.402449, 12.445619 ], [ -9.386656, 12.447975 ], [ -9.370921, 12.419605 ], [ -9.357547, 12.418121 ], [ -9.356506, 12.406278 ], [ -9.341082, 12.398324 ], [ -9.331282, 12.374894 ], [ -9.323868, 12.370177 ], [ -9.309437, 12.367178 ], [ -9.298307, 12.357338 ], [ -9.306281, 12.34676 ], [ -9.304751, 12.333796 ], [ -9.307992, 12.325128 ], [ -9.312242, 12.320489 ], [ -9.31973, 12.318744 ], [ -9.322392, 12.314515 ], [ -9.321061, 12.272789 ], [ -9.329695, 12.264295 ], [ -9.341611, 12.260728 ], [ -9.34261, 12.24442 ], [ -9.368474, 12.246033 ], [ -9.391046, 12.25346 ], [ -9.403388, 12.250861 ], [ -9.416052, 12.259284 ], [ -9.442775, 12.251167 ], [ -9.479387, 12.245243 ], [ -9.490107, 12.239251 ], [ -9.505137, 12.217557 ], [ -9.524158, 12.20505 ], [ -9.54168, 12.193529 ], [ -9.554284, 12.190068 ], [ -9.57214, 12.189976 ], [ -9.629324, 12.172865 ], [ -9.663523, 12.141029 ], [ -9.677543, 12.122851 ], [ -9.680279, 12.102126 ], [ -9.676919, 12.076185 ], [ -9.681302, 12.066109 ], [ -9.69564, 12.056057 ], [ -9.698392, 12.042511 ], [ -9.701301, 12.024255 ], [ -9.770914, 12.032542 ], [ -9.790166, 12.040518 ], [ -9.792894, 12.042511 ], [ -9.812868, 12.057103 ], [ -9.826665, 12.05327 ], [ -9.862119, 12.058517 ], [ -9.881696, 12.056928 ], [ -9.892219, 12.066751 ], [ -9.907088, 12.080629 ], [ -9.91732, 12.09951 ], [ -9.939256, 12.097215 ], [ -9.954885, 12.105704 ], [ -9.970727, 12.099313 ], [ -10.00084, 12.127497 ], [ -10.025632, 12.129544 ], [ -10.03985, 12.14145 ], [ -10.052617, 12.141437 ], [ -10.058817, 12.148753 ], [ -10.063646, 12.139848 ], [ -10.066679, 12.139631 ], [ -10.076972, 12.148771 ], [ -10.082307, 12.172522 ], [ -10.090003, 12.179069 ], [ -10.11139, 12.175897 ], [ -10.130958, 12.177749 ], [ -10.148984, 12.173183 ], [ -10.167386, 12.183861 ], [ -10.184092, 12.187763 ], [ -10.194404, 12.20021 ], [ -10.223448, 12.202596 ], [ -10.242937, 12.199732 ], [ -10.246772, 12.20441 ], [ -10.247091, 12.213261 ], [ -10.250691, 12.215139 ], [ -10.266902, 12.207885 ], [ -10.276691, 12.212437 ], [ -10.284108, 12.211715 ], [ -10.288306, 12.206035 ], [ -10.286763, 12.194021 ], [ -10.294181, 12.191313 ], [ -10.299388, 12.19433 ], [ -10.304718, 12.210975 ], [ -10.310361, 12.219024 ], [ -10.327911, 12.219821 ], [ -10.337596, 12.224814 ], [ -10.340556, 12.218022 ], [ -10.332163, 12.200233 ], [ -10.335026, 12.188473 ], [ -10.351423, 12.192701 ], [ -10.358272, 12.191624 ], [ -10.361576, 12.174611 ], [ -10.371964, 12.168242 ], [ -10.396423, 12.17602 ], [ -10.408906, 12.173352 ], [ -10.41409, 12.166058 ], [ -10.414008, 12.142068 ], [ -10.427727, 12.135819 ], [ -10.437, 12.131595 ], [ -10.454274, 12.117628 ], [ -10.494725, 12.122482 ], [ -10.511461, 12.117392 ], [ -10.517965, 12.10642 ], [ -10.505763, 12.083854 ], [ -10.521798, 12.074706 ], [ -10.523242, 12.068 ], [ -10.520457, 12.051364 ], [ -10.523145, 12.042511 ], [ -10.535394, 12.031538 ], [ -10.570825, 12.026212 ], [ -10.576407, 12.023194 ], [ -10.578081, 12.01324 ], [ -10.565012, 12.000872 ], [ -10.564825, 11.996778 ], [ -10.578157, 11.986667 ], [ -10.588339, 11.984178 ], [ -10.59863, 11.976381 ], [ -10.611416, 11.975285 ], [ -10.617284, 11.971647 ], [ -10.630498, 11.940435 ], [ -10.639433, 11.928082 ], [ -10.643752, 11.911198 ], [ -10.669272, 11.896102 ], [ -10.689476, 11.894729 ], [ -10.715974, 11.913679 ], [ -10.735035, 11.921562 ], [ -10.749232, 11.943144 ], [ -10.746844, 11.964337 ], [ -10.755926, 11.990921 ], [ -10.77932, 12.014096 ], [ -10.792427, 12.033633 ], [ -10.791566, 12.042511 ], [ -10.785055, 12.069189 ], [ -10.789687, 12.107295 ], [ -10.798022, 12.113486 ], [ -10.826932, 12.120861 ], [ -10.846585, 12.133098 ], [ -10.875751, 12.160742 ], [ -10.890857, 12.200956 ], [ -10.900847, 12.201105 ], [ -10.909132, 12.212483 ], [ -10.931538, 12.222098 ], [ -10.942304, 12.218236 ], [ -10.966165, 12.220688 ], [ -10.987264, 12.208869 ], [ -11.011612, 12.206465 ], [ -11.032401, 12.21161 ], [ -11.040595, 12.218062 ], [ -11.045522, 12.218568 ], [ -11.072915, 12.136802 ], [ -11.103566, 12.118099 ], [ -11.104919, 12.101461 ], [ -11.107872, 12.096893 ], [ -11.133194, 12.094729 ], [ -11.140696, 12.090469 ], [ -11.143448, 12.078293 ], [ -11.139199, 12.059629 ], [ -11.143381, 12.050777 ], [ -11.1536, 12.042511 ], [ -11.183816, 12.01807 ], [ -11.193396, 12.015132 ], [ -11.214642, 12.016328 ], [ -11.224519, 12.010997 ], [ -11.240181, 11.995778 ], [ -11.252117, 11.992826 ], [ -11.263562, 11.995838 ], [ -11.31002, 12.020161 ], [ -11.338814, 12.042511 ], [ -11.358699, 12.057946 ], [ -11.361287, 12.062943 ], [ -11.361788, 12.080901 ], [ -11.376, 12.103101 ], [ -11.38603, 12.107963 ], [ -11.414247, 12.113033 ], [ -11.463578, 12.134091 ], [ -11.494686, 12.181564 ], [ -11.495565, 12.211602 ], [ -11.480479, 12.234025 ], [ -11.464134, 12.242159 ], [ -11.455617, 12.251094 ], [ -11.450197, 12.268682 ], [ -11.439932, 12.277194 ], [ -11.43538, 12.286625 ], [ -11.434341, 12.296405 ], [ -11.43958, 12.331972 ], [ -11.448622, 12.350616 ], [ -11.44124, 12.361262 ], [ -11.438646, 12.378394 ], [ -11.416912, 12.393643 ], [ -11.410487, 12.378997 ], [ -11.401056, 12.382586 ], [ -11.379869, 12.384838 ], [ -11.374858, 12.391876 ], [ -11.37946, 12.41356 ], [ -11.368635, 12.421721 ], [ -11.365597, 12.429716 ], [ -11.372456, 12.44413 ], [ -11.373336, 12.452999 ], [ -11.351915, 12.467258 ], [ -11.352437, 12.472493 ], [ -11.352626, 12.474395 ], [ -11.358278, 12.482061 ], [ -11.355858, 12.497803 ], [ -11.359532, 12.506053 ], [ -11.366162, 12.506997 ], [ -11.37158, 12.497023 ], [ -11.371175, 12.486577 ], [ -11.375972, 12.485103 ], [ -11.381552, 12.493452 ], [ -11.379885, 12.518216 ], [ -11.391228, 12.525518 ], [ -11.389018, 12.537405 ], [ -11.407333, 12.539412 ], [ -11.41012, 12.524479 ], [ -11.41344, 12.52304 ], [ -11.425375, 12.52872 ], [ -11.429908, 12.546492 ], [ -11.434684, 12.54771 ], [ -11.441771, 12.544587 ], [ -11.445663, 12.546957 ], [ -11.440001, 12.565569 ], [ -11.418281, 12.567073 ], [ -11.411721, 12.573657 ], [ -11.404578, 12.588141 ], [ -11.422581, 12.60946 ], [ -11.421032, 12.615771 ], [ -11.411699, 12.621633 ], [ -11.40782, 12.628573 ], [ -11.414743, 12.651262 ], [ -11.423148, 12.661486 ], [ -11.442452, 12.662859 ], [ -11.447243, 12.672189 ], [ -11.438334, 12.684475 ], [ -11.436458, 12.70143 ], [ -11.433545, 12.702417 ], [ -11.428246, 12.697472 ], [ -11.42477, 12.700055 ], [ -11.422561, 12.727159 ], [ -11.380792, 12.728326 ], [ -11.372169, 12.730369 ], [ -11.36797, 12.734739 ], [ -11.369548, 12.738012 ], [ -11.381803, 12.742973 ], [ -11.379931, 12.75663 ], [ -11.39625, 12.77372 ], [ -11.382976, 12.783667 ], [ -11.381972, 12.80219 ], [ -11.387683, 12.813107 ], [ -11.38416, 12.827205 ], [ -11.400688, 12.827086 ], [ -11.402589, 12.838569 ], [ -11.40844, 12.847197 ], [ -11.395755, 12.859739 ], [ -11.40365, 12.879488 ], [ -11.399732, 12.891034 ], [ -11.388034, 12.905255 ], [ -11.400036, 12.914771 ], [ -11.398257, 12.927487 ], [ -11.393215, 12.93073 ], [ -11.385675, 12.926554 ], [ -11.357717, 12.932595 ], [ -11.350706, 12.935547 ], [ -11.348057, 12.939814 ], [ -11.347432, 12.944629 ], [ -11.354928, 12.959712 ], [ -11.357244, 12.979899 ], [ -11.366442, 12.99018 ], [ -11.380276, 12.991716 ], [ -11.380712, 12.976174 ], [ -11.385585, 12.967267 ], [ -11.391541, 12.966481 ], [ -11.402041, 12.972534 ], [ -11.409819, 12.971247 ], [ -11.407631, 12.982287 ], [ -11.414584, 12.992851 ], [ -11.41491, 12.998349 ], [ -11.410499, 13.002381 ], [ -11.399026, 13.004546 ], [ -11.397098, 13.008582 ], [ -11.400619, 13.014852 ], [ -11.413216, 13.020149 ], [ -11.412155, 13.03529 ], [ -11.421097, 13.041428 ], [ -11.434623, 13.05755 ], [ -11.434295, 13.063607 ], [ -11.426694, 13.075256 ], [ -11.427149, 13.082975 ], [ -11.44446, 13.09682 ], [ -11.47595, 13.099728 ], [ -11.482359, 13.11244 ], [ -11.495357, 13.122179 ], [ -11.501704, 13.142481 ], [ -11.515934, 13.149905 ], [ -11.517507, 13.158535 ], [ -11.501584, 13.177121 ], [ -11.50029, 13.191182 ], [ -11.509298, 13.196747 ], [ -11.534707, 13.199108 ], [ -11.539829, 13.203672 ], [ -11.542083, 13.211966 ], [ -11.539836, 13.23096 ], [ -11.523652, 13.256951 ], [ -11.538203, 13.269848 ], [ -11.544605, 13.287173 ], [ -11.564595, 13.291834 ], [ -11.576303, 13.304764 ], [ -11.587577, 13.31043 ], [ -11.58759, 13.323772 ], [ -11.594864, 13.340232 ], [ -11.594214, 13.357545 ], [ -11.597679, 13.36448 ], [ -11.615253, 13.360605 ], [ -11.635523, 13.364856 ], [ -11.634817, 13.369879 ], [ -11.625672, 13.382577 ], [ -11.627087, 13.392838 ], [ -11.643043, 13.394939 ], [ -11.669072, 13.38857 ], [ -11.689304, 13.390014 ], [ -11.693607, 13.393157 ], [ -11.695678, 13.405484 ], [ -11.702221, 13.411925 ], [ -11.726315, 13.415687 ], [ -11.735598, 13.414096 ], [ -11.743843, 13.40793 ], [ -11.743211, 13.388091 ], [ -11.76156, 13.359541 ], [ -11.766318, 13.341345 ], [ -11.789997, 13.333735 ], [ -11.799076, 13.311002 ], [ -11.830738, 13.309652 ], [ -11.8327, 13.31361 ], [ -11.828672, 13.324232 ], [ -11.830179, 13.330086 ], [ -11.838494, 13.333926 ], [ -11.846544, 13.350587 ], [ -11.850332, 13.353504 ], [ -11.863793, 13.363869 ], [ -11.873581, 13.379653 ], [ -11.883425, 13.382508 ], [ -11.88738, 13.387044 ], [ -11.877347, 13.421698 ], [ -11.864632, 13.437223 ], [ -11.864289, 13.449338 ], [ -11.867448, 13.460431 ], [ -11.873788, 13.467941 ], [ -11.891593, 13.476652 ], [ -11.901687, 13.491819 ], [ -11.920078, 13.501028 ], [ -11.9292, 13.514962 ], [ -11.94888, 13.519859 ], [ -11.969399, 13.534973 ], [ -11.977017, 13.553893 ], [ -11.986223, 13.562968 ], [ -11.997459, 13.567975 ], [ -11.998979, 13.587671 ], [ -12.036042, 13.622476 ], [ -12.039873, 13.664919 ], [ -12.057854, 13.696429 ], [ -12.06797, 13.706946 ], [ -12.072134, 13.719622 ], [ -12.060147, 13.729599 ], [ -12.049757, 13.733546 ], [ -12.032314, 13.740173 ], [ -12.018442, 13.751036 ], [ -12.009031, 13.753559 ], [ -12.003486, 13.764185 ], [ -11.985436, 13.777054 ], [ -11.974737, 13.794239 ], [ -11.966349, 13.797292 ], [ -11.961257, 13.805039 ], [ -11.94833, 13.807808 ], [ -11.950077, 13.820428 ], [ -11.947318, 13.851681 ], [ -11.941848, 13.866213 ], [ -11.933763, 13.921208 ], [ -11.979258, 13.958072 ], [ -11.988791, 13.972749 ], [ -12.014054, 14.001009 ], [ -12.015881, 14.027616 ], [ -12.012697, 14.047683 ], [ -11.989634, 14.099111 ], [ -11.990766, 14.122248 ], [ -11.987427, 14.166737 ], [ -11.99391, 14.190202 ], [ -12.00394, 14.209245 ], [ -12.026263, 14.285646 ], [ -12.040512, 14.300743 ], [ -12.063756, 14.299881 ], [ -12.092818, 14.30656 ], [ -12.100857, 14.326207 ], [ -12.097486, 14.335278 ], [ -12.10133, 14.345713 ], [ -12.099895, 14.355235 ], [ -12.11241, 14.365547 ], [ -12.127207, 14.385699 ], [ -12.145487, 14.385785 ], [ -12.155781, 14.393098 ], [ -12.191725, 14.402819 ], [ -12.200712, 14.408411 ], [ -12.201262, 14.422028 ], [ -12.189566, 14.439941 ], [ -12.205803, 14.457512 ], [ -12.200279, 14.479497 ], [ -12.215868, 14.487176 ], [ -12.221099, 14.492963 ], [ -12.22042, 14.508481 ], [ -12.213725, 14.526336 ], [ -12.21599, 14.548569 ], [ -12.207288, 14.55639 ], [ -12.192039, 14.554846 ], [ -12.186355, 14.556823 ], [ -12.184134, 14.570572 ], [ -12.171885, 14.587439 ], [ -12.171566, 14.613198 ], [ -12.151448, 14.620741 ], [ -12.145371, 14.63449 ], [ -12.14481, 14.645974 ], [ -12.150975, 14.656435 ], [ -12.172207, 14.661912 ], [ -12.176843, 14.665824 ], [ -12.175562, 14.671769 ], [ -12.160404, 14.680092 ], [ -12.161497, 14.687921 ], [ -12.172431, 14.687743 ], [ -12.184281, 14.69573 ], [ -12.202675, 14.696287 ], [ -12.212627, 14.703223 ], [ -12.213396, 14.70786 ], [ -12.208797, 14.718884 ], [ -12.211308, 14.728869 ], [ -12.217839, 14.735131 ], [ -12.233077, 14.737721 ], [ -12.239165, 14.759373 ], [ -12.236037, 14.758042 ], [ -12.221049, 14.756953 ], [ -12.205632, 14.758572 ], [ -12.180311, 14.758041 ], [ -12.153033, 14.77229 ], [ -12.145687, 14.773927 ], [ -12.136178, 14.772835 ], [ -12.12814, 14.768882 ], [ -12.111698, 14.745259 ], [ -12.062276, 14.717313 ], [ -12.056979, 14.715628 ], [ -12.054362, 14.71805 ], [ -12.049712, 14.723339 ], [ -12.044622, 14.739392 ], [ -12.049713, 14.751702 ], [ -12.047111, 14.758167 ], [ -12.039798, 14.759576 ], [ -12.022878, 14.758722 ], [ -12.012592, 14.761462 ], [ -11.979827, 14.761664 ], [ -11.957411, 14.774834 ], [ -11.946222, 14.78664 ], [ -11.936507, 14.813437 ], [ -11.906488, 14.821964 ], [ -11.870955, 14.843424 ], [ -11.855431, 14.859883 ], [ -11.850332, 14.865288 ], [ -11.831537, 14.885212 ], [ -11.812601, 14.893279 ], [ -11.807161, 14.898967 ], [ -11.816602, 14.930925 ], [ -11.792699, 15.024945 ], [ -11.803457, 15.044109 ], [ -11.819734, 15.045985 ], [ -11.835522, 15.037333 ], [ -11.842089, 15.04067 ], [ -11.845945, 15.046962 ], [ -11.834878, 15.072872 ], [ -11.837286, 15.079748 ], [ -11.845656, 15.08746 ], [ -11.846298, 15.093375 ], [ -11.838146, 15.111931 ], [ -11.82039, 15.127256 ], [ -11.816639, 15.136118 ], [ -11.819949, 15.146866 ], [ -11.833824, 15.159067 ], [ -11.837589, 15.174473 ], [ -11.832382, 15.18847 ], [ -11.813736, 15.215235 ], [ -11.806869, 15.232473 ], [ -11.805437, 15.27599 ], [ -11.797455, 15.303785 ], [ -11.770548, 15.339384 ], [ -11.757025, 15.392059 ], [ -11.74652, 15.457885 ], [ -11.739471, 15.470359 ], [ -11.721226, 15.479684 ], [ -11.715494, 15.48679 ], [ -11.714618, 15.525314 ], [ -11.71206, 15.535765 ], [ -11.707495, 15.536515 ], [ -11.698601, 15.532428 ], [ -11.680066, 15.532417 ], [ -11.669017, 15.535278 ], [ -11.654204, 15.523167 ], [ -11.645117, 15.520982 ], [ -11.629148, 15.522469 ], [ -11.619031, 15.529946 ], [ -11.60072, 15.529414 ], [ -11.579945, 15.536261 ], [ -11.570337, 15.545778 ], [ -11.571777, 15.5583 ], [ -11.567834, 15.574943 ], [ -11.552677, 15.583154 ], [ -11.526778, 15.605396 ], [ -11.503853, 15.617926 ], [ -11.503218, 15.622355 ], [ -11.510019, 15.637119 ], [ -11.497455, 15.642794 ], [ -11.431065, 15.645234 ], [ -11.42098, 15.63978 ], [ -11.411216, 15.629685 ], [ -11.38748, 15.591713 ], [ -11.370539, 15.573174 ], [ -11.36814, 15.542449 ], [ -11.361964, 15.525853 ], [ -11.329624, 15.507396 ], [ -11.321334, 15.499952 ], [ -11.290082, 15.453565 ], [ -11.253639, 15.420222 ], [ -11.240053, 15.410816 ], [ -11.20071, 15.394381 ], [ -11.175732, 15.371996 ], [ -11.075301, 15.304291 ], [ -11.060502, 15.290839 ], [ -11.043001, 15.2675 ], [ -10.999474, 15.238715 ], [ -10.993004, 15.228497 ], [ -10.968301, 15.189484 ], [ -10.946638, 15.170039 ], [ -10.943946, 15.154216 ], [ -10.928497, 15.142702 ], [ -10.911979, 15.115714 ], [ -10.901631, 15.104402 ], [ -10.89513, 15.107314 ], [ -10.880029, 15.130976 ], [ -10.873098, 15.189481 ], [ -10.857854, 15.204788 ], [ -10.843012, 15.210203 ], [ -10.834213, 15.220099 ], [ -10.825251, 15.243909 ], [ -10.828063, 15.26967 ], [ -10.798565, 15.304257 ], [ -10.780354, 15.304085 ], [ -10.774729, 15.32063 ], [ -10.761159, 15.329966 ], [ -10.743211, 15.332618 ], [ -10.727164, 15.34952 ], [ -10.718293, 15.368793 ], [ -10.729192, 15.423184 ], [ -10.727684, 15.432125 ], [ -10.722753, 15.436637 ], [ -10.712245, 15.438042 ], [ -10.686812, 15.432631 ], [ -10.66241, 15.405082 ], [ -10.655022, 15.406632 ], [ -10.627483, 15.421674 ], [ -10.597074, 15.421711 ], [ -10.58829, 15.426302 ], [ -10.586389, 15.427296 ], [ -10.561502, 15.432631 ], [ -10.508776, 15.439739 ], [ -10.427727, 15.437485 ], [ -10.407199, 15.436914 ], [ -10.393716, 15.438939 ], [ -10.369958, 15.431901 ], [ -10.334283, 15.433148 ], [ -10.318977, 15.430579 ], [ -10.269167, 15.414026 ], [ -10.256849, 15.412806 ], [ -10.129715, 15.366701 ], [ -10.087528, 15.358229 ], [ -9.999561, 15.356689 ], [ -9.921459, 15.373323 ], [ -9.892219, 15.366584 ], [ -9.863496, 15.359964 ], [ -9.831801, 15.36102 ], [ -9.813625, 15.364566 ], [ -9.792928, 15.373278 ], [ -9.771444, 15.387953 ], [ -9.751282, 15.407677 ], [ -9.729995, 15.403652 ], [ -9.714163, 15.404031 ], [ -9.707282, 15.410131 ], [ -9.703645, 15.424294 ], [ -9.6964, 15.427399 ], [ -9.524158, 15.431623 ], [ -9.410788, 15.434404 ], [ -9.409111, 15.443147 ], [ -9.442155, 15.59687 ], [ -9.418871, 15.611981 ], [ -9.364835, 15.664325 ], [ -9.332082, 15.691264 ], [ -9.313886, 15.675518 ], [ -9.311475, 15.666885 ], [ -9.332508, 15.566959 ], [ -9.334088, 15.51626 ], [ -9.328987, 15.498557 ], [ -9.325337, 15.496301 ], [ -8.751777, 15.498235 ], [ -8.401149, 15.497382 ], [ -8.381538, 15.4954 ], [ -8.323024, 15.49691 ], [ -8.255822, 15.498644 ], [ -7.983942, 15.496356 ], [ -7.939416, 15.496798 ], [ -7.664159, 15.499533 ], [ -7.170089, 15.497961 ], [ -7.150611, 15.495244 ], [ -7.132332, 15.49779 ], [ -6.717313, 15.499179 ], [ -6.150201, 15.494296 ], [ -6.112001, 15.494517 ], [ -5.811842, 15.496248 ], [ -5.527568, 15.501731 ], [ -5.522643, 15.501826 ], [ -5.515252, 15.503466 ], [ -5.507746, 15.509103 ], [ -5.398085, 15.997517 ], [ -5.340328, 16.272296 ], [ -5.338019, 16.283275 ], [ -5.328864, 16.326901 ], [ -5.330059, 16.331054 ], [ -5.59478, 16.494711 ], [ -5.603595, 16.507711 ], [ -5.645317, 16.895134 ], [ -5.659283, 16.996803 ], [ -5.710482, 17.494865 ], [ -5.743325, 17.767028 ], [ -5.749052, 17.839236 ], [ -5.764107, 17.959772 ], [ -5.766521, 18.008696 ], [ -5.849528, 18.73077 ], [ -5.916689, 19.347971 ], [ -5.937736, 19.509978 ], [ -5.938634, 19.547199 ], [ -5.973487, 19.827784 ], [ -5.986927, 19.96561 ], [ -5.997132, 20.031885 ], [ -5.997034, 20.05154 ], [ -6.003061, 20.099571 ], [ -6.000946, 20.134888 ], [ -6.02619, 20.311444 ], [ -6.063991, 20.647883 ], [ -6.091968, 20.868658 ], [ -6.223779, 22.011273 ], [ -6.239461, 22.169311 ], [ -6.292739, 22.598885 ], [ -6.3388, 23.029029 ], [ -6.348421, 23.097328 ], [ -6.352601, 23.10605 ], [ -6.351953, 23.152786 ], [ -6.35556, 23.163713 ], [ -6.367413, 23.249993 ], [ -6.377019, 23.331477 ], [ -6.37648, 23.345685 ], [ -6.38279, 23.365658 ], [ -6.384081, 23.408324 ], [ -6.396351, 23.49827 ], [ -6.398685, 23.53499 ], [ -6.406995, 23.584766 ], [ -6.417717, 23.670896 ], [ -6.417555, 23.687304 ], [ -6.422431, 23.708754 ], [ -6.451514, 23.942698 ], [ -6.455101, 24.034002 ], [ -6.563703, 24.996028 ], [ -6.560894, 24.999214 ], [ -6.554507, 24.999849 ], [ -5.010004, 24.999996 ], [ -4.994947, 24.99596 ], [ -4.944075, 24.994619 ], [ -4.833333, 24.997588 ], [ -4.831737, 24.996565 ], [ -4.610997, 24.855126 ], [ -4.342444, 24.682833 ], [ -4.200732, 24.594158 ], [ -3.862317, 24.382142 ], [ -3.833333, 24.363967 ], [ -2.982218, 23.824384 ], [ -2.916667, 23.782732 ], [ -2.684721, 23.634542 ], [ -2.574765, 23.564232 ], [ -2.357043, 23.424902 ], [ -2.25, 23.356347 ], [ -1.743619, 23.030034 ], [ -1.666667, 22.980376 ], [ -1.0, 22.547464 ], [ -0.565177, 22.262936 ], [ -0.560114, 22.259619 ], [ -0.4043, 22.157518 ], [ 1.154425, 21.124901 ], [ 1.160107, 21.111184 ], [ 1.161442, 21.107961 ], [ 1.170696, 21.047443 ], [ 1.182828, 21.021982 ], [ 1.193034, 20.971513 ], [ 1.188487, 20.955257 ], [ 1.193185, 20.937901 ], [ 1.187999, 20.903015 ], [ 1.186398, 20.867254 ], [ 1.164641, 20.789428 ], [ 1.165102, 20.745225 ], [ 1.168531, 20.731245 ], [ 1.178898, 20.724255 ], [ 1.213514, 20.722122 ], [ 1.233161, 20.723324 ], [ 1.241647, 20.728784 ], [ 1.256426, 20.732934 ], [ 1.277909, 20.732658 ], [ 1.290709, 20.726297 ], [ 1.316499, 20.73045 ], [ 1.328725, 20.722778 ], [ 1.339397, 20.706618 ], [ 1.341293, 20.69822 ], [ 1.350984, 20.691774 ], [ 1.35522, 20.670051 ], [ 1.369942, 20.665726 ], [ 1.386378, 20.652174 ], [ 1.405621, 20.656308 ], [ 1.41904, 20.648578 ], [ 1.454293, 20.642725 ], [ 1.498209, 20.620042 ], [ 1.511935, 20.616992 ], [ 1.523804, 20.614355 ], [ 1.534185, 20.615254 ], [ 1.547284, 20.609017 ], [ 1.569578, 20.606134 ], [ 1.577487, 20.599224 ], [ 1.593265, 20.596855 ], [ 1.602238, 20.59255 ], [ 1.604907, 20.586715 ], [ 1.610618, 20.574228 ], [ 1.628868, 20.570229 ], [ 1.640604, 20.56024 ], [ 1.651414, 20.544365 ], [ 1.662357, 20.53814 ], [ 1.666733, 20.530279 ], [ 1.667194, 20.524979 ], [ 1.660541, 20.514181 ], [ 1.666203, 20.510475 ], [ 1.666629, 20.507189 ], [ 1.660556, 20.496296 ], [ 1.667908, 20.493201 ], [ 1.67654, 20.48333 ], [ 1.666697, 20.452194 ], [ 1.676423, 20.435333 ], [ 1.67379, 20.42579 ], [ 1.666971, 20.41732 ], [ 1.670429, 20.399664 ], [ 1.697083, 20.385856 ], [ 1.698738, 20.379679 ], [ 1.709258, 20.375027 ], [ 1.719509, 20.364251 ], [ 1.733054, 20.358716 ], [ 1.738067, 20.350576 ], [ 1.755042, 20.350357 ], [ 1.759313, 20.338949 ], [ 1.775659, 20.332089 ], [ 1.774303, 20.317401 ], [ 1.797442, 20.291658 ], [ 1.824278, 20.284766 ], [ 1.848012, 20.292294 ], [ 1.867906, 20.291076 ], [ 1.875209, 20.287406 ], [ 1.882643, 20.288628 ], [ 1.895941, 20.261448 ], [ 1.894458, 20.253293 ], [ 1.89915, 20.249579 ], [ 1.897376, 20.241114 ], [ 1.906922, 20.229702 ], [ 1.923325, 20.21907 ], [ 1.940205, 20.234896 ], [ 1.951744, 20.254787 ], [ 1.97067, 20.253741 ], [ 1.983267, 20.248949 ], [ 2.000205, 20.236726 ], [ 2.01522, 20.233884 ], [ 2.022056, 20.238059 ], [ 2.021101, 20.247527 ], [ 2.04297, 20.26344 ], [ 2.053264, 20.259012 ], [ 2.068696, 20.244675 ], [ 2.077928, 20.244021 ], [ 2.084531, 20.237788 ], [ 2.099328, 20.241012 ], [ 2.117445, 20.232776 ], [ 2.125539, 20.233187 ], [ 2.132077, 20.236334 ], [ 2.14115, 20.253263 ], [ 2.167235, 20.253157 ], [ 2.174172, 20.255691 ], [ 2.175898, 20.262914 ], [ 2.191102, 20.272114 ], [ 2.191586, 20.295922 ], [ 2.196144, 20.307318 ], [ 2.210787, 20.310902 ], [ 2.2316, 20.298101 ], [ 2.259668, 20.291403 ], [ 2.267896, 20.280066 ], [ 2.279143, 20.271909 ], [ 2.289698, 20.270816 ], [ 2.304305, 20.274594 ], [ 2.308207, 20.259346 ], [ 2.303604, 20.247997 ], [ 2.306748, 20.236319 ], [ 2.304868, 20.226787 ], [ 2.317222, 20.216783 ], [ 2.318903, 20.201852 ], [ 2.327399, 20.19272 ], [ 2.332694, 20.179753 ], [ 2.344532, 20.176836 ], [ 2.358498, 20.159083 ], [ 2.359456, 20.151418 ], [ 2.364397, 20.146118 ], [ 2.370901, 20.143802 ], [ 2.387692, 20.144297 ], [ 2.395979, 20.132373 ], [ 2.402538, 20.116684 ], [ 2.391481, 20.101443 ], [ 2.379323, 20.095426 ], [ 2.373802, 20.080436 ], [ 2.375836, 20.066671 ], [ 2.383394, 20.051898 ], [ 2.376253, 20.039307 ], [ 2.380581, 20.021717 ], [ 2.391293, 20.025908 ], [ 2.396059, 20.035898 ], [ 2.404213, 20.03038 ], [ 2.427912, 20.048587 ], [ 2.444655, 20.056914 ], [ 2.441006, 20.077387 ], [ 2.461059, 20.095056 ], [ 2.467017, 20.10843 ], [ 2.481707, 20.101345 ], [ 2.490207, 20.08628 ], [ 2.518584, 20.090082 ], [ 2.524505, 20.077434 ], [ 2.532072, 20.075688 ], [ 2.534705, 20.063109 ], [ 2.550796, 20.053517 ], [ 2.556487, 20.039032 ], [ 2.562045, 20.035555 ], [ 2.591811, 20.037031 ], [ 2.621857, 20.051182 ], [ 2.635432, 20.046332 ], [ 2.634409, 20.040595 ], [ 2.636814, 20.040005 ], [ 2.66221, 20.053332 ], [ 2.671169, 20.076971 ], [ 2.676785, 20.08201 ], [ 2.696861, 20.070889 ], [ 2.706548, 20.052299 ], [ 2.708944, 20.036748 ], [ 2.714503, 20.030837 ], [ 2.712903, 20.021456 ], [ 2.719318, 20.016821 ], [ 2.723764, 20.002759 ], [ 2.73138, 19.998516 ], [ 2.735875, 19.990693 ], [ 2.756592, 19.994322 ], [ 2.76836, 19.986187 ], [ 2.767701, 19.979658 ], [ 2.775016, 19.974287 ], [ 2.782694, 19.971712 ], [ 2.790839, 19.976585 ], [ 2.803568, 19.974318 ], [ 2.812861, 19.966345 ], [ 2.83053, 19.959687 ], [ 2.840228, 19.961119 ], [ 2.847228, 19.968741 ], [ 2.855984, 19.969313 ], [ 2.862187, 19.96187 ], [ 2.869351, 19.96137 ], [ 2.877088, 19.954093 ], [ 2.88361, 19.961807 ], [ 2.891375, 19.963728 ], [ 2.896911, 19.960425 ], [ 2.907134, 19.961049 ], [ 2.911645, 19.958236 ], [ 2.922281, 19.951602 ], [ 2.928839, 19.952679 ], [ 2.937453, 19.949886 ], [ 2.948231, 19.95254 ], [ 2.960275, 19.947713 ], [ 2.976621, 19.948447 ], [ 3.014251, 19.929286 ], [ 3.036475, 19.907218 ], [ 3.048628, 19.908305 ], [ 3.050442, 19.908467 ], [ 3.075949, 19.904465 ], [ 3.093877, 19.888411 ], [ 3.103736, 19.885903 ], [ 3.113182, 19.87678 ], [ 3.136465, 19.869965 ], [ 3.145219, 19.856221 ], [ 3.158238, 19.856536 ], [ 3.176312, 19.846889 ], [ 3.191519, 19.843912 ], [ 3.199357, 19.8393 ], [ 3.229106, 19.840077 ], [ 3.244355, 19.837451 ], [ 3.253422, 19.832294 ], [ 3.258908, 19.814418 ], [ 3.242696, 19.775768 ], [ 3.248132, 19.755743 ], [ 3.24792, 19.743436 ], [ 3.229446, 19.709438 ], [ 3.232151, 19.698048 ], [ 3.232114, 19.674657 ], [ 3.240355, 19.660401 ], [ 3.240863, 19.654398 ], [ 3.248861, 19.64795 ], [ 3.250484, 19.633055 ], [ 3.2342, 19.606179 ], [ 3.231545, 19.583849 ], [ 3.237583, 19.566335 ], [ 3.236352, 19.558202 ], [ 3.244951, 19.552298 ], [ 3.247074, 19.530632 ], [ 3.252756, 19.524337 ], [ 3.263278, 19.519011 ], [ 3.247332, 19.492375 ], [ 3.264651, 19.449619 ], [ 3.256723, 19.43872 ], [ 3.209512, 19.430037 ], [ 3.199437, 19.413716 ], [ 3.198547, 19.389876 ], [ 3.17716, 19.355776 ], [ 3.184528, 19.330957 ], [ 3.204131, 19.304145 ], [ 3.202562, 19.285819 ], [ 3.196904, 19.271033 ], [ 3.180585, 19.25899 ], [ 3.175793, 19.248216 ], [ 3.164921, 19.235544 ], [ 3.160938, 19.217435 ], [ 3.156473, 19.210163 ], [ 3.12409, 19.180964 ], [ 3.122748, 19.165464 ], [ 3.117367, 19.15713 ], [ 3.11652, 19.145414 ], [ 3.121354, 19.138488 ], [ 3.122057, 19.129195 ], [ 3.125431, 19.124124 ], [ 3.140852, 19.118401 ], [ 3.155067, 19.109103 ], [ 3.165622, 19.107407 ], [ 3.17947, 19.093551 ], [ 3.191222, 19.088375 ], [ 3.210644, 19.072606 ], [ 3.237491, 19.060643 ], [ 3.253888, 19.041487 ], [ 3.27818, 19.028427 ], [ 3.300196, 18.997268 ], [ 3.309704, 18.994539 ], [ 3.32939, 18.994267 ], [ 3.337817, 18.98719 ], [ 3.351129, 18.967783 ], [ 3.3604, 18.9639 ], [ 3.417186, 18.977773 ], [ 3.502684, 18.992125 ], [ 4.242952, 19.138902 ], [ 4.244868, 18.810287 ], [ 4.242115, 18.591952 ], [ 4.240907, 18.135965 ], [ 4.239291, 17.524249 ], [ 4.23895, 17.394552 ], [ 4.23894, 17.390893 ], [ 4.239376, 17.312473 ], [ 4.241166, 16.989928 ], [ 4.239248, 16.98626 ], [ 4.228843, 16.980695 ], [ 4.092407, 16.920349 ], [ 4.076946, 16.910764 ], [ 4.079672, 16.611592 ], [ 4.076102, 16.318826 ], [ 3.988335, 16.062116 ], [ 4.001405, 16.013926 ], [ 4.003941, 15.986106 ], [ 3.997372, 15.977416 ], [ 3.964335, 15.95673 ], [ 3.947704, 15.941834 ], [ 3.930643, 15.911689 ], [ 3.9255, 15.888097 ], [ 3.915194, 15.86429 ], [ 3.905121, 15.772222 ], [ 3.888841, 15.716766 ], [ 3.873601, 15.693636 ], [ 3.838664, 15.67017 ], [ 3.823819, 15.664102 ], [ 3.741187, 15.655482 ], [ 3.708321, 15.640588 ], [ 3.641151, 15.568858 ], [ 3.606164, 15.524985 ], [ 3.59288, 15.514273 ], [ 3.565298, 15.504907 ], [ 3.53645, 15.486429 ], [ 3.531739, 15.472723 ], [ 3.537137, 15.421199 ], [ 3.525987, 15.374581 ], [ 3.525579, 15.341694 ], [ 3.098956, 15.341658 ], [ 3.048628, 15.343901 ], [ 2.911645, 15.350006 ], [ 2.841787, 15.353119 ], [ 2.627375, 15.36699 ], [ 2.499034, 15.357832 ], [ 2.268136, 15.337529 ], [ 1.909561, 15.305995 ], [ 1.604907, 15.284701 ], [ 1.511935, 15.278203 ], [ 1.326013, 15.265206 ], [ 1.310654, 15.259088 ], [ 1.287959, 15.241169 ], [ 1.201102, 15.166109 ], [ 1.174626, 15.147229 ], [ 1.160107, 15.135109 ], [ 0.975354, 14.980813 ], [ 0.959754, 14.975493 ], [ 0.893566, 14.972783 ], [ 0.723176, 14.959415 ], [ 0.702172, 14.946194 ], [ 0.587141, 14.977718 ], [ 0.560241, 14.982882 ], [ 0.537798, 14.981551 ], [ 0.510961, 15.00093 ], [ 0.401803, 14.969863 ], [ 0.281968, 14.988207 ], [ 0.22935, 14.98967 ], [ 0.200676, 14.988636 ], [ 0.165107, 14.980994 ], [ 0.092394, 14.978071 ], [ 0.061264, 14.977952 ], [ -0.008359, 14.985263 ], [ -0.147406, 15.039125 ], [ -0.16882, 15.049698 ], [ -0.252567, 15.076573 ], [ -0.271154, 15.070695 ], [ -0.375647, 15.011981 ], [ -0.391606, 15.00807 ], [ -0.403899, 15.014083 ], [ -0.440534, 15.066086 ], [ -0.456949, 15.081007 ], [ -0.560114, 15.080479 ], [ -0.565177, 15.080453 ], [ -0.703502, 15.081367 ], [ -0.719539, 15.079988 ], [ -0.737788, 15.07136 ], [ -0.823488, 15.013301 ], [ -0.885084, 14.952074 ], [ -1.003845, 14.859883 ], [ -1.009274, 14.855668 ], [ -1.087345, 14.790776 ], [ -1.15326, 14.771804 ], [ -1.315422, 14.733099 ], [ -1.675503, 14.506866 ], [ -1.757927, 14.482542 ], [ -1.902542, 14.488032 ], [ -1.974211, 14.480537 ], [ -1.993445, 14.199463 ], [ -1.997996, 14.194016 ], [ -2.106266, 14.151005 ], [ -2.292018, 14.252018 ], [ -2.357043, 14.267599 ], [ -2.477832, 14.296537 ], [ -2.574765, 14.215781 ], [ -2.672142, 14.134625 ], [ -2.684721, 14.128893 ], [ -2.836991, 14.059489 ], [ -2.850696, 14.003873 ], [ -2.834366, 13.997925 ], [ -2.833454, 13.995287 ], [ -2.896093, 13.822738 ], [ -2.902707, 13.724718 ], [ -2.873653, 13.655096 ], [ -2.929585, 13.635483 ], [ -2.953017, 13.627266 ], [ -2.994832, 13.663153 ], [ -3.006876, 13.667097 ], [ -3.019845, 13.660531 ], [ -3.038915, 13.629194 ], [ -3.049239, 13.623924 ], [ -3.059664, 13.635729 ], [ -3.069559, 13.663639 ], [ -3.105154, 13.69446 ], [ -3.133048, 13.695572 ], [ -3.168229, 13.686195 ], [ -3.184905, 13.685576 ], [ -3.239594, 13.712496 ], [ -3.262721, 13.718347 ], [ -3.272835, 13.717943 ], [ -3.280066, 13.714566 ], [ -3.284153, 13.706964 ], [ -3.283418, 13.700907 ], [ -3.261333, 13.677461 ], [ -3.255996, 13.663173 ], [ -3.26052, 13.577155 ], [ -3.278228, 13.546767 ], [ -3.281629, 13.53393 ], [ -3.269818, 13.476916 ], [ -3.263489, 13.428381 ], [ -3.259027, 13.358384 ], [ -3.249748, 13.345972 ], [ -3.244619, 13.338251 ], [ -3.238045, 13.306194 ], [ -3.244108, 13.290591 ], [ -3.254265, 13.284868 ], [ -3.403, 13.271559 ], [ -3.430719, 13.263513 ], [ -3.434423, 13.251984 ], [ -3.42516, 13.230053 ], [ -3.420678, 13.20657 ], [ -3.422328, 13.178288 ], [ -3.433722, 13.16309 ], [ -3.452483, 13.157983 ], [ -3.478339, 13.160126 ], [ -3.531378, 13.171938 ], [ -3.601675, 13.203428 ], [ -3.626159, 13.221147 ], [ -3.671121, 13.262141 ], [ -3.686771, 13.270682 ], [ -3.723601, 13.284263 ], [ -3.777838, 13.345972 ], [ -3.79753, 13.358384 ], [ -3.814249, 13.362762 ], [ -3.852451, 13.362591 ], [ -3.90492, 13.376961 ], [ -3.911747, 13.37883 ], [ -3.946848, 13.377179 ], [ -3.967526, 13.387291 ], [ -3.973991, 13.39712 ], [ -3.974407, 13.406887 ], [ -3.969992, 13.413551 ], [ -3.958124, 13.421222 ], [ -3.920629, 13.431644 ], [ -3.915782, 13.440566 ], [ -3.920231, 13.448608 ], [ -3.946086, 13.459598 ], [ -3.956944, 13.494575 ], [ -3.962273, 13.49894 ], [ -3.9709, 13.500787 ], [ -3.985426, 13.493414 ], [ -3.984661, 13.460828 ], [ -3.999007, 13.439553 ], [ -4.006845, 13.433504 ], [ -4.038598, 13.425459 ], [ -4.052353, 13.418436 ], [ -4.068542, 13.404081 ], [ -4.093352, 13.394334 ], [ -4.104053, 13.382815 ], [ -4.111098, 13.358384 ], [ -4.115736, 13.345972 ], [ -4.123528, 13.325115 ], [ -4.154415, 13.291892 ], [ -4.178066, 13.27715 ], [ -4.200732, 13.26757 ], [ -4.221298, 13.258877 ], [ -4.258224, 13.229324 ], [ -4.259522, 13.217961 ], [ -4.24296, 13.194489 ], [ -4.242241, 13.188949 ], [ -4.246085, 13.183337 ], [ -4.254476, 13.179467 ], [ -4.277634, 13.181099 ], [ -4.29048, 13.179276 ], [ -4.345775, 13.145917 ], [ -4.355043, 13.134051 ], [ -4.356606, 13.123784 ], [ -4.354211, 13.118055 ], [ -4.331837, 13.098872 ], [ -4.312873, 13.077112 ], [ -4.300229, 13.058019 ], [ -4.281061, 13.009033 ], [ -4.238265, 12.961165 ], [ -4.232233, 12.949849 ], [ -4.230445, 12.936036 ], [ -4.238237, 12.856787 ], [ -4.227535, 12.803003 ], [ -4.228984, 12.77508 ], [ -4.238152, 12.7431 ], [ -4.248134, 12.726585 ], [ -4.276331, 12.708045 ], [ -4.29521, 12.69934 ], [ -4.311839, 12.697985 ], [ -4.331828, 12.703853 ], [ -4.355728, 12.725614 ], [ -4.371215, 12.731295 ], [ -4.449152, 12.721156 ], [ -4.476818, 12.721967 ], [ -4.488355, 12.711978 ], [ -4.487839, 12.684302 ], [ -4.490994, 12.665357 ], [ -4.486132, 12.64922 ], [ -4.476929, 12.633691 ], [ -4.443972, 12.615608 ], [ -4.427546, 12.601238 ], [ -4.419897, 12.590118 ], [ -4.407185, 12.555409 ], [ -4.394176, 12.533467 ], [ -4.401025, 12.517158 ], [ -4.42905, 12.483862 ], [ -4.452545, 12.416697 ], [ -4.450457, 12.37593 ], [ -4.437376, 12.340875 ], [ -4.424185, 12.322262 ], [ -4.421665, 12.314155 ], [ -4.423827, 12.309863 ], [ -4.427889, 12.309691 ], [ -4.448162, 12.320776 ], [ -4.468347, 12.326095 ], [ -4.477165, 12.326391 ], [ -4.484114, 12.32234 ], [ -4.488466, 12.293874 ], [ -4.504293, 12.266495 ], [ -4.514636, 12.254399 ], [ -4.58426, 12.198344 ], [ -4.58998, 12.191008 ], [ -4.59058, 12.181928 ], [ -4.586113, 12.170559 ], [ -4.562026, 12.151613 ], [ -4.568987, 12.135474 ], [ -4.609369, 12.123704 ], [ -4.625305, 12.113534 ], [ -4.636759, 12.096568 ], [ -4.642887, 12.07106 ], [ -4.657916, 12.054686 ], [ -4.668937, 12.053573 ], [ -4.686935, 12.056946 ], [ -4.694334, 12.055901 ], [ -4.697531, 12.055449 ], [ -4.707209, 12.049784 ], [ -4.71325, 12.042511 ], [ -4.717343, 12.036206 ], [ -4.72454, 12.00846 ], [ -4.733679, 11.998267 ], [ -4.751145, 12.000812 ], [ -4.76764, 12.00734 ], [ -4.825518, 12.008263 ], [ -4.840234, 12.016202 ], [ -4.859101, 12.012947 ], [ -4.882577, 12.001662 ], [ -4.90563, 12.004397 ], [ -4.921854, 12.000758 ], [ -4.951731, 12.000567 ], [ -4.9928, 11.984046 ], [ -5.009819, 11.986057 ], [ -5.02197, 11.98184 ], [ -5.037896, 11.983299 ], [ -5.063592, 11.977803 ], [ -5.079775, 11.979778 ], [ -5.093455, 11.970634 ], [ -5.126223, 11.959491 ], [ -5.141582, 11.949423 ], [ -5.154653, 11.947669 ], [ -5.159002, 11.933623 ], [ -5.170072, 11.933457 ], [ -5.178483, 11.929473 ], [ -5.187194, 11.9066 ], [ -5.198235, 11.898841 ], [ -5.21058, 11.895186 ], [ -5.226439, 11.877184 ], [ -5.246556, 11.866041 ], [ -5.248293, 11.865079 ], [ -5.254025, 11.855767 ], [ -5.254311, 11.843236 ], [ -5.262766, 11.841475 ], [ -5.267828, 11.83638 ], [ -5.280631, 11.842071 ], [ -5.284587, 11.852393 ], [ -5.288445, 11.853898 ], [ -5.300819, 11.848926 ], [ -5.308419, 11.838862 ], [ -5.321149, 11.840078 ], [ -5.328342, 11.844176 ], [ -5.335453, 11.836164 ], [ -5.35553, 11.824858 ], [ -5.361032, 11.825323 ], [ -5.368538, 11.833378 ], [ -5.38355, 11.842101 ], [ -5.405527, 11.835523 ], [ -5.408896, 11.831862 ], [ -5.408279, 11.824342 ], [ -5.397109, 11.816084 ], [ -5.387688, 11.817101 ], [ -5.374522, 11.810383 ], [ -5.359828, 11.79769 ], [ -5.356455, 11.797729 ], [ -5.350653, 11.804388 ], [ -5.316677, 11.793202 ], [ -5.309369, 11.786267 ], [ -5.299726, 11.784947 ], [ -5.29459, 11.776914 ], [ -5.296039, 11.769866 ], [ -5.28537, 11.759985 ], [ -5.281131, 11.759771 ], [ -5.271827, 11.765521 ], [ -5.265246, 11.763663 ], [ -5.268174, 11.755379 ], [ -5.265522, 11.74381 ], [ -5.275676, 11.709449 ], [ -5.272053, 11.684899 ], [ -5.298423, 11.628629 ], [ -5.298968, 11.620665 ], [ -5.292867, 11.611585 ], [ -5.282251, 11.6043 ], [ -5.246556, 11.604613 ], [ -5.242095, 11.604652 ], [ -5.22391, 11.585532 ], [ -5.219191, 11.558051 ], [ -5.204598, 11.532105 ], [ -5.214536, 11.511754 ], [ -5.210677, 11.484573 ], [ -5.214076, 11.465629 ], [ -5.211078, 11.455006 ], [ -5.203485, 11.444639 ], [ -5.200006, 11.43074 ], [ -5.2167, 11.395764 ], [ -5.246556, 11.376773 ], [ -5.25656, 11.370409 ], [ -5.265103, 11.359309 ], [ -5.267755, 11.335588 ], [ -5.264566, 11.268149 ], [ -5.271054, 11.237801 ], [ -5.286379, 11.220985 ], [ -5.327882, 11.196993 ], [ -5.335794, 11.154154 ], [ -5.342292, 11.136002 ], [ -5.363522, 11.117987 ], [ -5.391128, 11.100195 ], [ -5.394531, 11.098002 ], [ -5.488077, 11.072628 ], [ -5.495998, 11.06316 ], [ -5.494494, 11.024557 ], [ -5.486681, 10.993817 ], [ -5.489031, 10.973585 ], [ -5.469301, 10.961938 ], [ -5.469029, 10.94396 ], [ -5.464462, 10.932134 ], [ -5.464625, 10.905756 ], [ -5.449772, 10.875033 ], [ -5.433737, 10.866277 ], [ -5.425077, 10.857389 ], [ -5.422618, 10.850445 ], [ -5.428327, 10.825426 ], [ -5.443703, 10.80301 ], [ -5.449955, 10.769852 ], [ -5.473341, 10.75733 ], [ -5.47036, 10.735455 ], [ -5.476413, 10.716508 ], [ -5.480005, 10.63071 ], [ -5.482379, 10.621996 ], [ -5.477434, 10.610924 ], [ -5.468646, 10.605789 ], [ -5.46585, 10.599536 ], [ -5.466128, 10.592697 ], [ -5.472231, 10.580328 ], [ -5.466132, 10.561693 ], [ -5.47743, 10.545562 ], [ -5.485106, 10.518371 ], [ -5.499618, 10.482932 ], [ -5.51049, 10.467127 ], [ -5.513811, 10.462297 ], [ -5.512885, 10.452394 ], [ -5.51892, 10.43327 ] ] ] ] } }
]
}
