{
"type": "FeatureCollection",
"name": "Malta",
"crs": { "type": "name", "properties": { "name": "urn:ogc:def:crs:OGC:1.3:CRS84" } },
"features": [
{ "type": "Feature", "properties": { "id": "MT", "CNTR_ID": "MT", "CNTR_NAME": "Malta-Malta", "NAME_ENGL": "Malta", "ISO3_CODE": "MLT", "FID": "MT" }, "geometry": { "type": "MultiPolygon", "coordinates": [ [ [ [ 14.368761, 35.997153 ], [ 14.375391, 35.987747 ], [ 14.366085, 35.98431 ], [ 14.351334, 35.973876 ], [ 14.350896, 35.9698 ], [ 14.355077, 35.966706 ], [ 14.377965, 35.970848 ], [ 14.395726, 35.967586 ], [ 14.395557, 35.959127 ], [ 14.389763, 35.957818 ], [ 14.390025, 35.953778 ], [ 14.384111, 35.947148 ], [ 14.385463, 35.945655 ], [ 14.398496, 35.949941 ], [ 14.406621, 35.949693 ], [ 14.423511, 35.9589 ], [ 14.425685, 35.957456 ], [ 14.425696, 35.948437 ], [ 14.433227, 35.954192 ], [ 14.436868, 35.95404 ], [ 14.445398, 35.950642 ], [ 14.450186, 35.944212 ], [ 14.453937, 35.946369 ], [ 14.455638, 35.941119 ], [ 14.463805, 35.93705 ], [ 14.470063, 35.936108 ], [ 14.472295, 35.93755 ], [ 14.476778, 35.937901 ], [ 14.48154, 35.936253 ], [ 14.481088, 35.933865 ], [ 14.483578, 35.933529 ], [ 14.485786, 35.931866 ], [ 14.487962, 35.931621 ], [ 14.489683, 35.930393 ], [ 14.495185, 35.922369 ], [ 14.493033, 35.917446 ], [ 14.495509, 35.915307 ], [ 14.502749, 35.916694 ], [ 14.511828, 35.908443 ], [ 14.498899, 35.907261 ], [ 14.504473, 35.903371 ], [ 14.496793, 35.901009 ], [ 14.500592, 35.899982 ], [ 14.500193, 35.897369 ], [ 14.49582, 35.897701 ], [ 14.493411, 35.897186 ], [ 14.490977, 35.895069 ], [ 14.49626, 35.8959 ], [ 14.49759, 35.89296 ], [ 14.498503, 35.894337 ], [ 14.500699, 35.894764 ], [ 14.502009, 35.896481 ], [ 14.504609, 35.897636 ], [ 14.505759, 35.899059 ], [ 14.512625, 35.902008 ], [ 14.519895, 35.902866 ], [ 14.517984, 35.897326 ], [ 14.511121, 35.89312 ], [ 14.50546, 35.888111 ], [ 14.500156, 35.883409 ], [ 14.503606, 35.8792 ], [ 14.503992, 35.882556 ], [ 14.50978, 35.885513 ], [ 14.51424, 35.883064 ], [ 14.516773, 35.88367 ], [ 14.514114, 35.889324 ], [ 14.515126, 35.890282 ], [ 14.517052, 35.889404 ], [ 14.519714, 35.886217 ], [ 14.519856, 35.884277 ], [ 14.521156, 35.885201 ], [ 14.521262, 35.889539 ], [ 14.525751, 35.887981 ], [ 14.523745, 35.892167 ], [ 14.526586, 35.894005 ], [ 14.525335, 35.898157 ], [ 14.545329, 35.890686 ], [ 14.557222, 35.881798 ], [ 14.564254, 35.877483 ], [ 14.567192, 35.874633 ], [ 14.57432, 35.867716 ], [ 14.568655, 35.865595 ], [ 14.573679, 35.860599 ], [ 14.567192, 35.855491 ], [ 14.563884, 35.852887 ], [ 14.567192, 35.850633 ], [ 14.569057, 35.849362 ], [ 14.567221, 35.845497 ], [ 14.569103, 35.842104 ], [ 14.567192, 35.841833 ], [ 14.563433, 35.841302 ], [ 14.560895, 35.837907 ], [ 14.563172, 35.828162 ], [ 14.560986, 35.822257 ], [ 14.547746, 35.837997 ], [ 14.545322, 35.837899 ], [ 14.545078, 35.831986 ], [ 14.541612, 35.829933 ], [ 14.53674, 35.832098 ], [ 14.531518, 35.829885 ], [ 14.531833, 35.821326 ], [ 14.538619, 35.818388 ], [ 14.542561, 35.820605 ], [ 14.546007, 35.817503 ], [ 14.535795, 35.808406 ], [ 14.516418, 35.806862 ], [ 14.500317, 35.811717 ], [ 14.473501, 35.814737 ], [ 14.45693, 35.822219 ], [ 14.45122, 35.819466 ], [ 14.43023, 35.826297 ], [ 14.417211, 35.828606 ], [ 14.414301, 35.833524 ], [ 14.397638, 35.838827 ], [ 14.389448, 35.846085 ], [ 14.383631, 35.849026 ], [ 14.380383, 35.848579 ], [ 14.376157, 35.852249 ], [ 14.371691, 35.853924 ], [ 14.369073, 35.856861 ], [ 14.362201, 35.860302 ], [ 14.361835, 35.861954 ], [ 14.360123, 35.863461 ], [ 14.338047, 35.878533 ], [ 14.335562, 35.889422 ], [ 14.32929, 35.896752 ], [ 14.329338, 35.906045 ], [ 14.340897, 35.906109 ], [ 14.332755, 35.918268 ], [ 14.334999, 35.922487 ], [ 14.343266, 35.921355 ], [ 14.340242, 35.927484 ], [ 14.343593, 35.92895 ], [ 14.342935, 35.93092 ], [ 14.342607, 35.934138 ], [ 14.329374, 35.941314 ], [ 14.335909, 35.945605 ], [ 14.340889, 35.953227 ], [ 14.336384, 35.968014 ], [ 14.333295, 35.969933 ], [ 14.323125, 35.968836 ], [ 14.319946, 35.971334 ], [ 14.322945, 35.976884 ], [ 14.332648, 35.983203 ], [ 14.332617, 35.986412 ], [ 14.350939, 35.987652 ], [ 14.353536, 35.990973 ], [ 14.357931, 35.989849 ], [ 14.363534, 35.991905 ], [ 14.363795, 35.996259 ], [ 14.368761, 35.997153 ] ] ], [ [ [ 14.234692, 36.08218 ], [ 14.250555, 36.079704 ], [ 14.258832, 36.072455 ], [ 14.265193, 36.072805 ], [ 14.274481, 36.065823 ], [ 14.28624, 36.061917 ], [ 14.288992, 36.06569 ], [ 14.290915, 36.065625 ], [ 14.292633, 36.064344 ], [ 14.2932, 36.062451 ], [ 14.294447, 36.061204 ], [ 14.297813, 36.059903 ], [ 14.300057, 36.057195 ], [ 14.304118, 36.057542 ], [ 14.306932, 36.059118 ], [ 14.310087, 36.059121 ], [ 14.311958, 36.057229 ], [ 14.312193, 36.052304 ], [ 14.315235, 36.04942 ], [ 14.32137, 36.048661 ], [ 14.333472, 36.038164 ], [ 14.33574, 36.033082 ], [ 14.327565, 36.028397 ], [ 14.308435, 36.026349 ], [ 14.299221, 36.026417 ], [ 14.296221, 36.021249 ], [ 14.27861, 36.016467 ], [ 14.271463, 36.020463 ], [ 14.270865, 36.016322 ], [ 14.261794, 36.01236 ], [ 14.251309, 36.01825 ], [ 14.230644, 36.021203 ], [ 14.220074, 36.021109 ], [ 14.21339, 36.026507 ], [ 14.212793, 36.031198 ], [ 14.210505, 36.031259 ], [ 14.209421, 36.032872 ], [ 14.205321, 36.03341 ], [ 14.2037, 36.034638 ], [ 14.19347, 36.03325 ], [ 14.187361, 36.036674 ], [ 14.192262, 36.046549 ], [ 14.188759, 36.052839 ], [ 14.191378, 36.062036 ], [ 14.184754, 36.065974 ], [ 14.185328, 36.073438 ], [ 14.197682, 36.074418 ], [ 14.212802, 36.079846 ], [ 14.216768, 36.080595 ], [ 14.219059, 36.079637 ], [ 14.221952, 36.079934 ], [ 14.222805, 36.08217 ], [ 14.229456, 36.080297 ], [ 14.234692, 36.08218 ] ] ], [ [ [ 14.335848, 36.018219 ], [ 14.337397, 36.016307 ], [ 14.338882, 36.018682 ], [ 14.342483, 36.015434 ], [ 14.346786, 36.014053 ], [ 14.350347, 36.010129 ], [ 14.348472, 36.006618 ], [ 14.345309, 36.006686 ], [ 14.33282, 36.004155 ], [ 14.326758, 36.005225 ], [ 14.329864, 36.009063 ], [ 14.322623, 36.013755 ], [ 14.318872, 36.011144 ], [ 14.316525, 36.015158 ], [ 14.322121, 36.015517 ], [ 14.322528, 36.017333 ], [ 14.328656, 36.019557 ], [ 14.335848, 36.018219 ] ] ] ] } }
]
}
