{
"type": "FeatureCollection",
"name": "Marshall Islands",
"crs": { "type": "name", "properties": { "name": "urn:ogc:def:crs:OGC:1.3:CRS84" } },
"features": [
{ "type": "Feature", "properties": { "id": "MH", "CNTR_ID": "MH", "CNTR_NAME": "Marshall Islands-Aorōkin M̧Ajeļ", "NAME_ENGL": "Marshall Islands", "ISO3_CODE": "MHL", "FID": "MH" }, "geometry": { "type": "MultiPolygon", "coordinates": [ [ [ [ 168.116026, 5.635964 ], [ 168.128052, 5.635905 ], [ 168.13324, 5.636668 ], [ 168.1366, 5.635847 ], [ 168.136836, 5.631975 ], [ 168.131295, 5.61854 ], [ 168.12817, 5.603227 ], [ 168.124162, 5.591552 ], [ 168.122039, 5.588619 ], [ 168.111841, 5.58856 ], [ 168.10583, 5.590269 ], [ 168.09769, 5.593607 ], [ 168.093071, 5.623729 ], [ 168.083425, 5.643544 ], [ 168.08646, 5.644811 ], [ 168.10583, 5.638739 ], [ 168.116026, 5.635964 ] ] ], [ [ [ 170.874866, 10.271644 ], [ 170.872124, 10.267632 ], [ 170.866638, 10.267888 ], [ 170.863241, 10.269569 ], [ 170.862717, 10.273192 ], [ 170.864541, 10.283025 ], [ 170.866892, 10.284062 ], [ 170.866891, 10.288202 ], [ 170.865061, 10.29053 ], [ 170.866512, 10.293331 ], [ 170.873679, 10.299978 ], [ 170.877338, 10.298298 ], [ 170.878516, 10.291829 ], [ 170.873097, 10.283899 ], [ 170.872773, 10.27863 ], [ 170.874866, 10.271644 ] ] ], [ [ [ 167.741006, 8.722513 ], [ 167.73446, 8.717782 ], [ 167.728427, 8.716708 ], [ 167.718501, 8.717606 ], [ 167.713737, 8.726673 ], [ 167.716106, 8.727545 ], [ 167.72069, 8.723503 ], [ 167.727515, 8.722012 ], [ 167.733717, 8.725378 ], [ 167.736627, 8.730294 ], [ 167.734853, 8.739995 ], [ 167.735185, 8.744259 ], [ 167.737698, 8.744656 ], [ 167.738612, 8.740296 ], [ 167.741561, 8.733537 ], [ 167.742544, 8.728545 ], [ 167.741006, 8.722513 ] ] ], [ [ [ 171.739103, 6.085004 ], [ 171.743434, 6.077126 ], [ 171.726628, 6.077588 ], [ 171.725905, 6.085004 ], [ 171.731418, 6.103652 ], [ 171.733139, 6.10367 ], [ 171.739103, 6.085004 ] ] ], [ [ [ 168.976038, 14.592684 ], [ 168.971071, 14.589087 ], [ 168.968946, 14.590128 ], [ 168.980437, 14.599303 ], [ 168.996582, 14.607338 ], [ 169.003287, 14.613187 ], [ 169.008228, 14.61981 ], [ 169.010483, 14.624567 ], [ 169.011386, 14.630138 ], [ 169.013194, 14.631844 ], [ 169.015324, 14.630138 ], [ 169.015486, 14.624346 ], [ 169.010297, 14.615221 ], [ 169.007087, 14.611508 ], [ 168.998231, 14.604325 ], [ 168.989078, 14.600298 ], [ 168.976038, 14.592684 ] ] ], [ [ [ 171.038661, 7.14646 ], [ 171.042665, 7.136085 ], [ 171.03851, 7.137393 ], [ 171.028916, 7.142734 ], [ 171.026484, 7.146436 ], [ 171.029363, 7.152639 ], [ 171.033873, 7.157439 ], [ 171.038094, 7.165183 ], [ 171.039451, 7.163404 ], [ 171.037806, 7.1553 ], [ 171.038661, 7.14646 ] ] ], [ [ [ 169.721745, 5.988393 ], [ 169.715107, 5.976235 ], [ 169.713695, 5.977186 ], [ 169.717781, 5.986846 ], [ 169.718409, 5.99146 ], [ 169.716864, 5.995301 ], [ 169.72067, 6.010175 ], [ 169.717324, 6.0176 ], [ 169.71053, 6.022068 ], [ 169.700538, 6.025249 ], [ 169.697261, 6.029721 ], [ 169.698639, 6.030508 ], [ 169.712319, 6.023226 ], [ 169.715649, 6.022465 ], [ 169.724367, 6.016591 ], [ 169.723235, 6.007874 ], [ 169.71942, 5.997357 ], [ 169.72148, 5.992236 ], [ 169.721745, 5.988393 ] ] ], [ [ [ 169.599005, 5.793449 ], [ 169.604487, 5.793202 ], [ 169.607876, 5.794909 ], [ 169.609549, 5.793473 ], [ 169.607635, 5.786674 ], [ 169.602413, 5.787184 ], [ 169.594839, 5.789257 ], [ 169.586998, 5.793289 ], [ 169.581244, 5.798372 ], [ 169.577708, 5.802938 ], [ 169.573366, 5.806563 ], [ 169.572039, 5.810386 ], [ 169.577039, 5.809472 ], [ 169.581756, 5.802033 ], [ 169.590122, 5.796564 ], [ 169.599005, 5.793449 ] ] ], [ [ [ 165.554887, 11.613567 ], [ 165.551525, 11.611576 ], [ 165.551945, 11.615882 ], [ 165.549683, 11.621186 ], [ 165.545176, 11.625567 ], [ 165.536291, 11.63085 ], [ 165.533525, 11.633509 ], [ 165.530113, 11.633971 ], [ 165.530901, 11.636452 ], [ 165.536327, 11.635915 ], [ 165.548184, 11.632797 ], [ 165.55313, 11.626933 ], [ 165.555349, 11.619163 ], [ 165.556833, 11.617315 ], [ 165.554887, 11.613567 ] ] ], [ [ [ 166.005552, 10.172791 ], [ 166.008571, 10.170566 ], [ 166.010507, 10.171338 ], [ 166.014059, 10.175022 ], [ 166.016404, 10.173566 ], [ 166.018067, 10.157861 ], [ 166.016162, 10.154178 ], [ 166.010507, 10.163118 ], [ 166.007768, 10.166268 ], [ 166.000411, 10.169158 ], [ 165.998976, 10.170794 ], [ 166.002278, 10.177362 ], [ 166.006489, 10.178001 ], [ 166.005552, 10.172791 ] ] ], [ [ [ 170.238935, 9.442862 ], [ 170.233846, 9.439927 ], [ 170.235917, 9.453627 ], [ 170.230073, 9.464386 ], [ 170.231784, 9.467088 ], [ 170.238935, 9.464925 ], [ 170.244125, 9.45803 ], [ 170.238935, 9.442862 ] ] ], [ [ [ 168.953813, 7.599167 ], [ 168.967021, 7.594609 ], [ 168.970661, 7.590914 ], [ 168.970966, 7.586558 ], [ 168.968904, 7.58591 ], [ 168.956604, 7.594933 ], [ 168.946114, 7.597259 ], [ 168.94065, 7.596359 ], [ 168.935686, 7.595205 ], [ 168.93287, 7.597201 ], [ 168.932726, 7.60008 ], [ 168.937704, 7.601347 ], [ 168.94065, 7.600963 ], [ 168.953813, 7.599167 ] ] ], [ [ [ 172.109184, 5.9814 ], [ 172.109312, 5.978998 ], [ 172.112512, 5.979258 ], [ 172.11266, 5.986754 ], [ 172.115057, 5.985659 ], [ 172.115312, 5.980053 ], [ 172.116978, 5.973481 ], [ 172.115836, 5.969518 ], [ 172.109833, 5.972457 ], [ 172.103449, 5.979409 ], [ 172.097856, 5.982223 ], [ 172.096927, 5.984361 ], [ 172.090788, 5.991063 ], [ 172.092545, 5.992643 ], [ 172.095472, 5.989702 ], [ 172.099866, 5.987824 ], [ 172.104669, 5.982423 ], [ 172.109184, 5.9814 ] ] ], [ [ [ 169.852123, 11.231273 ], [ 169.854807, 11.229293 ], [ 169.858511, 11.230357 ], [ 169.860435, 11.226152 ], [ 169.855242, 11.221574 ], [ 169.846664, 11.221063 ], [ 169.842597, 11.219276 ], [ 169.840187, 11.220413 ], [ 169.845722, 11.226603 ], [ 169.846533, 11.233131 ], [ 169.845591, 11.235094 ], [ 169.848826, 11.236439 ], [ 169.852621, 11.234053 ], [ 169.852123, 11.231273 ] ] ], [ [ [ 168.55366, 7.414604 ], [ 168.551871, 7.414369 ], [ 168.550668, 7.420929 ], [ 168.548863, 7.42647 ], [ 168.545793, 7.436326 ], [ 168.546054, 7.445873 ], [ 168.551552, 7.454703 ], [ 168.55526, 7.455729 ], [ 168.556226, 7.454123 ], [ 168.55252, 7.448618 ], [ 168.550769, 7.441752 ], [ 168.551788, 7.42647 ], [ 168.553219, 7.419859 ], [ 168.55366, 7.414604 ] ] ], [ [ [ 172.133461, 5.937741 ], [ 172.137015, 5.935093 ], [ 172.137691, 5.937407 ], [ 172.142294, 5.937713 ], [ 172.144169, 5.933243 ], [ 172.137755, 5.933689 ], [ 172.138361, 5.929292 ], [ 172.144536, 5.930353 ], [ 172.146008, 5.925525 ], [ 172.144723, 5.924489 ], [ 172.140066, 5.927039 ], [ 172.138801, 5.926101 ], [ 172.139362, 5.918427 ], [ 172.141018, 5.916232 ], [ 172.139362, 5.91392 ], [ 172.132755, 5.927804 ], [ 172.133461, 5.937741 ] ] ], [ [ [ 166.274598, 8.92177 ], [ 166.264594, 8.920912 ], [ 166.258432, 8.918639 ], [ 166.253822, 8.920311 ], [ 166.246896, 8.919442 ], [ 166.24562, 8.921231 ], [ 166.246136, 8.922122 ], [ 166.255369, 8.922601 ], [ 166.258186, 8.921571 ], [ 166.263574, 8.922446 ], [ 166.264614, 8.926777 ], [ 166.261841, 8.935117 ], [ 166.263756, 8.935894 ], [ 166.269245, 8.931096 ], [ 166.269366, 8.929056 ], [ 166.274598, 8.92177 ] ] ], [ [ [ 171.561258, 7.053942 ], [ 171.560792, 7.052583 ], [ 171.552782, 7.056181 ], [ 171.546662, 7.062701 ], [ 171.546013, 7.065046 ], [ 171.55139, 7.074094 ], [ 171.552978, 7.074232 ], [ 171.553986, 7.068884 ], [ 171.557505, 7.059561 ], [ 171.561258, 7.053942 ] ] ], [ [ [ 172.049998, 6.018851 ], [ 172.049998, 6.016309 ], [ 172.009214, 6.035627 ], [ 172.008707, 6.036305 ], [ 172.0098, 6.037328 ], [ 172.018982, 6.035324 ], [ 172.049998, 6.018851 ] ] ], [ [ [ 167.467535, 9.402733 ], [ 167.476981, 9.397632 ], [ 167.482448, 9.398326 ], [ 167.485268, 9.394198 ], [ 167.483011, 9.390808 ], [ 167.467535, 9.392785 ], [ 167.465611, 9.392979 ], [ 167.46687, 9.397654 ], [ 167.465515, 9.401209 ], [ 167.467535, 9.402733 ] ] ], [ [ [ 168.709935, 4.575 ], [ 168.707692, 4.572995 ], [ 168.693734, 4.576708 ], [ 168.690369, 4.57903 ], [ 168.688287, 4.583947 ], [ 168.689832, 4.585248 ], [ 168.689042, 4.59017 ], [ 168.691877, 4.591993 ], [ 168.692924, 4.587591 ], [ 168.700699, 4.579322 ], [ 168.709935, 4.575 ] ] ], [ [ [ 169.424555, 5.956514 ], [ 169.427168, 5.954693 ], [ 169.43212, 5.955883 ], [ 169.432518, 5.953012 ], [ 169.435528, 5.949495 ], [ 169.44623, 5.946001 ], [ 169.449629, 5.942877 ], [ 169.449113, 5.940787 ], [ 169.425356, 5.949988 ], [ 169.422612, 5.951939 ], [ 169.422344, 5.95455 ], [ 169.424555, 5.956514 ] ] ], [ [ [ 169.000551, 10.038407 ], [ 168.999895, 10.035872 ], [ 168.997208, 10.03599 ], [ 168.994504, 10.038637 ], [ 168.988923, 10.050321 ], [ 168.991199, 10.051666 ], [ 169.004546, 10.04429 ], [ 169.004425, 10.042159 ], [ 169.000551, 10.038407 ] ] ], [ [ [ 172.11383, 6.022317 ], [ 172.110209, 6.01409 ], [ 172.108513, 6.017145 ], [ 172.110198, 6.018437 ], [ 172.111173, 6.025293 ], [ 172.109957, 6.027245 ], [ 172.110614, 6.032166 ], [ 172.106479, 6.035231 ], [ 172.107178, 6.038183 ], [ 172.103934, 6.042261 ], [ 172.100412, 6.042291 ], [ 172.100554, 6.04799 ], [ 172.103145, 6.049539 ], [ 172.105972, 6.042662 ], [ 172.112437, 6.037862 ], [ 172.11359, 6.03216 ], [ 172.11383, 6.022317 ] ] ], [ [ [ 171.639777, 7.220426 ], [ 171.638132, 7.217332 ], [ 171.63529, 7.221238 ], [ 171.636445, 7.223558 ], [ 171.635406, 7.228553 ], [ 171.636195, 7.235826 ], [ 171.637782, 7.239076 ], [ 171.637097, 7.243085 ], [ 171.637699, 7.2494 ], [ 171.644456, 7.248421 ], [ 171.645425, 7.247094 ], [ 171.641519, 7.241154 ], [ 171.638923, 7.231397 ], [ 171.638212, 7.224387 ], [ 171.639777, 7.220426 ] ] ], [ [ [ 168.663473, 4.620306 ], [ 168.66148, 4.61973 ], [ 168.659983, 4.623499 ], [ 168.655078, 4.625629 ], [ 168.650232, 4.632744 ], [ 168.647179, 4.634771 ], [ 168.645263, 4.638585 ], [ 168.64913, 4.641904 ], [ 168.648925, 4.644072 ], [ 168.65324, 4.644214 ], [ 168.653132, 4.638102 ], [ 168.655825, 4.629961 ], [ 168.660401, 4.627684 ], [ 168.663473, 4.620306 ] ] ], [ [ [ 171.236187, 8.70365 ], [ 171.228204, 8.698949 ], [ 171.224251, 8.699709 ], [ 171.224909, 8.706201 ], [ 171.223699, 8.70937 ], [ 171.227898, 8.710206 ], [ 171.231139, 8.712609 ], [ 171.236487, 8.708782 ], [ 171.236187, 8.70365 ] ] ], [ [ [ 169.510222, 6.236738 ], [ 169.507078, 6.234334 ], [ 169.505648, 6.238716 ], [ 169.50358, 6.240516 ], [ 169.500719, 6.249537 ], [ 169.497496, 6.249785 ], [ 169.498636, 6.256754 ], [ 169.496691, 6.261004 ], [ 169.494495, 6.270476 ], [ 169.496533, 6.270937 ], [ 169.502251, 6.2547 ], [ 169.504988, 6.244131 ], [ 169.510222, 6.236738 ] ] ], [ [ [ 168.82805, 7.286214 ], [ 168.825572, 7.274484 ], [ 168.823582, 7.272477 ], [ 168.81718, 7.272712 ], [ 168.807677, 7.276953 ], [ 168.80715, 7.277873 ], [ 168.81208, 7.279479 ], [ 168.814219, 7.278291 ], [ 168.823013, 7.279798 ], [ 168.823526, 7.284062 ], [ 168.82805, 7.286214 ] ] ], [ [ [ 169.552894, 6.154576 ], [ 169.552106, 6.15079 ], [ 169.547298, 6.156661 ], [ 169.538082, 6.176224 ], [ 169.54047, 6.18508 ], [ 169.542269, 6.184771 ], [ 169.54157, 6.176075 ], [ 169.552894, 6.154576 ] ] ], [ [ [ 169.305383, 9.822159 ], [ 169.292973, 9.817374 ], [ 169.28767, 9.819578 ], [ 169.287111, 9.825348 ], [ 169.289224, 9.826146 ], [ 169.293215, 9.821705 ], [ 169.296921, 9.82133 ], [ 169.299556, 9.823442 ], [ 169.30616, 9.825444 ], [ 169.306523, 9.828458 ], [ 169.314622, 9.826273 ], [ 169.31439, 9.824149 ], [ 169.305383, 9.822159 ] ] ], [ [ [ 171.162068, 8.30168 ], [ 171.158482, 8.299931 ], [ 171.158459, 8.304641 ], [ 171.152953, 8.312895 ], [ 171.157603, 8.314637 ], [ 171.162645, 8.312175 ], [ 171.165588, 8.312053 ], [ 171.166764, 8.308152 ], [ 171.162068, 8.30168 ] ] ], [ [ [ 166.028467, 10.026304 ], [ 166.027912, 10.016186 ], [ 166.025552, 10.015025 ], [ 166.021897, 10.01828 ], [ 166.015224, 10.019339 ], [ 166.013277, 10.024275 ], [ 166.019296, 10.023607 ], [ 166.023494, 10.026579 ], [ 166.028467, 10.026304 ] ] ], [ [ [ 166.832634, 9.32518 ], [ 166.833985, 9.32008 ], [ 166.819319, 9.326387 ], [ 166.816239, 9.330023 ], [ 166.81933, 9.332407 ], [ 166.824857, 9.33179 ], [ 166.828074, 9.329978 ], [ 166.832634, 9.32518 ] ] ], [ [ [ 169.016789, 10.037825 ], [ 169.01613, 10.035096 ], [ 169.017985, 10.032187 ], [ 169.011016, 10.027606 ], [ 169.004131, 10.033474 ], [ 169.003352, 10.036235 ], [ 169.00798, 10.038347 ], [ 169.010963, 10.036281 ], [ 169.01196, 10.039305 ], [ 169.016789, 10.037825 ] ] ], [ [ [ 165.565667, 11.516789 ], [ 165.561931, 11.514118 ], [ 165.560001, 11.518215 ], [ 165.563079, 11.521999 ], [ 165.565072, 11.528913 ], [ 165.564046, 11.536792 ], [ 165.565496, 11.537091 ], [ 165.569978, 11.528171 ], [ 165.56841, 11.521081 ], [ 165.565667, 11.516789 ] ] ], [ [ [ 166.893836, 11.155564 ], [ 166.890228, 11.155159 ], [ 166.883681, 11.158097 ], [ 166.891931, 11.162227 ], [ 166.894942, 11.168047 ], [ 166.896017, 11.175779 ], [ 166.898787, 11.17489 ], [ 166.898425, 11.168302 ], [ 166.893836, 11.155564 ] ] ], [ [ [ 166.412988, 11.11959 ], [ 166.401776, 11.116251 ], [ 166.3979, 11.118374 ], [ 166.398571, 11.119184 ], [ 166.412988, 11.122929 ], [ 166.429646, 11.125493 ], [ 166.430551, 11.123227 ], [ 166.412988, 11.11959 ] ] ], [ [ [ 168.232753, 7.759544 ], [ 168.241498, 7.755517 ], [ 168.252857, 7.755854 ], [ 168.259438, 7.759453 ], [ 168.259983, 7.757085 ], [ 168.255773, 7.754423 ], [ 168.250762, 7.753073 ], [ 168.243102, 7.752629 ], [ 168.238337, 7.754047 ], [ 168.22627, 7.760952 ], [ 168.224275, 7.76453 ], [ 168.22583, 7.765116 ], [ 168.232753, 7.759544 ] ] ], [ [ [ 168.187551, 8.147523 ], [ 168.186065, 8.146992 ], [ 168.183709, 8.15346 ], [ 168.177228, 8.160478 ], [ 168.170931, 8.162577 ], [ 168.171686, 8.164625 ], [ 168.177462, 8.164534 ], [ 168.18273, 8.162086 ], [ 168.186306, 8.157402 ], [ 168.187913, 8.152966 ], [ 168.187551, 8.147523 ] ] ], [ [ [ 171.178075, 8.137685 ], [ 171.17607, 8.136017 ], [ 171.169866, 8.144883 ], [ 171.17017, 8.147925 ], [ 171.167529, 8.149733 ], [ 171.17033, 8.156132 ], [ 171.17313, 8.155429 ], [ 171.174087, 8.148962 ], [ 171.176066, 8.145681 ], [ 171.178075, 8.137685 ] ] ], [ [ [ 171.755045, 6.221322 ], [ 171.75404, 6.217682 ], [ 171.751866, 6.219047 ], [ 171.74479, 6.217832 ], [ 171.744516, 6.216607 ], [ 171.734721, 6.216348 ], [ 171.73363, 6.214308 ], [ 171.730635, 6.217598 ], [ 171.733093, 6.21989 ], [ 171.740985, 6.22056 ], [ 171.746429, 6.222594 ], [ 171.755045, 6.221322 ] ] ], [ [ [ 166.894519, 11.295708 ], [ 166.891516, 11.283146 ], [ 166.889581, 11.283417 ], [ 166.891167, 11.290749 ], [ 166.889224, 11.298101 ], [ 166.893217, 11.299648 ], [ 166.894906, 11.305462 ], [ 166.89834, 11.310825 ], [ 166.901594, 11.309884 ], [ 166.897488, 11.303028 ], [ 166.894519, 11.295708 ] ] ], [ [ [ 169.566763, 5.815388 ], [ 169.564557, 5.813522 ], [ 169.552706, 5.822072 ], [ 169.544421, 5.829925 ], [ 169.543531, 5.833336 ], [ 169.545078, 5.83393 ], [ 169.552706, 5.826498 ], [ 169.566763, 5.815388 ] ] ], [ [ [ 171.782962, 6.222335 ], [ 171.78058, 6.219827 ], [ 171.771462, 6.220369 ], [ 171.763483, 6.220065 ], [ 171.763488, 6.223371 ], [ 171.769964, 6.223825 ], [ 171.771601, 6.224997 ], [ 171.784552, 6.225243 ], [ 171.78593, 6.222654 ], [ 171.782962, 6.222335 ] ] ], [ [ [ 169.986381, 10.217441 ], [ 169.981985, 10.214219 ], [ 169.979133, 10.214723 ], [ 169.978017, 10.220436 ], [ 169.981182, 10.222431 ], [ 169.983181, 10.228158 ], [ 169.987638, 10.229639 ], [ 169.98817, 10.225276 ], [ 169.985982, 10.220392 ], [ 169.986381, 10.217441 ] ] ], [ [ [ 167.985381, 8.18961 ], [ 167.98351, 8.184239 ], [ 167.979264, 8.185845 ], [ 167.975559, 8.190466 ], [ 167.97181, 8.197283 ], [ 167.971894, 8.200611 ], [ 167.974707, 8.199089 ], [ 167.980687, 8.192778 ], [ 167.985381, 8.18961 ] ] ], [ [ [ 172.159005, 5.89646 ], [ 172.163861, 5.887974 ], [ 172.167411, 5.889141 ], [ 172.165101, 5.891912 ], [ 172.167706, 5.895335 ], [ 172.170547, 5.896179 ], [ 172.170524, 5.885519 ], [ 172.165906, 5.884631 ], [ 172.165106, 5.882539 ], [ 172.162315, 5.884638 ], [ 172.157029, 5.895131 ], [ 172.159005, 5.89646 ] ] ], [ [ [ 171.719956, 6.198442 ], [ 171.718231, 6.197872 ], [ 171.715909, 6.203575 ], [ 171.715918, 6.210311 ], [ 171.718643, 6.214971 ], [ 171.726981, 6.218073 ], [ 171.727959, 6.215609 ], [ 171.720708, 6.210434 ], [ 171.719407, 6.205384 ], [ 171.719956, 6.198442 ] ] ], [ [ [ 170.155669, 9.551253 ], [ 170.160322, 9.549436 ], [ 170.160331, 9.546109 ], [ 170.156503, 9.544435 ], [ 170.155233, 9.548624 ], [ 170.151893, 9.550037 ], [ 170.143534, 9.547865 ], [ 170.142413, 9.548752 ], [ 170.14756, 9.55552 ], [ 170.151878, 9.555798 ], [ 170.155669, 9.551253 ] ] ], [ [ [ 165.754688, 8.93536 ], [ 165.76052, 8.932797 ], [ 165.766782, 8.933295 ], [ 165.76765, 8.929886 ], [ 165.764108, 8.926086 ], [ 165.759384, 8.926053 ], [ 165.753464, 8.930356 ], [ 165.754688, 8.93536 ] ] ], [ [ [ 169.988431, 10.236754 ], [ 169.987309, 10.232248 ], [ 169.982005, 10.232482 ], [ 169.983859, 10.238986 ], [ 169.980464, 10.24648 ], [ 169.983653, 10.249866 ], [ 169.987166, 10.24935 ], [ 169.98575, 10.246538 ], [ 169.988431, 10.236754 ] ] ], [ [ [ 169.014811, 14.647546 ], [ 169.011039, 14.647133 ], [ 169.01127, 14.650306 ], [ 169.009404, 14.655108 ], [ 169.010907, 14.661714 ], [ 169.014543, 14.662886 ], [ 169.016788, 14.659482 ], [ 169.014811, 14.647546 ] ] ], [ [ [ 165.342275, 11.503151 ], [ 165.347915, 11.498133 ], [ 165.352253, 11.498508 ], [ 165.351864, 11.495482 ], [ 165.343676, 11.494378 ], [ 165.338034, 11.498144 ], [ 165.33578, 11.501488 ], [ 165.335781, 11.50288 ], [ 165.342275, 11.503151 ] ] ], [ [ [ 166.532517, 11.127518 ], [ 166.531472, 11.123538 ], [ 166.526816, 11.125169 ], [ 166.52906, 11.128107 ], [ 166.527445, 11.136982 ], [ 166.528771, 11.144219 ], [ 166.527631, 11.145961 ], [ 166.526217, 11.148122 ], [ 166.529554, 11.148864 ], [ 166.530393, 11.145961 ], [ 166.531898, 11.140751 ], [ 166.53057, 11.131622 ], [ 166.532517, 11.127518 ] ] ], [ [ [ 169.515202, 5.876103 ], [ 169.521043, 5.871803 ], [ 169.522982, 5.872086 ], [ 169.522778, 5.868375 ], [ 169.526115, 5.868585 ], [ 169.524335, 5.859973 ], [ 169.521508, 5.861899 ], [ 169.522961, 5.866401 ], [ 169.518416, 5.869298 ], [ 169.508379, 5.881154 ], [ 169.511508, 5.882638 ], [ 169.515202, 5.876103 ] ] ], [ [ [ 166.262591, 8.937554 ], [ 166.260336, 8.936187 ], [ 166.258755, 8.940241 ], [ 166.255956, 8.940848 ], [ 166.255613, 8.944793 ], [ 166.253042, 8.945383 ], [ 166.250986, 8.948375 ], [ 166.24422, 8.951894 ], [ 166.244747, 8.953962 ], [ 166.250467, 8.95239 ], [ 166.251346, 8.950079 ], [ 166.25952, 8.94632 ], [ 166.262591, 8.937554 ] ] ], [ [ [ 169.530439, 5.846487 ], [ 169.535295, 5.843073 ], [ 169.539003, 5.843083 ], [ 169.539779, 5.839469 ], [ 169.527737, 5.843339 ], [ 169.524867, 5.850471 ], [ 169.524653, 5.857359 ], [ 169.527271, 5.858188 ], [ 169.527711, 5.853334 ], [ 169.530439, 5.846487 ] ] ], [ [ [ 165.929852, 10.172911 ], [ 165.925874, 10.169254 ], [ 165.922968, 10.17031 ], [ 165.920744, 10.178964 ], [ 165.921149, 10.181845 ], [ 165.929075, 10.178678 ], [ 165.929852, 10.172911 ] ] ], [ [ [ 169.544389, 6.198572 ], [ 169.541372, 6.19771 ], [ 169.540281, 6.199917 ], [ 169.530045, 6.201401 ], [ 169.528997, 6.203743 ], [ 169.523139, 6.208075 ], [ 169.524813, 6.209856 ], [ 169.531595, 6.205835 ], [ 169.538632, 6.20377 ], [ 169.5436, 6.20066 ], [ 169.544389, 6.198572 ] ] ], [ [ [ 166.530645, 11.117961 ], [ 166.530387, 11.113531 ], [ 166.525663, 11.11484 ], [ 166.522983, 11.112619 ], [ 166.51835, 11.114132 ], [ 166.517193, 11.112987 ], [ 166.510714, 11.114308 ], [ 166.51168, 11.116765 ], [ 166.516529, 11.117606 ], [ 166.517294, 11.116262 ], [ 166.523443, 11.116973 ], [ 166.524328, 11.119384 ], [ 166.530645, 11.117961 ] ] ], [ [ [ 169.120443, 5.639682 ], [ 169.113569, 5.639262 ], [ 169.113035, 5.64085 ], [ 169.127288, 5.649241 ], [ 169.130729, 5.648325 ], [ 169.123876, 5.641282 ], [ 169.120443, 5.639682 ] ] ], [ [ [ 171.828758, 6.236689 ], [ 171.82424, 6.233594 ], [ 171.8223, 6.235044 ], [ 171.814411, 6.232546 ], [ 171.811219, 6.229627 ], [ 171.807634, 6.230829 ], [ 171.814417, 6.2364 ], [ 171.820529, 6.238384 ], [ 171.827966, 6.238106 ], [ 171.828758, 6.236689 ] ] ], [ [ [ 171.375178, 7.084415 ], [ 171.364855, 7.083126 ], [ 171.363435, 7.084681 ], [ 171.363625, 7.085699 ], [ 171.371183, 7.0859 ], [ 171.378654, 7.088769 ], [ 171.380341, 7.095591 ], [ 171.382669, 7.095582 ], [ 171.384742, 7.089659 ], [ 171.375178, 7.084415 ] ] ], [ [ [ 171.922583, 7.13112 ], [ 171.93428, 7.122879 ], [ 171.935412, 7.121365 ], [ 171.933756, 7.113983 ], [ 171.93157, 7.113103 ], [ 171.93168, 7.119613 ], [ 171.929915, 7.123706 ], [ 171.923681, 7.127612 ], [ 171.919277, 7.126316 ], [ 171.917249, 7.128372 ], [ 171.922583, 7.13112 ] ] ], [ [ [ 169.621428, 5.841107 ], [ 169.616863, 5.828852 ], [ 169.614927, 5.829649 ], [ 169.615866, 5.835099 ], [ 169.619379, 5.844643 ], [ 169.61937, 5.848457 ], [ 169.621262, 5.853638 ], [ 169.623169, 5.852278 ], [ 169.621428, 5.841107 ] ] ], [ [ [ 169.5226, 6.212401 ], [ 169.520132, 6.211653 ], [ 169.512551, 6.228439 ], [ 169.510293, 6.232289 ], [ 169.5139, 6.232151 ], [ 169.520855, 6.218082 ], [ 169.5226, 6.212401 ] ] ], [ [ [ 166.691484, 11.465603 ], [ 166.690239, 11.462649 ], [ 166.686421, 11.463881 ], [ 166.679031, 11.461365 ], [ 166.681253, 11.467549 ], [ 166.685887, 11.470188 ], [ 166.685931, 11.473183 ], [ 166.689065, 11.471817 ], [ 166.688469, 11.467144 ], [ 166.691484, 11.465603 ] ] ], [ [ [ 171.194581, 8.49527 ], [ 171.189626, 8.491623 ], [ 171.185361, 8.492707 ], [ 171.187948, 8.496557 ], [ 171.187997, 8.502073 ], [ 171.191793, 8.503789 ], [ 171.194057, 8.500784 ], [ 171.194581, 8.49527 ] ] ], [ [ [ 165.532382, 9.206843 ], [ 165.529785, 9.206423 ], [ 165.524629, 9.211832 ], [ 165.521922, 9.219127 ], [ 165.525185, 9.220472 ], [ 165.530068, 9.213984 ], [ 165.532382, 9.206843 ] ] ], [ [ [ 169.616068, 5.805303 ], [ 169.613402, 5.801776 ], [ 169.611445, 5.805027 ], [ 169.613156, 5.807942 ], [ 169.613391, 5.819848 ], [ 169.615297, 5.824977 ], [ 169.617049, 5.824585 ], [ 169.616192, 5.814925 ], [ 169.616068, 5.805303 ] ] ], [ [ [ 168.761575, 7.280004 ], [ 168.760908, 7.278564 ], [ 168.75495, 7.278619 ], [ 168.748653, 7.280847 ], [ 168.746246, 7.284476 ], [ 168.749038, 7.289341 ], [ 168.750766, 7.285503 ], [ 168.761575, 7.280004 ] ] ], [ [ [ 171.804473, 6.045973 ], [ 171.811367, 6.041115 ], [ 171.821431, 6.041239 ], [ 171.827588, 6.045708 ], [ 171.830055, 6.044879 ], [ 171.823385, 6.039557 ], [ 171.809127, 6.0386 ], [ 171.803046, 6.045137 ], [ 171.804473, 6.045973 ] ] ], [ [ [ 169.951751, 10.463255 ], [ 169.947455, 10.460608 ], [ 169.941342, 10.464036 ], [ 169.944381, 10.47037 ], [ 169.94732, 10.47038 ], [ 169.950669, 10.467482 ], [ 169.951751, 10.463255 ] ] ], [ [ [ 168.757886, 7.505799 ], [ 168.752022, 7.500987 ], [ 168.750299, 7.502264 ], [ 168.750521, 7.508906 ], [ 168.756912, 7.510472 ], [ 168.761015, 7.50896 ], [ 168.763206, 7.506111 ], [ 168.757886, 7.505799 ] ] ], [ [ [ 169.417766, 6.291109 ], [ 169.417252, 6.287431 ], [ 169.413227, 6.287456 ], [ 169.414302, 6.285281 ], [ 169.411623, 6.281628 ], [ 169.407415, 6.283192 ], [ 169.407407, 6.285558 ], [ 169.408441, 6.291082 ], [ 169.41449, 6.289786 ], [ 169.414479, 6.2932 ], [ 169.417766, 6.291109 ] ] ], [ [ [ 171.886497, 6.070106 ], [ 171.860599, 6.064631 ], [ 171.873525, 6.070941 ], [ 171.886497, 6.072646 ], [ 171.886497, 6.070106 ] ] ], [ [ [ 171.963115, 6.227459 ], [ 171.963175, 6.222555 ], [ 171.960287, 6.222562 ], [ 171.958924, 6.227343 ], [ 171.954931, 6.224347 ], [ 171.952907, 6.229338 ], [ 171.949655, 6.23076 ], [ 171.952491, 6.233587 ], [ 171.963115, 6.227459 ] ] ], [ [ [ 169.560006, 6.128255 ], [ 169.558395, 6.127449 ], [ 169.552651, 6.134674 ], [ 169.553815, 6.144308 ], [ 169.555614, 6.14441 ], [ 169.560006, 6.128255 ] ] ], [ [ [ 171.949881, 6.034715 ], [ 171.946831, 6.032568 ], [ 171.941621, 6.036426 ], [ 171.934677, 6.046818 ], [ 171.936423, 6.047429 ], [ 171.947661, 6.03614 ], [ 171.949881, 6.034715 ] ] ], [ [ [ 171.19468, 7.065934 ], [ 171.194189, 7.064195 ], [ 171.188933, 7.065372 ], [ 171.17016, 7.074531 ], [ 171.16966, 7.075469 ], [ 171.171114, 7.076361 ], [ 171.190448, 7.067346 ], [ 171.19468, 7.065934 ] ] ], [ [ [ 166.842183, 11.155194 ], [ 166.848169, 11.152473 ], [ 166.853025, 11.153756 ], [ 166.853603, 11.152073 ], [ 166.844993, 11.148632 ], [ 166.841779, 11.149418 ], [ 166.836018, 11.153299 ], [ 166.842183, 11.155194 ] ] ], [ [ [ 169.493144, 6.276528 ], [ 169.488849, 6.27543 ], [ 169.485201, 6.279684 ], [ 169.482314, 6.28093 ], [ 169.478787, 6.286691 ], [ 169.480792, 6.287198 ], [ 169.49059, 6.280202 ], [ 169.493144, 6.276528 ] ] ], [ [ [ 169.013532, 9.92046 ], [ 169.016475, 9.909405 ], [ 169.010661, 9.909502 ], [ 169.008392, 9.913156 ], [ 169.011126, 9.919985 ], [ 169.013532, 9.92046 ] ] ], [ [ [ 168.627553, 7.341451 ], [ 168.629198, 7.338611 ], [ 168.614142, 7.34097 ], [ 168.605912, 7.344206 ], [ 168.605631, 7.345571 ], [ 168.608637, 7.346544 ], [ 168.610838, 7.344506 ], [ 168.616047, 7.34303 ], [ 168.627553, 7.341451 ] ] ], [ [ [ 167.518218, 11.38315 ], [ 167.521229, 11.378011 ], [ 167.517352, 11.37529 ], [ 167.512295, 11.374546 ], [ 167.510769, 11.382296 ], [ 167.514211, 11.380824 ], [ 167.518218, 11.38315 ] ] ], [ [ [ 167.012082, 11.367477 ], [ 167.010318, 11.362627 ], [ 167.007659, 11.363303 ], [ 167.006372, 11.369618 ], [ 167.008774, 11.37039 ], [ 167.008537, 11.374596 ], [ 167.011753, 11.377465 ], [ 167.012534, 11.374832 ], [ 167.012082, 11.367477 ] ] ], [ [ [ 170.219674, 9.480089 ], [ 170.21726, 9.477529 ], [ 170.209685, 9.490446 ], [ 170.206372, 9.493022 ], [ 170.208905, 9.495415 ], [ 170.219674, 9.480089 ] ] ], [ [ [ 172.077746, 6.003796 ], [ 172.076883, 6.001525 ], [ 172.068842, 6.007618 ], [ 172.062556, 6.009861 ], [ 172.060333, 6.012489 ], [ 172.062569, 6.016158 ], [ 172.066228, 6.010903 ], [ 172.071728, 6.009056 ], [ 172.074866, 6.005114 ], [ 172.077746, 6.003796 ] ] ], [ [ [ 167.624234, 8.795816 ], [ 167.621542, 8.794244 ], [ 167.610098, 8.800303 ], [ 167.608871, 8.806192 ], [ 167.610926, 8.80671 ], [ 167.615706, 8.799998 ], [ 167.624234, 8.795816 ] ] ], [ [ [ 169.696669, 6.031748 ], [ 169.694572, 6.030545 ], [ 169.687443, 6.036096 ], [ 169.682124, 6.042171 ], [ 169.67942, 6.046603 ], [ 169.681013, 6.04717 ], [ 169.688732, 6.038301 ], [ 169.696669, 6.031748 ] ] ], [ [ [ 169.7666, 11.206854 ], [ 169.765908, 11.205393 ], [ 169.760415, 11.205404 ], [ 169.755903, 11.209572 ], [ 169.757188, 11.213407 ], [ 169.762488, 11.211612 ], [ 169.7666, 11.206854 ] ] ], [ [ [ 169.678195, 6.052373 ], [ 169.676838, 6.04965 ], [ 169.673322, 6.05358 ], [ 169.661242, 6.063137 ], [ 169.66386, 6.064372 ], [ 169.667517, 6.062401 ], [ 169.672401, 6.056929 ], [ 169.678195, 6.052373 ] ] ], [ [ [ 169.313495, 9.843472 ], [ 169.313256, 9.839346 ], [ 169.309349, 9.840874 ], [ 169.309469, 9.842936 ], [ 169.301379, 9.847232 ], [ 169.303586, 9.849609 ], [ 169.309053, 9.84809 ], [ 169.313495, 9.843472 ] ] ], [ [ [ 169.966471, 10.417653 ], [ 169.963184, 10.417507 ], [ 169.962759, 10.421844 ], [ 169.967262, 10.426875 ], [ 169.970277, 10.426478 ], [ 169.970703, 10.42187 ], [ 169.966471, 10.417653 ] ] ], [ [ [ 172.154663, 5.899149 ], [ 172.154378, 5.897555 ], [ 172.149289, 5.899803 ], [ 172.1423, 5.90812 ], [ 172.141305, 5.910954 ], [ 172.143624, 5.910852 ], [ 172.154663, 5.899149 ] ] ], [ [ [ 167.740842, 8.772672 ], [ 167.737704, 8.771882 ], [ 167.735222, 8.786536 ], [ 167.733878, 8.788986 ], [ 167.735776, 8.79073 ], [ 167.737545, 8.787333 ], [ 167.740842, 8.772672 ] ] ], [ [ [ 168.980171, 7.752258 ], [ 168.977058, 7.745972 ], [ 168.973217, 7.748953 ], [ 168.974692, 7.754686 ], [ 168.977004, 7.757287 ], [ 168.980017, 7.756075 ], [ 168.980171, 7.752258 ] ] ], [ [ [ 169.588317, 6.108297 ], [ 169.587062, 6.107035 ], [ 169.578513, 6.116282 ], [ 169.572775, 6.118959 ], [ 169.574907, 6.120347 ], [ 169.581293, 6.118515 ], [ 169.588317, 6.108297 ] ] ], [ [ [ 165.651721, 9.136497 ], [ 165.649321, 9.135049 ], [ 165.644082, 9.140173 ], [ 165.640535, 9.141944 ], [ 165.642996, 9.144111 ], [ 165.649548, 9.143014 ], [ 165.651721, 9.136497 ] ] ], [ [ [ 168.307265, 7.824607 ], [ 168.303568, 7.821862 ], [ 168.303617, 7.828751 ], [ 168.300356, 7.838445 ], [ 168.30187, 7.839206 ], [ 168.307519, 7.828498 ], [ 168.307265, 7.824607 ] ] ], [ [ [ 171.594642, 7.004017 ], [ 171.592899, 7.003131 ], [ 171.582657, 7.019139 ], [ 171.581374, 7.02396 ], [ 171.583211, 7.024333 ], [ 171.586076, 7.017494 ], [ 171.594642, 7.004017 ] ] ], [ [ [ 171.915186, 6.06643 ], [ 171.914073, 6.063245 ], [ 171.90965, 6.065885 ], [ 171.895719, 6.069858 ], [ 171.89507, 6.070637 ], [ 171.896088, 6.07161 ], [ 171.904676, 6.070464 ], [ 171.909929, 6.067547 ], [ 171.915186, 6.06643 ] ] ], [ [ [ 167.255368, 9.103664 ], [ 167.251309, 9.102619 ], [ 167.243631, 9.107205 ], [ 167.247375, 9.112573 ], [ 167.251621, 9.106872 ], [ 167.255368, 9.103664 ] ] ], [ [ [ 165.295792, 11.699394 ], [ 165.290953, 11.698445 ], [ 165.285978, 11.699677 ], [ 165.286258, 11.702674 ], [ 165.295281, 11.705319 ], [ 165.295792, 11.699394 ] ] ], [ [ [ 172.10157, 6.146309 ], [ 172.098048, 6.145503 ], [ 172.09767, 6.151304 ], [ 172.099552, 6.152276 ], [ 172.095107, 6.157704 ], [ 172.098215, 6.161205 ], [ 172.101849, 6.150103 ], [ 172.10157, 6.146309 ] ] ], [ [ [ 171.57051, 7.122814 ], [ 171.56786, 7.116163 ], [ 171.566199, 7.116552 ], [ 171.565156, 7.12411 ], [ 171.567698, 7.127337 ], [ 171.572903, 7.12616 ], [ 171.57051, 7.122814 ] ] ], [ [ [ 168.800441, 7.275894 ], [ 168.793186, 7.275859 ], [ 168.788873, 7.27993 ], [ 168.792638, 7.281937 ], [ 168.801446, 7.278005 ], [ 168.800441, 7.275894 ] ] ], [ [ [ 172.113348, 5.991718 ], [ 172.111478, 5.989321 ], [ 172.105783, 6.005603 ], [ 172.109517, 6.007462 ], [ 172.109903, 6.000793 ], [ 172.113348, 5.991718 ] ] ], [ [ [ 167.065835, 9.33795 ], [ 167.057485, 9.332753 ], [ 167.051461, 9.333482 ], [ 167.051671, 9.335374 ], [ 167.064801, 9.339629 ], [ 167.065835, 9.33795 ] ] ], [ [ [ 168.666355, 4.615949 ], [ 168.670075, 4.61039 ], [ 168.673936, 4.61081 ], [ 168.67378, 4.607883 ], [ 168.666646, 4.607726 ], [ 168.662798, 4.612223 ], [ 168.666355, 4.615949 ] ] ], [ [ [ 168.942378, 7.524869 ], [ 168.941983, 7.521017 ], [ 168.939701, 7.523013 ], [ 168.93885, 7.529383 ], [ 168.942745, 7.534772 ], [ 168.945096, 7.532858 ], [ 168.942378, 7.524869 ] ] ], [ [ [ 171.853613, 6.237247 ], [ 171.849667, 6.236363 ], [ 171.842442, 6.240203 ], [ 171.841226, 6.242375 ], [ 171.84421, 6.24332 ], [ 171.853792, 6.238933 ], [ 171.854197, 6.238561 ], [ 171.854088, 6.237527 ], [ 171.853613, 6.237247 ] ] ], [ [ [ 166.860256, 9.318101 ], [ 166.863276, 9.314932 ], [ 166.866756, 9.315184 ], [ 166.867598, 9.311326 ], [ 166.861132, 9.31136 ], [ 166.855865, 9.315193 ], [ 166.860256, 9.318101 ] ] ], [ [ [ 168.96991, 7.575766 ], [ 168.962441, 7.564315 ], [ 168.960374, 7.56601 ], [ 168.963629, 7.572395 ], [ 168.968396, 7.578267 ], [ 168.96991, 7.575766 ] ] ], [ [ [ 172.110901, 6.086212 ], [ 172.107724, 6.081935 ], [ 172.106469, 6.082918 ], [ 172.107558, 6.08946 ], [ 172.106277, 6.090194 ], [ 172.106281, 6.092373 ], [ 172.109281, 6.094298 ], [ 172.111721, 6.092361 ], [ 172.110901, 6.086212 ] ] ], [ [ [ 171.85142, 6.059748 ], [ 171.836711, 6.051627 ], [ 171.83535, 6.052545 ], [ 171.838836, 6.056447 ], [ 171.850614, 6.061393 ], [ 171.85142, 6.059748 ] ] ], [ [ [ 169.412015, 6.258093 ], [ 169.408081, 6.255364 ], [ 169.405869, 6.268139 ], [ 169.409269, 6.267333 ], [ 169.412015, 6.258093 ] ] ], [ [ [ 168.684555, 7.306675 ], [ 168.685005, 7.304263 ], [ 168.681347, 7.305215 ], [ 168.67145, 7.310535 ], [ 168.670158, 7.312932 ], [ 168.672919, 7.314309 ], [ 168.674032, 7.312019 ], [ 168.684555, 7.306675 ] ] ], [ [ [ 169.986108, 10.252868 ], [ 169.982271, 10.252564 ], [ 169.98211, 10.256656 ], [ 169.980318, 10.261815 ], [ 169.985165, 10.262791 ], [ 169.986391, 10.256671 ], [ 169.986108, 10.252868 ] ] ], [ [ [ 169.982727, 10.270058 ], [ 169.978739, 10.269305 ], [ 169.977731, 10.27276 ], [ 169.977743, 10.277017 ], [ 169.979146, 10.279744 ], [ 169.98244, 10.278012 ], [ 169.982727, 10.270058 ] ] ], [ [ [ 171.381615, 7.10125 ], [ 171.378048, 7.099331 ], [ 171.375145, 7.105786 ], [ 171.372624, 7.105863 ], [ 171.369339, 7.110523 ], [ 171.372901, 7.11113 ], [ 171.381615, 7.10125 ] ] ], [ [ [ 166.372337, 11.125322 ], [ 166.37953, 11.122784 ], [ 166.383985, 11.124023 ], [ 166.385056, 11.119159 ], [ 166.377216, 11.120241 ], [ 166.371279, 11.123339 ], [ 166.372337, 11.125322 ] ] ], [ [ [ 166.717585, 11.208463 ], [ 166.715441, 11.204083 ], [ 166.705047, 11.209688 ], [ 166.708346, 11.21237 ], [ 166.7123, 11.209376 ], [ 166.717585, 11.208463 ] ] ], [ [ [ 171.995404, 6.044751 ], [ 171.996565, 6.038717 ], [ 171.990721, 6.03978 ], [ 171.984368, 6.038561 ], [ 171.981664, 6.040235 ], [ 171.982777, 6.041762 ], [ 171.991854, 6.041684 ], [ 171.995404, 6.044751 ] ] ], [ [ [ 170.198505, 9.379739 ], [ 170.193559, 9.376186 ], [ 170.189469, 9.380003 ], [ 170.196998, 9.381221 ], [ 170.199885, 9.386672 ], [ 170.203271, 9.386325 ], [ 170.198505, 9.379739 ] ] ], [ [ [ 169.963568, 10.444985 ], [ 169.959629, 10.440654 ], [ 169.956326, 10.45009 ], [ 169.960138, 10.451722 ], [ 169.963568, 10.444985 ] ] ], [ [ [ 166.798833, 11.464058 ], [ 166.798703, 11.461201 ], [ 166.793352, 11.461916 ], [ 166.793284, 11.458445 ], [ 166.789883, 11.458465 ], [ 166.787207, 11.461278 ], [ 166.792876, 11.464947 ], [ 166.798833, 11.464058 ] ] ], [ [ [ 168.771691, 4.620302 ], [ 168.771945, 4.614489 ], [ 168.767932, 4.615747 ], [ 168.766917, 4.618268 ], [ 168.768781, 4.620543 ], [ 168.766317, 4.622038 ], [ 168.766949, 4.626826 ], [ 168.771149, 4.624347 ], [ 168.769632, 4.621054 ], [ 168.771691, 4.620302 ] ] ], [ [ [ 169.672671, 5.949372 ], [ 169.66712, 5.946836 ], [ 169.665506, 5.947965 ], [ 169.665706, 5.949358 ], [ 169.671789, 5.951999 ], [ 169.670647, 5.954704 ], [ 169.673029, 5.958494 ], [ 169.676603, 5.955967 ], [ 169.672286, 5.951112 ], [ 169.672671, 5.949372 ] ] ], [ [ [ 166.3043, 11.142598 ], [ 166.30583, 11.140087 ], [ 166.311178, 11.141848 ], [ 166.31115, 11.135658 ], [ 166.307066, 11.137582 ], [ 166.301448, 11.136473 ], [ 166.301904, 11.140713 ], [ 166.3043, 11.142598 ] ] ], [ [ [ 166.878759, 11.15899 ], [ 166.877705, 11.15621 ], [ 166.873179, 11.155491 ], [ 166.8635, 11.155473 ], [ 166.8625, 11.156399 ], [ 166.865471, 11.158179 ], [ 166.872328, 11.157759 ], [ 166.874235, 11.159499 ], [ 166.878759, 11.15899 ] ] ], [ [ [ 167.568146, 9.017642 ], [ 167.565917, 9.014912 ], [ 167.560479, 9.027031 ], [ 167.56202, 9.030041 ], [ 167.565305, 9.025899 ], [ 167.565274, 9.021506 ], [ 167.568146, 9.017642 ] ] ], [ [ [ 166.492844, 11.114775 ], [ 166.480701, 11.114277 ], [ 166.478025, 11.115545 ], [ 166.479031, 11.119025 ], [ 166.480998, 11.117204 ], [ 166.493233, 11.117201 ], [ 166.492844, 11.114775 ] ] ], [ [ [ 168.670228, 7.317159 ], [ 168.667336, 7.314865 ], [ 168.663707, 7.315884 ], [ 168.66284, 7.318157 ], [ 168.659821, 7.318444 ], [ 168.658371, 7.322339 ], [ 168.663561, 7.323282 ], [ 168.663866, 7.31982 ], [ 168.670228, 7.317159 ] ] ], [ [ [ 166.684971, 11.210722 ], [ 166.679469, 11.210594 ], [ 166.673582, 11.212503 ], [ 166.671791, 11.215189 ], [ 166.674053, 11.215844 ], [ 166.685384, 11.212739 ], [ 166.684971, 11.210722 ] ] ], [ [ [ 169.667492, 11.116371 ], [ 169.667795, 11.108932 ], [ 169.662142, 11.109438 ], [ 169.663462, 11.118456 ], [ 169.667492, 11.116371 ] ] ], [ [ [ 171.707429, 6.978034 ], [ 171.707633, 6.976082 ], [ 171.701973, 6.977633 ], [ 171.696899, 6.983023 ], [ 171.697731, 6.986278 ], [ 171.707429, 6.978034 ] ] ], [ [ [ 169.593855, 6.092826 ], [ 169.598006, 6.083914 ], [ 169.595291, 6.084089 ], [ 169.592838, 6.08871 ], [ 169.589345, 6.098984 ], [ 169.591198, 6.100272 ], [ 169.593855, 6.092826 ] ] ], [ [ [ 169.014986, 14.633978 ], [ 169.011091, 14.633683 ], [ 169.009985, 14.637076 ], [ 169.011982, 14.639187 ], [ 169.011018, 14.641795 ], [ 169.015881, 14.641549 ], [ 169.016558, 14.63844 ], [ 169.014986, 14.633978 ] ] ], [ [ [ 167.774339, 8.893323 ], [ 167.771656, 8.889347 ], [ 167.770041, 8.890087 ], [ 167.770984, 8.899705 ], [ 167.770295, 8.904075 ], [ 167.773151, 8.903689 ], [ 167.773234, 8.895617 ], [ 167.774339, 8.893323 ] ] ], [ [ [ 171.782451, 7.03519 ], [ 171.779546, 7.0349 ], [ 171.784988, 7.043113 ], [ 171.788157, 7.052078 ], [ 171.789919, 7.051628 ], [ 171.786572, 7.041724 ], [ 171.782451, 7.03519 ] ] ], [ [ [ 169.463233, 6.300081 ], [ 169.468106, 6.298811 ], [ 169.467656, 6.296937 ], [ 169.46212, 6.296937 ], [ 169.461914, 6.299862 ], [ 169.458502, 6.298936 ], [ 169.456999, 6.303519 ], [ 169.462793, 6.303687 ], [ 169.463233, 6.300081 ] ] ], [ [ [ 168.942212, 7.488765 ], [ 168.94011, 7.483088 ], [ 168.937502, 7.484833 ], [ 168.937795, 7.492427 ], [ 168.941975, 7.493854 ], [ 168.942212, 7.488765 ] ] ], [ [ [ 167.340825, 9.106099 ], [ 167.339536, 9.103687 ], [ 167.328368, 9.10647 ], [ 167.327017, 9.108513 ], [ 167.328661, 9.109587 ], [ 167.340825, 9.106099 ] ] ], [ [ [ 171.882237, 7.084 ], [ 171.881052, 7.082436 ], [ 171.876612, 7.084931 ], [ 171.86908, 7.085953 ], [ 171.871483, 7.088455 ], [ 171.878726, 7.087878 ], [ 171.882237, 7.084 ] ] ], [ [ [ 171.045077, 8.359029 ], [ 171.040962, 8.357366 ], [ 171.04094, 8.363618 ], [ 171.03918, 8.367376 ], [ 171.04051, 8.368027 ], [ 171.046231, 8.361818 ], [ 171.045077, 8.359029 ] ] ], [ [ [ 167.600652, 8.82268 ], [ 167.596678, 8.822097 ], [ 167.590432, 8.830311 ], [ 167.593213, 8.832974 ], [ 167.594661, 8.829015 ], [ 167.600652, 8.82268 ] ] ], [ [ [ 168.741493, 7.484091 ], [ 168.737093, 7.480688 ], [ 168.733112, 7.481696 ], [ 168.733544, 7.483756 ], [ 168.740308, 7.488537 ], [ 168.741493, 7.484091 ] ] ], [ [ [ 168.559508, 7.390731 ], [ 168.557439, 7.390714 ], [ 168.553893, 7.405329 ], [ 168.555732, 7.406197 ], [ 168.558197, 7.398169 ], [ 168.559508, 7.390731 ] ] ], [ [ [ 171.367426, 7.1187 ], [ 171.365745, 7.117616 ], [ 171.361607, 7.122085 ], [ 171.355471, 7.124211 ], [ 171.356177, 7.125679 ], [ 171.362748, 7.125537 ], [ 171.367426, 7.1187 ] ] ], [ [ [ 169.633709, 5.900598 ], [ 169.630645, 5.892531 ], [ 169.629158, 5.89383 ], [ 169.628998, 5.898023 ], [ 169.630589, 5.903525 ], [ 169.633173, 5.904544 ], [ 169.633709, 5.900598 ] ] ], [ [ [ 166.528608, 11.151569 ], [ 166.524036, 11.150374 ], [ 166.522696, 11.15402 ], [ 166.523707, 11.158175 ], [ 166.525437, 11.158653 ], [ 166.528623, 11.154494 ], [ 166.528608, 11.151569 ] ] ], [ [ [ 172.038293, 6.212512 ], [ 172.032485, 6.210658 ], [ 172.02861, 6.215082 ], [ 172.037758, 6.216321 ], [ 172.038293, 6.212512 ] ] ], [ [ [ 169.275837, 9.892247 ], [ 169.277174, 9.886557 ], [ 169.273643, 9.887317 ], [ 169.268692, 9.892426 ], [ 169.272433, 9.894171 ], [ 169.275837, 9.892247 ] ] ], [ [ [ 169.956754, 10.452997 ], [ 169.954132, 10.452778 ], [ 169.949857, 10.459079 ], [ 169.951606, 10.459951 ], [ 169.956615, 10.458358 ], [ 169.958, 10.455391 ], [ 169.956754, 10.452997 ] ] ], [ [ [ 171.970266, 6.036225 ], [ 171.961705, 6.031518 ], [ 171.958374, 6.033164 ], [ 171.967956, 6.038746 ], [ 171.970266, 6.036225 ] ] ], [ [ [ 168.731862, 7.295374 ], [ 168.738678, 7.29269 ], [ 168.744453, 7.29387 ], [ 168.744555, 7.291866 ], [ 168.741049, 7.289582 ], [ 168.731921, 7.293076 ], [ 168.730633, 7.294599 ], [ 168.731862, 7.295374 ] ] ], [ [ [ 171.329636, 7.075238 ], [ 171.316299, 7.072834 ], [ 171.31524, 7.073602 ], [ 171.316226, 7.074998 ], [ 171.329421, 7.077798 ], [ 171.329636, 7.075238 ] ] ], [ [ [ 168.700545, 7.295359 ], [ 168.698782, 7.292565 ], [ 168.694245, 7.294838 ], [ 168.691737, 7.299749 ], [ 168.694416, 7.30158 ], [ 168.698135, 7.295846 ], [ 168.700545, 7.295359 ] ] ], [ [ [ 168.688407, 4.596779 ], [ 168.684843, 4.594329 ], [ 168.682978, 4.596188 ], [ 168.68483, 4.598202 ], [ 168.685371, 4.604929 ], [ 168.687953, 4.604232 ], [ 168.688407, 4.596779 ] ] ], [ [ [ 167.493996, 9.074999 ], [ 167.492679, 9.0737 ], [ 167.486312, 9.077764 ], [ 167.485579, 9.079545 ], [ 167.489373, 9.082079 ], [ 167.493996, 9.074999 ] ] ], [ [ [ 166.879352, 9.310922 ], [ 166.878021, 9.3087 ], [ 166.873252, 9.309608 ], [ 166.87087, 9.312802 ], [ 166.873565, 9.314491 ], [ 166.877783, 9.313551 ], [ 166.879352, 9.310922 ] ] ], [ [ [ 171.800152, 6.225931 ], [ 171.797113, 6.223037 ], [ 171.793113, 6.223154 ], [ 171.79353, 6.225251 ], [ 171.799603, 6.22814 ], [ 171.803742, 6.228548 ], [ 171.805763, 6.22634 ], [ 171.800152, 6.225931 ] ] ], [ [ [ 168.668922, 4.670069 ], [ 168.666992, 4.662067 ], [ 168.66391, 4.664161 ], [ 168.668072, 4.673432 ], [ 168.671624, 4.672354 ], [ 168.668922, 4.670069 ] ] ], [ [ [ 171.098013, 8.831362 ], [ 171.09576, 8.830616 ], [ 171.092172, 8.834204 ], [ 171.091082, 8.837547 ], [ 171.09376, 8.839082 ], [ 171.096888, 8.835097 ], [ 171.098013, 8.831362 ] ] ], [ [ [ 168.7202, 7.474725 ], [ 168.718874, 7.471502 ], [ 168.715634, 7.474969 ], [ 168.718035, 7.47793 ], [ 168.724476, 7.478767 ], [ 168.724487, 7.476489 ], [ 168.7202, 7.474725 ] ] ], [ [ [ 170.8535, 8.89997 ], [ 170.848579, 8.89705 ], [ 170.843374, 8.901621 ], [ 170.850137, 8.902855 ], [ 170.8535, 8.89997 ] ] ], [ [ [ 167.213482, 9.131783 ], [ 167.212442, 9.130718 ], [ 167.205297, 9.134673 ], [ 167.206959, 9.138597 ], [ 167.208869, 9.13845 ], [ 167.213482, 9.131783 ] ] ], [ [ [ 169.614215, 6.069128 ], [ 169.612912, 6.066634 ], [ 169.610023, 6.069772 ], [ 169.60609, 6.071467 ], [ 169.604184, 6.075895 ], [ 169.606637, 6.075562 ], [ 169.614215, 6.069128 ] ] ], [ [ [ 167.460497, 9.092981 ], [ 167.459529, 9.090979 ], [ 167.453792, 9.092749 ], [ 167.447448, 9.097507 ], [ 167.449363, 9.098609 ], [ 167.454924, 9.094962 ], [ 167.460497, 9.092981 ] ] ], [ [ [ 169.265226, 9.900343 ], [ 169.261525, 9.894775 ], [ 169.258855, 9.895686 ], [ 169.258303, 9.899383 ], [ 169.259889, 9.901901 ], [ 169.265226, 9.900343 ] ] ], [ [ [ 171.726492, 6.172255 ], [ 171.727385, 6.16115 ], [ 171.724573, 6.161602 ], [ 171.724028, 6.168542 ], [ 171.724173, 6.172705 ], [ 171.726492, 6.172255 ] ] ], [ [ [ 167.054809, 11.442358 ], [ 167.054908, 11.439787 ], [ 167.051541, 11.442036 ], [ 167.055226, 11.444791 ], [ 167.056665, 11.449724 ], [ 167.059794, 11.446888 ], [ 167.05803, 11.442546 ], [ 167.054809, 11.442358 ] ] ], [ [ [ 168.701597, 7.472629 ], [ 168.694895, 7.469382 ], [ 168.693098, 7.471306 ], [ 168.695806, 7.474557 ], [ 168.701525, 7.475485 ], [ 168.701597, 7.472629 ] ] ], [ [ [ 169.419232, 6.252649 ], [ 169.417943, 6.249657 ], [ 169.412225, 6.251069 ], [ 169.410338, 6.253397 ], [ 169.414816, 6.255343 ], [ 169.419232, 6.252649 ] ] ], [ [ [ 167.528655, 9.050361 ], [ 167.524529, 9.04995 ], [ 167.519689, 9.054294 ], [ 167.523977, 9.05537 ], [ 167.528381, 9.053291 ], [ 167.528655, 9.050361 ] ] ], [ [ [ 168.905349, 7.570356 ], [ 168.900461, 7.567692 ], [ 168.899311, 7.570458 ], [ 168.901925, 7.572828 ], [ 168.907695, 7.573642 ], [ 168.908759, 7.570766 ], [ 168.905349, 7.570356 ] ] ], [ [ [ 171.169104, 8.185875 ], [ 171.165987, 8.185442 ], [ 171.160336, 8.191271 ], [ 171.16539, 8.192453 ], [ 171.169104, 8.185875 ] ] ], [ [ [ 167.506509, 9.067301 ], [ 167.507522, 9.061811 ], [ 167.504381, 9.063399 ], [ 167.499946, 9.067868 ], [ 167.503638, 9.069932 ], [ 167.506509, 9.067301 ] ] ], [ [ [ 165.385821, 11.502381 ], [ 165.380665, 11.501371 ], [ 165.375303, 11.502673 ], [ 165.375771, 11.504555 ], [ 165.386598, 11.504795 ], [ 165.385821, 11.502381 ] ] ], [ [ [ 169.624872, 6.060362 ], [ 169.619225, 6.059404 ], [ 169.6168, 6.06088 ], [ 169.620825, 6.065199 ], [ 169.622707, 6.065473 ], [ 169.624872, 6.060362 ] ] ], [ [ [ 169.45286, 6.224316 ], [ 169.448374, 6.223378 ], [ 169.445971, 6.231432 ], [ 169.449149, 6.230647 ], [ 169.45286, 6.224316 ] ] ], [ [ [ 171.080992, 7.218966 ], [ 171.080293, 7.214388 ], [ 171.072783, 7.218714 ], [ 171.075715, 7.220954 ], [ 171.080992, 7.218966 ] ] ], [ [ [ 169.958025, 9.519748 ], [ 169.950471, 9.519035 ], [ 169.949744, 9.519998 ], [ 169.951118, 9.524149 ], [ 169.956324, 9.522616 ], [ 169.958025, 9.519748 ] ] ], [ [ [ 169.630842, 5.878392 ], [ 169.626396, 5.868171 ], [ 169.624787, 5.868929 ], [ 169.627339, 5.878694 ], [ 169.630842, 5.878392 ] ] ], [ [ [ 169.468201, 5.931609 ], [ 169.470109, 5.92813 ], [ 169.45998, 5.930003 ], [ 169.458549, 5.932533 ], [ 169.468201, 5.931609 ] ] ], [ [ [ 170.219913, 9.399073 ], [ 170.218224, 9.392869 ], [ 170.212425, 9.394329 ], [ 170.217358, 9.39963 ], [ 170.219913, 9.399073 ] ] ], [ [ [ 171.065407, 7.22027 ], [ 171.056743, 7.215398 ], [ 171.056017, 7.217318 ], [ 171.059944, 7.221136 ], [ 171.064118, 7.222257 ], [ 171.065407, 7.22027 ] ] ], [ [ [ 168.26018, 7.916135 ], [ 168.257956, 7.915023 ], [ 168.253483, 7.921709 ], [ 168.256161, 7.923514 ], [ 168.258743, 7.920466 ], [ 168.26018, 7.916135 ] ] ], [ [ [ 166.217983, 8.925037 ], [ 166.221391, 8.92035 ], [ 166.225065, 8.92076 ], [ 166.225701, 8.918185 ], [ 166.219125, 8.918391 ], [ 166.216693, 8.921405 ], [ 166.217983, 8.925037 ] ] ], [ [ [ 167.421508, 9.107977 ], [ 167.419479, 9.107326 ], [ 167.413751, 9.110154 ], [ 167.413636, 9.112811 ], [ 167.417115, 9.113585 ], [ 167.421508, 9.107977 ] ] ], [ [ [ 169.975053, 10.393276 ], [ 169.969939, 10.391179 ], [ 169.969144, 10.393257 ], [ 169.970005, 10.396948 ], [ 169.973857, 10.397822 ], [ 169.975053, 10.393276 ] ] ], [ [ [ 169.625376, 5.856699 ], [ 169.623092, 5.854547 ], [ 169.622458, 5.858019 ], [ 169.623367, 5.865717 ], [ 169.62562, 5.86527 ], [ 169.625376, 5.856699 ] ] ], [ [ [ 171.936495, 6.242643 ], [ 171.936893, 6.238306 ], [ 171.930806, 6.24184 ], [ 171.929434, 6.245049 ], [ 171.931939, 6.245318 ], [ 171.936495, 6.242643 ] ] ], [ [ [ 167.285317, 9.09423 ], [ 167.278485, 9.093536 ], [ 167.275008, 9.09566 ], [ 167.276131, 9.096943 ], [ 167.285565, 9.096303 ], [ 167.285317, 9.09423 ] ] ], [ [ [ 170.186554, 9.520302 ], [ 170.185747, 9.517471 ], [ 170.180307, 9.522175 ], [ 170.177857, 9.526208 ], [ 170.180296, 9.527021 ], [ 170.183559, 9.521834 ], [ 170.186554, 9.520302 ] ] ], [ [ [ 172.009717, 6.206601 ], [ 172.004557, 6.205419 ], [ 172.000459, 6.207148 ], [ 172.001918, 6.208865 ], [ 172.010119, 6.208983 ], [ 172.009717, 6.206601 ] ] ], [ [ [ 171.909613, 7.086508 ], [ 171.907255, 7.084845 ], [ 171.904138, 7.086239 ], [ 171.902537, 7.089701 ], [ 171.909412, 7.089644 ], [ 171.909613, 7.086508 ] ] ], [ [ [ 171.06638, 8.86219 ], [ 171.065046, 8.861496 ], [ 171.058795, 8.864763 ], [ 171.059438, 8.867661 ], [ 171.064058, 8.866434 ], [ 171.06638, 8.86219 ] ] ], [ [ [ 170.894841, 8.904805 ], [ 170.896173, 8.901275 ], [ 170.886278, 8.904557 ], [ 170.888627, 8.906715 ], [ 170.894841, 8.904805 ] ] ], [ [ [ 171.0212, 8.60634 ], [ 171.018036, 8.605501 ], [ 171.013143, 8.61392 ], [ 171.015791, 8.613604 ], [ 171.0212, 8.60634 ] ] ], [ [ [ 171.684251, 6.99229 ], [ 171.679225, 6.990831 ], [ 171.676099, 6.995674 ], [ 171.677906, 6.997279 ], [ 171.684251, 6.99229 ] ] ], [ [ [ 167.320111, 9.113712 ], [ 167.320348, 9.106674 ], [ 167.31591, 9.107394 ], [ 167.316133, 9.111767 ], [ 167.320111, 9.113712 ] ] ], [ [ [ 170.043691, 9.019812 ], [ 170.039569, 9.018464 ], [ 170.037244, 9.020764 ], [ 170.036289, 9.024536 ], [ 170.037814, 9.02514 ], [ 170.043691, 9.019812 ] ] ], [ [ [ 166.231549, 8.959915 ], [ 166.223385, 8.957188 ], [ 166.222933, 8.959943 ], [ 166.227866, 8.962681 ], [ 166.231549, 8.959915 ] ] ], [ [ [ 166.295485, 11.141674 ], [ 166.291081, 11.139861 ], [ 166.287413, 11.143204 ], [ 166.287962, 11.14493 ], [ 166.293344, 11.144096 ], [ 166.295485, 11.141674 ] ] ], [ [ [ 166.028514, 10.039916 ], [ 166.028376, 10.03525 ], [ 166.026145, 10.035257 ], [ 166.024807, 10.04312 ], [ 166.027165, 10.044341 ], [ 166.028514, 10.039916 ] ] ], [ [ [ 169.877347, 9.529687 ], [ 169.87833, 9.526211 ], [ 169.868774, 9.527673 ], [ 169.869829, 9.529663 ], [ 169.877347, 9.529687 ] ] ], [ [ [ 171.984379, 6.206144 ], [ 171.98192, 6.205501 ], [ 171.977144, 6.211076 ], [ 171.978243, 6.213033 ], [ 171.98322, 6.208994 ], [ 171.984379, 6.206144 ] ] ], [ [ [ 167.199946, 9.138695 ], [ 167.199348, 9.136303 ], [ 167.189306, 9.137993 ], [ 167.18856, 9.138997 ], [ 167.189552, 9.139765 ], [ 167.199946, 9.138695 ] ] ], [ [ [ 167.242254, 9.114852 ], [ 167.240102, 9.111009 ], [ 167.233648, 9.116144 ], [ 167.234849, 9.117033 ], [ 167.242254, 9.114852 ] ] ], [ [ [ 171.886497, 6.236457 ], [ 171.885143, 6.233314 ], [ 171.882218, 6.233425 ], [ 171.881213, 6.237466 ], [ 171.885205, 6.239332 ], [ 171.886497, 6.2374 ], [ 171.886497, 6.236457 ] ] ], [ [ [ 168.020596, 8.187717 ], [ 168.017443, 8.183365 ], [ 168.013937, 8.187379 ], [ 168.016643, 8.18994 ], [ 168.020596, 8.187717 ] ] ], [ [ [ 167.575857, 8.916195 ], [ 167.57201, 8.91368 ], [ 167.570373, 8.918431 ], [ 167.574217, 8.920747 ], [ 167.575857, 8.916195 ] ] ], [ [ [ 172.106486, 6.061507 ], [ 172.104723, 6.057994 ], [ 172.103108, 6.061243 ], [ 172.103741, 6.06632 ], [ 172.106887, 6.06635 ], [ 172.106486, 6.061507 ] ] ], [ [ [ 169.525927, 10.082401 ], [ 169.526995, 10.076509 ], [ 169.522974, 10.077522 ], [ 169.521465, 10.082086 ], [ 169.525927, 10.082401 ] ] ], [ [ [ 171.21699, 7.157847 ], [ 171.208103, 7.157312 ], [ 171.207131, 7.158107 ], [ 171.210528, 7.160629 ], [ 171.215259, 7.160153 ], [ 171.21699, 7.157847 ] ] ], [ [ [ 171.174538, 8.173307 ], [ 171.173709, 8.169067 ], [ 171.172036, 8.1691 ], [ 171.170484, 8.17659 ], [ 171.17354, 8.176833 ], [ 171.174538, 8.173307 ] ] ], [ [ [ 170.055729, 9.36729 ], [ 170.049478, 9.36293 ], [ 170.048403, 9.364325 ], [ 170.051986, 9.366967 ], [ 170.053655, 9.370584 ], [ 170.056736, 9.369481 ], [ 170.055729, 9.36729 ] ] ], [ [ [ 166.444856, 11.123381 ], [ 166.437344, 11.122476 ], [ 166.435379, 11.124129 ], [ 166.439356, 11.125706 ], [ 166.445342, 11.125114 ], [ 166.444856, 11.123381 ] ] ], [ [ [ 169.843971, 11.244494 ], [ 169.840281, 11.240296 ], [ 169.836699, 11.243898 ], [ 169.843913, 11.246341 ], [ 169.843971, 11.244494 ] ] ], [ [ [ 167.312472, 9.104154 ], [ 167.305931, 9.103194 ], [ 167.304625, 9.105026 ], [ 167.310283, 9.108019 ], [ 167.312472, 9.104154 ] ] ], [ [ [ 171.266317, 7.062169 ], [ 171.260794, 7.059729 ], [ 171.258144, 7.061328 ], [ 171.26422, 7.065174 ], [ 171.266317, 7.062169 ] ] ], [ [ [ 172.147803, 5.921781 ], [ 172.151716, 5.914534 ], [ 172.148102, 5.914542 ], [ 172.145724, 5.920675 ], [ 172.147803, 5.921781 ] ] ], [ [ [ 166.851084, 9.318646 ], [ 166.847195, 9.317618 ], [ 166.84674, 9.319182 ], [ 166.842074, 9.320443 ], [ 166.845762, 9.323256 ], [ 166.851084, 9.318646 ] ] ], [ [ [ 168.957207, 7.555837 ], [ 168.951833, 7.549487 ], [ 168.949999, 7.551352 ], [ 168.955044, 7.557228 ], [ 168.957207, 7.555837 ] ] ], [ [ [ 166.340837, 11.125504 ], [ 166.340592, 11.122848 ], [ 166.333908, 11.127436 ], [ 166.336689, 11.129889 ], [ 166.340837, 11.125504 ] ] ], [ [ [ 169.64469, 5.918987 ], [ 169.643018, 5.917259 ], [ 169.639953, 5.92471 ], [ 169.642142, 5.925644 ], [ 169.64469, 5.921474 ], [ 169.64469, 5.918987 ] ] ], [ [ [ 171.97862, 6.03893 ], [ 171.971961, 6.036981 ], [ 171.970926, 6.038028 ], [ 171.971965, 6.040453 ], [ 171.977026, 6.041419 ], [ 171.97862, 6.03893 ] ] ], [ [ [ 171.685588, 7.126265 ], [ 171.680865, 7.125797 ], [ 171.682954, 7.13184 ], [ 171.686338, 7.129644 ], [ 171.685588, 7.126265 ] ] ], [ [ [ 172.172875, 5.8792 ], [ 172.17151, 5.876209 ], [ 172.168658, 5.876759 ], [ 172.166673, 5.880042 ], [ 172.170842, 5.881516 ], [ 172.172875, 5.8792 ] ] ], [ [ [ 168.565141, 7.459334 ], [ 168.561977, 7.458413 ], [ 168.564806, 7.465356 ], [ 168.568362, 7.464564 ], [ 168.565141, 7.459334 ] ] ], [ [ [ 169.232419, 9.829549 ], [ 169.231859, 9.827851 ], [ 169.226251, 9.82878 ], [ 169.225823, 9.831514 ], [ 169.227384, 9.833036 ], [ 169.232419, 9.829549 ] ] ], [ [ [ 168.683334, 4.605904 ], [ 168.682534, 4.603427 ], [ 168.675063, 4.605617 ], [ 168.677262, 4.60812 ], [ 168.683334, 4.605904 ] ] ], [ [ [ 168.727152, 4.577202 ], [ 168.722654, 4.576489 ], [ 168.721024, 4.578428 ], [ 168.722412, 4.580352 ], [ 168.727545, 4.580494 ], [ 168.727152, 4.577202 ] ] ], [ [ [ 168.734405, 4.581669 ], [ 168.729454, 4.580231 ], [ 168.728124, 4.581697 ], [ 168.729713, 4.584005 ], [ 168.735045, 4.584869 ], [ 168.734405, 4.581669 ] ] ], [ [ [ 168.744811, 4.590817 ], [ 168.739458, 4.585724 ], [ 168.738182, 4.586676 ], [ 168.739232, 4.589839 ], [ 168.744241, 4.592869 ], [ 168.744811, 4.590817 ] ] ], [ [ [ 168.764271, 4.602678 ], [ 168.756991, 4.600753 ], [ 168.755771, 4.603333 ], [ 168.763472, 4.604985 ], [ 168.764271, 4.602678 ] ] ], [ [ [ 168.760813, 4.675373 ], [ 168.757947, 4.671238 ], [ 168.756289, 4.675359 ], [ 168.757101, 4.678662 ], [ 168.75957, 4.678257 ], [ 168.760813, 4.675373 ] ] ], [ [ [ 168.685529, 4.677903 ], [ 168.680929, 4.674997 ], [ 168.679477, 4.67875 ], [ 168.684942, 4.68108 ], [ 168.685529, 4.677903 ] ] ], [ [ [ 169.631157, 5.890354 ], [ 169.631299, 5.882122 ], [ 169.628195, 5.883977 ], [ 169.628028, 5.888631 ], [ 169.631157, 5.890354 ] ] ], [ [ [ 169.51109, 5.887791 ], [ 169.507846, 5.884689 ], [ 169.506529, 5.89071 ], [ 169.509126, 5.892671 ], [ 169.51109, 5.887791 ] ] ], [ [ [ 172.162601, 5.908847 ], [ 172.162371, 5.904246 ], [ 172.156748, 5.906581 ], [ 172.156544, 5.908847 ], [ 172.162601, 5.908847 ] ] ], [ [ [ 169.637128, 5.906814 ], [ 169.633858, 5.904969 ], [ 169.633073, 5.907191 ], [ 169.636537, 5.911839 ], [ 169.638973, 5.910202 ], [ 169.637128, 5.906814 ] ] ], [ [ [ 169.482593, 5.918164 ], [ 169.477115, 5.917031 ], [ 169.476766, 5.921066 ], [ 169.481467, 5.921751 ], [ 169.482593, 5.918164 ] ] ], [ [ [ 169.642767, 5.929594 ], [ 169.636636, 5.92845 ], [ 169.635364, 5.930846 ], [ 169.641913, 5.932979 ], [ 169.642767, 5.929594 ] ] ], [ [ [ 169.650686, 5.934017 ], [ 169.648218, 5.931237 ], [ 169.644972, 5.932055 ], [ 169.644972, 5.936028 ], [ 169.646987, 5.936437 ], [ 169.650686, 5.934017 ] ] ], [ [ [ 169.686647, 5.964608 ], [ 169.681703, 5.959671 ], [ 169.678645, 5.961102 ], [ 169.682589, 5.965074 ], [ 169.686647, 5.964608 ] ] ], [ [ [ 169.702456, 5.969569 ], [ 169.699047, 5.968286 ], [ 169.69698, 5.969569 ], [ 169.698649, 5.973558 ], [ 169.701467, 5.973564 ], [ 169.702456, 5.969569 ] ] ], [ [ [ 169.71434, 5.97326 ], [ 169.707994, 5.97174 ], [ 169.706647, 5.972708 ], [ 169.706663, 5.974078 ], [ 169.712331, 5.976262 ], [ 169.71434, 5.97326 ] ] ], [ [ [ 172.059153, 6.018646 ], [ 172.058164, 6.012772 ], [ 172.054305, 6.014823 ], [ 172.056613, 6.019826 ], [ 172.059153, 6.018646 ] ] ], [ [ [ 171.934221, 6.054348 ], [ 171.930138, 6.05032 ], [ 171.927081, 6.054632 ], [ 171.928292, 6.056013 ], [ 171.934221, 6.054348 ] ] ], [ [ [ 172.104452, 6.05439 ], [ 172.102527, 6.052298 ], [ 172.098891, 6.052466 ], [ 172.10035, 6.056817 ], [ 172.103311, 6.057699 ], [ 172.104452, 6.05439 ] ] ], [ [ [ 172.109328, 6.104104 ], [ 172.109748, 6.098046 ], [ 172.105211, 6.099353 ], [ 172.105435, 6.102814 ], [ 172.109328, 6.104104 ] ] ], [ [ [ 172.10116, 6.131348 ], [ 172.099356, 6.125148 ], [ 172.09678, 6.126726 ], [ 172.097048, 6.131871 ], [ 172.10116, 6.131348 ] ] ], [ [ [ 171.732439, 6.132979 ], [ 171.73224, 6.12625 ], [ 171.72911, 6.127214 ], [ 171.72895, 6.132605 ], [ 171.732439, 6.132979 ] ] ], [ [ [ 171.733297, 6.139926 ], [ 171.730107, 6.138205 ], [ 171.728865, 6.14437 ], [ 171.731112, 6.146251 ], [ 171.733297, 6.139926 ] ] ], [ [ [ 171.730153, 6.159489 ], [ 171.730831, 6.152937 ], [ 171.728639, 6.153476 ], [ 171.725802, 6.159457 ], [ 171.730153, 6.159489 ] ] ], [ [ [ 172.097601, 6.163542 ], [ 172.092606, 6.162719 ], [ 172.091091, 6.16772 ], [ 172.092974, 6.168644 ], [ 172.097601, 6.163542 ] ] ], [ [ [ 169.461488, 6.184676 ], [ 169.46168, 6.18175 ], [ 169.456562, 6.182101 ], [ 169.456189, 6.184661 ], [ 169.456548, 6.186857 ], [ 169.461488, 6.184676 ] ] ], [ [ [ 169.466345, 6.205489 ], [ 169.46645, 6.198017 ], [ 169.464174, 6.198692 ], [ 169.462569, 6.204344 ], [ 169.466345, 6.205489 ] ] ], [ [ [ 172.048551, 6.214999 ], [ 172.047833, 6.212149 ], [ 172.041069, 6.213232 ], [ 172.041786, 6.216082 ], [ 172.048551, 6.214999 ] ] ], [ [ [ 172.075998, 6.22078 ], [ 172.076354, 6.216579 ], [ 172.069064, 6.220429 ], [ 172.070527, 6.222069 ], [ 172.075998, 6.22078 ] ] ], [ [ [ 169.446378, 6.231882 ], [ 169.442739, 6.230913 ], [ 169.440553, 6.234535 ], [ 169.445623, 6.236485 ], [ 169.446378, 6.231882 ] ] ], [ [ [ 171.879624, 6.235706 ], [ 171.878728, 6.233291 ], [ 171.873871, 6.233868 ], [ 171.873871, 6.237109 ], [ 171.878462, 6.237593 ], [ 171.879624, 6.235706 ] ] ], [ [ [ 171.893555, 6.241311 ], [ 171.892353, 6.237076 ], [ 171.886666, 6.23971 ], [ 171.888375, 6.241973 ], [ 171.893555, 6.241311 ] ] ], [ [ [ 171.902571, 6.247013 ], [ 171.900862, 6.24169 ], [ 171.896728, 6.244115 ], [ 171.900438, 6.248344 ], [ 171.902571, 6.247013 ] ] ], [ [ [ 169.437797, 6.246928 ], [ 169.43676, 6.243475 ], [ 169.432705, 6.243631 ], [ 169.431602, 6.24691 ], [ 169.434213, 6.247823 ], [ 169.437797, 6.246928 ] ] ], [ [ [ 171.927218, 6.252718 ], [ 171.925538, 6.251388 ], [ 171.922432, 6.253041 ], [ 171.922623, 6.257432 ], [ 171.925913, 6.256695 ], [ 171.927218, 6.252718 ] ] ], [ [ [ 171.914592, 6.25457 ], [ 171.910238, 6.252481 ], [ 171.909199, 6.25457 ], [ 171.911859, 6.25796 ], [ 171.915333, 6.257515 ], [ 171.914592, 6.25457 ] ] ], [ [ [ 169.477173, 6.290291 ], [ 169.473104, 6.289006 ], [ 169.472519, 6.294115 ], [ 169.476141, 6.295128 ], [ 169.477173, 6.290291 ] ] ], [ [ [ 171.757119, 6.956798 ], [ 171.752939, 6.955949 ], [ 171.75154, 6.957478 ], [ 171.757248, 6.96137 ], [ 171.758691, 6.959204 ], [ 171.757119, 6.956798 ] ] ], [ [ [ 171.741222, 6.960115 ], [ 171.73916, 6.957291 ], [ 171.732629, 6.961349 ], [ 171.733475, 6.962768 ], [ 171.741222, 6.960115 ] ] ], [ [ [ 171.730742, 6.964109 ], [ 171.728502, 6.962103 ], [ 171.722427, 6.967363 ], [ 171.724738, 6.968392 ], [ 171.730742, 6.964109 ] ] ], [ [ [ 171.765956, 7.021934 ], [ 171.762537, 7.019551 ], [ 171.760325, 7.021352 ], [ 171.761995, 7.025031 ], [ 171.765775, 7.024316 ], [ 171.765956, 7.021934 ] ] ], [ [ [ 171.778701, 7.032298 ], [ 171.771729, 7.027707 ], [ 171.769626, 7.029031 ], [ 171.7767, 7.03391 ], [ 171.778701, 7.032298 ] ] ], [ [ [ 171.578868, 7.033384 ], [ 171.57538, 7.032979 ], [ 171.572796, 7.037108 ], [ 171.576329, 7.038992 ], [ 171.578868, 7.033384 ] ] ], [ [ [ 171.801262, 7.063071 ], [ 171.795349, 7.058806 ], [ 171.793208, 7.060757 ], [ 171.800225, 7.065179 ], [ 171.801262, 7.063071 ] ] ], [ [ [ 171.273513, 7.066501 ], [ 171.273062, 7.063128 ], [ 171.266175, 7.064177 ], [ 171.267646, 7.066869 ], [ 171.273513, 7.066501 ] ] ], [ [ [ 171.285239, 7.067097 ], [ 171.278616, 7.065445 ], [ 171.27718, 7.06655 ], [ 171.279085, 7.068611 ], [ 171.283933, 7.069822 ], [ 171.285239, 7.067097 ] ] ], [ [ [ 171.300751, 7.067891 ], [ 171.293284, 7.067611 ], [ 171.292108, 7.068975 ], [ 171.293168, 7.070042 ], [ 171.301465, 7.070214 ], [ 171.300751, 7.067891 ] ] ], [ [ [ 171.862922, 7.076199 ], [ 171.860069, 7.073638 ], [ 171.855986, 7.075955 ], [ 171.861008, 7.079444 ], [ 171.862922, 7.076199 ] ] ], [ [ [ 171.719325, 7.083748 ], [ 171.720524, 7.078275 ], [ 171.714849, 7.080012 ], [ 171.715742, 7.08323 ], [ 171.719325, 7.083748 ] ] ], [ [ [ 171.838818, 7.087872 ], [ 171.839362, 7.084753 ], [ 171.834043, 7.084993 ], [ 171.832524, 7.086928 ], [ 171.833216, 7.088614 ], [ 171.838818, 7.087872 ] ] ], [ [ [ 171.824692, 7.08698 ], [ 171.822004, 7.084668 ], [ 171.81907, 7.085379 ], [ 171.817703, 7.088291 ], [ 171.822833, 7.089158 ], [ 171.824692, 7.08698 ] ] ], [ [ [ 171.562309, 7.094151 ], [ 171.560463, 7.088292 ], [ 171.557388, 7.089911 ], [ 171.558632, 7.094852 ], [ 171.562309, 7.094151 ] ] ], [ [ [ 171.701733, 7.089224 ], [ 171.697137, 7.088653 ], [ 171.696807, 7.090533 ], [ 171.697561, 7.094534 ], [ 171.699387, 7.094729 ], [ 171.701733, 7.089224 ] ] ], [ [ [ 171.694942, 7.104546 ], [ 171.693224, 7.103228 ], [ 171.689596, 7.106827 ], [ 171.689726, 7.109179 ], [ 171.693334, 7.109081 ], [ 171.694942, 7.104546 ] ] ], [ [ [ 171.347628, 7.123089 ], [ 171.342261, 7.120467 ], [ 171.340627, 7.123294 ], [ 171.34581, 7.126083 ], [ 171.347628, 7.123089 ] ] ], [ [ [ 171.050719, 7.125121 ], [ 171.049687, 7.123416 ], [ 171.043559, 7.130916 ], [ 171.04573, 7.13221 ], [ 171.050719, 7.125121 ] ] ], [ [ [ 171.675234, 7.14046 ], [ 171.670245, 7.140253 ], [ 171.669526, 7.145358 ], [ 171.672287, 7.145515 ], [ 171.675234, 7.14046 ] ] ], [ [ [ 171.590145, 7.146487 ], [ 171.587606, 7.141192 ], [ 171.584528, 7.14487 ], [ 171.58839, 7.148545 ], [ 171.590145, 7.146487 ] ] ], [ [ [ 171.284282, 7.152294 ], [ 171.286611, 7.147744 ], [ 171.280103, 7.148825 ], [ 171.278676, 7.150737 ], [ 171.284282, 7.152294 ] ] ], [ [ [ 171.657249, 7.166167 ], [ 171.655171, 7.163932 ], [ 171.651929, 7.16562 ], [ 171.654899, 7.171428 ], [ 171.657249, 7.166167 ] ] ], [ [ [ 168.769682, 7.278316 ], [ 168.763222, 7.277448 ], [ 168.762511, 7.279319 ], [ 168.764574, 7.280871 ], [ 168.770048, 7.280898 ], [ 168.769682, 7.278316 ] ] ], [ [ [ 168.781293, 7.278752 ], [ 168.774935, 7.277823 ], [ 168.773618, 7.279155 ], [ 168.774919, 7.281149 ], [ 168.781293, 7.281028 ], [ 168.781293, 7.278752 ] ] ], [ [ [ 171.64437, 7.279762 ], [ 171.642809, 7.277699 ], [ 171.640845, 7.281059 ], [ 171.642346, 7.286006 ], [ 171.644246, 7.285748 ], [ 171.64437, 7.279762 ] ] ], [ [ [ 168.730619, 7.297759 ], [ 168.728482, 7.293833 ], [ 168.723146, 7.296996 ], [ 168.725446, 7.298879 ], [ 168.730619, 7.297759 ] ] ], [ [ [ 168.710389, 7.296702 ], [ 168.705064, 7.295041 ], [ 168.70328, 7.296332 ], [ 168.703831, 7.298287 ], [ 168.70982, 7.299354 ], [ 168.710389, 7.296702 ] ] ], [ [ [ 168.722179, 7.298751 ], [ 168.721856, 7.296652 ], [ 168.714976, 7.297254 ], [ 168.713903, 7.298496 ], [ 168.714927, 7.30032 ], [ 168.722179, 7.298751 ] ] ], [ [ [ 168.650236, 7.329732 ], [ 168.647993, 7.329049 ], [ 168.645634, 7.332883 ], [ 168.647021, 7.335054 ], [ 168.650893, 7.333449 ], [ 168.650236, 7.329732 ] ] ], [ [ [ 168.642807, 7.336112 ], [ 168.642266, 7.334041 ], [ 168.634502, 7.338541 ], [ 168.638211, 7.340046 ], [ 168.642807, 7.336112 ] ] ], [ [ [ 168.604478, 7.350839 ], [ 168.603953, 7.346452 ], [ 168.600656, 7.346982 ], [ 168.598436, 7.351355 ], [ 168.604478, 7.350839 ] ] ], [ [ [ 168.880791, 7.364758 ], [ 168.878616, 7.358363 ], [ 168.877169, 7.358454 ], [ 168.875928, 7.364735 ], [ 168.880791, 7.364758 ] ] ], [ [ [ 168.885436, 7.420143 ], [ 168.884029, 7.4173 ], [ 168.880647, 7.418561 ], [ 168.882108, 7.422963 ], [ 168.884471, 7.42392 ], [ 168.885436, 7.420143 ] ] ], [ [ [ 168.6842, 7.469804 ], [ 168.679786, 7.469781 ], [ 168.679222, 7.472256 ], [ 168.683435, 7.474192 ], [ 168.685842, 7.472291 ], [ 168.6842, 7.469804 ] ] ], [ [ [ 168.613563, 7.484575 ], [ 168.610733, 7.482859 ], [ 168.608255, 7.485019 ], [ 168.608995, 7.489086 ], [ 168.611841, 7.487967 ], [ 168.613563, 7.484575 ] ] ], [ [ [ 168.824782, 7.496211 ], [ 168.820695, 7.49607 ], [ 168.817588, 7.500649 ], [ 168.822969, 7.500228 ], [ 168.824782, 7.496211 ] ] ], [ [ [ 168.869089, 7.525541 ], [ 168.867551, 7.521174 ], [ 168.8641, 7.524894 ], [ 168.867981, 7.529247 ], [ 168.869089, 7.525541 ] ] ], [ [ [ 168.878337, 7.538011 ], [ 168.875258, 7.537983 ], [ 168.873261, 7.540513 ], [ 168.874517, 7.542624 ], [ 168.879162, 7.541804 ], [ 168.878337, 7.538011 ] ] ], [ [ [ 168.883772, 7.546532 ], [ 168.882091, 7.543624 ], [ 168.877477, 7.546019 ], [ 168.879364, 7.549756 ], [ 168.883772, 7.546532 ] ] ], [ [ [ 168.268633, 7.763603 ], [ 168.261831, 7.759499 ], [ 168.259988, 7.760417 ], [ 168.260504, 7.761586 ], [ 168.268266, 7.765691 ], [ 168.268633, 7.763603 ] ] ], [ [ [ 168.222768, 7.767957 ], [ 168.221554, 7.766592 ], [ 168.217304, 7.771113 ], [ 168.216036, 7.774368 ], [ 168.217518, 7.775172 ], [ 168.222768, 7.767957 ] ] ], [ [ [ 168.215287, 7.806296 ], [ 168.214038, 7.802757 ], [ 168.208578, 7.80401 ], [ 168.210165, 7.807396 ], [ 168.215287, 7.806296 ] ] ], [ [ [ 168.293324, 7.857751 ], [ 168.291049, 7.856911 ], [ 168.286736, 7.863179 ], [ 168.289617, 7.864158 ], [ 168.293324, 7.857751 ] ] ], [ [ [ 168.276426, 7.876848 ], [ 168.274418, 7.875912 ], [ 168.270718, 7.881872 ], [ 168.273341, 7.883862 ], [ 168.276426, 7.876848 ] ] ], [ [ [ 168.2447, 7.934804 ], [ 168.240877, 7.934779 ], [ 168.237551, 7.938744 ], [ 168.242545, 7.939449 ], [ 168.2447, 7.934804 ] ] ], [ [ [ 171.066523, 8.195906 ], [ 171.0631, 8.193897 ], [ 171.05948, 8.198322 ], [ 171.062772, 8.19968 ], [ 171.066523, 8.195906 ] ] ], [ [ [ 171.01672, 8.228906 ], [ 171.017967, 8.223543 ], [ 171.012142, 8.226265 ], [ 171.012515, 8.229122 ], [ 171.01672, 8.228906 ] ] ], [ [ [ 171.147994, 8.237127 ], [ 171.145132, 8.234781 ], [ 171.143998, 8.241555 ], [ 171.147492, 8.242159 ], [ 171.147994, 8.237127 ] ] ], [ [ [ 171.13991, 8.324272 ], [ 171.138658, 8.320862 ], [ 171.133065, 8.323517 ], [ 171.137383, 8.326553 ], [ 171.13991, 8.324272 ] ] ], [ [ [ 171.180424, 8.489683 ], [ 171.182778, 8.486202 ], [ 171.175896, 8.486515 ], [ 171.175202, 8.489715 ], [ 171.180424, 8.489683 ] ] ], [ [ [ 171.153614, 8.502406 ], [ 171.15419, 8.49867 ], [ 171.148128, 8.500685 ], [ 171.148419, 8.504133 ], [ 171.153614, 8.502406 ] ] ], [ [ [ 171.176449, 8.565895 ], [ 171.173917, 8.564836 ], [ 171.172139, 8.571548 ], [ 171.176107, 8.57122 ], [ 171.176449, 8.565895 ] ] ], [ [ [ 171.198359, 8.742117 ], [ 171.196023, 8.740298 ], [ 171.193452, 8.7409 ], [ 171.19267, 8.743298 ], [ 171.194048, 8.745066 ], [ 171.197534, 8.744861 ], [ 171.198359, 8.742117 ] ] ], [ [ [ 171.192318, 8.749602 ], [ 171.18926, 8.747497 ], [ 171.18644, 8.750073 ], [ 171.189264, 8.754282 ], [ 171.192318, 8.749602 ] ] ], [ [ [ 170.886839, 8.753449 ], [ 170.886839, 8.74882 ], [ 170.882418, 8.74928 ], [ 170.881097, 8.752425 ], [ 170.886839, 8.753449 ] ] ], [ [ [ 171.180039, 8.766505 ], [ 171.178056, 8.764571 ], [ 171.175613, 8.768991 ], [ 171.172669, 8.770521 ], [ 171.174253, 8.771971 ], [ 171.178408, 8.769755 ], [ 171.180039, 8.766505 ] ] ], [ [ [ 167.736379, 8.795804 ], [ 167.734118, 8.793376 ], [ 167.73044, 8.794914 ], [ 167.732953, 8.799915 ], [ 167.736379, 8.795804 ] ] ], [ [ [ 171.132605, 8.799636 ], [ 171.130681, 8.796528 ], [ 171.125395, 8.79916 ], [ 171.130203, 8.802027 ], [ 171.132605, 8.799636 ] ] ], [ [ [ 167.606714, 8.812603 ], [ 167.604561, 8.810653 ], [ 167.600639, 8.814938 ], [ 167.603293, 8.817703 ], [ 167.606714, 8.812603 ] ] ], [ [ [ 170.864269, 8.833858 ], [ 170.860861, 8.833373 ], [ 170.859642, 8.835794 ], [ 170.862451, 8.839238 ], [ 170.864754, 8.837733 ], [ 170.864269, 8.833858 ] ] ], [ [ [ 167.585658, 8.840361 ], [ 167.583755, 8.839238 ], [ 167.579445, 8.844799 ], [ 167.584153, 8.84537 ], [ 167.585658, 8.840361 ] ] ], [ [ [ 167.747093, 8.854927 ], [ 167.743582, 8.846009 ], [ 167.740954, 8.84635 ], [ 167.744883, 8.854323 ], [ 167.747093, 8.854927 ] ] ], [ [ [ 167.753701, 8.863497 ], [ 167.749923, 8.858739 ], [ 167.748303, 8.859606 ], [ 167.74982, 8.863823 ], [ 167.753425, 8.866618 ], [ 167.753701, 8.863497 ] ] ], [ [ [ 171.001918, 8.881619 ], [ 170.996848, 8.88007 ], [ 170.99373, 8.883288 ], [ 170.997746, 8.884756 ], [ 171.001918, 8.881619 ] ] ], [ [ [ 170.985848, 8.88807 ], [ 170.98533, 8.884816 ], [ 170.978145, 8.888932 ], [ 170.979806, 8.89061 ], [ 170.985848, 8.88807 ] ] ], [ [ [ 170.914993, 8.899378 ], [ 170.914548, 8.896151 ], [ 170.909099, 8.896558 ], [ 170.909098, 8.900306 ], [ 170.914993, 8.899378 ] ] ], [ [ [ 170.938385, 8.902776 ], [ 170.93898, 8.899822 ], [ 170.931848, 8.901002 ], [ 170.930659, 8.903662 ], [ 170.938385, 8.902776 ] ] ], [ [ [ 167.573474, 8.909483 ], [ 167.573423, 8.903371 ], [ 167.569616, 8.905673 ], [ 167.570817, 8.911131 ], [ 167.573474, 8.909483 ] ] ], [ [ [ 166.241774, 8.95511 ], [ 166.238021, 8.953561 ], [ 166.234578, 8.955287 ], [ 166.234588, 8.958226 ], [ 166.238527, 8.957478 ], [ 166.241774, 8.95511 ] ] ], [ [ [ 165.699926, 8.959497 ], [ 165.696438, 8.95876 ], [ 165.693454, 8.961491 ], [ 165.693458, 8.963472 ], [ 165.698936, 8.962471 ], [ 165.699926, 8.959497 ] ] ], [ [ [ 167.581011, 8.981562 ], [ 167.577183, 8.980712 ], [ 167.576043, 8.985688 ], [ 167.580892, 8.985654 ], [ 167.581011, 8.981562 ] ] ], [ [ [ 167.728078, 8.99997 ], [ 167.725062, 8.999936 ], [ 167.724229, 9.003207 ], [ 167.726308, 9.006609 ], [ 167.728206, 9.005214 ], [ 167.728078, 8.99997 ] ] ], [ [ [ 170.076553, 9.009682 ], [ 170.072155, 9.009671 ], [ 170.070319, 9.01159 ], [ 170.072218, 9.013497 ], [ 170.07788, 9.012176 ], [ 170.076553, 9.009682 ] ] ], [ [ [ 170.052825, 9.015341 ], [ 170.052028, 9.012513 ], [ 170.044434, 9.016692 ], [ 170.046284, 9.018188 ], [ 170.052825, 9.015341 ] ] ], [ [ [ 167.730675, 9.020426 ], [ 167.729277, 9.017151 ], [ 167.726095, 9.017515 ], [ 167.724668, 9.019456 ], [ 167.727231, 9.021666 ], [ 167.730064, 9.022122 ], [ 167.730675, 9.020426 ] ] ], [ [ [ 165.605106, 9.040434 ], [ 165.603667, 9.037111 ], [ 165.598652, 9.039019 ], [ 165.599375, 9.042344 ], [ 165.605106, 9.040434 ] ] ], [ [ [ 165.598067, 9.044622 ], [ 165.596441, 9.039 ], [ 165.594287, 9.039273 ], [ 165.59223, 9.043583 ], [ 165.598067, 9.044622 ] ] ], [ [ [ 165.687507, 9.062167 ], [ 165.684266, 9.0611 ], [ 165.680492, 9.064059 ], [ 165.686435, 9.066195 ], [ 165.687507, 9.062167 ] ] ], [ [ [ 165.682906, 9.080325 ], [ 165.683879, 9.076096 ], [ 165.679462, 9.076104 ], [ 165.677781, 9.080191 ], [ 165.682906, 9.080325 ] ] ], [ [ [ 167.477047, 9.085063 ], [ 167.473883, 9.083435 ], [ 167.469858, 9.086697 ], [ 167.476573, 9.088366 ], [ 167.477047, 9.085063 ] ] ], [ [ [ 167.299408, 9.097982 ], [ 167.293876, 9.095503 ], [ 167.291105, 9.097355 ], [ 167.299756, 9.100745 ], [ 167.299408, 9.097982 ] ] ], [ [ [ 167.442966, 9.099919 ], [ 167.440444, 9.098166 ], [ 167.436337, 9.100602 ], [ 167.437387, 9.102705 ], [ 167.441831, 9.102608 ], [ 167.442966, 9.099919 ] ] ], [ [ [ 167.435269, 9.105327 ], [ 167.434048, 9.10032 ], [ 167.429306, 9.101237 ], [ 167.430587, 9.104628 ], [ 167.435269, 9.105327 ] ] ], [ [ [ 167.328246, 9.114754 ], [ 167.32831, 9.110702 ], [ 167.325124, 9.111106 ], [ 167.323258, 9.114561 ], [ 167.32327, 9.116438 ], [ 167.328246, 9.114754 ] ] ], [ [ [ 165.659242, 9.121103 ], [ 165.657743, 9.115922 ], [ 165.653777, 9.120126 ], [ 165.654278, 9.122592 ], [ 165.659242, 9.121103 ] ] ], [ [ [ 167.168296, 9.146597 ], [ 167.16536, 9.145181 ], [ 167.161429, 9.148416 ], [ 167.167904, 9.150308 ], [ 167.168296, 9.146597 ] ] ], [ [ [ 169.909292, 9.186677 ], [ 169.905235, 9.1859 ], [ 169.902637, 9.189564 ], [ 169.906326, 9.191411 ], [ 169.909292, 9.186677 ] ] ], [ [ [ 165.534881, 9.198148 ], [ 165.532099, 9.197692 ], [ 165.531796, 9.200995 ], [ 165.532968, 9.202431 ], [ 165.538133, 9.202749 ], [ 165.534881, 9.198148 ] ] ], [ [ [ 166.946853, 9.273152 ], [ 166.944289, 9.269857 ], [ 166.938864, 9.273368 ], [ 166.940791, 9.274936 ], [ 166.946853, 9.273152 ] ] ], [ [ [ 167.346224, 9.294783 ], [ 167.342799, 9.290896 ], [ 167.340001, 9.29114 ], [ 167.340661, 9.294843 ], [ 167.344914, 9.296139 ], [ 167.346224, 9.294783 ] ] ], [ [ [ 167.238626, 9.304462 ], [ 167.238199, 9.300095 ], [ 167.234691, 9.300465 ], [ 167.232068, 9.303986 ], [ 167.238626, 9.304462 ] ] ], [ [ [ 166.920104, 9.313669 ], [ 166.91726, 9.312359 ], [ 166.914932, 9.314029 ], [ 166.916622, 9.317668 ], [ 166.919295, 9.318212 ], [ 166.920104, 9.313669 ] ] ], [ [ [ 167.211222, 9.316649 ], [ 167.208126, 9.312728 ], [ 167.204735, 9.313707 ], [ 167.207865, 9.318748 ], [ 167.211222, 9.316649 ] ] ], [ [ [ 166.954956, 9.316159 ], [ 166.950188, 9.314266 ], [ 166.949434, 9.315632 ], [ 166.950034, 9.318827 ], [ 166.953081, 9.320131 ], [ 166.954956, 9.316159 ] ] ], [ [ [ 166.94638, 9.318348 ], [ 166.946365, 9.31551 ], [ 166.939862, 9.316006 ], [ 166.940315, 9.319445 ], [ 166.94638, 9.318348 ] ] ], [ [ [ 166.841402, 9.322376 ], [ 166.839318, 9.317587 ], [ 166.834507, 9.319711 ], [ 166.838169, 9.322917 ], [ 166.841402, 9.322376 ] ] ], [ [ [ 167.511506, 9.332594 ], [ 167.508936, 9.331685 ], [ 167.506185, 9.338803 ], [ 167.509114, 9.338959 ], [ 167.511506, 9.332594 ] ] ], [ [ [ 167.427263, 9.342721 ], [ 167.423623, 9.341737 ], [ 167.420935, 9.34535 ], [ 167.427472, 9.34643 ], [ 167.427263, 9.342721 ] ] ], [ [ [ 167.502562, 9.354023 ], [ 167.500668, 9.34977 ], [ 167.496636, 9.355094 ], [ 167.500618, 9.356497 ], [ 167.502562, 9.354023 ] ] ], [ [ [ 167.498006, 9.365397 ], [ 167.494902, 9.362087 ], [ 167.491984, 9.367923 ], [ 167.496631, 9.367972 ], [ 167.498006, 9.365397 ] ] ], [ [ [ 167.494076, 9.377966 ], [ 167.492227, 9.372689 ], [ 167.4878, 9.376409 ], [ 167.490658, 9.378642 ], [ 167.494076, 9.377966 ] ] ], [ [ [ 167.490828, 9.383173 ], [ 167.487473, 9.381228 ], [ 167.484708, 9.386322 ], [ 167.489366, 9.386758 ], [ 167.490828, 9.383173 ] ] ], [ [ [ 170.059128, 9.38767 ], [ 170.058121, 9.384474 ], [ 170.052362, 9.386644 ], [ 170.05134, 9.38933 ], [ 170.059128, 9.38767 ] ] ], [ [ [ 170.074591, 9.386255 ], [ 170.070846, 9.384245 ], [ 170.067738, 9.386855 ], [ 170.072071, 9.389946 ], [ 170.074591, 9.386255 ] ] ], [ [ [ 170.097716, 9.398449 ], [ 170.095405, 9.397869 ], [ 170.093951, 9.401167 ], [ 170.09626, 9.402608 ], [ 170.101176, 9.402047 ], [ 170.097716, 9.398449 ] ] ], [ [ [ 170.229838, 9.423191 ], [ 170.228716, 9.416796 ], [ 170.225494, 9.417917 ], [ 170.226429, 9.423184 ], [ 170.229838, 9.423191 ] ] ], [ [ [ 170.228814, 9.471228 ], [ 170.225855, 9.46926 ], [ 170.22162, 9.474394 ], [ 170.223487, 9.475836 ], [ 170.228814, 9.471228 ] ] ], [ [ [ 170.195982, 9.50971 ], [ 170.193195, 9.508318 ], [ 170.188997, 9.513848 ], [ 170.193461, 9.513858 ], [ 170.195982, 9.50971 ] ] ], [ [ [ 170.018319, 9.517726 ], [ 170.01596, 9.516855 ], [ 170.014295, 9.523331 ], [ 170.018066, 9.52381 ], [ 170.018319, 9.517726 ] ] ], [ [ [ 169.854438, 9.529275 ], [ 169.849152, 9.527068 ], [ 169.849575, 9.532324 ], [ 169.853103, 9.532773 ], [ 169.854438, 9.529275 ] ] ], [ [ [ 169.842959, 9.530397 ], [ 169.836002, 9.529429 ], [ 169.835659, 9.531821 ], [ 169.842657, 9.533582 ], [ 169.842959, 9.530397 ] ] ], [ [ [ 169.171868, 9.804555 ], [ 169.16725, 9.80108 ], [ 169.164612, 9.802373 ], [ 169.171188, 9.807744 ], [ 169.171868, 9.804555 ] ] ], [ [ [ 169.221985, 9.830167 ], [ 169.219334, 9.827731 ], [ 169.214876, 9.828803 ], [ 169.218861, 9.833233 ], [ 169.221985, 9.830167 ] ] ], [ [ [ 169.29496, 9.857804 ], [ 169.291307, 9.8546 ], [ 169.288312, 9.858215 ], [ 169.291434, 9.860572 ], [ 169.29496, 9.857804 ] ] ], [ [ [ 169.061428, 9.880597 ], [ 169.062931, 9.87231 ], [ 169.060379, 9.873377 ], [ 169.058522, 9.879859 ], [ 169.061428, 9.880597 ] ] ], [ [ [ 169.253837, 9.903941 ], [ 169.252774, 9.899405 ], [ 169.247968, 9.903048 ], [ 169.24926, 9.905643 ], [ 169.253837, 9.903941 ] ] ], [ [ [ 169.230628, 9.917445 ], [ 169.228455, 9.913392 ], [ 169.223836, 9.914739 ], [ 169.225203, 9.917948 ], [ 169.230628, 9.917445 ] ] ], [ [ [ 169.11707, 9.990755 ], [ 169.114946, 9.990028 ], [ 169.112072, 9.994401 ], [ 169.113464, 9.996163 ], [ 169.117107, 9.994715 ], [ 169.11707, 9.990755 ] ] ], [ [ [ 165.994008, 10.038122 ], [ 165.993709, 10.035506 ], [ 165.989395, 10.03608 ], [ 165.987207, 10.038808 ], [ 165.988007, 10.040378 ], [ 165.994008, 10.038122 ] ] ], [ [ [ 166.017916, 10.065927 ], [ 166.014788, 10.063125 ], [ 166.011964, 10.067633 ], [ 166.016509, 10.069306 ], [ 166.017916, 10.065927 ] ] ], [ [ [ 165.991041, 10.173178 ], [ 165.992321, 10.169172 ], [ 165.985862, 10.169993 ], [ 165.98587, 10.172873 ], [ 165.991041, 10.173178 ] ] ], [ [ [ 169.864791, 10.292879 ], [ 169.864812, 10.286979 ], [ 169.861971, 10.288233 ], [ 169.859113, 10.291667 ], [ 169.864791, 10.292879 ] ] ], [ [ [ 169.978543, 10.292237 ], [ 169.976204, 10.290904 ], [ 169.974011, 10.296201 ], [ 169.976537, 10.297773 ], [ 169.978531, 10.295883 ], [ 169.978543, 10.292237 ] ] ], [ [ [ 169.977644, 10.301 ], [ 169.973163, 10.298265 ], [ 169.970725, 10.300978 ], [ 169.976416, 10.304014 ], [ 169.977644, 10.301 ] ] ], [ [ [ 169.974026, 10.312949 ], [ 169.971649, 10.311071 ], [ 169.967259, 10.31535 ], [ 169.970145, 10.31747 ], [ 169.974026, 10.312949 ] ] ], [ [ [ 169.97637, 10.357379 ], [ 169.971536, 10.357026 ], [ 169.970872, 10.358968 ], [ 169.97242, 10.362351 ], [ 169.974685, 10.361781 ], [ 169.97637, 10.357379 ] ] ], [ [ [ 169.975735, 10.377765 ], [ 169.97136, 10.376902 ], [ 169.970121, 10.380713 ], [ 169.975548, 10.381771 ], [ 169.975735, 10.377765 ] ] ], [ [ [ 169.975487, 10.387322 ], [ 169.973321, 10.384238 ], [ 169.970988, 10.385154 ], [ 169.970354, 10.388844 ], [ 169.974391, 10.390088 ], [ 169.975487, 10.387322 ] ] ], [ [ [ 169.970232, 10.404294 ], [ 169.965406, 10.403785 ], [ 169.96547, 10.407571 ], [ 169.969264, 10.409465 ], [ 169.970232, 10.404294 ] ] ], [ [ [ 169.965333, 10.430652 ], [ 169.961998, 10.428435 ], [ 169.960041, 10.430634 ], [ 169.960901, 10.433839 ], [ 169.964208, 10.433956 ], [ 169.965333, 10.430652 ] ] ], [ [ [ 169.634258, 11.07945 ], [ 169.628512, 11.078951 ], [ 169.626587, 11.080835 ], [ 169.628788, 11.08236 ], [ 169.634887, 11.081504 ], [ 169.634258, 11.07945 ] ] ], [ [ [ 166.501419, 11.11655 ], [ 166.496516, 11.114805 ], [ 166.494512, 11.116419 ], [ 166.495956, 11.11883 ], [ 166.500065, 11.11926 ], [ 166.501419, 11.11655 ] ] ], [ [ [ 169.666201, 11.120377 ], [ 169.661212, 11.119082 ], [ 169.661513, 11.123858 ], [ 169.665701, 11.124195 ], [ 169.666201, 11.120377 ] ] ], [ [ [ 166.365896, 11.125742 ], [ 166.365677, 11.123714 ], [ 166.357816, 11.124583 ], [ 166.360281, 11.127841 ], [ 166.365896, 11.125742 ] ] ], [ [ [ 166.352065, 11.127812 ], [ 166.351914, 11.123535 ], [ 166.345702, 11.124775 ], [ 166.349225, 11.128474 ], [ 166.352065, 11.127812 ] ] ], [ [ [ 166.771713, 11.166371 ], [ 166.771069, 11.163578 ], [ 166.766374, 11.163583 ], [ 166.763502, 11.165537 ], [ 166.764487, 11.166615 ], [ 166.771713, 11.166371 ] ] ], [ [ [ 166.779979, 11.16923 ], [ 166.774819, 11.165557 ], [ 166.773182, 11.167028 ], [ 166.779036, 11.172747 ], [ 166.779979, 11.16923 ] ] ], [ [ [ 166.293224, 11.179592 ], [ 166.293474, 11.174376 ], [ 166.288359, 11.176875 ], [ 166.287676, 11.179274 ], [ 166.293224, 11.179592 ] ] ], [ [ [ 166.503507, 11.181186 ], [ 166.504402, 11.176333 ], [ 166.498779, 11.177616 ], [ 166.499769, 11.181208 ], [ 166.503507, 11.181186 ] ] ], [ [ [ 166.899003, 11.217847 ], [ 166.898149, 11.21329 ], [ 166.895332, 11.213766 ], [ 166.894878, 11.217873 ], [ 166.894893, 11.220154 ], [ 166.899003, 11.217847 ] ] ], [ [ [ 166.692083, 11.217103 ], [ 166.690559, 11.215605 ], [ 166.686521, 11.217885 ], [ 166.68989, 11.222814 ], [ 166.692083, 11.217103 ] ] ], [ [ [ 166.627407, 11.23982 ], [ 166.622738, 11.239758 ], [ 166.621535, 11.244613 ], [ 166.624652, 11.244936 ], [ 166.627407, 11.23982 ] ] ], [ [ [ 167.472967, 11.295865 ], [ 167.467145, 11.295612 ], [ 167.466141, 11.296452 ], [ 167.466696, 11.297504 ], [ 167.472748, 11.299514 ], [ 167.473991, 11.298867 ], [ 167.472967, 11.295865 ] ] ], [ [ [ 166.926746, 11.349524 ], [ 166.923938, 11.348601 ], [ 166.92182, 11.350612 ], [ 166.922475, 11.353185 ], [ 166.926165, 11.354371 ], [ 166.926746, 11.349524 ] ] ], [ [ [ 166.937947, 11.354921 ], [ 166.932017, 11.353864 ], [ 166.930557, 11.35698 ], [ 166.937595, 11.357664 ], [ 166.937947, 11.354921 ] ] ], [ [ [ 166.945605, 11.357356 ], [ 166.941444, 11.355848 ], [ 166.939913, 11.359441 ], [ 166.945113, 11.361454 ], [ 166.945605, 11.357356 ] ] ], [ [ [ 166.956678, 11.364573 ], [ 166.949493, 11.361547 ], [ 166.94877, 11.363174 ], [ 166.953124, 11.367191 ], [ 166.956678, 11.364573 ] ] ], [ [ [ 166.965918, 11.367707 ], [ 166.962329, 11.367581 ], [ 166.960329, 11.369667 ], [ 166.961226, 11.371904 ], [ 166.96711, 11.370383 ], [ 166.965918, 11.367707 ] ] ], [ [ [ 166.988011, 11.369825 ], [ 166.981814, 11.368925 ], [ 166.980582, 11.371609 ], [ 166.984349, 11.37364 ], [ 166.988011, 11.369825 ] ] ], [ [ [ 167.366656, 11.388374 ], [ 167.364459, 11.384825 ], [ 167.362491, 11.384885 ], [ 167.361884, 11.388127 ], [ 167.363346, 11.390112 ], [ 167.366528, 11.390768 ], [ 167.366656, 11.388374 ] ] ], [ [ [ 167.511296, 11.391571 ], [ 167.510009, 11.385952 ], [ 167.507056, 11.387117 ], [ 167.505909, 11.390974 ], [ 167.511296, 11.391571 ] ] ], [ [ [ 167.48354, 11.406995 ], [ 167.484347, 11.402392 ], [ 167.4788, 11.402662 ], [ 167.480435, 11.407161 ], [ 167.48354, 11.406995 ] ] ], [ [ [ 166.91328, 11.449739 ], [ 166.911913, 11.44578 ], [ 166.908125, 11.447568 ], [ 166.907917, 11.449774 ], [ 166.911892, 11.451664 ], [ 166.91328, 11.449739 ] ] ], [ [ [ 166.864721, 11.488158 ], [ 166.86239, 11.483492 ], [ 166.857744, 11.48593 ], [ 166.861664, 11.488926 ], [ 166.864721, 11.488158 ] ] ], [ [ [ 165.406342, 11.505451 ], [ 165.401232, 11.504283 ], [ 165.400553, 11.50632 ], [ 165.400556, 11.507979 ], [ 165.406984, 11.508407 ], [ 165.406342, 11.505451 ] ] ], [ [ [ 165.418104, 11.510971 ], [ 165.413142, 11.508447 ], [ 165.410882, 11.509828 ], [ 165.417939, 11.514681 ], [ 165.418104, 11.510971 ] ] ], [ [ [ 165.295251, 11.520232 ], [ 165.292045, 11.51981 ], [ 165.291733, 11.524808 ], [ 165.292369, 11.526994 ], [ 165.295058, 11.525117 ], [ 165.295251, 11.520232 ] ] ], [ [ [ 165.287578, 11.527919 ], [ 165.287953, 11.523611 ], [ 165.2815, 11.525678 ], [ 165.284541, 11.528858 ], [ 165.287578, 11.527919 ] ] ], [ [ [ 165.23804, 11.565035 ], [ 165.237014, 11.560249 ], [ 165.233437, 11.560251 ], [ 165.231907, 11.563528 ], [ 165.23804, 11.565035 ] ] ], [ [ [ 165.561704, 11.570173 ], [ 165.558811, 11.569803 ], [ 165.557054, 11.57737 ], [ 165.558777, 11.578357 ], [ 165.561704, 11.570173 ] ] ], [ [ [ 165.431173, 11.69055 ], [ 165.427808, 11.688387 ], [ 165.424963, 11.692057 ], [ 165.428854, 11.694496 ], [ 165.431173, 11.69055 ] ] ], [ [ [ 165.392431, 11.69207 ], [ 165.388591, 11.69106 ], [ 165.387218, 11.693737 ], [ 165.38913, 11.696624 ], [ 165.392431, 11.694982 ], [ 165.392431, 11.69207 ] ] ], [ [ [ 170.109699, 12.189605 ], [ 170.109631, 12.18449 ], [ 170.105144, 12.187957 ], [ 170.104061, 12.191132 ], [ 170.109699, 12.189605 ] ] ], [ [ [ 170.139428, 12.2446 ], [ 170.136583, 12.240692 ], [ 170.131994, 12.24335 ], [ 170.13492, 12.245716 ], [ 170.139428, 12.2446 ] ] ], [ [ [ 170.143041, 12.2495 ], [ 170.139414, 12.246505 ], [ 170.136714, 12.248883 ], [ 170.138696, 12.251349 ], [ 170.142234, 12.251763 ], [ 170.143041, 12.2495 ] ] ], [ [ [ 168.959499, 14.581279 ], [ 168.955642, 14.57662 ], [ 168.952996, 14.577506 ], [ 168.957274, 14.583572 ], [ 168.959499, 14.581279 ] ] ], [ [ [ 169.010001, 14.66961 ], [ 169.005101, 14.668428 ], [ 169.003921, 14.670513 ], [ 169.006955, 14.674573 ], [ 169.010001, 14.66961 ] ] ], [ [ [ 171.834684, 6.237196 ], [ 171.834406, 6.237145 ], [ 171.834128, 6.237181 ], [ 171.833874, 6.2373 ], [ 171.83367, 6.237492 ], [ 171.833536, 6.237738 ], [ 171.833484, 6.238012 ], [ 171.833521, 6.238289 ], [ 171.833642, 6.238541 ], [ 171.833836, 6.238745 ], [ 171.838725, 6.242468 ], [ 171.84138, 6.242612 ], [ 171.838718, 6.23863 ], [ 171.834684, 6.237196 ] ] ], [ [ [ 169.440909, 6.241973 ], [ 169.438866, 6.238433 ], [ 169.435649, 6.241718 ], [ 169.436454, 6.243449 ], [ 169.440909, 6.241973 ] ] ], [ [ [ 172.08661, 5.995207 ], [ 172.084941, 5.994601 ], [ 172.081392, 5.997175 ], [ 172.084947, 5.999521 ], [ 172.08661, 5.995207 ] ] ], [ [ [ 172.022489, 6.205496 ], [ 172.017947, 6.203924 ], [ 172.017489, 6.206851 ], [ 172.021716, 6.208036 ], [ 172.022489, 6.205496 ] ] ], [ [ [ 168.172364, 8.0735 ], [ 168.169363, 8.072943 ], [ 168.16753, 8.075994 ], [ 168.171044, 8.077366 ], [ 168.172364, 8.0735 ] ] ], [ [ [ 167.410804, 9.113763 ], [ 167.407183, 9.112542 ], [ 167.40546, 9.114413 ], [ 167.406214, 9.115845 ], [ 167.410162, 9.1159 ], [ 167.410804, 9.113763 ] ] ], [ [ [ 170.228066, 9.416804 ], [ 170.22614, 9.412594 ], [ 170.223911, 9.413789 ], [ 170.225037, 9.417924 ], [ 170.228066, 9.416804 ] ] ], [ [ [ 170.203128, 9.502248 ], [ 170.202042, 9.498602 ], [ 170.19817, 9.502546 ], [ 170.19886, 9.503931 ], [ 170.203128, 9.502248 ] ] ], [ [ [ 166.689644, 11.212734 ], [ 166.686628, 11.212432 ], [ 166.686129, 11.213379 ], [ 166.686147, 11.213952 ], [ 166.689719, 11.215845 ], [ 166.690501, 11.215445 ], [ 166.690594, 11.213926 ], [ 166.689644, 11.212734 ] ] ], [ [ [ 172.089021, 5.99178 ], [ 172.088989, 5.991748 ], [ 172.085747, 5.994651 ], [ 172.087171, 5.99556 ], [ 172.091073, 5.993923 ], [ 172.090427, 5.993247 ], [ 172.090267, 5.993017 ], [ 172.090187, 5.99275 ], [ 172.090187, 5.992692 ], [ 172.090108, 5.992432 ], [ 172.089947, 5.992202 ], [ 172.089722, 5.992033 ], [ 172.089455, 5.991941 ], [ 172.089255, 5.991905 ], [ 172.089021, 5.99178 ] ] ], [ [ [ 166.230233, 8.917805 ], [ 166.226342, 8.917279 ], [ 166.226053, 8.918915 ], [ 166.23033, 8.920092 ], [ 166.230233, 8.917805 ] ] ], [ [ [ 172.017883, 6.207145 ], [ 172.015295, 6.206449 ], [ 172.014427, 6.20878 ], [ 172.017752, 6.20896 ], [ 172.017883, 6.207145 ] ] ], [ [ [ 169.706626, 5.973977 ], [ 169.706632, 5.97128 ], [ 169.704377, 5.971582 ], [ 169.703582, 5.97258 ], [ 169.704273, 5.973382 ], [ 169.706626, 5.973977 ] ] ], [ [ [ 172.110011, 6.013716 ], [ 172.10909, 6.010808 ], [ 172.106997, 6.012287 ], [ 172.107598, 6.01378 ], [ 172.110011, 6.013716 ] ] ], [ [ [ 167.405779, 9.11541 ], [ 167.404909, 9.113476 ], [ 167.402581, 9.113643 ], [ 167.402119, 9.11532 ], [ 167.405779, 9.11541 ] ] ], [ [ [ 168.168727, 8.077132 ], [ 168.167788, 8.076128 ], [ 168.166298, 8.076675 ], [ 168.165646, 8.077685 ], [ 168.166146, 8.078469 ], [ 168.167048, 8.078983 ], [ 168.168727, 8.077132 ] ] ], [ [ [ 170.198961, 9.504143 ], [ 170.197415, 9.503987 ], [ 170.196596, 9.505326 ], [ 170.197232, 9.506346 ], [ 170.199018, 9.50672 ], [ 170.198961, 9.504143 ] ] ] ] } }
]
}
