{
"type": "FeatureCollection",
"name": "Mauritania",
"crs": { "type": "name", "properties": { "name": "urn:ogc:def:crs:OGC:1.3:CRS84" } },
"features": [
{ "type": "Feature", "properties": { "id": "MR", "CNTR_ID": "MR", "CNTR_NAME": "موريتانيا", "NAME_ENGL": "Mauritania", "ISO3_CODE": "MRT", "FID": "MR" }, "geometry": { "type": "MultiPolygon", "coordinates": [ [ [ [ -12.239165, 14.759373 ], [ -12.245628, 14.766686 ], [ -12.270656, 14.774408 ], [ -12.285244, 14.782279 ], [ -12.308679, 14.807172 ], [ -12.326204, 14.825786 ], [ -12.336056, 14.829759 ], [ -12.355127, 14.830612 ], [ -12.377494, 14.836821 ], [ -12.410287, 14.857051 ], [ -12.413469, 14.859883 ], [ -12.446842, 14.889579 ], [ -12.451685, 14.898607 ], [ -12.450327, 14.920427 ], [ -12.461196, 14.979058 ], [ -12.471549, 14.99588 ], [ -12.486971, 15.010349 ], [ -12.552805, 15.034818 ], [ -12.582012, 15.056898 ], [ -12.607207, 15.083141 ], [ -12.656143, 15.106178 ], [ -12.668981, 15.108557 ], [ -12.677006, 15.106721 ], [ -12.684185, 15.100873 ], [ -12.689911, 15.091043 ], [ -12.69486, 15.090823 ], [ -12.703912, 15.099058 ], [ -12.727506, 15.112705 ], [ -12.749291, 15.133292 ], [ -12.787227, 15.153885 ], [ -12.791264, 15.167456 ], [ -12.787659, 15.191775 ], [ -12.796824, 15.209192 ], [ -12.803463, 15.213812 ], [ -12.814374, 15.215261 ], [ -12.839047, 15.203764 ], [ -12.847775, 15.204551 ], [ -12.86268, 15.224661 ], [ -12.889557, 15.244829 ], [ -12.895128, 15.25702 ], [ -12.891805, 15.264003 ], [ -12.884009, 15.265719 ], [ -12.864395, 15.256549 ], [ -12.851097, 15.256045 ], [ -12.837302, 15.271637 ], [ -12.836075, 15.289704 ], [ -12.844318, 15.307614 ], [ -12.855731, 15.319326 ], [ -12.883013, 15.334859 ], [ -12.908936, 15.338966 ], [ -12.922816, 15.344282 ], [ -12.944032, 15.36265 ], [ -12.946947, 15.375453 ], [ -12.945351, 15.411751 ], [ -12.939573, 15.422337 ], [ -12.929408, 15.431972 ], [ -12.927006, 15.439295 ], [ -12.932601, 15.445134 ], [ -12.949626, 15.444699 ], [ -12.957461, 15.449241 ], [ -12.960892, 15.498543 ], [ -12.971316, 15.500756 ], [ -12.991953, 15.497413 ], [ -13.020088, 15.484771 ], [ -13.044119, 15.480208 ], [ -13.060095, 15.482091 ], [ -13.091152, 15.494214 ], [ -13.099167, 15.500007 ], [ -13.101455, 15.507505 ], [ -13.096834, 15.5277 ], [ -13.08663, 15.54971 ], [ -13.09155, 15.58266 ], [ -13.181402, 15.624274 ], [ -13.199716, 15.623451 ], [ -13.215135, 15.614943 ], [ -13.22974, 15.619911 ], [ -13.247346, 15.651283 ], [ -13.249057, 15.668831 ], [ -13.243285, 15.67449 ], [ -13.230561, 15.672865 ], [ -13.219751, 15.67541 ], [ -13.212936, 15.683198 ], [ -13.209853, 15.695128 ], [ -13.240686, 15.726106 ], [ -13.275113, 15.753851 ], [ -13.286228, 15.768017 ], [ -13.286393, 15.781042 ], [ -13.270797, 15.784341 ], [ -13.267332, 15.789888 ], [ -13.294094, 15.822333 ], [ -13.301153, 15.870005 ], [ -13.323971, 15.893129 ], [ -13.323074, 15.903728 ], [ -13.313644, 15.916793 ], [ -13.313777, 15.923776 ], [ -13.341383, 15.940123 ], [ -13.359527, 15.965728 ], [ -13.363049, 15.995256 ], [ -13.375472, 16.021305 ], [ -13.373994, 16.047027 ], [ -13.379128, 16.058283 ], [ -13.442804, 16.08599 ], [ -13.459369, 16.107116 ], [ -13.473646, 16.102474 ], [ -13.488806, 16.085231 ], [ -13.504444, 16.089345 ], [ -13.511195, 16.099992 ], [ -13.50945, 16.110524 ], [ -13.497675, 16.121611 ], [ -13.478961, 16.130026 ], [ -13.47686, 16.134875 ], [ -13.480925, 16.143389 ], [ -13.488661, 16.146127 ], [ -13.520361, 16.130465 ], [ -13.554009, 16.135277 ], [ -13.57189, 16.134682 ], [ -13.62831, 16.110899 ], [ -13.659237, 16.109016 ], [ -13.674093, 16.099711 ], [ -13.680314, 16.098602 ], [ -13.68517, 16.102226 ], [ -13.704132, 16.116378 ], [ -13.71579, 16.135706 ], [ -13.716344, 16.145744 ], [ -13.706223, 16.159073 ], [ -13.703339, 16.167695 ], [ -13.706124, 16.177855 ], [ -13.714809, 16.180025 ], [ -13.724771, 16.176632 ], [ -13.739319, 16.161485 ], [ -13.762288, 16.146973 ], [ -13.793703, 16.144346 ], [ -13.811508, 16.137703 ], [ -13.826116, 16.128777 ], [ -13.841718, 16.111447 ], [ -13.847391, 16.110006 ], [ -13.85511, 16.124762 ], [ -13.865327, 16.133267 ], [ -13.876075, 16.153757 ], [ -13.875996, 16.167936 ], [ -13.869296, 16.182376 ], [ -13.875136, 16.193828 ], [ -13.883469, 16.197866 ], [ -13.898267, 16.194497 ], [ -13.910463, 16.198286 ], [ -13.91683, 16.20848 ], [ -13.92287, 16.229154 ], [ -13.943019, 16.233963 ], [ -13.965032, 16.225518 ], [ -13.971175, 16.226137 ], [ -13.968291, 16.248834 ], [ -13.9541, 16.269845 ], [ -13.96394, 16.276012 ], [ -13.986003, 16.278409 ], [ -13.986707, 16.283275 ], [ -13.989058, 16.300343 ], [ -13.986785, 16.306465 ], [ -13.981615, 16.308618 ], [ -13.964995, 16.307694 ], [ -13.959779, 16.310413 ], [ -13.959447, 16.318043 ], [ -13.966059, 16.328818 ], [ -13.996853, 16.346288 ], [ -14.029379, 16.352503 ], [ -14.041916, 16.373155 ], [ -14.069836, 16.40466 ], [ -14.102145, 16.426364 ], [ -14.116927, 16.445696 ], [ -14.136946, 16.456689 ], [ -14.138923, 16.46358 ], [ -14.136567, 16.475335 ], [ -14.151508, 16.475208 ], [ -14.168324, 16.493615 ], [ -14.199414, 16.511671 ], [ -14.202275, 16.518357 ], [ -14.201161, 16.528874 ], [ -14.206563, 16.53532 ], [ -14.222145, 16.543719 ], [ -14.244057, 16.545074 ], [ -14.254678, 16.535578 ], [ -14.260108, 16.52433 ], [ -14.273349, 16.548914 ], [ -14.269315, 16.573226 ], [ -14.276207, 16.581978 ], [ -14.28635, 16.58353 ], [ -14.302979, 16.571829 ], [ -14.32096, 16.567608 ], [ -14.328164, 16.568981 ], [ -14.332501, 16.579097 ], [ -14.327323, 16.603206 ], [ -14.326902, 16.626128 ], [ -14.333785, 16.639273 ], [ -14.403158, 16.63494 ], [ -14.410086, 16.638901 ], [ -14.416194, 16.649124 ], [ -14.420858, 16.650589 ], [ -14.435218, 16.641777 ], [ -14.448102, 16.627046 ], [ -14.475306, 16.625653 ], [ -14.497307, 16.616183 ], [ -14.526505, 16.629061 ], [ -14.545021, 16.641068 ], [ -14.548829, 16.638672 ], [ -14.553419, 16.625167 ], [ -14.558601, 16.620414 ], [ -14.573536, 16.623296 ], [ -14.602603, 16.620483 ], [ -14.620314, 16.628372 ], [ -14.639501, 16.621185 ], [ -14.647789, 16.628803 ], [ -14.641478, 16.639057 ], [ -14.642673, 16.64483 ], [ -14.652495, 16.649158 ], [ -14.685304, 16.646515 ], [ -14.710772, 16.640421 ], [ -14.72494, 16.644436 ], [ -14.72944, 16.634807 ], [ -14.736171, 16.630127 ], [ -14.738133, 16.621431 ], [ -14.750103, 16.627894 ], [ -14.75366, 16.644921 ], [ -14.764658, 16.653888 ], [ -14.773683, 16.650744 ], [ -14.789225, 16.632259 ], [ -14.814016, 16.652328 ], [ -14.820919, 16.64912 ], [ -14.827974, 16.637188 ], [ -14.841543, 16.639532 ], [ -14.858043, 16.638414 ], [ -14.871605, 16.65518 ], [ -14.879798, 16.659085 ], [ -14.886301, 16.655089 ], [ -14.896444, 16.63334 ], [ -14.907408, 16.635772 ], [ -14.913991, 16.646615 ], [ -14.929934, 16.634911 ], [ -14.93778, 16.633028 ], [ -14.945716, 16.637547 ], [ -14.952061, 16.648477 ], [ -14.950576, 16.668787 ], [ -14.952996, 16.676225 ], [ -14.974232, 16.688743 ], [ -14.98453, 16.691304 ], [ -14.991348, 16.688558 ], [ -14.996186, 16.68149 ], [ -14.99908, 16.654793 ], [ -15.003826, 16.645075 ], [ -15.03411, 16.632101 ], [ -15.052793, 16.631411 ], [ -15.063713, 16.644791 ], [ -15.076317, 16.671213 ], [ -15.08656, 16.676753 ], [ -15.09848, 16.675495 ], [ -15.115317, 16.657767 ], [ -15.119431, 16.641384 ], [ -15.114297, 16.63412 ], [ -15.092301, 16.62645 ], [ -15.086261, 16.618042 ], [ -15.085291, 16.610292 ], [ -15.092682, 16.598793 ], [ -15.118013, 16.580728 ], [ -15.132791, 16.580199 ], [ -15.16802, 16.589882 ], [ -15.182538, 16.577655 ], [ -15.20169, 16.568851 ], [ -15.227703, 16.556893 ], [ -15.239238, 16.559346 ], [ -15.259359, 16.569287 ], [ -15.308614, 16.574611 ], [ -15.338162, 16.560995 ], [ -15.361195, 16.558258 ], [ -15.386136, 16.54157 ], [ -15.403939, 16.537114 ], [ -15.416695, 16.539855 ], [ -15.426528, 16.546043 ], [ -15.433954, 16.567087 ], [ -15.44281, 16.581222 ], [ -15.45434, 16.589295 ], [ -15.467721, 16.591375 ], [ -15.482866, 16.581144 ], [ -15.501862, 16.572816 ], [ -15.514381, 16.562275 ], [ -15.518076, 16.548195 ], [ -15.509207, 16.529374 ], [ -15.517341, 16.521764 ], [ -15.549392, 16.512582 ], [ -15.56426, 16.513129 ], [ -15.578098, 16.51837 ], [ -15.60842, 16.53784 ], [ -15.618743, 16.539185 ], [ -15.631645, 16.522178 ], [ -15.626995, 16.501827 ], [ -15.63137, 16.491612 ], [ -15.656425, 16.482731 ], [ -15.68904, 16.478912 ], [ -15.699696, 16.472209 ], [ -15.709277, 16.474374 ], [ -15.733491, 16.489028 ], [ -15.779076, 16.495229 ], [ -15.811678, 16.508027 ], [ -15.831648, 16.505199 ], [ -15.85771, 16.493443 ], [ -15.865742, 16.511563 ], [ -15.890008, 16.516664 ], [ -15.917593, 16.511937 ], [ -15.933511, 16.503999 ], [ -15.950695, 16.490663 ], [ -15.962292, 16.486199 ], [ -15.971586, 16.486696 ], [ -15.989495, 16.499459 ], [ -16.002799, 16.502008 ], [ -16.013788, 16.497859 ], [ -16.035387, 16.481587 ], [ -16.051626, 16.47889 ], [ -16.059542, 16.483532 ], [ -16.076601, 16.507011 ], [ -16.099853, 16.522966 ], [ -16.102709, 16.547407 ], [ -16.107706, 16.552847 ], [ -16.116107, 16.555399 ], [ -16.152371, 16.548913 ], [ -16.177038, 16.525649 ], [ -16.192647, 16.517395 ], [ -16.215213, 16.515727 ], [ -16.237323, 16.524326 ], [ -16.24972, 16.526048 ], [ -16.267596, 16.521755 ], [ -16.280618, 16.512941 ], [ -16.285313, 16.505087 ], [ -16.287596, 16.475772 ], [ -16.299824, 16.469995 ], [ -16.306439, 16.460684 ], [ -16.311836, 16.410219 ], [ -16.316418, 16.40611 ], [ -16.327733, 16.40363 ], [ -16.333019, 16.39626 ], [ -16.334013, 16.350094 ], [ -16.34253, 16.337719 ], [ -16.359222, 16.328081 ], [ -16.367098, 16.313338 ], [ -16.368125, 16.29866 ], [ -16.357666, 16.283275 ], [ -16.355928, 16.28085 ], [ -16.355611, 16.272296 ], [ -16.355517, 16.269766 ], [ -16.366676, 16.258077 ], [ -16.37401, 16.23582 ], [ -16.388889, 16.217913 ], [ -16.400915, 16.213872 ], [ -16.414783, 16.219451 ], [ -16.418047, 16.232073 ], [ -16.43438, 16.225053 ], [ -16.440056, 16.227136 ], [ -16.441804, 16.232124 ], [ -16.422089, 16.256738 ], [ -16.421106, 16.263608 ], [ -16.427578, 16.268012 ], [ -16.421265, 16.272296 ], [ -16.419495, 16.274746 ], [ -16.425864, 16.281117 ], [ -16.425074, 16.283275 ], [ -16.417389, 16.304262 ], [ -16.41056, 16.311221 ], [ -16.398747, 16.315747 ], [ -16.399845, 16.343043 ], [ -16.403967, 16.35483 ], [ -16.421947, 16.37304 ], [ -16.424079, 16.385872 ], [ -16.433497, 16.401056 ], [ -16.432995, 16.408657 ], [ -16.41534, 16.432501 ], [ -16.411545, 16.442452 ], [ -16.397793, 16.453564 ], [ -16.38421, 16.457139 ], [ -16.377591, 16.463055 ], [ -16.366885, 16.452092 ], [ -16.37071, 16.403848 ], [ -16.348158, 16.399305 ], [ -16.341227, 16.409285 ], [ -16.333482, 16.412725 ], [ -16.317846, 16.446103 ], [ -16.320867, 16.467663 ], [ -16.32766, 16.482147 ], [ -16.335504, 16.483493 ], [ -16.341661, 16.47597 ], [ -16.352994, 16.489378 ], [ -16.370036, 16.492888 ], [ -16.375336, 16.50751 ], [ -16.386438, 16.514536 ], [ -16.399502, 16.507016 ], [ -16.418734, 16.502864 ], [ -16.429578, 16.492579 ], [ -16.433858, 16.467178 ], [ -16.445859, 16.439689 ], [ -16.449014, 16.406574 ], [ -16.460777, 16.385455 ], [ -16.458398, 16.373769 ], [ -16.463583, 16.367383 ], [ -16.462488, 16.355268 ], [ -16.451667, 16.353701 ], [ -16.452911, 16.322515 ], [ -16.471493, 16.299651 ], [ -16.478972, 16.283275 ], [ -16.483427, 16.273519 ], [ -16.489045, 16.236039 ], [ -16.502602, 16.21672 ], [ -16.508754, 16.185704 ], [ -16.506352, 16.074716 ], [ -16.500635, 16.060141 ], [ -16.504094, 16.057272 ], [ -16.505219, 16.057272 ], [ -16.508706, 16.057272 ], [ -16.511414, 16.138419 ], [ -16.51027, 16.204548 ], [ -16.518581, 16.25915 ], [ -16.517804, 16.283248 ], [ -16.508129, 16.321786 ], [ -16.468138, 16.433754 ], [ -16.456584, 16.479523 ], [ -16.446266, 16.581788 ], [ -16.433588, 16.639627 ], [ -16.333723, 16.892191 ], [ -16.202605, 17.191664 ], [ -16.147502, 17.325221 ], [ -16.11262, 17.421351 ], [ -16.085172, 17.511898 ], [ -16.060497, 17.621297 ], [ -16.046215, 17.723099 ], [ -16.035539, 17.900126 ], [ -16.022264, 17.973662 ], [ -16.030068, 17.9997 ], [ -16.025774, 18.04102 ], [ -16.029002, 18.169054 ], [ -16.036746, 18.218563 ], [ -16.040058, 18.282178 ], [ -16.049031, 18.333201 ], [ -16.052121, 18.417824 ], [ -16.058458, 18.463442 ], [ -16.092747, 18.573415 ], [ -16.12228, 18.627929 ], [ -16.132414, 18.654607 ], [ -16.15046, 18.749502 ], [ -16.163386, 18.789018 ], [ -16.168709, 18.834072 ], [ -16.188596, 18.933133 ], [ -16.25151, 19.067787 ], [ -16.301175, 19.135068 ], [ -16.355405, 19.190108 ], [ -16.413607, 19.224842 ], [ -16.446668, 19.240759 ], [ -16.464244, 19.254333 ], [ -16.492565, 19.30276 ], [ -16.509059, 19.343977 ], [ -16.520079, 19.361521 ], [ -16.452637, 19.375493 ], [ -16.410247, 19.393931 ], [ -16.359059, 19.42833 ], [ -16.334358, 19.456615 ], [ -16.308636, 19.474311 ], [ -16.308642, 19.491463 ], [ -16.292995, 19.5237 ], [ -16.295053, 19.53469 ], [ -16.328458, 19.527772 ], [ -16.350947, 19.513824 ], [ -16.375418, 19.490375 ], [ -16.365817, 19.519684 ], [ -16.370385, 19.525232 ], [ -16.380284, 19.517569 ], [ -16.40289, 19.486373 ], [ -16.410474, 19.464409 ], [ -16.411101, 19.444753 ], [ -16.416317, 19.433514 ], [ -16.445597, 19.410646 ], [ -16.458845, 19.414465 ], [ -16.464618, 19.421261 ], [ -16.461536, 19.444505 ], [ -16.430074, 19.5016 ], [ -16.418465, 19.531832 ], [ -16.392729, 19.571876 ], [ -16.377851, 19.604493 ], [ -16.353659, 19.632395 ], [ -16.351213, 19.649174 ], [ -16.355666, 19.651572 ], [ -16.361601, 19.649502 ], [ -16.385616, 19.626963 ], [ -16.385003, 19.634591 ], [ -16.321676, 19.727511 ], [ -16.29875, 19.736374 ], [ -16.289249, 19.732893 ], [ -16.28837, 19.722229 ], [ -16.279738, 19.727465 ], [ -16.275259, 19.736527 ], [ -16.273214, 19.755467 ], [ -16.259423, 19.781039 ], [ -16.252221, 19.839732 ], [ -16.262126, 19.85815 ], [ -16.260691, 19.889345 ], [ -16.266544, 19.895366 ], [ -16.277064, 19.898298 ], [ -16.30285, 19.883197 ], [ -16.306547, 19.885948 ], [ -16.307846, 19.892925 ], [ -16.297934, 19.915039 ], [ -16.242534, 19.961444 ], [ -16.22805, 19.985248 ], [ -16.229827, 20.019957 ], [ -16.22694, 20.051201 ], [ -16.234018, 20.063403 ], [ -16.238539, 20.081946 ], [ -16.249362, 20.097369 ], [ -16.257862, 20.122229 ], [ -16.23002, 20.149405 ], [ -16.208882, 20.183088 ], [ -16.203703, 20.205994 ], [ -16.207678, 20.224103 ], [ -16.231085, 20.27024 ], [ -16.242327, 20.280934 ], [ -16.269385, 20.290269 ], [ -16.284819, 20.317459 ], [ -16.302437, 20.334224 ], [ -16.312797, 20.348647 ], [ -16.331825, 20.391027 ], [ -16.352511, 20.417106 ], [ -16.35643, 20.440198 ], [ -16.369929, 20.47438 ], [ -16.385467, 20.53315 ], [ -16.399239, 20.559908 ], [ -16.423031, 20.591474 ], [ -16.433871, 20.632026 ], [ -16.45428, 20.645404 ], [ -16.483363, 20.676578 ], [ -16.488602, 20.692011 ], [ -16.492573, 20.718674 ], [ -16.521113, 20.727411 ], [ -16.528107, 20.719648 ], [ -16.532156, 20.684051 ], [ -16.528934, 20.656226 ], [ -16.530766, 20.615925 ], [ -16.527197, 20.585324 ], [ -16.537447, 20.564985 ], [ -16.557681, 20.574674 ], [ -16.580996, 20.593119 ], [ -16.619855, 20.631233 ], [ -16.641648, 20.65723 ], [ -16.672154, 20.681463 ], [ -16.674837, 20.689794 ], [ -16.67129, 20.707336 ], [ -16.672118, 20.731782 ], [ -16.70458, 20.760395 ], [ -16.714325, 20.774479 ], [ -16.728587, 20.805265 ], [ -16.752933, 20.832059 ], [ -16.759079, 20.866136 ], [ -16.770104, 20.887797 ], [ -16.777983, 20.91875 ], [ -16.784283, 20.925191 ], [ -16.797303, 20.928766 ], [ -16.806196, 20.936038 ], [ -16.814857, 20.953788 ], [ -16.822565, 20.984176 ], [ -16.859646, 21.030771 ], [ -16.866247, 21.052775 ], [ -16.87809, 21.074029 ], [ -16.886367, 21.117432 ], [ -16.902704, 21.14846 ], [ -16.90838, 21.180918 ], [ -16.913672, 21.190848 ], [ -16.922294, 21.197201 ], [ -16.93239, 21.193513 ], [ -16.930849, 21.166772 ], [ -16.940262, 21.146976 ], [ -16.947196, 21.112996 ], [ -16.964825, 21.090661 ], [ -16.979609, 21.049422 ], [ -16.993641, 21.035756 ], [ -17.015827, 21.044174 ], [ -17.023589, 21.03993 ], [ -17.020916, 21.02547 ], [ -17.006098, 21.010855 ], [ -17.008089, 20.971314 ], [ -17.019035, 20.918716 ], [ -17.027289, 20.911788 ], [ -17.044737, 20.906791 ], [ -17.054313, 20.890395 ], [ -17.050676, 20.873053 ], [ -17.033302, 20.849379 ], [ -17.043491, 20.804045 ], [ -17.045587, 20.780667 ], [ -17.051296, 20.771623 ], [ -17.066507, 20.839853 ], [ -17.066366, 20.922831 ], [ -17.048814, 20.980145 ], [ -17.039836, 21.040163 ], [ -17.034984, 21.050582 ], [ -17.026113, 21.069632 ], [ -17.009378, 21.092663 ], [ -17.003094, 21.104657 ], [ -16.987275, 21.169584 ], [ -16.977377, 21.201965 ], [ -16.970182, 21.220911 ], [ -16.966984, 21.232001 ], [ -16.948893, 21.294752 ], [ -16.939518, 21.325645 ], [ -16.919679, 21.330158 ], [ -16.590285, 21.333706 ], [ -16.57861, 21.33386 ], [ -16.483427, 21.334972 ], [ -16.309137, 21.337009 ], [ -16.225718, 21.33782 ], [ -16.062908, 21.339403 ], [ -15.877071, 21.34121 ], [ -15.634948, 21.34231 ], [ -15.441355, 21.342906 ], [ -15.365575, 21.343139 ], [ -15.20169, 21.343338 ], [ -14.960914, 21.34363 ], [ -14.828323, 21.343589 ], [ -14.821885, 21.343476 ], [ -14.736891, 21.341975 ], [ -14.722585, 21.343245 ], [ -14.651932, 21.341956 ], [ -14.644118, 21.343349 ], [ -14.596748, 21.343598 ], [ -14.581722, 21.341809 ], [ -14.547614, 21.343068 ], [ -14.38088, 21.342117 ], [ -14.23291, 21.341272 ], [ -14.2222, 21.342368 ], [ -13.883123, 21.340362 ], [ -13.754679, 21.339313 ], [ -13.68517, 21.338746 ], [ -13.429611, 21.33666 ], [ -13.407372, 21.336382 ], [ -13.201759, 21.333812 ], [ -13.199716, 21.333727 ], [ -13.150367, 21.331681 ], [ -13.1426, 21.333005 ], [ -13.109483, 21.332871 ], [ -13.001839, 21.330874 ], [ -13.080104, 22.527659 ], [ -13.145212, 22.74169 ], [ -13.144675, 22.752169 ], [ -13.138259, 22.786339 ], [ -13.113542, 22.883321 ], [ -13.007096, 23.014807 ], [ -12.998266, 23.024744 ], [ -12.989474, 23.030034 ], [ -12.980122, 23.03566 ], [ -12.890072, 23.092454 ], [ -12.871815, 23.10341 ], [ -12.763479, 23.171582 ], [ -12.744842, 23.1826 ], [ -12.636805, 23.250744 ], [ -12.61814, 23.26151 ], [ -12.600422, 23.272696 ], [ -12.5973, 23.276224 ], [ -12.571592, 23.291268 ], [ -12.365834, 23.318631 ], [ -12.160898, 23.414027 ], [ -12.156032, 23.416291 ], [ -12.137353, 23.414027 ], [ -12.126362, 23.412694 ], [ -12.123298, 23.414027 ], [ -12.012592, 23.462153 ], [ -12.000021, 23.467617 ], [ -12.0, 23.999711 ], [ -12.000509, 24.003343 ], [ -12.003908, 24.105287 ], [ -12.002991, 24.239417 ], [ -12.004928, 24.378579 ], [ -12.002982, 24.513338 ], [ -12.006259, 24.786671 ], [ -12.00522, 25.126676 ], [ -12.003371, 25.72902 ], [ -12.005049, 25.863164 ], [ -12.003812, 25.998587 ], [ -11.918534, 25.997821 ], [ -11.850332, 25.997958 ], [ -11.565138, 25.99853 ], [ -11.006626, 25.99864 ], [ -10.841396, 25.998461 ], [ -10.686057, 26.000009 ], [ -10.427727, 25.998926 ], [ -10.374105, 25.998701 ], [ -10.217742, 25.999669 ], [ -9.892219, 25.997775 ], [ -9.888067, 25.997751 ], [ -9.69727, 25.998958 ], [ -9.685825, 25.997546 ], [ -9.562906, 26.000007 ], [ -9.524158, 25.998964 ], [ -9.486943, 25.997962 ], [ -9.283809, 25.999279 ], [ -8.979052, 25.996891 ], [ -8.765086, 25.997471 ], [ -8.751777, 25.997493 ], [ -8.67416, 25.99762 ], [ -8.674144, 25.999812 ], [ -8.67389, 26.03577 ], [ -8.673, 26.16198 ], [ -8.672117, 26.285839 ], [ -8.6721, 26.28821 ], [ -8.67198, 26.30444 ], [ -8.672119, 26.40016 ], [ -8.67214, 26.41444 ], [ -8.67232, 26.54068 ], [ -8.6725, 26.66692 ], [ -8.672528, 26.686513 ], [ -8.67268, 26.79318 ], [ -8.672809, 26.888714 ], [ -8.67285, 26.91943 ], [ -8.672973, 27.010774 ], [ -8.67302, 27.04568 ], [ -8.672567, 27.06437 ], [ -8.67106, 27.12651 ], [ -8.671548, 27.143833 ], [ -8.67234, 27.17191 ], [ -8.673195, 27.202419 ], [ -8.67335, 27.20795 ], [ -8.672958, 27.244193 ], [ -8.67248, 27.288321 ], [ -8.670484, 27.296706 ], [ -8.666667, 27.312739 ], [ -7.855417, 26.832172 ], [ -7.666667, 26.72036 ], [ -7.610219, 26.686513 ], [ -7.214423, 26.448909 ], [ -6.75, 26.170147 ], [ -6.313881, 25.905353 ], [ -6.094579, 25.771977 ], [ -5.75, 25.562105 ], [ -5.682291, 25.520407 ], [ -5.04263, 25.126676 ], [ -4.847158, 25.006102 ], [ -4.837055, 24.99988 ], [ -4.833333, 24.997588 ], [ -4.944075, 24.994619 ], [ -4.994947, 24.99596 ], [ -5.010004, 24.999996 ], [ -6.554507, 24.999849 ], [ -6.560894, 24.999214 ], [ -6.563703, 24.996028 ], [ -6.455101, 24.034002 ], [ -6.451514, 23.942698 ], [ -6.422431, 23.708754 ], [ -6.417555, 23.687304 ], [ -6.417717, 23.670896 ], [ -6.406995, 23.584766 ], [ -6.398685, 23.53499 ], [ -6.396351, 23.49827 ], [ -6.384081, 23.408324 ], [ -6.38279, 23.365658 ], [ -6.37648, 23.345685 ], [ -6.377019, 23.331477 ], [ -6.367413, 23.249993 ], [ -6.35556, 23.163713 ], [ -6.351953, 23.152786 ], [ -6.352601, 23.10605 ], [ -6.348421, 23.097328 ], [ -6.3388, 23.029029 ], [ -6.292739, 22.598885 ], [ -6.239461, 22.169311 ], [ -6.223779, 22.011273 ], [ -6.091968, 20.868658 ], [ -6.063991, 20.647883 ], [ -6.02619, 20.311444 ], [ -6.000946, 20.134888 ], [ -6.003061, 20.099571 ], [ -5.997034, 20.05154 ], [ -5.997132, 20.031885 ], [ -5.986927, 19.96561 ], [ -5.973487, 19.827784 ], [ -5.938634, 19.547199 ], [ -5.937736, 19.509978 ], [ -5.916689, 19.347971 ], [ -5.849528, 18.73077 ], [ -5.766521, 18.008696 ], [ -5.764107, 17.959772 ], [ -5.749052, 17.839236 ], [ -5.743325, 17.767028 ], [ -5.710482, 17.494865 ], [ -5.659283, 16.996803 ], [ -5.645317, 16.895134 ], [ -5.603595, 16.507711 ], [ -5.59478, 16.494711 ], [ -5.330059, 16.331054 ], [ -5.328864, 16.326901 ], [ -5.338019, 16.283275 ], [ -5.340328, 16.272296 ], [ -5.398085, 15.997517 ], [ -5.507746, 15.509103 ], [ -5.515252, 15.503466 ], [ -5.522643, 15.501826 ], [ -5.527568, 15.501731 ], [ -5.811842, 15.496248 ], [ -6.112001, 15.494517 ], [ -6.150201, 15.494296 ], [ -6.717313, 15.499179 ], [ -7.132332, 15.49779 ], [ -7.150611, 15.495244 ], [ -7.170089, 15.497961 ], [ -7.664159, 15.499533 ], [ -7.939416, 15.496798 ], [ -7.983942, 15.496356 ], [ -8.255822, 15.498644 ], [ -8.323024, 15.49691 ], [ -8.381538, 15.4954 ], [ -8.401149, 15.497382 ], [ -8.751777, 15.498235 ], [ -9.325337, 15.496301 ], [ -9.328987, 15.498557 ], [ -9.334088, 15.51626 ], [ -9.332508, 15.566959 ], [ -9.311475, 15.666885 ], [ -9.313886, 15.675518 ], [ -9.332082, 15.691264 ], [ -9.364835, 15.664325 ], [ -9.418871, 15.611981 ], [ -9.442155, 15.59687 ], [ -9.409111, 15.443147 ], [ -9.410788, 15.434404 ], [ -9.524158, 15.431623 ], [ -9.6964, 15.427399 ], [ -9.703645, 15.424294 ], [ -9.707282, 15.410131 ], [ -9.714163, 15.404031 ], [ -9.729995, 15.403652 ], [ -9.751282, 15.407677 ], [ -9.771444, 15.387953 ], [ -9.792928, 15.373278 ], [ -9.813625, 15.364566 ], [ -9.831801, 15.36102 ], [ -9.863496, 15.359964 ], [ -9.892219, 15.366584 ], [ -9.921459, 15.373323 ], [ -9.999561, 15.356689 ], [ -10.087528, 15.358229 ], [ -10.129715, 15.366701 ], [ -10.256849, 15.412806 ], [ -10.269167, 15.414026 ], [ -10.318977, 15.430579 ], [ -10.334283, 15.433148 ], [ -10.369958, 15.431901 ], [ -10.393716, 15.438939 ], [ -10.407199, 15.436914 ], [ -10.427727, 15.437485 ], [ -10.508776, 15.439739 ], [ -10.561502, 15.432631 ], [ -10.586389, 15.427296 ], [ -10.58829, 15.426302 ], [ -10.597074, 15.421711 ], [ -10.627483, 15.421674 ], [ -10.655022, 15.406632 ], [ -10.66241, 15.405082 ], [ -10.686812, 15.432631 ], [ -10.712245, 15.438042 ], [ -10.722753, 15.436637 ], [ -10.727684, 15.432125 ], [ -10.729192, 15.423184 ], [ -10.718293, 15.368793 ], [ -10.727164, 15.34952 ], [ -10.743211, 15.332618 ], [ -10.761159, 15.329966 ], [ -10.774729, 15.32063 ], [ -10.780354, 15.304085 ], [ -10.798565, 15.304257 ], [ -10.828063, 15.26967 ], [ -10.825251, 15.243909 ], [ -10.834213, 15.220099 ], [ -10.843012, 15.210203 ], [ -10.857854, 15.204788 ], [ -10.873098, 15.189481 ], [ -10.880029, 15.130976 ], [ -10.89513, 15.107314 ], [ -10.901631, 15.104402 ], [ -10.911979, 15.115714 ], [ -10.928497, 15.142702 ], [ -10.943946, 15.154216 ], [ -10.946638, 15.170039 ], [ -10.968301, 15.189484 ], [ -10.993004, 15.228497 ], [ -10.999474, 15.238715 ], [ -11.043001, 15.2675 ], [ -11.060502, 15.290839 ], [ -11.075301, 15.304291 ], [ -11.175732, 15.371996 ], [ -11.20071, 15.394381 ], [ -11.240053, 15.410816 ], [ -11.253639, 15.420222 ], [ -11.290082, 15.453565 ], [ -11.321334, 15.499952 ], [ -11.329624, 15.507396 ], [ -11.361964, 15.525853 ], [ -11.36814, 15.542449 ], [ -11.370539, 15.573174 ], [ -11.38748, 15.591713 ], [ -11.411216, 15.629685 ], [ -11.42098, 15.63978 ], [ -11.431065, 15.645234 ], [ -11.497455, 15.642794 ], [ -11.510019, 15.637119 ], [ -11.503218, 15.622355 ], [ -11.503853, 15.617926 ], [ -11.526778, 15.605396 ], [ -11.552677, 15.583154 ], [ -11.567834, 15.574943 ], [ -11.571777, 15.5583 ], [ -11.570337, 15.545778 ], [ -11.579945, 15.536261 ], [ -11.60072, 15.529414 ], [ -11.619031, 15.529946 ], [ -11.629148, 15.522469 ], [ -11.645117, 15.520982 ], [ -11.654204, 15.523167 ], [ -11.669017, 15.535278 ], [ -11.680066, 15.532417 ], [ -11.698601, 15.532428 ], [ -11.707495, 15.536515 ], [ -11.71206, 15.535765 ], [ -11.714618, 15.525314 ], [ -11.715494, 15.48679 ], [ -11.721226, 15.479684 ], [ -11.739471, 15.470359 ], [ -11.74652, 15.457885 ], [ -11.757025, 15.392059 ], [ -11.770548, 15.339384 ], [ -11.797455, 15.303785 ], [ -11.805437, 15.27599 ], [ -11.806869, 15.232473 ], [ -11.813736, 15.215235 ], [ -11.832382, 15.18847 ], [ -11.837589, 15.174473 ], [ -11.833824, 15.159067 ], [ -11.819949, 15.146866 ], [ -11.816639, 15.136118 ], [ -11.82039, 15.127256 ], [ -11.838146, 15.111931 ], [ -11.846298, 15.093375 ], [ -11.845656, 15.08746 ], [ -11.837286, 15.079748 ], [ -11.834878, 15.072872 ], [ -11.845945, 15.046962 ], [ -11.842089, 15.04067 ], [ -11.835522, 15.037333 ], [ -11.819734, 15.045985 ], [ -11.803457, 15.044109 ], [ -11.792699, 15.024945 ], [ -11.816602, 14.930925 ], [ -11.807161, 14.898967 ], [ -11.812601, 14.893279 ], [ -11.831537, 14.885212 ], [ -11.850332, 14.865288 ], [ -11.855431, 14.859883 ], [ -11.870955, 14.843424 ], [ -11.906488, 14.821964 ], [ -11.936507, 14.813437 ], [ -11.946222, 14.78664 ], [ -11.957411, 14.774834 ], [ -11.979827, 14.761664 ], [ -12.012592, 14.761462 ], [ -12.022878, 14.758722 ], [ -12.039798, 14.759576 ], [ -12.047111, 14.758167 ], [ -12.049713, 14.751702 ], [ -12.044622, 14.739392 ], [ -12.049712, 14.723339 ], [ -12.054362, 14.71805 ], [ -12.056979, 14.715628 ], [ -12.062276, 14.717313 ], [ -12.111698, 14.745259 ], [ -12.12814, 14.768882 ], [ -12.136178, 14.772835 ], [ -12.145687, 14.773927 ], [ -12.153033, 14.77229 ], [ -12.180311, 14.758041 ], [ -12.205632, 14.758572 ], [ -12.221049, 14.756953 ], [ -12.236037, 14.758042 ], [ -12.239165, 14.759373 ] ] ], [ [ [ -16.449291, 19.621381 ], [ -16.448102, 19.627397 ], [ -16.445011, 19.631088 ], [ -16.442097, 19.645094 ], [ -16.445011, 19.664183 ], [ -16.445011, 19.685096 ], [ -16.441177, 19.708759 ], [ -16.43335, 19.727287 ], [ -16.422266, 19.738952 ], [ -16.416316, 19.756546 ], [ -16.421306, 19.780014 ], [ -16.418526, 19.792405 ], [ -16.421947, 19.8077 ], [ -16.419733, 19.820906 ], [ -16.412415, 19.830257 ], [ -16.396028, 19.834791 ], [ -16.391531, 19.832262 ], [ -16.390437, 19.819237 ], [ -16.385311, 19.817689 ], [ -16.377713, 19.824445 ], [ -16.362831, 19.861903 ], [ -16.3579, 19.86478 ], [ -16.352629, 19.86273 ], [ -16.354326, 19.85578 ], [ -16.349079, 19.850031 ], [ -16.351983, 19.841725 ], [ -16.346913, 19.835317 ], [ -16.351228, 19.831039 ], [ -16.355394, 19.806188 ], [ -16.353105, 19.793604 ], [ -16.3579, 19.791034 ], [ -16.368317, 19.783807 ], [ -16.361173, 19.774723 ], [ -16.367835, 19.752701 ], [ -16.364798, 19.745597 ], [ -16.365563, 19.735785 ], [ -16.362934, 19.732646 ], [ -16.369874, 19.718065 ], [ -16.373833, 19.691774 ], [ -16.38096, 19.683653 ], [ -16.390367, 19.662371 ], [ -16.403816, 19.64836 ], [ -16.416462, 19.625347 ], [ -16.418278, 19.616851 ], [ -16.43075, 19.599806 ], [ -16.435551, 19.602916 ], [ -16.437975, 19.615537 ], [ -16.445011, 19.620177 ], [ -16.449291, 19.621381 ] ] ], [ [ [ -16.476483, 20.598824 ], [ -16.474195, 20.602707 ], [ -16.472879, 20.608127 ], [ -16.472677, 20.615599 ], [ -16.466137, 20.618359 ], [ -16.458754, 20.618679 ], [ -16.453568, 20.620011 ], [ -16.448911, 20.619407 ], [ -16.448039, 20.614004 ], [ -16.446373, 20.611443 ], [ -16.449353, 20.608327 ], [ -16.448882, 20.60189 ], [ -16.449469, 20.596654 ], [ -16.447979, 20.59314 ], [ -16.450324, 20.580756 ], [ -16.448927, 20.577677 ], [ -16.448039, 20.570473 ], [ -16.446642, 20.567393 ], [ -16.453656, 20.568235 ], [ -16.462173, 20.572285 ], [ -16.470864, 20.580068 ], [ -16.474711, 20.585187 ], [ -16.476145, 20.59213 ], [ -16.476483, 20.598824 ] ] ], [ [ [ -16.502297, 19.701218 ], [ -16.49746, 19.726731 ], [ -16.487202, 19.73948 ], [ -16.483427, 19.740621 ], [ -16.479797, 19.741717 ], [ -16.476099, 19.738871 ], [ -16.479605, 19.726023 ], [ -16.478307, 19.711074 ], [ -16.483427, 19.699464 ], [ -16.484417, 19.69722 ], [ -16.484995, 19.683653 ], [ -16.484188, 19.67921 ], [ -16.492891, 19.673151 ], [ -16.497078, 19.67624 ], [ -16.498731, 19.683653 ], [ -16.502297, 19.701218 ] ] ], [ [ [ -16.44009, 16.419044 ], [ -16.44009, 16.424036 ], [ -16.434995, 16.439888 ], [ -16.43061, 16.441753 ], [ -16.435262, 16.44627 ], [ -16.434364, 16.449888 ], [ -16.430617, 16.450232 ], [ -16.432433, 16.456695 ], [ -16.427766, 16.457405 ], [ -16.42786, 16.452223 ], [ -16.426466, 16.451498 ], [ -16.420589, 16.455306 ], [ -16.416883, 16.440507 ], [ -16.420084, 16.432916 ], [ -16.424858, 16.436147 ], [ -16.426891, 16.426569 ], [ -16.44009, 16.419044 ] ] ], [ [ [ -16.491654, 16.185931 ], [ -16.490041, 16.188176 ], [ -16.486679, 16.18668 ], [ -16.479034, 16.196613 ], [ -16.477379, 16.196031 ], [ -16.480095, 16.173935 ], [ -16.479441, 16.17124 ], [ -16.483428, 16.172711 ], [ -16.483428, 16.168946 ], [ -16.479645, 16.164898 ], [ -16.478549, 16.160026 ], [ -16.483428, 16.162876 ], [ -16.489171, 16.172794 ], [ -16.491654, 16.185931 ] ] ], [ [ [ -16.483436, 16.11628 ], [ -16.481695, 16.119798 ], [ -16.479261, 16.117478 ], [ -16.475773, 16.117765 ], [ -16.473336, 16.115185 ], [ -16.468485, 16.11314 ], [ -16.466846, 16.108496 ], [ -16.464412, 16.107196 ], [ -16.463448, 16.103827 ], [ -16.465258, 16.09604 ], [ -16.470255, 16.098067 ], [ -16.473105, 16.102204 ], [ -16.47367, 16.105834 ], [ -16.475963, 16.107376 ], [ -16.47844, 16.115537 ], [ -16.481259, 16.113773 ], [ -16.483436, 16.11628 ] ] ], [ [ [ -16.35858, 16.454555 ], [ -16.357008, 16.458089 ], [ -16.348576, 16.464393 ], [ -16.343298, 16.46414 ], [ -16.345647, 16.455034 ], [ -16.354345, 16.448672 ], [ -16.357008, 16.451061 ], [ -16.35858, 16.454555 ] ] ], [ [ [ -16.349631, 19.736252 ], [ -16.348597, 19.741364 ], [ -16.3462, 19.744956 ], [ -16.342421, 19.744218 ], [ -16.341141, 19.741301 ], [ -16.339167, 19.741946 ], [ -16.338458, 19.737613 ], [ -16.342295, 19.729161 ], [ -16.34794, 19.727333 ], [ -16.349631, 19.736252 ] ] ], [ [ [ -16.52517, 19.389312 ], [ -16.520538, 19.391037 ], [ -16.517252, 19.390545 ], [ -16.504137, 19.390654 ], [ -16.501726, 19.383175 ], [ -16.508152, 19.382317 ], [ -16.512535, 19.38319 ], [ -16.513516, 19.385777 ], [ -16.522966, 19.387514 ], [ -16.52517, 19.389312 ] ] ], [ [ [ -16.505784, 16.183984 ], [ -16.499542, 16.189782 ], [ -16.498147, 16.173957 ], [ -16.497328, 16.172109 ], [ -16.49603, 16.168704 ], [ -16.497328, 16.167238 ], [ -16.501192, 16.169181 ], [ -16.503257, 16.173957 ], [ -16.505784, 16.183984 ] ] ], [ [ [ -16.502591, 16.133581 ], [ -16.497328, 16.131217 ], [ -16.497328, 16.129212 ], [ -16.497328, 16.118361 ], [ -16.497328, 16.116019 ], [ -16.501308, 16.113034 ], [ -16.502591, 16.133581 ] ] ], [ [ [ -16.486056, 20.607627 ], [ -16.483432, 20.619599 ], [ -16.480372, 20.624464 ], [ -16.478582, 20.62023 ], [ -16.482744, 20.603705 ], [ -16.484471, 20.603606 ], [ -16.486056, 20.607627 ] ] ], [ [ [ -16.494417, 16.093867 ], [ -16.492878, 16.095845 ], [ -16.488418, 16.097402 ], [ -16.489941, 16.090018 ], [ -16.487688, 16.087491 ], [ -16.487785, 16.08304 ], [ -16.490693, 16.07952 ], [ -16.492103, 16.080086 ], [ -16.493502, 16.091265 ], [ -16.494417, 16.093867 ] ] ], [ [ [ -16.495083, 19.636559 ], [ -16.490816, 19.639989 ], [ -16.487376, 19.640018 ], [ -16.48375, 19.635295 ], [ -16.487606, 19.633905 ], [ -16.486001, 19.63066 ], [ -16.491298, 19.630072 ], [ -16.495083, 19.636559 ] ] ], [ [ [ -16.501476, 20.639841 ], [ -16.493411, 20.642801 ], [ -16.490876, 20.640458 ], [ -16.491026, 20.632866 ], [ -16.499483, 20.635917 ], [ -16.501476, 20.639841 ] ] ], [ [ [ -16.423964, 16.465819 ], [ -16.420647, 16.467851 ], [ -16.413986, 16.468298 ], [ -16.408134, 16.465391 ], [ -16.410343, 16.463768 ], [ -16.410944, 16.460419 ], [ -16.418119, 16.463849 ], [ -16.421726, 16.463557 ], [ -16.423964, 16.465819 ] ] ], [ [ [ -16.352956, 19.714296 ], [ -16.350941, 19.720322 ], [ -16.345445, 19.722191 ], [ -16.344042, 19.71933 ], [ -16.345377, 19.714101 ], [ -16.348107, 19.711078 ], [ -16.352956, 19.714296 ] ] ], [ [ [ -16.419434, 16.474825 ], [ -16.414085, 16.478174 ], [ -16.409767, 16.478555 ], [ -16.407034, 16.481762 ], [ -16.405194, 16.481016 ], [ -16.407119, 16.475187 ], [ -16.409075, 16.474035 ], [ -16.416937, 16.473982 ], [ -16.419434, 16.474825 ] ] ], [ [ [ -16.341122, 19.794811 ], [ -16.32805, 19.796849 ], [ -16.328825, 19.794974 ], [ -16.333801, 19.792185 ], [ -16.336557, 19.792442 ], [ -16.336333, 19.790052 ], [ -16.340778, 19.791219 ], [ -16.341122, 19.794811 ] ] ], [ [ [ -16.359995, 19.699672 ], [ -16.3579, 19.703743 ], [ -16.353018, 19.709908 ], [ -16.351799, 19.707295 ], [ -16.35344, 19.701966 ], [ -16.3579, 19.697878 ], [ -16.359995, 19.699672 ] ] ], [ [ [ -16.483427, 16.07244 ], [ -16.483427, 16.07486 ], [ -16.480258, 16.080589 ], [ -16.478122, 16.080747 ], [ -16.477466, 16.072212 ], [ -16.480457, 16.070802 ], [ -16.483427, 16.07244 ] ] ], [ [ [ -16.36788, 16.466294 ], [ -16.366748, 16.469039 ], [ -16.357008, 16.470676 ], [ -16.357008, 16.468089 ], [ -16.364412, 16.464056 ], [ -16.36788, 16.466294 ] ] ], [ [ [ -16.400378, 16.480596 ], [ -16.398943, 16.481655 ], [ -16.393278, 16.479564 ], [ -16.390977, 16.475732 ], [ -16.392664, 16.474705 ], [ -16.398943, 16.477095 ], [ -16.400378, 16.480596 ] ] ], [ [ [ -16.444752, 16.239182 ], [ -16.444316, 16.24421 ], [ -16.440158, 16.249759 ], [ -16.438321, 16.249601 ], [ -16.440158, 16.242865 ], [ -16.44311, 16.238946 ], [ -16.444752, 16.239182 ] ] ], [ [ [ -16.437608, 16.254039 ], [ -16.436296, 16.257262 ], [ -16.437066, 16.260765 ], [ -16.432543, 16.262451 ], [ -16.432511, 16.256329 ], [ -16.435239, 16.25373 ], [ -16.437608, 16.254039 ] ] ], [ [ [ -16.456427, 16.368499 ], [ -16.45505, 16.369982 ], [ -16.449209, 16.368549 ], [ -16.447947, 16.366682 ], [ -16.45445, 16.363957 ], [ -16.456427, 16.368499 ] ] ], [ [ [ -16.341214, 19.751113 ], [ -16.340424, 19.75321 ], [ -16.336063, 19.753795 ], [ -16.336509, 19.749287 ], [ -16.340084, 19.747288 ], [ -16.341214, 19.751113 ] ] ], [ [ [ -16.447701, 16.391348 ], [ -16.442031, 16.39312 ], [ -16.444071, 16.385743 ], [ -16.445266, 16.385735 ], [ -16.447701, 16.391348 ] ] ], [ [ [ -16.500554, 16.161461 ], [ -16.497328, 16.162233 ], [ -16.497328, 16.154784 ], [ -16.499939, 16.154361 ], [ -16.500554, 16.161461 ] ] ], [ [ [ -16.490945, 16.110396 ], [ -16.49004, 16.11339 ], [ -16.485087, 16.112826 ], [ -16.488106, 16.107575 ], [ -16.490945, 16.110396 ] ] ], [ [ [ -16.478646, 16.168403 ], [ -16.475777, 16.169813 ], [ -16.473461, 16.168438 ], [ -16.474581, 16.164252 ], [ -16.477759, 16.165067 ], [ -16.478646, 16.168403 ] ] ], [ [ [ -16.437865, 16.289919 ], [ -16.433878, 16.291759 ], [ -16.431317, 16.286884 ], [ -16.437141, 16.287356 ], [ -16.437865, 16.289919 ] ] ], [ [ [ -16.417191, 16.351825 ], [ -16.408992, 16.353396 ], [ -16.410268, 16.350886 ], [ -16.41317, 16.349147 ], [ -16.416089, 16.349753 ], [ -16.417191, 16.351825 ] ] ], [ [ [ -16.422151, 16.357256 ], [ -16.42212, 16.359222 ], [ -16.418456, 16.360231 ], [ -16.416956, 16.357751 ], [ -16.41882, 16.354124 ], [ -16.422151, 16.357256 ] ] ], [ [ [ -16.355585, 16.408317 ], [ -16.351064, 16.411043 ], [ -16.3484, 16.408316 ], [ -16.349979, 16.405656 ], [ -16.355585, 16.408317 ] ] ], [ [ [ -16.34554, 16.449642 ], [ -16.344201, 16.451413 ], [ -16.340153, 16.450497 ], [ -16.33987, 16.447016 ], [ -16.343831, 16.446856 ], [ -16.34554, 16.449642 ] ] ], [ [ [ -16.390488, 16.467165 ], [ -16.385576, 16.469575 ], [ -16.384751, 16.464749 ], [ -16.390049, 16.464715 ], [ -16.390488, 16.467165 ] ] ], [ [ [ -16.5452, 19.382025 ], [ -16.542582, 19.383681 ], [ -16.539089, 19.379986 ], [ -16.542894, 19.377557 ], [ -16.5452, 19.382025 ] ] ], [ [ [ -16.502327, 19.390214 ], [ -16.500872, 19.39188 ], [ -16.497104, 19.39211 ], [ -16.496179, 19.387655 ], [ -16.499578, 19.387916 ], [ -16.502327, 19.390214 ] ] ], [ [ [ -16.343241, 19.780053 ], [ -16.339863, 19.783903 ], [ -16.337402, 19.779221 ], [ -16.341339, 19.777612 ], [ -16.343241, 19.780053 ] ] ], [ [ [ -16.349391, 19.859601 ], [ -16.346859, 19.86002 ], [ -16.343782, 19.857035 ], [ -16.3452, 19.855456 ], [ -16.349357, 19.855605 ], [ -16.349391, 19.859601 ] ] ], [ [ [ -16.505443, 19.898909 ], [ -16.504903, 19.901766 ], [ -16.501144, 19.902867 ], [ -16.499982, 19.899668 ], [ -16.504485, 19.897313 ], [ -16.505443, 19.898909 ] ] ], [ [ [ -16.303874, 20.010302 ], [ -16.303707, 20.012389 ], [ -16.300458, 20.013663 ], [ -16.300195, 20.009982 ], [ -16.301454, 20.00667 ], [ -16.303483, 20.007526 ], [ -16.303874, 20.010302 ] ] ] ] } }
]
}
