{
"type": "FeatureCollection",
"name": "Mongolia",
"crs": { "type": "name", "properties": { "name": "urn:ogc:def:crs:OGC:1.3:CRS84" } },
"features": [
{ "type": "Feature", "properties": { "id": "MN", "CNTR_ID": "MN", "CNTR_NAME": "Монгол Улс", "NAME_ENGL": "Mongolia", "ISO3_CODE": "MNG", "FID": "MN" }, "geometry": { "type": "MultiPolygon", "coordinates": [ [ [ [ 87.824968, 49.183324 ], [ 87.849624, 49.174803 ], [ 87.89911, 49.167214 ], [ 87.917175, 49.170953 ], [ 87.937038, 49.181589 ], [ 87.946421, 49.183981 ], [ 87.973492, 49.178612 ], [ 87.984002, 49.17921 ], [ 87.994185, 49.186992 ], [ 87.999942, 49.219192 ], [ 88.008706, 49.235149 ], [ 88.03687, 49.244668 ], [ 88.05494, 49.265881 ], [ 88.069412, 49.269114 ], [ 88.099337, 49.265601 ], [ 88.109734, 49.259913 ], [ 88.120638, 49.245667 ], [ 88.126799, 49.244817 ], [ 88.149881, 49.255159 ], [ 88.157846, 49.270857 ], [ 88.165758, 49.277144 ], [ 88.192942, 49.284015 ], [ 88.197792, 49.29252 ], [ 88.195758, 49.299984 ], [ 88.174789, 49.31204 ], [ 88.14541, 49.34549 ], [ 88.132009, 49.353822 ], [ 88.102678, 49.36588 ], [ 88.096951, 49.372957 ], [ 88.105467, 49.383455 ], [ 88.119118, 49.389424 ], [ 88.140135, 49.412479 ], [ 88.160353, 49.42401 ], [ 88.187983, 49.430478 ], [ 88.189601, 49.435928 ], [ 88.177821, 49.452459 ], [ 88.178181, 49.460421 ], [ 88.194083, 49.477161 ], [ 88.22228, 49.489423 ], [ 88.294977, 49.496735 ], [ 88.307634, 49.49898 ], [ 88.322719, 49.505208 ], [ 88.339492, 49.507746 ], [ 88.362135, 49.501998 ], [ 88.392913, 49.50333 ], [ 88.410946, 49.50073 ], [ 88.422728, 49.496201 ], [ 88.444596, 49.480791 ], [ 88.451778, 49.479248 ], [ 88.481743, 49.483957 ], [ 88.509358, 49.4921 ], [ 88.524327, 49.489771 ], [ 88.541444, 49.482769 ], [ 88.549644, 49.482579 ], [ 88.555557, 49.485242 ], [ 88.56482, 49.503265 ], [ 88.575547, 49.512029 ], [ 88.619693, 49.52586 ], [ 88.633104, 49.527393 ], [ 88.641592, 49.525829 ], [ 88.649154, 49.520468 ], [ 88.655274, 49.498077 ], [ 88.667638, 49.48432 ], [ 88.68301, 49.473678 ], [ 88.709571, 49.466684 ], [ 88.724367, 49.46546 ], [ 88.756637, 49.469234 ], [ 88.772416, 49.466322 ], [ 88.790127, 49.46907 ], [ 88.803804, 49.468524 ], [ 88.815518, 49.465766 ], [ 88.840112, 49.453012 ], [ 88.861356, 49.450257 ], [ 88.867657, 49.456893 ], [ 88.85737, 49.471891 ], [ 88.862927, 49.486971 ], [ 88.860403, 49.492912 ], [ 88.850694, 49.500188 ], [ 88.846202, 49.506943 ], [ 88.846379, 49.515302 ], [ 88.856367, 49.530198 ], [ 88.87933, 49.54961 ], [ 88.887462, 49.553722 ], [ 88.891061, 49.555542 ], [ 88.91846, 49.559387 ], [ 88.928552, 49.557213 ], [ 88.927752, 49.529647 ], [ 88.946494, 49.510958 ], [ 88.968608, 49.480755 ], [ 88.978288, 49.476493 ], [ 88.989427, 49.477122 ], [ 89.029423, 49.492468 ], [ 89.055615, 49.493695 ], [ 89.093674, 49.49898 ], [ 89.12678, 49.506925 ], [ 89.158572, 49.522595 ], [ 89.174382, 49.52795 ], [ 89.195856, 49.545842 ], [ 89.221728, 49.548484 ], [ 89.226004, 49.557463 ], [ 89.223597, 49.565371 ], [ 89.197797, 49.586669 ], [ 89.192933, 49.592432 ], [ 89.190746, 49.600355 ], [ 89.19553, 49.61515 ], [ 89.202937, 49.626571 ], [ 89.222961, 49.6454 ], [ 89.238456, 49.65254 ], [ 89.255403, 49.652491 ], [ 89.284158, 49.644765 ], [ 89.311825, 49.634709 ], [ 89.341883, 49.618115 ], [ 89.36816, 49.597494 ], [ 89.37659, 49.595658 ], [ 89.387697, 49.603922 ], [ 89.410538, 49.630304 ], [ 89.446735, 49.659085 ], [ 89.460622, 49.662512 ], [ 89.490813, 49.663579 ], [ 89.542165, 49.684104 ], [ 89.609218, 49.694152 ], [ 89.634949, 49.703559 ], [ 89.680599, 49.710149 ], [ 89.699723, 49.722317 ], [ 89.715222, 49.742813 ], [ 89.721574, 49.756902 ], [ 89.722585, 49.775767 ], [ 89.737764, 49.795483 ], [ 89.729361, 49.803575 ], [ 89.717463, 49.807911 ], [ 89.699795, 49.811538 ], [ 89.652991, 49.815858 ], [ 89.640058, 49.820828 ], [ 89.637009, 49.831536 ], [ 89.645589, 49.857937 ], [ 89.633656, 49.879912 ], [ 89.637809, 49.905926 ], [ 89.632934, 49.913675 ], [ 89.618685, 49.923491 ], [ 89.635749, 49.929576 ], [ 89.654104, 49.941099 ], [ 89.708321, 49.95826 ], [ 89.803937, 49.961491 ], [ 89.943133, 49.97482 ], [ 89.994814, 49.99167 ], [ 90.00878, 50.001132 ], [ 89.999522, 50.024091 ], [ 89.996969, 50.053608 ], [ 90.017287, 50.074187 ], [ 90.137191, 50.115957 ], [ 90.192158, 50.121565 ], [ 90.228136, 50.12738 ], [ 90.264074, 50.126505 ], [ 90.281626, 50.133642 ], [ 90.308191, 50.161391 ], [ 90.347546, 50.178778 ], [ 90.379232, 50.204168 ], [ 90.399447, 50.209674 ], [ 90.447128, 50.204516 ], [ 90.468694, 50.208705 ], [ 90.477097, 50.231719 ], [ 90.508185, 50.242118 ], [ 90.553446, 50.250835 ], [ 90.582119, 50.251043 ], [ 90.627512, 50.232228 ], [ 90.650558, 50.232934 ], [ 90.674969, 50.227964 ], [ 90.682733, 50.22935 ], [ 90.713956, 50.242115 ], [ 90.723205, 50.25565 ], [ 90.716309, 50.28465 ], [ 90.702413, 50.309387 ], [ 90.71789, 50.325862 ], [ 90.760584, 50.341023 ], [ 90.799671, 50.342731 ], [ 90.820308, 50.360845 ], [ 90.844305, 50.357288 ], [ 90.897599, 50.359286 ], [ 90.909302, 50.391295 ], [ 90.907948, 50.414387 ], [ 90.949254, 50.43783 ], [ 91.045706, 50.442531 ], [ 91.139549, 50.432995 ], [ 91.205413, 50.451184 ], [ 91.241668, 50.463725 ], [ 91.288363, 50.479872 ], [ 91.381023, 50.468101 ], [ 91.423988, 50.45865 ], [ 91.43549, 50.459883 ], [ 91.445105, 50.468282 ], [ 91.450299, 50.493956 ], [ 91.448133, 50.504069 ], [ 91.436708, 50.516094 ], [ 91.431808, 50.525427 ], [ 91.440871, 50.546109 ], [ 91.48001, 50.559189 ], [ 91.506725, 50.56334 ], [ 91.554604, 50.563495 ], [ 91.575719, 50.560898 ], [ 91.594172, 50.560907 ], [ 91.647696, 50.577775 ], [ 91.65679, 50.583743 ], [ 91.659206, 50.590286 ], [ 91.650053, 50.614567 ], [ 91.654499, 50.63215 ], [ 91.653088, 50.65185 ], [ 91.656703, 50.66022 ], [ 91.679644, 50.67755 ], [ 91.706516, 50.691477 ], [ 91.743693, 50.702567 ], [ 91.752318, 50.717129 ], [ 91.757485, 50.719905 ], [ 91.821904, 50.722197 ], [ 91.828603, 50.725102 ], [ 91.837359, 50.734336 ], [ 91.854832, 50.73528 ], [ 91.88359, 50.730136 ], [ 91.916805, 50.715299 ], [ 91.936702, 50.711319 ], [ 91.966566, 50.69873 ], [ 92.021766, 50.684078 ], [ 92.095332, 50.683931 ], [ 92.145438, 50.681167 ], [ 92.173531, 50.682095 ], [ 92.195069, 50.685161 ], [ 92.224289, 50.702918 ], [ 92.258316, 50.710047 ], [ 92.273902, 50.715667 ], [ 92.289314, 50.725644 ], [ 92.299724, 50.735817 ], [ 92.304564, 50.744339 ], [ 92.304187, 50.758302 ], [ 92.288658, 50.794466 ], [ 92.287649, 50.80842 ], [ 92.300255, 50.827939 ], [ 92.304416, 50.844697 ], [ 92.319219, 50.860578 ], [ 92.322575, 50.88078 ], [ 92.326506, 50.886581 ], [ 92.339568, 50.892442 ], [ 92.369209, 50.894346 ], [ 92.389806, 50.889748 ], [ 92.40096, 50.881096 ], [ 92.407727, 50.859236 ], [ 92.4084, 50.83808 ], [ 92.413096, 50.815296 ], [ 92.445982, 50.791322 ], [ 92.466267, 50.779547 ], [ 92.491847, 50.771418 ], [ 92.50533, 50.769819 ], [ 92.589583, 50.770296 ], [ 92.601986, 50.76669 ], [ 92.611299, 50.760333 ], [ 92.616826, 50.747813 ], [ 92.607637, 50.716222 ], [ 92.611984, 50.708049 ], [ 92.618522, 50.705087 ], [ 92.661087, 50.701137 ], [ 92.747738, 50.710095 ], [ 92.754221, 50.71859 ], [ 92.746575, 50.741908 ], [ 92.749804, 50.754095 ], [ 92.775946, 50.770648 ], [ 92.802164, 50.783249 ], [ 92.822634, 50.790275 ], [ 92.846425, 50.793974 ], [ 92.920057, 50.793021 ], [ 92.992127, 50.788343 ], [ 93.010056, 50.783295 ], [ 93.02207, 50.775991 ], [ 93.031892, 50.761596 ], [ 93.028979, 50.755509 ], [ 93.01652, 50.744893 ], [ 93.007312, 50.732213 ], [ 93.010909, 50.715801 ], [ 93.009509, 50.704487 ], [ 92.983132, 50.659012 ], [ 92.984838, 50.626832 ], [ 92.990517, 50.615636 ], [ 93.002272, 50.603293 ], [ 93.028314, 50.587634 ], [ 93.041088, 50.583748 ], [ 93.075921, 50.584487 ], [ 93.090103, 50.573942 ], [ 93.109052, 50.566152 ], [ 93.152156, 50.561848 ], [ 93.198374, 50.569672 ], [ 93.328836, 50.578155 ], [ 93.402729, 50.585696 ], [ 93.455665, 50.599889 ], [ 93.467915, 50.601407 ], [ 93.484361, 50.597264 ], [ 93.509631, 50.583356 ], [ 93.522993, 50.581765 ], [ 93.588258, 50.581402 ], [ 93.636243, 50.585569 ], [ 93.673705, 50.578162 ], [ 93.780553, 50.583604 ], [ 93.841441, 50.589815 ], [ 93.953404, 50.591172 ], [ 94.005274, 50.588147 ], [ 94.104082, 50.588138 ], [ 94.145423, 50.583843 ], [ 94.222043, 50.582609 ], [ 94.278409, 50.574096 ], [ 94.293771, 50.565161 ], [ 94.303028, 50.552012 ], [ 94.308233, 50.530591 ], [ 94.307699, 50.513104 ], [ 94.312108, 50.499725 ], [ 94.336408, 50.481007 ], [ 94.348583, 50.463657 ], [ 94.36682, 50.355135 ], [ 94.398444, 50.235941 ], [ 94.407816, 50.212973 ], [ 94.413405, 50.206238 ], [ 94.427414, 50.196861 ], [ 94.472158, 50.183974 ], [ 94.511146, 50.168392 ], [ 94.524661, 50.148832 ], [ 94.522399, 50.134934 ], [ 94.529485, 50.124006 ], [ 94.56389, 50.092791 ], [ 94.583775, 50.07899 ], [ 94.598895, 50.06288 ], [ 94.609203, 50.039661 ], [ 94.622977, 50.033206 ], [ 94.643597, 50.029285 ], [ 94.669876, 50.029512 ], [ 94.689444, 50.033035 ], [ 94.735508, 50.04777 ], [ 94.839127, 50.062044 ], [ 94.89833, 50.063924 ], [ 94.964646, 50.061336 ], [ 94.981975, 50.057241 ], [ 94.99787, 50.047447 ], [ 95.005689, 50.037514 ], [ 95.029179, 49.99388 ], [ 95.03991, 49.983721 ], [ 95.073802, 49.965407 ], [ 95.101932, 49.954454 ], [ 95.118081, 49.950371 ], [ 95.132851, 49.948979 ], [ 95.216687, 49.949417 ], [ 95.276975, 49.952496 ], [ 95.333818, 49.95126 ], [ 95.396576, 49.941245 ], [ 95.475459, 49.922978 ], [ 95.495521, 49.920948 ], [ 95.522532, 49.924082 ], [ 95.576546, 49.941572 ], [ 95.635607, 49.955443 ], [ 95.656051, 49.958356 ], [ 95.721682, 49.961912 ], [ 95.736269, 49.965247 ], [ 95.745092, 49.970354 ], [ 95.750844, 49.977489 ], [ 95.755335, 50.003753 ], [ 95.761292, 50.013275 ], [ 95.787434, 50.028463 ], [ 95.81745, 50.038041 ], [ 95.836019, 50.040933 ], [ 95.862898, 50.040862 ], [ 95.88617, 50.034948 ], [ 95.901052, 50.025662 ], [ 95.906718, 50.017228 ], [ 95.909057, 50.001992 ], [ 95.919114, 49.993484 ], [ 95.932293, 49.987601 ], [ 95.969576, 49.98052 ], [ 95.994694, 49.985986 ], [ 96.032896, 50.008659 ], [ 96.055435, 50.015808 ], [ 96.076743, 50.019534 ], [ 96.095862, 50.019195 ], [ 96.118251, 50.014985 ], [ 96.160383, 50.00121 ], [ 96.212598, 49.989957 ], [ 96.264332, 49.986179 ], [ 96.293685, 49.990351 ], [ 96.302747, 49.984687 ], [ 96.307162, 49.967261 ], [ 96.312745, 49.959306 ], [ 96.353033, 49.947096 ], [ 96.404212, 49.905121 ], [ 96.428802, 49.898554 ], [ 96.443103, 49.898622 ], [ 96.453373, 49.901506 ], [ 96.48737, 49.926881 ], [ 96.521878, 49.949904 ], [ 96.535673, 49.956659 ], [ 96.563748, 49.963178 ], [ 96.610476, 49.981137 ], [ 96.633028, 49.981677 ], [ 96.660145, 49.974711 ], [ 96.674179, 49.966936 ], [ 96.679547, 49.961009 ], [ 96.680561, 49.947288 ], [ 96.664028, 49.917689 ], [ 96.667827, 49.911395 ], [ 96.679883, 49.905196 ], [ 96.697505, 49.90381 ], [ 96.716092, 49.907923 ], [ 96.773252, 49.939543 ], [ 96.787754, 49.944067 ], [ 96.802422, 49.945811 ], [ 96.841067, 49.943145 ], [ 96.910229, 49.929245 ], [ 96.998603, 49.915262 ], [ 97.021459, 49.903043 ], [ 97.055896, 49.863748 ], [ 97.076935, 49.84694 ], [ 97.092184, 49.83889 ], [ 97.140303, 49.827131 ], [ 97.150067, 49.822147 ], [ 97.168305, 49.789155 ], [ 97.180967, 49.780018 ], [ 97.219061, 49.768906 ], [ 97.243268, 49.766333 ], [ 97.281199, 49.759212 ], [ 97.302459, 49.756967 ], [ 97.315468, 49.757723 ], [ 97.356766, 49.772548 ], [ 97.428245, 49.787954 ], [ 97.446365, 49.794705 ], [ 97.491985, 49.820893 ], [ 97.544877, 49.847492 ], [ 97.601676, 49.88123 ], [ 97.608023, 49.887704 ], [ 97.610342, 49.896335 ], [ 97.582097, 49.932364 ], [ 97.579177, 49.941707 ], [ 97.585558, 49.948249 ], [ 97.606163, 49.951897 ], [ 97.636903, 49.947217 ], [ 97.674964, 49.949609 ], [ 97.702257, 49.957453 ], [ 97.728963, 49.971087 ], [ 97.761902, 49.982902 ], [ 97.792134, 49.987315 ], [ 97.808485, 49.982632 ], [ 97.820472, 49.958529 ], [ 97.832704, 49.950242 ], [ 97.852223, 49.94721 ], [ 97.863379, 49.948396 ], [ 97.875379, 49.952633 ], [ 97.889323, 49.963641 ], [ 97.900024, 49.979106 ], [ 97.916688, 49.996393 ], [ 97.951563, 50.007827 ], [ 97.965313, 50.023491 ], [ 97.975567, 50.030901 ], [ 97.989118, 50.034845 ], [ 98.018232, 50.036559 ], [ 98.044257, 50.045956 ], [ 98.059644, 50.05507 ], [ 98.102572, 50.088644 ], [ 98.116989, 50.105853 ], [ 98.15092, 50.17746 ], [ 98.171297, 50.203503 ], [ 98.185653, 50.215243 ], [ 98.231851, 50.238995 ], [ 98.254928, 50.256995 ], [ 98.277808, 50.314795 ], [ 98.272268, 50.353226 ], [ 98.259296, 50.386969 ], [ 98.257291, 50.411704 ], [ 98.270002, 50.433481 ], [ 98.289398, 50.457975 ], [ 98.304958, 50.501831 ], [ 98.323375, 50.537248 ], [ 98.322464, 50.547362 ], [ 98.305986, 50.561657 ], [ 98.264563, 50.574445 ], [ 98.210545, 50.582999 ], [ 98.161283, 50.587132 ], [ 98.144592, 50.59123 ], [ 98.129432, 50.598616 ], [ 98.048546, 50.653586 ], [ 98.034555, 50.670777 ], [ 98.01697, 50.701814 ], [ 97.983701, 50.723986 ], [ 97.973936, 50.733945 ], [ 97.966669, 50.746369 ], [ 97.955569, 50.781254 ], [ 97.961593, 50.800114 ], [ 97.972124, 50.815758 ], [ 98.009738, 50.842165 ], [ 98.017783, 50.850081 ], [ 98.018469, 50.867615 ], [ 98.010679, 50.875122 ], [ 97.95885, 50.901962 ], [ 97.941343, 50.914829 ], [ 97.902184, 50.92858 ], [ 97.868683, 50.950068 ], [ 97.858617, 50.96485 ], [ 97.860064, 50.977319 ], [ 97.844335, 50.997599 ], [ 97.830027, 51.003967 ], [ 97.829014, 51.012718 ], [ 97.838438, 51.027317 ], [ 97.856708, 51.035936 ], [ 97.866886, 51.045575 ], [ 97.866999, 51.061638 ], [ 97.874647, 51.074649 ], [ 97.879726, 51.093167 ], [ 97.89276, 51.106564 ], [ 97.895776, 51.113413 ], [ 97.8954, 51.12117 ], [ 97.902679, 51.134246 ], [ 97.909387, 51.160961 ], [ 97.909016, 51.172462 ], [ 97.931673, 51.1949 ], [ 97.952512, 51.231436 ], [ 97.952142, 51.237686 ], [ 97.944449, 51.248087 ], [ 97.956392, 51.277339 ], [ 97.952215, 51.288176 ], [ 97.952998, 51.30985 ], [ 97.946552, 51.324351 ], [ 97.954072, 51.333215 ], [ 97.97308, 51.346068 ], [ 97.993851, 51.385233 ], [ 98.012851, 51.402876 ], [ 98.022904, 51.419225 ], [ 98.043892, 51.431907 ], [ 98.052052, 51.439576 ], [ 98.078209, 51.451407 ], [ 98.099062, 51.457891 ], [ 98.122829, 51.459154 ], [ 98.194492, 51.452734 ], [ 98.216302, 51.45484 ], [ 98.233966, 51.462903 ], [ 98.24089, 51.475547 ], [ 98.24878, 51.503054 ], [ 98.259437, 51.514219 ], [ 98.262249, 51.520629 ], [ 98.257936, 51.534835 ], [ 98.24479, 51.552765 ], [ 98.241606, 51.567772 ], [ 98.267785, 51.602006 ], [ 98.275307, 51.616502 ], [ 98.274746, 51.623951 ], [ 98.295613, 51.649704 ], [ 98.29925, 51.659074 ], [ 98.303396, 51.699447 ], [ 98.309073, 51.711142 ], [ 98.321037, 51.721278 ], [ 98.345385, 51.735554 ], [ 98.368769, 51.745204 ], [ 98.41183, 51.754288 ], [ 98.492457, 51.765419 ], [ 98.519624, 51.779221 ], [ 98.549543, 51.788523 ], [ 98.625387, 51.797263 ], [ 98.662201, 51.807053 ], [ 98.694435, 51.819858 ], [ 98.711744, 51.831093 ], [ 98.730141, 51.850988 ], [ 98.795997, 51.959263 ], [ 98.819309, 52.013044 ], [ 98.853703, 52.043994 ], [ 98.861223, 52.064067 ], [ 98.866451, 52.112897 ], [ 98.870658, 52.12587 ], [ 98.880176, 52.139292 ], [ 98.889787, 52.146304 ], [ 98.895121, 52.149016 ], [ 98.924175, 52.153329 ], [ 98.943291, 52.150948 ], [ 98.959029, 52.144292 ], [ 98.983906, 52.127884 ], [ 99.0284, 52.086003 ], [ 99.051627, 52.071223 ], [ 99.096048, 52.057546 ], [ 99.136525, 52.049564 ], [ 99.181026, 52.037703 ], [ 99.237687, 52.029936 ], [ 99.272232, 52.019819 ], [ 99.280936, 52.013822 ], [ 99.285436, 52.007429 ], [ 99.289753, 51.986245 ], [ 99.294785, 51.976423 ], [ 99.307331, 51.967108 ], [ 99.317856, 51.962936 ], [ 99.36147, 51.955067 ], [ 99.404436, 51.952964 ], [ 99.460002, 51.947493 ], [ 99.571836, 51.9182 ], [ 99.614607, 51.914924 ], [ 99.669638, 51.913382 ], [ 99.701126, 51.908983 ], [ 99.728108, 51.901012 ], [ 99.769384, 51.882028 ], [ 99.78269, 51.873035 ], [ 99.834211, 51.823607 ], [ 99.894116, 51.78902 ], [ 99.928319, 51.774044 ], [ 99.991338, 51.75446 ], [ 100.04391, 51.752588 ], [ 100.100142, 51.759919 ], [ 100.125867, 51.7602 ], [ 100.225039, 51.752201 ], [ 100.282537, 51.745005 ], [ 100.314255, 51.744704 ], [ 100.3767, 51.749095 ], [ 100.39933, 51.747785 ], [ 100.427712, 51.741925 ], [ 100.441342, 51.740882 ], [ 100.473749, 51.747073 ], [ 100.51896, 51.749228 ], [ 100.545251, 51.74127 ], [ 100.581509, 51.723642 ], [ 100.5962, 51.718706 ], [ 100.614169, 51.715975 ], [ 100.65123, 51.71672 ], [ 100.67984, 51.712981 ], [ 100.700324, 51.704647 ], [ 100.733838, 51.682925 ], [ 100.748656, 51.676679 ], [ 100.811872, 51.664106 ], [ 100.824245, 51.659616 ], [ 100.850424, 51.645468 ], [ 100.863987, 51.640772 ], [ 100.91259, 51.632792 ], [ 100.946224, 51.624999 ], [ 100.982101, 51.610855 ], [ 101.037815, 51.579337 ], [ 101.050719, 51.576464 ], [ 101.085794, 51.57401 ], [ 101.101782, 51.569883 ], [ 101.120806, 51.559723 ], [ 101.133398, 51.54798 ], [ 101.141832, 51.54395 ], [ 101.162491, 51.542746 ], [ 101.213371, 51.54751 ], [ 101.228904, 51.547329 ], [ 101.244325, 51.544469 ], [ 101.263538, 51.535675 ], [ 101.34541, 51.472391 ], [ 101.380355, 51.458116 ], [ 101.391792, 51.456233 ], [ 101.405989, 51.458797 ], [ 101.423082, 51.468088 ], [ 101.435271, 51.480891 ], [ 101.444248, 51.486855 ], [ 101.479025, 51.498415 ], [ 101.50471, 51.501975 ], [ 101.534602, 51.502942 ], [ 101.571431, 51.500206 ], [ 101.596493, 51.494192 ], [ 101.608687, 51.488227 ], [ 101.62761, 51.473804 ], [ 101.641486, 51.458167 ], [ 101.655482, 51.452696 ], [ 101.674462, 51.451839 ], [ 101.712181, 51.459052 ], [ 101.749142, 51.460147 ], [ 101.774904, 51.452514 ], [ 101.807923, 51.436459 ], [ 101.854655, 51.422152 ], [ 101.880097, 51.420055 ], [ 101.91157, 51.424494 ], [ 101.933634, 51.424073 ], [ 101.950384, 51.419228 ], [ 101.999068, 51.395761 ], [ 102.014916, 51.394063 ], [ 102.038912, 51.397081 ], [ 102.06463, 51.396807 ], [ 102.083798, 51.391894 ], [ 102.101462, 51.382954 ], [ 102.1468, 51.353148 ], [ 102.198105, 51.336281 ], [ 102.207917, 51.329279 ], [ 102.212857, 51.321306 ], [ 102.213506, 51.313884 ], [ 102.208909, 51.30469 ], [ 102.190386, 51.292506 ], [ 102.160806, 51.27984 ], [ 102.154693, 51.273922 ], [ 102.152181, 51.265895 ], [ 102.178882, 51.21666 ], [ 102.179287, 51.208077 ], [ 102.170786, 51.185075 ], [ 102.171177, 51.150164 ], [ 102.194344, 51.072613 ], [ 102.203841, 51.056786 ], [ 102.251314, 50.998873 ], [ 102.262443, 50.981383 ], [ 102.265623, 50.969504 ], [ 102.259005, 50.933595 ], [ 102.24179, 50.90911 ], [ 102.226566, 50.878881 ], [ 102.222417, 50.864016 ], [ 102.224697, 50.842907 ], [ 102.232724, 50.827506 ], [ 102.25295, 50.809228 ], [ 102.274081, 50.795841 ], [ 102.336988, 50.764984 ], [ 102.352939, 50.751758 ], [ 102.357234, 50.7412 ], [ 102.352233, 50.724926 ], [ 102.312146, 50.680042 ], [ 102.293034, 50.648121 ], [ 102.289775, 50.628925 ], [ 102.294362, 50.611321 ], [ 102.303196, 50.598884 ], [ 102.318426, 50.586194 ], [ 102.335596, 50.576734 ], [ 102.403275, 50.551569 ], [ 102.448669, 50.54321 ], [ 102.503558, 50.540547 ], [ 102.528297, 50.533026 ], [ 102.544601, 50.51999 ], [ 102.554086, 50.501959 ], [ 102.570946, 50.480515 ], [ 102.584636, 50.469444 ], [ 102.612587, 50.453919 ], [ 102.643497, 50.429165 ], [ 102.663085, 50.420418 ], [ 102.705167, 50.406651 ], [ 102.73411, 50.399668 ], [ 102.826088, 50.377471 ], [ 102.85199, 50.363364 ], [ 102.889399, 50.326055 ], [ 102.917643, 50.313938 ], [ 102.943118, 50.307308 ], [ 102.97936, 50.304539 ], [ 103.095933, 50.308826 ], [ 103.159458, 50.314054 ], [ 103.206011, 50.311844 ], [ 103.232211, 50.304454 ], [ 103.243767, 50.296791 ], [ 103.248595, 50.290257 ], [ 103.258817, 50.255676 ], [ 103.269042, 50.237303 ], [ 103.28753, 50.219434 ], [ 103.315626, 50.204127 ], [ 103.339814, 50.202152 ], [ 103.396856, 50.214848 ], [ 103.441025, 50.214733 ], [ 103.478575, 50.203768 ], [ 103.588459, 50.160077 ], [ 103.648603, 50.142867 ], [ 103.674058, 50.138632 ], [ 103.691282, 50.138014 ], [ 103.70896, 50.143408 ], [ 103.722038, 50.152853 ], [ 103.759744, 50.195114 ], [ 103.773407, 50.203059 ], [ 103.79681, 50.207536 ], [ 103.845574, 50.204629 ], [ 103.909623, 50.184668 ], [ 103.956143, 50.177503 ], [ 104.019754, 50.156175 ], [ 104.033768, 50.154269 ], [ 104.063042, 50.155053 ], [ 104.125723, 50.167985 ], [ 104.168729, 50.179631 ], [ 104.232113, 50.188962 ], [ 104.247783, 50.198696 ], [ 104.267603, 50.235636 ], [ 104.283375, 50.250931 ], [ 104.299256, 50.255973 ], [ 104.327912, 50.256445 ], [ 104.338404, 50.25895 ], [ 104.345842, 50.265295 ], [ 104.358544, 50.285938 ], [ 104.364542, 50.29114 ], [ 104.378868, 50.29797 ], [ 104.399906, 50.30348 ], [ 104.506259, 50.318543 ], [ 104.528975, 50.318044 ], [ 104.569717, 50.31371 ], [ 104.593543, 50.31467 ], [ 104.636023, 50.325003 ], [ 104.670852, 50.344231 ], [ 104.696408, 50.352546 ], [ 104.721845, 50.354799 ], [ 104.821754, 50.355978 ], [ 104.840209, 50.36041 ], [ 104.91136, 50.387947 ], [ 104.956029, 50.397796 ], [ 105.000263, 50.398753 ], [ 105.094118, 50.391169 ], [ 105.122533, 50.393623 ], [ 105.151838, 50.400308 ], [ 105.17776, 50.409831 ], [ 105.216537, 50.432536 ], [ 105.283206, 50.466151 ], [ 105.301523, 50.473363 ], [ 105.327082, 50.47855 ], [ 105.355709, 50.480145 ], [ 105.387339, 50.478685 ], [ 105.457526, 50.459231 ], [ 105.539402, 50.452393 ], [ 105.594016, 50.435915 ], [ 105.612421, 50.432608 ], [ 105.712274, 50.429276 ], [ 105.788467, 50.434562 ], [ 105.814198, 50.434567 ], [ 105.843851, 50.430037 ], [ 105.898972, 50.414187 ], [ 105.917986, 50.410839 ], [ 105.97839, 50.409134 ], [ 105.998249, 50.406533 ], [ 106.029701, 50.412409 ], [ 106.046232, 50.411357 ], [ 106.068267, 50.403762 ], [ 106.077791, 50.39554 ], [ 106.087783, 50.361464 ], [ 106.095251, 50.35089 ], [ 106.168923, 50.333968 ], [ 106.222219, 50.315718 ], [ 106.24727, 50.303953 ], [ 106.276262, 50.296882 ], [ 106.476047, 50.336816 ], [ 106.535176, 50.344929 ], [ 106.564381, 50.346685 ], [ 106.597054, 50.344405 ], [ 106.759327, 50.320807 ], [ 106.804996, 50.305712 ], [ 106.922069, 50.24856 ], [ 106.968968, 50.220098 ], [ 106.987081, 50.205338 ], [ 106.996821, 50.192188 ], [ 107.02826, 50.133804 ], [ 107.037135, 50.111101 ], [ 107.067564, 50.074069 ], [ 107.098634, 50.048218 ], [ 107.129277, 50.028198 ], [ 107.146362, 50.020453 ], [ 107.203664, 50.013153 ], [ 107.25034, 49.994438 ], [ 107.265489, 49.992668 ], [ 107.279135, 49.996065 ], [ 107.307046, 50.01555 ], [ 107.316219, 50.019111 ], [ 107.326602, 50.020273 ], [ 107.352212, 50.009906 ], [ 107.363068, 49.997145 ], [ 107.380343, 49.982871 ], [ 107.396543, 49.976526 ], [ 107.425512, 49.974314 ], [ 107.439786, 49.980615 ], [ 107.452079, 49.978814 ], [ 107.475803, 49.981537 ], [ 107.584458, 49.958758 ], [ 107.632932, 49.95838 ], [ 107.664486, 49.954015 ], [ 107.700225, 49.95603 ], [ 107.714359, 49.96212 ], [ 107.728565, 49.980216 ], [ 107.743814, 49.98205 ], [ 107.75744, 49.977504 ], [ 107.819601, 49.935276 ], [ 107.855244, 49.921905 ], [ 107.871418, 49.919187 ], [ 107.89475, 49.91922 ], [ 107.941037, 49.925196 ], [ 107.961819, 49.923627 ], [ 107.971151, 49.921129 ], [ 107.977294, 49.912836 ], [ 107.976445, 49.903291 ], [ 107.953968, 49.875239 ], [ 107.947527, 49.85173 ], [ 107.952206, 49.824491 ], [ 107.962136, 49.798611 ], [ 107.96708, 49.776424 ], [ 107.981, 49.742479 ], [ 107.97492, 49.728841 ], [ 107.939908, 49.700478 ], [ 107.938418, 49.689398 ], [ 107.945899, 49.677232 ], [ 107.958523, 49.66798 ], [ 107.9722, 49.664408 ], [ 107.984475, 49.665607 ], [ 108.003418, 49.672895 ], [ 108.012903, 49.672988 ], [ 108.018992, 49.663243 ], [ 108.014584, 49.632433 ], [ 108.02581, 49.615835 ], [ 108.052578, 49.600374 ], [ 108.100867, 49.579452 ], [ 108.137571, 49.560108 ], [ 108.156436, 49.554293 ], [ 108.213782, 49.546262 ], [ 108.284656, 49.527534 ], [ 108.292796, 49.520428 ], [ 108.308252, 49.496054 ], [ 108.347606, 49.474043 ], [ 108.356153, 49.457922 ], [ 108.369841, 49.442429 ], [ 108.403434, 49.423672 ], [ 108.455202, 49.401188 ], [ 108.504683, 49.358629 ], [ 108.523417, 49.346572 ], [ 108.545563, 49.336787 ], [ 108.560762, 49.334919 ], [ 108.629525, 49.341174 ], [ 108.69, 49.34135 ], [ 108.709675, 49.338342 ], [ 108.75798, 49.348636 ], [ 108.78463, 49.351055 ], [ 108.831008, 49.347606 ], [ 108.849635, 49.343515 ], [ 108.876505, 49.342744 ], [ 108.922902, 49.354181 ], [ 108.961022, 49.359057 ], [ 108.98445, 49.354617 ], [ 109.016245, 49.340093 ], [ 109.046173, 49.336636 ], [ 109.109594, 49.342509 ], [ 109.145402, 49.348879 ], [ 109.184994, 49.359944 ], [ 109.211756, 49.361266 ], [ 109.245803, 49.35095 ], [ 109.326564, 49.341636 ], [ 109.367468, 49.331629 ], [ 109.410625, 49.310279 ], [ 109.451316, 49.295331 ], [ 109.483792, 49.287469 ], [ 109.490299, 49.282075 ], [ 109.500912, 49.256041 ], [ 109.509983, 49.244614 ], [ 109.544472, 49.225722 ], [ 109.587795, 49.222868 ], [ 109.660695, 49.229708 ], [ 109.69893, 49.231361 ], [ 109.751293, 49.227587 ], [ 109.785181, 49.221141 ], [ 109.798893, 49.216374 ], [ 109.826745, 49.196576 ], [ 109.839584, 49.192652 ], [ 109.85761, 49.197068 ], [ 109.876882, 49.207478 ], [ 109.892594, 49.209301 ], [ 109.982167, 49.199094 ], [ 110.018662, 49.199092 ], [ 110.051594, 49.194999 ], [ 110.182922, 49.16791 ], [ 110.23294, 49.165364 ], [ 110.299883, 49.181037 ], [ 110.326762, 49.192003 ], [ 110.352253, 49.208514 ], [ 110.387465, 49.248865 ], [ 110.400503, 49.257121 ], [ 110.416049, 49.250248 ], [ 110.448422, 49.224617 ], [ 110.481951, 49.20397 ], [ 110.498755, 49.198978 ], [ 110.519017, 49.198691 ], [ 110.539841, 49.195408 ], [ 110.573261, 49.172017 ], [ 110.596445, 49.162353 ], [ 110.657626, 49.150028 ], [ 110.705743, 49.146034 ], [ 110.76441, 49.145226 ], [ 110.803771, 49.150126 ], [ 110.822115, 49.154903 ], [ 110.843508, 49.16351 ], [ 110.859404, 49.166955 ], [ 110.923621, 49.174492 ], [ 110.955899, 49.184749 ], [ 110.992502, 49.200332 ], [ 111.034452, 49.230376 ], [ 111.071695, 49.247409 ], [ 111.105378, 49.272797 ], [ 111.130906, 49.285072 ], [ 111.170026, 49.300226 ], [ 111.210501, 49.310987 ], [ 111.249949, 49.317444 ], [ 111.272389, 49.324775 ], [ 111.322734, 49.334796 ], [ 111.33485, 49.340377 ], [ 111.362001, 49.367895 ], [ 111.375259, 49.372145 ], [ 111.395783, 49.372138 ], [ 111.459173, 49.355649 ], [ 111.481066, 49.347652 ], [ 111.504853, 49.344272 ], [ 111.526313, 49.34761 ], [ 111.659138, 49.395071 ], [ 111.681516, 49.400742 ], [ 111.697902, 49.404735 ], [ 111.72751, 49.405906 ], [ 111.772168, 49.397055 ], [ 111.818092, 49.391357 ], [ 111.895738, 49.391781 ], [ 111.93361, 49.395548 ], [ 111.962102, 49.401503 ], [ 111.98146, 49.407661 ], [ 112.022788, 49.425485 ], [ 112.042016, 49.428348 ], [ 112.10951, 49.431425 ], [ 112.128287, 49.435345 ], [ 112.222721, 49.466595 ], [ 112.264187, 49.484342 ], [ 112.287719, 49.490036 ], [ 112.33982, 49.494859 ], [ 112.433612, 49.523415 ], [ 112.458797, 49.534553 ], [ 112.4882, 49.542291 ], [ 112.509673, 49.545765 ], [ 112.593504, 49.52562 ], [ 112.651061, 49.526942 ], [ 112.663161, 49.522774 ], [ 112.717791, 49.492282 ], [ 112.743803, 49.490645 ], [ 112.786042, 49.501606 ], [ 112.815209, 49.511536 ], [ 112.841203, 49.522645 ], [ 112.887763, 49.549474 ], [ 112.932477, 49.56676 ], [ 112.968707, 49.587014 ], [ 112.995575, 49.593566 ], [ 113.083949, 49.607681 ], [ 113.09844, 49.613636 ], [ 113.102932, 49.625819 ], [ 113.096627, 49.655728 ], [ 113.106497, 49.678051 ], [ 113.119536, 49.696322 ], [ 113.1466, 49.745981 ], [ 113.180507, 49.792724 ], [ 113.185218, 49.799214 ], [ 113.196743, 49.810961 ], [ 113.232052, 49.835633 ], [ 113.311493, 49.870185 ], [ 113.33034, 49.87838 ], [ 113.359633, 49.89307 ], [ 113.397935, 49.918019 ], [ 113.45611, 49.942937 ], [ 113.466606, 49.950276 ], [ 113.47808, 49.965904 ], [ 113.489079, 49.972361 ], [ 113.531471, 49.977382 ], [ 113.570641, 50.007277 ], [ 113.59871, 50.021665 ], [ 113.669208, 50.04371 ], [ 113.700804, 50.056228 ], [ 113.741867, 50.076173 ], [ 113.779806, 50.090091 ], [ 113.796117, 50.093834 ], [ 113.819386, 50.094617 ], [ 113.838457, 50.091434 ], [ 113.856168, 50.085905 ], [ 113.868904, 50.085656 ], [ 113.895664, 50.106629 ], [ 113.947529, 50.132007 ], [ 114.020159, 50.179806 ], [ 114.036398, 50.185321 ], [ 114.072256, 50.184773 ], [ 114.081976, 50.186448 ], [ 114.095689, 50.193741 ], [ 114.111959, 50.209734 ], [ 114.140589, 50.220041 ], [ 114.177433, 50.23788 ], [ 114.197392, 50.247541 ], [ 114.232881, 50.258652 ], [ 114.282665, 50.270818 ], [ 114.344124, 50.282331 ], [ 114.369924, 50.280165 ], [ 114.395377, 50.26406 ], [ 114.424281, 50.252509 ], [ 114.453685, 50.2449 ], [ 114.482139, 50.242562 ], [ 114.506044, 50.237411 ], [ 114.546118, 50.23807 ], [ 114.579738, 50.241818 ], [ 114.645293, 50.255164 ], [ 114.672784, 50.256024 ], [ 114.710663, 50.252365 ], [ 114.749515, 50.245966 ], [ 114.806744, 50.233449 ], [ 114.823778, 50.227156 ], [ 114.857288, 50.221407 ], [ 114.966599, 50.192279 ], [ 115.004509, 50.176308 ], [ 115.068759, 50.111595 ], [ 115.156091, 50.046763 ], [ 115.211333, 49.99813 ], [ 115.234729, 49.981635 ], [ 115.34135, 49.931899 ], [ 115.372553, 49.909214 ], [ 115.398207, 49.902967 ], [ 115.421329, 49.901465 ], [ 115.463021, 49.908043 ], [ 115.470259, 49.906536 ], [ 115.488063, 49.897542 ], [ 115.506372, 49.896325 ], [ 115.556148, 49.906826 ], [ 115.591664, 49.903421 ], [ 115.66456, 49.890882 ], [ 115.716493, 49.885126 ], [ 115.756997, 49.886965 ], [ 115.77549, 49.893182 ], [ 115.857321, 49.933455 ], [ 115.890877, 49.94614 ], [ 115.909354, 49.950497 ], [ 116.024365, 49.99756 ], [ 116.052701, 50.006737 ], [ 116.100928, 50.017125 ], [ 116.13655, 50.020052 ], [ 116.204339, 50.0314 ], [ 116.231814, 50.032174 ], [ 116.266649, 50.024135 ], [ 116.446466, 49.963584 ], [ 116.535786, 49.952416 ], [ 116.607211, 49.939628 ], [ 116.62142, 49.928819 ], [ 116.641586, 49.902993 ], [ 116.672688, 49.873705 ], [ 116.697829, 49.859445 ], [ 116.720941, 49.84979 ], [ 116.041096, 48.863768 ], [ 116.041194, 48.8602 ], [ 116.053783, 48.842109 ], [ 116.072758, 48.814828 ], [ 115.815323, 48.54745 ], [ 115.784338, 48.515173 ], [ 115.791332, 48.450583 ], [ 115.812167, 48.257689 ], [ 115.529904, 48.138092 ], [ 115.540476, 48.12338 ], [ 115.529064, 48.106497 ], [ 115.532779, 48.070619 ], [ 115.529098, 48.052845 ], [ 115.559581, 47.927074 ], [ 115.66042, 47.862731 ], [ 115.669938, 47.85674 ], [ 115.815323, 47.765359 ], [ 115.942372, 47.685371 ], [ 116.117259, 47.835568 ], [ 116.188548, 47.862731 ], [ 116.246881, 47.884947 ], [ 116.361897, 47.862731 ], [ 116.427941, 47.84997 ], [ 116.490192, 47.862731 ], [ 116.678955, 47.901407 ], [ 116.843554, 47.903465 ], [ 116.88896, 47.889591 ], [ 116.976888, 47.862731 ], [ 117.065764, 47.835568 ], [ 117.366158, 47.654508 ], [ 117.477262, 47.765613 ], [ 117.595176, 47.862731 ], [ 117.790001, 48.022799 ], [ 117.872301, 48.035144 ], [ 117.925796, 48.020742 ], [ 118.038958, 48.022799 ], [ 118.170638, 48.063949 ], [ 118.223915, 48.04174 ], [ 118.238378, 48.03571 ], [ 118.27737, 48.019456 ], [ 118.336009, 48.033344 ], [ 118.413165, 48.022542 ], [ 118.462117, 47.993747 ], [ 118.465631, 47.99168 ], [ 118.469935, 47.993473 ], [ 118.484148, 47.999395 ], [ 118.561304, 47.994766 ], [ 118.601933, 47.951181 ], [ 118.684277, 47.862731 ], [ 118.76897, 47.772417 ], [ 118.906757, 47.727142 ], [ 119.120609, 47.656795 ], [ 119.145124, 47.521451 ], [ 119.359269, 47.479377 ], [ 119.336619, 47.452064 ], [ 119.337436, 47.438869 ], [ 119.378703, 47.390603 ], [ 119.417879, 47.377099 ], [ 119.464328, 47.333414 ], [ 119.499558, 47.315887 ], [ 119.543217, 47.301081 ], [ 119.560755, 47.278615 ], [ 119.550952, 47.249011 ], [ 119.556413, 47.240944 ], [ 119.612706, 47.245655 ], [ 119.651229, 47.216828 ], [ 119.708765, 47.184395 ], [ 119.719244, 47.163746 ], [ 119.76766, 47.110498 ], [ 119.783943, 47.05952 ], [ 119.779818, 47.015604 ], [ 119.778727, 47.003981 ], [ 119.834619, 46.969027 ], [ 119.883105, 46.95779 ], [ 119.851482, 46.940959 ], [ 119.858651, 46.922662 ], [ 119.91763, 46.909375 ], [ 119.904894, 46.879974 ], [ 119.930289, 46.800855 ], [ 119.903579, 46.766036 ], [ 119.93165, 46.717418 ], [ 119.906815, 46.689531 ], [ 119.807668, 46.6857 ], [ 119.792983, 46.658203 ], [ 119.767219, 46.634002 ], [ 119.735399, 46.61867 ], [ 119.708134, 46.610263 ], [ 119.678496, 46.594375 ], [ 119.677174, 46.612879 ], [ 119.661828, 46.640725 ], [ 119.641114, 46.632012 ], [ 119.582043, 46.618793 ], [ 119.558589, 46.643005 ], [ 119.554434, 46.644471 ], [ 119.441938, 46.642633 ], [ 119.409111, 46.638136 ], [ 119.374136, 46.622345 ], [ 119.368573, 46.621561 ], [ 119.305375, 46.624804 ], [ 119.228774, 46.657211 ], [ 119.139634, 46.667495 ], [ 119.088441, 46.660472 ], [ 119.066588, 46.680197 ], [ 119.034484, 46.72428 ], [ 119.010146, 46.74859 ], [ 118.976283, 46.750758 ], [ 118.951108, 46.735975 ], [ 118.928084, 46.732954 ], [ 118.91109, 46.747904 ], [ 118.906757, 46.761019 ], [ 118.901992, 46.775437 ], [ 118.898701, 46.77735 ], [ 118.870087, 46.778633 ], [ 118.834783, 46.77345 ], [ 118.807156, 46.743289 ], [ 118.774421, 46.719 ], [ 118.785089, 46.699581 ], [ 118.78228, 46.694482 ], [ 118.763453, 46.696864 ], [ 118.737841, 46.695698 ], [ 118.674841, 46.703707 ], [ 118.665705, 46.705373 ], [ 118.625503, 46.724187 ], [ 118.605091, 46.71418 ], [ 118.585154, 46.710453 ], [ 118.565914, 46.692878 ], [ 118.545694, 46.697158 ], [ 118.417632, 46.706149 ], [ 118.380796, 46.732441 ], [ 118.304019, 46.747469 ], [ 118.27333, 46.734158 ], [ 118.241734, 46.726747 ], [ 118.220527, 46.716744 ], [ 118.173495, 46.688249 ], [ 118.112496, 46.688684 ], [ 118.066784, 46.659892 ], [ 118.045888, 46.641672 ], [ 117.984147, 46.638168 ], [ 117.959552, 46.615599 ], [ 117.923534, 46.618122 ], [ 117.900733, 46.61358 ], [ 117.881595, 46.591065 ], [ 117.859757, 46.583918 ], [ 117.83846, 46.563086 ], [ 117.818924, 46.551051 ], [ 117.787064, 46.551719 ], [ 117.741252, 46.542548 ], [ 117.68789, 46.521699 ], [ 117.640127, 46.554329 ], [ 117.625766, 46.561454 ], [ 117.617468, 46.591596 ], [ 117.599279, 46.605304 ], [ 117.580198, 46.599683 ], [ 117.539183, 46.596736 ], [ 117.475378, 46.59215 ], [ 117.437061, 46.587556 ], [ 117.417301, 46.575791 ], [ 117.418781, 46.559452 ], [ 117.428897, 46.536688 ], [ 117.421072, 46.518628 ], [ 117.402771, 46.503644 ], [ 117.385229, 46.484006 ], [ 117.363143, 46.44525 ], [ 117.358036, 46.399218 ], [ 117.325526, 46.36101 ], [ 116.998907, 46.363693 ], [ 116.897529, 46.376025 ], [ 116.883449, 46.37565 ], [ 116.872191, 46.366018 ], [ 116.851903, 46.381839 ], [ 116.823454, 46.382143 ], [ 116.757479, 46.324775 ], [ 116.632377, 46.31847 ], [ 116.598667, 46.307001 ], [ 116.437337, 46.149755 ], [ 116.400433, 46.12317 ], [ 116.278244, 45.981158 ], [ 116.260731, 45.933231 ], [ 116.264125, 45.911907 ], [ 116.247622, 45.892194 ], [ 116.24164, 45.873551 ], [ 116.249342, 45.858388 ], [ 116.25224, 45.856366 ], [ 116.266552, 45.846378 ], [ 116.277355, 45.825636 ], [ 116.277606, 45.805231 ], [ 116.271803, 45.77379 ], [ 116.243502, 45.760532 ], [ 116.212961, 45.746221 ], [ 116.2008, 45.729998 ], [ 116.197122, 45.71613 ], [ 116.189458, 45.707919 ], [ 116.18089, 45.698739 ], [ 116.148228, 45.690902 ], [ 116.138455, 45.685038 ], [ 116.125351, 45.677174 ], [ 116.091186, 45.68406 ], [ 116.082043, 45.685038 ], [ 116.060441, 45.687348 ], [ 116.052321, 45.685038 ], [ 116.032997, 45.679539 ], [ 116.001548, 45.652874 ], [ 115.944429, 45.636995 ], [ 115.833092, 45.559062 ], [ 115.815323, 45.547829 ], [ 115.678005, 45.460944 ], [ 115.341708, 45.390717 ], [ 115.22789, 45.397004 ], [ 115.065806, 45.391298 ], [ 115.007847, 45.380914 ], [ 114.919874, 45.379866 ], [ 114.832321, 45.410888 ], [ 114.770953, 45.429886 ], [ 114.730745, 45.436192 ], [ 114.699397, 45.429452 ], [ 114.656389, 45.40888 ], [ 114.620944, 45.399889 ], [ 114.566934, 45.401234 ], [ 114.531874, 45.377442 ], [ 114.532173, 45.338103 ], [ 114.515331, 45.297281 ], [ 114.452042, 45.217436 ], [ 114.375197, 45.157733 ], [ 114.316907, 45.11883 ], [ 114.177433, 45.043488 ], [ 114.166639, 45.037653 ], [ 114.136666, 44.988922 ], [ 114.091228, 44.952357 ], [ 114.045076, 44.935526 ], [ 113.959628, 44.932929 ], [ 113.944324, 44.925966 ], [ 113.886397, 44.917826 ], [ 113.875583, 44.898941 ], [ 113.845088, 44.867534 ], [ 113.753768, 44.841402 ], [ 113.706801, 44.797461 ], [ 113.617799, 44.743921 ], [ 113.519962, 44.760412 ], [ 113.496856, 44.777933 ], [ 113.311493, 44.785362 ], [ 113.180507, 44.790612 ], [ 113.118449, 44.793099 ], [ 113.069676, 44.808248 ], [ 112.948186, 44.839754 ], [ 112.914448, 44.843536 ], [ 112.863061, 44.837475 ], [ 112.850486, 44.843715 ], [ 112.831319, 44.84682 ], [ 112.709954, 44.88204 ], [ 112.599245, 44.93102 ], [ 112.559019, 44.97349 ], [ 112.52677, 45.000227 ], [ 112.509542, 45.020544 ], [ 112.462234, 45.053441 ], [ 112.448693, 45.069831 ], [ 112.425051, 45.088443 ], [ 112.403352, 45.077479 ], [ 112.376347, 45.06746 ], [ 112.319192, 45.060517 ], [ 112.202786, 45.076252 ], [ 112.151194, 45.072001 ], [ 112.114373, 45.075209 ], [ 112.075237, 45.087814 ], [ 112.053066, 45.10048 ], [ 112.021545, 45.100548 ], [ 111.958272, 45.082723 ], [ 111.834286, 45.019021 ], [ 111.818092, 45.008883 ], [ 111.784977, 44.988146 ], [ 111.743627, 44.947137 ], [ 111.720982, 44.903815 ], [ 111.69188, 44.859589 ], [ 111.681516, 44.845576 ], [ 111.656564, 44.811825 ], [ 111.618058, 44.772872 ], [ 111.596876, 44.739545 ], [ 111.57789, 44.692962 ], [ 111.562683, 44.670403 ], [ 111.559304, 44.625324 ], [ 111.566629, 44.574661 ], [ 111.534076, 44.558813 ], [ 111.517017, 44.511671 ], [ 111.515296, 44.506911 ], [ 111.490013, 44.495492 ], [ 111.452626, 44.451231 ], [ 111.422866, 44.398483 ], [ 111.411526, 44.347846 ], [ 111.440289, 44.314068 ], [ 111.495194, 44.296119 ], [ 111.500319, 44.292244 ], [ 111.515222, 44.273721 ], [ 111.517017, 44.267501 ], [ 111.53872, 44.192255 ], [ 111.585335, 44.142839 ], [ 111.600614, 44.111696 ], [ 111.644198, 44.071211 ], [ 111.681516, 44.0466 ], [ 111.709441, 44.028176 ], [ 111.804395, 43.980826 ], [ 111.818092, 43.970259 ], [ 111.858719, 43.938907 ], [ 111.905773, 43.89051 ], [ 111.952448, 43.821911 ], [ 111.957947, 43.797343 ], [ 111.970773, 43.740005 ], [ 111.924092, 43.680371 ], [ 111.918999, 43.678111 ], [ 111.818092, 43.667898 ], [ 111.788857, 43.664938 ], [ 111.681516, 43.576584 ], [ 111.592822, 43.50348 ], [ 111.544912, 43.488796 ], [ 111.517017, 43.487994 ], [ 111.504286, 43.487628 ], [ 111.478604, 43.492881 ], [ 111.419648, 43.478551 ], [ 111.386708, 43.452942 ], [ 111.360254, 43.440284 ], [ 111.263116, 43.421426 ], [ 111.176438, 43.386998 ], [ 111.105585, 43.366971 ], [ 110.968404, 43.291684 ], [ 110.762286, 43.094476 ], [ 110.734096, 43.082551 ], [ 110.67087, 43.027104 ], [ 110.678675, 43.001682 ], [ 110.628925, 42.938286 ], [ 110.580698, 42.907125 ], [ 110.464187, 42.831778 ], [ 110.430574, 42.776889 ], [ 110.339462, 42.733818 ], [ 110.14304, 42.677688 ], [ 110.110446, 42.639395 ], [ 110.055114, 42.637949 ], [ 109.913223, 42.63424 ], [ 109.769142, 42.580315 ], [ 109.678485, 42.554913 ], [ 109.530263, 42.463722 ], [ 109.511954, 42.466292 ], [ 109.485444, 42.459493 ], [ 109.308764, 42.435594 ], [ 109.021401, 42.454877 ], [ 108.859947, 42.396775 ], [ 108.853711, 42.405755 ], [ 108.808276, 42.416732 ], [ 108.70492, 42.412483 ], [ 108.539032, 42.439997 ], [ 108.367828, 42.436653 ], [ 108.291843, 42.438901 ], [ 108.240415, 42.457127 ], [ 108.184944, 42.448152 ], [ 108.082473, 42.436875 ], [ 108.016155, 42.435264 ], [ 107.984171, 42.414976 ], [ 107.96313, 42.41211 ], [ 107.93262, 42.402097 ], [ 107.712827, 42.413411 ], [ 107.597267, 42.412373 ], [ 107.444215, 42.454578 ], [ 107.287261, 42.411249 ], [ 107.244323, 42.362021 ], [ 107.040643, 42.318609 ], [ 106.767585, 42.291791 ], [ 106.589993, 42.24344 ], [ 106.342316, 42.164757 ], [ 106.051272, 42.058151 ], [ 105.698789, 41.94293 ], [ 105.375182, 41.802003 ], [ 105.275445, 41.752579 ], [ 105.207959, 41.749797 ], [ 104.984845, 41.587298 ], [ 104.91387, 41.661999 ], [ 104.665655, 41.642918 ], [ 104.518904, 41.667831 ], [ 104.515662, 41.879276 ], [ 104.070209, 41.801245 ], [ 103.855862, 41.798849 ], [ 103.416808, 41.880877 ], [ 103.019216, 42.023348 ], [ 102.73411, 42.148697 ], [ 102.718884, 42.155384 ], [ 102.636128, 42.148906 ], [ 102.622735, 42.147857 ], [ 102.531713, 42.167964 ], [ 102.468057, 42.1453 ], [ 102.250486, 42.193537 ], [ 102.071155, 42.233269 ], [ 101.797587, 42.506483 ], [ 101.584624, 42.523518 ], [ 101.142928, 42.613093 ], [ 100.84091, 42.674166 ], [ 100.513457, 42.684325 ], [ 100.3174, 42.690407 ], [ 100.313179, 42.688767 ], [ 100.277606, 42.653913 ], [ 100.269744, 42.640239 ], [ 100.100142, 42.646781 ], [ 100.078879, 42.647601 ], [ 99.978089, 42.651489 ], [ 99.503522, 42.566037 ], [ 98.989979, 42.600466 ], [ 98.537084, 42.630814 ], [ 98.196801, 42.653605 ], [ 97.190162, 42.79646 ], [ 97.021577, 42.766323 ], [ 96.904268, 42.767167 ], [ 96.85215, 42.767542 ], [ 96.718678, 42.764249 ], [ 96.400516, 42.735526 ], [ 96.380486, 42.905963 ], [ 95.918964, 43.251504 ], [ 95.899304, 43.281832 ], [ 95.867838, 43.396268 ], [ 95.755868, 43.574117 ], [ 95.706463, 43.664405 ], [ 95.643446, 43.77996 ], [ 95.640348, 43.797343 ], [ 95.629243, 43.859596 ], [ 95.536875, 44.001777 ], [ 95.511141, 44.022968 ], [ 95.471794, 44.015257 ], [ 95.43843, 44.017287 ], [ 95.416366, 44.021179 ], [ 95.380177, 44.034515 ], [ 95.339341, 44.038546 ], [ 95.326049, 44.045298 ], [ 95.325055, 44.056676 ], [ 95.340582, 44.07433 ], [ 95.340995, 44.084075 ], [ 95.350467, 44.113393 ], [ 95.357501, 44.173335 ], [ 95.366948, 44.199484 ], [ 95.367395, 44.227718 ], [ 95.377903, 44.237402 ], [ 95.413202, 44.255833 ], [ 95.429546, 44.270366 ], [ 95.43102, 44.287686 ], [ 95.41272, 44.304313 ], [ 95.081738, 44.273918 ], [ 95.044749, 44.266843 ], [ 95.008997, 44.264828 ], [ 94.945228, 44.306825 ], [ 94.820122, 44.337614 ], [ 94.787653, 44.351151 ], [ 94.739208, 44.34888 ], [ 94.628919, 44.445573 ], [ 94.616119, 44.456784 ], [ 94.595685, 44.464097 ], [ 94.517121, 44.492206 ], [ 94.494887, 44.50945 ], [ 94.488831, 44.514146 ], [ 94.443767, 44.533542 ], [ 94.411555, 44.537811 ], [ 94.36369, 44.528379 ], [ 94.353684, 44.542152 ], [ 94.354287, 44.567689 ], [ 94.347586, 44.585272 ], [ 94.286809, 44.622386 ], [ 94.213396, 44.686858 ], [ 94.176418, 44.69249 ], [ 94.083589, 44.749459 ], [ 93.751515, 44.875607 ], [ 93.729167, 44.875604 ], [ 93.721961, 44.889091 ], [ 93.695182, 44.913982 ], [ 93.644217, 44.936175 ], [ 93.555417, 44.967735 ], [ 93.515893, 44.972427 ], [ 93.443152, 44.969167 ], [ 93.393427, 44.99258 ], [ 93.378189, 44.99614 ], [ 93.355125, 45.006365 ], [ 93.262954, 45.006042 ], [ 93.173138, 45.020673 ], [ 93.083981, 45.019293 ], [ 93.062592, 45.026949 ], [ 93.058193, 45.028524 ], [ 93.025437, 45.026559 ], [ 93.002713, 45.020407 ], [ 92.953298, 45.023803 ], [ 92.91245, 45.047686 ], [ 92.827421, 45.054482 ], [ 92.789124, 45.054376 ], [ 92.713316, 45.041908 ], [ 92.546451, 45.02658 ], [ 92.514641, 45.01374 ], [ 92.487264, 45.013108 ], [ 92.427265, 45.029747 ], [ 92.373979, 45.020505 ], [ 92.359737, 45.021099 ], [ 92.307817, 45.039014 ], [ 92.269396, 45.035339 ], [ 92.237901, 45.037006 ], [ 92.108898, 45.097653 ], [ 92.012985, 45.10393 ], [ 91.915942, 45.093855 ], [ 91.867232, 45.099369 ], [ 91.859335, 45.100263 ], [ 91.785323, 45.082101 ], [ 91.706543, 45.078241 ], [ 91.608401, 45.091751 ], [ 91.554245, 45.108721 ], [ 91.505412, 45.153852 ], [ 91.474671, 45.161694 ], [ 91.458908, 45.155071 ], [ 91.418932, 45.126403 ], [ 91.390377, 45.130957 ], [ 91.286437, 45.139539 ], [ 91.247499, 45.153359 ], [ 91.241668, 45.1578 ], [ 91.220664, 45.173795 ], [ 91.201124, 45.198317 ], [ 91.174389, 45.206211 ], [ 91.168165, 45.208049 ], [ 91.067619, 45.20731 ], [ 91.027174, 45.21291 ], [ 91.002095, 45.209078 ], [ 90.973913, 45.198313 ], [ 90.941695, 45.19661 ], [ 90.894716, 45.201455 ], [ 90.904228, 45.218848 ], [ 90.914168, 45.253364 ], [ 90.885794, 45.280997 ], [ 90.877565, 45.289008 ], [ 90.826094, 45.293296 ], [ 90.826041, 45.324547 ], [ 90.77253, 45.405354 ], [ 90.784691, 45.437205 ], [ 90.755807, 45.45014 ], [ 90.696197, 45.470607 ], [ 90.671331, 45.507845 ], [ 90.686873, 45.616726 ], [ 90.731326, 45.733562 ], [ 90.790826, 45.804992 ], [ 90.877534, 45.908921 ], [ 90.98816, 45.983182 ], [ 91.031931, 46.012537 ], [ 91.030251, 46.085984 ], [ 91.01978, 46.127247 ], [ 91.004838, 46.136286 ], [ 90.972264, 46.164396 ], [ 90.967328, 46.18891 ], [ 90.951046, 46.227054 ], [ 90.898831, 46.290083 ], [ 90.922864, 46.324476 ], [ 90.963541, 46.342056 ], [ 90.987524, 46.403848 ], [ 91.012456, 46.426857 ], [ 91.015422, 46.462126 ], [ 91.036452, 46.477523 ], [ 91.058758, 46.532251 ], [ 91.068926, 46.541808 ], [ 91.08008, 46.558097 ], [ 91.06695, 46.566473 ], [ 91.007536, 46.558744 ], [ 91.008405, 46.575461 ], [ 91.043016, 46.686445 ], [ 91.046071, 46.708431 ], [ 91.011974, 46.748368 ], [ 90.994658, 46.758778 ], [ 90.993318, 46.767864 ], [ 90.980592, 46.782206 ], [ 90.940938, 46.819144 ], [ 90.955877, 46.85652 ], [ 90.950212, 46.867198 ], [ 90.918458, 46.892067 ], [ 90.916262, 46.932132 ], [ 90.841299, 46.974602 ], [ 90.764991, 46.985462 ], [ 90.759591, 46.995059 ], [ 90.736849, 47.011267 ], [ 90.696916, 47.050997 ], [ 90.691612, 47.055329 ], [ 90.639004, 47.098281 ], [ 90.610521, 47.142693 ], [ 90.590842, 47.16263 ], [ 90.531763, 47.20576 ], [ 90.521766, 47.225759 ], [ 90.515272, 47.253038 ], [ 90.50396, 47.274451 ], [ 90.479813, 47.288394 ], [ 90.473018, 47.308032 ], [ 90.486219, 47.322929 ], [ 90.491396, 47.344894 ], [ 90.506791, 47.365355 ], [ 90.492454, 47.380647 ], [ 90.44817, 47.404151 ], [ 90.452019, 47.441619 ], [ 90.464654, 47.459812 ], [ 90.463949, 47.48116 ], [ 90.427716, 47.512669 ], [ 90.403758, 47.521231 ], [ 90.337543, 47.605904 ], [ 90.343824, 47.64857 ], [ 90.24884, 47.697293 ], [ 90.214297, 47.694194 ], [ 90.188303, 47.701282 ], [ 90.15466, 47.70706 ], [ 90.129045, 47.708061 ], [ 90.123267, 47.711213 ], [ 90.088598, 47.736572 ], [ 90.064797, 47.781688 ], [ 90.065287, 47.813387 ], [ 90.078205, 47.836968 ], [ 90.057842, 47.842178 ], [ 90.056317, 47.84504 ], [ 90.050595, 47.855777 ], [ 90.015569, 47.856724 ], [ 90.000658, 47.87491 ], [ 89.982131, 47.891482 ], [ 89.968359, 47.890899 ], [ 89.947311, 47.881821 ], [ 89.916934, 47.84504 ], [ 89.892116, 47.840065 ], [ 89.850923, 47.81819 ], [ 89.811574, 47.816944 ], [ 89.768612, 47.819267 ], [ 89.747578, 47.823765 ], [ 89.730338, 47.838457 ], [ 89.72864, 47.84504 ], [ 89.724337, 47.882306 ], [ 89.707819, 47.894774 ], [ 89.687131, 47.895416 ], [ 89.644008, 47.896459 ], [ 89.616899, 47.937267 ], [ 89.57552, 47.960824 ], [ 89.56833, 47.987326 ], [ 89.596426, 48.00867 ], [ 89.554617, 48.026157 ], [ 89.525746, 48.028702 ], [ 89.480475, 48.013031 ], [ 89.442288, 48.021061 ], [ 89.416831, 48.023052 ], [ 89.381072, 48.040178 ], [ 89.342078, 48.015202 ], [ 89.303642, 48.006405 ], [ 89.265753, 47.987537 ], [ 89.213594, 47.972403 ], [ 89.174071, 47.97578 ], [ 89.069756, 47.974403 ], [ 89.04569, 48.004122 ], [ 88.985191, 48.045815 ], [ 88.960202, 48.063025 ], [ 88.946494, 48.075722 ], [ 88.910919, 48.108659 ], [ 88.887462, 48.107918 ], [ 88.848084, 48.106675 ], [ 88.822331, 48.114353 ], [ 88.794618, 48.099887 ], [ 88.789429, 48.109883 ], [ 88.7557, 48.125034 ], [ 88.69258, 48.158734 ], [ 88.680279, 48.173251 ], [ 88.651262, 48.166354 ], [ 88.626019, 48.171701 ], [ 88.614493, 48.20405 ], [ 88.602243, 48.217221 ], [ 88.566488, 48.281901 ], [ 88.59434, 48.318129 ], [ 88.595006, 48.336239 ], [ 88.527051, 48.373569 ], [ 88.508129, 48.402506 ], [ 88.494408, 48.406912 ], [ 88.446696, 48.385095 ], [ 88.44105, 48.385132 ], [ 88.400426, 48.399526 ], [ 88.350767, 48.437192 ], [ 88.34443, 48.465225 ], [ 88.231423, 48.500747 ], [ 88.174889, 48.501517 ], [ 88.1249, 48.529169 ], [ 88.07783, 48.545677 ], [ 88.027963, 48.552025 ], [ 87.982162, 48.574241 ], [ 87.965588, 48.589664 ], [ 87.965353, 48.604048 ], [ 87.994187, 48.625117 ], [ 88.021466, 48.639744 ], [ 88.02183, 48.647739 ], [ 88.013105, 48.660375 ], [ 88.071421, 48.689585 ], [ 88.076771, 48.699501 ], [ 88.091331, 48.712857 ], [ 88.088262, 48.720993 ], [ 88.058658, 48.723964 ], [ 88.025143, 48.754537 ], [ 88.004884, 48.763557 ], [ 87.959199, 48.776194 ], [ 87.934751, 48.770277 ], [ 87.929859, 48.770642 ], [ 87.917991, 48.775105 ], [ 87.898537, 48.788163 ], [ 87.872309, 48.805763 ], [ 87.834616, 48.815332 ], [ 87.821734, 48.822322 ], [ 87.811122, 48.834459 ], [ 87.824429, 48.842985 ], [ 87.826201, 48.848925 ], [ 87.807766, 48.860023 ], [ 87.787473, 48.866735 ], [ 87.764766, 48.877633 ], [ 87.747803, 48.895533 ], [ 87.752254, 48.907928 ], [ 87.758424, 48.913783 ], [ 87.779522, 48.9338 ], [ 87.790458, 48.940461 ], [ 87.841823, 48.955482 ], [ 87.884888, 48.963018 ], [ 87.890431, 48.970237 ], [ 87.890731, 48.979805 ], [ 87.908665, 48.996661 ], [ 87.890594, 49.01258 ], [ 87.887167, 49.030814 ], [ 87.890511, 49.045466 ], [ 87.909881, 49.062284 ], [ 87.918629, 49.088735 ], [ 87.881986, 49.106127 ], [ 87.88541, 49.117176 ], [ 87.887584, 49.124189 ], [ 87.851138, 49.138272 ], [ 87.837624, 49.153932 ], [ 87.824968, 49.183324 ] ] ] ] } }
]
}
