{
"type": "FeatureCollection",
"name": "Montserrat",
"crs": { "type": "name", "properties": { "name": "urn:ogc:def:crs:OGC:1.3:CRS84" } },
"features": [
{ "type": "Feature", "properties": { "id": "MS", "CNTR_ID": "MS", "CNTR_NAME": "Montserrat", "NAME_ENGL": "Montserrat", "ISO3_CODE": "MSR", "FID": "MS" }, "geometry": { "type": "MultiPolygon", "coordinates": [ [ [ [ -62.239501, 16.723232 ], [ -62.233041, 16.736366 ], [ -62.234364, 16.748799 ], [ -62.223166, 16.76544 ], [ -62.218308, 16.785268 ], [ -62.206212, 16.801304 ], [ -62.202754, 16.822775 ], [ -62.195543, 16.822649 ], [ -62.180538, 16.815971 ], [ -62.177598, 16.808853 ], [ -62.180919, 16.800911 ], [ -62.172282, 16.782569 ], [ -62.167745, 16.770296 ], [ -62.155664, 16.761031 ], [ -62.151255, 16.753058 ], [ -62.149597, 16.742728 ], [ -62.151832, 16.728539 ], [ -62.147228, 16.718567 ], [ -62.150019, 16.709507 ], [ -62.144742, 16.697797 ], [ -62.160343, 16.677427 ], [ -62.172282, 16.675967 ], [ -62.18862, 16.675549 ], [ -62.207639, 16.688039 ], [ -62.227438, 16.714664 ], [ -62.239501, 16.723232 ] ] ] ] } }
]
}
