{
"type": "FeatureCollection",
"name": "Montenegro",
"crs": { "type": "name", "properties": { "name": "urn:ogc:def:crs:OGC:1.3:CRS84" } },
"features": [
{ "type": "Feature", "properties": { "id": "ME", "CNTR_ID": "ME", "CNTR_NAME": "Црна Гора", "NAME_ENGL": "Montenegro", "ISO3_CODE": "MNE", "FID": "ME" }, "geometry": { "type": "MultiPolygon", "coordinates": [ [ [ [ 18.438104, 42.555705 ], [ 18.446702, 42.561993 ], [ 18.472596, 42.564657 ], [ 18.500756, 42.587135 ], [ 18.525052, 42.583543 ], [ 18.535273, 42.57644 ], [ 18.542454, 42.574699 ], [ 18.55434, 42.581297 ], [ 18.548987, 42.59493 ], [ 18.537465, 42.60293 ], [ 18.52406, 42.622179 ], [ 18.52793, 42.630816 ], [ 18.538092, 42.637512 ], [ 18.553367, 42.642521 ], [ 18.573967, 42.645467 ], [ 18.569773, 42.656007 ], [ 18.550723, 42.673448 ], [ 18.547825, 42.688131 ], [ 18.559859, 42.701259 ], [ 18.562882, 42.711454 ], [ 18.569577, 42.719941 ], [ 18.531053, 42.724383 ], [ 18.514626, 42.734303 ], [ 18.497631, 42.736728 ], [ 18.494576, 42.745516 ], [ 18.477564, 42.753431 ], [ 18.472886, 42.757832 ], [ 18.468399, 42.779915 ], [ 18.451001, 42.815332 ], [ 18.473641, 42.828051 ], [ 18.467033, 42.838681 ], [ 18.470504, 42.853229 ], [ 18.478401, 42.860633 ], [ 18.486566, 42.859535 ], [ 18.491894, 42.862637 ], [ 18.494529, 42.868269 ], [ 18.493196, 42.879266 ], [ 18.508049, 42.886778 ], [ 18.497386, 42.907318 ], [ 18.486167, 42.914778 ], [ 18.479676, 42.930696 ], [ 18.480703, 42.965653 ], [ 18.48979, 42.986457 ], [ 18.509262, 42.999145 ], [ 18.516387, 43.011526 ], [ 18.520108, 43.01799 ], [ 18.542026, 43.029225 ], [ 18.622995, 43.027422 ], [ 18.660783, 43.037067 ], [ 18.658234, 43.085729 ], [ 18.648845, 43.146492 ], [ 18.668308, 43.203167 ], [ 18.682073, 43.21122 ], [ 18.689452, 43.221872 ], [ 18.713151, 43.231459 ], [ 18.703765, 43.238289 ], [ 18.691015, 43.256048 ], [ 18.736273, 43.282261 ], [ 18.78685, 43.303051 ], [ 18.806102, 43.307734 ], [ 18.819615, 43.31405 ], [ 18.829369, 43.315113 ], [ 18.850696, 43.323985 ], [ 18.848943, 43.335697 ], [ 18.840153, 43.34416 ], [ 18.842364, 43.348845 ], [ 18.877339, 43.35598 ], [ 18.896855, 43.355252 ], [ 18.910239, 43.360074 ], [ 18.915855, 43.358395 ], [ 18.945914, 43.333021 ], [ 18.956357, 43.330925 ], [ 18.959292, 43.328476 ], [ 18.959708, 43.318787 ], [ 18.95317, 43.311202 ], [ 18.950366, 43.302791 ], [ 18.95514, 43.289986 ], [ 18.980851, 43.280629 ], [ 18.986573, 43.273101 ], [ 18.986571, 43.263666 ], [ 18.988921, 43.261008 ], [ 19.002825, 43.252848 ], [ 19.013549, 43.252416 ], [ 19.024144, 43.263776 ], [ 19.043903, 43.297761 ], [ 19.057864, 43.298458 ], [ 19.066272, 43.307814 ], [ 19.084986, 43.321532 ], [ 19.073837, 43.338699 ], [ 19.064065, 43.344859 ], [ 19.060021, 43.352288 ], [ 19.041465, 43.364799 ], [ 19.036954, 43.378004 ], [ 19.042315, 43.384261 ], [ 19.042303, 43.394534 ], [ 19.021907, 43.408224 ], [ 19.018135, 43.429687 ], [ 19.00908, 43.441589 ], [ 19.011246, 43.445642 ], [ 19.007374, 43.446373 ], [ 18.999622, 43.440966 ], [ 18.979591, 43.45448 ], [ 18.964385, 43.452064 ], [ 18.95796, 43.453229 ], [ 18.960857, 43.469262 ], [ 18.957337, 43.47642 ], [ 18.958653, 43.483997 ], [ 18.956398, 43.490176 ], [ 18.94607, 43.495489 ], [ 18.926599, 43.493266 ], [ 18.918017, 43.498384 ], [ 18.91641, 43.504592 ], [ 18.92504, 43.513131 ], [ 18.9389, 43.514212 ], [ 18.97855, 43.529544 ], [ 18.990041, 43.553004 ], [ 18.997374, 43.556708 ], [ 19.008149, 43.555302 ], [ 19.014917, 43.544241 ], [ 19.025474, 43.543641 ], [ 19.034357, 43.534131 ], [ 19.047012, 43.527157 ], [ 19.043371, 43.518593 ], [ 19.047321, 43.502284 ], [ 19.058262, 43.50342 ], [ 19.066302, 43.509358 ], [ 19.084693, 43.514511 ], [ 19.099144, 43.51511 ], [ 19.107435, 43.52081 ], [ 19.126172, 43.521087 ], [ 19.155823, 43.535475 ], [ 19.180266, 43.532175 ], [ 19.214093, 43.531088 ], [ 19.224069, 43.527541 ], [ 19.227073, 43.511684 ], [ 19.222977, 43.502805 ], [ 19.225652, 43.486617 ], [ 19.222514, 43.482693 ], [ 19.246441, 43.469086 ], [ 19.253182, 43.462107 ], [ 19.276676, 43.453682 ], [ 19.289947, 43.445277 ], [ 19.309071, 43.440549 ], [ 19.321213, 43.441177 ], [ 19.332869, 43.436613 ], [ 19.34894, 43.416979 ], [ 19.359032, 43.412231 ], [ 19.383672, 43.412034 ], [ 19.392836, 43.402138 ], [ 19.411143, 43.39335 ], [ 19.429476, 43.392614 ], [ 19.444061, 43.389331 ], [ 19.448416, 43.387486 ], [ 19.450346, 43.383505 ], [ 19.450983, 43.367773 ], [ 19.456767, 43.364892 ], [ 19.461212, 43.358594 ], [ 19.461673, 43.345118 ], [ 19.481303, 43.333746 ], [ 19.486525, 43.327264 ], [ 19.52247, 43.32015 ], [ 19.535833, 43.307995 ], [ 19.537023, 43.303132 ], [ 19.527398, 43.280258 ], [ 19.530051, 43.27339 ], [ 19.54172, 43.261468 ], [ 19.545235, 43.247848 ], [ 19.561705, 43.242468 ], [ 19.590082, 43.239272 ], [ 19.61698, 43.230506 ], [ 19.63771, 43.207333 ], [ 19.637722, 43.196842 ], [ 19.641299, 43.189381 ], [ 19.670551, 43.18386 ], [ 19.678661, 43.178235 ], [ 19.681277, 43.171653 ], [ 19.685898, 43.168609 ], [ 19.7268, 43.171653 ], [ 19.729543, 43.171653 ], [ 19.733392, 43.170469 ], [ 19.740556, 43.161761 ], [ 19.742734, 43.159114 ], [ 19.770379, 43.165514 ], [ 19.780023, 43.15383 ], [ 19.780399, 43.143335 ], [ 19.777888, 43.138339 ], [ 19.786262, 43.13323 ], [ 19.788594, 43.125733 ], [ 19.805612, 43.121403 ], [ 19.807637, 43.117435 ], [ 19.811997, 43.115679 ], [ 19.826946, 43.117716 ], [ 19.835677, 43.115477 ], [ 19.837503, 43.115119 ], [ 19.840078, 43.111901 ], [ 19.839187, 43.110271 ], [ 19.835677, 43.108824 ], [ 19.833385, 43.106865 ], [ 19.835677, 43.100804 ], [ 19.835677, 43.099009 ], [ 19.833823, 43.096125 ], [ 19.835677, 43.095333 ], [ 19.840017, 43.095109 ], [ 19.845289, 43.098114 ], [ 19.85983, 43.106402 ], [ 19.862626, 43.110412 ], [ 19.869225, 43.112636 ], [ 19.877466, 43.10963 ], [ 19.888172, 43.097927 ], [ 19.902543, 43.098689 ], [ 19.907251, 43.091128 ], [ 19.915521, 43.087163 ], [ 19.921912, 43.09533 ], [ 19.949867, 43.103097 ], [ 19.962904, 43.110712 ], [ 19.969413, 43.110863 ], [ 19.973404, 43.104609 ], [ 19.968441, 43.085694 ], [ 19.99146, 43.052937 ], [ 20.03765, 43.032506 ], [ 20.055332, 43.017976 ], [ 20.055114, 43.011526 ], [ 20.055051, 43.009663 ], [ 20.063937, 43.006824 ], [ 20.069242, 42.998724 ], [ 20.081329, 42.994046 ], [ 20.085303, 42.994444 ], [ 20.100572, 42.982852 ], [ 20.105339, 42.973247 ], [ 20.11878, 42.965419 ], [ 20.131639, 42.970148 ], [ 20.139101, 42.98049 ], [ 20.148575, 42.987803 ], [ 20.153949, 42.976085 ], [ 20.173103, 42.971883 ], [ 20.193341, 42.959075 ], [ 20.210806, 42.957493 ], [ 20.238118, 42.941526 ], [ 20.25204, 42.939482 ], [ 20.268733, 42.932765 ], [ 20.277766, 42.932689 ], [ 20.297748, 42.922844 ], [ 20.309539, 42.922263 ], [ 20.312633, 42.917606 ], [ 20.324787, 42.914248 ], [ 20.329291, 42.913003 ], [ 20.335577, 42.909228 ], [ 20.344532, 42.909198 ], [ 20.349182, 42.89696 ], [ 20.343098, 42.868512 ], [ 20.352929, 42.833381 ], [ 20.345908, 42.83297 ], [ 20.335928, 42.83575 ], [ 20.327256, 42.832607 ], [ 20.324787, 42.830402 ], [ 20.320088, 42.826205 ], [ 20.31428, 42.835121 ], [ 20.300527, 42.835631 ], [ 20.292783, 42.826609 ], [ 20.280395, 42.828878 ], [ 20.273122, 42.820341 ], [ 20.255416, 42.813434 ], [ 20.254546, 42.809278 ], [ 20.262591, 42.801563 ], [ 20.265, 42.779073 ], [ 20.248415, 42.759207 ], [ 20.212542, 42.747913 ], [ 20.198999, 42.749841 ], [ 20.190309, 42.747002 ], [ 20.155402, 42.766932 ], [ 20.149742, 42.763351 ], [ 20.146613, 42.756508 ], [ 20.142853, 42.755907 ], [ 20.113943, 42.764833 ], [ 20.095678, 42.776264 ], [ 20.085303, 42.775784 ], [ 20.072479, 42.775189 ], [ 20.057222, 42.778056 ], [ 20.042341, 42.773616 ], [ 20.025577, 42.763939 ], [ 20.022621, 42.752206 ], [ 20.015152, 42.740805 ], [ 20.015055, 42.732064 ], [ 20.018416, 42.725702 ], [ 20.028739, 42.718857 ], [ 20.019458, 42.711137 ], [ 20.031811, 42.710406 ], [ 20.034656, 42.69801 ], [ 20.044689, 42.694793 ], [ 20.055966, 42.685379 ], [ 20.070053, 42.680624 ], [ 20.082536, 42.679061 ], [ 20.085303, 42.675155 ], [ 20.090087, 42.668401 ], [ 20.111944, 42.655402 ], [ 20.108301, 42.648083 ], [ 20.096335, 42.641852 ], [ 20.089566, 42.6308 ], [ 20.085303, 42.627636 ], [ 20.076152, 42.620841 ], [ 20.073613, 42.606071 ], [ 20.085303, 42.588047 ], [ 20.08779, 42.578398 ], [ 20.085303, 42.571673 ], [ 20.083669, 42.567254 ], [ 20.0763, 42.555823 ], [ 20.057058, 42.558794 ], [ 20.048885, 42.550488 ], [ 20.016547, 42.542809 ], [ 20.014523, 42.528674 ], [ 20.003626, 42.509787 ], [ 19.981375, 42.512945 ], [ 19.96611, 42.510575 ], [ 19.953903, 42.511497 ], [ 19.940448, 42.5179 ], [ 19.916479, 42.507967 ], [ 19.906347, 42.506694 ], [ 19.904869, 42.496303 ], [ 19.897806, 42.485459 ], [ 19.884338, 42.494173 ], [ 19.87797, 42.495419 ], [ 19.870044, 42.483856 ], [ 19.864582, 42.481738 ], [ 19.855696, 42.483922 ], [ 19.848765, 42.479126 ], [ 19.845289, 42.479083 ], [ 19.838093, 42.478992 ], [ 19.835677, 42.471029 ], [ 19.830998, 42.466445 ], [ 19.808159, 42.473253 ], [ 19.792818, 42.48167 ], [ 19.78771, 42.487552 ], [ 19.780349, 42.496545 ], [ 19.764793, 42.503947 ], [ 19.758848, 42.521845 ], [ 19.743917, 42.545036 ], [ 19.748859, 42.55062 ], [ 19.75315, 42.562928 ], [ 19.752825, 42.568538 ], [ 19.748439, 42.573864 ], [ 19.752371, 42.581004 ], [ 19.758646, 42.580968 ], [ 19.763788, 42.583788 ], [ 19.773989, 42.581177 ], [ 19.774864, 42.591995 ], [ 19.765581, 42.60064 ], [ 19.759962, 42.610134 ], [ 19.752375, 42.614053 ], [ 19.75005, 42.627666 ], [ 19.756278, 42.633839 ], [ 19.755363, 42.637251 ], [ 19.740556, 42.642714 ], [ 19.738478, 42.64348 ], [ 19.732635, 42.656834 ], [ 19.722864, 42.660543 ], [ 19.704293, 42.654869 ], [ 19.699565, 42.649697 ], [ 19.698552, 42.643699 ], [ 19.687085, 42.638063 ], [ 19.680184, 42.628957 ], [ 19.667446, 42.630765 ], [ 19.662854, 42.628634 ], [ 19.612094, 42.577595 ], [ 19.610301, 42.562586 ], [ 19.616131, 42.542112 ], [ 19.606708, 42.537938 ], [ 19.600291, 42.530012 ], [ 19.562755, 42.513968 ], [ 19.56253, 42.501581 ], [ 19.558139, 42.494415 ], [ 19.547872, 42.485704 ], [ 19.531034, 42.459019 ], [ 19.519602, 42.449563 ], [ 19.518581, 42.442722 ], [ 19.504649, 42.437508 ], [ 19.498967, 42.431527 ], [ 19.497691, 42.425394 ], [ 19.492211, 42.422951 ], [ 19.487148, 42.411281 ], [ 19.479143, 42.403663 ], [ 19.47285, 42.392823 ], [ 19.47075, 42.391917 ], [ 19.455136, 42.385173 ], [ 19.446714, 42.38477 ], [ 19.43885, 42.381706 ], [ 19.425155, 42.371408 ], [ 19.422467, 42.366145 ], [ 19.423298, 42.358121 ], [ 19.414152, 42.349862 ], [ 19.420087, 42.329745 ], [ 19.420209, 42.325868 ], [ 19.388973, 42.2997 ], [ 19.384428, 42.293055 ], [ 19.383687, 42.282245 ], [ 19.359348, 42.256525 ], [ 19.348856, 42.240144 ], [ 19.281839, 42.180506 ], [ 19.401169, 42.104094 ], [ 19.38461, 42.078906 ], [ 19.378645, 42.071909 ], [ 19.378679, 42.051631 ], [ 19.37122, 42.038789 ], [ 19.369673, 42.026558 ], [ 19.373859, 42.00592 ], [ 19.37909, 42.001672 ], [ 19.381934, 41.995118 ], [ 19.376954, 41.974607 ], [ 19.387833, 41.96549 ], [ 19.381586, 41.96155 ], [ 19.354667, 41.958902 ], [ 19.351652, 41.955874 ], [ 19.349979, 41.94405 ], [ 19.353632, 41.938132 ], [ 19.368756, 41.928805 ], [ 19.371117, 41.923144 ], [ 19.364031, 41.917727 ], [ 19.345683, 41.912698 ], [ 19.343077, 41.90567 ], [ 19.350715, 41.901186 ], [ 19.364774, 41.897866 ], [ 19.369242, 41.88876 ], [ 19.381087, 41.88448 ], [ 19.374638, 41.874389 ], [ 19.372528, 41.844148 ], [ 19.36329, 41.846352 ], [ 19.32332, 41.878224 ], [ 19.310157, 41.88592 ], [ 19.26541, 41.902994 ], [ 19.232283, 41.909642 ], [ 19.218532, 41.917401 ], [ 19.186951, 41.929147 ], [ 19.156965, 41.945309 ], [ 19.152096, 41.951385 ], [ 19.162238, 41.951289 ], [ 19.163835, 41.953943 ], [ 19.147268, 41.966467 ], [ 19.140414, 41.975063 ], [ 19.142417, 41.979338 ], [ 19.151263, 41.983943 ], [ 19.144145, 41.99067 ], [ 19.146898, 41.994486 ], [ 19.145578, 42.004943 ], [ 19.149988, 42.012179 ], [ 19.144493, 42.017152 ], [ 19.148224, 42.024724 ], [ 19.14157, 42.030821 ], [ 19.140386, 42.043448 ], [ 19.088964, 42.072935 ], [ 19.072248, 42.086209 ], [ 19.071566, 42.088125 ], [ 19.079589, 42.093262 ], [ 19.089687, 42.09564 ], [ 19.090051, 42.100055 ], [ 19.082817, 42.112564 ], [ 19.063143, 42.123087 ], [ 19.059507, 42.133862 ], [ 19.051248, 42.137004 ], [ 19.02957, 42.137141 ], [ 19.021686, 42.140075 ], [ 19.011117, 42.136141 ], [ 19.003158, 42.147701 ], [ 19.001807, 42.157871 ], [ 18.976689, 42.167785 ], [ 18.96813, 42.173754 ], [ 18.970361, 42.185093 ], [ 18.966143, 42.191695 ], [ 18.952899, 42.196362 ], [ 18.94058, 42.204656 ], [ 18.928923, 42.20779 ], [ 18.907828, 42.220267 ], [ 18.904037, 42.231645 ], [ 18.897396, 42.238697 ], [ 18.891091, 42.268529 ], [ 18.881343, 42.278465 ], [ 18.869574, 42.280388 ], [ 18.860129, 42.27893 ], [ 18.854641, 42.283732 ], [ 18.847777, 42.284405 ], [ 18.840485, 42.282806 ], [ 18.82839, 42.275183 ], [ 18.815023, 42.282763 ], [ 18.808792, 42.283435 ], [ 18.8019, 42.280632 ], [ 18.800725, 42.27537 ], [ 18.787816, 42.279702 ], [ 18.785887, 42.270849 ], [ 18.778337, 42.268469 ], [ 18.70973, 42.321177 ], [ 18.71293, 42.328335 ], [ 18.707649, 42.339076 ], [ 18.688663, 42.355965 ], [ 18.691958, 42.357267 ], [ 18.703356, 42.354307 ], [ 18.70444, 42.356421 ], [ 18.699376, 42.364819 ], [ 18.68985, 42.371248 ], [ 18.689288, 42.37786 ], [ 18.684063, 42.38401 ], [ 18.67708, 42.383387 ], [ 18.665891, 42.386036 ], [ 18.656531, 42.383935 ], [ 18.652891, 42.379683 ], [ 18.65536, 42.372077 ], [ 18.651791, 42.364007 ], [ 18.64699, 42.364294 ], [ 18.642422, 42.368975 ], [ 18.637628, 42.370083 ], [ 18.633012, 42.369163 ], [ 18.629429, 42.363194 ], [ 18.618203, 42.366159 ], [ 18.610271, 42.365819 ], [ 18.595376, 42.374289 ], [ 18.589404, 42.381153 ], [ 18.57474, 42.388021 ], [ 18.578098, 42.399987 ], [ 18.561078, 42.404522 ], [ 18.556084, 42.411137 ], [ 18.548569, 42.414475 ], [ 18.548556, 42.421732 ], [ 18.561299, 42.430294 ], [ 18.568058, 42.430845 ], [ 18.582942, 42.429951 ], [ 18.611469, 42.423259 ], [ 18.648718, 42.410103 ], [ 18.673296, 42.404488 ], [ 18.692769, 42.402612 ], [ 18.701175, 42.406293 ], [ 18.711262, 42.407433 ], [ 18.711438, 42.41673 ], [ 18.694762, 42.430492 ], [ 18.686327, 42.442541 ], [ 18.682692, 42.461699 ], [ 18.687188, 42.473097 ], [ 18.692465, 42.476439 ], [ 18.735527, 42.463939 ], [ 18.753084, 42.448969 ], [ 18.759542, 42.426352 ], [ 18.766388, 42.422708 ], [ 18.767401, 42.429688 ], [ 18.762845, 42.441031 ], [ 18.765309, 42.455432 ], [ 18.763046, 42.488363 ], [ 18.7537, 42.489469 ], [ 18.733078, 42.483866 ], [ 18.701022, 42.485501 ], [ 18.691833, 42.493597 ], [ 18.694684, 42.512349 ], [ 18.691265, 42.515578 ], [ 18.686486, 42.515837 ], [ 18.676704, 42.506781 ], [ 18.666738, 42.503208 ], [ 18.651099, 42.490939 ], [ 18.654168, 42.488125 ], [ 18.672659, 42.484678 ], [ 18.684419, 42.479311 ], [ 18.674752, 42.466497 ], [ 18.673431, 42.459467 ], [ 18.655015, 42.449775 ], [ 18.647829, 42.448651 ], [ 18.631035, 42.441028 ], [ 18.600962, 42.433886 ], [ 18.588183, 42.438156 ], [ 18.565521, 42.452955 ], [ 18.551361, 42.449675 ], [ 18.538869, 42.449561 ], [ 18.521515, 42.457024 ], [ 18.514172, 42.457494 ], [ 18.507104, 42.45302 ], [ 18.505135, 42.44777 ], [ 18.511156, 42.439276 ], [ 18.52775, 42.426652 ], [ 18.525213, 42.420463 ], [ 18.499127, 42.436999 ], [ 18.473714, 42.464454 ], [ 18.461311, 42.471341 ], [ 18.45223, 42.473696 ], [ 18.434995, 42.484034 ], [ 18.446091, 42.510206 ], [ 18.436933, 42.520657 ], [ 18.440103, 42.549007 ], [ 18.438104, 42.555705 ] ] ], [ [ [ 18.847172, 42.269678 ], [ 18.849366, 42.270199 ], [ 18.857289, 42.264214 ], [ 18.857448, 42.261921 ], [ 18.853389, 42.262082 ], [ 18.850314, 42.264655 ], [ 18.847172, 42.269678 ] ] ], [ [ [ 18.682907, 42.411179 ], [ 18.684602, 42.412588 ], [ 18.688864, 42.411944 ], [ 18.691347, 42.412875 ], [ 18.699241, 42.408693 ], [ 18.698115, 42.407366 ], [ 18.691022, 42.410255 ], [ 18.689686, 42.409294 ], [ 18.682907, 42.411179 ] ] ] ] } }
]
}
