{
"type": "FeatureCollection",
"name": "Mozambique",
"crs": { "type": "name", "properties": { "name": "urn:ogc:def:crs:OGC:1.3:CRS84" } },
"features": [
{ "type": "Feature", "properties": { "id": "MZ", "CNTR_ID": "MZ", "CNTR_NAME": "Moçambique", "NAME_ENGL": "Mozambique", "ISO3_CODE": "MOZ", "FID": "MZ" }, "geometry": { "type": "MultiPolygon", "coordinates": [ [ [ [ 32.891523, -26.858332 ], [ 32.874121, -26.864142 ], [ 32.861956, -26.866529 ], [ 32.847625, -26.868048 ], [ 32.820386, -26.868676 ], [ 32.774192, -26.866968 ], [ 32.596194, -26.864478 ], [ 32.483595, -26.862902 ], [ 32.410794, -26.862663 ], [ 32.354837, -26.861 ], [ 32.330238, -26.853108 ], [ 32.284301, -26.85008 ], [ 32.226578, -26.832823 ], [ 32.216073, -26.83663 ], [ 32.193163, -26.858312 ], [ 32.182368, -26.860332 ], [ 32.160053, -26.851577 ], [ 32.13366, -26.83498 ], [ 32.133094, -26.820911 ], [ 32.134885, -26.726609 ], [ 32.136635, -26.720846 ], [ 32.135808, -26.707333 ], [ 32.135739, -26.70154 ], [ 32.136483, -26.536069 ], [ 32.08104, -26.41111 ], [ 32.076738, -26.364176 ], [ 32.075226, -26.311629 ], [ 32.107778, -26.166017 ], [ 32.088156, -26.013858 ], [ 32.084234, -26.01032 ], [ 32.004946, -25.990249 ], [ 31.98213, -25.95205 ], [ 31.967578, -25.916637 ], [ 31.964901, -25.904543 ], [ 31.955463, -25.885739 ], [ 31.939447, -25.847231 ], [ 31.938071, -25.830848 ], [ 31.957566, -25.775843 ], [ 31.958642, -25.768797 ], [ 31.960927, -25.764526 ], [ 31.96588, -25.749534 ], [ 31.968907, -25.73479 ], [ 31.973167, -25.72488 ], [ 31.97916, -25.705885 ], [ 31.984004, -25.695899 ], [ 32.004321, -25.667444 ], [ 32.009082, -25.653461 ], [ 32.01255, -25.63768 ], [ 32.01347, -25.616264 ], [ 32.008091, -25.594441 ], [ 32.004891, -25.553271 ], [ 32.003819, -25.546475 ], [ 31.999979, -25.52607 ], [ 31.981415, -25.518831 ], [ 31.98156, -25.487685 ], [ 31.989294, -25.445442 ], [ 32.024894, -25.37267 ], [ 32.023986, -25.345752 ], [ 32.03339, -25.272848 ], [ 32.039299, -25.162553 ], [ 32.044278, -25.126039 ], [ 32.03917, -25.092282 ], [ 32.036656, -25.042982 ], [ 32.030661, -25.017545 ], [ 32.030257, -24.971994 ], [ 32.001099, -24.682194 ], [ 32.01144, -24.476143 ], [ 32.009611, -24.438029 ], [ 32.000703, -24.392955 ], [ 31.995611, -24.353964 ], [ 31.990236, -24.312785 ], [ 31.986717, -24.302435 ], [ 31.913494, -24.189862 ], [ 31.904587, -24.129243 ], [ 31.891717, -24.001842 ], [ 31.878861, -23.977321 ], [ 31.874623, -23.951577 ], [ 31.761704, -23.879482 ], [ 31.695725, -23.720823 ], [ 31.688802, -23.619235 ], [ 31.600267, -23.522715 ], [ 31.566119, -23.485468 ], [ 31.557326, -23.469946 ], [ 31.54583, -23.402721 ], [ 31.551983, -23.29293 ], [ 31.554661, -23.282322 ], [ 31.558204, -23.177402 ], [ 31.543044, -23.138631 ], [ 31.521269, -23.062524 ], [ 31.450768, -22.860025 ], [ 31.310096, -22.435867 ], [ 31.306915, -22.421977 ], [ 31.31127, -22.41774 ], [ 31.348963, -22.393816 ], [ 31.36875, -22.380942 ], [ 31.381513, -22.371764 ], [ 31.469745, -22.283733 ], [ 31.481424, -22.269606 ], [ 31.486717, -22.266592 ], [ 31.497689, -22.255603 ], [ 31.503979, -22.251465 ], [ 31.511311, -22.241272 ], [ 31.523067, -22.228845 ], [ 31.528662, -22.221109 ], [ 31.537548, -22.214629 ], [ 31.572211, -22.179735 ], [ 31.590308, -22.159554 ], [ 31.602797, -22.148699 ], [ 31.611331, -22.140759 ], [ 31.624738, -22.12569 ], [ 31.650309, -22.099388 ], [ 31.682791, -22.066609 ], [ 31.698491, -22.049475 ], [ 31.725291, -22.023152 ], [ 31.728123, -22.020068 ], [ 31.74136, -22.005648 ], [ 31.786221, -21.95911 ], [ 31.796278, -21.94751 ], [ 31.803699, -21.941634 ], [ 31.859264, -21.88443 ], [ 31.864896, -21.88131 ], [ 31.90382, -21.839879 ], [ 31.913859, -21.830023 ], [ 31.954864, -21.786868 ], [ 31.99773, -21.743308 ], [ 32.019986, -21.719633 ], [ 32.085396, -21.652076 ], [ 32.113367, -21.622455 ], [ 32.142633, -21.593014 ], [ 32.15974, -21.573292 ], [ 32.209098, -21.52387 ], [ 32.246829, -21.484405 ], [ 32.273224, -21.456798 ], [ 32.321922, -21.407386 ], [ 32.398481, -21.328979 ], [ 32.4124, -21.317637 ], [ 32.427137, -21.311542 ], [ 32.443611, -21.309649 ], [ 32.453497, -21.311507 ], [ 32.469277, -21.323909 ], [ 32.479753, -21.326301 ], [ 32.475195, -21.310094 ], [ 32.457425, -21.282299 ], [ 32.432198, -21.251832 ], [ 32.422562, -21.227965 ], [ 32.399091, -21.205249 ], [ 32.395589, -21.190785 ], [ 32.405447, -21.176455 ], [ 32.404927, -21.16915 ], [ 32.370899, -21.142504 ], [ 32.367517, -21.136517 ], [ 32.386964, -21.099977 ], [ 32.449151, -21.037495 ], [ 32.469896, -21.009514 ], [ 32.492932, -20.968485 ], [ 32.51663, -20.914135 ], [ 32.518024, -20.886291 ], [ 32.497873, -20.807038 ], [ 32.494503, -20.70138 ], [ 32.485487, -20.671856 ], [ 32.484941, -20.655091 ], [ 32.491367, -20.620481 ], [ 32.510872, -20.600495 ], [ 32.553697, -20.56838 ], [ 32.567455, -20.561682 ], [ 32.655892, -20.561128 ], [ 32.669623, -20.5537 ], [ 32.683557, -20.536222 ], [ 32.734306, -20.448427 ], [ 32.798199, -20.374203 ], [ 32.800456, -20.354431 ], [ 32.807152, -20.340102 ], [ 32.861594, -20.288927 ], [ 32.865466, -20.24043 ], [ 32.861482, -20.235877 ], [ 32.847156, -20.229151 ], [ 32.83994, -20.218149 ], [ 32.846668, -20.201739 ], [ 32.86626, -20.193824 ], [ 32.870491, -20.188916 ], [ 32.869502, -20.179087 ], [ 32.856369, -20.157375 ], [ 32.867516, -20.114956 ], [ 32.883595, -20.103789 ], [ 32.899968, -20.117482 ], [ 32.909139, -20.119279 ], [ 32.916526, -20.116106 ], [ 32.919902, -20.08782 ], [ 32.913471, -20.062569 ], [ 32.92053, -20.048638 ], [ 32.929018, -20.043778 ], [ 32.966175, -20.037829 ], [ 32.99688, -20.027455 ], [ 33.010817, -20.017279 ], [ 33.02461, -19.963805 ], [ 33.047993, -19.821009 ], [ 33.055336, -19.800248 ], [ 33.051993, -19.780999 ], [ 33.03918, -19.767776 ], [ 33.019831, -19.756596 ], [ 32.991914, -19.746575 ], [ 32.958809, -19.721768 ], [ 32.9581, -19.712268 ], [ 32.976637, -19.694071 ], [ 32.979884, -19.68699 ], [ 32.977519, -19.670953 ], [ 32.968585, -19.656073 ], [ 32.961435, -19.656106 ], [ 32.948176, -19.664701 ], [ 32.917764, -19.677981 ], [ 32.890445, -19.684215 ], [ 32.850379, -19.68414 ], [ 32.840234, -19.680991 ], [ 32.835967, -19.676659 ], [ 32.835518, -19.666788 ], [ 32.851792, -19.623923 ], [ 32.847816, -19.606416 ], [ 32.851271, -19.545619 ], [ 32.84063, -19.520378 ], [ 32.844474, -19.480066 ], [ 32.838383, -19.47652 ], [ 32.796789, -19.475651 ], [ 32.779826, -19.461944 ], [ 32.776859, -19.45292 ], [ 32.779869, -19.431141 ], [ 32.778731, -19.40975 ], [ 32.785014, -19.388725 ], [ 32.776432, -19.36683 ], [ 32.779703, -19.35871 ], [ 32.81047, -19.333595 ], [ 32.849917, -19.291337 ], [ 32.852228, -19.277457 ], [ 32.849451, -19.231227 ], [ 32.870513, -19.131962 ], [ 32.876901, -19.113148 ], [ 32.87687, -19.097955 ], [ 32.870879, -19.083319 ], [ 32.858455, -19.075983 ], [ 32.853429, -19.068407 ], [ 32.845919, -19.028434 ], [ 32.83475, -19.017955 ], [ 32.799768, -19.017482 ], [ 32.754739, -19.028875 ], [ 32.738041, -19.02836 ], [ 32.718836, -19.020995 ], [ 32.709886, -19.001617 ], [ 32.701129, -18.942781 ], [ 32.70444, -18.936162 ], [ 32.726057, -18.930041 ], [ 32.729907, -18.925093 ], [ 32.72294, -18.889001 ], [ 32.704883, -18.854031 ], [ 32.705442, -18.843509 ], [ 32.715189, -18.831491 ], [ 32.735252, -18.818211 ], [ 32.759101, -18.813432 ], [ 32.776125, -18.801041 ], [ 32.817759, -18.780304 ], [ 32.838866, -18.778479 ], [ 32.875113, -18.795773 ], [ 32.88931, -18.796189 ], [ 32.90967, -18.785821 ], [ 32.926782, -18.766968 ], [ 32.934605, -18.741458 ], [ 32.953403, -18.701606 ], [ 32.954075, -18.693267 ], [ 32.909169, -18.620437 ], [ 32.898766, -18.59209 ], [ 32.887913, -18.58037 ], [ 32.895236, -18.554699 ], [ 32.893814, -18.541773 ], [ 32.885753, -18.523539 ], [ 32.886929, -18.515858 ], [ 32.891127, -18.508569 ], [ 32.903822, -18.501137 ], [ 32.921818, -18.500546 ], [ 32.943936, -18.490481 ], [ 32.959641, -18.479491 ], [ 32.980091, -18.488681 ], [ 32.998007, -18.482498 ], [ 33.014749, -18.472673 ], [ 33.02249, -18.457849 ], [ 33.022176, -18.444279 ], [ 33.016872, -18.42819 ], [ 33.02336, -18.394173 ], [ 33.032221, -18.385307 ], [ 33.045965, -18.378981 ], [ 33.054028, -18.362138 ], [ 33.052327, -18.356504 ], [ 33.040159, -18.344175 ], [ 33.036198, -18.330279 ], [ 33.029716, -18.324525 ], [ 33.01296, -18.317276 ], [ 33.001893, -18.302031 ], [ 32.998237, -18.271626 ], [ 33.008391, -18.2339 ], [ 32.996881, -18.194542 ], [ 32.996962, -18.170187 ], [ 32.988881, -18.158553 ], [ 32.977142, -18.152438 ], [ 32.972616, -18.143273 ], [ 32.970604, -18.128661 ], [ 32.973252, -18.107344 ], [ 32.960396, -18.073681 ], [ 32.958062, -18.052259 ], [ 32.949515, -18.031663 ], [ 32.948342, -18.010109 ], [ 32.942455, -17.985765 ], [ 32.943391, -17.973895 ], [ 32.948184, -17.963601 ], [ 32.952474, -17.961071 ], [ 32.962209, -17.961313 ], [ 32.967608, -17.954988 ], [ 32.976237, -17.921597 ], [ 32.973541, -17.915333 ], [ 32.957926, -17.910658 ], [ 32.953938, -17.904166 ], [ 32.953459, -17.878012 ], [ 32.961229, -17.851773 ], [ 32.960948, -17.817689 ], [ 32.971045, -17.802809 ], [ 32.991489, -17.804523 ], [ 33.008619, -17.800656 ], [ 33.014682, -17.782582 ], [ 33.014989, -17.770362 ], [ 33.025324, -17.761851 ], [ 33.023524, -17.756055 ], [ 33.003957, -17.740478 ], [ 33.002363, -17.726017 ], [ 33.00489, -17.721093 ], [ 33.013057, -17.722314 ], [ 33.01808, -17.719734 ], [ 33.012571, -17.701735 ], [ 33.017275, -17.674775 ], [ 33.026125, -17.648769 ], [ 33.039721, -17.632387 ], [ 33.042513, -17.606946 ], [ 33.033628, -17.591239 ], [ 33.011561, -17.571181 ], [ 32.990292, -17.566349 ], [ 32.980952, -17.560701 ], [ 32.962831, -17.525606 ], [ 32.959812, -17.492747 ], [ 32.963334, -17.481379 ], [ 32.982785, -17.457791 ], [ 32.997162, -17.451271 ], [ 33.001719, -17.417501 ], [ 33.007337, -17.401252 ], [ 33.02026, -17.377413 ], [ 33.043249, -17.346744 ], [ 33.031953, -17.334095 ], [ 33.002494, -17.314503 ], [ 32.998367, -17.309139 ], [ 32.996061, -17.25956 ], [ 32.986499, -17.1806 ], [ 32.939315, -17.071702 ], [ 32.901158, -17.015697 ], [ 32.848658, -16.946694 ], [ 32.8366, -16.924504 ], [ 32.838096, -16.920049 ], [ 32.844103, -16.916553 ], [ 32.881239, -16.907744 ], [ 32.902533, -16.900121 ], [ 32.912227, -16.892774 ], [ 32.96673, -16.771751 ], [ 32.972014, -16.75176 ], [ 32.976447, -16.707665 ], [ 32.968344, -16.704686 ], [ 32.922399, -16.702217 ], [ 32.900824, -16.716237 ], [ 32.890756, -16.719299 ], [ 32.869446, -16.709463 ], [ 32.853055, -16.706897 ], [ 32.84051, -16.699812 ], [ 32.833114, -16.701338 ], [ 32.823938, -16.707915 ], [ 32.809338, -16.705819 ], [ 32.766542, -16.707884 ], [ 32.713896, -16.68729 ], [ 32.7038, -16.677061 ], [ 32.710327, -16.636224 ], [ 32.711987, -16.606462 ], [ 32.708495, -16.600258 ], [ 32.576739, -16.537261 ], [ 32.494062, -16.502141 ], [ 32.411557, -16.469569 ], [ 32.343471, -16.449388 ], [ 32.277571, -16.434668 ], [ 32.038211, -16.441929 ], [ 31.918414, -16.413887 ], [ 31.908346, -16.398714 ], [ 31.910013, -16.373775 ], [ 31.901618, -16.347968 ], [ 31.894425, -16.338169 ], [ 31.852702, -16.317501 ], [ 31.847161, -16.309487 ], [ 31.833359, -16.310345 ], [ 31.826771, -16.296054 ], [ 31.815695, -16.293758 ], [ 31.817725, -16.282475 ], [ 31.815558, -16.277436 ], [ 31.80283, -16.269294 ], [ 31.79758, -16.258873 ], [ 31.785308, -16.255489 ], [ 31.770817, -16.237511 ], [ 31.757496, -16.236586 ], [ 31.733367, -16.228205 ], [ 31.703429, -16.207207 ], [ 31.691536, -16.201907 ], [ 31.636142, -16.197123 ], [ 31.616072, -16.190003 ], [ 31.587437, -16.191046 ], [ 31.547292, -16.184568 ], [ 31.500888, -16.171169 ], [ 31.48125, -16.157481 ], [ 31.466607, -16.158599 ], [ 31.449183, -16.153689 ], [ 31.431059, -16.155599 ], [ 31.427191, -16.136375 ], [ 31.420708, -16.132941 ], [ 31.406497, -16.136409 ], [ 31.402258, -16.134482 ], [ 31.372687, -16.101227 ], [ 31.364007, -16.091465 ], [ 31.348328, -16.079165 ], [ 31.341941, -16.068177 ], [ 31.338695, -16.053673 ], [ 31.333953, -16.048695 ], [ 31.306761, -16.027252 ], [ 31.28413, -16.019941 ], [ 31.26795, -16.010292 ], [ 31.264275, -16.010053 ], [ 31.249155, -16.009067 ], [ 31.247767, -16.006481 ], [ 31.244632, -16.00064 ], [ 31.215841, -16.007163 ], [ 31.191701, -16.00414 ], [ 31.177426, -15.990775 ], [ 31.152603, -15.988493 ], [ 31.138208, -15.983184 ], [ 31.110166, -15.992824 ], [ 31.103953, -15.99496 ], [ 31.100945, -16.000992 ], [ 31.073887, -16.015116 ], [ 31.064168, -16.001372 ], [ 31.054343, -16.012354 ], [ 31.031312, -16.019271 ], [ 31.030245, -16.021488 ], [ 31.018864, -16.04512 ], [ 30.998759, -16.056385 ], [ 30.983514, -16.058623 ], [ 30.967126, -16.049729 ], [ 30.959291, -16.041103 ], [ 30.948875, -16.015854 ], [ 30.920711, -16.000098 ], [ 30.42584, -15.999574 ], [ 30.422383, -15.917316 ], [ 30.425193, -15.632288 ], [ 30.418259, -15.617569 ], [ 30.40825, -15.607326 ], [ 30.404491, -15.598129 ], [ 30.403405, -15.595471 ], [ 30.390075, -15.575612 ], [ 30.365834, -15.553197 ], [ 30.365549, -15.545255 ], [ 30.373319, -15.527062 ], [ 30.393884, -15.489041 ], [ 30.399748, -15.480536 ], [ 30.40132, -15.472847 ], [ 30.390417, -15.44862 ], [ 30.38171, -15.421489 ], [ 30.385664, -15.381383 ], [ 30.379569, -15.366709 ], [ 30.375689, -15.342517 ], [ 30.371167, -15.333598 ], [ 30.366862, -15.330122 ], [ 30.357033, -15.316809 ], [ 30.350242, -15.311144 ], [ 30.34022, -15.305498 ], [ 30.327165, -15.292365 ], [ 30.318117, -15.278892 ], [ 30.279666, -15.251142 ], [ 30.265927, -15.225028 ], [ 30.256019, -15.214291 ], [ 30.256328, -15.206823 ], [ 30.259807, -15.194567 ], [ 30.25725, -15.180811 ], [ 30.24808, -15.166589 ], [ 30.245327, -15.154943 ], [ 30.240272, -15.148778 ], [ 30.230376, -15.138488 ], [ 30.232803, -15.114785 ], [ 30.221288, -15.094291 ], [ 30.224022, -15.074441 ], [ 30.22138, -15.060614 ], [ 30.233845, -15.038122 ], [ 30.218214, -14.998324 ], [ 30.240272, -14.989819 ], [ 30.321465, -14.970243 ], [ 30.337, -14.964325 ], [ 30.366177, -14.959117 ], [ 30.517182, -14.888351 ], [ 30.552062, -14.877907 ], [ 30.627579, -14.847604 ], [ 30.663538, -14.836623 ], [ 30.79877, -14.783848 ], [ 31.02102, -14.729139 ], [ 31.030245, -14.727955 ], [ 31.039771, -14.726733 ], [ 31.070699, -14.716808 ], [ 31.08057, -14.716703 ], [ 31.110166, -14.707329 ], [ 31.181715, -14.684664 ], [ 31.191362, -14.679259 ], [ 31.247767, -14.663979 ], [ 31.264275, -14.659507 ], [ 31.326328, -14.649668 ], [ 31.473341, -14.619452 ], [ 31.536147, -14.588166 ], [ 31.681648, -14.507517 ], [ 31.814747, -14.476786 ], [ 31.894425, -14.438577 ], [ 31.947814, -14.41297 ], [ 31.978735, -14.40383 ], [ 32.056154, -14.388431 ], [ 32.100972, -14.369058 ], [ 32.243522, -14.322863 ], [ 32.321182, -14.305738 ], [ 32.395722, -14.294387 ], [ 32.450682, -14.282647 ], [ 32.613031, -14.213702 ], [ 32.989499, -14.082489 ], [ 33.08854, -14.044424 ], [ 33.206722, -14.00444 ], [ 33.242222, -13.998521 ], [ 33.266694, -14.027762 ], [ 33.294522, -14.034445 ], [ 33.312986, -14.062689 ], [ 33.316573, -14.088366 ], [ 33.299867, -14.142562 ], [ 33.331996, -14.185626 ], [ 33.342084, -14.213767 ], [ 33.356844, -14.219741 ], [ 33.367351, -14.210779 ], [ 33.376041, -14.213742 ], [ 33.384425, -14.237759 ], [ 33.395477, -14.25056 ], [ 33.407114, -14.276597 ], [ 33.418341, -14.286721 ], [ 33.431538, -14.314614 ], [ 33.443459, -14.326498 ], [ 33.449705, -14.347013 ], [ 33.449112, -14.362358 ], [ 33.466768, -14.383311 ], [ 33.473029, -14.39993 ], [ 33.49078, -14.407679 ], [ 33.504276, -14.418078 ], [ 33.528157, -14.423059 ], [ 33.540406, -14.430182 ], [ 33.554552, -14.451493 ], [ 33.56543, -14.476345 ], [ 33.587072, -14.481662 ], [ 33.604742, -14.492227 ], [ 33.627366, -14.534032 ], [ 33.623034, -14.552533 ], [ 33.635181, -14.583926 ], [ 33.660284, -14.602151 ], [ 33.668969, -14.617307 ], [ 33.682352, -14.611879 ], [ 33.694811, -14.590642 ], [ 33.714349, -14.577155 ], [ 33.713488, -14.564762 ], [ 33.704378, -14.539253 ], [ 33.710374, -14.524967 ], [ 33.71058, -14.506697 ], [ 33.718356, -14.500236 ], [ 33.735864, -14.500824 ], [ 33.74829, -14.513836 ], [ 33.787935, -14.536287 ], [ 33.799369, -14.546361 ], [ 33.812634, -14.548188 ], [ 33.830432, -14.53685 ], [ 33.857114, -14.510532 ], [ 33.871578, -14.515277 ], [ 33.879898, -14.513339 ], [ 33.894335, -14.491019 ], [ 33.920649, -14.47749 ], [ 33.981438, -14.48129 ], [ 34.081632, -14.487553 ], [ 34.085129, -14.462165 ], [ 34.090279, -14.45642 ], [ 34.179732, -14.437558 ], [ 34.212348, -14.439967 ], [ 34.231217, -14.428238 ], [ 34.236156, -14.425168 ], [ 34.264857, -14.429642 ], [ 34.272435, -14.425419 ], [ 34.281274, -14.411837 ], [ 34.298019, -14.39984 ], [ 34.314151, -14.403119 ], [ 34.329286, -14.397871 ], [ 34.345224, -14.396161 ], [ 34.358848, -14.386764 ], [ 34.369779, -14.388873 ], [ 34.377514, -14.39542 ], [ 34.392691, -14.396576 ], [ 34.404089, -14.419372 ], [ 34.419381, -14.433021 ], [ 34.42845, -14.456199 ], [ 34.446969, -14.478884 ], [ 34.452111, -14.497805 ], [ 34.465203, -14.51923 ], [ 34.475695, -14.531807 ], [ 34.493048, -14.540465 ], [ 34.498801, -14.55203 ], [ 34.513871, -14.554252 ], [ 34.522628, -14.565697 ], [ 34.529002, -14.581206 ], [ 34.541418, -14.599771 ], [ 34.542455, -14.630869 ], [ 34.549744, -14.645542 ], [ 34.541507, -14.658546 ], [ 34.537545, -14.673496 ], [ 34.523291, -14.681065 ], [ 34.521141, -14.68697 ], [ 34.53066, -14.711417 ], [ 34.541721, -14.729238 ], [ 34.544879, -14.741823 ], [ 34.547058, -14.750504 ], [ 34.564824, -14.770686 ], [ 34.56646, -14.781048 ], [ 34.574344, -14.790265 ], [ 34.582774, -14.808682 ], [ 34.582283, -14.814173 ], [ 34.573272, -14.82633 ], [ 34.577571, -14.872123 ], [ 34.569124, -14.885733 ], [ 34.566935, -14.896852 ], [ 34.575973, -14.907835 ], [ 34.587911, -14.933719 ], [ 34.593999, -14.960126 ], [ 34.600975, -14.971469 ], [ 34.614141, -14.978512 ], [ 34.61447, -14.989421 ], [ 34.6174, -14.994198 ], [ 34.621858, -15.001465 ], [ 34.618714, -15.010494 ], [ 34.6174, -15.01183 ], [ 34.606922, -15.022482 ], [ 34.60337, -15.039152 ], [ 34.589579, -15.047848 ], [ 34.576836, -15.061621 ], [ 34.572358, -15.076291 ], [ 34.574371, -15.084132 ], [ 34.58533, -15.087171 ], [ 34.590696, -15.094211 ], [ 34.584058, -15.105896 ], [ 34.572638, -15.11491 ], [ 34.570747, -15.121916 ], [ 34.57422, -15.130229 ], [ 34.577378, -15.137788 ], [ 34.578605, -15.170514 ], [ 34.583588, -15.181996 ], [ 34.57923, -15.201901 ], [ 34.590402, -15.213505 ], [ 34.592733, -15.224466 ], [ 34.603387, -15.239485 ], [ 34.599282, -15.253687 ], [ 34.602149, -15.266431 ], [ 34.600378, -15.280715 ], [ 34.573253, -15.306737 ], [ 34.575002, -15.315187 ], [ 34.572744, -15.323725 ], [ 34.562105, -15.327953 ], [ 34.556163, -15.336658 ], [ 34.539156, -15.330287 ], [ 34.521837, -15.350587 ], [ 34.517312, -15.371875 ], [ 34.520506, -15.387463 ], [ 34.512751, -15.409492 ], [ 34.491469, -15.412483 ], [ 34.468079, -15.428384 ], [ 34.441463, -15.425397 ], [ 34.440116, -15.437738 ], [ 34.443356, -15.454411 ], [ 34.425944, -15.475075 ], [ 34.425396, -15.479886 ], [ 34.42699, -15.498823 ], [ 34.434012, -15.512744 ], [ 34.441069, -15.537421 ], [ 34.441855, -15.569351 ], [ 34.439346, -15.580253 ], [ 34.450044, -15.591971 ], [ 34.453547, -15.606212 ], [ 34.438805, -15.614133 ], [ 34.431841, -15.623992 ], [ 34.432493, -15.659603 ], [ 34.407902, -15.674116 ], [ 34.401695, -15.682831 ], [ 34.392154, -15.685645 ], [ 34.385606, -15.708049 ], [ 34.369211, -15.733353 ], [ 34.349103, -15.741932 ], [ 34.332042, -15.741839 ], [ 34.306026, -15.755936 ], [ 34.286938, -15.783629 ], [ 34.271227, -15.798453 ], [ 34.270661, -15.812146 ], [ 34.257238, -15.822897 ], [ 34.251751, -15.84217 ], [ 34.257507, -15.862502 ], [ 34.254024, -15.878492 ], [ 34.260305, -15.886331 ], [ 34.254787, -15.894787 ], [ 34.258524, -15.913359 ], [ 34.263694, -15.918512 ], [ 34.276412, -15.922692 ], [ 34.282351, -15.931843 ], [ 34.300644, -15.928691 ], [ 34.308703, -15.931823 ], [ 34.332541, -15.963969 ], [ 34.367957, -15.998039 ], [ 34.378373, -16.011989 ], [ 34.4237, -16.04036 ], [ 34.424921, -16.064148 ], [ 34.414773, -16.074327 ], [ 34.416529, -16.092155 ], [ 34.402866, -16.110803 ], [ 34.392149, -16.136142 ], [ 34.402534, -16.159717 ], [ 34.398376, -16.17919 ], [ 34.401029, -16.198505 ], [ 34.406788, -16.214152 ], [ 34.415626, -16.222106 ], [ 34.420417, -16.246271 ], [ 34.42994, -16.260071 ], [ 34.453628, -16.279374 ], [ 34.475107, -16.283468 ], [ 34.491198, -16.293926 ], [ 34.52552, -16.283054 ], [ 34.538353, -16.29308 ], [ 34.546002, -16.303169 ], [ 34.568745, -16.315531 ], [ 34.572799, -16.326639 ], [ 34.571356, -16.34466 ], [ 34.58757, -16.366363 ], [ 34.584848, -16.390609 ], [ 34.594351, -16.415219 ], [ 34.60199, -16.420461 ], [ 34.6174, -16.425456 ], [ 34.621723, -16.426857 ], [ 34.641349, -16.439424 ], [ 34.64955, -16.45002 ], [ 34.665448, -16.444029 ], [ 34.673037, -16.446124 ], [ 34.682449, -16.463126 ], [ 34.679732, -16.483333 ], [ 34.681721, -16.492234 ], [ 34.68694, -16.498972 ], [ 34.697948, -16.502673 ], [ 34.708546, -16.498054 ], [ 34.718508, -16.498132 ], [ 34.736288, -16.506259 ], [ 34.75204, -16.520313 ], [ 34.776238, -16.54934 ], [ 34.778331, -16.565762 ], [ 34.774477, -16.580888 ], [ 34.791005, -16.586196 ], [ 34.810108, -16.59956 ], [ 34.816062, -16.603725 ], [ 34.831691, -16.605315 ], [ 34.846154, -16.617095 ], [ 34.852212, -16.634911 ], [ 34.852803, -16.652044 ], [ 34.858141, -16.671926 ], [ 34.880699, -16.686552 ], [ 34.900155, -16.691995 ], [ 34.907925, -16.697105 ], [ 34.916002, -16.715468 ], [ 34.917833, -16.731906 ], [ 34.923329, -16.744937 ], [ 34.939067, -16.748898 ], [ 34.951906, -16.74331 ], [ 34.964251, -16.742006 ], [ 34.981178, -16.751359 ], [ 34.992053, -16.773376 ], [ 34.994547, -16.791144 ], [ 35.007557, -16.801945 ], [ 35.028086, -16.809245 ], [ 35.03524, -16.822194 ], [ 35.041731, -16.826974 ], [ 35.056497, -16.830845 ], [ 35.073438, -16.820043 ], [ 35.107261, -16.815847 ], [ 35.128139, -16.817277 ], [ 35.156995, -16.839602 ], [ 35.160686, -16.847926 ], [ 35.16023, -16.855814 ], [ 35.150317, -16.86657 ], [ 35.149003, -16.874234 ], [ 35.160267, -16.898488 ], [ 35.163072, -16.912572 ], [ 35.167677, -16.93569 ], [ 35.163072, -16.936611 ], [ 35.149075, -16.939409 ], [ 35.139348, -16.95505 ], [ 35.139301, -16.964747 ], [ 35.133264, -16.97077 ], [ 35.110924, -16.976823 ], [ 35.094116, -16.985439 ], [ 35.071884, -16.989249 ], [ 35.062442, -16.99507 ], [ 35.054975, -17.007175 ], [ 35.062086, -17.021557 ], [ 35.058363, -17.047632 ], [ 35.079008, -17.064689 ], [ 35.085576, -17.075257 ], [ 35.095346, -17.078781 ], [ 35.103814, -17.086931 ], [ 35.100552, -17.092051 ], [ 35.089049, -17.095444 ], [ 35.080794, -17.108781 ], [ 35.093233, -17.125274 ], [ 35.107455, -17.128703 ], [ 35.163072, -17.12822 ], [ 35.284712, -17.127165 ], [ 35.3029, -17.123889 ], [ 35.306922, -17.120628 ], [ 35.302569, -17.095568 ], [ 35.30826, -17.081908 ], [ 35.311105, -17.062489 ], [ 35.299355, -17.05809 ], [ 35.299798, -17.046768 ], [ 35.293322, -17.031711 ], [ 35.296222, -17.018383 ], [ 35.294633, -17.006663 ], [ 35.301345, -16.995546 ], [ 35.302975, -16.982075 ], [ 35.293379, -16.96418 ], [ 35.282113, -16.964797 ], [ 35.271586, -16.96005 ], [ 35.271386, -16.950813 ], [ 35.264792, -16.942026 ], [ 35.268821, -16.928494 ], [ 35.283181, -16.902208 ], [ 35.282123, -16.898399 ], [ 35.275292, -16.895846 ], [ 35.273881, -16.892725 ], [ 35.2812, -16.885927 ], [ 35.282438, -16.875893 ], [ 35.293113, -16.868889 ], [ 35.301706, -16.85866 ], [ 35.305954, -16.842134 ], [ 35.312399, -16.830869 ], [ 35.303959, -16.808486 ], [ 35.28947, -16.791817 ], [ 35.288843, -16.778791 ], [ 35.295537, -16.765127 ], [ 35.287183, -16.749181 ], [ 35.290563, -16.739308 ], [ 35.283427, -16.731883 ], [ 35.28668, -16.713118 ], [ 35.274587, -16.702822 ], [ 35.258586, -16.681482 ], [ 35.246966, -16.677846 ], [ 35.236741, -16.670077 ], [ 35.228526, -16.649756 ], [ 35.215008, -16.65123 ], [ 35.204086, -16.637484 ], [ 35.171425, -16.621052 ], [ 35.169834, -16.609514 ], [ 35.163072, -16.606294 ], [ 35.158673, -16.604199 ], [ 35.154396, -16.588195 ], [ 35.147808, -16.576763 ], [ 35.149066, -16.568819 ], [ 35.145632, -16.560756 ], [ 35.150608, -16.554344 ], [ 35.163072, -16.547169 ], [ 35.174563, -16.540555 ], [ 35.178126, -16.528216 ], [ 35.18448, -16.521518 ], [ 35.207537, -16.515579 ], [ 35.216193, -16.498692 ], [ 35.244979, -16.490169 ], [ 35.260368, -16.475262 ], [ 35.266464, -16.437379 ], [ 35.262387, -16.419565 ], [ 35.264319, -16.398496 ], [ 35.27215, -16.384346 ], [ 35.290468, -16.365445 ], [ 35.29933, -16.350021 ], [ 35.280478, -16.32263 ], [ 35.287834, -16.295321 ], [ 35.295618, -16.279354 ], [ 35.298081, -16.263492 ], [ 35.294174, -16.244413 ], [ 35.296757, -16.234518 ], [ 35.305863, -16.224831 ], [ 35.315704, -16.206629 ], [ 35.341371, -16.192094 ], [ 35.351231, -16.177872 ], [ 35.375129, -16.156631 ], [ 35.391334, -16.149999 ], [ 35.407101, -16.126099 ], [ 35.431558, -16.114815 ], [ 35.447456, -16.115102 ], [ 35.465317, -16.12149 ], [ 35.483939, -16.122283 ], [ 35.487745, -16.138257 ], [ 35.498122, -16.146424 ], [ 35.500545, -16.154042 ], [ 35.514937, -16.157853 ], [ 35.520095, -16.164943 ], [ 35.52411, -16.166013 ], [ 35.538575, -16.157402 ], [ 35.545171, -16.140908 ], [ 35.556997, -16.124769 ], [ 35.568134, -16.130819 ], [ 35.577352, -16.12618 ], [ 35.592406, -16.1308 ], [ 35.622129, -16.123233 ], [ 35.631557, -16.112721 ], [ 35.670089, -16.097011 ], [ 35.677702, -16.096951 ], [ 35.690212, -16.102 ], [ 35.705549, -16.101101 ], [ 35.715984, -16.091467 ], [ 35.758401, -16.073346 ], [ 35.772484, -16.055115 ], [ 35.813258, -16.031279 ], [ 35.8183, -16.018553 ], [ 35.818408, -16.003072 ], [ 35.816275, -15.997296 ], [ 35.807207, -15.988827 ], [ 35.806123, -15.963059 ], [ 35.811374, -15.946044 ], [ 35.827236, -15.925808 ], [ 35.841924, -15.699231 ], [ 35.855812, -15.537421 ], [ 35.866076, -15.417897 ], [ 35.855477, -15.366993 ], [ 35.803992, -15.16815 ], [ 35.821627, -15.130229 ], [ 35.931041, -14.894796 ], [ 35.885737, -14.891511 ], [ 35.884805, -14.741823 ], [ 35.884374, -14.672601 ], [ 35.535617, -14.258899 ], [ 35.500038, -14.169081 ], [ 35.436331, -14.097426 ], [ 35.344407, -13.994633 ], [ 35.240847, -13.878774 ], [ 35.163072, -13.77629 ], [ 35.103037, -13.697152 ], [ 34.940904, -13.544197 ], [ 34.880471, -13.481481 ], [ 34.810108, -13.481435 ], [ 34.6174, -13.481308 ], [ 34.604409, -13.4813 ], [ 34.577674, -13.430952 ], [ 34.566999, -13.406313 ], [ 34.558342, -13.382783 ], [ 34.553409, -13.358491 ], [ 34.550539, -13.310908 ], [ 34.563236, -13.27548 ], [ 34.564528, -13.263719 ], [ 34.56534, -13.246483 ], [ 34.563705, -13.221349 ], [ 34.563707, -13.185609 ], [ 34.572756, -13.10403 ], [ 34.574812, -13.049057 ], [ 34.569482, -13.007374 ], [ 34.565898, -12.9964 ], [ 34.554228, -12.960665 ], [ 34.537765, -12.889908 ], [ 34.524997, -12.848659 ], [ 34.518415, -12.802625 ], [ 34.518798, -12.774479 ], [ 34.514279, -12.732598 ], [ 34.506038, -12.707818 ], [ 34.493629, -12.679132 ], [ 34.48299, -12.631219 ], [ 34.480912, -12.600723 ], [ 34.477182, -12.575563 ], [ 34.46937, -12.556643 ], [ 34.459941, -12.539425 ], [ 34.436878, -12.509323 ], [ 34.425774, -12.491217 ], [ 34.422034, -12.471801 ], [ 34.421604, -12.439291 ], [ 34.419339, -12.421573 ], [ 34.418496, -12.41498 ], [ 34.404204, -12.387408 ], [ 34.395911, -12.371409 ], [ 34.381822, -12.34897 ], [ 34.36583, -12.312064 ], [ 34.35967, -12.292368 ], [ 34.356344, -12.258411 ], [ 34.360079, -12.206453 ], [ 34.36666, -12.182242 ], [ 34.374859, -12.16583 ], [ 34.383554, -12.150529 ], [ 34.404204, -12.123584 ], [ 34.417272, -12.10653 ], [ 34.442167, -12.079913 ], [ 34.447818, -12.072204 ], [ 34.463448, -12.041804 ], [ 34.486819, -12.007766 ], [ 34.49472, -11.998967 ], [ 34.503049, -11.982415 ], [ 34.510026, -11.973402 ], [ 34.536105, -11.945939 ], [ 34.543281, -11.933555 ], [ 34.546558, -11.92174 ], [ 34.542511, -11.893257 ], [ 34.543301, -11.881036 ], [ 34.553187, -11.854507 ], [ 34.568025, -11.832634 ], [ 34.597233, -11.799701 ], [ 34.61576, -11.774184 ], [ 34.6174, -11.771382 ], [ 34.625703, -11.757194 ], [ 34.636744, -11.731846 ], [ 34.644198, -11.702121 ], [ 34.646241, -11.685883 ], [ 34.644629, -11.663835 ], [ 34.635545, -11.632402 ], [ 34.626871, -11.609852 ], [ 34.6174, -11.58523 ], [ 34.612839, -11.573369 ], [ 34.6174, -11.573369 ], [ 34.810108, -11.573347 ], [ 34.95957, -11.573331 ], [ 35.163072, -11.57204 ], [ 35.408433, -11.570485 ], [ 35.413413, -11.569466 ], [ 35.416994, -11.564129 ], [ 35.42422, -11.570725 ], [ 35.422127, -11.580084 ], [ 35.439939, -11.582671 ], [ 35.447093, -11.575114 ], [ 35.463784, -11.580105 ], [ 35.476347, -11.576975 ], [ 35.479809, -11.572347 ], [ 35.475497, -11.56327 ], [ 35.480235, -11.560284 ], [ 35.500672, -11.561948 ], [ 35.505772, -11.578611 ], [ 35.51415, -11.581259 ], [ 35.52542, -11.576213 ], [ 35.522551, -11.567332 ], [ 35.52826, -11.559885 ], [ 35.537512, -11.563471 ], [ 35.543038, -11.560602 ], [ 35.551436, -11.566936 ], [ 35.566456, -11.562467 ], [ 35.576151, -11.550472 ], [ 35.595179, -11.559446 ], [ 35.632273, -11.554044 ], [ 35.64493, -11.560903 ], [ 35.655736, -11.547127 ], [ 35.669615, -11.536953 ], [ 35.681965, -11.533007 ], [ 35.692991, -11.524064 ], [ 35.699424, -11.509041 ], [ 35.710633, -11.50556 ], [ 35.712018, -11.500206 ], [ 35.706278, -11.495531 ], [ 35.713643, -11.487399 ], [ 35.7142, -11.477772 ], [ 35.720751, -11.475686 ], [ 35.732864, -11.476898 ], [ 35.738258, -11.470663 ], [ 35.746126, -11.47306 ], [ 35.755718, -11.469426 ], [ 35.767717, -11.470843 ], [ 35.769195, -11.461801 ], [ 35.776254, -11.467423 ], [ 35.78752, -11.45077 ], [ 35.793137, -11.449566 ], [ 35.794184, -11.442587 ], [ 35.799659, -11.440596 ], [ 35.805107, -11.431347 ], [ 35.812705, -11.428408 ], [ 35.812582, -11.4203 ], [ 35.829603, -11.412152 ], [ 35.844452, -11.412593 ], [ 35.850432, -11.416541 ], [ 35.852486, -11.425469 ], [ 35.857982, -11.429337 ], [ 35.866061, -11.430717 ], [ 35.883785, -11.426257 ], [ 35.913269, -11.437277 ], [ 35.930992, -11.437821 ], [ 35.944852, -11.425085 ], [ 35.951821, -11.436148 ], [ 35.959932, -11.465832 ], [ 35.966205, -11.466562 ], [ 35.964985, -11.457251 ], [ 35.967027, -11.45402 ], [ 35.975333, -11.461348 ], [ 35.984686, -11.459226 ], [ 35.99193, -11.473805 ], [ 36.00563, -11.484086 ], [ 36.03904, -11.493573 ], [ 36.043077, -11.505958 ], [ 36.052226, -11.515767 ], [ 36.064807, -11.540099 ], [ 36.076449, -11.539941 ], [ 36.100105, -11.531341 ], [ 36.10766, -11.524936 ], [ 36.111628, -11.514327 ], [ 36.117272, -11.51228 ], [ 36.127684, -11.519695 ], [ 36.129278, -11.532967 ], [ 36.126308, -11.542758 ], [ 36.130377, -11.55167 ], [ 36.135954, -11.557561 ], [ 36.147023, -11.560994 ], [ 36.154358, -11.569731 ], [ 36.164986, -11.569212 ], [ 36.177202, -11.549382 ], [ 36.18194, -11.547514 ], [ 36.185177, -11.559827 ], [ 36.177995, -11.56678 ], [ 36.193496, -11.574914 ], [ 36.198786, -11.582707 ], [ 36.187447, -11.602824 ], [ 36.187706, -11.617932 ], [ 36.182966, -11.63665 ], [ 36.183746, -11.661889 ], [ 36.192344, -11.682373 ], [ 36.215911, -11.706301 ], [ 36.226661, -11.705275 ], [ 36.238604, -11.697979 ], [ 36.248504, -11.698343 ], [ 36.269909, -11.691867 ], [ 36.276676, -11.697688 ], [ 36.282994, -11.715749 ], [ 36.29572, -11.720842 ], [ 36.316255, -11.71712 ], [ 36.328276, -11.708251 ], [ 36.356152, -11.712072 ], [ 36.364066, -11.705221 ], [ 36.372044, -11.692232 ], [ 36.386522, -11.67959 ], [ 36.401384, -11.688325 ], [ 36.416943, -11.68198 ], [ 36.43091, -11.684343 ], [ 36.472609, -11.680319 ], [ 36.487376, -11.681311 ], [ 36.502294, -11.686686 ], [ 36.515651, -11.699719 ], [ 36.504896, -11.737814 ], [ 36.506016, -11.743403 ], [ 36.507858, -11.7526 ], [ 36.51696, -11.759593 ], [ 36.523841, -11.757857 ], [ 36.53582, -11.743403 ], [ 36.538876, -11.739716 ], [ 36.554624, -11.728142 ], [ 36.564879, -11.710399 ], [ 36.575197, -11.700493 ], [ 36.591375, -11.705284 ], [ 36.623138, -11.734593 ], [ 36.633943, -11.734358 ], [ 36.68441, -11.706733 ], [ 36.697625, -11.695754 ], [ 36.713291, -11.676632 ], [ 36.769045, -11.644298 ], [ 36.778543, -11.62749 ], [ 36.792384, -11.611055 ], [ 36.801232, -11.576525 ], [ 36.81456, -11.570082 ], [ 36.824941, -11.571972 ], [ 36.839044, -11.583366 ], [ 36.859616, -11.58514 ], [ 36.872028, -11.594664 ], [ 36.878897, -11.595027 ], [ 36.890006, -11.58948 ], [ 36.900996, -11.598112 ], [ 36.91644, -11.60411 ], [ 36.926441, -11.603955 ], [ 36.938099, -11.597388 ], [ 36.955239, -11.597304 ], [ 36.985954, -11.580628 ], [ 37.010861, -11.585937 ], [ 37.025106, -11.585906 ], [ 37.05071, -11.597154 ], [ 37.085087, -11.625922 ], [ 37.096831, -11.627436 ], [ 37.109197, -11.624036 ], [ 37.130505, -11.632808 ], [ 37.156641, -11.631764 ], [ 37.221415, -11.654263 ], [ 37.261976, -11.636276 ], [ 37.280147, -11.63582 ], [ 37.30109, -11.64241 ], [ 37.318576, -11.663856 ], [ 37.332367, -11.675024 ], [ 37.362757, -11.680817 ], [ 37.384166, -11.690257 ], [ 37.417475, -11.682727 ], [ 37.42599, -11.65924 ], [ 37.442771, -11.639245 ], [ 37.482404, -11.626702 ], [ 37.499778, -11.615533 ], [ 37.51727, -11.617426 ], [ 37.528639, -11.614719 ], [ 37.583089, -11.625721 ], [ 37.620217, -11.611062 ], [ 37.657593, -11.577599 ], [ 37.690243, -11.565266 ], [ 37.733617, -11.554472 ], [ 37.754323, -11.542814 ], [ 37.760196, -11.535985 ], [ 37.784282, -11.507974 ], [ 37.787833, -11.481359 ], [ 37.780343, -11.467702 ], [ 37.77867, -11.453966 ], [ 37.788033, -11.423699 ], [ 37.80572, -11.409851 ], [ 37.813944, -11.392991 ], [ 37.816876, -11.37994 ], [ 37.82703, -11.369922 ], [ 37.831669, -11.31122 ], [ 37.856397, -11.305367 ], [ 37.874018, -11.284818 ], [ 37.886399, -11.279103 ], [ 37.897422, -11.27812 ], [ 37.911748, -11.266799 ], [ 37.930414, -11.260212 ], [ 37.946363, -11.259607 ], [ 37.955045, -11.263339 ], [ 37.960894, -11.269534 ], [ 37.967171, -11.270885 ], [ 37.9959, -11.262335 ], [ 38.007509, -11.264759 ], [ 38.017039, -11.271297 ], [ 38.037395, -11.270956 ], [ 38.042038, -11.270878 ], [ 38.062805, -11.275957 ], [ 38.078242, -11.27169 ], [ 38.093414, -11.261409 ], [ 38.112488, -11.256991 ], [ 38.145255, -11.273313 ], [ 38.16085, -11.270694 ], [ 38.185048, -11.278203 ], [ 38.207063, -11.273739 ], [ 38.22175, -11.278326 ], [ 38.232929, -11.278389 ], [ 38.254261, -11.288828 ], [ 38.268451, -11.291159 ], [ 38.277489, -11.304092 ], [ 38.283345, -11.32753 ], [ 38.291211, -11.329758 ], [ 38.313624, -11.326474 ], [ 38.322201, -11.328625 ], [ 38.344525, -11.34678 ], [ 38.355367, -11.351278 ], [ 38.361519, -11.369064 ], [ 38.368919, -11.376459 ], [ 38.437276, -11.395825 ], [ 38.448618, -11.409007 ], [ 38.462921, -11.419379 ], [ 38.4855, -11.4189 ], [ 38.490419, -11.416597 ], [ 38.526134, -11.373243 ], [ 38.569846, -11.342802 ], [ 38.585263, -11.337018 ], [ 38.59444, -11.321565 ], [ 38.63454, -11.288103 ], [ 38.6607, -11.274009 ], [ 38.683154, -11.275347 ], [ 38.71212, -11.26611 ], [ 38.751833, -11.27128 ], [ 38.764846, -11.260305 ], [ 38.77562, -11.245027 ], [ 38.801443, -11.238402 ], [ 38.818035, -11.225997 ], [ 38.837906, -11.216574 ], [ 38.85892, -11.198285 ], [ 38.86451, -11.183886 ], [ 38.884112, -11.171759 ], [ 38.934467, -11.165097 ], [ 38.949929, -11.171879 ], [ 38.971402, -11.17147 ], [ 38.99614, -11.163407 ], [ 39.007667, -11.1685 ], [ 39.019975, -11.166916 ], [ 39.033348, -11.169049 ], [ 39.056908, -11.158357 ], [ 39.078269, -11.157895 ], [ 39.123309, -11.144097 ], [ 39.154014, -11.148683 ], [ 39.164119, -11.146997 ], [ 39.183106, -11.1568 ], [ 39.195478, -11.166687 ], [ 39.240401, -11.17331 ], [ 39.273052, -11.156256 ], [ 39.291625, -11.14158 ], [ 39.299067, -11.132245 ], [ 39.308121, -11.125021 ], [ 39.317038, -11.125368 ], [ 39.33025, -11.102424 ], [ 39.354211, -11.084323 ], [ 39.378794, -11.073153 ], [ 39.404077, -11.071942 ], [ 39.409622, -11.061904 ], [ 39.418358, -11.055177 ], [ 39.42846, -11.052645 ], [ 39.447006, -11.039897 ], [ 39.464589, -11.035042 ], [ 39.469184, -11.030788 ], [ 39.469645, -11.021849 ], [ 39.492852, -11.008884 ], [ 39.508875, -11.003383 ], [ 39.514505, -10.991161 ], [ 39.515776, -10.988401 ], [ 39.520888, -10.983405 ], [ 39.523267, -10.98108 ], [ 39.546887, -10.973356 ], [ 39.577728, -10.969406 ], [ 39.595478, -10.954045 ], [ 39.620627, -10.944973 ], [ 39.665555, -10.939877 ], [ 39.677945, -10.935094 ], [ 39.689691, -10.933627 ], [ 39.704674, -10.931756 ], [ 39.728489, -10.919459 ], [ 39.750185, -10.91896 ], [ 39.760956, -10.910977 ], [ 39.772496, -10.909452 ], [ 39.793671, -10.897154 ], [ 39.808773, -10.899709 ], [ 39.820777, -10.881695 ], [ 39.828624, -10.876485 ], [ 39.83796, -10.875582 ], [ 39.848605, -10.864399 ], [ 39.857294, -10.857278 ], [ 39.867088, -10.849249 ], [ 39.881056, -10.845604 ], [ 39.882956, -10.844592 ], [ 39.909748, -10.830307 ], [ 39.921287, -10.829712 ], [ 39.923664, -10.827455 ], [ 39.927751, -10.823574 ], [ 39.931813, -10.823658 ], [ 39.944658, -10.823924 ], [ 39.967118, -10.813794 ], [ 39.990612, -10.811321 ], [ 40.000739, -10.8091 ], [ 40.007994, -10.800359 ], [ 40.018786, -10.794416 ], [ 40.038954, -10.774746 ], [ 40.041035, -10.769106 ], [ 40.042517, -10.76509 ], [ 40.054625, -10.757675 ], [ 40.069842, -10.742848 ], [ 40.097586, -10.725383 ], [ 40.136309, -10.689588 ], [ 40.16504, -10.675171 ], [ 40.175082, -10.66671 ], [ 40.177288, -10.654412 ], [ 40.180765, -10.649897 ], [ 40.201411, -10.644807 ], [ 40.211213, -10.63239 ], [ 40.208462, -10.623643 ], [ 40.214844, -10.612571 ], [ 40.230488, -10.604707 ], [ 40.235979, -10.596477 ], [ 40.246251, -10.596106 ], [ 40.259292, -10.587096 ], [ 40.281576, -10.580611 ], [ 40.296454, -10.567593 ], [ 40.308154, -10.570581 ], [ 40.324658, -10.568611 ], [ 40.338349, -10.572475 ], [ 40.358262, -10.572439 ], [ 40.369594, -10.549506 ], [ 40.372816, -10.531758 ], [ 40.385587, -10.516265 ], [ 40.394424, -10.510723 ], [ 40.398361, -10.512688 ], [ 40.412596, -10.506913 ], [ 40.422717, -10.49544 ], [ 40.430788, -10.480576 ], [ 40.447773, -10.475291 ], [ 40.487686, -10.485731 ], [ 40.500735, -10.486553 ], [ 40.513213, -10.481448 ], [ 40.522745, -10.483669 ], [ 40.532415, -10.493706 ], [ 40.534213, -10.50938 ], [ 40.544239, -10.542014 ], [ 40.542322, -10.54981 ], [ 40.532263, -10.551508 ], [ 40.534162, -10.575014 ], [ 40.581946, -10.601362 ], [ 40.579512, -10.610369 ], [ 40.572151, -10.615822 ], [ 40.569476, -10.622129 ], [ 40.56883, -10.639718 ], [ 40.573293, -10.656703 ], [ 40.582268, -10.664781 ], [ 40.625617, -10.673181 ], [ 40.63387, -10.679734 ], [ 40.638079, -10.689853 ], [ 40.636694, -10.698907 ], [ 40.628875, -10.704304 ], [ 40.613596, -10.697235 ], [ 40.592315, -10.694548 ], [ 40.582729, -10.689103 ], [ 40.572489, -10.691321 ], [ 40.518356, -10.732064 ], [ 40.498996, -10.737906 ], [ 40.494065, -10.746217 ], [ 40.485186, -10.753405 ], [ 40.483376, -10.777232 ], [ 40.489216, -10.788714 ], [ 40.491614, -10.785119 ], [ 40.490956, -10.775754 ], [ 40.49561, -10.774908 ], [ 40.52772, -10.790651 ], [ 40.572419, -10.819101 ], [ 40.609845, -10.826789 ], [ 40.615518, -10.831114 ], [ 40.609343, -10.838997 ], [ 40.606722, -10.848282 ], [ 40.590457, -10.864647 ], [ 40.550927, -10.884107 ], [ 40.513143, -10.914824 ], [ 40.495189, -10.943106 ], [ 40.494095, -10.947767 ], [ 40.49157, -10.958529 ], [ 40.493647, -10.973939 ], [ 40.483383, -10.985166 ], [ 40.481318, -10.994829 ], [ 40.483363, -10.999997 ], [ 40.498947, -11.000743 ], [ 40.503973, -11.011846 ], [ 40.514604, -11.016204 ], [ 40.528064, -11.017543 ], [ 40.56151, -11.034143 ], [ 40.557772, -11.063176 ], [ 40.548994, -11.078468 ], [ 40.491158, -11.150144 ], [ 40.492339, -11.178671 ], [ 40.505342, -11.19686 ], [ 40.450724, -11.228668 ], [ 40.433645, -11.234969 ], [ 40.426096, -11.252614 ], [ 40.421561, -11.276801 ], [ 40.404808, -11.303868 ], [ 40.382553, -11.326727 ], [ 40.37788, -11.327252 ], [ 40.371666, -11.322351 ], [ 40.361894, -11.332147 ], [ 40.369874, -11.353153 ], [ 40.37611, -11.355856 ], [ 40.385337, -11.352878 ], [ 40.391811, -11.354944 ], [ 40.40926, -11.370939 ], [ 40.420335, -11.390647 ], [ 40.444584, -11.404444 ], [ 40.465035, -11.40239 ], [ 40.473294, -11.40888 ], [ 40.466044, -11.434487 ], [ 40.457155, -11.447416 ], [ 40.458263, -11.466575 ], [ 40.455287, -11.485048 ], [ 40.439727, -11.504511 ], [ 40.448908, -11.52826 ], [ 40.428014, -11.543028 ], [ 40.419844, -11.554882 ], [ 40.427236, -11.584408 ], [ 40.454109, -11.60127 ], [ 40.459638, -11.61186 ], [ 40.455937, -11.623852 ], [ 40.435105, -11.636172 ], [ 40.430388, -11.643254 ], [ 40.443118, -11.65605 ], [ 40.441164, -11.680672 ], [ 40.436539, -11.695719 ], [ 40.436218, -11.725581 ], [ 40.440148, -11.735896 ], [ 40.446533, -11.741924 ], [ 40.451428, -11.743403 ], [ 40.463926, -11.749032 ], [ 40.461356, -11.807321 ], [ 40.467281, -11.823759 ], [ 40.484178, -11.840957 ], [ 40.51098, -11.853538 ], [ 40.487445, -11.883124 ], [ 40.482641, -11.903618 ], [ 40.485593, -11.92914 ], [ 40.502106, -11.968654 ], [ 40.537276, -11.99922 ], [ 40.512265, -12.024202 ], [ 40.502472, -12.040887 ], [ 40.500803, -12.058236 ], [ 40.511037, -12.087883 ], [ 40.49155, -12.132454 ], [ 40.489105, -12.145022 ], [ 40.497353, -12.171788 ], [ 40.513367, -12.202908 ], [ 40.50467, -12.215364 ], [ 40.507385, -12.232097 ], [ 40.490697, -12.271301 ], [ 40.499215, -12.286188 ], [ 40.50513, -12.310641 ], [ 40.51189, -12.325394 ], [ 40.498746, -12.368694 ], [ 40.503101, -12.380561 ], [ 40.517956, -12.386714 ], [ 40.522118, -12.400214 ], [ 40.530709, -12.408108 ], [ 40.500999, -12.441769 ], [ 40.491735, -12.471345 ], [ 40.476436, -12.503955 ], [ 40.50299, -12.531312 ], [ 40.543439, -12.528762 ], [ 40.560725, -12.530089 ], [ 40.566009, -12.533031 ], [ 40.564213, -12.54803 ], [ 40.552374, -12.559596 ], [ 40.55122, -12.585567 ], [ 40.560143, -12.597802 ], [ 40.575083, -12.632666 ], [ 40.587371, -12.640555 ], [ 40.608507, -12.640487 ], [ 40.614177, -12.646154 ], [ 40.616676, -12.655582 ], [ 40.611395, -12.666033 ], [ 40.583092, -12.651417 ], [ 40.576441, -12.651741 ], [ 40.569364, -12.660636 ], [ 40.568227, -12.684357 ], [ 40.578525, -12.71204 ], [ 40.585602, -12.713354 ], [ 40.598398, -12.708377 ], [ 40.611507, -12.72045 ], [ 40.613503, -12.729893 ], [ 40.607108, -12.741474 ], [ 40.606361, -12.753266 ], [ 40.61738, -12.754096 ], [ 40.624013, -12.751434 ], [ 40.62855, -12.754807 ], [ 40.624934, -12.775345 ], [ 40.608897, -12.801834 ], [ 40.58524, -12.81238 ], [ 40.571716, -12.804843 ], [ 40.562591, -12.806177 ], [ 40.561693, -12.824718 ], [ 40.552544, -12.833486 ], [ 40.542761, -12.836225 ], [ 40.545301, -12.846329 ], [ 40.543141, -12.856522 ], [ 40.531998, -12.877805 ], [ 40.527404, -12.896457 ], [ 40.51052, -12.926099 ], [ 40.506075, -12.926176 ], [ 40.5028, -12.921753 ], [ 40.50297, -12.895632 ], [ 40.49979, -12.888418 ], [ 40.48109, -12.881261 ], [ 40.466852, -12.881917 ], [ 40.455207, -12.886353 ], [ 40.441664, -12.8969 ], [ 40.428287, -12.915989 ], [ 40.414885, -12.921223 ], [ 40.404344, -12.949459 ], [ 40.409402, -12.969505 ], [ 40.431184, -12.993365 ], [ 40.439248, -13.012148 ], [ 40.440073, -13.02357 ], [ 40.443571, -13.027921 ], [ 40.457398, -13.025723 ], [ 40.466747, -13.028986 ], [ 40.486402, -13.029383 ], [ 40.497189, -13.033738 ], [ 40.506278, -13.029378 ], [ 40.512434, -13.007031 ], [ 40.512005, -12.984985 ], [ 40.505551, -12.976157 ], [ 40.484294, -12.963607 ], [ 40.498769, -12.952416 ], [ 40.509156, -12.953022 ], [ 40.540397, -12.969919 ], [ 40.5737, -12.962293 ], [ 40.581844, -12.965487 ], [ 40.585831, -12.972914 ], [ 40.584229, -12.993123 ], [ 40.556399, -13.057004 ], [ 40.550834, -13.099189 ], [ 40.560338, -13.149602 ], [ 40.556693, -13.218293 ], [ 40.562614, -13.26983 ], [ 40.560759, -13.290619 ], [ 40.56546, -13.314606 ], [ 40.579315, -13.33691 ], [ 40.582963, -13.365128 ], [ 40.575276, -13.399127 ], [ 40.555078, -13.415152 ], [ 40.541511, -13.437721 ], [ 40.525242, -13.509223 ], [ 40.53259, -13.529379 ], [ 40.560476, -13.563416 ], [ 40.571202, -13.568402 ], [ 40.582429, -13.568957 ], [ 40.589442, -13.564231 ], [ 40.592644, -13.553786 ], [ 40.596441, -13.553424 ], [ 40.599132, -13.557453 ], [ 40.599095, -13.566527 ], [ 40.590702, -13.581804 ], [ 40.564609, -13.594292 ], [ 40.545459, -13.61423 ], [ 40.536533, -13.644115 ], [ 40.543833, -13.688779 ], [ 40.564468, -13.70619 ], [ 40.572451, -13.716862 ], [ 40.57343, -13.766178 ], [ 40.583476, -13.802635 ], [ 40.588965, -13.859953 ], [ 40.588472, -13.886627 ], [ 40.59391, -13.900069 ], [ 40.614967, -13.928871 ], [ 40.61761, -13.963552 ], [ 40.621401, -13.977535 ], [ 40.619185, -13.982746 ], [ 40.601591, -13.983048 ], [ 40.593705, -13.978035 ], [ 40.586286, -13.977884 ], [ 40.57754, -13.985297 ], [ 40.576395, -13.99479 ], [ 40.580847, -14.001316 ], [ 40.593513, -14.007447 ], [ 40.604653, -14.006904 ], [ 40.61239, -13.999838 ], [ 40.620304, -14.000683 ], [ 40.636403, -14.02439 ], [ 40.632586, -14.036452 ], [ 40.630831, -14.063666 ], [ 40.624604, -14.078632 ], [ 40.611543, -14.088548 ], [ 40.592583, -14.090825 ], [ 40.588254, -14.094729 ], [ 40.589765, -14.099508 ], [ 40.59903, -14.10257 ], [ 40.605243, -14.109222 ], [ 40.609757, -14.123224 ], [ 40.605887, -14.131123 ], [ 40.606376, -14.142465 ], [ 40.58345, -14.153 ], [ 40.538967, -14.157821 ], [ 40.528752, -14.166317 ], [ 40.527504, -14.177006 ], [ 40.536715, -14.19829 ], [ 40.554247, -14.217021 ], [ 40.550456, -14.231659 ], [ 40.558414, -14.234308 ], [ 40.56105, -14.22689 ], [ 40.570145, -14.230926 ], [ 40.569457, -14.216826 ], [ 40.578454, -14.214392 ], [ 40.58351, -14.209209 ], [ 40.591694, -14.217833 ], [ 40.592728, -14.227084 ], [ 40.58834, -14.237371 ], [ 40.598592, -14.252312 ], [ 40.59481, -14.265104 ], [ 40.599228, -14.274073 ], [ 40.615405, -14.262964 ], [ 40.617288, -14.254016 ], [ 40.614642, -14.239986 ], [ 40.622663, -14.218598 ], [ 40.636732, -14.21571 ], [ 40.652969, -14.19928 ], [ 40.664707, -14.195518 ], [ 40.682729, -14.200737 ], [ 40.692847, -14.189331 ], [ 40.699244, -14.18875 ], [ 40.716096, -14.207015 ], [ 40.713541, -14.229273 ], [ 40.715299, -14.254039 ], [ 40.720753, -14.261501 ], [ 40.734176, -14.271109 ], [ 40.737385, -14.2771 ], [ 40.729761, -14.333715 ], [ 40.71995, -14.343731 ], [ 40.704603, -14.351223 ], [ 40.692736, -14.366427 ], [ 40.675908, -14.380923 ], [ 40.66405, -14.373163 ], [ 40.638641, -14.332575 ], [ 40.629796, -14.328381 ], [ 40.624837, -14.330587 ], [ 40.632475, -14.340987 ], [ 40.639814, -14.37913 ], [ 40.646228, -14.388994 ], [ 40.639137, -14.412598 ], [ 40.643363, -14.438866 ], [ 40.650228, -14.452975 ], [ 40.662642, -14.466934 ], [ 40.656754, -14.46832 ], [ 40.633269, -14.46209 ], [ 40.624901, -14.468214 ], [ 40.62563, -14.477109 ], [ 40.633208, -14.487997 ], [ 40.639765, -14.489881 ], [ 40.651653, -14.486545 ], [ 40.634121, -14.499394 ], [ 40.624985, -14.516705 ], [ 40.641009, -14.527472 ], [ 40.627639, -14.554773 ], [ 40.627815, -14.591092 ], [ 40.632456, -14.590497 ], [ 40.641512, -14.577912 ], [ 40.658059, -14.570062 ], [ 40.669059, -14.55806 ], [ 40.668037, -14.542365 ], [ 40.674779, -14.52992 ], [ 40.674228, -14.504492 ], [ 40.681544, -14.481898 ], [ 40.680531, -14.459071 ], [ 40.707497, -14.443894 ], [ 40.733681, -14.438402 ], [ 40.758826, -14.421926 ], [ 40.805591, -14.413026 ], [ 40.82163, -14.444201 ], [ 40.826128, -14.461624 ], [ 40.8289, -14.49514 ], [ 40.823426, -14.516033 ], [ 40.810877, -14.520743 ], [ 40.797854, -14.521257 ], [ 40.787101, -14.5262 ], [ 40.769477, -14.540037 ], [ 40.762703, -14.553841 ], [ 40.769881, -14.560802 ], [ 40.786024, -14.55865 ], [ 40.791301, -14.542167 ], [ 40.804912, -14.528719 ], [ 40.817589, -14.529884 ], [ 40.824232, -14.536689 ], [ 40.827985, -14.559507 ], [ 40.821674, -14.591929 ], [ 40.814419, -14.607123 ], [ 40.802603, -14.620045 ], [ 40.800561, -14.627692 ], [ 40.811499, -14.651234 ], [ 40.829296, -14.663318 ], [ 40.835528, -14.681335 ], [ 40.83577, -14.766952 ], [ 40.824135, -14.78026 ], [ 40.818647, -14.800267 ], [ 40.823852, -14.809876 ], [ 40.832283, -14.809106 ], [ 40.831195, -14.82398 ], [ 40.815572, -14.830637 ], [ 40.804125, -14.844315 ], [ 40.773295, -14.852038 ], [ 40.764881, -14.864551 ], [ 40.75489, -14.871716 ], [ 40.729226, -14.87948 ], [ 40.688737, -14.899519 ], [ 40.665275, -14.903747 ], [ 40.649849, -14.911538 ], [ 40.65511, -14.921243 ], [ 40.674722, -14.93205 ], [ 40.693973, -14.92932 ], [ 40.734691, -14.935763 ], [ 40.746948, -14.967965 ], [ 40.771694, -14.996471 ], [ 40.769145, -15.00528 ], [ 40.766445, -15.006712 ], [ 40.754694, -14.999124 ], [ 40.75173, -14.989145 ], [ 40.746873, -14.984674 ], [ 40.7358, -14.985766 ], [ 40.71986, -14.991917 ], [ 40.685923, -14.988918 ], [ 40.661098, -14.969791 ], [ 40.645655, -14.970392 ], [ 40.645852, -14.978767 ], [ 40.641331, -14.989769 ], [ 40.647587, -14.994334 ], [ 40.657431, -14.995345 ], [ 40.675084, -15.023987 ], [ 40.692782, -15.035048 ], [ 40.695071, -15.053091 ], [ 40.706531, -15.074608 ], [ 40.70591, -15.081569 ], [ 40.697599, -15.086581 ], [ 40.675988, -15.091106 ], [ 40.644686, -15.086657 ], [ 40.630702, -15.089151 ], [ 40.605093, -15.108068 ], [ 40.581465, -15.138646 ], [ 40.555745, -15.125522 ], [ 40.531425, -15.12799 ], [ 40.524047, -15.134204 ], [ 40.522371, -15.148951 ], [ 40.517278, -15.162455 ], [ 40.517357, -15.181326 ], [ 40.526856, -15.192187 ], [ 40.555747, -15.2011 ], [ 40.563994, -15.201043 ], [ 40.581637, -15.188184 ], [ 40.592721, -15.183464 ], [ 40.594853, -15.176584 ], [ 40.592865, -15.163143 ], [ 40.612062, -15.149503 ], [ 40.620252, -15.149877 ], [ 40.63568, -15.169569 ], [ 40.656246, -15.187627 ], [ 40.667801, -15.233043 ], [ 40.677518, -15.253969 ], [ 40.667595, -15.279063 ], [ 40.636791, -15.326449 ], [ 40.631998, -15.350013 ], [ 40.606267, -15.377292 ], [ 40.588955, -15.401498 ], [ 40.575656, -15.437964 ], [ 40.571507, -15.470007 ], [ 40.562367, -15.498553 ], [ 40.50968, -15.555968 ], [ 40.478746, -15.576716 ], [ 40.429889, -15.61659 ], [ 40.418194, -15.637944 ], [ 40.398257, -15.665309 ], [ 40.371224, -15.7161 ], [ 40.351369, -15.743514 ], [ 40.323164, -15.769292 ], [ 40.301368, -15.793801 ], [ 40.26637, -15.823556 ], [ 40.239227, -15.852746 ], [ 40.189645, -15.897879 ], [ 40.162523, -15.931565 ], [ 40.138671, -15.968104 ], [ 40.133482, -16.002709 ], [ 40.108595, -16.043297 ], [ 40.101957, -16.063593 ], [ 40.099968, -16.079984 ], [ 40.075939, -16.109294 ], [ 40.050152, -16.132379 ], [ 40.025426, -16.189569 ], [ 40.001791, -16.206104 ], [ 39.977666, -16.230855 ], [ 39.964366, -16.239538 ], [ 39.909174, -16.243911 ], [ 39.903143, -16.2389 ], [ 39.89707, -16.224717 ], [ 39.891232, -16.222073 ], [ 39.887003, -16.226085 ], [ 39.881729, -16.243157 ], [ 39.866419, -16.243881 ], [ 39.852864, -16.262848 ], [ 39.811158, -16.278711 ], [ 39.812366, -16.288682 ], [ 39.824661, -16.29457 ], [ 39.904734, -16.272181 ], [ 39.922234, -16.286536 ], [ 39.932429, -16.301233 ], [ 39.946343, -16.308017 ], [ 39.943574, -16.319511 ], [ 39.908253, -16.368643 ], [ 39.905661, -16.384979 ], [ 39.911111, -16.401059 ], [ 39.904601, -16.412175 ], [ 39.869113, -16.431227 ], [ 39.853462, -16.443577 ], [ 39.807699, -16.463514 ], [ 39.782997, -16.489076 ], [ 39.7266, -16.518193 ], [ 39.673484, -16.555515 ], [ 39.635704, -16.572851 ], [ 39.611235, -16.593841 ], [ 39.552117, -16.62025 ], [ 39.531082, -16.64694 ], [ 39.481042, -16.678402 ], [ 39.341174, -16.743888 ], [ 39.298596, -16.773584 ], [ 39.276245, -16.783146 ], [ 39.25842, -16.797524 ], [ 39.202362, -16.832765 ], [ 39.177156, -16.852117 ], [ 39.149075, -16.884902 ], [ 39.137061, -16.911425 ], [ 39.126141, -16.923378 ], [ 39.121273, -16.943211 ], [ 39.071317, -17.01147 ], [ 39.06086, -17.012993 ], [ 39.017916, -17.009486 ], [ 38.982759, -17.012489 ], [ 38.951628, -17.020816 ], [ 38.883507, -17.047557 ], [ 38.791517, -17.068715 ], [ 38.735691, -17.075583 ], [ 38.713752, -17.081196 ], [ 38.689897, -17.081592 ], [ 38.670745, -17.090813 ], [ 38.608416, -17.107272 ], [ 38.570055, -17.121905 ], [ 38.531096, -17.133207 ], [ 38.507987, -17.135873 ], [ 38.494302, -17.143819 ], [ 38.439854, -17.159517 ], [ 38.318039, -17.208948 ], [ 38.248836, -17.233032 ], [ 38.199008, -17.257991 ], [ 38.188059, -17.267638 ], [ 38.181242, -17.281234 ], [ 38.154257, -17.295925 ], [ 38.14271, -17.296629 ], [ 38.132487, -17.289733 ], [ 38.116909, -17.293074 ], [ 38.09054, -17.309728 ], [ 38.08227, -17.320455 ], [ 38.068218, -17.321798 ], [ 38.056464, -17.322489 ], [ 38.04107, -17.329951 ], [ 38.00423, -17.339932 ], [ 37.844266, -17.407353 ], [ 37.760196, -17.450008 ], [ 37.715508, -17.476847 ], [ 37.68598, -17.487787 ], [ 37.675736, -17.49785 ], [ 37.639034, -17.51713 ], [ 37.61157, -17.535414 ], [ 37.584072, -17.541796 ], [ 37.569118, -17.553864 ], [ 37.480315, -17.597709 ], [ 37.44798, -17.617277 ], [ 37.428295, -17.621086 ], [ 37.417257, -17.631256 ], [ 37.358842, -17.666008 ], [ 37.34521, -17.671814 ], [ 37.331318, -17.673956 ], [ 37.32668, -17.683722 ], [ 37.320177, -17.688531 ], [ 37.298728, -17.690822 ], [ 37.29104, -17.703181 ], [ 37.251098, -17.731309 ], [ 37.220339, -17.758408 ], [ 37.197806, -17.766901 ], [ 37.183459, -17.785034 ], [ 37.143692, -17.818801 ], [ 37.110312, -17.854618 ], [ 37.003799, -17.992982 ], [ 36.974509, -18.02303 ], [ 36.966797, -18.036366 ], [ 36.969323, -18.05242 ], [ 36.965303, -18.064209 ], [ 36.909491, -18.122044 ], [ 36.892032, -18.144349 ], [ 36.889122, -18.148066 ], [ 36.880791, -18.16375 ], [ 36.878025, -18.181196 ], [ 36.84663, -18.187016 ], [ 36.830239, -18.215278 ], [ 36.81581, -18.233422 ], [ 36.765148, -18.285197 ], [ 36.741859, -18.308992 ], [ 36.702217, -18.349295 ], [ 36.638268, -18.406711 ], [ 36.623805, -18.41673 ], [ 36.554192, -18.490092 ], [ 36.538313, -18.496969 ], [ 36.530824, -18.519252 ], [ 36.50887, -18.536381 ], [ 36.498194, -18.566133 ], [ 36.468436, -18.566105 ], [ 36.466233, -18.577109 ], [ 36.480575, -18.591046 ], [ 36.481174, -18.598943 ], [ 36.470965, -18.609857 ], [ 36.440208, -18.628203 ], [ 36.414815, -18.67806 ], [ 36.379015, -18.696555 ], [ 36.36504, -18.729684 ], [ 36.349932, -18.752864 ], [ 36.353556, -18.752916 ], [ 36.367504, -18.739788 ], [ 36.383581, -18.730953 ], [ 36.383746, -18.784712 ], [ 36.359037, -18.817325 ], [ 36.319927, -18.854825 ], [ 36.272021, -18.884615 ], [ 36.169628, -18.899427 ], [ 36.136758, -18.900754 ], [ 36.123038, -18.904626 ], [ 36.102544, -18.916051 ], [ 36.042249, -18.925229 ], [ 36.00173, -18.935346 ], [ 35.966761, -18.939342 ], [ 35.945309, -18.956278 ], [ 35.906468, -18.969364 ], [ 35.883746, -18.985009 ], [ 35.793617, -19.03556 ], [ 35.75066, -19.068128 ], [ 35.688691, -19.137915 ], [ 35.631234, -19.19243 ], [ 35.592044, -19.241708 ], [ 35.524775, -19.309244 ], [ 35.453038, -19.39903 ], [ 35.391462, -19.467517 ], [ 35.267032, -19.580082 ], [ 35.207199, -19.627001 ], [ 35.163072, -19.665052 ], [ 35.13459, -19.68917 ], [ 35.090556, -19.717439 ], [ 35.058705, -19.734206 ], [ 34.977743, -19.800285 ], [ 34.941534, -19.811541 ], [ 34.892871, -19.84619 ], [ 34.872095, -19.851107 ], [ 34.827223, -19.850439 ], [ 34.772891, -19.858973 ], [ 34.751387, -19.870283 ], [ 34.750925, -19.87255 ], [ 34.755025, -19.870973 ], [ 34.759274, -19.87315 ], [ 34.758708, -19.879571 ], [ 34.74555, -19.877943 ], [ 34.745829, -19.885733 ], [ 34.757639, -19.901763 ], [ 34.762131, -19.927271 ], [ 34.751311, -20.020108 ], [ 34.754571, -20.05483 ], [ 34.77212, -20.108543 ], [ 34.777733, -20.144591 ], [ 34.773829, -20.154475 ], [ 34.760688, -20.167017 ], [ 34.731933, -20.159143 ], [ 34.717733, -20.160382 ], [ 34.708997, -20.167383 ], [ 34.710761, -20.197301 ], [ 34.720868, -20.2082 ], [ 34.734371, -20.217239 ], [ 34.737867, -20.231064 ], [ 34.71288, -20.296 ], [ 34.693496, -20.328123 ], [ 34.700247, -20.373265 ], [ 34.669087, -20.398128 ], [ 34.662971, -20.407271 ], [ 34.671893, -20.424691 ], [ 34.675828, -20.439558 ], [ 34.681622, -20.44105 ], [ 34.700279, -20.437678 ], [ 34.708697, -20.446096 ], [ 34.71296, -20.457094 ], [ 34.711604, -20.481547 ], [ 34.692583, -20.507027 ], [ 34.691557, -20.515991 ], [ 34.703511, -20.520266 ], [ 34.743146, -20.520335 ], [ 34.755865, -20.544364 ], [ 34.771551, -20.554484 ], [ 34.791452, -20.576835 ], [ 34.809745, -20.589405 ], [ 34.831038, -20.617112 ], [ 34.850857, -20.633253 ], [ 34.883606, -20.640429 ], [ 34.888477, -20.635367 ], [ 34.890665, -20.62523 ], [ 34.895948, -20.62309 ], [ 34.923142, -20.629506 ], [ 34.9397, -20.642235 ], [ 34.954719, -20.662357 ], [ 34.954495, -20.678378 ], [ 34.95803, -20.692313 ], [ 34.979751, -20.708881 ], [ 34.995251, -20.714425 ], [ 35.000989, -20.721344 ], [ 35.020023, -20.78691 ], [ 35.017397, -20.79529 ], [ 35.007722, -20.805685 ], [ 35.006994, -20.812641 ], [ 35.033759, -20.838249 ], [ 35.053841, -20.876388 ], [ 35.058578, -20.90153 ], [ 35.072168, -20.909823 ], [ 35.105313, -20.90906 ], [ 35.123884, -20.931949 ], [ 35.124059, -20.941689 ], [ 35.11677, -20.954115 ], [ 35.121683, -20.962404 ], [ 35.122132, -20.968924 ], [ 35.104425, -21.02346 ], [ 35.099823, -21.026999 ], [ 35.089156, -21.020382 ], [ 35.08222, -21.026043 ], [ 35.082979, -21.041512 ], [ 35.088723, -21.059645 ], [ 35.084995, -21.079226 ], [ 35.078311, -21.083061 ], [ 35.033824, -21.087592 ], [ 35.026571, -21.094592 ], [ 35.024812, -21.104891 ], [ 35.029153, -21.115128 ], [ 35.037936, -21.123434 ], [ 35.059666, -21.132826 ], [ 35.062457, -21.14347 ], [ 35.059008, -21.158033 ], [ 35.060796, -21.16777 ], [ 35.082925, -21.203897 ], [ 35.095844, -21.208126 ], [ 35.10007, -21.21318 ], [ 35.10021, -21.225817 ], [ 35.094591, -21.236039 ], [ 35.076477, -21.240321 ], [ 35.059832, -21.249022 ], [ 35.076394, -21.261822 ], [ 35.076006, -21.283904 ], [ 35.080586, -21.303974 ], [ 35.089847, -21.302087 ], [ 35.10631, -21.282356 ], [ 35.110138, -21.281713 ], [ 35.113763, -21.338198 ], [ 35.120919, -21.369839 ], [ 35.13409, -21.408058 ], [ 35.163072, -21.463926 ], [ 35.206861, -21.536895 ], [ 35.251083, -21.589524 ], [ 35.269583, -21.63831 ], [ 35.272591, -21.667641 ], [ 35.27067, -21.702615 ], [ 35.281347, -21.733193 ], [ 35.279747, -21.768711 ], [ 35.284001, -21.80575 ], [ 35.299733, -21.85181 ], [ 35.307359, -21.886651 ], [ 35.31853, -21.914743 ], [ 35.315063, -21.967866 ], [ 35.322421, -21.992399 ], [ 35.322603, -22.026245 ], [ 35.332648, -22.094988 ], [ 35.334884, -22.140973 ], [ 35.349559, -22.188362 ], [ 35.358892, -22.203811 ], [ 35.372191, -22.215422 ], [ 35.401451, -22.205867 ], [ 35.412604, -22.19443 ], [ 35.42073, -22.173123 ], [ 35.443603, -22.150602 ], [ 35.449019, -22.120878 ], [ 35.46119, -22.10514 ], [ 35.469844, -22.100793 ], [ 35.480053, -22.102982 ], [ 35.487903, -22.11179 ], [ 35.494461, -22.138785 ], [ 35.523144, -22.212642 ], [ 35.536049, -22.171102 ], [ 35.539731, -22.169396 ], [ 35.53051, -22.246733 ], [ 35.542896, -22.329577 ], [ 35.537714, -22.435225 ], [ 35.527941, -22.490937 ], [ 35.506616, -22.566398 ], [ 35.503589, -22.592221 ], [ 35.514807, -22.685504 ], [ 35.513487, -22.76889 ], [ 35.521228, -22.83862 ], [ 35.532339, -22.864189 ], [ 35.535069, -22.879916 ], [ 35.547208, -22.911041 ], [ 35.560666, -22.924961 ], [ 35.567367, -22.928259 ], [ 35.571343, -22.926043 ], [ 35.568168, -22.913449 ], [ 35.591104, -22.921593 ], [ 35.597155, -22.926672 ], [ 35.600298, -22.937162 ], [ 35.587746, -22.975512 ], [ 35.513224, -23.096257 ], [ 35.49085, -23.163079 ], [ 35.489154, -23.213095 ], [ 35.494274, -23.247408 ], [ 35.491865, -23.304012 ], [ 35.484892, -23.335241 ], [ 35.455925, -23.406285 ], [ 35.442842, -23.454252 ], [ 35.428363, -23.49438 ], [ 35.421798, -23.597387 ], [ 35.430218, -23.633843 ], [ 35.431056, -23.649148 ], [ 35.405365, -23.72892 ], [ 35.401322, -23.731003 ], [ 35.398045, -23.7281 ], [ 35.395355, -23.694328 ], [ 35.386386, -23.676231 ], [ 35.37443, -23.673457 ], [ 35.362046, -23.674747 ], [ 35.345478, -23.688928 ], [ 35.349833, -23.692982 ], [ 35.366065, -23.693438 ], [ 35.373345, -23.707197 ], [ 35.364235, -23.746264 ], [ 35.361489, -23.778478 ], [ 35.351953, -23.809573 ], [ 35.348812, -23.860403 ], [ 35.340064, -23.885366 ], [ 35.341497, -23.914787 ], [ 35.327616, -23.955474 ], [ 35.336969, -23.99012 ], [ 35.349066, -23.982261 ], [ 35.356367, -23.964458 ], [ 35.389977, -23.916652 ], [ 35.39088, -23.90149 ], [ 35.382242, -23.873142 ], [ 35.389517, -23.860429 ], [ 35.38832, -23.847584 ], [ 35.392342, -23.839618 ], [ 35.404051, -23.840176 ], [ 35.430745, -23.857325 ], [ 35.439101, -23.851175 ], [ 35.454573, -23.873541 ], [ 35.460819, -23.877561 ], [ 35.466886, -23.877614 ], [ 35.472422, -23.870918 ], [ 35.474383, -23.85548 ], [ 35.485444, -23.847486 ], [ 35.489653, -23.841029 ], [ 35.487784, -23.813865 ], [ 35.492319, -23.787662 ], [ 35.53342, -23.799391 ], [ 35.538743, -23.833261 ], [ 35.549444, -23.856407 ], [ 35.550927, -23.868217 ], [ 35.532478, -23.907377 ], [ 35.524793, -23.93438 ], [ 35.502038, -23.991431 ], [ 35.495337, -24.056632 ], [ 35.498313, -24.079945 ], [ 35.497323, -24.106142 ], [ 35.474302, -24.156512 ], [ 35.434756, -24.206446 ], [ 35.422395, -24.231279 ], [ 35.406574, -24.25445 ], [ 35.323572, -24.353964 ], [ 35.26909, -24.419194 ], [ 35.221831, -24.468453 ], [ 35.204937, -24.494777 ], [ 35.194218, -24.529179 ], [ 35.166137, -24.556722 ], [ 35.14286, -24.584361 ], [ 35.079165, -24.625941 ], [ 34.997203, -24.668905 ], [ 34.924585, -24.699432 ], [ 34.783601, -24.758677 ], [ 34.559714, -24.831299 ], [ 34.505048, -24.854755 ], [ 34.43263, -24.875816 ], [ 34.335942, -24.916503 ], [ 34.286031, -24.931836 ], [ 34.230936, -24.94463 ], [ 34.103195, -24.994162 ], [ 34.02764, -25.018655 ], [ 33.992979, -25.033452 ], [ 33.861942, -25.071885 ], [ 33.717795, -25.123748 ], [ 33.609751, -25.172986 ], [ 33.518023, -25.20317 ], [ 33.481689, -25.222038 ], [ 33.444699, -25.2346 ], [ 33.316201, -25.28911 ], [ 33.248121, -25.324344 ], [ 33.203342, -25.343829 ], [ 33.064242, -25.420409 ], [ 32.939055, -25.497473 ], [ 32.898356, -25.526815 ], [ 32.839159, -25.57805 ], [ 32.806181, -25.618507 ], [ 32.779845, -25.662739 ], [ 32.744626, -25.746487 ], [ 32.734384, -25.802885 ], [ 32.73935, -25.843492 ], [ 32.746096, -25.869142 ], [ 32.703412, -25.875876 ], [ 32.67438, -25.888505 ], [ 32.610264, -25.955338 ], [ 32.596194, -25.974436 ], [ 32.591325, -25.981205 ], [ 32.574315, -25.978101 ], [ 32.558802, -25.970027 ], [ 32.545355, -25.960209 ], [ 32.534289, -25.946295 ], [ 32.524636, -25.942467 ], [ 32.510423, -25.947168 ], [ 32.501298, -25.959372 ], [ 32.486148, -25.965931 ], [ 32.474044, -25.986809 ], [ 32.478812, -25.993244 ], [ 32.489528, -25.992588 ], [ 32.494902, -25.976143 ], [ 32.506722, -25.969399 ], [ 32.556516, -25.978899 ], [ 32.570129, -26.012475 ], [ 32.581749, -26.022407 ], [ 32.596194, -26.028255 ], [ 32.603857, -26.031358 ], [ 32.626887, -26.069014 ], [ 32.661447, -26.116069 ], [ 32.666821, -26.148321 ], [ 32.6817, -26.18954 ], [ 32.690864, -26.191995 ], [ 32.707686, -26.186783 ], [ 32.723942, -26.186922 ], [ 32.773466, -26.229766 ], [ 32.794349, -26.244048 ], [ 32.811186, -26.274668 ], [ 32.834596, -26.286271 ], [ 32.871561, -26.274375 ], [ 32.867408, -26.257503 ], [ 32.868787, -26.203841 ], [ 32.89416, -26.138952 ], [ 32.907947, -26.113313 ], [ 32.945537, -26.094011 ], [ 32.953867, -26.08596 ], [ 32.958673, -26.087257 ], [ 32.958703, -26.11439 ], [ 32.949327, -26.151597 ], [ 32.947233, -26.190775 ], [ 32.938596, -26.243931 ], [ 32.940655, -26.264695 ], [ 32.931011, -26.314281 ], [ 32.929595, -26.338931 ], [ 32.932306, -26.36019 ], [ 32.922714, -26.401649 ], [ 32.921422, -26.435393 ], [ 32.92763, -26.457572 ], [ 32.916042, -26.499674 ], [ 32.917557, -26.524199 ], [ 32.909967, -26.551733 ], [ 32.894171, -26.656205 ], [ 32.903848, -26.713237 ], [ 32.901225, -26.744691 ], [ 32.891815, -26.781144 ], [ 32.891919, -26.799813 ], [ 32.887238, -26.827811 ], [ 32.888949, -26.838842 ], [ 32.894132, -26.847517 ], [ 32.891523, -26.858332 ] ], [ [ 34.676847, -12.088511 ], [ 34.679069, -12.096805 ], [ 34.6834, -12.105076 ], [ 34.695152, -12.117807 ], [ 34.714288, -12.129036 ], [ 34.72768, -12.133255 ], [ 34.768797, -12.094168 ], [ 34.780271, -12.085103 ], [ 34.782423, -12.074505 ], [ 34.787375, -12.068351 ], [ 34.791173, -12.06065 ], [ 34.793586, -12.049275 ], [ 34.791911, -12.03655 ], [ 34.785493, -12.025435 ], [ 34.763922, -12.009594 ], [ 34.739933, -11.99948 ], [ 34.73142, -11.998359 ], [ 34.722973, -11.99936 ], [ 34.714841, -12.00212 ], [ 34.707702, -12.006891 ], [ 34.700525, -12.014735 ], [ 34.696232, -12.022171 ], [ 34.694009, -12.030466 ], [ 34.693835, -12.037415 ], [ 34.688807, -12.05574 ], [ 34.680972, -12.067771 ], [ 34.677686, -12.075704 ], [ 34.676847, -12.088511 ] ], [ [ 34.574038, -12.01719 ], [ 34.576472, -12.027626 ], [ 34.582515, -12.03779 ], [ 34.580381, -12.045869 ], [ 34.580381, -12.054456 ], [ 34.585643, -12.068438 ], [ 34.591305, -12.074894 ], [ 34.600722, -12.080891 ], [ 34.608853, -12.083651 ], [ 34.6174, -12.084158 ], [ 34.619787, -12.0843 ], [ 34.630223, -12.081867 ], [ 34.63766, -12.077573 ], [ 34.652956, -12.060379 ], [ 34.661759, -12.041683 ], [ 34.663247, -12.019894 ], [ 34.658086, -12.001015 ], [ 34.653315, -11.993875 ], [ 34.645414, -11.986046 ], [ 34.634292, -11.979626 ], [ 34.6174, -11.975836 ], [ 34.611942, -11.974612 ], [ 34.597076, -11.977641 ], [ 34.584934, -11.986342 ], [ 34.575889, -12.002363 ], [ 34.574038, -12.01719 ] ] ], [ [ [ 35.425135, -21.726879 ], [ 35.427542, -21.723592 ], [ 35.431368, -21.722807 ], [ 35.438948, -21.716491 ], [ 35.44321, -21.711515 ], [ 35.446374, -21.706263 ], [ 35.447261, -21.699857 ], [ 35.444391, -21.69185 ], [ 35.442467, -21.68374 ], [ 35.443086, -21.681605 ], [ 35.439077, -21.672447 ], [ 35.434706, -21.664963 ], [ 35.434733, -21.662125 ], [ 35.431939, -21.657979 ], [ 35.435631, -21.65491 ], [ 35.451562, -21.643826 ], [ 35.455697, -21.638741 ], [ 35.458805, -21.633416 ], [ 35.464405, -21.627678 ], [ 35.463254, -21.625444 ], [ 35.463382, -21.612817 ], [ 35.466675, -21.605342 ], [ 35.466444, -21.589632 ], [ 35.465827, -21.583589 ], [ 35.463478, -21.576481 ], [ 35.463782, -21.573072 ], [ 35.462133, -21.569518 ], [ 35.461507, -21.564467 ], [ 35.463012, -21.561152 ], [ 35.466369, -21.559299 ], [ 35.4719, -21.548805 ], [ 35.472503, -21.53461 ], [ 35.474056, -21.530622 ], [ 35.479087, -21.526722 ], [ 35.479201, -21.520729 ], [ 35.476405, -21.516562 ], [ 35.47962, -21.513885 ], [ 35.483716, -21.516026 ], [ 35.487955, -21.526633 ], [ 35.491721, -21.529755 ], [ 35.493522, -21.533741 ], [ 35.493804, -21.542969 ], [ 35.492859, -21.550417 ], [ 35.49334, -21.55906 ], [ 35.49661, -21.562463 ], [ 35.497275, -21.565028 ], [ 35.495053, -21.574169 ], [ 35.494097, -21.582598 ], [ 35.491311, -21.592138 ], [ 35.491271, -21.600765 ], [ 35.49345, -21.607869 ], [ 35.491136, -21.613369 ], [ 35.490545, -21.618199 ], [ 35.486866, -21.628847 ], [ 35.48756, -21.633834 ], [ 35.490232, -21.638893 ], [ 35.493417, -21.64158 ], [ 35.497251, -21.641048 ], [ 35.496071, -21.64843 ], [ 35.491099, -21.660949 ], [ 35.487522, -21.672208 ], [ 35.483284, -21.690081 ], [ 35.48321, -21.700146 ], [ 35.478431, -21.708674 ], [ 35.472875, -21.719948 ], [ 35.466954, -21.728549 ], [ 35.462608, -21.739146 ], [ 35.460463, -21.746942 ], [ 35.459352, -21.75684 ], [ 35.45911, -21.769451 ], [ 35.461338, -21.775844 ], [ 35.464114, -21.779513 ], [ 35.461992, -21.78548 ], [ 35.457675, -21.789395 ], [ 35.454367, -21.793957 ], [ 35.451442, -21.790511 ], [ 35.45151, -21.787089 ], [ 35.44763, -21.781477 ], [ 35.444807, -21.779593 ], [ 35.443074, -21.774709 ], [ 35.437005, -21.769433 ], [ 35.434045, -21.764149 ], [ 35.437528, -21.760269 ], [ 35.43852, -21.75573 ], [ 35.436839, -21.748942 ], [ 35.434446, -21.745377 ], [ 35.435298, -21.740327 ], [ 35.432383, -21.734645 ], [ 35.425135, -21.726879 ] ] ], [ [ [ 32.896069, -26.051682 ], [ 32.900047, -26.047653 ], [ 32.902344, -26.043365 ], [ 32.902995, -26.038381 ], [ 32.900978, -26.031742 ], [ 32.90269, -26.026869 ], [ 32.909217, -26.018351 ], [ 32.912303, -26.012513 ], [ 32.914338, -26.00335 ], [ 32.916648, -26.001853 ], [ 32.922441, -26.000706 ], [ 32.927851, -25.993996 ], [ 32.934926, -25.990283 ], [ 32.938407, -25.990045 ], [ 32.943005, -25.986218 ], [ 32.944875, -25.988505 ], [ 32.94852, -25.989199 ], [ 32.949834, -25.995523 ], [ 32.953143, -25.993996 ], [ 32.95463, -25.998519 ], [ 32.960399, -25.996531 ], [ 32.961487, -25.99394 ], [ 32.974043, -25.988134 ], [ 32.97717, -25.983564 ], [ 32.976477, -25.977081 ], [ 32.978624, -25.975368 ], [ 32.980887, -25.970268 ], [ 32.987756, -25.972008 ], [ 32.991066, -25.970106 ], [ 32.99271, -25.972247 ], [ 32.993101, -25.977042 ], [ 32.984404, -25.99137 ], [ 32.978372, -26.00248 ], [ 32.974183, -26.012021 ], [ 32.969922, -26.027114 ], [ 32.969762, -26.032247 ], [ 32.964141, -26.053587 ], [ 32.96108, -26.071078 ], [ 32.958336, -26.073077 ], [ 32.955551, -26.077969 ], [ 32.952405, -26.07466 ], [ 32.955588, -26.06929 ], [ 32.955665, -26.065545 ], [ 32.953807, -26.060437 ], [ 32.94813, -26.058137 ], [ 32.944611, -26.053827 ], [ 32.945274, -26.051892 ], [ 32.942153, -26.047877 ], [ 32.943183, -26.045309 ], [ 32.939565, -26.033406 ], [ 32.937321, -26.031179 ], [ 32.921215, -26.027519 ], [ 32.915442, -26.026985 ], [ 32.911957, -26.024324 ], [ 32.909204, -26.028527 ], [ 32.911877, -26.033471 ], [ 32.915078, -26.033629 ], [ 32.917938, -26.031587 ], [ 32.922891, -26.03777 ], [ 32.925898, -26.044471 ], [ 32.925032, -26.048276 ], [ 32.919618, -26.053903 ], [ 32.911219, -26.05917 ], [ 32.908118, -26.06287 ], [ 32.908153, -26.065285 ], [ 32.904878, -26.067347 ], [ 32.904309, -26.061816 ], [ 32.898343, -26.057518 ], [ 32.898372, -26.053305 ], [ 32.896069, -26.051682 ] ] ], [ [ [ 40.55967, -12.196229 ], [ 40.561121, -12.194205 ], [ 40.572146, -12.18951 ], [ 40.577141, -12.183451 ], [ 40.580491, -12.182263 ], [ 40.588968, -12.186611 ], [ 40.595412, -12.185764 ], [ 40.599121, -12.189272 ], [ 40.602791, -12.194852 ], [ 40.607221, -12.198832 ], [ 40.611137, -12.206394 ], [ 40.613001, -12.21758 ], [ 40.612661, -12.226265 ], [ 40.615209, -12.231271 ], [ 40.606528, -12.243514 ], [ 40.601516, -12.247804 ], [ 40.591797, -12.253097 ], [ 40.587359, -12.250269 ], [ 40.586793, -12.247743 ], [ 40.583578, -12.248721 ], [ 40.582549, -12.246316 ], [ 40.585836, -12.243059 ], [ 40.586521, -12.234627 ], [ 40.583785, -12.228509 ], [ 40.584354, -12.225843 ], [ 40.57945, -12.217687 ], [ 40.580695, -12.216377 ], [ 40.573921, -12.210952 ], [ 40.570846, -12.207178 ], [ 40.570941, -12.202878 ], [ 40.563022, -12.199255 ], [ 40.55967, -12.196229 ] ] ], [ [ [ 35.41251, -21.866828 ], [ 35.412896, -21.86368 ], [ 35.416388, -21.862568 ], [ 35.429213, -21.850487 ], [ 35.446278, -21.844464 ], [ 35.45743, -21.846952 ], [ 35.454797, -21.862568 ], [ 35.449934, -21.898887 ], [ 35.445095, -21.912002 ], [ 35.426101, -21.902944 ], [ 35.422033, -21.894594 ], [ 35.423122, -21.879645 ], [ 35.41251, -21.866828 ] ] ], [ [ [ 40.601238, -11.026491 ], [ 40.610511, -11.024475 ], [ 40.629655, -11.031024 ], [ 40.64383, -11.032365 ], [ 40.65417, -11.029712 ], [ 40.657933, -11.028747 ], [ 40.694354, -11.012092 ], [ 40.706234, -11.00029 ], [ 40.715495, -11.004141 ], [ 40.715388, -11.012165 ], [ 40.708014, -11.020375 ], [ 40.686984, -11.031558 ], [ 40.657933, -11.035668 ], [ 40.65417, -11.037253 ], [ 40.640823, -11.042875 ], [ 40.634513, -11.038143 ], [ 40.612394, -11.03552 ], [ 40.601238, -11.026491 ] ] ], [ [ [ 40.588299, -12.421416 ], [ 40.588826, -12.412075 ], [ 40.589929, -12.4069 ], [ 40.594918, -12.404275 ], [ 40.596885, -12.404661 ], [ 40.606153, -12.411872 ], [ 40.607992, -12.411766 ], [ 40.61105, -12.416717 ], [ 40.615425, -12.419146 ], [ 40.615715, -12.424399 ], [ 40.618169, -12.43469 ], [ 40.618247, -12.441321 ], [ 40.617013, -12.452247 ], [ 40.613432, -12.459529 ], [ 40.60992, -12.462233 ], [ 40.598268, -12.460088 ], [ 40.596404, -12.455232 ], [ 40.597345, -12.451594 ], [ 40.595628, -12.450314 ], [ 40.596351, -12.445927 ], [ 40.593338, -12.437515 ], [ 40.593797, -12.431283 ], [ 40.588623, -12.424722 ], [ 40.588299, -12.421416 ] ] ], [ [ [ 40.644275, -10.878499 ], [ 40.648584, -10.854529 ], [ 40.65417, -10.845529 ], [ 40.657933, -10.852121 ], [ 40.662332, -10.859826 ], [ 40.66539, -10.859622 ], [ 40.657933, -10.834332 ], [ 40.657933, -10.83104 ], [ 40.681337, -10.84563 ], [ 40.683482, -10.851026 ], [ 40.681789, -10.857924 ], [ 40.669508, -10.861274 ], [ 40.661327, -10.872424 ], [ 40.657933, -10.874602 ], [ 40.65417, -10.877018 ], [ 40.644275, -10.878499 ] ] ], [ [ [ 40.581005, -12.345032 ], [ 40.582362, -12.342281 ], [ 40.58148, -12.338313 ], [ 40.58303, -12.335917 ], [ 40.594211, -12.331515 ], [ 40.598745, -12.327184 ], [ 40.607406, -12.333366 ], [ 40.610652, -12.334251 ], [ 40.613395, -12.337455 ], [ 40.612393, -12.339754 ], [ 40.615016, -12.341226 ], [ 40.615116, -12.34705 ], [ 40.618644, -12.353883 ], [ 40.618884, -12.362238 ], [ 40.617551, -12.363729 ], [ 40.615594, -12.35918 ], [ 40.608455, -12.356751 ], [ 40.604829, -12.359326 ], [ 40.598517, -12.35665 ], [ 40.594522, -12.350823 ], [ 40.588046, -12.345427 ], [ 40.581005, -12.345032 ] ] ], [ [ [ 40.578873, -12.548278 ], [ 40.586695, -12.539677 ], [ 40.591439, -12.537788 ], [ 40.601259, -12.530198 ], [ 40.604309, -12.530983 ], [ 40.608683, -12.537309 ], [ 40.610914, -12.543092 ], [ 40.608262, -12.551232 ], [ 40.604082, -12.557706 ], [ 40.602822, -12.562053 ], [ 40.598863, -12.564634 ], [ 40.590686, -12.565448 ], [ 40.586172, -12.568425 ], [ 40.583368, -12.566927 ], [ 40.586772, -12.562371 ], [ 40.585072, -12.554461 ], [ 40.583283, -12.551327 ], [ 40.578873, -12.548278 ] ] ], [ [ [ 40.660217, -11.176021 ], [ 40.673557, -11.148196 ], [ 40.679669, -11.145297 ], [ 40.693158, -11.148959 ], [ 40.696693, -11.163453 ], [ 40.686969, -11.170146 ], [ 40.661346, -11.176974 ], [ 40.660217, -11.176021 ] ] ], [ [ [ 40.632256, -10.773227 ], [ 40.640911, -10.76933 ], [ 40.657933, -10.772989 ], [ 40.659987, -10.777521 ], [ 40.657933, -10.793533 ], [ 40.651187, -10.794662 ], [ 40.642995, -10.781125 ], [ 40.632256, -10.773227 ] ] ], [ [ [ 40.567758, -11.977823 ], [ 40.568324, -11.973713 ], [ 40.583195, -11.976062 ], [ 40.588738, -11.975663 ], [ 40.591404, -11.978785 ], [ 40.588401, -11.987229 ], [ 40.585693, -11.992029 ], [ 40.585154, -11.996394 ], [ 40.580791, -12.001237 ], [ 40.578664, -12.000856 ], [ 40.579901, -11.998023 ], [ 40.579475, -11.99208 ], [ 40.577749, -11.986667 ], [ 40.573682, -11.983535 ], [ 40.5684, -11.981372 ], [ 40.567758, -11.977823 ] ] ], [ [ [ 35.518632, -22.146079 ], [ 35.518905, -22.140941 ], [ 35.52092, -22.136263 ], [ 35.52388, -22.133835 ], [ 35.526659, -22.133721 ], [ 35.531211, -22.14052 ], [ 35.532094, -22.149622 ], [ 35.53054, -22.152697 ], [ 35.529567, -22.161462 ], [ 35.521891, -22.157944 ], [ 35.519776, -22.15412 ], [ 35.518632, -22.146079 ] ] ], [ [ [ 40.584139, -11.177062 ], [ 40.587146, -11.176539 ], [ 40.599024, -11.180985 ], [ 40.611902, -11.188694 ], [ 40.625621, -11.192465 ], [ 40.634418, -11.192128 ], [ 40.634981, -11.193778 ], [ 40.630367, -11.196049 ], [ 40.626409, -11.195436 ], [ 40.623443, -11.196657 ], [ 40.614814, -11.196432 ], [ 40.610852, -11.194847 ], [ 40.601426, -11.187995 ], [ 40.586813, -11.181122 ], [ 40.584139, -11.177062 ] ] ], [ [ [ 40.597681, -12.600209 ], [ 40.599921, -12.595922 ], [ 40.615029, -12.593153 ], [ 40.616061, -12.595212 ], [ 40.622034, -12.600502 ], [ 40.622659, -12.602626 ], [ 40.619004, -12.604494 ], [ 40.621313, -12.609812 ], [ 40.618073, -12.611302 ], [ 40.615417, -12.607365 ], [ 40.609318, -12.604109 ], [ 40.597681, -12.600209 ] ] ], [ [ [ 32.900959, -25.973024 ], [ 32.909155, -25.967774 ], [ 32.911183, -25.971025 ], [ 32.917932, -25.96955 ], [ 32.920582, -25.971303 ], [ 32.916803, -25.973878 ], [ 32.914909, -25.981745 ], [ 32.912595, -25.982986 ], [ 32.902002, -25.976316 ], [ 32.900959, -25.973024 ] ] ], [ [ [ 32.678358, -25.935991 ], [ 32.681302, -25.932301 ], [ 32.678393, -25.927138 ], [ 32.680455, -25.922297 ], [ 32.689722, -25.919289 ], [ 32.692458, -25.919703 ], [ 32.686647, -25.935514 ], [ 32.683986, -25.937583 ], [ 32.678358, -25.935991 ] ] ], [ [ [ 35.420055, -21.974196 ], [ 35.420275, -21.970459 ], [ 35.425422, -21.965377 ], [ 35.429173, -21.960352 ], [ 35.43306, -21.960391 ], [ 35.432758, -21.968914 ], [ 35.433767, -21.974906 ], [ 35.430083, -21.973373 ], [ 35.421094, -21.979268 ], [ 35.420055, -21.974196 ] ] ], [ [ [ 35.457196, -21.837774 ], [ 35.459377, -21.833005 ], [ 35.459174, -21.828662 ], [ 35.461184, -21.82599 ], [ 35.458831, -21.819995 ], [ 35.461525, -21.810809 ], [ 35.461426, -21.808243 ], [ 35.466478, -21.809082 ], [ 35.468418, -21.815239 ], [ 35.463711, -21.825265 ], [ 35.461939, -21.833199 ], [ 35.459385, -21.840527 ], [ 35.457196, -21.837774 ] ] ], [ [ [ 40.623263, -11.370566 ], [ 40.624416, -11.36815 ], [ 40.628251, -11.367215 ], [ 40.638067, -11.369007 ], [ 40.644286, -11.366436 ], [ 40.649254, -11.365735 ], [ 40.653168, -11.368462 ], [ 40.648976, -11.370624 ], [ 40.634271, -11.371209 ], [ 40.630317, -11.370274 ], [ 40.627794, -11.372514 ], [ 40.624197, -11.372514 ], [ 40.623263, -11.370566 ] ] ], [ [ [ 35.41793, -23.811053 ], [ 35.418853, -23.806373 ], [ 35.42211, -23.805955 ], [ 35.422622, -23.811362 ], [ 35.426844, -23.812305 ], [ 35.428688, -23.818961 ], [ 35.427521, -23.821738 ], [ 35.422862, -23.821104 ], [ 35.418815, -23.814824 ], [ 35.41793, -23.811053 ] ] ], [ [ [ 35.537839, -22.873807 ], [ 35.53951, -22.873211 ], [ 35.547464, -22.884092 ], [ 35.552917, -22.897527 ], [ 35.55001, -22.899074 ], [ 35.547656, -22.894058 ], [ 35.548666, -22.891944 ], [ 35.545835, -22.887882 ], [ 35.542652, -22.887723 ], [ 35.542043, -22.881976 ], [ 35.537839, -22.873807 ] ] ], [ [ [ 35.518541, -22.182151 ], [ 35.518847, -22.175694 ], [ 35.521065, -22.171795 ], [ 35.5242, -22.17235 ], [ 35.526213, -22.175948 ], [ 35.525601, -22.182308 ], [ 35.52132, -22.185646 ], [ 35.518541, -22.182151 ] ] ], [ [ [ 40.726883, -15.043418 ], [ 40.730009, -15.036195 ], [ 40.737386, -15.030591 ], [ 40.74246, -15.029157 ], [ 40.742626, -15.031483 ], [ 40.737796, -15.033217 ], [ 40.730948, -15.042544 ], [ 40.731222, -15.044489 ], [ 40.727678, -15.04605 ], [ 40.726883, -15.043418 ] ] ], [ [ [ 40.627875, -12.483879 ], [ 40.628382, -12.479119 ], [ 40.631022, -12.472946 ], [ 40.634444, -12.472613 ], [ 40.634608, -12.475782 ], [ 40.632531, -12.479069 ], [ 40.633905, -12.481198 ], [ 40.633262, -12.486894 ], [ 40.630707, -12.487343 ], [ 40.627875, -12.483879 ] ] ], [ [ [ 40.519484, -11.421378 ], [ 40.522225, -11.419333 ], [ 40.529892, -11.422044 ], [ 40.534574, -11.426705 ], [ 40.534065, -11.427894 ], [ 40.524821, -11.425873 ], [ 40.519484, -11.421378 ] ] ], [ [ [ 35.423303, -23.796991 ], [ 35.427284, -23.791184 ], [ 35.431489, -23.792181 ], [ 35.433855, -23.797752 ], [ 35.431489, -23.800681 ], [ 35.423303, -23.796991 ] ] ], [ [ [ 40.621305, -10.914723 ], [ 40.623433, -10.910823 ], [ 40.628126, -10.912849 ], [ 40.630387, -10.916568 ], [ 40.629149, -10.919368 ], [ 40.625583, -10.920908 ], [ 40.621305, -10.914723 ] ] ], [ [ [ 35.337189, -21.61469 ], [ 35.340379, -21.613615 ], [ 35.343769, -21.617392 ], [ 35.342147, -21.628585 ], [ 35.337397, -21.626274 ], [ 35.339461, -21.623366 ], [ 35.340336, -21.617938 ], [ 35.337189, -21.61469 ] ] ], [ [ [ 40.819003, -14.85455 ], [ 40.82292, -14.853955 ], [ 40.827782, -14.850501 ], [ 40.82936, -14.851195 ], [ 40.826735, -14.859966 ], [ 40.824468, -14.858321 ], [ 40.821409, -14.859683 ], [ 40.819003, -14.85455 ] ] ], [ [ [ 40.83069, -14.546783 ], [ 40.831301, -14.545052 ], [ 40.836114, -14.544666 ], [ 40.834293, -14.541193 ], [ 40.839784, -14.54207 ], [ 40.840224, -14.545674 ], [ 40.836772, -14.546119 ], [ 40.836852, -14.548189 ], [ 40.832856, -14.551045 ], [ 40.83069, -14.546783 ] ] ], [ [ [ 40.524181, -11.356034 ], [ 40.52759, -11.35506 ], [ 40.533224, -11.358145 ], [ 40.536582, -11.361643 ], [ 40.531769, -11.363462 ], [ 40.524181, -11.356034 ] ] ], [ [ [ 38.874229, -17.233013 ], [ 38.876252, -17.229766 ], [ 38.884745, -17.233591 ], [ 38.883307, -17.235979 ], [ 38.87739, -17.236788 ], [ 38.874229, -17.233013 ] ] ], [ [ [ 39.923966, -16.271763 ], [ 39.928296, -16.270189 ], [ 39.931813, -16.271258 ], [ 39.937899, -16.271752 ], [ 39.939104, -16.27354 ], [ 39.934478, -16.275518 ], [ 39.931813, -16.273415 ], [ 39.925139, -16.273 ], [ 39.923966, -16.271763 ] ] ], [ [ [ 39.115975, -17.088877 ], [ 39.120122, -17.086094 ], [ 39.126391, -17.089985 ], [ 39.119867, -17.093281 ], [ 39.115975, -17.088877 ] ] ], [ [ [ 40.606365, -12.679456 ], [ 40.607706, -12.678814 ], [ 40.614329, -12.682429 ], [ 40.609892, -12.687778 ], [ 40.607386, -12.686472 ], [ 40.608418, -12.683528 ], [ 40.606365, -12.679456 ] ] ], [ [ [ 40.564582, -12.363549 ], [ 40.564582, -12.361384 ], [ 40.565831, -12.359937 ], [ 40.572549, -12.35719 ], [ 40.574315, -12.361454 ], [ 40.570833, -12.36058 ], [ 40.566011, -12.365338 ], [ 40.564582, -12.363549 ] ] ], [ [ [ 35.09654, -21.186539 ], [ 35.098662, -21.182527 ], [ 35.102758, -21.186232 ], [ 35.103956, -21.192 ], [ 35.100574, -21.192059 ], [ 35.100391, -21.188471 ], [ 35.09654, -21.186539 ] ] ], [ [ [ 40.66178, -15.193151 ], [ 40.664053, -15.190631 ], [ 40.666135, -15.200355 ], [ 40.665646, -15.205675 ], [ 40.663589, -15.204547 ], [ 40.663239, -15.19648 ], [ 40.66178, -15.193151 ] ] ], [ [ [ 40.769051, -15.080238 ], [ 40.773846, -15.0761 ], [ 40.775125, -15.079202 ], [ 40.773924, -15.085432 ], [ 40.769051, -15.080238 ] ] ], [ [ [ 39.066314, -17.119852 ], [ 39.072019, -17.118161 ], [ 39.075524, -17.120655 ], [ 39.069087, -17.12376 ], [ 39.066314, -17.119852 ] ] ], [ [ [ 40.57508, -11.311388 ], [ 40.575952, -11.310706 ], [ 40.585503, -11.311529 ], [ 40.583184, -11.314755 ], [ 40.575963, -11.312915 ], [ 40.57508, -11.311388 ] ] ], [ [ [ 40.781582, -15.051783 ], [ 40.789191, -15.051261 ], [ 40.787348, -15.05531 ], [ 40.781593, -15.054768 ], [ 40.781582, -15.051783 ] ] ], [ [ [ 40.539913, -12.045011 ], [ 40.544181, -12.042814 ], [ 40.547537, -12.044208 ], [ 40.542793, -12.048827 ], [ 40.539913, -12.045011 ] ] ], [ [ [ 40.816844, -14.872961 ], [ 40.820198, -14.866049 ], [ 40.823599, -14.867993 ], [ 40.818593, -14.873378 ], [ 40.816844, -14.872961 ] ] ], [ [ [ 40.644463, -10.83526 ], [ 40.649094, -10.832271 ], [ 40.651394, -10.836945 ], [ 40.650155, -10.838246 ], [ 40.644463, -10.83526 ] ] ], [ [ [ 40.596, -11.134125 ], [ 40.59821, -11.132158 ], [ 40.603732, -11.135215 ], [ 40.599488, -11.137458 ], [ 40.596, -11.134125 ] ] ], [ [ [ 40.653701, -11.186097 ], [ 40.653701, -11.182751 ], [ 40.657602, -11.17851 ], [ 40.658348, -11.183862 ], [ 40.653701, -11.186097 ] ] ], [ [ [ 40.510803, -11.277246 ], [ 40.514511, -11.276546 ], [ 40.518057, -11.280557 ], [ 40.514071, -11.281801 ], [ 40.510803, -11.277246 ] ] ], [ [ [ 40.556858, -11.638106 ], [ 40.56322, -11.637112 ], [ 40.563761, -11.641056 ], [ 40.55882, -11.640956 ], [ 40.556858, -11.638106 ] ] ], [ [ [ 40.601243, -11.817459 ], [ 40.6029, -11.815126 ], [ 40.607896, -11.814404 ], [ 40.609602, -11.815944 ], [ 40.604587, -11.818477 ], [ 40.601243, -11.817459 ] ] ], [ [ [ 40.562244, -11.823103 ], [ 40.564512, -11.821363 ], [ 40.569009, -11.822249 ], [ 40.567851, -11.82547 ], [ 40.562993, -11.824998 ], [ 40.562244, -11.823103 ] ] ], [ [ [ 40.542649, -12.000204 ], [ 40.546578, -11.998191 ], [ 40.550766, -11.998628 ], [ 40.54955, -12.001427 ], [ 40.544493, -12.001765 ], [ 40.542649, -12.000204 ] ] ], [ [ [ 40.533341, -12.018052 ], [ 40.534795, -12.016641 ], [ 40.540943, -12.01771 ], [ 40.538339, -12.021673 ], [ 40.533341, -12.018052 ] ] ], [ [ [ 40.557701, -12.145809 ], [ 40.563378, -12.143762 ], [ 40.564268, -12.146864 ], [ 40.560673, -12.149333 ], [ 40.557701, -12.145809 ] ] ], [ [ [ 40.599591, -12.492629 ], [ 40.600567, -12.490889 ], [ 40.604365, -12.4914 ], [ 40.605452, -12.494752 ], [ 40.603422, -12.497171 ], [ 40.602162, -12.494752 ], [ 40.599591, -12.492629 ] ] ], [ [ [ 40.655749, -14.481201 ], [ 40.657867, -14.477133 ], [ 40.661052, -14.478362 ], [ 40.660393, -14.482564 ], [ 40.657867, -14.482488 ], [ 40.655749, -14.481201 ] ] ], [ [ [ 40.830948, -14.797169 ], [ 40.832585, -14.795066 ], [ 40.835951, -14.79671 ], [ 40.834227, -14.80118 ], [ 40.831442, -14.800111 ], [ 40.830948, -14.797169 ] ] ], [ [ [ 40.829191, -14.831499 ], [ 40.830589, -14.828703 ], [ 40.833642, -14.829097 ], [ 40.832843, -14.834096 ], [ 40.830638, -14.835151 ], [ 40.829191, -14.831499 ] ] ], [ [ [ 40.79311, -14.980537 ], [ 40.796967, -14.978259 ], [ 40.798579, -14.983567 ], [ 40.796152, -14.984935 ], [ 40.79311, -14.980537 ] ] ], [ [ [ 39.868522, -16.247426 ], [ 39.870145, -16.246627 ], [ 39.87569, -16.249556 ], [ 39.874252, -16.25207 ], [ 39.869616, -16.249791 ], [ 39.868522, -16.247426 ] ] ], [ [ [ 40.026383, -16.352114 ], [ 40.032417, -16.351326 ], [ 40.033964, -16.354093 ], [ 40.027442, -16.355134 ], [ 40.026383, -16.352114 ] ] ], [ [ [ 39.804572, -16.56372 ], [ 39.806647, -16.561879 ], [ 39.81016, -16.563385 ], [ 39.809933, -16.56573 ], [ 39.805455, -16.567046 ], [ 39.804572, -16.56372 ] ] ], [ [ [ 39.720958, -16.642306 ], [ 39.72791, -16.641027 ], [ 39.729446, -16.642079 ], [ 39.723986, -16.645686 ], [ 39.720958, -16.642306 ] ] ], [ [ [ 35.107086, -21.131347 ], [ 35.111851, -21.129786 ], [ 35.114877, -21.133373 ], [ 35.112615, -21.134815 ], [ 35.107086, -21.131347 ] ] ], [ [ [ 35.456646, -22.043904 ], [ 35.463464, -22.040633 ], [ 35.465385, -22.042358 ], [ 35.46027, -22.045477 ], [ 35.456646, -22.043904 ] ] ], [ [ [ 35.543558, -22.135892 ], [ 35.546746, -22.137825 ], [ 35.546071, -22.144298 ], [ 35.544229, -22.144279 ], [ 35.543558, -22.135892 ] ] ], [ [ [ 35.4498, -23.860333 ], [ 35.454118, -23.857951 ], [ 35.455813, -23.862714 ], [ 35.453181, -23.863717 ], [ 35.4498, -23.860333 ] ] ] ] } }
]
}
