{
"type": "FeatureCollection",
"name": "Namibia",
"crs": { "type": "name", "properties": { "name": "urn:ogc:def:crs:OGC:1.3:CRS84" } },
"features": [
{ "type": "Feature", "properties": { "id": "NA", "CNTR_ID": "NA", "CNTR_NAME": "Namibia", "NAME_ENGL": "Namibia", "ISO3_CODE": "NAM", "FID": "NA" }, "geometry": { "type": "MultiPolygon", "coordinates": [ [ [ [ 19.99948, -24.751953 ], [ 19.999481, -24.763028 ], [ 19.999502, -24.910557 ], [ 19.999559, -25.308569 ], [ 19.999587, -25.496493 ], [ 19.999588, -25.504672 ], [ 19.999591, -25.525084 ], [ 19.999601, -25.59463 ], [ 19.999602, -25.601238 ], [ 19.999603, -25.609189 ], [ 19.999619, -25.720454 ], [ 19.999845, -27.282058 ], [ 19.999574, -28.426385 ], [ 19.972485, -28.425745 ], [ 19.956066, -28.432517 ], [ 19.915344, -28.44464 ], [ 19.891551, -28.441138 ], [ 19.877707, -28.443482 ], [ 19.864546, -28.455478 ], [ 19.847541, -28.460765 ], [ 19.841814, -28.469285 ], [ 19.83927, -28.482088 ], [ 19.830693, -28.494725 ], [ 19.822707, -28.503173 ], [ 19.814783, -28.506651 ], [ 19.811509, -28.506094 ], [ 19.781607, -28.501007 ], [ 19.760989, -28.48958 ], [ 19.739317, -28.486181 ], [ 19.727292, -28.490319 ], [ 19.697852, -28.51624 ], [ 19.674956, -28.521167 ], [ 19.667926, -28.529423 ], [ 19.624355, -28.511497 ], [ 19.599303, -28.519618 ], [ 19.584962, -28.527912 ], [ 19.570956, -28.52678 ], [ 19.563833, -28.529029 ], [ 19.546977, -28.544454 ], [ 19.544556, -28.570498 ], [ 19.538805, -28.583074 ], [ 19.511823, -28.596167 ], [ 19.502298, -28.604658 ], [ 19.502728, -28.626766 ], [ 19.495876, -28.641768 ], [ 19.490851, -28.678728 ], [ 19.478479, -28.689745 ], [ 19.46579, -28.706167 ], [ 19.443226, -28.718013 ], [ 19.401396, -28.733693 ], [ 19.386551, -28.734181 ], [ 19.351337, -28.742206 ], [ 19.332869, -28.736467 ], [ 19.318653, -28.736779 ], [ 19.298472, -28.732601 ], [ 19.267262, -28.748352 ], [ 19.241391, -28.803653 ], [ 19.24234, -28.824481 ], [ 19.264164, -28.866892 ], [ 19.269499, -28.870801 ], [ 19.286029, -28.874181 ], [ 19.295481, -28.884698 ], [ 19.295831, -28.893228 ], [ 19.287738, -28.905346 ], [ 19.281294, -28.908236 ], [ 19.254654, -28.902468 ], [ 19.244129, -28.903524 ], [ 19.231132, -28.911753 ], [ 19.222827, -28.924302 ], [ 19.190869, -28.950206 ], [ 19.150158, -28.962387 ], [ 19.135206, -28.961459 ], [ 19.118137, -28.969093 ], [ 19.104479, -28.968402 ], [ 19.072988, -28.957488 ], [ 19.054684, -28.939547 ], [ 19.042433, -28.932171 ], [ 19.032298, -28.929149 ], [ 19.015761, -28.9306 ], [ 19.007598, -28.927998 ], [ 19.00261, -28.906495 ], [ 18.997693, -28.900384 ], [ 18.995328, -28.890846 ], [ 18.973414, -28.8716 ], [ 18.961582, -28.871109 ], [ 18.932322, -28.856558 ], [ 18.906398, -28.856506 ], [ 18.875074, -28.847874 ], [ 18.865256, -28.851185 ], [ 18.849829, -28.84872 ], [ 18.80829, -28.84963 ], [ 18.793791, -28.844782 ], [ 18.76357, -28.840977 ], [ 18.731026, -28.832637 ], [ 18.718723, -28.83442 ], [ 18.71103, -28.840367 ], [ 18.692133, -28.844295 ], [ 18.67218, -28.8424 ], [ 18.662617, -28.844149 ], [ 18.632638, -28.84063 ], [ 18.609277, -28.85376 ], [ 18.589506, -28.857881 ], [ 18.568103, -28.857703 ], [ 18.540113, -28.867067 ], [ 18.524165, -28.884226 ], [ 18.512196, -28.889809 ], [ 18.497322, -28.88962 ], [ 18.470459, -28.883791 ], [ 18.450898, -28.892897 ], [ 18.428151, -28.900327 ], [ 18.419326, -28.900645 ], [ 18.405374, -28.896965 ], [ 18.366922, -28.894366 ], [ 18.350492, -28.881761 ], [ 18.34303, -28.884684 ], [ 18.335512, -28.883656 ], [ 18.330258, -28.882938 ], [ 18.300189, -28.88563 ], [ 18.263813, -28.879927 ], [ 18.260189, -28.881805 ], [ 18.259015, -28.888616 ], [ 18.251751, -28.897814 ], [ 18.219581, -28.895312 ], [ 18.200714, -28.913239 ], [ 18.189452, -28.91707 ], [ 18.17282, -28.903207 ], [ 18.148798, -28.89341 ], [ 18.127885, -28.895247 ], [ 18.101545, -28.87833 ], [ 18.082649, -28.871225 ], [ 18.076905, -28.871248 ], [ 18.05744, -28.878961 ], [ 18.04678, -28.876318 ], [ 18.026377, -28.846848 ], [ 18.014208, -28.838196 ], [ 18.011311, -28.826568 ], [ 17.991294, -28.808682 ], [ 17.981265, -28.805803 ], [ 17.972464, -28.79237 ], [ 17.959708, -28.785151 ], [ 17.945209, -28.789252 ], [ 17.936589, -28.788608 ], [ 17.924603, -28.769274 ], [ 17.916977, -28.765724 ], [ 17.913187, -28.765852 ], [ 17.905588, -28.77186 ], [ 17.887362, -28.766096 ], [ 17.829473, -28.761179 ], [ 17.817617, -28.755812 ], [ 17.779401, -28.758673 ], [ 17.749049, -28.740271 ], [ 17.742996, -28.742538 ], [ 17.731219, -28.759976 ], [ 17.723426, -28.759866 ], [ 17.71394, -28.748099 ], [ 17.705752, -28.744911 ], [ 17.694378, -28.749103 ], [ 17.677589, -28.767704 ], [ 17.666281, -28.772359 ], [ 17.646985, -28.774241 ], [ 17.61782, -28.763207 ], [ 17.609762, -28.749273 ], [ 17.611617, -28.725996 ], [ 17.605688, -28.7187 ], [ 17.605276, -28.709476 ], [ 17.599675, -28.696809 ], [ 17.590235, -28.689891 ], [ 17.57104, -28.686081 ], [ 17.557196, -28.688409 ], [ 17.55154, -28.695885 ], [ 17.543031, -28.700286 ], [ 17.490466, -28.694333 ], [ 17.472916, -28.704295 ], [ 17.460504, -28.70438 ], [ 17.429154, -28.721698 ], [ 17.419962, -28.721506 ], [ 17.412203, -28.713068 ], [ 17.416841, -28.694796 ], [ 17.41457, -28.671847 ], [ 17.42735, -28.650225 ], [ 17.426141, -28.633548 ], [ 17.430743, -28.61464 ], [ 17.425765, -28.600301 ], [ 17.431897, -28.582849 ], [ 17.431552, -28.575124 ], [ 17.426664, -28.568724 ], [ 17.416258, -28.563884 ], [ 17.390208, -28.570538 ], [ 17.379054, -28.566863 ], [ 17.374825, -28.531646 ], [ 17.368357, -28.514167 ], [ 17.359113, -28.504706 ], [ 17.341644, -28.496002 ], [ 17.333614, -28.475823 ], [ 17.338815, -28.454341 ], [ 17.348136, -28.44041 ], [ 17.356774, -28.43729 ], [ 17.382425, -28.436784 ], [ 17.390475, -28.432517 ], [ 17.409672, -28.399287 ], [ 17.412864, -28.376128 ], [ 17.404779, -28.356563 ], [ 17.376302, -28.32188 ], [ 17.37668, -28.310977 ], [ 17.382037, -28.300633 ], [ 17.380098, -28.292033 ], [ 17.372008, -28.281689 ], [ 17.36249, -28.276822 ], [ 17.355483, -28.252531 ], [ 17.344784, -28.238608 ], [ 17.329709, -28.23315 ], [ 17.319584, -28.226191 ], [ 17.306249, -28.225725 ], [ 17.288261, -28.240145 ], [ 17.276819, -28.245571 ], [ 17.254196, -28.238683 ], [ 17.232, -28.250958 ], [ 17.222036, -28.250256 ], [ 17.213611, -28.246473 ], [ 17.1948, -28.226267 ], [ 17.182702, -28.203503 ], [ 17.183205, -28.17905 ], [ 17.190334, -28.161176 ], [ 17.196255, -28.13048 ], [ 17.191253, -28.107808 ], [ 17.179628, -28.099201 ], [ 17.163617, -28.100248 ], [ 17.136779, -28.091903 ], [ 17.131134, -28.084624 ], [ 17.125721, -28.069035 ], [ 17.117896, -28.059729 ], [ 17.08281, -28.033783 ], [ 17.073507, -28.034891 ], [ 17.06661, -28.042203 ], [ 17.058241, -28.046166 ], [ 17.021117, -28.052585 ], [ 17.011216, -28.067884 ], [ 17.003017, -28.074945 ], [ 16.9942, -28.07272 ], [ 16.983447, -28.061642 ], [ 16.975769, -28.059503 ], [ 16.953143, -28.075328 ], [ 16.943704, -28.075095 ], [ 16.926386, -28.069559 ], [ 16.900761, -28.072254 ], [ 16.886911, -28.087343 ], [ 16.881468, -28.098918 ], [ 16.889536, -28.121447 ], [ 16.889543, -28.134615 ], [ 16.884258, -28.150893 ], [ 16.888361, -28.169578 ], [ 16.886882, -28.173236 ], [ 16.881349, -28.178502 ], [ 16.871646, -28.181767 ], [ 16.85858, -28.170526 ], [ 16.84554, -28.165334 ], [ 16.830403, -28.167403 ], [ 16.827438, -28.172643 ], [ 16.830593, -28.183215 ], [ 16.852402, -28.199829 ], [ 16.855969, -28.20575 ], [ 16.855392, -28.210715 ], [ 16.844661, -28.216338 ], [ 16.824341, -28.217022 ], [ 16.810003, -28.214206 ], [ 16.804002, -28.219139 ], [ 16.806474, -28.232559 ], [ 16.826042, -28.247135 ], [ 16.826355, -28.261226 ], [ 16.823012, -28.270679 ], [ 16.814587, -28.276082 ], [ 16.804041, -28.275596 ], [ 16.794295, -28.271683 ], [ 16.777129, -28.259313 ], [ 16.763628, -28.2607 ], [ 16.757368, -28.265168 ], [ 16.751821, -28.288658 ], [ 16.755156, -28.301917 ], [ 16.76445, -28.312802 ], [ 16.779307, -28.322256 ], [ 16.78953, -28.346876 ], [ 16.802046, -28.357204 ], [ 16.803776, -28.362451 ], [ 16.784878, -28.384408 ], [ 16.768496, -28.398649 ], [ 16.767661, -28.410559 ], [ 16.773148, -28.432517 ], [ 16.775666, -28.442593 ], [ 16.768074, -28.453137 ], [ 16.74934, -28.464753 ], [ 16.736228, -28.493945 ], [ 16.720134, -28.500121 ], [ 16.701282, -28.498006 ], [ 16.696495, -28.492176 ], [ 16.695891, -28.477264 ], [ 16.691453, -28.472692 ], [ 16.680648, -28.470897 ], [ 16.664643, -28.476559 ], [ 16.620323, -28.501189 ], [ 16.611933, -28.520512 ], [ 16.59964, -28.531837 ], [ 16.561452, -28.543382 ], [ 16.547839, -28.554807 ], [ 16.538153, -28.557138 ], [ 16.514685, -28.556734 ], [ 16.491778, -28.567332 ], [ 16.484259, -28.57714 ], [ 16.469739, -28.584423 ], [ 16.454207, -28.60356 ], [ 16.448304, -28.622134 ], [ 16.455635, -28.634722 ], [ 16.391733, -28.59477 ], [ 16.323733, -28.546517 ], [ 16.210571, -28.432827 ], [ 16.118254, -28.350876 ], [ 16.038882, -28.273324 ], [ 15.850025, -28.126925 ], [ 15.815688, -28.096706 ], [ 15.798447, -28.077099 ], [ 15.765068, -28.047523 ], [ 15.718332, -28.000036 ], [ 15.679064, -27.945722 ], [ 15.677578, -27.934284 ], [ 15.682993, -27.920519 ], [ 15.678407, -27.902646 ], [ 15.65646, -27.87555 ], [ 15.645515, -27.853815 ], [ 15.630129, -27.833626 ], [ 15.553401, -27.756075 ], [ 15.534475, -27.725025 ], [ 15.531746, -27.714786 ], [ 15.532768, -27.701713 ], [ 15.523743, -27.681672 ], [ 15.527817, -27.657677 ], [ 15.521799, -27.641151 ], [ 15.493072, -27.602021 ], [ 15.467027, -27.573655 ], [ 15.462764, -27.553014 ], [ 15.422576, -27.484767 ], [ 15.37361, -27.440437 ], [ 15.358395, -27.403617 ], [ 15.335233, -27.374837 ], [ 15.32242, -27.363005 ], [ 15.291912, -27.312367 ], [ 15.280098, -27.249995 ], [ 15.26699, -27.226159 ], [ 15.263172, -27.20949 ], [ 15.264255, -27.187197 ], [ 15.268943, -27.170278 ], [ 15.262453, -27.144315 ], [ 15.252085, -27.118235 ], [ 15.255145, -27.091427 ], [ 15.23716, -27.060802 ], [ 15.231755, -27.045594 ], [ 15.230532, -27.017911 ], [ 15.238203, -26.974729 ], [ 15.231692, -26.944389 ], [ 15.220235, -26.926337 ], [ 15.212218, -26.92007 ], [ 15.198443, -26.917221 ], [ 15.18705, -26.920228 ], [ 15.154177, -26.90155 ], [ 15.153342, -26.889514 ], [ 15.156551, -26.875471 ], [ 15.154454, -26.859099 ], [ 15.143207, -26.849492 ], [ 15.136999, -26.829016 ], [ 15.119428, -26.801997 ], [ 15.107803, -26.76967 ], [ 15.108586, -26.742033 ], [ 15.091844, -26.729853 ], [ 15.081193, -26.688762 ], [ 15.081339, -26.661543 ], [ 15.091038, -26.639858 ], [ 15.109445, -26.643475 ], [ 15.126705, -26.633358 ], [ 15.133768, -26.643665 ], [ 15.131807, -26.655643 ], [ 15.134026, -26.666621 ], [ 15.141397, -26.679971 ], [ 15.147445, -26.681224 ], [ 15.151433, -26.663356 ], [ 15.150737, -26.642905 ], [ 15.16448, -26.630326 ], [ 15.167933, -26.616296 ], [ 15.175346, -26.604243 ], [ 15.174445, -26.589988 ], [ 15.168819, -26.582697 ], [ 15.154698, -26.579343 ], [ 15.148172, -26.572745 ], [ 15.142117, -26.545477 ], [ 15.139633, -26.506472 ], [ 15.125502, -26.484214 ], [ 15.117873, -26.463955 ], [ 15.120913, -26.446028 ], [ 15.101916, -26.422817 ], [ 15.092, -26.405133 ], [ 15.077731, -26.392188 ], [ 15.041055, -26.368977 ], [ 14.977322, -26.341813 ], [ 14.954141, -26.314122 ], [ 14.955387, -26.298242 ], [ 14.951636, -26.275998 ], [ 14.956196, -26.246971 ], [ 14.954921, -26.230422 ], [ 14.964432, -26.210308 ], [ 14.967237, -26.192327 ], [ 14.960526, -26.178092 ], [ 14.943742, -26.159248 ], [ 14.935408, -26.141161 ], [ 14.940313, -26.137273 ], [ 14.954101, -26.140524 ], [ 14.969232, -26.129618 ], [ 14.977551, -26.111861 ], [ 14.979257, -26.075391 ], [ 14.961137, -26.022551 ], [ 14.954905, -25.994637 ], [ 14.934722, -25.964129 ], [ 14.91896, -25.945848 ], [ 14.911982, -25.932194 ], [ 14.904898, -25.892879 ], [ 14.909159, -25.861374 ], [ 14.907183, -25.850312 ], [ 14.889007, -25.824376 ], [ 14.861772, -25.79791 ], [ 14.831662, -25.747704 ], [ 14.833004, -25.737279 ], [ 14.843342, -25.729738 ], [ 14.847633, -25.720442 ], [ 14.846633, -25.704337 ], [ 14.838944, -25.676666 ], [ 14.839938, -25.656192 ], [ 14.844832, -25.633958 ], [ 14.857172, -25.600696 ], [ 14.879359, -25.567435 ], [ 14.881734, -25.548758 ], [ 14.862224, -25.499492 ], [ 14.8408, -25.466443 ], [ 14.840773, -25.428849 ], [ 14.812518, -25.383768 ], [ 14.809593, -25.366159 ], [ 14.812204, -25.325127 ], [ 14.803153, -25.293587 ], [ 14.811989, -25.275473 ], [ 14.828947, -25.220158 ], [ 14.841258, -25.198547 ], [ 14.844048, -25.153765 ], [ 14.851114, -25.131383 ], [ 14.873132, -25.097258 ], [ 14.87398, -25.078483 ], [ 14.855965, -25.031922 ], [ 14.797917, -24.922327 ], [ 14.794226, -24.860577 ], [ 14.797191, -24.836405 ], [ 14.768819, -24.766002 ], [ 14.732228, -24.708592 ], [ 14.688732, -24.657989 ], [ 14.626797, -24.592964 ], [ 14.598874, -24.555047 ], [ 14.599856, -24.53566 ], [ 14.611095, -24.511651 ], [ 14.616248, -24.487614 ], [ 14.608767, -24.445182 ], [ 14.564645, -24.353964 ], [ 14.526701, -24.275467 ], [ 14.505196, -24.223924 ], [ 14.464796, -24.094095 ], [ 14.454713, -24.038538 ], [ 14.452072, -24.010758 ], [ 14.453858, -23.990593 ], [ 14.463124, -23.953306 ], [ 14.481172, -23.932375 ], [ 14.507819, -23.92027 ], [ 14.51334, -23.909703 ], [ 14.508583, -23.866184 ], [ 14.509588, -23.83665 ], [ 14.505392, -23.811767 ], [ 14.507259, -23.792182 ], [ 14.499446, -23.756803 ], [ 14.503612, -23.66642 ], [ 14.51052, -23.628599 ], [ 14.443442, -23.449583 ], [ 14.43591, -23.418487 ], [ 14.435484, -23.399835 ], [ 14.44336, -23.38048 ], [ 14.45155, -23.377326 ], [ 14.454789, -23.38993 ], [ 14.448303, -23.413294 ], [ 14.447637, -23.426862 ], [ 14.453337, -23.434944 ], [ 14.454756, -23.445401 ], [ 14.461102, -23.446255 ], [ 14.463724, -23.458202 ], [ 14.475044, -23.471849 ], [ 14.47781, -23.461917 ], [ 14.474566, -23.417584 ], [ 14.479024, -23.406915 ], [ 14.495992, -23.386561 ], [ 14.499558, -23.327909 ], [ 14.496827, -23.304964 ], [ 14.481536, -23.246106 ], [ 14.448077, -23.163004 ], [ 14.425245, -23.097444 ], [ 14.404382, -23.011486 ], [ 14.408771, -22.953228 ], [ 14.415521, -22.942393 ], [ 14.429758, -22.932531 ], [ 14.43298, -22.88975 ], [ 14.438959, -22.877407 ], [ 14.442793, -22.876328 ], [ 14.444444, -22.878926 ], [ 14.437929, -22.904547 ], [ 14.440765, -22.926325 ], [ 14.433585, -22.959835 ], [ 14.421595, -22.981323 ], [ 14.420417, -23.004322 ], [ 14.424949, -23.010134 ], [ 14.43603, -23.011342 ], [ 14.447713, -23.003652 ], [ 14.452408, -23.003252 ], [ 14.45747, -23.021558 ], [ 14.463205, -23.016737 ], [ 14.475538, -22.983955 ], [ 14.484736, -22.97118 ], [ 14.485825, -22.958494 ], [ 14.50098, -22.946272 ], [ 14.527957, -22.91746 ], [ 14.538551, -22.89477 ], [ 14.538608, -22.841862 ], [ 14.542376, -22.803975 ], [ 14.533169, -22.772008 ], [ 14.523626, -22.750684 ], [ 14.528217, -22.726914 ], [ 14.52181, -22.696659 ], [ 14.521775, -22.675121 ], [ 14.526245, -22.647868 ], [ 14.519618, -22.617568 ], [ 14.507332, -22.590038 ], [ 14.508745, -22.557255 ], [ 14.488392, -22.510596 ], [ 14.462507, -22.469642 ], [ 14.450242, -22.423573 ], [ 14.429578, -22.374581 ], [ 14.425158, -22.351175 ], [ 14.392993, -22.28513 ], [ 14.358524, -22.244683 ], [ 14.319233, -22.205862 ], [ 14.290719, -22.165539 ], [ 14.287836, -22.156017 ], [ 14.289743, -22.140179 ], [ 14.283513, -22.127726 ], [ 14.225281, -22.061476 ], [ 14.19099, -22.018018 ], [ 14.150324, -21.97577 ], [ 14.133503, -21.951658 ], [ 14.117807, -21.929154 ], [ 14.073805, -21.887512 ], [ 14.058981, -21.862901 ], [ 13.954331, -21.774927 ], [ 13.954987, -21.769087 ], [ 13.976979, -21.744335 ], [ 13.975534, -21.716858 ], [ 13.951683, -21.680936 ], [ 13.921259, -21.645842 ], [ 13.88194, -21.589362 ], [ 13.859119, -21.525012 ], [ 13.861634, -21.51279 ], [ 13.860082, -21.505891 ], [ 13.822332, -21.45987 ], [ 13.804931, -21.42023 ], [ 13.793075, -21.407386 ], [ 13.751087, -21.36189 ], [ 13.739245, -21.33645 ], [ 13.706225, -21.304207 ], [ 13.691881, -21.279751 ], [ 13.689591, -21.262757 ], [ 13.683746, -21.252461 ], [ 13.576634, -21.134397 ], [ 13.556992, -21.094311 ], [ 13.555705, -21.076008 ], [ 13.548817, -21.047795 ], [ 13.521915, -21.013559 ], [ 13.491676, -20.967262 ], [ 13.461351, -20.933382 ], [ 13.449939, -20.910672 ], [ 13.414564, -20.872805 ], [ 13.37823, -20.794843 ], [ 13.380878, -20.769621 ], [ 13.366878, -20.71578 ], [ 13.364004, -20.687378 ], [ 13.350882, -20.656723 ], [ 13.334827, -20.606238 ], [ 13.308024, -20.563821 ], [ 13.292515, -20.534726 ], [ 13.285895, -20.515575 ], [ 13.267761, -20.493376 ], [ 13.263326, -20.478345 ], [ 13.250414, -20.457571 ], [ 13.248333, -20.440943 ], [ 13.25362, -20.4026 ], [ 13.242786, -20.356012 ], [ 13.239462, -20.322002 ], [ 13.215592, -20.285071 ], [ 13.206121, -20.264453 ], [ 13.206452, -20.237165 ], [ 13.198061, -20.217423 ], [ 13.159681, -20.173626 ], [ 13.148802, -20.154226 ], [ 13.135806, -20.142231 ], [ 13.112121, -20.121386 ], [ 13.078362, -20.100259 ], [ 13.054274, -20.068808 ], [ 13.048914, -20.044231 ], [ 13.041532, -20.034314 ], [ 13.041157, -20.025214 ], [ 13.036301, -20.014483 ], [ 13.033347, -19.986477 ], [ 13.013552, -19.961933 ], [ 12.977551, -19.894572 ], [ 12.97356, -19.887102 ], [ 12.969715, -19.873866 ], [ 12.954664, -19.853745 ], [ 12.935367, -19.794817 ], [ 12.9281, -19.780722 ], [ 12.888474, -19.726813 ], [ 12.878368, -19.709875 ], [ 12.862381, -19.672411 ], [ 12.856889, -19.648959 ], [ 12.810402, -19.576653 ], [ 12.775126, -19.501664 ], [ 12.764659, -19.489539 ], [ 12.757093, -19.472706 ], [ 12.749818, -19.466475 ], [ 12.732748, -19.439659 ], [ 12.718466, -19.40474 ], [ 12.707103, -19.387423 ], [ 12.70434, -19.37895 ], [ 12.707305, -19.363006 ], [ 12.706551, -19.34842 ], [ 12.691848, -19.305267 ], [ 12.664668, -19.27191 ], [ 12.654765, -19.250814 ], [ 12.621767, -19.198117 ], [ 12.616107, -19.185068 ], [ 12.611233, -19.15914 ], [ 12.599582, -19.135151 ], [ 12.589221, -19.12513 ], [ 12.571064, -19.095705 ], [ 12.568847, -19.08558 ], [ 12.545072, -19.064541 ], [ 12.49035, -19.016108 ], [ 12.476326, -18.995556 ], [ 12.476763, -18.983013 ], [ 12.469838, -18.965168 ], [ 12.468238, -18.939466 ], [ 12.46007, -18.918275 ], [ 12.387928, -18.83465 ], [ 12.386307, -18.823091 ], [ 12.334738, -18.759929 ], [ 12.325587, -18.738739 ], [ 12.267915, -18.68865 ], [ 12.184092, -18.622002 ], [ 12.156926, -18.600154 ], [ 12.111341, -18.563486 ], [ 12.047803, -18.511213 ], [ 12.027836, -18.487387 ], [ 12.021435, -18.472165 ], [ 12.021926, -18.463995 ], [ 12.018708, -18.455529 ], [ 12.003822, -18.43406 ], [ 12.004097, -18.390652 ], [ 11.999288, -18.36798 ], [ 11.957158, -18.302842 ], [ 11.956509, -18.297446 ], [ 11.963512, -18.282227 ], [ 11.957296, -18.261061 ], [ 11.933468, -18.222951 ], [ 11.908389, -18.192612 ], [ 11.888421, -18.169404 ], [ 11.854844, -18.140564 ], [ 11.849113, -18.119898 ], [ 11.834546, -18.092041 ], [ 11.835138, -18.077445 ], [ 11.828571, -18.036222 ], [ 11.811192, -18.001022 ], [ 11.804214, -17.973158 ], [ 11.802541, -17.894353 ], [ 11.784437, -17.840755 ], [ 11.783298, -17.816597 ], [ 11.769038, -17.781925 ], [ 11.771334, -17.757769 ], [ 11.762816, -17.728148 ], [ 11.762152, -17.691468 ], [ 11.747327, -17.647724 ], [ 11.745731, -17.613211 ], [ 11.737366, -17.584825 ], [ 11.743349, -17.479239 ], [ 11.739909, -17.45796 ], [ 11.746523, -17.435956 ], [ 11.74551, -17.416636 ], [ 11.748371, -17.390798 ], [ 11.757874, -17.375243 ], [ 11.752712, -17.34266 ], [ 11.755398, -17.324655 ], [ 11.756331, -17.318403 ], [ 11.750858, -17.252455 ], [ 11.769581, -17.254964 ], [ 11.792712, -17.272876 ], [ 11.799398, -17.268149 ], [ 11.809787, -17.267693 ], [ 11.818846, -17.26255 ], [ 11.83047, -17.243279 ], [ 11.837884, -17.236092 ], [ 11.844653, -17.23565 ], [ 11.850522, -17.241048 ], [ 11.856571, -17.240638 ], [ 11.860823, -17.234788 ], [ 11.869781, -17.232962 ], [ 11.882972, -17.225636 ], [ 11.894241, -17.209183 ], [ 11.927073, -17.193446 ], [ 11.942056, -17.182169 ], [ 11.956235, -17.181098 ], [ 11.963313, -17.175211 ], [ 11.974357, -17.176018 ], [ 11.996578, -17.170403 ], [ 12.022186, -17.160388 ], [ 12.034391, -17.151425 ], [ 12.058392, -17.155391 ], [ 12.069003, -17.151742 ], [ 12.079992, -17.142524 ], [ 12.103426, -17.160396 ], [ 12.11481, -17.157915 ], [ 12.132667, -17.165944 ], [ 12.156926, -17.160331 ], [ 12.161581, -17.161669 ], [ 12.172991, -17.174905 ], [ 12.176725, -17.176422 ], [ 12.178995, -17.181454 ], [ 12.179131, -17.1871 ], [ 12.184092, -17.195663 ], [ 12.194291, -17.197475 ], [ 12.2009, -17.209326 ], [ 12.20947, -17.21631 ], [ 12.228836, -17.223637 ], [ 12.235136, -17.234585 ], [ 12.251239, -17.239258 ], [ 12.26473, -17.232068 ], [ 12.284495, -17.240654 ], [ 12.296022, -17.233838 ], [ 12.308825, -17.234178 ], [ 12.318204, -17.228499 ], [ 12.328521, -17.228387 ], [ 12.351046, -17.219449 ], [ 12.363115, -17.230253 ], [ 12.36938, -17.23254 ], [ 12.373698, -17.227086 ], [ 12.391447, -17.216329 ], [ 12.397449, -17.207815 ], [ 12.423399, -17.208136 ], [ 12.435769, -17.222217 ], [ 12.433197, -17.238759 ], [ 12.438887, -17.246955 ], [ 12.437034, -17.257474 ], [ 12.445193, -17.263157 ], [ 12.45114, -17.254835 ], [ 12.461406, -17.256017 ], [ 12.472892, -17.253511 ], [ 12.479802, -17.242413 ], [ 12.495146, -17.247372 ], [ 12.506673, -17.245257 ], [ 12.523605, -17.247444 ], [ 12.532546, -17.243206 ], [ 12.540954, -17.246423 ], [ 12.545072, -17.240899 ], [ 12.546282, -17.239276 ], [ 12.563899, -17.242199 ], [ 12.579143, -17.228762 ], [ 12.596187, -17.234017 ], [ 12.604877, -17.231107 ], [ 12.60808, -17.225738 ], [ 12.606769, -17.21599 ], [ 12.612942, -17.208654 ], [ 12.626544, -17.205421 ], [ 12.634013, -17.1992 ], [ 12.644072, -17.196623 ], [ 12.649217, -17.189463 ], [ 12.674382, -17.173819 ], [ 12.682012, -17.175186 ], [ 12.698579, -17.169221 ], [ 12.712825, -17.171096 ], [ 12.71631, -17.159702 ], [ 12.733044, -17.152971 ], [ 12.738272, -17.145469 ], [ 12.758534, -17.139546 ], [ 12.779461, -17.122798 ], [ 12.804947, -17.114856 ], [ 12.81266, -17.098153 ], [ 12.822981, -17.086417 ], [ 12.837071, -17.085634 ], [ 12.846464, -17.076963 ], [ 12.870642, -17.066747 ], [ 12.873415, -17.047884 ], [ 12.892388, -17.043673 ], [ 12.915186, -17.021938 ], [ 12.9435, -17.019186 ], [ 12.946667, -17.0172 ], [ 12.946293, -17.010936 ], [ 12.962235, -17.008949 ], [ 12.967405, -16.991836 ], [ 12.977551, -16.986086 ], [ 12.983824, -16.982531 ], [ 13.017696, -16.981567 ], [ 13.029594, -16.976959 ], [ 13.038511, -16.980352 ], [ 13.047998, -16.98028 ], [ 13.06525, -16.973154 ], [ 13.094266, -16.97953 ], [ 13.105423, -16.973614 ], [ 13.128375, -16.967141 ], [ 13.167053, -16.963501 ], [ 13.178249, -16.972117 ], [ 13.187832, -16.969816 ], [ 13.198123, -16.973877 ], [ 13.198598, -16.983898 ], [ 13.201859, -16.988101 ], [ 13.221418, -16.985079 ], [ 13.232045, -16.986115 ], [ 13.245432, -16.998866 ], [ 13.257912, -16.993077 ], [ 13.275542, -16.997757 ], [ 13.296375, -16.989481 ], [ 13.327431, -16.983309 ], [ 13.353822, -16.974751 ], [ 13.380896, -16.983995 ], [ 13.397239, -16.996015 ], [ 13.42378, -16.999448 ], [ 13.444523, -17.009387 ], [ 13.461578, -17.010597 ], [ 13.478846, -17.026807 ], [ 13.49978, -17.06833 ], [ 13.521474, -17.091373 ], [ 13.522957, -17.106589 ], [ 13.518508, -17.118859 ], [ 13.508732, -17.125043 ], [ 13.510878, -17.132813 ], [ 13.516138, -17.137208 ], [ 13.543324, -17.147618 ], [ 13.594757, -17.181817 ], [ 13.599685, -17.185784 ], [ 13.60833, -17.189977 ], [ 13.616563, -17.19835 ], [ 13.636648, -17.207673 ], [ 13.650032, -17.224521 ], [ 13.65563, -17.227087 ], [ 13.661769, -17.232945 ], [ 13.67653, -17.242212 ], [ 13.680692, -17.246462 ], [ 13.689476, -17.247328 ], [ 13.692698, -17.245596 ], [ 13.696625, -17.246772 ], [ 13.709625, -17.259808 ], [ 13.718262, -17.265573 ], [ 13.725894, -17.269506 ], [ 13.731257, -17.267593 ], [ 13.742304, -17.272403 ], [ 13.763459, -17.288977 ], [ 13.774464, -17.292497 ], [ 13.77982, -17.296147 ], [ 13.784317, -17.304368 ], [ 13.799492, -17.309809 ], [ 13.815343, -17.322451 ], [ 13.820964, -17.324655 ], [ 13.824701, -17.326121 ], [ 13.83398, -17.327838 ], [ 13.852599, -17.3393 ], [ 13.861714, -17.342937 ], [ 13.869511, -17.343112 ], [ 13.890642, -17.360226 ], [ 13.899072, -17.361695 ], [ 13.901341, -17.369568 ], [ 13.91662, -17.3784 ], [ 13.915029, -17.385569 ], [ 13.921476, -17.388872 ], [ 13.927829, -17.39624 ], [ 13.92955, -17.39885 ], [ 13.929759, -17.404407 ], [ 13.926993, -17.408266 ], [ 13.930357, -17.415371 ], [ 13.938784, -17.418855 ], [ 13.955389, -17.432606 ], [ 13.963816, -17.432917 ], [ 13.977848, -17.427673 ], [ 13.981353, -17.428568 ], [ 13.986445, -17.433201 ], [ 13.994492, -17.432858 ], [ 13.998673, -17.430453 ], [ 14.003845, -17.421067 ], [ 14.01161, -17.415245 ], [ 14.016677, -17.4145 ], [ 14.024968, -17.417149 ], [ 14.028649, -17.418325 ], [ 14.036462, -17.422861 ], [ 14.039176, -17.422715 ], [ 14.042546, -17.419435 ], [ 14.048928, -17.424493 ], [ 14.051237, -17.428346 ], [ 14.053722, -17.429436 ], [ 14.060774, -17.428726 ], [ 14.07075, -17.433158 ], [ 14.082466, -17.433683 ], [ 14.10157, -17.43863 ], [ 14.104438, -17.437165 ], [ 14.108946, -17.42879 ], [ 14.115843, -17.423637 ], [ 14.122171, -17.431277 ], [ 14.133503, -17.431715 ], [ 14.151005, -17.427383 ], [ 14.162941, -17.417158 ], [ 14.2122, -17.409557 ], [ 14.218697, -17.397861 ], [ 14.216378, -17.38916 ], [ 14.220155, -17.388492 ], [ 14.602151, -17.388477 ], [ 18.416449, -17.388331 ], [ 18.441832, -17.411828 ], [ 18.450795, -17.420125 ], [ 18.462419, -17.44099 ], [ 18.473656, -17.448959 ], [ 18.480313, -17.482369 ], [ 18.496818, -17.487138 ], [ 18.501617, -17.493254 ], [ 18.514858, -17.500636 ], [ 18.521799, -17.514208 ], [ 18.535077, -17.522521 ], [ 18.536985, -17.541735 ], [ 18.546625, -17.557479 ], [ 18.559142, -17.569621 ], [ 18.563877, -17.580414 ], [ 18.573609, -17.583954 ], [ 18.596091, -17.583573 ], [ 18.606943, -17.596636 ], [ 18.617981, -17.601294 ], [ 18.619846, -17.607501 ], [ 18.617737, -17.623212 ], [ 18.623881, -17.633951 ], [ 18.639274, -17.642572 ], [ 18.687474, -17.684505 ], [ 18.735096, -17.717113 ], [ 18.744253, -17.736262 ], [ 18.756186, -17.73901 ], [ 18.774615, -17.736323 ], [ 18.790924, -17.765037 ], [ 18.803823, -17.769195 ], [ 18.836881, -17.773264 ], [ 18.840979, -17.777803 ], [ 18.843848, -17.788497 ], [ 18.859062, -17.800349 ], [ 18.868212, -17.804172 ], [ 18.880382, -17.802007 ], [ 18.900601, -17.817595 ], [ 18.92847, -17.82059 ], [ 18.948357, -17.817675 ], [ 18.968027, -17.82733 ], [ 18.982903, -17.828291 ], [ 18.996677, -17.825323 ], [ 19.013234, -17.831596 ], [ 19.033942, -17.834523 ], [ 19.104561, -17.836608 ], [ 19.119955, -17.833758 ], [ 19.123134, -17.827388 ], [ 19.121607, -17.818017 ], [ 19.13629, -17.808878 ], [ 19.146229, -17.808411 ], [ 19.167636, -17.816192 ], [ 19.1759, -17.807447 ], [ 19.190281, -17.816005 ], [ 19.227011, -17.826271 ], [ 19.24652, -17.815547 ], [ 19.254558, -17.821205 ], [ 19.269822, -17.820405 ], [ 19.27824, -17.823137 ], [ 19.295915, -17.836155 ], [ 19.305375, -17.831967 ], [ 19.313697, -17.835954 ], [ 19.328746, -17.834207 ], [ 19.336061, -17.841129 ], [ 19.333618, -17.845676 ], [ 19.326146, -17.84817 ], [ 19.329276, -17.852861 ], [ 19.342808, -17.85185 ], [ 19.354979, -17.855349 ], [ 19.361013, -17.848715 ], [ 19.368845, -17.846933 ], [ 19.378927, -17.850097 ], [ 19.390675, -17.860402 ], [ 19.412718, -17.867527 ], [ 19.43053, -17.869262 ], [ 19.459166, -17.863584 ], [ 19.484723, -17.868154 ], [ 19.494673, -17.86581 ], [ 19.504686, -17.869874 ], [ 19.516834, -17.866265 ], [ 19.550287, -17.87466 ], [ 19.572023, -17.871611 ], [ 19.58268, -17.858448 ], [ 19.614071, -17.866055 ], [ 19.622122, -17.86277 ], [ 19.632899, -17.851212 ], [ 19.671002, -17.849053 ], [ 19.684864, -17.856363 ], [ 19.694798, -17.873127 ], [ 19.706004, -17.883138 ], [ 19.710591, -17.882545 ], [ 19.710746, -17.874589 ], [ 19.72594, -17.877811 ], [ 19.741692, -17.904406 ], [ 19.753229, -17.909515 ], [ 19.763145, -17.906741 ], [ 19.772052, -17.893409 ], [ 19.788793, -17.877949 ], [ 19.811509, -17.86777 ], [ 19.822412, -17.868409 ], [ 19.84402, -17.878704 ], [ 19.865013, -17.882847 ], [ 19.898432, -17.876765 ], [ 19.904549, -17.872559 ], [ 19.910837, -17.862649 ], [ 19.926044, -17.862405 ], [ 19.951332, -17.872431 ], [ 19.968523, -17.887726 ], [ 19.999097, -17.887557 ], [ 20.026224, -17.904792 ], [ 20.038001, -17.901932 ], [ 20.058377, -17.885369 ], [ 20.067213, -17.890351 ], [ 20.080661, -17.890074 ], [ 20.085303, -17.891891 ], [ 20.088296, -17.893062 ], [ 20.098254, -17.904966 ], [ 20.109651, -17.910477 ], [ 20.162168, -17.889586 ], [ 20.172624, -17.8768 ], [ 20.22011, -17.885219 ], [ 20.231759, -17.8842 ], [ 20.245393, -17.89218 ], [ 20.249802, -17.890157 ], [ 20.255323, -17.87559 ], [ 20.263922, -17.867991 ], [ 20.276606, -17.865955 ], [ 20.294129, -17.876296 ], [ 20.303643, -17.86455 ], [ 20.311321, -17.861609 ], [ 20.322021, -17.861933 ], [ 20.324787, -17.863589 ], [ 20.349621, -17.878456 ], [ 20.370535, -17.896862 ], [ 20.383477, -17.894344 ], [ 20.403081, -17.898844 ], [ 20.41866, -17.908132 ], [ 20.438539, -17.906373 ], [ 20.455671, -17.914293 ], [ 20.463283, -17.921216 ], [ 20.464556, -17.935985 ], [ 20.475284, -17.950164 ], [ 20.50092, -17.95212 ], [ 20.515075, -17.968517 ], [ 20.541198, -17.982178 ], [ 20.563045, -17.98413 ], [ 20.57819, -17.976835 ], [ 20.58134, -17.984867 ], [ 20.584516, -17.985948 ], [ 20.590503, -17.974636 ], [ 20.597136, -17.976827 ], [ 20.605591, -17.975494 ], [ 20.612703, -17.983807 ], [ 20.618584, -17.976262 ], [ 20.630856, -17.979153 ], [ 20.644167, -17.977134 ], [ 20.659477, -17.985659 ], [ 20.677561, -17.991233 ], [ 20.683967, -18.001427 ], [ 20.698237, -18.009785 ], [ 20.713294, -18.007704 ], [ 20.720625, -18.012005 ], [ 20.746576, -18.00189 ], [ 20.749133, -18.004897 ], [ 20.749084, -18.019644 ], [ 20.763784, -18.016174 ], [ 20.774727, -18.021794 ], [ 20.789351, -18.024925 ], [ 20.805487, -18.03748 ], [ 20.83771, -18.037851 ], [ 20.865807, -18.029344 ], [ 20.868537, -18.024898 ], [ 20.861609, -18.017511 ], [ 20.871641, -18.000503 ], [ 20.887085, -17.999987 ], [ 20.895273, -17.99353 ], [ 20.905784, -17.994502 ], [ 20.924786, -17.985366 ], [ 20.93677, -17.97446 ], [ 20.956277, -17.965789 ], [ 20.968512, -17.963955 ], [ 20.977917, -17.958234 ], [ 21.000794, -17.962713 ], [ 21.013401, -17.95397 ], [ 21.053795, -17.951976 ], [ 21.067045, -17.944058 ], [ 21.081661, -17.948385 ], [ 21.098345, -17.948588 ], [ 21.116016, -17.934024 ], [ 21.131625, -17.936931 ], [ 21.159868, -17.932946 ], [ 21.19009, -17.935592 ], [ 21.213029, -17.929236 ], [ 21.223116, -17.933864 ], [ 21.234688, -17.94949 ], [ 21.255836, -17.962335 ], [ 21.276942, -17.965865 ], [ 21.306948, -17.976418 ], [ 21.320779, -17.988108 ], [ 21.362634, -17.984764 ], [ 21.372293, -17.993501 ], [ 21.371859, -18.004994 ], [ 21.374163, -18.009065 ], [ 21.400299, -18.010543 ], [ 21.415954, -18.016146 ], [ 21.426508, -18.023397 ], [ 22.057858, -17.900961 ], [ 22.075102, -17.897616 ], [ 22.857783, -17.745633 ], [ 23.42989, -17.634459 ], [ 23.466922, -17.62715 ], [ 23.925816, -17.53655 ], [ 24.246726, -17.473165 ], [ 24.259696, -17.486306 ], [ 24.26988, -17.490558 ], [ 24.2788, -17.484402 ], [ 24.288203, -17.483876 ], [ 24.311421, -17.486014 ], [ 24.328557, -17.491686 ], [ 24.388331, -17.469317 ], [ 24.431794, -17.479327 ], [ 24.454439, -17.479735 ], [ 24.473039, -17.485836 ], [ 24.509863, -17.511674 ], [ 24.521375, -17.514364 ], [ 24.534613, -17.508534 ], [ 24.546185, -17.509681 ], [ 24.552907, -17.532385 ], [ 24.56285, -17.538556 ], [ 24.587374, -17.533765 ], [ 24.608741, -17.534232 ], [ 24.615514, -17.529968 ], [ 24.620578, -17.517405 ], [ 24.625985, -17.513331 ], [ 24.63402, -17.513774 ], [ 24.644219, -17.518925 ], [ 24.649697, -17.511654 ], [ 24.665472, -17.51029 ], [ 24.678511, -17.501278 ], [ 24.691376, -17.501186 ], [ 24.703809, -17.497353 ], [ 24.729083, -17.500997 ], [ 24.741616, -17.510205 ], [ 24.751878, -17.513047 ], [ 24.762168, -17.51747 ], [ 24.780494, -17.509122 ], [ 24.785705, -17.514952 ], [ 24.790395, -17.533038 ], [ 24.799307, -17.53664 ], [ 24.828003, -17.520465 ], [ 24.854071, -17.529327 ], [ 24.879265, -17.527224 ], [ 24.905011, -17.553065 ], [ 24.914981, -17.553735 ], [ 24.939088, -17.547616 ], [ 24.943238, -17.548836 ], [ 24.945381, -17.55212 ], [ 24.942061, -17.562452 ], [ 24.944371, -17.566715 ], [ 24.958808, -17.565413 ], [ 24.974211, -17.554182 ], [ 24.980703, -17.555197 ], [ 24.986988, -17.562496 ], [ 24.99473, -17.586994 ], [ 25.00654, -17.596894 ], [ 25.020544, -17.594165 ], [ 25.027124, -17.584953 ], [ 25.046385, -17.590071 ], [ 25.050811, -17.601106 ], [ 25.042723, -17.619821 ], [ 25.043878, -17.627345 ], [ 25.047702, -17.630351 ], [ 25.052465, -17.629238 ], [ 25.056741, -17.615439 ], [ 25.064516, -17.615758 ], [ 25.067197, -17.630597 ], [ 25.081806, -17.641708 ], [ 25.085864, -17.658893 ], [ 25.104123, -17.667198 ], [ 25.107843, -17.679887 ], [ 25.100655, -17.695953 ], [ 25.094607, -17.702625 ], [ 25.095438, -17.707986 ], [ 25.10227, -17.708054 ], [ 25.121761, -17.693274 ], [ 25.131952, -17.694628 ], [ 25.134899, -17.709869 ], [ 25.148727, -17.705176 ], [ 25.157631, -17.715923 ], [ 25.160475, -17.725669 ], [ 25.155958, -17.73641 ], [ 25.15764, -17.742652 ], [ 25.172682, -17.74928 ], [ 25.188091, -17.766402 ], [ 25.195718, -17.769049 ], [ 25.226537, -17.768898 ], [ 25.262804, -17.791388 ], [ 25.255091, -17.794135 ], [ 25.221893, -17.79274 ], [ 25.176601, -17.779905 ], [ 25.160689, -17.77975 ], [ 25.144424, -17.805416 ], [ 25.128715, -17.803911 ], [ 25.114831, -17.825199 ], [ 25.079578, -17.837733 ], [ 25.066087, -17.839883 ], [ 25.055643, -17.836092 ], [ 25.051228, -17.831153 ], [ 25.052122, -17.828377 ], [ 25.058729, -17.827845 ], [ 25.061029, -17.823711 ], [ 25.059922, -17.813688 ], [ 25.054329, -17.808652 ], [ 25.044046, -17.812134 ], [ 25.013445, -17.83729 ], [ 25.006068, -17.836794 ], [ 25.001485, -17.83202 ], [ 25.00238, -17.827052 ], [ 25.008763, -17.822595 ], [ 25.005797, -17.817102 ], [ 24.998399, -17.818581 ], [ 24.993052, -17.82764 ], [ 24.978175, -17.825288 ], [ 24.975901, -17.820931 ], [ 24.97904, -17.813416 ], [ 24.968328, -17.809351 ], [ 24.96589, -17.804228 ], [ 24.968723, -17.80058 ], [ 24.979583, -17.796794 ], [ 24.980584, -17.792122 ], [ 24.97402, -17.788101 ], [ 24.9611, -17.788421 ], [ 24.950839, -17.802869 ], [ 24.934297, -17.817209 ], [ 24.92396, -17.812573 ], [ 24.911751, -17.811709 ], [ 24.900616, -17.828609 ], [ 24.89159, -17.827646 ], [ 24.855497, -17.847694 ], [ 24.825902, -17.849432 ], [ 24.798576, -17.872708 ], [ 24.772006, -17.873639 ], [ 24.772014, -17.883883 ], [ 24.755871, -17.894167 ], [ 24.744989, -17.895395 ], [ 24.73805, -17.890203 ], [ 24.733969, -17.8907 ], [ 24.725709, -17.902303 ], [ 24.724171, -17.913674 ], [ 24.709894, -17.922251 ], [ 24.700766, -17.93986 ], [ 24.681534, -17.94728 ], [ 24.66824, -17.948575 ], [ 24.661294, -17.961275 ], [ 24.647433, -17.976159 ], [ 24.630293, -17.981961 ], [ 24.626606, -18.014646 ], [ 24.603582, -18.033403 ], [ 24.597318, -18.048512 ], [ 24.582217, -18.058223 ], [ 24.575744, -18.07145 ], [ 24.562546, -18.066942 ], [ 24.545856, -18.069041 ], [ 24.540691, -18.06105 ], [ 24.532841, -18.061446 ], [ 24.526378, -18.05412 ], [ 24.518663, -18.060735 ], [ 24.505427, -18.061009 ], [ 24.500178, -18.047571 ], [ 24.484113, -18.037106 ], [ 24.484079, -18.015122 ], [ 24.471938, -18.00465 ], [ 24.468843, -17.992369 ], [ 24.456044, -17.983726 ], [ 24.45447, -17.964981 ], [ 24.448079, -17.969754 ], [ 24.424126, -17.95293 ], [ 24.418076, -17.957448 ], [ 24.40751, -17.951968 ], [ 24.3985, -17.957194 ], [ 24.392119, -17.954953 ], [ 24.387354, -17.948703 ], [ 24.369185, -17.949204 ], [ 24.352994, -17.962437 ], [ 24.313186, -18.015874 ], [ 24.290758, -18.039199 ], [ 24.26539, -18.020171 ], [ 24.239466, -18.026585 ], [ 24.212107, -18.021267 ], [ 24.191596, -18.028889 ], [ 24.173645, -18.046299 ], [ 24.160279, -18.067144 ], [ 24.122087, -18.102419 ], [ 24.074719, -18.133275 ], [ 24.048045, -18.134802 ], [ 24.017329, -18.145918 ], [ 24.005951, -18.15498 ], [ 24.001395, -18.165143 ], [ 23.987267, -18.173146 ], [ 23.978961, -18.185323 ], [ 23.958705, -18.188845 ], [ 23.940257, -18.20223 ], [ 23.931584, -18.205074 ], [ 23.925816, -18.215076 ], [ 23.920487, -18.224318 ], [ 23.912663, -18.231716 ], [ 23.913628, -18.25066 ], [ 23.908125, -18.25982 ], [ 23.875046, -18.273658 ], [ 23.842221, -18.302707 ], [ 23.828772, -18.309991 ], [ 23.814547, -18.322141 ], [ 23.800259, -18.34102 ], [ 23.796378, -18.356386 ], [ 23.791125, -18.364555 ], [ 23.767323, -18.376361 ], [ 23.755553, -18.40787 ], [ 23.748818, -18.41715 ], [ 23.723258, -18.425903 ], [ 23.714624, -18.434589 ], [ 23.697728, -18.432954 ], [ 23.691759, -18.435145 ], [ 23.681287, -18.442556 ], [ 23.675973, -18.456136 ], [ 23.660306, -18.473272 ], [ 23.632727, -18.488759 ], [ 23.585869, -18.477713 ], [ 23.572911, -18.468119 ], [ 23.572099, -18.445282 ], [ 23.563655, -18.433068 ], [ 23.565691, -18.407212 ], [ 23.556934, -18.391816 ], [ 23.549883, -18.37137 ], [ 23.559467, -18.354989 ], [ 23.55253, -18.3245 ], [ 23.546421, -18.316281 ], [ 23.524073, -18.304913 ], [ 23.521569, -18.295204 ], [ 23.524566, -18.276466 ], [ 23.517074, -18.269613 ], [ 23.503188, -18.263841 ], [ 23.498996, -18.243266 ], [ 23.478733, -18.242024 ], [ 23.468766, -18.245253 ], [ 23.466922, -18.243915 ], [ 23.453846, -18.234428 ], [ 23.449865, -18.219291 ], [ 23.444762, -18.213408 ], [ 23.433915, -18.21288 ], [ 23.424021, -18.205626 ], [ 23.419413, -18.21145 ], [ 23.410662, -18.204653 ], [ 23.398723, -18.206358 ], [ 23.403831, -18.187065 ], [ 23.402396, -18.175398 ], [ 23.385313, -18.162894 ], [ 23.379459, -18.137156 ], [ 23.369178, -18.131267 ], [ 23.359868, -18.11549 ], [ 23.351186, -18.108995 ], [ 23.344777, -18.091288 ], [ 23.32457, -18.08038 ], [ 23.321729, -18.058151 ], [ 23.332737, -18.052412 ], [ 23.321857, -18.047735 ], [ 23.319164, -18.038835 ], [ 23.309364, -18.036871 ], [ 23.309408, -18.031781 ], [ 23.315495, -18.022097 ], [ 23.309225, -18.012882 ], [ 23.307324, -18.003976 ], [ 23.290057, -18.000267 ], [ 23.097835, -18.000586 ], [ 22.857783, -18.044771 ], [ 22.075102, -18.189119 ], [ 22.057858, -18.192364 ], [ 21.462971, -18.304266 ], [ 20.999907, -18.319563 ], [ 20.999467, -20.142231 ], [ 20.999363, -20.566628 ], [ 20.999294, -20.850686 ], [ 20.999158, -21.407386 ], [ 20.999013, -21.997928 ], [ 20.993832, -21.999938 ], [ 20.877098, -22.000076 ], [ 20.085303, -22.001014 ], [ 19.999578, -22.001115 ], [ 19.999577, -22.020068 ], [ 19.999515, -23.778249 ], [ 19.999494, -24.353964 ], [ 19.99948, -24.751953 ] ] ], [ [ [ 15.186416, -27.003328 ], [ 15.190514, -27.001761 ], [ 15.193201, -27.009212 ], [ 15.195286, -27.009414 ], [ 15.199769, -27.017406 ], [ 15.2, -27.023094 ], [ 15.19829, -27.023332 ], [ 15.197091, -27.017878 ], [ 15.189802, -27.013629 ], [ 15.189374, -27.008235 ], [ 15.186416, -27.003328 ] ] ], [ [ [ 15.153024, -26.597977 ], [ 15.156359, -26.590859 ], [ 15.159357, -26.594544 ], [ 15.159038, -26.597148 ], [ 15.155722, -26.601586 ], [ 15.153477, -26.601488 ], [ 15.153024, -26.597977 ] ] ], [ [ [ 15.151237, -26.617136 ], [ 15.153527, -26.611711 ], [ 15.155825, -26.612226 ], [ 15.156412, -26.621519 ], [ 15.153109, -26.621264 ], [ 15.151237, -26.617136 ] ] ], [ [ [ 14.454345, -23.428801 ], [ 14.455986, -23.426565 ], [ 14.460093, -23.426202 ], [ 14.461677, -23.42821 ], [ 14.456772, -23.431032 ], [ 14.454345, -23.428801 ] ] ], [ [ [ 15.198767, -27.02766 ], [ 15.200334, -27.023627 ], [ 15.202592, -27.023877 ], [ 15.204537, -27.02947 ], [ 15.198767, -27.02766 ] ] ], [ [ [ 14.462119, -22.959889 ], [ 14.46455, -22.958586 ], [ 14.470137, -22.959343 ], [ 14.470825, -22.961392 ], [ 14.46777, -22.962154 ], [ 14.462119, -22.959889 ] ] ], [ [ [ 15.077656, -26.651473 ], [ 15.079012, -26.648626 ], [ 15.082179, -26.64903 ], [ 15.083086, -26.65147 ], [ 15.080374, -26.653911 ], [ 15.077656, -26.651473 ] ] ] ] } }
]
}
