{
"type": "FeatureCollection",
"name": "Nauru",
"crs": { "type": "name", "properties": { "name": "urn:ogc:def:crs:OGC:1.3:CRS84" } },
"features": [
{ "type": "Feature", "properties": { "id": "NR", "CNTR_ID": "NR", "CNTR_NAME": "Nauru-Naoero", "NAME_ENGL": "Nauru", "ISO3_CODE": "NRU", "FID": "NR" }, "geometry": { "type": "MultiPolygon", "coordinates": [ [ [ [ 166.909569, -0.532294 ], [ 166.911447, -0.52479 ], [ 166.915006, -0.52068 ], [ 166.921101, -0.51572 ], [ 166.931333, -0.50526 ], [ 166.934514, -0.502665 ], [ 166.944761, -0.503002 ], [ 166.949018, -0.504417 ], [ 166.956756, -0.511318 ], [ 166.958888, -0.51846 ], [ 166.958171, -0.521714 ], [ 166.952272, -0.529357 ], [ 166.95042, -0.535522 ], [ 166.950802, -0.543233 ], [ 166.949043, -0.546064 ], [ 166.937265, -0.552859 ], [ 166.932944, -0.554107 ], [ 166.925075, -0.553811 ], [ 166.916731, -0.548157 ], [ 166.913172, -0.544897 ], [ 166.909893, -0.537787 ], [ 166.909569, -0.532294 ] ] ] ] } }
]
}
