{
"type": "FeatureCollection",
"name": "Nepal",
"crs": { "type": "name", "properties": { "name": "urn:ogc:def:crs:OGC:1.3:CRS84" } },
"features": [
{ "type": "Feature", "properties": { "id": "NP", "CNTR_ID": "NP", "CNTR_NAME": "नेपाल", "NAME_ENGL": "Nepal", "ISO3_CODE": "NPL", "FID": "NP" }, "geometry": { "type": "MultiPolygon", "coordinates": [ [ [ [ 81.03692, 30.20276 ], [ 81.065594, 30.16167 ], [ 81.080565, 30.151075 ], [ 81.084534, 30.105091 ], [ 81.102172, 30.102505 ], [ 81.106375, 30.096789 ], [ 81.107075, 30.086639 ], [ 81.094955, 30.057982 ], [ 81.097011, 30.050939 ], [ 81.131455, 30.01886 ], [ 81.152066, 30.013529 ], [ 81.181958, 30.012478 ], [ 81.202887, 30.019933 ], [ 81.226053, 30.009531 ], [ 81.253196, 30.01627 ], [ 81.255078, 30.023872 ], [ 81.247245, 30.0364 ], [ 81.261274, 30.042927 ], [ 81.274279, 30.05504 ], [ 81.287329, 30.084444 ], [ 81.290426, 30.100225 ], [ 81.286546, 30.122709 ], [ 81.262891, 30.144292 ], [ 81.261768, 30.152181 ], [ 81.273351, 30.158045 ], [ 81.303012, 30.161252 ], [ 81.319113, 30.155339 ], [ 81.331988, 30.156101 ], [ 81.353922, 30.179671 ], [ 81.383777, 30.196833 ], [ 81.394768, 30.209383 ], [ 81.395168, 30.243249 ], [ 81.415947, 30.275566 ], [ 81.414474, 30.281353 ], [ 81.403516, 30.292581 ], [ 81.424022, 30.31004 ], [ 81.42013, 30.31498 ], [ 81.40071, 30.321517 ], [ 81.397894, 30.324824 ], [ 81.405285, 30.340789 ], [ 81.400865, 30.359897 ], [ 81.402607, 30.368904 ], [ 81.406848, 30.371856 ], [ 81.421502, 30.373018 ], [ 81.428072, 30.38034 ], [ 81.410406, 30.395868 ], [ 81.405489, 30.403972 ], [ 81.408679, 30.415762 ], [ 81.416142, 30.422064 ], [ 81.451545, 30.414479 ], [ 81.492843, 30.38486 ], [ 81.527575, 30.375766 ], [ 81.550581, 30.373345 ], [ 81.556671, 30.379384 ], [ 81.556003, 30.396295 ], [ 81.561364, 30.410454 ], [ 81.561204, 30.423269 ], [ 81.564172, 30.430323 ], [ 81.573899, 30.431972 ], [ 81.603256, 30.419212 ], [ 81.612947, 30.41789 ], [ 81.622181, 30.425195 ], [ 81.622089, 30.443934 ], [ 81.629501, 30.447762 ], [ 81.726566, 30.410392 ], [ 81.738906, 30.396809 ], [ 81.750551, 30.390663 ], [ 81.807096, 30.386054 ], [ 81.839192, 30.37628 ], [ 81.867182, 30.375457 ], [ 81.889941, 30.360648 ], [ 81.931425, 30.348987 ], [ 81.95527, 30.357278 ], [ 81.968591, 30.341414 ], [ 81.993371, 30.325468 ], [ 82.008409, 30.3292 ], [ 82.022522, 30.341073 ], [ 82.053145, 30.334426 ], [ 82.078848, 30.353745 ], [ 82.099253, 30.349074 ], [ 82.112466, 30.336636 ], [ 82.127772, 30.307647 ], [ 82.11844, 30.287785 ], [ 82.115782, 30.260025 ], [ 82.106943, 30.244361 ], [ 82.108186, 30.234834 ], [ 82.118237, 30.227066 ], [ 82.13282, 30.221821 ], [ 82.13926, 30.205932 ], [ 82.147262, 30.198395 ], [ 82.165092, 30.191186 ], [ 82.183372, 30.188001 ], [ 82.186953, 30.164595 ], [ 82.200813, 30.158393 ], [ 82.204687, 30.154161 ], [ 82.199859, 30.141895 ], [ 82.182926, 30.127238 ], [ 82.186198, 30.110766 ], [ 82.172487, 30.083953 ], [ 82.172606, 30.077366 ], [ 82.176156, 30.072215 ], [ 82.187266, 30.068955 ], [ 82.218973, 30.068228 ], [ 82.246294, 30.07308 ], [ 82.280022, 30.059928 ], [ 82.305813, 30.040852 ], [ 82.335443, 30.04577 ], [ 82.363831, 30.01891 ], [ 82.369268, 30.018932 ], [ 82.379695, 30.025422 ], [ 82.407019, 30.015283 ], [ 82.430137, 29.992321 ], [ 82.470362, 29.976511 ], [ 82.48787, 29.957565 ], [ 82.497273, 29.951397 ], [ 82.507747, 29.951725 ], [ 82.532282, 29.962235 ], [ 82.556013, 29.958882 ], [ 82.594423, 29.914596 ], [ 82.60877, 29.888415 ], [ 82.631951, 29.878444 ], [ 82.638929, 29.872312 ], [ 82.638037, 29.861366 ], [ 82.625228, 29.845293 ], [ 82.627265, 29.83731 ], [ 82.6455, 29.834957 ], [ 82.683038, 29.849805 ], [ 82.694752, 29.851145 ], [ 82.705031, 29.847359 ], [ 82.729569, 29.826139 ], [ 82.734288, 29.81613 ], [ 82.733522, 29.809725 ], [ 82.698496, 29.785703 ], [ 82.691169, 29.775117 ], [ 82.692677, 29.766956 ], [ 82.703005, 29.764062 ], [ 82.737897, 29.768478 ], [ 82.752105, 29.765082 ], [ 82.761513, 29.753277 ], [ 82.769656, 29.732853 ], [ 82.814819, 29.718727 ], [ 82.821414, 29.701421 ], [ 82.829275, 29.69197 ], [ 82.874429, 29.690613 ], [ 82.897537, 29.701246 ], [ 82.942171, 29.709946 ], [ 82.946187, 29.703316 ], [ 82.948023, 29.675853 ], [ 82.953783, 29.666985 ], [ 82.967061, 29.663157 ], [ 82.992651, 29.668303 ], [ 83.013905, 29.668325 ], [ 83.037739, 29.648344 ], [ 83.051604, 29.63081 ], [ 83.080146, 29.609894 ], [ 83.090443, 29.610067 ], [ 83.122609, 29.624862 ], [ 83.145046, 29.622605 ], [ 83.155229, 29.619681 ], [ 83.161778, 29.614586 ], [ 83.163232, 29.599953 ], [ 83.167936, 29.595105 ], [ 83.178193, 29.59535 ], [ 83.195066, 29.605817 ], [ 83.205612, 29.605474 ], [ 83.214404, 29.60146 ], [ 83.228267, 29.58374 ], [ 83.264253, 29.57274 ], [ 83.276199, 29.559607 ], [ 83.274031, 29.556046 ], [ 83.262822, 29.551583 ], [ 83.260785, 29.547722 ], [ 83.275217, 29.509484 ], [ 83.285002, 29.502864 ], [ 83.297753, 29.500203 ], [ 83.322834, 29.50387 ], [ 83.335869, 29.499153 ], [ 83.345876, 29.487691 ], [ 83.351327, 29.46273 ], [ 83.377141, 29.429517 ], [ 83.390445, 29.422878 ], [ 83.409415, 29.422258 ], [ 83.416052, 29.418277 ], [ 83.423631, 29.397624 ], [ 83.419195, 29.377755 ], [ 83.420032, 29.368475 ], [ 83.42472, 29.361346 ], [ 83.437683, 29.353085 ], [ 83.443845, 29.345519 ], [ 83.446609, 29.33383 ], [ 83.445542, 29.314089 ], [ 83.451816, 29.301206 ], [ 83.467991, 29.285268 ], [ 83.487915, 29.280937 ], [ 83.496377, 29.270412 ], [ 83.514311, 29.255848 ], [ 83.522242, 29.242471 ], [ 83.524574, 29.224967 ], [ 83.534201, 29.213109 ], [ 83.548422, 29.205789 ], [ 83.572172, 29.206049 ], [ 83.57717, 29.19051 ], [ 83.587747, 29.180754 ], [ 83.614805, 29.178647 ], [ 83.632663, 29.168596 ], [ 83.647745, 29.168707 ], [ 83.656702, 29.178209 ], [ 83.66678, 29.203213 ], [ 83.714314, 29.241397 ], [ 83.731906, 29.247735 ], [ 83.766563, 29.247362 ], [ 83.7934, 29.252361 ], [ 83.801135, 29.261055 ], [ 83.800191, 29.277274 ], [ 83.820466, 29.297648 ], [ 83.831674, 29.300794 ], [ 83.848589, 29.299324 ], [ 83.873081, 29.312294 ], [ 83.911271, 29.32597 ], [ 83.927221, 29.325216 ], [ 83.946899, 29.318233 ], [ 83.966076, 29.327208 ], [ 83.98376, 29.326851 ], [ 83.998351, 29.316682 ], [ 83.99893, 29.298774 ], [ 84.016392, 29.291491 ], [ 84.026435, 29.291893 ], [ 84.05076, 29.298889 ], [ 84.07194, 29.290439 ], [ 84.090806, 29.296156 ], [ 84.102998, 29.294722 ], [ 84.112043, 29.289731 ], [ 84.116763, 29.283809 ], [ 84.118644, 29.274143 ], [ 84.116469, 29.25831 ], [ 84.128248, 29.244212 ], [ 84.139697, 29.241839 ], [ 84.164086, 29.243975 ], [ 84.193966, 29.242403 ], [ 84.199158, 29.240096 ], [ 84.197006, 29.218671 ], [ 84.170242, 29.196673 ], [ 84.166007, 29.173641 ], [ 84.17606, 29.137227 ], [ 84.202171, 29.121159 ], [ 84.190424, 29.083571 ], [ 84.190634, 29.052938 ], [ 84.197221, 29.04954 ], [ 84.217994, 29.051354 ], [ 84.227256, 29.049877 ], [ 84.246085, 29.028092 ], [ 84.246731, 29.017707 ], [ 84.24131, 28.988242 ], [ 84.224146, 28.941385 ], [ 84.222076, 28.92316 ], [ 84.225627, 28.902584 ], [ 84.236723, 28.893768 ], [ 84.267955, 28.895244 ], [ 84.291344, 28.878243 ], [ 84.319965, 28.866354 ], [ 84.34289, 28.868553 ], [ 84.381755, 28.863757 ], [ 84.404143, 28.85545 ], [ 84.407897, 28.848098 ], [ 84.405933, 28.833706 ], [ 84.425624, 28.827546 ], [ 84.431449, 28.819511 ], [ 84.432749, 28.795448 ], [ 84.419864, 28.762799 ], [ 84.417624, 28.74775 ], [ 84.420961, 28.740323 ], [ 84.454103, 28.742315 ], [ 84.484515, 28.725877 ], [ 84.513419, 28.719353 ], [ 84.559108, 28.724483 ], [ 84.59896, 28.735639 ], [ 84.62834, 28.731462 ], [ 84.647588, 28.71831 ], [ 84.668263, 28.686469 ], [ 84.696206, 28.671967 ], [ 84.698586, 28.65922 ], [ 84.696507, 28.644726 ], [ 84.701658, 28.635605 ], [ 84.748006, 28.614932 ], [ 84.781348, 28.60903 ], [ 84.853779, 28.574548 ], [ 84.904239, 28.591752 ], [ 84.931134, 28.59234 ], [ 84.958414, 28.586687 ], [ 84.97856, 28.591325 ], [ 84.986783, 28.597951 ], [ 84.996567, 28.61763 ], [ 85.020547, 28.645186 ], [ 85.058077, 28.676057 ], [ 85.083581, 28.674751 ], [ 85.103475, 28.681615 ], [ 85.116379, 28.681071 ], [ 85.134376, 28.669881 ], [ 85.155162, 28.648966 ], [ 85.180341, 28.641503 ], [ 85.192367, 28.620827 ], [ 85.183404, 28.593326 ], [ 85.188058, 28.5653 ], [ 85.185452, 28.54825 ], [ 85.165506, 28.527455 ], [ 85.152823, 28.493678 ], [ 85.142783, 28.487253 ], [ 85.118999, 28.480445 ], [ 85.112035, 28.474058 ], [ 85.108152, 28.465887 ], [ 85.114138, 28.411487 ], [ 85.12421, 28.382919 ], [ 85.113414, 28.350763 ], [ 85.11759, 28.341441 ], [ 85.124146, 28.337032 ], [ 85.147396, 28.330132 ], [ 85.166988, 28.328231 ], [ 85.20708, 28.336447 ], [ 85.222726, 28.3222 ], [ 85.24506, 28.289208 ], [ 85.261789, 28.283036 ], [ 85.3011, 28.286222 ], [ 85.336737, 28.298144 ], [ 85.357725, 28.288763 ], [ 85.378993, 28.287069 ], [ 85.393115, 28.295561 ], [ 85.423049, 28.330755 ], [ 85.447605, 28.337275 ], [ 85.497251, 28.337039 ], [ 85.523138, 28.328879 ], [ 85.560098, 28.310422 ], [ 85.596183, 28.299723 ], [ 85.599946, 28.291738 ], [ 85.601907, 28.263338 ], [ 85.608814, 28.258718 ], [ 85.630787, 28.269882 ], [ 85.64613, 28.28667 ], [ 85.663759, 28.338069 ], [ 85.679414, 28.352751 ], [ 85.683564, 28.376853 ], [ 85.710637, 28.381601 ], [ 85.723784, 28.355115 ], [ 85.733168, 28.314305 ], [ 85.739802, 28.267216 ], [ 85.754131, 28.229241 ], [ 85.766068, 28.215417 ], [ 85.784841, 28.202357 ], [ 85.835108, 28.185363 ], [ 85.849643, 28.176265 ], [ 85.87321, 28.123905 ], [ 85.89271, 28.107681 ], [ 85.898855, 28.099359 ], [ 85.900333, 28.087369 ], [ 85.897917, 28.070131 ], [ 85.902385, 28.054916 ], [ 85.935155, 28.022718 ], [ 85.970956, 27.994992 ], [ 85.970828, 27.986347 ], [ 85.957863, 27.967488 ], [ 85.951411, 27.941274 ], [ 85.985269, 27.918071 ], [ 86.013564, 27.914721 ], [ 86.042316, 27.903101 ], [ 86.121141, 27.932563 ], [ 86.121421, 27.939657 ], [ 86.109246, 27.957737 ], [ 86.0995, 27.990436 ], [ 86.083122, 28.015516 ], [ 86.086096, 28.057585 ], [ 86.082374, 28.085257 ], [ 86.090861, 28.092345 ], [ 86.125141, 28.093947 ], [ 86.140653, 28.120312 ], [ 86.167393, 28.143239 ], [ 86.175613, 28.153648 ], [ 86.208824, 28.100537 ], [ 86.207647, 28.094073 ], [ 86.197566, 28.0824 ], [ 86.194423, 28.071846 ], [ 86.200065, 28.051361 ], [ 86.205175, 28.010942 ], [ 86.217749, 27.988358 ], [ 86.237164, 27.979334 ], [ 86.270016, 27.980037 ], [ 86.285285, 27.977855 ], [ 86.295829, 27.971051 ], [ 86.306778, 27.956612 ], [ 86.313972, 27.952223 ], [ 86.323041, 27.953516 ], [ 86.33447, 27.960928 ], [ 86.344174, 27.945954 ], [ 86.380011, 27.936296 ], [ 86.413662, 27.909937 ], [ 86.437468, 27.911313 ], [ 86.450198, 27.915712 ], [ 86.46335, 27.928588 ], [ 86.474731, 27.94578 ], [ 86.504118, 27.955982 ], [ 86.512058, 27.961336 ], [ 86.516594, 27.974862 ], [ 86.515243, 28.003097 ], [ 86.528056, 28.023373 ], [ 86.534868, 28.043453 ], [ 86.55162, 28.050992 ], [ 86.557898, 28.057123 ], [ 86.566605, 28.100839 ], [ 86.5701, 28.104715 ], [ 86.579941, 28.106229 ], [ 86.595044, 28.102173 ], [ 86.608978, 28.077908 ], [ 86.625967, 28.070853 ], [ 86.644935, 28.074819 ], [ 86.665144, 28.095433 ], [ 86.686951, 28.102434 ], [ 86.707177, 28.103504 ], [ 86.740643, 28.093778 ], [ 86.761406, 28.072417 ], [ 86.749961, 28.048047 ], [ 86.751654, 28.042696 ], [ 86.759366, 28.036191 ], [ 86.784183, 28.025744 ], [ 86.82035, 28.018488 ], [ 86.849831, 28.024803 ], [ 86.859783, 28.024431 ], [ 86.885747, 28.000666 ], [ 86.924313, 27.986826 ], [ 86.929003, 27.97904 ], [ 86.931385, 27.965069 ], [ 86.93646, 27.960233 ], [ 86.976214, 27.952923 ], [ 87.012702, 27.952694 ], [ 87.034963, 27.946826 ], [ 87.075658, 27.916056 ], [ 87.09007, 27.890519 ], [ 87.10362, 27.874424 ], [ 87.111369, 27.853886 ], [ 87.119049, 27.842649 ], [ 87.183039, 27.820775 ], [ 87.223499, 27.819085 ], [ 87.246743, 27.84069 ], [ 87.267813, 27.847718 ], [ 87.291954, 27.844318 ], [ 87.326565, 27.827658 ], [ 87.353935, 27.827714 ], [ 87.388039, 27.847111 ], [ 87.421436, 27.86075 ], [ 87.430738, 27.854954 ], [ 87.433322, 27.844508 ], [ 87.429121, 27.840584 ], [ 87.416313, 27.836727 ], [ 87.413787, 27.831769 ], [ 87.423376, 27.828403 ], [ 87.453655, 27.825686 ], [ 87.489321, 27.840435 ], [ 87.533584, 27.846451 ], [ 87.553287, 27.862432 ], [ 87.564997, 27.865804 ], [ 87.576293, 27.862824 ], [ 87.583429, 27.856599 ], [ 87.59364, 27.825743 ], [ 87.603916, 27.816611 ], [ 87.620272, 27.817095 ], [ 87.638457, 27.832785 ], [ 87.657635, 27.835745 ], [ 87.666133, 27.830834 ], [ 87.667047, 27.816328 ], [ 87.671205, 27.810481 ], [ 87.721706, 27.808301 ], [ 87.734021, 27.814408 ], [ 87.744394, 27.832754 ], [ 87.757417, 27.843594 ], [ 87.770849, 27.859822 ], [ 87.78248, 27.894034 ], [ 87.817905, 27.925463 ], [ 87.825184, 27.944264 ], [ 87.834132, 27.949526 ], [ 87.845767, 27.947682 ], [ 87.856136, 27.941641 ], [ 87.859344, 27.935019 ], [ 87.860097, 27.922043 ], [ 87.868122, 27.915361 ], [ 87.880911, 27.91292 ], [ 87.915607, 27.913712 ], [ 87.932157, 27.911516 ], [ 87.955325, 27.902942 ], [ 87.97995, 27.89006 ], [ 87.995268, 27.891183 ], [ 88.033647, 27.902526 ], [ 88.058413, 27.892339 ], [ 88.082561, 27.889985 ], [ 88.104975, 27.870719 ], [ 88.114153, 27.871665 ], [ 88.13508, 27.88193 ], [ 88.151703, 27.876102 ], [ 88.17695, 27.860053 ], [ 88.196797, 27.853006 ], [ 88.201149, 27.843254 ], [ 88.200258, 27.839483 ], [ 88.1748, 27.820564 ], [ 88.186008, 27.80814 ], [ 88.19502, 27.79003 ], [ 88.179959, 27.775318 ], [ 88.180741, 27.766142 ], [ 88.176565, 27.747611 ], [ 88.157144, 27.737044 ], [ 88.155827, 27.717792 ], [ 88.150634, 27.703811 ], [ 88.152677, 27.692013 ], [ 88.146421, 27.680771 ], [ 88.14458, 27.668274 ], [ 88.138822, 27.659088 ], [ 88.127637, 27.652283 ], [ 88.120872, 27.643165 ], [ 88.122246, 27.617897 ], [ 88.085835, 27.591034 ], [ 88.079808, 27.582648 ], [ 88.078502, 27.562017 ], [ 88.070381, 27.556362 ], [ 88.066505, 27.547262 ], [ 88.058177, 27.541777 ], [ 88.063892, 27.527659 ], [ 88.059342, 27.519193 ], [ 88.05834, 27.508305 ], [ 88.048524, 27.496398 ], [ 88.044925, 27.484925 ], [ 88.049302, 27.474587 ], [ 88.07103, 27.447046 ], [ 88.074328, 27.430718 ], [ 88.071336, 27.425302 ], [ 88.060116, 27.419455 ], [ 88.053894, 27.412474 ], [ 88.049201, 27.401582 ], [ 88.044242, 27.370693 ], [ 88.047019, 27.363456 ], [ 88.047609, 27.36192 ], [ 88.060518, 27.352313 ], [ 88.066173, 27.337506 ], [ 88.046606, 27.30977 ], [ 88.044505, 27.294305 ], [ 88.03509, 27.288226 ], [ 88.034518, 27.250498 ], [ 88.027677, 27.243803 ], [ 88.015683, 27.214552 ], [ 88.014912, 27.184532 ], [ 88.014762, 27.178681 ], [ 88.018934, 27.169538 ], [ 88.011719, 27.160291 ], [ 88.010073, 27.14462 ], [ 87.993303, 27.126449 ], [ 87.992424, 27.113833 ], [ 87.996728, 27.103809 ], [ 88.00901, 27.097823 ], [ 88.021565, 27.083202 ], [ 88.019882, 27.069678 ], [ 88.039402, 27.036391 ], [ 88.061858, 27.031063 ], [ 88.080521, 27.03332 ], [ 88.088237, 27.019892 ], [ 88.09201, 27.00569 ], [ 88.099611, 27.002723 ], [ 88.116739, 26.986817 ], [ 88.133753, 26.984345 ], [ 88.122536, 26.967826 ], [ 88.121175, 26.948436 ], [ 88.145152, 26.918882 ], [ 88.143405, 26.906561 ], [ 88.146124, 26.894135 ], [ 88.162463, 26.87892 ], [ 88.172448, 26.864478 ], [ 88.173144, 26.85608 ], [ 88.16846, 26.849276 ], [ 88.168744, 26.83873 ], [ 88.178763, 26.815528 ], [ 88.183031, 26.784776 ], [ 88.188281, 26.770668 ], [ 88.18838, 26.747663 ], [ 88.181301, 26.718469 ], [ 88.168483, 26.700086 ], [ 88.16494, 26.644864 ], [ 88.15891, 26.633392 ], [ 88.149961, 26.629942 ], [ 88.14261, 26.622442 ], [ 88.140834, 26.607843 ], [ 88.133648, 26.602128 ], [ 88.130856, 26.575987 ], [ 88.119534, 26.572505 ], [ 88.113843, 26.560473 ], [ 88.106881, 26.55575 ], [ 88.112496, 26.542712 ], [ 88.1086, 26.539002 ], [ 88.101418, 26.538843 ], [ 88.09937, 26.536409 ], [ 88.106114, 26.525846 ], [ 88.096212, 26.510918 ], [ 88.09747, 26.507058 ], [ 88.10456, 26.485287 ], [ 88.100441, 26.47834 ], [ 88.104335, 26.466372 ], [ 88.100919, 26.461974 ], [ 88.091191, 26.459492 ], [ 88.09657, 26.450554 ], [ 88.092749, 26.428811 ], [ 88.037262, 26.389507 ], [ 88.032507, 26.381587 ], [ 88.029906, 26.364857 ], [ 88.027296, 26.36304 ], [ 88.012019, 26.361025 ], [ 87.997507, 26.364802 ], [ 87.994249, 26.370428 ], [ 87.992523, 26.389582 ], [ 87.968792, 26.395868 ], [ 87.938992, 26.413563 ], [ 87.927986, 26.416381 ], [ 87.926119, 26.424834 ], [ 87.918286, 26.429429 ], [ 87.926506, 26.437789 ], [ 87.92624, 26.442516 ], [ 87.903664, 26.447416 ], [ 87.90856, 26.453236 ], [ 87.908521, 26.458296 ], [ 87.90027, 26.473695 ], [ 87.88974, 26.481448 ], [ 87.884207, 26.473354 ], [ 87.867667, 26.467462 ], [ 87.859285, 26.461151 ], [ 87.861433, 26.448895 ], [ 87.852567, 26.44235 ], [ 87.848582, 26.435429 ], [ 87.831608, 26.437882 ], [ 87.827628, 26.448192 ], [ 87.814431, 26.458137 ], [ 87.790655, 26.465528 ], [ 87.777984, 26.44566 ], [ 87.776856, 26.431801 ], [ 87.771253, 26.425491 ], [ 87.770317, 26.415678 ], [ 87.765299, 26.408296 ], [ 87.756426, 26.406754 ], [ 87.749953, 26.414421 ], [ 87.743243, 26.415431 ], [ 87.738486, 26.414443 ], [ 87.733849, 26.407485 ], [ 87.729625, 26.406974 ], [ 87.722599, 26.416573 ], [ 87.713079, 26.423791 ], [ 87.701188, 26.426561 ], [ 87.693531, 26.432686 ], [ 87.681822, 26.432489 ], [ 87.677495, 26.414398 ], [ 87.653719, 26.403359 ], [ 87.650296, 26.392663 ], [ 87.618195, 26.389886 ], [ 87.606486, 26.381288 ], [ 87.59086, 26.382407 ], [ 87.586888, 26.390897 ], [ 87.559905, 26.401856 ], [ 87.545678, 26.416634 ], [ 87.513638, 26.431115 ], [ 87.497182, 26.435981 ], [ 87.464007, 26.439099 ], [ 87.4267, 26.423385 ], [ 87.390243, 26.417835 ], [ 87.376749, 26.407553 ], [ 87.369233, 26.405597 ], [ 87.357474, 26.384256 ], [ 87.355117, 26.37051 ], [ 87.356863, 26.35944 ], [ 87.348773, 26.354371 ], [ 87.339364, 26.353668 ], [ 87.325365, 26.357611 ], [ 87.310805, 26.369855 ], [ 87.270416, 26.374986 ], [ 87.26793, 26.405132 ], [ 87.250283, 26.413153 ], [ 87.233267, 26.414004 ], [ 87.22325, 26.406314 ], [ 87.211407, 26.413448 ], [ 87.192434, 26.413673 ], [ 87.18585, 26.4055 ], [ 87.170548, 26.404421 ], [ 87.156655, 26.407408 ], [ 87.139634, 26.416297 ], [ 87.098347, 26.447307 ], [ 87.093097, 26.45497 ], [ 87.090323, 26.471924 ], [ 87.084575, 26.507058 ], [ 87.080369, 26.532758 ], [ 87.075068, 26.542712 ], [ 87.07277, 26.583984 ], [ 87.06829, 26.586424 ], [ 87.052157, 26.586577 ], [ 87.045636, 26.584739 ], [ 87.043646, 26.567523 ], [ 87.024926, 26.542712 ], [ 87.01631, 26.532667 ], [ 86.993946, 26.525167 ], [ 86.950733, 26.52388 ], [ 86.944704, 26.519189 ], [ 86.934476, 26.517759 ], [ 86.932061, 26.514669 ], [ 86.931439, 26.507058 ], [ 86.930337, 26.493576 ], [ 86.926472, 26.493289 ], [ 86.897056, 26.49042 ], [ 86.893296, 26.484783 ], [ 86.892626, 26.466294 ], [ 86.876123, 26.45801 ], [ 86.863862, 26.460146 ], [ 86.856785, 26.451557 ], [ 86.849828, 26.449763 ], [ 86.841599, 26.443479 ], [ 86.814358, 26.445983 ], [ 86.767979, 26.460433 ], [ 86.758107, 26.438609 ], [ 86.743587, 26.426947 ], [ 86.732865, 26.424975 ], [ 86.720004, 26.436626 ], [ 86.702924, 26.44057 ], [ 86.692823, 26.45203 ], [ 86.64808, 26.461598 ], [ 86.633834, 26.467103 ], [ 86.629785, 26.470753 ], [ 86.627491, 26.47872 ], [ 86.619961, 26.485385 ], [ 86.576039, 26.494078 ], [ 86.567103, 26.50253 ], [ 86.554133, 26.52603 ], [ 86.54041, 26.539191 ], [ 86.529712, 26.542454 ], [ 86.513799, 26.540953 ], [ 86.50106, 26.543654 ], [ 86.459674, 26.568143 ], [ 86.433482, 26.573461 ], [ 86.405149, 26.583628 ], [ 86.394922, 26.595589 ], [ 86.365312, 26.603971 ], [ 86.346819, 26.6016 ], [ 86.335865, 26.594343 ], [ 86.33551, 26.598579 ], [ 86.344224, 26.614242 ], [ 86.341385, 26.618929 ], [ 86.314677, 26.621233 ], [ 86.306123, 26.618833 ], [ 86.2949, 26.615684 ], [ 86.279014, 26.617737 ], [ 86.257582, 26.616678 ], [ 86.24496, 26.607205 ], [ 86.235381, 26.593846 ], [ 86.222337, 26.591593 ], [ 86.202507, 26.598588 ], [ 86.197188, 26.611787 ], [ 86.191962, 26.615541 ], [ 86.165754, 26.614678 ], [ 86.144174, 26.608284 ], [ 86.141775, 26.611771 ], [ 86.14232, 26.62169 ], [ 86.140653, 26.624217 ], [ 86.137661, 26.628752 ], [ 86.116037, 26.634511 ], [ 86.068128, 26.658773 ], [ 86.036106, 26.665368 ], [ 86.01227, 26.655627 ], [ 85.980687, 26.655729 ], [ 85.963985, 26.650134 ], [ 85.957237, 26.64363 ], [ 85.95577, 26.628933 ], [ 85.947959, 26.614865 ], [ 85.934181, 26.614085 ], [ 85.916759, 26.606676 ], [ 85.895949, 26.592555 ], [ 85.888629, 26.583809 ], [ 85.865309, 26.572332 ], [ 85.85562, 26.571354 ], [ 85.85363, 26.578435 ], [ 85.860549, 26.591646 ], [ 85.853639, 26.608851 ], [ 85.841835, 26.611262 ], [ 85.833578, 26.60543 ], [ 85.823839, 26.606038 ], [ 85.802309, 26.624767 ], [ 85.778208, 26.630768 ], [ 85.755924, 26.639943 ], [ 85.739923, 26.653382 ], [ 85.736637, 26.66511 ], [ 85.729228, 26.675958 ], [ 85.727439, 26.688649 ], [ 85.731387, 26.725357 ], [ 85.737197, 26.740353 ], [ 85.734044, 26.753795 ], [ 85.737836, 26.793155 ], [ 85.731811, 26.811562 ], [ 85.724941, 26.820868 ], [ 85.705201, 26.83555 ], [ 85.679291, 26.84661 ], [ 85.652298, 26.853079 ], [ 85.636727, 26.871897 ], [ 85.627083, 26.871372 ], [ 85.610742, 26.858225 ], [ 85.603937, 26.855416 ], [ 85.596723, 26.852438 ], [ 85.585372, 26.858571 ], [ 85.578763, 26.859023 ], [ 85.56815, 26.845311 ], [ 85.556406, 26.837153 ], [ 85.543948, 26.834567 ], [ 85.527178, 26.818061 ], [ 85.522687, 26.817238 ], [ 85.500559, 26.813186 ], [ 85.490852, 26.804182 ], [ 85.479007, 26.802917 ], [ 85.472076, 26.794611 ], [ 85.456391, 26.785908 ], [ 85.44889, 26.785725 ], [ 85.430778, 26.792472 ], [ 85.407072, 26.792035 ], [ 85.39487, 26.779948 ], [ 85.382514, 26.773613 ], [ 85.372206, 26.764083 ], [ 85.354371, 26.761338 ], [ 85.334344, 26.745248 ], [ 85.305566, 26.75305 ], [ 85.27581, 26.755769 ], [ 85.240307, 26.763361 ], [ 85.211777, 26.762171 ], [ 85.195746, 26.777408 ], [ 85.19164, 26.789528 ], [ 85.182415, 26.798399 ], [ 85.178663, 26.80845 ], [ 85.190803, 26.835739 ], [ 85.191578, 26.861335 ], [ 85.187562, 26.869562 ], [ 85.104687, 26.871753 ], [ 85.090124, 26.86739 ], [ 85.079231, 26.855563 ], [ 85.053293, 26.851799 ], [ 85.031585, 26.854997 ], [ 85.028037, 26.86254 ], [ 85.030796, 26.871029 ], [ 85.053214, 26.881556 ], [ 85.0553, 26.887501 ], [ 85.047402, 26.891615 ], [ 85.004913, 26.897631 ], [ 84.997526, 26.90316 ], [ 84.999304, 26.908212 ], [ 84.997226, 26.912627 ], [ 84.97306, 26.919132 ], [ 84.971238, 26.926341 ], [ 84.976505, 26.940772 ], [ 84.959509, 26.959703 ], [ 84.930589, 26.968181 ], [ 84.89206, 26.970886 ], [ 84.883844, 26.977628 ], [ 84.860103, 26.987419 ], [ 84.85337, 27.007321 ], [ 84.828731, 27.02105 ], [ 84.817731, 27.019009 ], [ 84.809514, 27.004684 ], [ 84.794708, 26.997695 ], [ 84.788443, 27.009075 ], [ 84.779874, 27.014573 ], [ 84.772516, 27.014051 ], [ 84.75504, 27.004378 ], [ 84.723443, 27.014959 ], [ 84.703272, 27.026359 ], [ 84.649315, 27.046348 ], [ 84.646743, 27.061821 ], [ 84.649465, 27.073201 ], [ 84.66672, 27.087612 ], [ 84.675542, 27.100108 ], [ 84.674253, 27.110893 ], [ 84.67901, 27.119247 ], [ 84.687316, 27.154122 ], [ 84.680054, 27.168836 ], [ 84.684309, 27.177354 ], [ 84.684635, 27.184532 ], [ 84.685331, 27.199824 ], [ 84.691958, 27.218911 ], [ 84.686579, 27.235169 ], [ 84.62416, 27.335123 ], [ 84.604713, 27.335932 ], [ 84.575367, 27.345035 ], [ 84.534894, 27.348801 ], [ 84.487768, 27.358902 ], [ 84.470137, 27.35553 ], [ 84.433381, 27.369419 ], [ 84.395716, 27.36888 ], [ 84.37904, 27.372825 ], [ 84.34199, 27.374719 ], [ 84.304944, 27.386691 ], [ 84.293247, 27.385312 ], [ 84.279478, 27.396643 ], [ 84.27518, 27.422719 ], [ 84.270267, 27.429922 ], [ 84.261323, 27.435834 ], [ 84.256012, 27.44604 ], [ 84.247736, 27.448569 ], [ 84.233432, 27.448177 ], [ 84.226602, 27.445322 ], [ 84.222467, 27.439682 ], [ 84.215909, 27.440284 ], [ 84.211612, 27.44485 ], [ 84.206842, 27.465739 ], [ 84.18197, 27.4724 ], [ 84.155651, 27.486201 ], [ 84.149938, 27.498176 ], [ 84.154671, 27.512104 ], [ 84.152079, 27.517102 ], [ 84.128506, 27.511347 ], [ 84.11679, 27.517981 ], [ 84.106007, 27.517424 ], [ 84.098989, 27.495098 ], [ 84.088229, 27.486843 ], [ 84.071284, 27.479619 ], [ 84.061755, 27.454854 ], [ 84.055911, 27.446922 ], [ 84.035674, 27.441845 ], [ 84.025627, 27.435712 ], [ 83.996158, 27.446394 ], [ 83.980857, 27.445106 ], [ 83.966177, 27.447088 ], [ 83.952976, 27.444502 ], [ 83.937644, 27.450979 ], [ 83.914947, 27.443467 ], [ 83.883161, 27.43832 ], [ 83.869572, 27.439569 ], [ 83.855405, 27.446156 ], [ 83.847525, 27.445191 ], [ 83.837818, 27.425323 ], [ 83.856818, 27.407841 ], [ 83.865992, 27.395457 ], [ 83.879055, 27.386283 ], [ 83.884082, 27.378025 ], [ 83.881307, 27.367495 ], [ 83.865239, 27.351918 ], [ 83.825661, 27.376811 ], [ 83.676897, 27.442691 ], [ 83.619921, 27.467912 ], [ 83.395905, 27.478109 ], [ 83.393477, 27.473013 ], [ 83.401045, 27.463774 ], [ 83.402573, 27.455591 ], [ 83.399539, 27.449408 ], [ 83.391186, 27.442827 ], [ 83.389866, 27.437967 ], [ 83.408079, 27.41341 ], [ 83.404905, 27.40258 ], [ 83.391171, 27.390317 ], [ 83.38724, 27.375082 ], [ 83.357104, 27.342278 ], [ 83.342882, 27.335814 ], [ 83.305328, 27.334324 ], [ 83.282136, 27.348172 ], [ 83.274862, 27.356507 ], [ 83.270638, 27.378021 ], [ 83.268802, 27.387369 ], [ 83.222025, 27.416655 ], [ 83.19804, 27.444477 ], [ 83.184415, 27.453763 ], [ 83.169786, 27.456358 ], [ 83.145243, 27.456401 ], [ 83.031722, 27.450356 ], [ 82.958639, 27.468702 ], [ 82.945773, 27.478905 ], [ 82.936957, 27.493841 ], [ 82.926485, 27.500426 ], [ 82.872758, 27.498001 ], [ 82.82933, 27.502149 ], [ 82.803401, 27.498452 ], [ 82.764502, 27.502636 ], [ 82.751995, 27.54905 ], [ 82.744831, 27.559469 ], [ 82.751096, 27.561888 ], [ 82.749356, 27.571198 ], [ 82.755162, 27.587455 ], [ 82.738092, 27.610176 ], [ 82.735754, 27.642787 ], [ 82.727605, 27.655712 ], [ 82.716637, 27.664891 ], [ 82.718839, 27.687318 ], [ 82.706556, 27.717098 ], [ 82.698547, 27.717927 ], [ 82.679485, 27.713869 ], [ 82.663196, 27.717855 ], [ 82.620788, 27.704941 ], [ 82.605418, 27.704449 ], [ 82.544606, 27.688175 ], [ 82.534672, 27.689074 ], [ 82.526827, 27.694906 ], [ 82.475422, 27.680907 ], [ 82.447068, 27.684303 ], [ 82.430727, 27.690848 ], [ 82.400334, 27.70875 ], [ 82.385494, 27.721829 ], [ 82.366989, 27.74451 ], [ 82.3387, 27.755827 ], [ 82.299996, 27.777 ], [ 82.254714, 27.810013 ], [ 82.228894, 27.82439 ], [ 82.204871, 27.844244 ], [ 82.161848, 27.86268 ], [ 82.144906, 27.859238 ], [ 82.123634, 27.865877 ], [ 82.065139, 27.921512 ], [ 81.999091, 27.926924 ], [ 81.972949, 27.925877 ], [ 81.933891, 27.881416 ], [ 81.925477, 27.859809 ], [ 81.904546, 27.854235 ], [ 81.891684, 27.856057 ], [ 81.834059, 27.897001 ], [ 81.800863, 27.908761 ], [ 81.70319, 27.985189 ], [ 81.651392, 27.992739 ], [ 81.636284, 27.997735 ], [ 81.617805, 28.010892 ], [ 81.583401, 28.028667 ], [ 81.572744, 28.03545 ], [ 81.552379, 28.04841 ], [ 81.485938, 28.081884 ], [ 81.481108, 28.092428 ], [ 81.481542, 28.119561 ], [ 81.456131, 28.137592 ], [ 81.446886, 28.158536 ], [ 81.433079, 28.167538 ], [ 81.414958, 28.172884 ], [ 81.378164, 28.175049 ], [ 81.370312, 28.167137 ], [ 81.374135, 28.153194 ], [ 81.36884, 28.145528 ], [ 81.325765, 28.136251 ], [ 81.319899, 28.137448 ], [ 81.318146, 28.143113 ], [ 81.330148, 28.147035 ], [ 81.335473, 28.156532 ], [ 81.332093, 28.159103 ], [ 81.319547, 28.15564 ], [ 81.308632, 28.163261 ], [ 81.328693, 28.170416 ], [ 81.327528, 28.17752 ], [ 81.314498, 28.184715 ], [ 81.310103, 28.190063 ], [ 81.311383, 28.192704 ], [ 81.317675, 28.191795 ], [ 81.320249, 28.196551 ], [ 81.273745, 28.242421 ], [ 81.238602, 28.283135 ], [ 81.232805, 28.327834 ], [ 81.215661, 28.354983 ], [ 81.201511, 28.369129 ], [ 81.165586, 28.380675 ], [ 81.121132, 28.386036 ], [ 81.087034, 28.398856 ], [ 81.063412, 28.401758 ], [ 81.042447, 28.411565 ], [ 81.033213, 28.404822 ], [ 81.02542, 28.41636 ], [ 81.033993, 28.427118 ], [ 81.03463, 28.432541 ], [ 81.030596, 28.436507 ], [ 81.020187, 28.437423 ], [ 81.012891, 28.451987 ], [ 81.00074, 28.452468 ], [ 80.990068, 28.444435 ], [ 80.975945, 28.439573 ], [ 80.96996, 28.444213 ], [ 80.974798, 28.455795 ], [ 80.957924, 28.451496 ], [ 80.935245, 28.462893 ], [ 80.92841, 28.461536 ], [ 80.911418, 28.464235 ], [ 80.904806, 28.47882 ], [ 80.907437, 28.494617 ], [ 80.896773, 28.504838 ], [ 80.879717, 28.509248 ], [ 80.872117, 28.508546 ], [ 80.865477, 28.504478 ], [ 80.862039, 28.495856 ], [ 80.859258, 28.495122 ], [ 80.846523, 28.499409 ], [ 80.817588, 28.519728 ], [ 80.792576, 28.525876 ], [ 80.787043, 28.532349 ], [ 80.786266, 28.543946 ], [ 80.771395, 28.552042 ], [ 80.764823, 28.567212 ], [ 80.74415, 28.573428 ], [ 80.73679, 28.569682 ], [ 80.724903, 28.573506 ], [ 80.712992, 28.57163 ], [ 80.697074, 28.583902 ], [ 80.694184, 28.600748 ], [ 80.680251, 28.606784 ], [ 80.67854, 28.61997 ], [ 80.667775, 28.639184 ], [ 80.653784, 28.634985 ], [ 80.641623, 28.640539 ], [ 80.630379, 28.638019 ], [ 80.614033, 28.639961 ], [ 80.607242, 28.648718 ], [ 80.597412, 28.650381 ], [ 80.594371, 28.655722 ], [ 80.584029, 28.661097 ], [ 80.586603, 28.679645 ], [ 80.569943, 28.68604 ], [ 80.549284, 28.688874 ], [ 80.541153, 28.687617 ], [ 80.512517, 28.670505 ], [ 80.507734, 28.664711 ], [ 80.522908, 28.583002 ], [ 80.529555, 28.571043 ], [ 80.525404, 28.558122 ], [ 80.519585, 28.554411 ], [ 80.505075, 28.569144 ], [ 80.484984, 28.581504 ], [ 80.473592, 28.584963 ], [ 80.463169, 28.614854 ], [ 80.452888, 28.624899 ], [ 80.422089, 28.63603 ], [ 80.398648, 28.630152 ], [ 80.376733, 28.629081 ], [ 80.363436, 28.636898 ], [ 80.356404, 28.645778 ], [ 80.330302, 28.661531 ], [ 80.322887, 28.688107 ], [ 80.316989, 28.697098 ], [ 80.296832, 28.708116 ], [ 80.278773, 28.707582 ], [ 80.261675, 28.721988 ], [ 80.260793, 28.725748 ], [ 80.266527, 28.739732 ], [ 80.256197, 28.752112 ], [ 80.237969, 28.756738 ], [ 80.220172, 28.755597 ], [ 80.211228, 28.758137 ], [ 80.177187, 28.778639 ], [ 80.138175, 28.814901 ], [ 80.122157, 28.825759 ], [ 80.080519, 28.825662 ], [ 80.075608, 28.829187 ], [ 80.06655, 28.843764 ], [ 80.061993, 28.917992 ], [ 80.096953, 28.972775 ], [ 80.120619, 28.978754 ], [ 80.132314, 29.002088 ], [ 80.128147, 29.015322 ], [ 80.129428, 29.035873 ], [ 80.143698, 29.076333 ], [ 80.141165, 29.087784 ], [ 80.145671, 29.100137 ], [ 80.169291, 29.124383 ], [ 80.183315, 29.133135 ], [ 80.200256, 29.12969 ], [ 80.214668, 29.12152 ], [ 80.234109, 29.1195 ], [ 80.254977, 29.135417 ], [ 80.26927, 29.142618 ], [ 80.269988, 29.149882 ], [ 80.260831, 29.166185 ], [ 80.25896, 29.187978 ], [ 80.246426, 29.205487 ], [ 80.251138, 29.218798 ], [ 80.255375, 29.218414 ], [ 80.263453, 29.209695 ], [ 80.276525, 29.206678 ], [ 80.287873, 29.198585 ], [ 80.293305, 29.199199 ], [ 80.297486, 29.20453 ], [ 80.294702, 29.23079 ], [ 80.302123, 29.244908 ], [ 80.306664, 29.283833 ], [ 80.316506, 29.299178 ], [ 80.317771, 29.314624 ], [ 80.311407, 29.322487 ], [ 80.297111, 29.328461 ], [ 80.283582, 29.344303 ], [ 80.275003, 29.367774 ], [ 80.278142, 29.380258 ], [ 80.275422, 29.391803 ], [ 80.246362, 29.410263 ], [ 80.246773, 29.442527 ], [ 80.250973, 29.447597 ], [ 80.270056, 29.451328 ], [ 80.276519, 29.456382 ], [ 80.287826, 29.451851 ], [ 80.300795, 29.453513 ], [ 80.300616, 29.458402 ], [ 80.291277, 29.470982 ], [ 80.29208, 29.479303 ], [ 80.300365, 29.487858 ], [ 80.313555, 29.487355 ], [ 80.319372, 29.49977 ], [ 80.334366, 29.509193 ], [ 80.346237, 29.513035 ], [ 80.356856, 29.529568 ], [ 80.347073, 29.541233 ], [ 80.347402, 29.550041 ], [ 80.361798, 29.555233 ], [ 80.367957, 29.561048 ], [ 80.379157, 29.563008 ], [ 80.410083, 29.595247 ], [ 80.409451, 29.61427 ], [ 80.413295, 29.622346 ], [ 80.420884, 29.629318 ], [ 80.420795, 29.638962 ], [ 80.414723, 29.652914 ], [ 80.394435, 29.663603 ], [ 80.392423, 29.666542 ], [ 80.387161, 29.674227 ], [ 80.375633, 29.717244 ], [ 80.368595, 29.72719 ], [ 80.368198, 29.74743 ], [ 80.383944, 29.750635 ], [ 80.389486, 29.757863 ], [ 80.39786, 29.760191 ], [ 80.410009, 29.788628 ], [ 80.435022, 29.802908 ], [ 80.447623, 29.798977 ], [ 80.4653, 29.800805 ], [ 80.481966, 29.795547 ], [ 80.494374, 29.796855 ], [ 80.500583, 29.812264 ], [ 80.508759, 29.821802 ], [ 80.524119, 29.828223 ], [ 80.539356, 29.845415 ], [ 80.55445, 29.852993 ], [ 80.559658, 29.864484 ], [ 80.55922, 29.872813 ], [ 80.573577, 29.892998 ], [ 80.572357, 29.905708 ], [ 80.575423, 29.921513 ], [ 80.585871, 29.94016 ], [ 80.600756, 29.955639 ], [ 80.630776, 29.963714 ], [ 80.653935, 29.955776 ], [ 80.674045, 29.956835 ], [ 80.71934, 29.998335 ], [ 80.748538, 30.010749 ], [ 80.756032, 30.019408 ], [ 80.763404, 30.041785 ], [ 80.773835, 30.056807 ], [ 80.787027, 30.061548 ], [ 80.792663, 30.069333 ], [ 80.807496, 30.081322 ], [ 80.817757, 30.095131 ], [ 80.828171, 30.100041 ], [ 80.840689, 30.100723 ], [ 80.844848, 30.105482 ], [ 80.847311, 30.115072 ], [ 80.87773, 30.129548 ], [ 80.879285, 30.136869 ], [ 80.874018, 30.149991 ], [ 80.870739, 30.175487 ], [ 80.886688, 30.189046 ], [ 80.90351, 30.215477 ], [ 80.921434, 30.215614 ], [ 80.924453, 30.203439 ], [ 80.9233, 30.191723 ], [ 80.946651, 30.181987 ], [ 80.960286, 30.181923 ], [ 80.99015, 30.192555 ], [ 81.03692, 30.20276 ] ] ] ] } }
]
}
