{
"type": "FeatureCollection",
"name": "New Caledonia",
"crs": { "type": "name", "properties": { "name": "urn:ogc:def:crs:OGC:1.3:CRS84" } },
"features": [
{ "type": "Feature", "properties": { "id": "NC", "CNTR_ID": "NC", "CNTR_NAME": "Nouvelle-Calédonie", "NAME_ENGL": "New Caledonia", "ISO3_CODE": "NCL", "FID": "NC" }, "geometry": { "type": "MultiPolygon", "coordinates": [ [ [ [ 166.360962, -21.689764 ], [ 166.377135, -21.69987 ], [ 166.396329, -21.70398 ], [ 166.410613, -21.703233 ], [ 166.422394, -21.718065 ], [ 166.429295, -21.726751 ], [ 166.444353, -21.733133 ], [ 166.461758, -21.745825 ], [ 166.471262, -21.757845 ], [ 166.475047, -21.775287 ], [ 166.484424, -21.790825 ], [ 166.504599, -21.804499 ], [ 166.510882, -21.814804 ], [ 166.525262, -21.822458 ], [ 166.548426, -21.84495 ], [ 166.552658, -21.851316 ], [ 166.561626, -21.864808 ], [ 166.569895, -21.876373 ], [ 166.610258, -21.902227 ], [ 166.622415, -21.918451 ], [ 166.640065, -21.924507 ], [ 166.646599, -21.933893 ], [ 166.66766, -21.939677 ], [ 166.669648, -21.92879 ], [ 166.67424, -21.926156 ], [ 166.713625, -21.952893 ], [ 166.715898, -21.960549 ], [ 166.701348, -21.964036 ], [ 166.690547, -21.974834 ], [ 166.680925, -21.976667 ], [ 166.684622, -21.982355 ], [ 166.718228, -21.980847 ], [ 166.747464, -21.988787 ], [ 166.756913, -21.988097 ], [ 166.760787, -22.010652 ], [ 166.807293, -22.019287 ], [ 166.825692, -22.02577 ], [ 166.863492, -22.031445 ], [ 166.885434, -22.043704 ], [ 166.910522, -22.069022 ], [ 166.937641, -22.086243 ], [ 166.945566, -22.097873 ], [ 166.949065, -22.119023 ], [ 166.946238, -22.142111 ], [ 166.939286, -22.153162 ], [ 166.956753, -22.162981 ], [ 166.988474, -22.199832 ], [ 167.003136, -22.222673 ], [ 167.021005, -22.235552 ], [ 167.028143, -22.244523 ], [ 167.025448, -22.246816 ], [ 167.018244, -22.242579 ], [ 167.014558, -22.245731 ], [ 167.01387, -22.25498 ], [ 167.020548, -22.279551 ], [ 167.004694, -22.331226 ], [ 166.992866, -22.339284 ], [ 166.981527, -22.340188 ], [ 166.973464, -22.348356 ], [ 166.958356, -22.344593 ], [ 166.954614, -22.352881 ], [ 166.955647, -22.365886 ], [ 166.923193, -22.39203 ], [ 166.904704, -22.391589 ], [ 166.898917, -22.388688 ], [ 166.911355, -22.38203 ], [ 166.915674, -22.375706 ], [ 166.892579, -22.371389 ], [ 166.897301, -22.359558 ], [ 166.880665, -22.34092 ], [ 166.873015, -22.324489 ], [ 166.860618, -22.325864 ], [ 166.858483, -22.333447 ], [ 166.861275, -22.344094 ], [ 166.853266, -22.345005 ], [ 166.842318, -22.321995 ], [ 166.85153, -22.30721 ], [ 166.850381, -22.305189 ], [ 166.843577, -22.305136 ], [ 166.826766, -22.322316 ], [ 166.82323, -22.338505 ], [ 166.815545, -22.346601 ], [ 166.81391, -22.352317 ], [ 166.81538, -22.35827 ], [ 166.831654, -22.366851 ], [ 166.839264, -22.378043 ], [ 166.839336, -22.383482 ], [ 166.833257, -22.384338 ], [ 166.82207, -22.377246 ], [ 166.810667, -22.374472 ], [ 166.800706, -22.377841 ], [ 166.787284, -22.38694 ], [ 166.773892, -22.38902 ], [ 166.743816, -22.381785 ], [ 166.73425, -22.374511 ], [ 166.734749, -22.361635 ], [ 166.752997, -22.347335 ], [ 166.753423, -22.344425 ], [ 166.745102, -22.341409 ], [ 166.72429, -22.342526 ], [ 166.707003, -22.336619 ], [ 166.702607, -22.33046 ], [ 166.70195, -22.315015 ], [ 166.693425, -22.320955 ], [ 166.686335, -22.320493 ], [ 166.683518, -22.308292 ], [ 166.654852, -22.295338 ], [ 166.630909, -22.277268 ], [ 166.624372, -22.27849 ], [ 166.610639, -22.288886 ], [ 166.593709, -22.290516 ], [ 166.561626, -22.269888 ], [ 166.558602, -22.267753 ], [ 166.557127, -22.259293 ], [ 166.561626, -22.253446 ], [ 166.564781, -22.249345 ], [ 166.563453, -22.24188 ], [ 166.561626, -22.241348 ], [ 166.552658, -22.239025 ], [ 166.534753, -22.238901 ], [ 166.518403, -22.232389 ], [ 166.498803, -22.231292 ], [ 166.49413, -22.244182 ], [ 166.494894, -22.253472 ], [ 166.476812, -22.262797 ], [ 166.47596, -22.280173 ], [ 166.462705, -22.284766 ], [ 166.457582, -22.306946 ], [ 166.45323, -22.30907 ], [ 166.447119, -22.307546 ], [ 166.437151, -22.298483 ], [ 166.439168, -22.286891 ], [ 166.434867, -22.272924 ], [ 166.401076, -22.268566 ], [ 166.393053, -22.263036 ], [ 166.389859, -22.25605 ], [ 166.392782, -22.251437 ], [ 166.415261, -22.264369 ], [ 166.434973, -22.262493 ], [ 166.432308, -22.251632 ], [ 166.434178, -22.245031 ], [ 166.421438, -22.243253 ], [ 166.408968, -22.233375 ], [ 166.43542, -22.22495 ], [ 166.45259, -22.224151 ], [ 166.456203, -22.221178 ], [ 166.452977, -22.214491 ], [ 166.43264, -22.204588 ], [ 166.430344, -22.187745 ], [ 166.423459, -22.181242 ], [ 166.389413, -22.171226 ], [ 166.377247, -22.171812 ], [ 166.373313, -22.177374 ], [ 166.376685, -22.191782 ], [ 166.374186, -22.199491 ], [ 166.37129, -22.200675 ], [ 166.369263, -22.195548 ], [ 166.364649, -22.196331 ], [ 166.360962, -22.199802 ], [ 166.357186, -22.203356 ], [ 166.351766, -22.216611 ], [ 166.341093, -22.221214 ], [ 166.336968, -22.215956 ], [ 166.34319, -22.207652 ], [ 166.344068, -22.198165 ], [ 166.327985, -22.189995 ], [ 166.323353, -22.177882 ], [ 166.315943, -22.169727 ], [ 166.331803, -22.158436 ], [ 166.357923, -22.163255 ], [ 166.358934, -22.160093 ], [ 166.353789, -22.155091 ], [ 166.330769, -22.145246 ], [ 166.304694, -22.156453 ], [ 166.291259, -22.151433 ], [ 166.284953, -22.163167 ], [ 166.266571, -22.166046 ], [ 166.250453, -22.160246 ], [ 166.241167, -22.151071 ], [ 166.224862, -22.143113 ], [ 166.212612, -22.122583 ], [ 166.199468, -22.113009 ], [ 166.173716, -22.102737 ], [ 166.159787, -22.087137 ], [ 166.1489, -22.086589 ], [ 166.13193, -22.096285 ], [ 166.122561, -22.092541 ], [ 166.120044, -22.087302 ], [ 166.1237, -22.075764 ], [ 166.123559, -22.064817 ], [ 166.142949, -22.071392 ], [ 166.154159, -22.07255 ], [ 166.158824, -22.070045 ], [ 166.159549, -22.049413 ], [ 166.147551, -22.036417 ], [ 166.161933, -22.033409 ], [ 166.165926, -22.029463 ], [ 166.162472, -22.014118 ], [ 166.146671, -22.012045 ], [ 166.147651, -22.00051 ], [ 166.139278, -21.995212 ], [ 166.13911, -21.981553 ], [ 166.145088, -21.964958 ], [ 166.134882, -21.951118 ], [ 166.119836, -21.943443 ], [ 166.100557, -21.946034 ], [ 166.085574, -21.939697 ], [ 166.074736, -21.94089 ], [ 166.073413, -21.934563 ], [ 166.079581, -21.926205 ], [ 166.079057, -21.919413 ], [ 166.067831, -21.910745 ], [ 166.06087, -21.901221 ], [ 166.056699, -21.89988 ], [ 166.04108, -21.902952 ], [ 166.033898, -21.911531 ], [ 166.032574, -21.937264 ], [ 166.02754, -21.93795 ], [ 166.020002, -21.933209 ], [ 166.01446, -21.934066 ], [ 166.009565, -21.939926 ], [ 166.009533, -21.948821 ], [ 166.004871, -21.951261 ], [ 165.991368, -21.941816 ], [ 165.980528, -21.942258 ], [ 165.976009, -21.930856 ], [ 165.946725, -21.920081 ], [ 165.926587, -21.889082 ], [ 165.904557, -21.871276 ], [ 165.859302, -21.85901 ], [ 165.842334, -21.86525 ], [ 165.831497, -21.866362 ], [ 165.820276, -21.867514 ], [ 165.812461, -21.859396 ], [ 165.811527, -21.851753 ], [ 165.829748, -21.850588 ], [ 165.831497, -21.846301 ], [ 165.832966, -21.842699 ], [ 165.831497, -21.840626 ], [ 165.818011, -21.821597 ], [ 165.796928, -21.809756 ], [ 165.800048, -21.791779 ], [ 165.792454, -21.788508 ], [ 165.784573, -21.790288 ], [ 165.780226, -21.795168 ], [ 165.778307, -21.806273 ], [ 165.769733, -21.806141 ], [ 165.76365, -21.799412 ], [ 165.757845, -21.785796 ], [ 165.769142, -21.777058 ], [ 165.77312, -21.768795 ], [ 165.739476, -21.752826 ], [ 165.731107, -21.744021 ], [ 165.732689, -21.741532 ], [ 165.743084, -21.740945 ], [ 165.751175, -21.737141 ], [ 165.776897, -21.74294 ], [ 165.790272, -21.736106 ], [ 165.791337, -21.727504 ], [ 165.786363, -21.727638 ], [ 165.780082, -21.735982 ], [ 165.775542, -21.737348 ], [ 165.754562, -21.715325 ], [ 165.72955, -21.706237 ], [ 165.718407, -21.707101 ], [ 165.714356, -21.711546 ], [ 165.715842, -21.731221 ], [ 165.704237, -21.74495 ], [ 165.705018, -21.754564 ], [ 165.69815, -21.756566 ], [ 165.69017, -21.74688 ], [ 165.676623, -21.741077 ], [ 165.681508, -21.727242 ], [ 165.677534, -21.715512 ], [ 165.670737, -21.709676 ], [ 165.664037, -21.709671 ], [ 165.65048, -21.721137 ], [ 165.627651, -21.730666 ], [ 165.62202, -21.715622 ], [ 165.612869, -21.71763 ], [ 165.602911, -21.713253 ], [ 165.586274, -21.713217 ], [ 165.574338, -21.708384 ], [ 165.555431, -21.705858 ], [ 165.533458, -21.698555 ], [ 165.515315, -21.68883 ], [ 165.473162, -21.652778 ], [ 165.471721, -21.64445 ], [ 165.481417, -21.63821 ], [ 165.483388, -21.630578 ], [ 165.464727, -21.630059 ], [ 165.461231, -21.62351 ], [ 165.461826, -21.616096 ], [ 165.455903, -21.608909 ], [ 165.44157, -21.607351 ], [ 165.433782, -21.615325 ], [ 165.426817, -21.618029 ], [ 165.398078, -21.613074 ], [ 165.31359, -21.580568 ], [ 165.281971, -21.568401 ], [ 165.262665, -21.54527 ], [ 165.261414, -21.535444 ], [ 165.265457, -21.524155 ], [ 165.260948, -21.512497 ], [ 165.236803, -21.511994 ], [ 165.230308, -21.499886 ], [ 165.21793, -21.499242 ], [ 165.210581, -21.491372 ], [ 165.167847, -21.476724 ], [ 165.144872, -21.454949 ], [ 165.139465, -21.445068 ], [ 165.135858, -21.427153 ], [ 165.126376, -21.418109 ], [ 165.119665, -21.407386 ], [ 165.116071, -21.401645 ], [ 165.12468, -21.391868 ], [ 165.13615, -21.38993 ], [ 165.141228, -21.386433 ], [ 165.144973, -21.370336 ], [ 165.141357, -21.363508 ], [ 165.134723, -21.36532 ], [ 165.123768, -21.377147 ], [ 165.112072, -21.371092 ], [ 165.099139, -21.371394 ], [ 165.082944, -21.387112 ], [ 165.074797, -21.388403 ], [ 165.057453, -21.372526 ], [ 165.054264, -21.360326 ], [ 165.05317, -21.358904 ], [ 165.042146, -21.34458 ], [ 165.028687, -21.337783 ], [ 165.017737, -21.342414 ], [ 165.011983, -21.341677 ], [ 165.011757, -21.337459 ], [ 165.017767, -21.328264 ], [ 165.014966, -21.316933 ], [ 165.008194, -21.318582 ], [ 164.998785, -21.331646 ], [ 164.988723, -21.329384 ], [ 164.986591, -21.322292 ], [ 164.989747, -21.310194 ], [ 164.98314, -21.298331 ], [ 164.977815, -21.302291 ], [ 164.973797, -21.315638 ], [ 164.976433, -21.33535 ], [ 164.972482, -21.345665 ], [ 164.95643, -21.354829 ], [ 164.946554, -21.352989 ], [ 164.939955, -21.342225 ], [ 164.943794, -21.331453 ], [ 164.940204, -21.320788 ], [ 164.947426, -21.304427 ], [ 164.946725, -21.295996 ], [ 164.924399, -21.283896 ], [ 164.912439, -21.277413 ], [ 164.892922, -21.245488 ], [ 164.867316, -21.224629 ], [ 164.859246, -21.207337 ], [ 164.843117, -21.188028 ], [ 164.840363, -21.175783 ], [ 164.832133, -21.170815 ], [ 164.83501, -21.153159 ], [ 164.856868, -21.138093 ], [ 164.86212, -21.122987 ], [ 164.859094, -21.115614 ], [ 164.861992, -21.108299 ], [ 164.860219, -21.104909 ], [ 164.851713, -21.104398 ], [ 164.835994, -21.110146 ], [ 164.826837, -21.101409 ], [ 164.829076, -21.091791 ], [ 164.83949, -21.084877 ], [ 164.831161, -21.072896 ], [ 164.831942, -21.05866 ], [ 164.811312, -21.052792 ], [ 164.789173, -21.057243 ], [ 164.778958, -21.063699 ], [ 164.773278, -21.078608 ], [ 164.765068, -21.082234 ], [ 164.754255, -21.074544 ], [ 164.753768, -21.060471 ], [ 164.746699, -21.052699 ], [ 164.737003, -21.051925 ], [ 164.72651, -21.060315 ], [ 164.718108, -21.059107 ], [ 164.697775, -21.041883 ], [ 164.690333, -21.02444 ], [ 164.678897, -21.016783 ], [ 164.671902, -21.006798 ], [ 164.674634, -21.00393 ], [ 164.684572, -21.004 ], [ 164.694197, -21.012292 ], [ 164.703038, -21.00636 ], [ 164.71012, -20.992559 ], [ 164.705888, -20.978428 ], [ 164.701428, -20.977254 ], [ 164.690485, -20.981844 ], [ 164.679292, -20.973422 ], [ 164.672363, -20.983952 ], [ 164.661905, -20.985137 ], [ 164.657508, -20.98278 ], [ 164.659118, -20.975116 ], [ 164.656768, -20.968668 ], [ 164.670464, -20.960255 ], [ 164.669781, -20.949888 ], [ 164.676647, -20.94087 ], [ 164.671147, -20.92397 ], [ 164.660062, -20.919744 ], [ 164.653432, -20.90227 ], [ 164.645714, -20.907016 ], [ 164.643098, -20.923959 ], [ 164.636499, -20.932603 ], [ 164.632552, -20.930312 ], [ 164.629362, -20.916953 ], [ 164.622115, -20.912741 ], [ 164.61308, -20.912712 ], [ 164.604859, -20.924181 ], [ 164.589287, -20.924789 ], [ 164.576976, -20.916265 ], [ 164.56886, -20.896598 ], [ 164.549644, -20.895636 ], [ 164.525908, -20.890186 ], [ 164.513999, -20.877865 ], [ 164.50545, -20.861037 ], [ 164.462194, -20.845262 ], [ 164.45867, -20.839095 ], [ 164.457555, -20.827794 ], [ 164.435899, -20.815538 ], [ 164.413076, -20.782308 ], [ 164.398798, -20.774298 ], [ 164.381221, -20.769129 ], [ 164.375178, -20.762251 ], [ 164.375178, -20.756349 ], [ 164.393818, -20.758332 ], [ 164.409388, -20.753189 ], [ 164.418606, -20.736507 ], [ 164.417454, -20.725227 ], [ 164.392424, -20.714371 ], [ 164.382226, -20.702844 ], [ 164.375178, -20.702356 ], [ 164.368871, -20.701919 ], [ 164.367273, -20.693597 ], [ 164.3703, -20.681896 ], [ 164.364645, -20.675651 ], [ 164.34864, -20.668593 ], [ 164.32433, -20.637377 ], [ 164.316894, -20.613303 ], [ 164.298854, -20.582395 ], [ 164.288263, -20.576578 ], [ 164.277336, -20.578467 ], [ 164.272421, -20.568875 ], [ 164.258253, -20.565342 ], [ 164.244321, -20.55573 ], [ 164.232347, -20.537849 ], [ 164.217408, -20.526721 ], [ 164.204151, -20.509478 ], [ 164.178518, -20.488473 ], [ 164.171528, -20.451809 ], [ 164.162038, -20.429423 ], [ 164.153956, -20.420533 ], [ 164.138486, -20.412201 ], [ 164.128031, -20.400099 ], [ 164.125024, -20.388844 ], [ 164.128913, -20.384427 ], [ 164.143599, -20.385608 ], [ 164.161967, -20.395631 ], [ 164.176048, -20.391076 ], [ 164.178928, -20.385282 ], [ 164.176642, -20.375238 ], [ 164.182052, -20.366047 ], [ 164.17461, -20.358316 ], [ 164.179452, -20.349948 ], [ 164.180457, -20.337739 ], [ 164.159751, -20.313419 ], [ 164.141412, -20.299998 ], [ 164.110444, -20.29417 ], [ 164.096689, -20.298919 ], [ 164.088403, -20.297708 ], [ 164.086434, -20.289004 ], [ 164.093356, -20.281299 ], [ 164.093083, -20.275575 ], [ 164.090135, -20.265453 ], [ 164.079107, -20.256209 ], [ 164.072381, -20.254834 ], [ 164.068079, -20.257913 ], [ 164.066127, -20.268243 ], [ 164.068961, -20.278897 ], [ 164.066066, -20.284756 ], [ 164.05694, -20.291896 ], [ 164.039685, -20.297599 ], [ 164.031625, -20.292278 ], [ 164.034349, -20.282498 ], [ 164.032789, -20.276814 ], [ 164.00515, -20.251717 ], [ 164.007097, -20.245124 ], [ 164.009402, -20.237318 ], [ 164.028195, -20.229261 ], [ 164.050663, -20.234207 ], [ 164.062365, -20.241502 ], [ 164.067261, -20.238491 ], [ 164.070109, -20.227705 ], [ 164.067315, -20.218052 ], [ 164.057278, -20.206638 ], [ 164.052098, -20.195635 ], [ 164.065741, -20.189632 ], [ 164.067084, -20.185377 ], [ 164.061653, -20.177508 ], [ 164.064873, -20.166441 ], [ 164.063404, -20.157096 ], [ 164.053, -20.142231 ], [ 164.037425, -20.127524 ], [ 164.028971, -20.129026 ], [ 164.024077, -20.142024 ], [ 164.018439, -20.141137 ], [ 164.014776, -20.129308 ], [ 164.024563, -20.119116 ], [ 164.026345, -20.112391 ], [ 164.01861, -20.100577 ], [ 164.006313, -20.108993 ], [ 163.999149, -20.104462 ], [ 163.999256, -20.099927 ], [ 164.007531, -20.101291 ], [ 164.013762, -20.093726 ], [ 164.012476, -20.086885 ], [ 164.004434, -20.082192 ], [ 164.004271, -20.079481 ], [ 164.031402, -20.081087 ], [ 164.052816, -20.102761 ], [ 164.062963, -20.105996 ], [ 164.08709, -20.142231 ], [ 164.096144, -20.155826 ], [ 164.131665, -20.177993 ], [ 164.166329, -20.231178 ], [ 164.181809, -20.242594 ], [ 164.190095, -20.245124 ], [ 164.205581, -20.24985 ], [ 164.218845, -20.263888 ], [ 164.231734, -20.269545 ], [ 164.256367, -20.287764 ], [ 164.285412, -20.283851 ], [ 164.293727, -20.279327 ], [ 164.303094, -20.283786 ], [ 164.303658, -20.269753 ], [ 164.308759, -20.265249 ], [ 164.305322, -20.245124 ], [ 164.303551, -20.234754 ], [ 164.310715, -20.231599 ], [ 164.320799, -20.232081 ], [ 164.340177, -20.237548 ], [ 164.35595, -20.237015 ], [ 164.366072, -20.245124 ], [ 164.375178, -20.252418 ], [ 164.379922, -20.256217 ], [ 164.412611, -20.262153 ], [ 164.428315, -20.27319 ], [ 164.452254, -20.280275 ], [ 164.473419, -20.292912 ], [ 164.489343, -20.297458 ], [ 164.519729, -20.316442 ], [ 164.580352, -20.371102 ], [ 164.596192, -20.40276 ], [ 164.617553, -20.410912 ], [ 164.628446, -20.419444 ], [ 164.646496, -20.425141 ], [ 164.674643, -20.451727 ], [ 164.703403, -20.468609 ], [ 164.73072, -20.476693 ], [ 164.754597, -20.493549 ], [ 164.767024, -20.512565 ], [ 164.792069, -20.536649 ], [ 164.801849, -20.551988 ], [ 164.818732, -20.563213 ], [ 164.84608, -20.607938 ], [ 164.859665, -20.623575 ], [ 164.867485, -20.628459 ], [ 164.882046, -20.630172 ], [ 164.91319, -20.646864 ], [ 164.924399, -20.657348 ], [ 164.933894, -20.66623 ], [ 164.936449, -20.678905 ], [ 164.948001, -20.688276 ], [ 164.953421, -20.688396 ], [ 164.96249, -20.681065 ], [ 164.974736, -20.681984 ], [ 165.024896, -20.712499 ], [ 165.037896, -20.723912 ], [ 165.049769, -20.72729 ], [ 165.05317, -20.729146 ], [ 165.07353, -20.740256 ], [ 165.110215, -20.752399 ], [ 165.161204, -20.757015 ], [ 165.175724, -20.766738 ], [ 165.183555, -20.76307 ], [ 165.196568, -20.762673 ], [ 165.217965, -20.768409 ], [ 165.22864, -20.778203 ], [ 165.242436, -20.77702 ], [ 165.261927, -20.798495 ], [ 165.261705, -20.809554 ], [ 165.256512, -20.81915 ], [ 165.258479, -20.834599 ], [ 165.255488, -20.850477 ], [ 165.257818, -20.866641 ], [ 165.266711, -20.870178 ], [ 165.284079, -20.887092 ], [ 165.296582, -20.89452 ], [ 165.305121, -20.909109 ], [ 165.326351, -20.930938 ], [ 165.336711, -20.934984 ], [ 165.391706, -20.937199 ], [ 165.402454, -20.940503 ], [ 165.412541, -20.94813 ], [ 165.413831, -20.958281 ], [ 165.401974, -20.98682 ], [ 165.405847, -21.006238 ], [ 165.39852, -21.015562 ], [ 165.403949, -21.030626 ], [ 165.407747, -21.055492 ], [ 165.422708, -21.075498 ], [ 165.449257, -21.099611 ], [ 165.479772, -21.112409 ], [ 165.496833, -21.131357 ], [ 165.524698, -21.130641 ], [ 165.538088, -21.132891 ], [ 165.545248, -21.13954 ], [ 165.540454, -21.147073 ], [ 165.540898, -21.150997 ], [ 165.560687, -21.149431 ], [ 165.579318, -21.16497 ], [ 165.60782, -21.181281 ], [ 165.61703, -21.200323 ], [ 165.615365, -21.204623 ], [ 165.610219, -21.206844 ], [ 165.592848, -21.203439 ], [ 165.558064, -21.18416 ], [ 165.553803, -21.184048 ], [ 165.552162, -21.186719 ], [ 165.596193, -21.220923 ], [ 165.618253, -21.254074 ], [ 165.633044, -21.267003 ], [ 165.669249, -21.284274 ], [ 165.695216, -21.287191 ], [ 165.71513, -21.301069 ], [ 165.739284, -21.296373 ], [ 165.745818, -21.298184 ], [ 165.761348, -21.302487 ], [ 165.779719, -21.320785 ], [ 165.791559, -21.341307 ], [ 165.803416, -21.346622 ], [ 165.805147, -21.353637 ], [ 165.819419, -21.353943 ], [ 165.827931, -21.358355 ], [ 165.821905, -21.381297 ], [ 165.830363, -21.393202 ], [ 165.835942, -21.407386 ], [ 165.844093, -21.414451 ], [ 165.848804, -21.411605 ], [ 165.847617, -21.407386 ], [ 165.838039, -21.388942 ], [ 165.842295, -21.378387 ], [ 165.847305, -21.374925 ], [ 165.861257, -21.374153 ], [ 165.865932, -21.381165 ], [ 165.8721, -21.389981 ], [ 165.877536, -21.391695 ], [ 165.880462, -21.370745 ], [ 165.877212, -21.359982 ], [ 165.884548, -21.359803 ], [ 165.910004, -21.394729 ], [ 165.915138, -21.407386 ], [ 165.916511, -21.41077 ], [ 165.931101, -21.422983 ], [ 165.946761, -21.444618 ], [ 165.946189, -21.461106 ], [ 165.931352, -21.459268 ], [ 165.925246, -21.463428 ], [ 165.977082, -21.498454 ], [ 165.975333, -21.502205 ], [ 165.963346, -21.502801 ], [ 165.972968, -21.516381 ], [ 165.987638, -21.507775 ], [ 165.991784, -21.494227 ], [ 165.989249, -21.483455 ], [ 165.980714, -21.47479 ], [ 165.982804, -21.466871 ], [ 165.972632, -21.462414 ], [ 165.966694, -21.453602 ], [ 165.965351, -21.437692 ], [ 165.955336, -21.416364 ], [ 165.959219, -21.407878 ], [ 165.976054, -21.413805 ], [ 165.995185, -21.435883 ], [ 166.014192, -21.451547 ], [ 166.034856, -21.462739 ], [ 166.054511, -21.4664 ], [ 166.053633, -21.471463 ], [ 166.04376, -21.479243 ], [ 166.042431, -21.483561 ], [ 166.057429, -21.488878 ], [ 166.063713, -21.494443 ], [ 166.068962, -21.519072 ], [ 166.067504, -21.528754 ], [ 166.082106, -21.527515 ], [ 166.09491, -21.515008 ], [ 166.118426, -21.517145 ], [ 166.171233, -21.56305 ], [ 166.196908, -21.577275 ], [ 166.200448, -21.580568 ], [ 166.211027, -21.590406 ], [ 166.216277, -21.595436 ], [ 166.239324, -21.612285 ], [ 166.256067, -21.61811 ], [ 166.266759, -21.62351 ], [ 166.301107, -21.640858 ], [ 166.30751, -21.644091 ], [ 166.320902, -21.646629 ], [ 166.332371, -21.643531 ], [ 166.353798, -21.653055 ], [ 166.356765, -21.657909 ], [ 166.353001, -21.661975 ], [ 166.333117, -21.65982 ], [ 166.343455, -21.678824 ], [ 166.360962, -21.689764 ] ] ], [ [ [ 167.012685, -20.918149 ], [ 167.018448, -20.913988 ], [ 167.042164, -20.912238 ], [ 167.053145, -20.922333 ], [ 167.073262, -20.928469 ], [ 167.079785, -20.926549 ], [ 167.08508, -20.924991 ], [ 167.094368, -20.916681 ], [ 167.118174, -20.910367 ], [ 167.134774, -20.891491 ], [ 167.141936, -20.872736 ], [ 167.16324, -20.856713 ], [ 167.166745, -20.842315 ], [ 167.177872, -20.829318 ], [ 167.179165, -20.814365 ], [ 167.169971, -20.794135 ], [ 167.157519, -20.793184 ], [ 167.150134, -20.78569 ], [ 167.139392, -20.781152 ], [ 167.128975, -20.78237 ], [ 167.122507, -20.788575 ], [ 167.112348, -20.772383 ], [ 167.101321, -20.765965 ], [ 167.079785, -20.769169 ], [ 167.062048, -20.771808 ], [ 167.040653, -20.778861 ], [ 167.035824, -20.77802 ], [ 167.03, -20.764616 ], [ 167.037538, -20.753015 ], [ 167.042401, -20.730687 ], [ 167.062543, -20.71666 ], [ 167.077165, -20.712033 ], [ 167.079785, -20.712303 ], [ 167.091675, -20.713289 ], [ 167.102496, -20.710923 ], [ 167.133992, -20.722805 ], [ 167.148155, -20.722043 ], [ 167.161681, -20.710845 ], [ 167.164703, -20.689055 ], [ 167.185546, -20.679576 ], [ 167.208229, -20.679597 ], [ 167.225574, -20.683713 ], [ 167.246767, -20.695245 ], [ 167.267748, -20.71358 ], [ 167.276101, -20.726087 ], [ 167.299227, -20.728186 ], [ 167.301389, -20.740858 ], [ 167.299278, -20.747675 ], [ 167.293201, -20.7544 ], [ 167.281262, -20.75862 ], [ 167.27628, -20.767797 ], [ 167.276404, -20.800804 ], [ 167.273246, -20.822315 ], [ 167.28826, -20.864183 ], [ 167.289551, -20.875156 ], [ 167.268995, -20.895668 ], [ 167.259658, -20.901349 ], [ 167.258423, -20.908901 ], [ 167.262313, -20.913609 ], [ 167.272007, -20.917753 ], [ 167.294531, -20.916131 ], [ 167.319579, -20.936129 ], [ 167.336944, -20.940163 ], [ 167.351111, -20.940073 ], [ 167.369995, -20.949576 ], [ 167.37899, -20.959902 ], [ 167.383299, -20.973218 ], [ 167.379307, -21.000701 ], [ 167.383532, -21.014462 ], [ 167.409207, -21.032527 ], [ 167.429372, -21.036085 ], [ 167.438868, -21.049877 ], [ 167.452207, -21.051662 ], [ 167.457615, -21.060756 ], [ 167.452936, -21.069372 ], [ 167.437721, -21.076965 ], [ 167.410696, -21.097701 ], [ 167.408155, -21.1102 ], [ 167.414286, -21.136887 ], [ 167.412218, -21.162634 ], [ 167.387113, -21.180689 ], [ 167.369788, -21.177125 ], [ 167.354253, -21.184939 ], [ 167.339453, -21.181285 ], [ 167.319774, -21.160329 ], [ 167.310769, -21.137522 ], [ 167.269075, -21.124066 ], [ 167.267119, -21.118672 ], [ 167.26936, -21.101733 ], [ 167.260721, -21.0922 ], [ 167.231286, -21.08875 ], [ 167.214121, -21.090473 ], [ 167.17774, -21.083787 ], [ 167.157563, -21.08528 ], [ 167.13729, -21.077201 ], [ 167.112266, -21.051168 ], [ 167.095624, -21.040537 ], [ 167.086525, -21.015278 ], [ 167.079785, -21.008362 ], [ 167.056432, -20.987704 ], [ 167.063023, -20.970363 ], [ 167.055366, -20.951821 ], [ 167.049581, -20.947209 ], [ 167.026152, -20.939289 ], [ 167.012685, -20.918149 ] ] ], [ [ [ 167.801093, -21.381907 ], [ 167.822015, -21.373662 ], [ 167.838896, -21.375275 ], [ 167.872792, -21.399142 ], [ 167.888847, -21.402347 ], [ 167.897079, -21.396666 ], [ 167.90107, -21.38082 ], [ 167.919508, -21.381192 ], [ 167.924128, -21.375889 ], [ 167.943834, -21.368171 ], [ 167.956662, -21.367506 ], [ 167.96932, -21.349949 ], [ 167.975418, -21.348347 ], [ 167.978733, -21.358084 ], [ 167.95843, -21.375228 ], [ 167.953557, -21.387543 ], [ 167.955289, -21.396118 ], [ 167.962317, -21.407386 ], [ 167.981516, -21.438164 ], [ 167.999007, -21.456831 ], [ 168.027137, -21.464551 ], [ 168.039696, -21.462792 ], [ 168.055698, -21.454548 ], [ 168.08598, -21.453678 ], [ 168.116047, -21.435498 ], [ 168.1334, -21.446854 ], [ 168.119248, -21.476205 ], [ 168.117838, -21.485431 ], [ 168.12345, -21.493559 ], [ 168.124275, -21.500022 ], [ 168.114097, -21.513073 ], [ 168.112112, -21.523365 ], [ 168.114233, -21.544101 ], [ 168.10829, -21.564441 ], [ 168.108157, -21.587244 ], [ 168.116073, -21.615933 ], [ 168.115078, -21.627282 ], [ 168.078205, -21.63398 ], [ 168.067792, -21.642569 ], [ 168.049291, -21.641516 ], [ 168.044382, -21.645996 ], [ 168.040549, -21.65731 ], [ 168.027137, -21.659944 ], [ 168.007494, -21.658367 ], [ 167.999529, -21.65484 ], [ 167.978721, -21.659439 ], [ 167.974445, -21.653175 ], [ 167.960216, -21.649357 ], [ 167.954015, -21.637331 ], [ 167.946835, -21.633909 ], [ 167.949122, -21.62351 ], [ 167.951403, -21.61649 ], [ 167.944556, -21.602939 ], [ 167.935011, -21.604587 ], [ 167.904288, -21.597029 ], [ 167.884364, -21.600128 ], [ 167.866103, -21.598634 ], [ 167.854001, -21.601399 ], [ 167.846311, -21.599169 ], [ 167.849086, -21.593018 ], [ 167.859412, -21.588725 ], [ 167.864323, -21.576004 ], [ 167.872747, -21.570973 ], [ 167.87833, -21.549725 ], [ 167.864231, -21.532849 ], [ 167.854093, -21.526528 ], [ 167.844735, -21.503792 ], [ 167.834821, -21.490224 ], [ 167.832873, -21.481749 ], [ 167.839268, -21.454283 ], [ 167.834435, -21.436188 ], [ 167.826761, -21.421828 ], [ 167.809792, -21.407386 ], [ 167.808081, -21.40593 ], [ 167.801093, -21.381907 ] ] ], [ [ [ 167.415228, -22.605007 ], [ 167.42257, -22.596693 ], [ 167.423985, -22.590909 ], [ 167.418258, -22.574222 ], [ 167.416737, -22.556452 ], [ 167.429116, -22.547512 ], [ 167.431167, -22.53901 ], [ 167.440897, -22.542858 ], [ 167.446151, -22.536795 ], [ 167.454918, -22.539168 ], [ 167.493587, -22.55809 ], [ 167.508988, -22.557574 ], [ 167.514539, -22.567483 ], [ 167.517305, -22.563395 ], [ 167.519742, -22.566828 ], [ 167.516117, -22.574793 ], [ 167.526892, -22.577295 ], [ 167.531186, -22.5852 ], [ 167.543705, -22.594475 ], [ 167.556955, -22.618216 ], [ 167.551637, -22.64238 ], [ 167.544401, -22.6459 ], [ 167.545316, -22.632671 ], [ 167.538731, -22.630002 ], [ 167.536594, -22.625017 ], [ 167.52986, -22.620139 ], [ 167.533355, -22.605937 ], [ 167.531001, -22.600934 ], [ 167.523068, -22.604999 ], [ 167.518155, -22.61607 ], [ 167.515712, -22.634607 ], [ 167.523312, -22.649283 ], [ 167.530126, -22.645648 ], [ 167.54773, -22.655062 ], [ 167.555969, -22.668765 ], [ 167.545357, -22.693449 ], [ 167.511147, -22.691691 ], [ 167.50639, -22.689153 ], [ 167.514523, -22.68485 ], [ 167.529711, -22.687082 ], [ 167.534453, -22.685556 ], [ 167.551079, -22.674223 ], [ 167.550647, -22.668777 ], [ 167.54588, -22.665256 ], [ 167.520166, -22.676158 ], [ 167.513064, -22.668332 ], [ 167.518456, -22.663555 ], [ 167.517953, -22.657267 ], [ 167.509143, -22.659081 ], [ 167.502259, -22.669645 ], [ 167.491163, -22.674569 ], [ 167.479308, -22.673874 ], [ 167.454918, -22.666282 ], [ 167.447792, -22.667302 ], [ 167.439888, -22.654608 ], [ 167.428717, -22.649393 ], [ 167.420962, -22.650071 ], [ 167.419079, -22.637613 ], [ 167.428038, -22.630057 ], [ 167.422901, -22.624307 ], [ 167.423561, -22.617371 ], [ 167.415228, -22.605007 ] ] ], [ [ [ 166.475827, -20.697642 ], [ 166.49594, -20.687106 ], [ 166.526028, -20.660626 ], [ 166.546251, -20.634302 ], [ 166.552658, -20.620498 ], [ 166.555992, -20.613314 ], [ 166.560095, -20.593515 ], [ 166.561171, -20.566628 ], [ 166.561626, -20.554428 ], [ 166.573538, -20.516804 ], [ 166.591685, -20.485901 ], [ 166.59497, -20.455842 ], [ 166.589322, -20.438369 ], [ 166.578891, -20.427615 ], [ 166.565898, -20.420631 ], [ 166.571641, -20.411399 ], [ 166.566092, -20.406287 ], [ 166.561626, -20.416585 ], [ 166.555744, -20.419344 ], [ 166.552918, -20.417418 ], [ 166.552658, -20.41529 ], [ 166.551601, -20.406386 ], [ 166.552658, -20.405034 ], [ 166.561626, -20.401565 ], [ 166.563435, -20.400865 ], [ 166.575893, -20.400533 ], [ 166.579713, -20.402908 ], [ 166.581432, -20.399028 ], [ 166.586126, -20.401246 ], [ 166.587017, -20.394126 ], [ 166.595969, -20.389569 ], [ 166.608231, -20.395088 ], [ 166.627411, -20.430392 ], [ 166.664024, -20.45665 ], [ 166.667112, -20.465106 ], [ 166.659269, -20.473067 ], [ 166.652048, -20.478013 ], [ 166.650199, -20.477324 ], [ 166.648661, -20.473067 ], [ 166.645297, -20.468519 ], [ 166.639836, -20.466336 ], [ 166.606995, -20.473067 ], [ 166.60328, -20.486878 ], [ 166.581829, -20.509739 ], [ 166.576519, -20.520928 ], [ 166.581436, -20.536215 ], [ 166.571861, -20.546907 ], [ 166.575566, -20.566628 ], [ 166.570018, -20.584676 ], [ 166.576983, -20.600091 ], [ 166.589106, -20.602876 ], [ 166.614926, -20.596357 ], [ 166.616702, -20.59817 ], [ 166.608913, -20.615487 ], [ 166.596432, -20.629708 ], [ 166.592142, -20.645854 ], [ 166.580175, -20.662576 ], [ 166.568571, -20.685883 ], [ 166.561626, -20.688659 ], [ 166.552658, -20.692242 ], [ 166.537923, -20.69813 ], [ 166.525618, -20.698225 ], [ 166.50443, -20.705734 ], [ 166.48438, -20.705569 ], [ 166.475827, -20.697642 ] ] ], [ [ [ 163.622475, -19.623546 ], [ 163.623621, -19.622039 ], [ 163.633321, -19.625945 ], [ 163.641488, -19.639907 ], [ 163.644301, -19.642856 ], [ 163.644966, -19.646368 ], [ 163.649401, -19.652064 ], [ 163.654116, -19.656732 ], [ 163.658414, -19.662685 ], [ 163.660138, -19.667845 ], [ 163.663383, -19.669671 ], [ 163.665508, -19.675607 ], [ 163.667406, -19.676136 ], [ 163.668452, -19.681035 ], [ 163.671138, -19.684916 ], [ 163.673312, -19.684932 ], [ 163.674207, -19.69163 ], [ 163.674526, -19.702444 ], [ 163.675464, -19.703995 ], [ 163.674592, -19.710938 ], [ 163.6759, -19.717125 ], [ 163.673289, -19.72071 ], [ 163.673127, -19.723797 ], [ 163.676215, -19.728453 ], [ 163.681553, -19.729028 ], [ 163.684346, -19.731718 ], [ 163.684898, -19.734918 ], [ 163.688847, -19.738912 ], [ 163.693954, -19.740624 ], [ 163.699183, -19.738506 ], [ 163.700693, -19.746678 ], [ 163.705174, -19.756046 ], [ 163.704378, -19.760824 ], [ 163.704957, -19.765846 ], [ 163.70377, -19.769291 ], [ 163.695669, -19.770333 ], [ 163.691635, -19.769285 ], [ 163.689583, -19.766168 ], [ 163.683662, -19.766857 ], [ 163.680441, -19.76989 ], [ 163.679287, -19.773906 ], [ 163.680093, -19.77649 ], [ 163.678532, -19.780168 ], [ 163.678968, -19.787256 ], [ 163.675729, -19.787264 ], [ 163.675617, -19.784304 ], [ 163.671425, -19.778997 ], [ 163.67309, -19.777593 ], [ 163.67327, -19.772189 ], [ 163.670985, -19.769083 ], [ 163.664078, -19.765943 ], [ 163.664101, -19.763112 ], [ 163.66034, -19.757678 ], [ 163.653975, -19.754928 ], [ 163.652502, -19.752214 ], [ 163.653365, -19.746558 ], [ 163.652627, -19.737286 ], [ 163.642646, -19.728202 ], [ 163.640123, -19.721233 ], [ 163.643956, -19.717916 ], [ 163.646027, -19.714071 ], [ 163.644823, -19.711874 ], [ 163.635305, -19.709518 ], [ 163.635234, -19.704723 ], [ 163.632302, -19.698008 ], [ 163.630816, -19.696967 ], [ 163.631807, -19.692342 ], [ 163.630623, -19.6877 ], [ 163.638595, -19.67695 ], [ 163.643493, -19.676215 ], [ 163.646662, -19.670833 ], [ 163.645041, -19.669791 ], [ 163.641028, -19.662297 ], [ 163.64188, -19.657927 ], [ 163.639378, -19.648642 ], [ 163.635218, -19.642433 ], [ 163.629546, -19.638529 ], [ 163.627006, -19.633747 ], [ 163.623896, -19.632051 ], [ 163.622475, -19.623546 ] ] ], [ [ [ 166.773023, -22.44137 ], [ 166.785188, -22.432228 ], [ 166.784436, -22.418294 ], [ 166.777148, -22.408096 ], [ 166.78706, -22.399006 ], [ 166.802092, -22.406953 ], [ 166.805111, -22.404884 ], [ 166.806193, -22.396975 ], [ 166.812027, -22.393626 ], [ 166.837551, -22.397158 ], [ 166.843016, -22.402429 ], [ 166.847153, -22.416106 ], [ 166.841953, -22.422372 ], [ 166.84169, -22.431996 ], [ 166.828394, -22.42887 ], [ 166.82386, -22.43087 ], [ 166.818836, -22.438792 ], [ 166.805376, -22.435402 ], [ 166.800898, -22.437596 ], [ 166.800868, -22.441245 ], [ 166.8108, -22.448832 ], [ 166.818179, -22.446147 ], [ 166.831853, -22.44745 ], [ 166.831688, -22.452138 ], [ 166.817638, -22.465757 ], [ 166.810638, -22.46725 ], [ 166.804617, -22.461912 ], [ 166.78706, -22.461717 ], [ 166.779969, -22.460557 ], [ 166.780964, -22.455306 ], [ 166.773023, -22.44137 ] ] ], [ [ [ 164.155984, -20.084703 ], [ 164.1612, -20.082845 ], [ 164.163229, -20.080864 ], [ 164.165414, -20.073986 ], [ 164.161647, -20.069804 ], [ 164.16452, -20.067501 ], [ 164.162233, -20.062086 ], [ 164.164556, -20.058914 ], [ 164.163915, -20.054506 ], [ 164.164776, -20.050669 ], [ 164.166785, -20.050274 ], [ 164.170166, -20.055433 ], [ 164.170136, -20.061094 ], [ 164.17216, -20.064706 ], [ 164.176498, -20.068587 ], [ 164.182894, -20.069389 ], [ 164.182302, -20.078393 ], [ 164.194102, -20.087969 ], [ 164.196523, -20.094157 ], [ 164.201409, -20.097525 ], [ 164.208479, -20.10013 ], [ 164.213078, -20.106584 ], [ 164.216334, -20.109172 ], [ 164.216033, -20.114833 ], [ 164.218751, -20.116131 ], [ 164.219395, -20.123597 ], [ 164.22198, -20.124381 ], [ 164.225094, -20.128255 ], [ 164.228461, -20.136247 ], [ 164.231177, -20.138061 ], [ 164.231853, -20.142231 ], [ 164.236736, -20.148574 ], [ 164.234834, -20.154333 ], [ 164.217928, -20.142231 ], [ 164.211491, -20.142231 ], [ 164.208221, -20.144404 ], [ 164.20548, -20.142231 ], [ 164.201003, -20.138683 ], [ 164.198475, -20.138687 ], [ 164.191556, -20.132994 ], [ 164.186276, -20.126536 ], [ 164.181113, -20.123938 ], [ 164.172459, -20.111545 ], [ 164.172205, -20.10807 ], [ 164.170043, -20.104843 ], [ 164.168101, -20.093598 ], [ 164.164074, -20.0871 ], [ 164.156513, -20.087794 ], [ 164.155984, -20.084703 ] ] ], [ [ [ 163.946324, -20.033909 ], [ 163.946413, -20.030306 ], [ 163.955907, -20.036457 ], [ 163.961089, -20.033277 ], [ 163.959015, -20.022095 ], [ 163.967451, -20.022638 ], [ 163.969619, -20.016006 ], [ 163.963548, -20.013103 ], [ 163.955907, -20.016649 ], [ 163.952922, -20.014458 ], [ 163.953404, -20.007996 ], [ 163.955907, -20.006858 ], [ 163.964845, -20.000904 ], [ 163.97488, -20.010123 ], [ 163.981485, -20.037007 ], [ 163.996725, -20.049295 ], [ 163.998942, -20.064685 ], [ 163.998052, -20.070475 ], [ 163.98578, -20.082011 ], [ 163.980943, -20.081493 ], [ 163.979717, -20.07859 ], [ 163.982143, -20.075331 ], [ 163.990167, -20.073347 ], [ 163.988442, -20.068207 ], [ 163.990737, -20.060211 ], [ 163.981232, -20.060893 ], [ 163.979219, -20.067562 ], [ 163.974198, -20.0688 ], [ 163.964445, -20.078038 ], [ 163.955907, -20.07176 ], [ 163.953058, -20.070704 ], [ 163.952135, -20.068439 ], [ 163.955907, -20.044221 ], [ 163.955907, -20.040597 ], [ 163.946324, -20.033909 ] ] ], [ [ [ 163.789278, -20.049858 ], [ 163.790864, -20.038055 ], [ 163.794402, -20.037309 ], [ 163.794422, -20.034741 ], [ 163.798773, -20.034257 ], [ 163.800437, -20.029902 ], [ 163.803958, -20.031467 ], [ 163.808326, -20.028671 ], [ 163.811587, -20.028693 ], [ 163.814832, -20.030769 ], [ 163.818097, -20.030278 ], [ 163.827822, -20.038047 ], [ 163.828455, -20.044215 ], [ 163.830061, -20.047564 ], [ 163.822837, -20.050598 ], [ 163.820638, -20.053922 ], [ 163.820852, -20.061628 ], [ 163.823555, -20.0637 ], [ 163.823805, -20.066527 ], [ 163.827704, -20.072203 ], [ 163.826303, -20.077844 ], [ 163.822899, -20.07872 ], [ 163.815312, -20.075459 ], [ 163.812751, -20.072617 ], [ 163.812926, -20.067482 ], [ 163.804005, -20.061129 ], [ 163.798884, -20.055444 ], [ 163.791706, -20.052186 ], [ 163.789278, -20.049858 ] ] ], [ [ [ 163.570277, -19.554802 ], [ 163.571669, -19.551454 ], [ 163.575776, -19.549419 ], [ 163.575946, -19.545545 ], [ 163.572825, -19.54397 ], [ 163.57367, -19.540875 ], [ 163.578313, -19.539878 ], [ 163.579371, -19.543504 ], [ 163.581543, -19.544555 ], [ 163.582849, -19.551025 ], [ 163.587179, -19.554677 ], [ 163.589289, -19.562704 ], [ 163.593362, -19.564545 ], [ 163.597693, -19.568196 ], [ 163.598446, -19.575696 ], [ 163.601435, -19.576752 ], [ 163.610496, -19.589009 ], [ 163.618473, -19.592905 ], [ 163.614913, -19.594686 ], [ 163.611861, -19.598088 ], [ 163.60505, -19.600166 ], [ 163.602328, -19.599628 ], [ 163.597066, -19.604602 ], [ 163.595258, -19.604731 ], [ 163.593457, -19.600722 ], [ 163.588995, -19.596552 ], [ 163.585461, -19.595233 ], [ 163.585906, -19.591102 ], [ 163.584166, -19.587471 ], [ 163.584865, -19.585409 ], [ 163.582314, -19.580996 ], [ 163.588323, -19.579751 ], [ 163.589863, -19.575112 ], [ 163.587849, -19.571607 ], [ 163.581839, -19.572982 ], [ 163.579542, -19.570638 ], [ 163.572811, -19.561024 ], [ 163.570277, -19.554802 ] ] ], [ [ [ 167.793501, -21.091228 ], [ 167.797313, -21.089879 ], [ 167.799154, -21.085733 ], [ 167.804891, -21.084738 ], [ 167.811472, -21.084886 ], [ 167.819229, -21.089259 ], [ 167.821894, -21.092558 ], [ 167.828025, -21.10506 ], [ 167.833788, -21.112681 ], [ 167.839083, -21.117222 ], [ 167.838193, -21.120838 ], [ 167.835509, -21.123841 ], [ 167.824071, -21.12789 ], [ 167.821597, -21.127546 ], [ 167.814236, -21.115193 ], [ 167.808685, -21.111556 ], [ 167.801282, -21.104218 ], [ 167.796593, -21.095293 ], [ 167.793501, -21.091228 ] ] ], [ [ [ 166.023011, -22.003699 ], [ 166.028645, -21.993154 ], [ 166.041285, -21.988727 ], [ 166.047041, -21.990674 ], [ 166.048446, -22.002075 ], [ 166.051734, -22.001978 ], [ 166.056683, -21.993522 ], [ 166.068139, -21.994703 ], [ 166.070205, -22.001441 ], [ 166.063155, -22.004038 ], [ 166.06092, -22.008472 ], [ 166.053759, -22.006853 ], [ 166.052912, -22.011747 ], [ 166.048446, -22.012685 ], [ 166.044851, -22.020068 ], [ 166.044, -22.021817 ], [ 166.030855, -22.024975 ], [ 166.029045, -22.020068 ], [ 166.023011, -22.003699 ] ] ], [ [ [ 166.028972, -22.045515 ], [ 166.04559, -22.028062 ], [ 166.048446, -22.029643 ], [ 166.053565, -22.032477 ], [ 166.055457, -22.045515 ], [ 166.054027, -22.051752 ], [ 166.048446, -22.056659 ], [ 166.046618, -22.058266 ], [ 166.048446, -22.061049 ], [ 166.055857, -22.072333 ], [ 166.053432, -22.074177 ], [ 166.048446, -22.070848 ], [ 166.041801, -22.066412 ], [ 166.037561, -22.055666 ], [ 166.028972, -22.045515 ] ] ], [ [ [ 166.39092, -20.718756 ], [ 166.394388, -20.716018 ], [ 166.411339, -20.721092 ], [ 166.422394, -20.721421 ], [ 166.459237, -20.709035 ], [ 166.460204, -20.710395 ], [ 166.445071, -20.725838 ], [ 166.428912, -20.727697 ], [ 166.422394, -20.731313 ], [ 166.416225, -20.732758 ], [ 166.39092, -20.718756 ] ] ], [ [ [ 164.27319, -20.217986 ], [ 164.283357, -20.219055 ], [ 164.288074, -20.22239 ], [ 164.287372, -20.22776 ], [ 164.289256, -20.230582 ], [ 164.291527, -20.23801 ], [ 164.29423, -20.239556 ], [ 164.295238, -20.242559 ], [ 164.2944, -20.245124 ], [ 164.293378, -20.24825 ], [ 164.296088, -20.248261 ], [ 164.298243, -20.25134 ], [ 164.299967, -20.259788 ], [ 164.294119, -20.264114 ], [ 164.290879, -20.261159 ], [ 164.285821, -20.249784 ], [ 164.281819, -20.245124 ], [ 164.279849, -20.242829 ], [ 164.278393, -20.234957 ], [ 164.276506, -20.233114 ], [ 164.276676, -20.228785 ], [ 164.278423, -20.226138 ], [ 164.27489, -20.223391 ], [ 164.27319, -20.217986 ] ] ], [ [ [ 165.971274, -21.964588 ], [ 165.972737, -21.962515 ], [ 165.98052, -21.962155 ], [ 165.982732, -21.964937 ], [ 165.987907, -21.966406 ], [ 165.994762, -21.966364 ], [ 165.997287, -21.970559 ], [ 166.001816, -21.972441 ], [ 166.007101, -21.973137 ], [ 166.013837, -21.978534 ], [ 166.001802, -21.985657 ], [ 166.001585, -21.988236 ], [ 165.99809, -21.989245 ], [ 165.996048, -21.986146 ], [ 165.989695, -21.983083 ], [ 165.985971, -21.980126 ], [ 165.984961, -21.977703 ], [ 165.98052, -21.973188 ], [ 165.975965, -21.970472 ], [ 165.971274, -21.964588 ] ] ], [ [ [ 166.403542, -21.689005 ], [ 166.405512, -21.687786 ], [ 166.414092, -21.690574 ], [ 166.422394, -21.690197 ], [ 166.424447, -21.690103 ], [ 166.425376, -21.682779 ], [ 166.427945, -21.681788 ], [ 166.439836, -21.6895 ], [ 166.446225, -21.704077 ], [ 166.442754, -21.705813 ], [ 166.437546, -21.700911 ], [ 166.432428, -21.70336 ], [ 166.422394, -21.701162 ], [ 166.414092, -21.699343 ], [ 166.409587, -21.697244 ], [ 166.403542, -21.689005 ] ] ], [ [ [ 164.984255, -21.357385 ], [ 164.990276, -21.35199 ], [ 164.990621, -21.349165 ], [ 164.996081, -21.349092 ], [ 165.001283, -21.350878 ], [ 165.004118, -21.355805 ], [ 165.010367, -21.360429 ], [ 165.004359, -21.365708 ], [ 165.004286, -21.370458 ], [ 164.994124, -21.372841 ], [ 164.991864, -21.367636 ], [ 164.988192, -21.3651 ], [ 164.984255, -21.357385 ] ] ], [ [ [ 166.520982, -20.402517 ], [ 166.523962, -20.400562 ], [ 166.532128, -20.399205 ], [ 166.54745, -20.404597 ], [ 166.548702, -20.407156 ], [ 166.548473, -20.411528 ], [ 166.545113, -20.416313 ], [ 166.529561, -20.415294 ], [ 166.524509, -20.414567 ], [ 166.524991, -20.408137 ], [ 166.522762, -20.403272 ], [ 166.520982, -20.402517 ] ] ], [ [ [ 163.910093, -20.142221 ], [ 163.914291, -20.132773 ], [ 163.920182, -20.142221 ], [ 163.929124, -20.147564 ], [ 163.944808, -20.167991 ], [ 163.943903, -20.169314 ], [ 163.927233, -20.166205 ], [ 163.92621, -20.153478 ], [ 163.910093, -20.142221 ] ] ], [ [ [ 165.030089, -21.383366 ], [ 165.031159, -21.379922 ], [ 165.035883, -21.37733 ], [ 165.038273, -21.369255 ], [ 165.048628, -21.375307 ], [ 165.052765, -21.374028 ], [ 165.05317, -21.376336 ], [ 165.05317, -21.381603 ], [ 165.052024, -21.383805 ], [ 165.046939, -21.389243 ], [ 165.042356, -21.392702 ], [ 165.039652, -21.393063 ], [ 165.034074, -21.38372 ], [ 165.030866, -21.384983 ], [ 165.030089, -21.383366 ] ] ], [ [ [ 166.074566, -21.983434 ], [ 166.077148, -21.976957 ], [ 166.076167, -21.975413 ], [ 166.08088, -21.975769 ], [ 166.086121, -21.972763 ], [ 166.091175, -21.963426 ], [ 166.089326, -21.958941 ], [ 166.090825, -21.953778 ], [ 166.094361, -21.955222 ], [ 166.093222, -21.959278 ], [ 166.099653, -21.963351 ], [ 166.094254, -21.967541 ], [ 166.094165, -21.974002 ], [ 166.092835, -21.979101 ], [ 166.084804, -21.981687 ], [ 166.083136, -21.985103 ], [ 166.077632, -21.986799 ], [ 166.074566, -21.983434 ] ] ], [ [ [ 165.945293, -21.96557 ], [ 165.95067, -21.96338 ], [ 165.957407, -21.966084 ], [ 165.961347, -21.964029 ], [ 165.966904, -21.96694 ], [ 165.968177, -21.969858 ], [ 165.968474, -21.980712 ], [ 165.963993, -21.981843 ], [ 165.959326, -21.979291 ], [ 165.958426, -21.976133 ], [ 165.950538, -21.975321 ], [ 165.945293, -21.96557 ] ] ], [ [ [ 167.731276, -21.355768 ], [ 167.731733, -21.351196 ], [ 167.734341, -21.345827 ], [ 167.738346, -21.342845 ], [ 167.741582, -21.342159 ], [ 167.743672, -21.345422 ], [ 167.744327, -21.351498 ], [ 167.737408, -21.357951 ], [ 167.737756, -21.369358 ], [ 167.739039, -21.372887 ], [ 167.739009, -21.378467 ], [ 167.734659, -21.377524 ], [ 167.733263, -21.375264 ], [ 167.733943, -21.368152 ], [ 167.735021, -21.367881 ], [ 167.731916, -21.361084 ], [ 167.731276, -21.355768 ] ] ], [ [ [ 164.084811, -20.328291 ], [ 164.08551, -20.326733 ], [ 164.085009, -20.318144 ], [ 164.091167, -20.318752 ], [ 164.093974, -20.313621 ], [ 164.091536, -20.310372 ], [ 164.092567, -20.307833 ], [ 164.098577, -20.309107 ], [ 164.100067, -20.313799 ], [ 164.096179, -20.318202 ], [ 164.096155, -20.322365 ], [ 164.099299, -20.327325 ], [ 164.092384, -20.330672 ], [ 164.084811, -20.328291 ] ] ], [ [ [ 165.751278, -21.819169 ], [ 165.754351, -21.815479 ], [ 165.754193, -21.812067 ], [ 165.756712, -21.809823 ], [ 165.760382, -21.812694 ], [ 165.764029, -21.811234 ], [ 165.765409, -21.80637 ], [ 165.768288, -21.808546 ], [ 165.766969, -21.811632 ], [ 165.765926, -21.824352 ], [ 165.762429, -21.827519 ], [ 165.755932, -21.822035 ], [ 165.752837, -21.821524 ], [ 165.751278, -21.819169 ] ] ], [ [ [ 167.543097, -21.129785 ], [ 167.549759, -21.128901 ], [ 167.553392, -21.129891 ], [ 167.564714, -21.141204 ], [ 167.567523, -21.142727 ], [ 167.568183, -21.14872 ], [ 167.56401, -21.148783 ], [ 167.559185, -21.143244 ], [ 167.556101, -21.141856 ], [ 167.552113, -21.136435 ], [ 167.545102, -21.133148 ], [ 167.543097, -21.129785 ] ] ], [ [ [ 166.090139, -22.090282 ], [ 166.090491, -22.087258 ], [ 166.099407, -22.086163 ], [ 166.11036, -22.078928 ], [ 166.11446, -22.080518 ], [ 166.110614, -22.082788 ], [ 166.109885, -22.087144 ], [ 166.104265, -22.093684 ], [ 166.09938, -22.092105 ], [ 166.092213, -22.091783 ], [ 166.090139, -22.090282 ] ] ], [ [ [ 168.942136, -22.606019 ], [ 168.944387, -22.602976 ], [ 168.949091, -22.601757 ], [ 168.950652, -22.598705 ], [ 168.950738, -22.583606 ], [ 168.955732, -22.581366 ], [ 168.958945, -22.587805 ], [ 168.956117, -22.592632 ], [ 168.948873, -22.607129 ], [ 168.943442, -22.610898 ], [ 168.942136, -22.606019 ] ] ], [ [ [ 163.961827, -20.089057 ], [ 163.963214, -20.086222 ], [ 163.966495, -20.086628 ], [ 163.969801, -20.083158 ], [ 163.976392, -20.085882 ], [ 163.975363, -20.090429 ], [ 163.97792, -20.097036 ], [ 163.975184, -20.096891 ], [ 163.973011, -20.094422 ], [ 163.961936, -20.093194 ], [ 163.961827, -20.089057 ] ] ], [ [ [ 164.79945, -21.096608 ], [ 164.800068, -21.093572 ], [ 164.805815, -21.091946 ], [ 164.806984, -21.09451 ], [ 164.813507, -21.094193 ], [ 164.817949, -21.098253 ], [ 164.81588, -21.10061 ], [ 164.810199, -21.101248 ], [ 164.80303, -21.1054 ], [ 164.802083, -21.098807 ], [ 164.79945, -21.096608 ] ] ], [ [ [ 166.115144, -22.027229 ], [ 166.117179, -22.025791 ], [ 166.118994, -22.027229 ], [ 166.129446, -22.031876 ], [ 166.133933, -22.035995 ], [ 166.133933, -22.038843 ], [ 166.118673, -22.036067 ], [ 166.115144, -22.027229 ] ] ], [ [ [ 166.371293, -21.674568 ], [ 166.372662, -21.671952 ], [ 166.380493, -21.674882 ], [ 166.383553, -21.674206 ], [ 166.388529, -21.669996 ], [ 166.395089, -21.671737 ], [ 166.39575, -21.672906 ], [ 166.389715, -21.67741 ], [ 166.38358, -21.677071 ], [ 166.380256, -21.679183 ], [ 166.373265, -21.676766 ], [ 166.371293, -21.674568 ] ] ], [ [ [ 163.674751, -19.821857 ], [ 163.684082, -19.810735 ], [ 163.687418, -19.818048 ], [ 163.685486, -19.821857 ], [ 163.681726, -19.825131 ], [ 163.674764, -19.826297 ], [ 163.674751, -19.821857 ] ] ], [ [ [ 166.476778, -22.306732 ], [ 166.482308, -22.30405 ], [ 166.482995, -22.299169 ], [ 166.480452, -22.291092 ], [ 166.483268, -22.289353 ], [ 166.486366, -22.292418 ], [ 166.485352, -22.295402 ], [ 166.488527, -22.297643 ], [ 166.483627, -22.308016 ], [ 166.48151, -22.310633 ], [ 166.477696, -22.310027 ], [ 166.476778, -22.306732 ] ] ], [ [ [ 164.005378, -20.212032 ], [ 164.006858, -20.211375 ], [ 164.010425, -20.214123 ], [ 164.015673, -20.21443 ], [ 164.022955, -20.217765 ], [ 164.021317, -20.222641 ], [ 164.017165, -20.223149 ], [ 164.012002, -20.220547 ], [ 164.005378, -20.212032 ] ] ], [ [ [ 165.678213, -21.777796 ], [ 165.678484, -21.775963 ], [ 165.685759, -21.773577 ], [ 165.684473, -21.768348 ], [ 165.686286, -21.766638 ], [ 165.691608, -21.766224 ], [ 165.69066, -21.773033 ], [ 165.688639, -21.778405 ], [ 165.684935, -21.777114 ], [ 165.680462, -21.779357 ], [ 165.678213, -21.777796 ] ] ], [ [ [ 167.585783, -21.256742 ], [ 167.588892, -21.253867 ], [ 167.594076, -21.25473 ], [ 167.597472, -21.260061 ], [ 167.597164, -21.267066 ], [ 167.593259, -21.265511 ], [ 167.590457, -21.261246 ], [ 167.585783, -21.256742 ] ] ], [ [ [ 163.927689, -20.015249 ], [ 163.928796, -20.014734 ], [ 163.931075, -20.004311 ], [ 163.933011, -20.003801 ], [ 163.935319, -20.009294 ], [ 163.934005, -20.020114 ], [ 163.930695, -20.019703 ], [ 163.927689, -20.015249 ] ] ], [ [ [ 167.030133, -22.255463 ], [ 167.035096, -22.249681 ], [ 167.037975, -22.252428 ], [ 167.038064, -22.262761 ], [ 167.034032, -22.263704 ], [ 167.030133, -22.255463 ] ] ], [ [ [ 167.567419, -21.315333 ], [ 167.567796, -21.312984 ], [ 167.573557, -21.308861 ], [ 167.576627, -21.309726 ], [ 167.576468, -21.316496 ], [ 167.571253, -21.320089 ], [ 167.567419, -21.315333 ] ] ], [ [ [ 164.817317, -21.158099 ], [ 164.819051, -21.155186 ], [ 164.819265, -21.148885 ], [ 164.828218, -21.152618 ], [ 164.824694, -21.158676 ], [ 164.817317, -21.158099 ] ] ], [ [ [ 165.99128, -21.959692 ], [ 165.997488, -21.95843 ], [ 166.001817, -21.955636 ], [ 166.003277, -21.959037 ], [ 165.9999, -21.961231 ], [ 166.002937, -21.966149 ], [ 166.000418, -21.96682 ], [ 165.996748, -21.964939 ], [ 165.99128, -21.959692 ] ] ], [ [ [ 166.270493, -20.618663 ], [ 166.2747, -20.617175 ], [ 166.278648, -20.618338 ], [ 166.284043, -20.624256 ], [ 166.277298, -20.625101 ], [ 166.273055, -20.622352 ], [ 166.270493, -20.618663 ] ] ], [ [ [ 167.454923, -22.710626 ], [ 167.454923, -22.706772 ], [ 167.458609, -22.706828 ], [ 167.461332, -22.704608 ], [ 167.467413, -22.704771 ], [ 167.467049, -22.707596 ], [ 167.460353, -22.711672 ], [ 167.454923, -22.710626 ] ] ], [ [ [ 171.35072, -22.341885 ], [ 171.351524, -22.339877 ], [ 171.358804, -22.340614 ], [ 171.362586, -22.343364 ], [ 171.360974, -22.345499 ], [ 171.355046, -22.346766 ], [ 171.351536, -22.344893 ], [ 171.35072, -22.341885 ] ] ], [ [ [ 166.080303, -22.051597 ], [ 166.083173, -22.050665 ], [ 166.089435, -22.045597 ], [ 166.091675, -22.047569 ], [ 166.088226, -22.055361 ], [ 166.085646, -22.056815 ], [ 166.084417, -22.054296 ], [ 166.080303, -22.051597 ] ] ], [ [ [ 166.464352, -20.712047 ], [ 166.46672, -20.705686 ], [ 166.470059, -20.704607 ], [ 166.471761, -20.707481 ], [ 166.47483, -20.707455 ], [ 166.475139, -20.710471 ], [ 166.468845, -20.712449 ], [ 166.464352, -20.712047 ] ] ], [ [ [ 166.397775, -22.213301 ], [ 166.403107, -22.211688 ], [ 166.405406, -22.209235 ], [ 166.40798, -22.216593 ], [ 166.402306, -22.218726 ], [ 166.397916, -22.215248 ], [ 166.397775, -22.213301 ] ] ], [ [ [ 166.070213, -21.490445 ], [ 166.072908, -21.48577 ], [ 166.075844, -21.483237 ], [ 166.079071, -21.483719 ], [ 166.079916, -21.488993 ], [ 166.073483, -21.49092 ], [ 166.070213, -21.490445 ] ] ], [ [ [ 165.025422, -21.360779 ], [ 165.028873, -21.353771 ], [ 165.030166, -21.342451 ], [ 165.033043, -21.344337 ], [ 165.029737, -21.357544 ], [ 165.027293, -21.363069 ], [ 165.025422, -21.360779 ] ] ], [ [ [ 164.066035, -20.316401 ], [ 164.06899, -20.315376 ], [ 164.07365, -20.316226 ], [ 164.077747, -20.313772 ], [ 164.078875, -20.320381 ], [ 164.071297, -20.319652 ], [ 164.066035, -20.316401 ] ] ], [ [ [ 167.407655, -22.622119 ], [ 167.409758, -22.621232 ], [ 167.410538, -22.616675 ], [ 167.413638, -22.617616 ], [ 167.415057, -22.615508 ], [ 167.419631, -22.616586 ], [ 167.418891, -22.6202 ], [ 167.414782, -22.619362 ], [ 167.41103, -22.623822 ], [ 167.407655, -22.622119 ] ] ], [ [ [ 166.462565, -20.44618 ], [ 166.467715, -20.441787 ], [ 166.474389, -20.437974 ], [ 166.475106, -20.439884 ], [ 166.472544, -20.441407 ], [ 166.467202, -20.448452 ], [ 166.462565, -20.44618 ] ] ], [ [ [ 163.979633, -20.115363 ], [ 163.989698, -20.109518 ], [ 163.99098, -20.110636 ], [ 163.98769, -20.116574 ], [ 163.98481, -20.117984 ], [ 163.979633, -20.115363 ] ] ], [ [ [ 167.030733, -22.276852 ], [ 167.031114, -22.272595 ], [ 167.032924, -22.269866 ], [ 167.03846, -22.27303 ], [ 167.03641, -22.278207 ], [ 167.030733, -22.276852 ] ] ], [ [ [ 166.135036, -20.411657 ], [ 166.135567, -20.407472 ], [ 166.146901, -20.407326 ], [ 166.14672, -20.408725 ], [ 166.139496, -20.412296 ], [ 166.135036, -20.411657 ] ] ], [ [ [ 163.925377, -19.974714 ], [ 163.933294, -19.972894 ], [ 163.935655, -19.978513 ], [ 163.929296, -19.979543 ], [ 163.925377, -19.974714 ] ] ], [ [ [ 165.899045, -21.927848 ], [ 165.902582, -21.926443 ], [ 165.904714, -21.929166 ], [ 165.91375, -21.933732 ], [ 165.913979, -21.936198 ], [ 165.907651, -21.935068 ], [ 165.90412, -21.930479 ], [ 165.899045, -21.927848 ] ] ], [ [ [ 163.993502, -20.149747 ], [ 163.995198, -20.147902 ], [ 164.001656, -20.147144 ], [ 164.002465, -20.152315 ], [ 163.995049, -20.153373 ], [ 163.993502, -20.149747 ] ] ], [ [ [ 165.915148, -21.940243 ], [ 165.916645, -21.937308 ], [ 165.921241, -21.940883 ], [ 165.923016, -21.947927 ], [ 165.918521, -21.945906 ], [ 165.915148, -21.940243 ] ] ], [ [ [ 166.282072, -22.176291 ], [ 166.284445, -22.174452 ], [ 166.288698, -22.17955 ], [ 166.288999, -22.181772 ], [ 166.292363, -22.184002 ], [ 166.288346, -22.186159 ], [ 166.286903, -22.182518 ], [ 166.282072, -22.176291 ] ] ], [ [ [ 167.434396, -22.663532 ], [ 167.435894, -22.661349 ], [ 167.441834, -22.663261 ], [ 167.441652, -22.669604 ], [ 167.438725, -22.668334 ], [ 167.434396, -22.663532 ] ] ], [ [ [ 164.01746, -20.160844 ], [ 164.023322, -20.161597 ], [ 164.023753, -20.16539 ], [ 164.021896, -20.170421 ], [ 164.01993, -20.170277 ], [ 164.01954, -20.165101 ], [ 164.01746, -20.160844 ] ] ], [ [ [ 165.842247, -21.895417 ], [ 165.844601, -21.890962 ], [ 165.848775, -21.892329 ], [ 165.851171, -21.895094 ], [ 165.855942, -21.896735 ], [ 165.854956, -21.898837 ], [ 165.846407, -21.894563 ], [ 165.842247, -21.895417 ] ] ], [ [ [ 167.533451, -22.645329 ], [ 167.534955, -22.636544 ], [ 167.537462, -22.63702 ], [ 167.538552, -22.643444 ], [ 167.537348, -22.645911 ], [ 167.533451, -22.645329 ] ] ], [ [ [ 166.838823, -22.353445 ], [ 166.841431, -22.351123 ], [ 166.847018, -22.352427 ], [ 166.844196, -22.358659 ], [ 166.838823, -22.353445 ] ] ], [ [ [ 166.575159, -22.299839 ], [ 166.584542, -22.302762 ], [ 166.58331, -22.305105 ], [ 166.576581, -22.304875 ], [ 166.575159, -22.299839 ] ] ], [ [ [ 166.102564, -21.99969 ], [ 166.104284, -21.99674 ], [ 166.109119, -21.999597 ], [ 166.108572, -22.003927 ], [ 166.103628, -22.002067 ], [ 166.102564, -21.99969 ] ] ], [ [ [ 166.116318, -22.102475 ], [ 166.118659, -22.101977 ], [ 166.117289, -22.097611 ], [ 166.120067, -22.095833 ], [ 166.121118, -22.098306 ], [ 166.121036, -22.104327 ], [ 166.118999, -22.105906 ], [ 166.116318, -22.102475 ] ] ], [ [ [ 166.433557, -20.453498 ], [ 166.435711, -20.452047 ], [ 166.442153, -20.451361 ], [ 166.441644, -20.454404 ], [ 166.438568, -20.455949 ], [ 166.43467, -20.455601 ], [ 166.433557, -20.453498 ] ] ], [ [ [ 166.197913, -22.21343 ], [ 166.200997, -22.213287 ], [ 166.205605, -22.217511 ], [ 166.206434, -22.220037 ], [ 166.201599, -22.219328 ], [ 166.197913, -22.21343 ] ] ], [ [ [ 172.084092, -22.39202 ], [ 172.088423, -22.391379 ], [ 172.089797, -22.397783 ], [ 172.084836, -22.397261 ], [ 172.084092, -22.39202 ] ] ], [ [ [ 166.373227, -20.685948 ], [ 166.375078, -20.680995 ], [ 166.380178, -20.688238 ], [ 166.378875, -20.689434 ], [ 166.373227, -20.685948 ] ] ], [ [ [ 167.425144, -22.528564 ], [ 167.425153, -22.526429 ], [ 167.432061, -22.526865 ], [ 167.431157, -22.531931 ], [ 167.425144, -22.528564 ] ] ], [ [ [ 167.567748, -22.760038 ], [ 167.568771, -22.755392 ], [ 167.57183, -22.755857 ], [ 167.572749, -22.760472 ], [ 167.571389, -22.761908 ], [ 167.567748, -22.760038 ] ] ], [ [ [ 165.720441, -21.723472 ], [ 165.722199, -21.719656 ], [ 165.724867, -21.720939 ], [ 165.722915, -21.727392 ], [ 165.721011, -21.726789 ], [ 165.720441, -21.723472 ] ] ], [ [ [ 164.041011, -20.179018 ], [ 164.041918, -20.172473 ], [ 164.046474, -20.17643 ], [ 164.046551, -20.177575 ], [ 164.041011, -20.179018 ] ] ], [ [ [ 166.096018, -21.982399 ], [ 166.101186, -21.981577 ], [ 166.102071, -21.984518 ], [ 166.097781, -21.986957 ], [ 166.096018, -21.982399 ] ] ], [ [ [ 163.695016, -19.827771 ], [ 163.698514, -19.827796 ], [ 163.697953, -19.830594 ], [ 163.70022, -19.833157 ], [ 163.695638, -19.833888 ], [ 163.695016, -19.827771 ] ] ], [ [ [ 163.082669, -18.480196 ], [ 163.086182, -18.478263 ], [ 163.089164, -18.48117 ], [ 163.088332, -18.484644 ], [ 163.082669, -18.480196 ] ] ], [ [ [ 166.474759, -20.436141 ], [ 166.475221, -20.432932 ], [ 166.479298, -20.431283 ], [ 166.477984, -20.438495 ], [ 166.474759, -20.436141 ] ] ], [ [ [ 162.95733, -18.045938 ], [ 162.959005, -18.038516 ], [ 162.961397, -18.039612 ], [ 162.959675, -18.046907 ], [ 162.95733, -18.045938 ] ] ], [ [ [ 163.038582, -18.283073 ], [ 163.042167, -18.281998 ], [ 163.046402, -18.286071 ], [ 163.042438, -18.287001 ], [ 163.038582, -18.283073 ] ] ], [ [ [ 163.006431, -18.296056 ], [ 163.008524, -18.293687 ], [ 163.014011, -18.292728 ], [ 163.01368, -18.295049 ], [ 163.009093, -18.29718 ], [ 163.006431, -18.296056 ] ] ], [ [ [ 158.601244, -19.123152 ], [ 158.60151, -19.120206 ], [ 158.605129, -19.119232 ], [ 158.607189, -19.122183 ], [ 158.605118, -19.123896 ], [ 158.601244, -19.123152 ] ] ], [ [ [ 158.940294, -19.218692 ], [ 158.940296, -19.211538 ], [ 158.942739, -19.210766 ], [ 158.943552, -19.216567 ], [ 158.940294, -19.218692 ] ] ], [ [ [ 164.019086, -19.815133 ], [ 164.019109, -19.811342 ], [ 164.025117, -19.811374 ], [ 164.025106, -19.81327 ], [ 164.023104, -19.813259 ], [ 164.023092, -19.815153 ], [ 164.019086, -19.815133 ] ] ], [ [ [ 163.696605, -19.839671 ], [ 163.69662, -19.837801 ], [ 163.700574, -19.837456 ], [ 163.700527, -19.843251 ], [ 163.6979, -19.842808 ], [ 163.696605, -19.839671 ] ] ], [ [ [ 158.308568, -19.867195 ], [ 158.311354, -19.86636 ], [ 158.315605, -19.871877 ], [ 158.313718, -19.873325 ], [ 158.308568, -19.867195 ] ] ], [ [ [ 163.699326, -19.877754 ], [ 163.701919, -19.876552 ], [ 163.704815, -19.878314 ], [ 163.703684, -19.882202 ], [ 163.699583, -19.879834 ], [ 163.699326, -19.877754 ] ] ], [ [ [ 158.376813, -19.91052 ], [ 158.381093, -19.907507 ], [ 158.38376, -19.911438 ], [ 158.377872, -19.912543 ], [ 158.376813, -19.91052 ] ] ], [ [ [ 158.473922, -19.968484 ], [ 158.475875, -19.96669 ], [ 158.480507, -19.9681 ], [ 158.478807, -19.972278 ], [ 158.473922, -19.968484 ] ] ], [ [ [ 163.958126, -19.99655 ], [ 163.961121, -19.99502 ], [ 163.964167, -19.997449 ], [ 163.96108, -20.00129 ], [ 163.958126, -19.99655 ] ] ], [ [ [ 164.244087, -20.163436 ], [ 164.248841, -20.161536 ], [ 164.249661, -20.166981 ], [ 164.247456, -20.167451 ], [ 164.244087, -20.163436 ] ] ], [ [ [ 163.981412, -20.199472 ], [ 163.983634, -20.198887 ], [ 163.985244, -20.195007 ], [ 163.986826, -20.195315 ], [ 163.985997, -20.200994 ], [ 163.982979, -20.202174 ], [ 163.981412, -20.199472 ] ] ], [ [ [ 164.021514, -20.205126 ], [ 164.023154, -20.202076 ], [ 164.026401, -20.200947 ], [ 164.027197, -20.203245 ], [ 164.024947, -20.206674 ], [ 164.021514, -20.205126 ] ] ], [ [ [ 164.16051, -20.336379 ], [ 164.160706, -20.332733 ], [ 164.16352, -20.332249 ], [ 164.165612, -20.335409 ], [ 164.162435, -20.337879 ], [ 164.16051, -20.336379 ] ] ], [ [ [ 164.101837, -20.342128 ], [ 164.104734, -20.340619 ], [ 164.108481, -20.344789 ], [ 164.107307, -20.346308 ], [ 164.102046, -20.343545 ], [ 164.101837, -20.342128 ] ] ], [ [ [ 164.02249, -20.346386 ], [ 164.022501, -20.344681 ], [ 164.02431, -20.344406 ], [ 164.028522, -20.345283 ], [ 164.027298, -20.3484 ], [ 164.024283, -20.348669 ], [ 164.02249, -20.346386 ] ] ], [ [ [ 164.101354, -20.358643 ], [ 164.105988, -20.357793 ], [ 164.108288, -20.360425 ], [ 164.10397, -20.36273 ], [ 164.101354, -20.358643 ] ] ], [ [ [ 164.080879, -20.370417 ], [ 164.081361, -20.365703 ], [ 164.08384, -20.365083 ], [ 164.085898, -20.367442 ], [ 164.084063, -20.370219 ], [ 164.080879, -20.370417 ] ] ], [ [ [ 164.116303, -20.372875 ], [ 164.118649, -20.370891 ], [ 164.122011, -20.373946 ], [ 164.118943, -20.377573 ], [ 164.116303, -20.372875 ] ] ], [ [ [ 164.031421, -20.405754 ], [ 164.034372, -20.40331 ], [ 164.039258, -20.40426 ], [ 164.038875, -20.407277 ], [ 164.031421, -20.405754 ] ] ], [ [ [ 166.494051, -20.41564 ], [ 166.494334, -20.41424 ], [ 166.498172, -20.412471 ], [ 166.500555, -20.417242 ], [ 166.498814, -20.417694 ], [ 166.494051, -20.41564 ] ] ], [ [ [ 166.487526, -20.424273 ], [ 166.487968, -20.420679 ], [ 166.493226, -20.422877 ], [ 166.492306, -20.426251 ], [ 166.487526, -20.424273 ] ] ], [ [ [ 166.397294, -20.450119 ], [ 166.397294, -20.448317 ], [ 166.402287, -20.446947 ], [ 166.403671, -20.448488 ], [ 166.401938, -20.451554 ], [ 166.397294, -20.450119 ] ] ], [ [ [ 166.450341, -20.450593 ], [ 166.452141, -20.446956 ], [ 166.45609, -20.448654 ], [ 166.455374, -20.452442 ], [ 166.450341, -20.450593 ] ] ], [ [ [ 166.392976, -20.453239 ], [ 166.394827, -20.451652 ], [ 166.397949, -20.452134 ], [ 166.400112, -20.45429 ], [ 166.397949, -20.455764 ], [ 166.394466, -20.455212 ], [ 166.392976, -20.453239 ] ] ], [ [ [ 164.075952, -20.455878 ], [ 164.077987, -20.454061 ], [ 164.080946, -20.454901 ], [ 164.080289, -20.459348 ], [ 164.076516, -20.458439 ], [ 164.075952, -20.455878 ] ] ], [ [ [ 164.125506, -20.469063 ], [ 164.128739, -20.464324 ], [ 164.131327, -20.467233 ], [ 164.127984, -20.471055 ], [ 164.125506, -20.469063 ] ] ], [ [ [ 166.654645, -20.478387 ], [ 166.659507, -20.476607 ], [ 166.659177, -20.481265 ], [ 166.655063, -20.482123 ], [ 166.654645, -20.478387 ] ] ], [ [ [ 166.648766, -20.481568 ], [ 166.654684, -20.479813 ], [ 166.655191, -20.483179 ], [ 166.650091, -20.484544 ], [ 166.648766, -20.481568 ] ] ], [ [ [ 166.224924, -20.505008 ], [ 166.225621, -20.498292 ], [ 166.229206, -20.501445 ], [ 166.229042, -20.504272 ], [ 166.224924, -20.505008 ] ] ], [ [ [ 164.220623, -20.553552 ], [ 164.222339, -20.550216 ], [ 164.226937, -20.55118 ], [ 164.223506, -20.555762 ], [ 164.220623, -20.553552 ] ] ], [ [ [ 165.926018, -21.921295 ], [ 165.930371, -21.919116 ], [ 165.92899, -21.926142 ], [ 165.926364, -21.925292 ], [ 165.926018, -21.921295 ] ] ], [ [ [ 164.180844, -20.556906 ], [ 164.184392, -20.554426 ], [ 164.187441, -20.558458 ], [ 164.18392, -20.560041 ], [ 164.180844, -20.556906 ] ] ], [ [ [ 164.934057, -20.623587 ], [ 164.939601, -20.621632 ], [ 164.939767, -20.62553 ], [ 164.93469, -20.626575 ], [ 164.934057, -20.623587 ] ] ], [ [ [ 164.914684, -20.62579 ], [ 164.916815, -20.623034 ], [ 164.919477, -20.622785 ], [ 164.921073, -20.626294 ], [ 164.915216, -20.627294 ], [ 164.914684, -20.62579 ] ] ], [ [ [ 166.287164, -20.627539 ], [ 166.292414, -20.625898 ], [ 166.294299, -20.628543 ], [ 166.292462, -20.631198 ], [ 166.287164, -20.627539 ] ] ], [ [ [ 166.331827, -20.633994 ], [ 166.334482, -20.632086 ], [ 166.338499, -20.633104 ], [ 166.33785, -20.637296 ], [ 166.331827, -20.633994 ] ] ], [ [ [ 164.984482, -20.643512 ], [ 164.987295, -20.642439 ], [ 164.99067, -20.647524 ], [ 164.98932, -20.648477 ], [ 164.985437, -20.646253 ], [ 164.984482, -20.643512 ] ] ], [ [ [ 165.048068, -20.660354 ], [ 165.053228, -20.661495 ], [ 165.054805, -20.6624 ], [ 165.053228, -20.665038 ], [ 165.049154, -20.664031 ], [ 165.048068, -20.660354 ] ] ], [ [ [ 166.369004, -20.667469 ], [ 166.372291, -20.666314 ], [ 166.374747, -20.672783 ], [ 166.372351, -20.672943 ], [ 166.369004, -20.667469 ] ] ], [ [ [ 164.939284, -20.673861 ], [ 164.94483, -20.671479 ], [ 164.947987, -20.674952 ], [ 164.942284, -20.675498 ], [ 164.939284, -20.673861 ] ] ], [ [ [ 165.086098, -20.690185 ], [ 165.086639, -20.687121 ], [ 165.091911, -20.686457 ], [ 165.093445, -20.689249 ], [ 165.086098, -20.690185 ] ] ], [ [ [ 166.465316, -20.7019 ], [ 166.467999, -20.69836 ], [ 166.472283, -20.700799 ], [ 166.466877, -20.703955 ], [ 166.465316, -20.7019 ] ] ], [ [ [ 165.144531, -20.714407 ], [ 165.150291, -20.712735 ], [ 165.150073, -20.716905 ], [ 165.146751, -20.717949 ], [ 165.144531, -20.714407 ] ] ], [ [ [ 164.321915, -20.769354 ], [ 164.322199, -20.766805 ], [ 164.329252, -20.765304 ], [ 164.328697, -20.768361 ], [ 164.321915, -20.769354 ] ] ], [ [ [ 164.651876, -20.941484 ], [ 164.654693, -20.938634 ], [ 164.659116, -20.940912 ], [ 164.658354, -20.942554 ], [ 164.652915, -20.942768 ], [ 164.651876, -20.941484 ] ] ], [ [ [ 165.016407, -21.37104 ], [ 165.020482, -21.371123 ], [ 165.021316, -21.376677 ], [ 165.019209, -21.377316 ], [ 165.016407, -21.37104 ] ] ], [ [ [ 158.847633, -21.413663 ], [ 158.854258, -21.413212 ], [ 158.855521, -21.415287 ], [ 158.849823, -21.41706 ], [ 158.847633, -21.413663 ] ] ], [ [ [ 165.455383, -21.658827 ], [ 165.458669, -21.656536 ], [ 165.463873, -21.659336 ], [ 165.461408, -21.661118 ], [ 165.455383, -21.658827 ] ] ], [ [ [ 165.648951, -21.73099 ], [ 165.649951, -21.727213 ], [ 165.653656, -21.729061 ], [ 165.652535, -21.732544 ], [ 165.649888, -21.733465 ], [ 165.648951, -21.73099 ] ] ], [ [ [ 165.6973, -21.790652 ], [ 165.698561, -21.786584 ], [ 165.700551, -21.785644 ], [ 165.702559, -21.78843 ], [ 165.701077, -21.791231 ], [ 165.6973, -21.790652 ] ] ], [ [ [ 166.617021, -21.904371 ], [ 166.620056, -21.901033 ], [ 166.623296, -21.900391 ], [ 166.624913, -21.902705 ], [ 166.618462, -21.905031 ], [ 166.617021, -21.904371 ] ] ], [ [ [ 165.930606, -21.914222 ], [ 165.932807, -21.910916 ], [ 165.936227, -21.915274 ], [ 165.932355, -21.917491 ], [ 165.930606, -21.914222 ] ] ], [ [ [ 166.064163, -21.942912 ], [ 166.069345, -21.942878 ], [ 166.068118, -21.948326 ], [ 166.065669, -21.947307 ], [ 166.064163, -21.942912 ] ] ], [ [ [ 166.105363, -21.98018 ], [ 166.108485, -21.978866 ], [ 166.112667, -21.981333 ], [ 166.110021, -21.984231 ], [ 166.105363, -21.98018 ] ] ], [ [ [ 166.141762, -22.025782 ], [ 166.144238, -22.023045 ], [ 166.147482, -22.025502 ], [ 166.145971, -22.028489 ], [ 166.143838, -22.028489 ], [ 166.141762, -22.025782 ] ] ], [ [ [ 166.095817, -22.050467 ], [ 166.100739, -22.048495 ], [ 166.101954, -22.052509 ], [ 166.097709, -22.05358 ], [ 166.095817, -22.050467 ] ] ], [ [ [ 166.023998, -22.061909 ], [ 166.024969, -22.059602 ], [ 166.02942, -22.060494 ], [ 166.028462, -22.064644 ], [ 166.025494, -22.063971 ], [ 166.023998, -22.061909 ] ] ], [ [ [ 166.146349, -22.114819 ], [ 166.15163, -22.112747 ], [ 166.153386, -22.117233 ], [ 166.148964, -22.117144 ], [ 166.146349, -22.114819 ] ] ], [ [ [ 166.15866, -22.11895 ], [ 166.160568, -22.116564 ], [ 166.165915, -22.120781 ], [ 166.163807, -22.122534 ], [ 166.15866, -22.11895 ] ] ], [ [ [ 166.385797, -22.223259 ], [ 166.389636, -22.222829 ], [ 166.390537, -22.227593 ], [ 166.386698, -22.228023 ], [ 166.385797, -22.223259 ] ] ], [ [ [ 166.22249, -22.24336 ], [ 166.223243, -22.241383 ], [ 166.228919, -22.241354 ], [ 166.226629, -22.246135 ], [ 166.22249, -22.24336 ] ] ], [ [ [ 167.023876, -22.267915 ], [ 167.027462, -22.265451 ], [ 167.030559, -22.266206 ], [ 167.030016, -22.270386 ], [ 167.023876, -22.267915 ] ] ], [ [ [ 166.422986, -22.279836 ], [ 166.426053, -22.276693 ], [ 166.428151, -22.280305 ], [ 166.427023, -22.28401 ], [ 166.422986, -22.279836 ] ] ], [ [ [ 166.424092, -22.287564 ], [ 166.426183, -22.286968 ], [ 166.429032, -22.289262 ], [ 166.428614, -22.29217 ], [ 166.426077, -22.293072 ], [ 166.424092, -22.287564 ] ] ], [ [ [ 166.291301, -22.299044 ], [ 166.291443, -22.293233 ], [ 166.294561, -22.292845 ], [ 166.294806, -22.29829 ], [ 166.291301, -22.299044 ] ] ], [ [ [ 166.59377, -22.298021 ], [ 166.596539, -22.296825 ], [ 166.598915, -22.302514 ], [ 166.596707, -22.304227 ], [ 166.59377, -22.298021 ] ] ], [ [ [ 166.470338, -22.312035 ], [ 166.472977, -22.310867 ], [ 166.476029, -22.314973 ], [ 166.472206, -22.317028 ], [ 166.470338, -22.312035 ] ] ], [ [ [ 166.476467, -22.314507 ], [ 166.478445, -22.311554 ], [ 166.482935, -22.313848 ], [ 166.478617, -22.317308 ], [ 166.476467, -22.314507 ] ] ], [ [ [ 167.060946, -22.378818 ], [ 167.061184, -22.376255 ], [ 167.065029, -22.374219 ], [ 167.065614, -22.377989 ], [ 167.0629, -22.380583 ], [ 167.060946, -22.378818 ] ] ], [ [ [ 166.848966, -22.379771 ], [ 166.85228, -22.37782 ], [ 166.855596, -22.37722 ], [ 166.854749, -22.381726 ], [ 166.850208, -22.381075 ], [ 166.848966, -22.379771 ] ] ], [ [ [ 166.486856, -22.440721 ], [ 166.494304, -22.438338 ], [ 166.494329, -22.440654 ], [ 166.491838, -22.440676 ], [ 166.488488, -22.443852 ], [ 166.487048, -22.443737 ], [ 166.486856, -22.440721 ] ] ], [ [ [ 167.093215, -22.444169 ], [ 167.093696, -22.44251 ], [ 167.098809, -22.441961 ], [ 167.099898, -22.445034 ], [ 167.094322, -22.445731 ], [ 167.093215, -22.444169 ] ] ], [ [ [ 166.608276, -22.517533 ], [ 166.610732, -22.512627 ], [ 166.61348, -22.513237 ], [ 166.613529, -22.51748 ], [ 166.608276, -22.517533 ] ] ], [ [ [ 167.40916, -22.515269 ], [ 167.411838, -22.513258 ], [ 167.415054, -22.516671 ], [ 167.412449, -22.519728 ], [ 167.40916, -22.515269 ] ] ], [ [ [ 167.417726, -22.525172 ], [ 167.419123, -22.523522 ], [ 167.424194, -22.525829 ], [ 167.420709, -22.529445 ], [ 167.417726, -22.525172 ] ] ], [ [ [ 166.5576, -22.529302 ], [ 166.561626, -22.529263 ], [ 166.563933, -22.52924 ], [ 166.563977, -22.533163 ], [ 166.561626, -22.53246 ], [ 166.557622, -22.531263 ], [ 166.5576, -22.529302 ] ] ], [ [ [ 166.826333, -22.53245 ], [ 166.827331, -22.530725 ], [ 166.830846, -22.530261 ], [ 166.834083, -22.53133 ], [ 166.830479, -22.534401 ], [ 166.826333, -22.53245 ] ] ], [ [ [ 167.409638, -22.538057 ], [ 167.412257, -22.534659 ], [ 167.416555, -22.53578 ], [ 167.411435, -22.540317 ], [ 167.409638, -22.538057 ] ] ], [ [ [ 166.819095, -22.541122 ], [ 166.821663, -22.536589 ], [ 166.824779, -22.536809 ], [ 166.82448, -22.541008 ], [ 166.819095, -22.541122 ] ] ], [ [ [ 166.743792, -22.576665 ], [ 166.747563, -22.57351 ], [ 166.750076, -22.577078 ], [ 166.747154, -22.579412 ], [ 166.743792, -22.576665 ] ] ], [ [ [ 167.310356, -22.625332 ], [ 167.311253, -22.623739 ], [ 167.315863, -22.623479 ], [ 167.316217, -22.625285 ], [ 167.313999, -22.628636 ], [ 167.310356, -22.625332 ] ] ], [ [ [ 167.391493, -22.650342 ], [ 167.396622, -22.647693 ], [ 167.397522, -22.651288 ], [ 167.393573, -22.653391 ], [ 167.391493, -22.650342 ] ] ], [ [ [ 167.419773, -22.671527 ], [ 167.423233, -22.668712 ], [ 167.427115, -22.670703 ], [ 167.423537, -22.673749 ], [ 167.419773, -22.671527 ] ] ], [ [ [ 166.808527, -22.678355 ], [ 166.809782, -22.676222 ], [ 166.813527, -22.67662 ], [ 166.81301, -22.680905 ], [ 166.808894, -22.680396 ], [ 166.808527, -22.678355 ] ] ], [ [ [ 166.792525, -22.711671 ], [ 166.793375, -22.707766 ], [ 166.798188, -22.708825 ], [ 166.798824, -22.711601 ], [ 166.792525, -22.711671 ] ] ], [ [ [ 166.84806, -22.723733 ], [ 166.850666, -22.719783 ], [ 166.854364, -22.722487 ], [ 166.853452, -22.725136 ], [ 166.84806, -22.723733 ] ] ], [ [ [ 166.799081, -22.775744 ], [ 166.803048, -22.774344 ], [ 166.805081, -22.776184 ], [ 166.80313, -22.78055 ], [ 166.799081, -22.775744 ] ] ], [ [ [ 166.875268, -22.848601 ], [ 166.875815, -22.844075 ], [ 166.878855, -22.843474 ], [ 166.880738, -22.847407 ], [ 166.875268, -22.848601 ] ] ], [ [ [ 163.696168, -19.844555 ], [ 163.698454, -19.843017 ], [ 163.700024, -19.843491 ], [ 163.69981, -19.846038 ], [ 163.698452, -19.847484 ], [ 163.696535, -19.846742 ], [ 163.696168, -19.844555 ] ] ], [ [ [ 158.30495, -19.864422 ], [ 158.305761, -19.863081 ], [ 158.30761, -19.86313 ], [ 158.30913, -19.865561 ], [ 158.308627, -19.867092 ], [ 158.30586, -19.866814 ], [ 158.30495, -19.864422 ] ] ] ] } }
]
}
