{
"type": "FeatureCollection",
"name": "Nicaragua",
"crs": { "type": "name", "properties": { "name": "urn:ogc:def:crs:OGC:1.3:CRS84" } },
"features": [
{ "type": "Feature", "properties": { "id": "NI", "CNTR_ID": "NI", "CNTR_NAME": "Nicaragua", "NAME_ENGL": "Nicaragua", "ISO3_CODE": "NIC", "FID": "NI" }, "geometry": { "type": "MultiPolygon", "coordinates": [ [ [ [ -83.14499, 14.998131 ], [ -83.135591, 14.991325 ], [ -83.153136, 14.985939 ], [ -83.176677, 14.969112 ], [ -83.215709, 14.951483 ], [ -83.245217, 14.925366 ], [ -83.264489, 14.89475 ], [ -83.295797, 14.815224 ], [ -83.303317, 14.786643 ], [ -83.309996, 14.77473 ], [ -83.300765, 14.760823 ], [ -83.297971, 14.711722 ], [ -83.274815, 14.605728 ], [ -83.261745, 14.569153 ], [ -83.217864, 14.446319 ], [ -83.215482, 14.413964 ], [ -83.201827, 14.357508 ], [ -83.202473, 14.318736 ], [ -83.210189, 14.294955 ], [ -83.25576, 14.200912 ], [ -83.275843, 14.166581 ], [ -83.287452, 14.153432 ], [ -83.291766, 14.138608 ], [ -83.330786, 14.089448 ], [ -83.357495, 14.047473 ], [ -83.384901, 14.022396 ], [ -83.402602, 14.018038 ], [ -83.44286, 13.939567 ], [ -83.460823, 13.888428 ], [ -83.457678, 13.869512 ], [ -83.478036, 13.831392 ], [ -83.496603, 13.768208 ], [ -83.520937, 13.627046 ], [ -83.525579, 13.573109 ], [ -83.529956, 13.558706 ], [ -83.527207, 13.538771 ], [ -83.539209, 13.509654 ], [ -83.557585, 13.442118 ], [ -83.571637, 13.316437 ], [ -83.568744, 13.231397 ], [ -83.554277, 13.112105 ], [ -83.537878, 13.019552 ], [ -83.515854, 12.91911 ], [ -83.507152, 12.897611 ], [ -83.527234, 12.811738 ], [ -83.536217, 12.74692 ], [ -83.544639, 12.655571 ], [ -83.542225, 12.594848 ], [ -83.533485, 12.548303 ], [ -83.526207, 12.526659 ], [ -83.488921, 12.464104 ], [ -83.492016, 12.39832 ], [ -83.507016, 12.38724 ], [ -83.536801, 12.393187 ], [ -83.564823, 12.39223 ], [ -83.618511, 12.367043 ], [ -83.637139, 12.377487 ], [ -83.631862, 12.390614 ], [ -83.611288, 12.410949 ], [ -83.606384, 12.421971 ], [ -83.63766, 12.48004 ], [ -83.635729, 12.565146 ], [ -83.63159, 12.570273 ], [ -83.622866, 12.561694 ], [ -83.582915, 12.562199 ], [ -83.562749, 12.599332 ], [ -83.560724, 12.637204 ], [ -83.569899, 12.664331 ], [ -83.571016, 12.67588 ], [ -83.558831, 12.71552 ], [ -83.563186, 12.737404 ], [ -83.546966, 12.756478 ], [ -83.544169, 12.772386 ], [ -83.549909, 12.791768 ], [ -83.572953, 12.808072 ], [ -83.614924, 12.819085 ], [ -83.628201, 12.814068 ], [ -83.651488, 12.794784 ], [ -83.647748, 12.773884 ], [ -83.655019, 12.760738 ], [ -83.655704, 12.752436 ], [ -83.643568, 12.7462 ], [ -83.63019, 12.745813 ], [ -83.622869, 12.740083 ], [ -83.619204, 12.727421 ], [ -83.620653, 12.714511 ], [ -83.603313, 12.689781 ], [ -83.605418, 12.658527 ], [ -83.600185, 12.642001 ], [ -83.602819, 12.627934 ], [ -83.611739, 12.621455 ], [ -83.624182, 12.605923 ], [ -83.641034, 12.601327 ], [ -83.664546, 12.576102 ], [ -83.68761, 12.563807 ], [ -83.699674, 12.553467 ], [ -83.752487, 12.547552 ], [ -83.775437, 12.527272 ], [ -83.781766, 12.488437 ], [ -83.77998, 12.479491 ], [ -83.772679, 12.473024 ], [ -83.751685, 12.478702 ], [ -83.739873, 12.475024 ], [ -83.734527, 12.467592 ], [ -83.730292, 12.447002 ], [ -83.731117, 12.426054 ], [ -83.723704, 12.403988 ], [ -83.734856, 12.375041 ], [ -83.72752, 12.336249 ], [ -83.717453, 12.328173 ], [ -83.708433, 12.325728 ], [ -83.679627, 12.342749 ], [ -83.667552, 12.339512 ], [ -83.666619, 12.3276 ], [ -83.673654, 12.31498 ], [ -83.678592, 12.288524 ], [ -83.676816, 12.274295 ], [ -83.670528, 12.274201 ], [ -83.665393, 12.281008 ], [ -83.665252, 12.299461 ], [ -83.658209, 12.315035 ], [ -83.659191, 12.331204 ], [ -83.648203, 12.349817 ], [ -83.631683, 12.36045 ], [ -83.621707, 12.348417 ], [ -83.648668, 12.303911 ], [ -83.660266, 12.278221 ], [ -83.673725, 12.230904 ], [ -83.685357, 12.166955 ], [ -83.6887, 12.102636 ], [ -83.687419, 12.017554 ], [ -83.693158, 12.018661 ], [ -83.7205, 12.045305 ], [ -83.738887, 12.045254 ], [ -83.750542, 12.041456 ], [ -83.762464, 12.041873 ], [ -83.77403, 12.046527 ], [ -83.772786, 12.041492 ], [ -83.76346, 12.031042 ], [ -83.759893, 12.015125 ], [ -83.763145, 11.987252 ], [ -83.770547, 11.973461 ], [ -83.770849, 11.950231 ], [ -83.797719, 11.919055 ], [ -83.80445, 11.903629 ], [ -83.824798, 11.891737 ], [ -83.837014, 11.875175 ], [ -83.832608, 11.865923 ], [ -83.818781, 11.857376 ], [ -83.816776, 11.843825 ], [ -83.810892, 11.832389 ], [ -83.807935, 11.829513 ], [ -83.778337, 11.800716 ], [ -83.756899, 11.801187 ], [ -83.746554, 11.807212 ], [ -83.749293, 11.829513 ], [ -83.750778, 11.841598 ], [ -83.74772, 11.856465 ], [ -83.741434, 11.864745 ], [ -83.730712, 11.865458 ], [ -83.704339, 11.852046 ], [ -83.699959, 11.829513 ], [ -83.698122, 11.820061 ], [ -83.679928, 11.772295 ], [ -83.673, 11.737789 ], [ -83.670894, 11.716826 ], [ -83.675333, 11.70031 ], [ -83.66486, 11.686498 ], [ -83.654708, 11.631728 ], [ -83.64522, 11.611241 ], [ -83.648075, 11.599964 ], [ -83.652994, 11.593859 ], [ -83.670326, 11.602331 ], [ -83.67833, 11.603088 ], [ -83.703547, 11.581759 ], [ -83.715238, 11.567159 ], [ -83.734504, 11.565343 ], [ -83.751695, 11.558071 ], [ -83.770623, 11.516528 ], [ -83.780313, 11.511663 ], [ -83.776381, 11.504173 ], [ -83.778707, 11.489218 ], [ -83.782469, 11.478804 ], [ -83.792094, 11.468632 ], [ -83.799319, 11.448882 ], [ -83.829788, 11.442962 ], [ -83.842305, 11.431261 ], [ -83.865275, 11.396246 ], [ -83.873805, 11.351897 ], [ -83.874979, 11.293791 ], [ -83.840041, 11.146811 ], [ -83.81131, 11.073923 ], [ -83.790418, 11.032268 ], [ -83.756111, 10.979165 ], [ -83.737841, 10.958954 ], [ -83.716884, 10.942509 ], [ -83.69285, 10.938897 ], [ -83.692624, 10.930411 ], [ -83.678869, 10.912259 ], [ -83.680013, 10.896169 ], [ -83.671953, 10.880149 ], [ -83.67362, 10.84853 ], [ -83.665507, 10.821535 ], [ -83.667961, 10.809013 ], [ -83.677666, 10.794993 ], [ -83.686341, 10.789989 ], [ -83.700352, 10.787024 ], [ -83.717855, 10.788725 ], [ -83.746332, 10.77902 ], [ -83.763622, 10.768821 ], [ -83.793333, 10.766664 ], [ -83.814738, 10.746683 ], [ -83.841314, 10.743146 ], [ -83.852001, 10.73069 ], [ -83.867123, 10.719329 ], [ -83.899723, 10.720016 ], [ -83.911518, 10.713451 ], [ -83.929797, 10.708233 ], [ -83.936868, 10.710484 ], [ -83.946209, 10.723053 ], [ -83.9686, 10.730584 ], [ -83.977555, 10.7461 ], [ -84.006474, 10.763691 ], [ -84.018391, 10.781866 ], [ -84.02643, 10.788493 ], [ -84.03463, 10.787015 ], [ -84.040066, 10.777156 ], [ -84.055724, 10.77857 ], [ -84.064561, 10.766509 ], [ -84.07212, 10.763864 ], [ -84.10238, 10.773587 ], [ -84.116875, 10.768865 ], [ -84.123178, 10.769401 ], [ -84.135999, 10.787711 ], [ -84.172753, 10.784161 ], [ -84.189703, 10.78682 ], [ -84.202738, 10.781562 ], [ -84.209906, 10.793917 ], [ -84.228051, 10.802476 ], [ -84.238736, 10.81389 ], [ -84.237232, 10.817421 ], [ -84.224477, 10.823261 ], [ -84.219676, 10.834398 ], [ -84.224101, 10.864772 ], [ -84.253863, 10.882953 ], [ -84.284578, 10.889881 ], [ -84.293668, 10.903361 ], [ -84.301395, 10.909664 ], [ -84.328841, 10.916057 ], [ -84.34092, 10.938213 ], [ -84.35061, 10.948093 ], [ -84.345778, 10.972853 ], [ -84.359346, 10.992084 ], [ -84.364129, 10.991554 ], [ -84.379285, 10.978458 ], [ -84.400876, 10.971764 ], [ -84.41928, 10.957931 ], [ -84.427085, 10.9554 ], [ -84.440644, 10.957268 ], [ -84.455048, 10.965433 ], [ -84.488982, 11.000998 ], [ -84.507791, 11.011274 ], [ -84.560842, 11.031232 ], [ -84.572362, 11.048814 ], [ -84.60873, 11.039237 ], [ -84.680299, 11.078846 ], [ -84.853113, 10.976691 ], [ -84.914246, 10.941394 ], [ -84.941021, 10.952431 ], [ -84.988948, 10.972185 ], [ -85.175341, 11.038532 ], [ -85.207416, 11.05012 ], [ -85.356107, 11.12346 ], [ -85.416272, 11.124779 ], [ -85.519602, 11.162278 ], [ -85.525943, 11.166495 ], [ -85.532786, 11.177476 ], [ -85.551093, 11.200745 ], [ -85.558756, 11.208168 ], [ -85.566544, 11.210256 ], [ -85.572047, 11.211091 ], [ -85.609688, 11.216801 ], [ -85.614696, 11.216548 ], [ -85.618537, 11.213501 ], [ -85.621811, 11.201056 ], [ -85.62612, 11.192994 ], [ -85.660833, 11.138412 ], [ -85.665047, 11.129129 ], [ -85.681806, 11.103514 ], [ -85.694817, 11.080328 ], [ -85.707312, 11.080885 ], [ -85.715755, 11.085896 ], [ -85.733748, 11.090235 ], [ -85.741882, 11.089603 ], [ -85.746243, 11.095688 ], [ -85.757138, 11.099714 ], [ -85.762669, 11.106091 ], [ -85.772295, 11.108095 ], [ -85.781263, 11.115642 ], [ -85.789414, 11.117797 ], [ -85.797426, 11.129061 ], [ -85.79571, 11.144163 ], [ -85.814621, 11.178163 ], [ -85.861008, 11.232728 ], [ -85.879314, 11.243841 ], [ -85.875439, 11.256733 ], [ -85.889491, 11.261279 ], [ -85.891041, 11.26441 ], [ -85.887905, 11.269452 ], [ -85.900416, 11.273591 ], [ -85.905922, 11.286953 ], [ -85.919955, 11.302912 ], [ -85.932978, 11.307583 ], [ -85.952926, 11.330169 ], [ -85.968064, 11.340642 ], [ -85.991762, 11.348015 ], [ -85.996672, 11.35464 ], [ -86.007873, 11.361078 ], [ -86.012543, 11.371835 ], [ -86.030936, 11.380945 ], [ -86.039637, 11.399256 ], [ -86.057631, 11.410756 ], [ -86.070251, 11.41503 ], [ -86.074207, 11.425613 ], [ -86.091959, 11.446127 ], [ -86.122666, 11.468569 ], [ -86.1585, 11.482966 ], [ -86.170391, 11.498057 ], [ -86.166779, 11.50767 ], [ -86.170255, 11.516118 ], [ -86.208516, 11.550661 ], [ -86.242654, 11.570101 ], [ -86.266451, 11.58878 ], [ -86.306809, 11.606671 ], [ -86.337796, 11.624443 ], [ -86.35348, 11.638001 ], [ -86.38024, 11.674024 ], [ -86.401755, 11.693548 ], [ -86.518016, 11.775634 ], [ -86.520154, 11.780084 ], [ -86.51892, 11.795326 ], [ -86.527164, 11.812785 ], [ -86.540587, 11.829513 ], [ -86.574456, 11.871713 ], [ -86.614868, 11.905354 ], [ -86.61802, 11.928151 ], [ -86.62468, 11.941827 ], [ -86.639427, 11.963163 ], [ -86.683014, 12.006565 ], [ -86.688841, 12.023636 ], [ -86.73348, 12.094334 ], [ -86.744412, 12.120318 ], [ -86.752334, 12.151388 ], [ -86.757456, 12.152346 ], [ -86.75888, 12.161052 ], [ -86.767828, 12.176845 ], [ -86.767468, 12.180904 ], [ -86.76318, 12.184034 ], [ -86.766771, 12.191381 ], [ -86.821197, 12.23397 ], [ -86.961751, 12.318141 ], [ -87.016541, 12.354912 ], [ -87.06726, 12.395012 ], [ -87.094595, 12.411184 ], [ -87.170663, 12.456181 ], [ -87.171037, 12.47251 ], [ -87.178817, 12.480712 ], [ -87.182103, 12.492348 ], [ -87.212015, 12.528683 ], [ -87.245789, 12.554805 ], [ -87.311136, 12.597041 ], [ -87.332776, 12.605476 ], [ -87.34525, 12.607369 ], [ -87.346752, 12.617194 ], [ -87.361626, 12.631357 ], [ -87.366311, 12.644384 ], [ -87.390048, 12.67369 ], [ -87.39823, 12.691737 ], [ -87.430082, 12.717273 ], [ -87.450545, 12.740879 ], [ -87.476417, 12.762582 ], [ -87.490585, 12.769978 ], [ -87.504007, 12.784038 ], [ -87.526285, 12.8008 ], [ -87.617204, 12.856183 ], [ -87.630831, 12.864482 ], [ -87.650708, 12.876588 ], [ -87.689693, 12.91386 ], [ -87.682664, 12.945548 ], [ -87.661328, 12.985996 ], [ -87.650602, 12.995137 ], [ -87.63332, 13.001439 ], [ -87.630831, 13.003173 ], [ -87.617204, 13.012666 ], [ -87.613877, 13.014983 ], [ -87.586302, 13.053568 ], [ -87.550428, 13.048358 ], [ -87.515704, 13.023916 ], [ -87.488152, 12.996337 ], [ -87.472853, 12.971312 ], [ -87.475893, 12.956894 ], [ -87.471664, 12.937905 ], [ -87.429561, 12.920285 ], [ -87.394645, 12.912076 ], [ -87.36653, 12.911586 ], [ -87.309785, 12.922474 ], [ -87.308928, 12.925745 ], [ -87.311645, 12.927429 ], [ -87.367155, 12.926227 ], [ -87.37638, 12.931311 ], [ -87.382198, 12.940287 ], [ -87.379377, 12.945545 ], [ -87.37079, 12.950755 ], [ -87.328734, 12.967586 ], [ -87.31207, 12.982942 ], [ -87.310815, 12.982723 ], [ -87.121616, 12.997898 ], [ -87.068951, 12.996746 ], [ -87.049338, 12.986292 ], [ -87.031821, 12.988278 ], [ -87.021598, 13.003744 ], [ -87.008993, 13.004984 ], [ -86.991811, 13.01633 ], [ -86.979013, 13.017119 ], [ -86.963226, 13.029462 ], [ -86.950672, 13.059944 ], [ -86.921001, 13.088438 ], [ -86.93124, 13.119232 ], [ -86.919417, 13.148056 ], [ -86.926097, 13.163192 ], [ -86.928303, 13.178673 ], [ -86.916241, 13.205807 ], [ -86.904128, 13.258137 ], [ -86.879277, 13.274151 ], [ -86.863479, 13.293703 ], [ -86.829478, 13.304536 ], [ -86.812559, 13.30231 ], [ -86.754976, 13.268257 ], [ -86.739136, 13.272677 ], [ -86.707495, 13.296449 ], [ -86.703334, 13.307857 ], [ -86.702775, 13.321788 ], [ -86.710466, 13.366544 ], [ -86.715635, 13.372574 ], [ -86.73305, 13.379734 ], [ -86.740854, 13.393793 ], [ -86.738215, 13.403694 ], [ -86.724381, 13.423351 ], [ -86.722666, 13.432962 ], [ -86.726047, 13.452441 ], [ -86.737341, 13.481236 ], [ -86.745646, 13.547685 ], [ -86.751749, 13.561481 ], [ -86.767006, 13.575419 ], [ -86.75339, 13.635773 ], [ -86.763794, 13.645488 ], [ -86.780065, 13.652387 ], [ -86.784305, 13.6597 ], [ -86.783124, 13.669365 ], [ -86.763497, 13.715437 ], [ -86.767303, 13.7535 ], [ -86.760217, 13.772154 ], [ -86.741181, 13.775188 ], [ -86.714281, 13.786137 ], [ -86.67132, 13.783054 ], [ -86.652163, 13.778727 ], [ -86.630488, 13.782711 ], [ -86.607813, 13.781939 ], [ -86.578695, 13.788576 ], [ -86.563223, 13.799174 ], [ -86.551477, 13.800449 ], [ -86.535798, 13.797656 ], [ -86.519146, 13.778858 ], [ -86.498597, 13.769693 ], [ -86.474292, 13.771651 ], [ -86.450407, 13.781714 ], [ -86.445352, 13.778597 ], [ -86.438832, 13.763734 ], [ -86.433613, 13.759701 ], [ -86.39327, 13.759761 ], [ -86.375581, 13.768584 ], [ -86.363993, 13.761652 ], [ -86.348119, 13.761568 ], [ -86.32337, 13.779604 ], [ -86.312796, 13.800381 ], [ -86.302536, 13.813186 ], [ -86.299172, 13.825992 ], [ -86.301672, 13.840151 ], [ -86.299508, 13.845218 ], [ -86.282057, 13.854653 ], [ -86.275007, 13.868457 ], [ -86.252147, 13.885104 ], [ -86.241855, 13.901389 ], [ -86.229565, 13.912289 ], [ -86.221113, 13.927531 ], [ -86.203695, 13.937369 ], [ -86.187678, 13.955212 ], [ -86.189251, 13.972604 ], [ -86.187162, 13.979515 ], [ -86.158144, 13.986931 ], [ -86.138342, 14.00163 ], [ -86.137997, 14.009461 ], [ -86.150573, 14.02111 ], [ -86.148237, 14.031805 ], [ -86.091976, 14.063278 ], [ -86.063218, 14.0687 ], [ -86.03572, 14.069293 ], [ -86.014684, 14.07551 ], [ -86.007863, 14.071154 ], [ -86.006004, 14.059341 ], [ -86.020163, 14.023646 ], [ -86.022398, 14.00937 ], [ -86.012448, 13.988041 ], [ -85.948001, 13.938797 ], [ -85.915432, 13.906545 ], [ -85.899778, 13.902874 ], [ -85.891837, 13.916198 ], [ -85.884827, 13.921006 ], [ -85.865313, 13.918987 ], [ -85.855066, 13.914486 ], [ -85.844868, 13.901845 ], [ -85.842253, 13.876129 ], [ -85.816445, 13.843628 ], [ -85.794864, 13.839821 ], [ -85.77076, 13.843445 ], [ -85.751867, 13.834824 ], [ -85.744027, 13.841538 ], [ -85.740028, 13.855339 ], [ -85.744992, 13.867515 ], [ -85.763456, 13.883039 ], [ -85.758419, 13.912075 ], [ -85.759277, 13.946315 ], [ -85.755038, 13.961504 ], [ -85.734738, 13.969601 ], [ -85.712359, 13.986746 ], [ -85.678962, 13.981937 ], [ -85.667588, 13.991997 ], [ -85.660065, 14.011679 ], [ -85.651729, 14.014084 ], [ -85.632812, 14.012926 ], [ -85.610109, 14.02509 ], [ -85.596079, 14.040709 ], [ -85.583461, 14.0468 ], [ -85.572571, 14.062521 ], [ -85.562141, 14.063247 ], [ -85.561341, 14.053804 ], [ -85.555387, 14.048783 ], [ -85.525201, 14.047427 ], [ -85.519132, 14.058988 ], [ -85.51229, 14.064959 ], [ -85.506037, 14.083641 ], [ -85.496176, 14.079825 ], [ -85.490906, 14.08989 ], [ -85.481568, 14.083381 ], [ -85.477698, 14.091238 ], [ -85.470458, 14.093543 ], [ -85.466113, 14.101408 ], [ -85.454054, 14.111521 ], [ -85.441937, 14.105583 ], [ -85.429431, 14.10744 ], [ -85.423736, 14.114555 ], [ -85.407001, 14.124584 ], [ -85.399595, 14.134349 ], [ -85.397207, 14.139375 ], [ -85.398212, 14.156943 ], [ -85.379204, 14.178193 ], [ -85.379912, 14.188146 ], [ -85.375482, 14.207505 ], [ -85.379636, 14.220537 ], [ -85.372725, 14.223426 ], [ -85.365822, 14.215236 ], [ -85.356397, 14.215539 ], [ -85.334406, 14.246067 ], [ -85.316562, 14.254067 ], [ -85.294284, 14.249776 ], [ -85.27269, 14.257458 ], [ -85.24636, 14.257508 ], [ -85.230783, 14.253754 ], [ -85.199105, 14.255801 ], [ -85.191115, 14.249194 ], [ -85.183896, 14.251293 ], [ -85.160028, 14.295889 ], [ -85.177009, 14.305707 ], [ -85.182004, 14.326344 ], [ -85.190666, 14.327071 ], [ -85.19936, 14.334685 ], [ -85.204392, 14.355086 ], [ -85.219612, 14.360364 ], [ -85.224042, 14.367137 ], [ -85.206832, 14.390276 ], [ -85.186952, 14.432229 ], [ -85.17709, 14.461965 ], [ -85.152982, 14.486841 ], [ -85.139179, 14.514133 ], [ -85.139296, 14.525507 ], [ -85.143256, 14.537537 ], [ -85.141775, 14.548811 ], [ -85.148683, 14.567773 ], [ -85.145607, 14.569153 ], [ -85.12487, 14.578453 ], [ -85.113836, 14.572959 ], [ -85.110985, 14.569153 ], [ -85.102302, 14.557559 ], [ -85.090708, 14.550304 ], [ -85.080076, 14.554908 ], [ -85.067925, 14.555905 ], [ -85.059182, 14.565126 ], [ -85.052333, 14.569153 ], [ -85.044971, 14.573481 ], [ -85.026711, 14.601109 ], [ -85.028241, 14.605213 ], [ -85.040558, 14.610269 ], [ -85.029708, 14.623975 ], [ -85.027295, 14.631492 ], [ -85.031603, 14.640014 ], [ -85.048635, 14.65245 ], [ -85.049936, 14.66374 ], [ -85.0439, 14.668933 ], [ -85.030413, 14.672473 ], [ -85.024842, 14.683151 ], [ -85.028658, 14.691952 ], [ -85.025723, 14.699646 ], [ -84.988992, 14.732851 ], [ -84.976076, 14.738592 ], [ -84.959567, 14.751312 ], [ -84.928722, 14.758797 ], [ -84.926276, 14.77176 ], [ -84.911797, 14.797473 ], [ -84.902485, 14.807828 ], [ -84.880466, 14.809804 ], [ -84.860572, 14.807353 ], [ -84.853113, 14.811454 ], [ -84.838856, 14.819293 ], [ -84.821372, 14.822679 ], [ -84.803464, 14.817062 ], [ -84.793031, 14.808383 ], [ -84.789254, 14.794032 ], [ -84.782665, 14.784464 ], [ -84.754633, 14.765344 ], [ -84.752681, 14.758309 ], [ -84.754725, 14.753883 ], [ -84.767367, 14.751838 ], [ -84.770015, 14.745509 ], [ -84.762335, 14.739469 ], [ -84.748429, 14.742793 ], [ -84.746498, 14.737246 ], [ -84.750182, 14.725422 ], [ -84.746592, 14.712125 ], [ -84.725212, 14.692941 ], [ -84.712498, 14.687802 ], [ -84.70387, 14.661819 ], [ -84.695332, 14.662016 ], [ -84.679343, 14.686047 ], [ -84.671568, 14.674872 ], [ -84.660357, 14.66848 ], [ -84.63928, 14.672297 ], [ -84.629038, 14.660883 ], [ -84.614871, 14.660725 ], [ -84.600915, 14.654936 ], [ -84.590258, 14.656796 ], [ -84.581486, 14.650786 ], [ -84.567238, 14.651575 ], [ -84.560042, 14.647217 ], [ -84.552307, 14.650651 ], [ -84.525655, 14.65345 ], [ -84.525912, 14.646891 ], [ -84.536924, 14.639708 ], [ -84.533989, 14.629535 ], [ -84.509256, 14.633689 ], [ -84.50105, 14.62461 ], [ -84.495761, 14.620961 ], [ -84.469007, 14.615716 ], [ -84.456675, 14.62947 ], [ -84.433146, 14.632492 ], [ -84.412917, 14.642412 ], [ -84.406255, 14.655362 ], [ -84.38355, 14.677538 ], [ -84.364072, 14.709898 ], [ -84.345242, 14.701005 ], [ -84.350307, 14.685139 ], [ -84.345794, 14.67513 ], [ -84.327431, 14.671636 ], [ -84.308995, 14.680184 ], [ -84.303744, 14.675979 ], [ -84.296617, 14.661729 ], [ -84.277737, 14.656794 ], [ -84.256469, 14.674155 ], [ -84.262047, 14.684239 ], [ -84.259992, 14.69712 ], [ -84.268367, 14.718679 ], [ -84.267051, 14.731696 ], [ -84.26038, 14.739664 ], [ -84.237983, 14.753858 ], [ -84.231028, 14.753668 ], [ -84.224202, 14.748822 ], [ -84.225043, 14.72943 ], [ -84.218992, 14.725212 ], [ -84.205186, 14.715588 ], [ -84.189722, 14.709472 ], [ -84.177263, 14.70844 ], [ -84.150753, 14.712968 ], [ -84.127793, 14.725441 ], [ -84.100994, 14.722802 ], [ -84.100521, 14.737131 ], [ -84.108067, 14.746518 ], [ -84.117496, 14.769585 ], [ -84.116521, 14.778503 ], [ -84.110002, 14.783825 ], [ -84.098771, 14.784514 ], [ -84.087434, 14.780363 ], [ -84.084934, 14.759538 ], [ -84.081338, 14.754083 ], [ -84.073989, 14.75398 ], [ -84.050126, 14.763516 ], [ -84.046566, 14.759679 ], [ -84.042901, 14.74362 ], [ -84.028671, 14.739238 ], [ -84.005205, 14.748457 ], [ -83.981593, 14.740904 ], [ -83.953526, 14.749866 ], [ -83.934222, 14.743878 ], [ -83.931716, 14.747957 ], [ -83.937077, 14.763046 ], [ -83.934865, 14.767318 ], [ -83.916842, 14.770515 ], [ -83.896213, 14.760519 ], [ -83.891518, 14.763119 ], [ -83.891043, 14.770683 ], [ -83.886518, 14.778875 ], [ -83.881774, 14.775642 ], [ -83.875304, 14.763239 ], [ -83.851379, 14.768123 ], [ -83.831975, 14.783977 ], [ -83.79958, 14.786525 ], [ -83.802068, 14.791745 ], [ -83.816197, 14.800095 ], [ -83.81659, 14.80384 ], [ -83.793741, 14.799513 ], [ -83.784464, 14.812395 ], [ -83.780721, 14.809628 ], [ -83.774033, 14.804685 ], [ -83.765518, 14.8032 ], [ -83.757786, 14.821286 ], [ -83.737287, 14.817107 ], [ -83.740391, 14.827588 ], [ -83.738653, 14.830309 ], [ -83.720402, 14.831465 ], [ -83.706788, 14.827333 ], [ -83.705288, 14.837737 ], [ -83.715727, 14.844883 ], [ -83.701844, 14.852585 ], [ -83.698564, 14.865773 ], [ -83.688355, 14.862135 ], [ -83.670839, 14.870478 ], [ -83.64927, 14.874679 ], [ -83.633706, 14.871646 ], [ -83.629278, 14.859996 ], [ -83.623885, 14.857436 ], [ -83.623311, 14.867535 ], [ -83.616204, 14.87929 ], [ -83.617479, 14.8896 ], [ -83.60096, 14.896181 ], [ -83.601466, 14.905408 ], [ -83.598944, 14.908551 ], [ -83.585787, 14.90509 ], [ -83.576562, 14.908172 ], [ -83.566155, 14.907089 ], [ -83.562407, 14.930166 ], [ -83.547087, 14.93363 ], [ -83.550483, 14.946437 ], [ -83.537358, 14.94522 ], [ -83.544279, 14.961515 ], [ -83.542511, 14.970793 ], [ -83.538245, 14.972139 ], [ -83.529014, 14.968876 ], [ -83.529635, 14.986801 ], [ -83.518036, 14.982478 ], [ -83.507375, 14.997146 ], [ -83.495752, 15.002744 ], [ -83.485537, 14.999862 ], [ -83.481885, 14.986747 ], [ -83.465514, 14.976044 ], [ -83.455191, 14.978433 ], [ -83.439953, 14.98746 ], [ -83.423424, 14.990605 ], [ -83.408522, 15.00463 ], [ -83.406659, 15.020418 ], [ -83.402385, 15.024792 ], [ -83.387664, 15.01548 ], [ -83.36759, 15.010261 ], [ -83.354724, 14.99741 ], [ -83.350784, 14.998607 ], [ -83.347285, 15.007947 ], [ -83.34357, 15.009929 ], [ -83.329702, 15.006879 ], [ -83.302965, 14.995452 ], [ -83.282082, 14.99785 ], [ -83.280737, 14.991402 ], [ -83.290798, 14.980431 ], [ -83.283652, 14.975328 ], [ -83.271181, 14.983624 ], [ -83.236285, 14.981442 ], [ -83.208176, 14.992528 ], [ -83.171239, 14.990288 ], [ -83.14499, 14.998131 ] ] ], [ [ [ -82.81419, 14.35534 ], [ -82.809383, 14.360274 ], [ -82.807051, 14.367056 ], [ -82.797986, 14.368646 ], [ -82.796684, 14.375368 ], [ -82.784273, 14.392347 ], [ -82.786436, 14.400238 ], [ -82.780607, 14.408018 ], [ -82.781504, 14.412432 ], [ -82.771666, 14.413849 ], [ -82.773025, 14.417804 ], [ -82.769565, 14.419905 ], [ -82.766722, 14.418546 ], [ -82.769194, 14.417186 ], [ -82.7687, 14.414714 ], [ -82.764374, 14.414591 ], [ -82.761037, 14.416568 ], [ -82.743858, 14.416939 ], [ -82.73842, 14.410636 ], [ -82.736196, 14.403838 ], [ -82.741139, 14.396917 ], [ -82.736937, 14.385671 ], [ -82.735083, 14.382828 ], [ -82.734473, 14.375987 ], [ -82.736937, 14.372941 ], [ -82.741634, 14.36429 ], [ -82.745712, 14.359717 ], [ -82.746948, 14.35465 ], [ -82.752015, 14.350324 ], [ -82.764051, 14.349023 ], [ -82.76499, 14.351024 ], [ -82.756542, 14.352499 ], [ -82.751177, 14.354913 ], [ -82.746948, 14.361695 ], [ -82.748307, 14.364166 ], [ -82.756835, 14.356998 ], [ -82.762644, 14.354032 ], [ -82.770183, 14.351437 ], [ -82.769318, 14.348841 ], [ -82.774546, 14.3483 ], [ -82.779619, 14.357298 ], [ -82.813223, 14.354574 ], [ -82.81419, 14.35534 ] ] ], [ [ [ -83.747628, 11.910176 ], [ -83.747081, 11.917295 ], [ -83.743396, 11.927805 ], [ -83.738782, 11.931516 ], [ -83.742468, 11.936787 ], [ -83.745812, 11.955301 ], [ -83.734631, 11.969785 ], [ -83.73066, 11.991916 ], [ -83.718627, 12.000002 ], [ -83.710891, 11.997247 ], [ -83.723284, 11.967492 ], [ -83.726487, 11.934259 ], [ -83.724286, 11.908777 ], [ -83.71671, 11.870533 ], [ -83.718373, 11.86993 ], [ -83.721835, 11.875864 ], [ -83.728229, 11.873268 ], [ -83.738416, 11.878504 ], [ -83.739091, 11.903059 ], [ -83.744018, 11.908777 ], [ -83.747628, 11.910176 ] ] ], [ [ [ -83.071106, 12.167051 ], [ -83.06451, 12.171058 ], [ -83.06311, 12.174202 ], [ -83.065308, 12.178596 ], [ -83.06184, 12.183255 ], [ -83.059435, 12.182244 ], [ -83.04536, 12.186391 ], [ -83.042187, 12.18574 ], [ -83.031891, 12.177527 ], [ -83.03567, 12.169295 ], [ -83.039472, 12.166532 ], [ -83.040912, 12.167931 ], [ -83.047784, 12.166159 ], [ -83.051051, 12.163199 ], [ -83.054402, 12.156388 ], [ -83.056892, 12.148112 ], [ -83.06088, 12.146412 ], [ -83.06649, 12.14733 ], [ -83.067172, 12.150678 ], [ -83.065523, 12.158505 ], [ -83.066334, 12.160819 ], [ -83.070009, 12.163409 ], [ -83.071106, 12.167051 ] ] ], [ [ [ -83.676697, 12.357903 ], [ -83.674037, 12.361073 ], [ -83.671833, 12.369646 ], [ -83.668704, 12.376288 ], [ -83.668605, 12.385171 ], [ -83.667053, 12.385766 ], [ -83.660178, 12.378695 ], [ -83.659999, 12.374128 ], [ -83.664345, 12.364288 ], [ -83.664054, 12.362098 ], [ -83.666169, 12.355268 ], [ -83.66742, 12.354603 ], [ -83.67613, 12.356826 ], [ -83.676697, 12.357903 ] ] ], [ [ [ -82.991145, 12.29816 ], [ -82.985069, 12.301889 ], [ -82.979197, 12.30192 ], [ -82.977573, 12.297858 ], [ -82.977635, 12.29337 ], [ -82.976183, 12.29111 ], [ -82.974181, 12.282901 ], [ -82.971502, 12.280216 ], [ -82.97204, 12.275911 ], [ -82.97519, 12.274598 ], [ -82.977609, 12.277893 ], [ -82.978893, 12.284275 ], [ -82.982053, 12.286957 ], [ -82.990064, 12.288229 ], [ -82.989752, 12.29593 ], [ -82.991145, 12.29816 ] ] ], [ [ [ -83.694948, 11.993987 ], [ -83.691102, 11.998782 ], [ -83.686494, 11.996275 ], [ -83.683657, 11.996628 ], [ -83.6799, 11.994216 ], [ -83.68305, 11.990311 ], [ -83.686964, 11.990923 ], [ -83.688353, 11.98844 ], [ -83.694146, 11.988378 ], [ -83.693031, 11.992225 ], [ -83.694948, 11.993987 ] ] ], [ [ [ -87.588176, 13.060303 ], [ -87.584179, 13.076467 ], [ -87.580657, 13.075157 ], [ -87.581862, 13.065341 ], [ -87.585899, 13.060093 ], [ -87.588176, 13.060303 ] ] ], [ [ [ -82.804738, 14.391096 ], [ -82.803448, 14.393212 ], [ -82.795137, 14.391148 ], [ -82.79278, 14.38795 ], [ -82.794753, 14.385635 ], [ -82.80319, 14.388979 ], [ -82.804738, 14.391096 ] ] ], [ [ [ -87.581143, 13.087581 ], [ -87.575892, 13.091063 ], [ -87.574688, 13.084424 ], [ -87.576468, 13.083705 ], [ -87.581143, 13.087581 ] ] ], [ [ [ -82.815915, 14.3679 ], [ -82.813799, 14.372443 ], [ -82.809748, 14.373353 ], [ -82.809384, 14.371351 ], [ -82.814426, 14.367343 ], [ -82.815915, 14.3679 ] ] ], [ [ [ -83.76314, 11.868864 ], [ -83.758395, 11.870879 ], [ -83.756358, 11.867681 ], [ -83.758214, 11.865026 ], [ -83.76314, 11.868864 ] ] ], [ [ [ -83.791619, 11.870358 ], [ -83.785995, 11.872408 ], [ -83.78563, 11.867622 ], [ -83.791589, 11.868371 ], [ -83.791619, 11.870358 ] ] ], [ [ [ -83.770607, 11.875273 ], [ -83.765506, 11.876837 ], [ -83.765975, 11.871794 ], [ -83.77006, 11.871735 ], [ -83.770607, 11.875273 ] ] ], [ [ [ -83.754508, 11.970735 ], [ -83.750697, 11.973438 ], [ -83.747707, 11.970637 ], [ -83.751013, 11.967638 ], [ -83.754508, 11.970735 ] ] ], [ [ [ -83.724104, 12.004632 ], [ -83.723659, 12.006925 ], [ -83.719214, 12.004685 ], [ -83.71941, 12.001485 ], [ -83.723374, 12.001449 ], [ -83.724104, 12.004632 ] ] ], [ [ [ -83.690547, 12.005298 ], [ -83.685801, 12.007483 ], [ -83.684124, 12.002767 ], [ -83.68837, 12.002351 ], [ -83.690547, 12.005298 ] ] ], [ [ [ -87.193886, 12.475313 ], [ -87.189876, 12.476515 ], [ -87.187738, 12.472682 ], [ -87.18889, 12.470959 ], [ -87.193593, 12.473491 ], [ -87.193886, 12.475313 ] ] ], [ [ [ -83.391337, 12.483024 ], [ -83.386502, 12.483704 ], [ -83.386602, 12.479369 ], [ -83.390003, 12.478086 ], [ -83.391337, 12.483024 ] ] ], [ [ [ -83.391968, 12.492771 ], [ -83.389348, 12.496804 ], [ -83.387195, 12.4951 ], [ -83.388437, 12.488996 ], [ -83.391968, 12.492771 ] ] ], [ [ [ -83.365776, 12.534754 ], [ -83.365599, 12.536841 ], [ -83.360503, 12.538976 ], [ -83.35963, 12.535644 ], [ -83.362541, 12.53394 ], [ -83.365776, 12.534754 ] ] ], [ [ [ -87.578471, 13.073398 ], [ -87.575385, 13.078827 ], [ -87.573385, 13.074515 ], [ -87.57554, 13.071064 ], [ -87.578471, 13.073398 ] ] ] ] } }
]
}
