{
"type": "FeatureCollection",
"name": "Niue",
"crs": { "type": "name", "properties": { "name": "urn:ogc:def:crs:OGC:1.3:CRS84" } },
"features": [
{ "type": "Feature", "properties": { "id": "NU", "CNTR_ID": "NU", "CNTR_NAME": "Niue-Niuē", "NAME_ENGL": "Niue", "ISO3_CODE": "NIU", "FID": "NU" }, "geometry": { "type": "MultiPolygon", "coordinates": [ [ [ [ -169.951979, -19.074601 ], [ -169.951714, -19.073396 ], [ -169.941873, -19.066416 ], [ -169.93847, -19.06517 ], [ -169.937624, -19.063051 ], [ -169.933015, -19.062122 ], [ -169.921782, -19.055385 ], [ -169.919371, -19.051509 ], [ -169.917255, -19.043773 ], [ -169.917686, -19.037003 ], [ -169.920214, -19.033561 ], [ -169.92072, -19.025906 ], [ -169.923617, -19.014677 ], [ -169.922359, -19.008015 ], [ -169.91813, -19.003673 ], [ -169.915904, -18.999909 ], [ -169.9081, -18.994543 ], [ -169.905143, -18.991436 ], [ -169.90007, -18.98085 ], [ -169.894447, -18.971805 ], [ -169.891759, -18.968957 ], [ -169.885111, -18.965206 ], [ -169.883335, -18.961862 ], [ -169.878094, -18.958146 ], [ -169.872077, -18.958153 ], [ -169.868027, -18.956712 ], [ -169.858562, -18.955882 ], [ -169.858299, -18.95485 ], [ -169.843897, -18.950765 ], [ -169.836659, -18.953686 ], [ -169.827012, -18.956437 ], [ -169.820021, -18.956763 ], [ -169.81084, -18.960276 ], [ -169.807277, -18.96246 ], [ -169.804649, -18.966193 ], [ -169.801683, -18.975887 ], [ -169.802256, -18.985049 ], [ -169.798064, -18.999005 ], [ -169.794203, -19.004854 ], [ -169.792436, -19.010546 ], [ -169.794473, -19.0169 ], [ -169.794523, -19.020659 ], [ -169.792415, -19.023178 ], [ -169.790562, -19.028958 ], [ -169.787481, -19.034296 ], [ -169.786545, -19.038649 ], [ -169.784002, -19.041484 ], [ -169.782014, -19.046667 ], [ -169.774469, -19.057605 ], [ -169.773835, -19.061759 ], [ -169.778219, -19.071757 ], [ -169.781182, -19.075068 ], [ -169.787474, -19.085061 ], [ -169.79126, -19.089015 ], [ -169.795885, -19.096212 ], [ -169.802199, -19.100877 ], [ -169.807207, -19.105632 ], [ -169.811334, -19.110939 ], [ -169.821145, -19.119522 ], [ -169.828567, -19.124848 ], [ -169.834481, -19.13204 ], [ -169.839721, -19.141587 ], [ -169.843957, -19.14686 ], [ -169.853795, -19.147211 ], [ -169.865693, -19.150328 ], [ -169.873886, -19.154176 ], [ -169.878, -19.15535 ], [ -169.884017, -19.152664 ], [ -169.891272, -19.145023 ], [ -169.895758, -19.141334 ], [ -169.903153, -19.138132 ], [ -169.907554, -19.13733 ], [ -169.915053, -19.138412 ], [ -169.922248, -19.135602 ], [ -169.922264, -19.133741 ], [ -169.914921, -19.127753 ], [ -169.91254, -19.124592 ], [ -169.913516, -19.118931 ], [ -169.912607, -19.113004 ], [ -169.915623, -19.107357 ], [ -169.924184, -19.098942 ], [ -169.937799, -19.089661 ], [ -169.94925, -19.079231 ], [ -169.951979, -19.074601 ] ] ] ] } }
]
}
