{
"type": "FeatureCollection",
"name": "Northern Mariana Islands",
"crs": { "type": "name", "properties": { "name": "urn:ogc:def:crs:OGC:1.3:CRS84" } },
"features": [
{ "type": "Feature", "properties": { "id": "MP", "CNTR_ID": "MP", "CNTR_NAME": "Northern Mariana Islands-Notte Mariånas-Northern Mariana Islands", "NAME_ENGL": "Northern Mariana Islands", "ISO3_CODE": "MNP", "FID": "MP" }, "geometry": { "type": "MultiPolygon", "coordinates": [ [ [ [ 145.691015, 15.119961 ], [ 145.700542, 15.156203 ], [ 145.70749, 15.164532 ], [ 145.713002, 15.179146 ], [ 145.716677, 15.196654 ], [ 145.716369, 15.217764 ], [ 145.728857, 15.218937 ], [ 145.738756, 15.2287 ], [ 145.739729, 15.2287 ], [ 145.753707, 15.242328 ], [ 145.777697, 15.253672 ], [ 145.78624, 15.267047 ], [ 145.811186, 15.289649 ], [ 145.820372, 15.285137 ], [ 145.82988, 15.272572 ], [ 145.829998, 15.266632 ], [ 145.826207, 15.260068 ], [ 145.811893, 15.258732 ], [ 145.809149, 15.240382 ], [ 145.79748, 15.2287 ], [ 145.792234, 15.22687 ], [ 145.779486, 15.209267 ], [ 145.781798, 15.203052 ], [ 145.779167, 15.187929 ], [ 145.786224, 15.174698 ], [ 145.795034, 15.166366 ], [ 145.788524, 15.152014 ], [ 145.775111, 15.151671 ], [ 145.766497, 15.161678 ], [ 145.758592, 15.162595 ], [ 145.750241, 15.158817 ], [ 145.742115, 15.14111 ], [ 145.745084, 15.129336 ], [ 145.75668, 15.119857 ], [ 145.756172, 15.111923 ], [ 145.74848, 15.09255 ], [ 145.739762, 15.105015 ], [ 145.709041, 15.106169 ], [ 145.700649, 15.115163 ], [ 145.691015, 15.119961 ] ] ], [ [ [ 145.582263, 15.017909 ], [ 145.584757, 15.021791 ], [ 145.584604, 15.024884 ], [ 145.587738, 15.03238 ], [ 145.588364, 15.038056 ], [ 145.592615, 15.037051 ], [ 145.595783, 15.039391 ], [ 145.597353, 15.042752 ], [ 145.598622, 15.051525 ], [ 145.596488, 15.053316 ], [ 145.602297, 15.057477 ], [ 145.613357, 15.070306 ], [ 145.615736, 15.071739 ], [ 145.617299, 15.076131 ], [ 145.620475, 15.07744 ], [ 145.626534, 15.08418 ], [ 145.630766, 15.086396 ], [ 145.636026, 15.093776 ], [ 145.644468, 15.101432 ], [ 145.654085, 15.091306 ], [ 145.65718, 15.084363 ], [ 145.655433, 15.066822 ], [ 145.656388, 15.062702 ], [ 145.658787, 15.060912 ], [ 145.658938, 15.057819 ], [ 145.65592, 15.052645 ], [ 145.652745, 15.051337 ], [ 145.651438, 15.048235 ], [ 145.647217, 15.044343 ], [ 145.648607, 15.034297 ], [ 145.653427, 15.027107 ], [ 145.656127, 15.019646 ], [ 145.659054, 15.018116 ], [ 145.666215, 15.018416 ], [ 145.669417, 15.015341 ], [ 145.674123, 15.004798 ], [ 145.673353, 15.000669 ], [ 145.670734, 14.99524 ], [ 145.669721, 14.987499 ], [ 145.666589, 14.979231 ], [ 145.664345, 14.977671 ], [ 145.666109, 14.971236 ], [ 145.662167, 14.965283 ], [ 145.661672, 14.959608 ], [ 145.665591, 14.947772 ], [ 145.66055, 14.948258 ], [ 145.658185, 14.944763 ], [ 145.654996, 14.945905 ], [ 145.651713, 14.940729 ], [ 145.652533, 14.936867 ], [ 145.648843, 14.933235 ], [ 145.645757, 14.926045 ], [ 145.641007, 14.922408 ], [ 145.637031, 14.922254 ], [ 145.632248, 14.923902 ], [ 145.629663, 14.934199 ], [ 145.629891, 14.94013 ], [ 145.628549, 14.9427 ], [ 145.631683, 14.950196 ], [ 145.631927, 14.953549 ], [ 145.625882, 14.964205 ], [ 145.618604, 14.964823 ], [ 145.617105, 14.969959 ], [ 145.613918, 14.970713 ], [ 145.612439, 14.973798 ], [ 145.613319, 14.98128 ], [ 145.609533, 14.985978 ], [ 145.608883, 14.990534 ], [ 145.604579, 14.992136 ], [ 145.599015, 14.991329 ], [ 145.594519, 14.989368 ], [ 145.590268, 14.990502 ], [ 145.589189, 14.993202 ], [ 145.585736, 14.993954 ], [ 145.584393, 14.996524 ], [ 145.586216, 15.001691 ], [ 145.586581, 15.006592 ], [ 145.588416, 15.009955 ], [ 145.584285, 15.013023 ], [ 145.582263, 15.017909 ] ] ], [ [ [ 145.121718, 14.121613 ], [ 145.124506, 14.128936 ], [ 145.139643, 14.141196 ], [ 145.142937, 14.150127 ], [ 145.160222, 14.168427 ], [ 145.180192, 14.169071 ], [ 145.20194, 14.176615 ], [ 145.213588, 14.185767 ], [ 145.237263, 14.199457 ], [ 145.245988, 14.20081 ], [ 145.278075, 14.195499 ], [ 145.288117, 14.192042 ], [ 145.290502, 14.188001 ], [ 145.281981, 14.159502 ], [ 145.268999, 14.152209 ], [ 145.255911, 14.154332 ], [ 145.240597, 14.150406 ], [ 145.230323, 14.140939 ], [ 145.229174, 14.13046 ], [ 145.213588, 14.116381 ], [ 145.198798, 14.113435 ], [ 145.18443, 14.115728 ], [ 145.174476, 14.110973 ], [ 145.169451, 14.111317 ], [ 145.165629, 14.129045 ], [ 145.144341, 14.138935 ], [ 145.138706, 14.135721 ], [ 145.12844, 14.121076 ], [ 145.123774, 14.118335 ], [ 145.121718, 14.121613 ] ] ], [ [ [ 145.707888, 18.048213 ], [ 145.711456, 18.052441 ], [ 145.711499, 18.062251 ], [ 145.713009, 18.064319 ], [ 145.716749, 18.075686 ], [ 145.722393, 18.082206 ], [ 145.729403, 18.08577 ], [ 145.731363, 18.084599 ], [ 145.737064, 18.085149 ], [ 145.742868, 18.090364 ], [ 145.75546, 18.098664 ], [ 145.758801, 18.107413 ], [ 145.757622, 18.121904 ], [ 145.759636, 18.123737 ], [ 145.757712, 18.125463 ], [ 145.760839, 18.13011 ], [ 145.760421, 18.133521 ], [ 145.762039, 18.137299 ], [ 145.760753, 18.142532 ], [ 145.756414, 18.144141 ], [ 145.75515, 18.147053 ], [ 145.755375, 18.154241 ], [ 145.759221, 18.159891 ], [ 145.771029, 18.168433 ], [ 145.775847, 18.168078 ], [ 145.779801, 18.169445 ], [ 145.784199, 18.16704 ], [ 145.792037, 18.165686 ], [ 145.794504, 18.1663 ], [ 145.802755, 18.161627 ], [ 145.806901, 18.156618 ], [ 145.807629, 18.148244 ], [ 145.809965, 18.143632 ], [ 145.808819, 18.138093 ], [ 145.809322, 18.132248 ], [ 145.803558, 18.121404 ], [ 145.803954, 18.119306 ], [ 145.799955, 18.111812 ], [ 145.796985, 18.108477 ], [ 145.793979, 18.107208 ], [ 145.79385, 18.102605 ], [ 145.785686, 18.108838 ], [ 145.781323, 18.108767 ], [ 145.775336, 18.107188 ], [ 145.769593, 18.103165 ], [ 145.767662, 18.103207 ], [ 145.761382, 18.096588 ], [ 145.751985, 18.081434 ], [ 145.74933, 18.079301 ], [ 145.744683, 18.07104 ], [ 145.746229, 18.068234 ], [ 145.742866, 18.066015 ], [ 145.738995, 18.058454 ], [ 145.728699, 18.049667 ], [ 145.711194, 18.044694 ], [ 145.708874, 18.045269 ], [ 145.707888, 18.048213 ] ] ], [ [ [ 145.635856, 18.77706 ], [ 145.641282, 18.79496 ], [ 145.647386, 18.80015 ], [ 145.649207, 18.806253 ], [ 145.653253, 18.810687 ], [ 145.657505, 18.812647 ], [ 145.664049, 18.811746 ], [ 145.665761, 18.808347 ], [ 145.67777, 18.807488 ], [ 145.681574, 18.803781 ], [ 145.688287, 18.795467 ], [ 145.690543, 18.796392 ], [ 145.695997, 18.79082 ], [ 145.698492, 18.780361 ], [ 145.699243, 18.759853 ], [ 145.694643, 18.759412 ], [ 145.691353, 18.754175 ], [ 145.693345, 18.746039 ], [ 145.686409, 18.737722 ], [ 145.677291, 18.737828 ], [ 145.671086, 18.731675 ], [ 145.672261, 18.730007 ], [ 145.667744, 18.724645 ], [ 145.65784, 18.732619 ], [ 145.651575, 18.73495 ], [ 145.650232, 18.741254 ], [ 145.647603, 18.743903 ], [ 145.644694, 18.750259 ], [ 145.64013, 18.752074 ], [ 145.641282, 18.757728 ], [ 145.637366, 18.765726 ], [ 145.638373, 18.771234 ], [ 145.635856, 18.77706 ] ] ], [ [ [ 145.632767, 16.364034 ], [ 145.632825, 16.366839 ], [ 145.636931, 16.36952 ], [ 145.643338, 16.368409 ], [ 145.648567, 16.370278 ], [ 145.653063, 16.369361 ], [ 145.656988, 16.370485 ], [ 145.661349, 16.369468 ], [ 145.665905, 16.370038 ], [ 145.679659, 16.367527 ], [ 145.700995, 16.369406 ], [ 145.706115, 16.369301 ], [ 145.707535, 16.367878 ], [ 145.712586, 16.367226 ], [ 145.719596, 16.361384 ], [ 145.723601, 16.358956 ], [ 145.72464, 16.351073 ], [ 145.720603, 16.348449 ], [ 145.719159, 16.342463 ], [ 145.714932, 16.336991 ], [ 145.707858, 16.335524 ], [ 145.703249, 16.33331 ], [ 145.690039, 16.33426 ], [ 145.68141, 16.333523 ], [ 145.674797, 16.33478 ], [ 145.672908, 16.333046 ], [ 145.668541, 16.334777 ], [ 145.662641, 16.332624 ], [ 145.66088, 16.335102 ], [ 145.655719, 16.334733 ], [ 145.645964, 16.331717 ], [ 145.646206, 16.33619 ], [ 145.643591, 16.338641 ], [ 145.639535, 16.338963 ], [ 145.638165, 16.345527 ], [ 145.63543, 16.34986 ], [ 145.633887, 16.349076 ], [ 145.634582, 16.361732 ], [ 145.632767, 16.364034 ] ] ], [ [ [ 145.814495, 17.599712 ], [ 145.816646, 17.60733 ], [ 145.820387, 17.610963 ], [ 145.820357, 17.615604 ], [ 145.824905, 17.619111 ], [ 145.835383, 17.620592 ], [ 145.83754, 17.619573 ], [ 145.839721, 17.614945 ], [ 145.846465, 17.611632 ], [ 145.851494, 17.602895 ], [ 145.852064, 17.597741 ], [ 145.850859, 17.59696 ], [ 145.850628, 17.591029 ], [ 145.841796, 17.584788 ], [ 145.838598, 17.580257 ], [ 145.828922, 17.579942 ], [ 145.825423, 17.580695 ], [ 145.822157, 17.586864 ], [ 145.816076, 17.591598 ], [ 145.814495, 17.599712 ] ] ], [ [ [ 145.389557, 19.690581 ], [ 145.389665, 19.693421 ], [ 145.395566, 19.702762 ], [ 145.402613, 19.707054 ], [ 145.40699, 19.706763 ], [ 145.413961, 19.702228 ], [ 145.418429, 19.697559 ], [ 145.419365, 19.693991 ], [ 145.418312, 19.688219 ], [ 145.4163, 19.68399 ], [ 145.409705, 19.677989 ], [ 145.401011, 19.675719 ], [ 145.397724, 19.677496 ], [ 145.390439, 19.684139 ], [ 145.389557, 19.690581 ] ] ], [ [ [ 145.537296, 14.84578 ], [ 145.540303, 14.852771 ], [ 145.546653, 14.856039 ], [ 145.551162, 14.856714 ], [ 145.559627, 14.861285 ], [ 145.564404, 14.861703 ], [ 145.567039, 14.864689 ], [ 145.573399, 14.866536 ], [ 145.577391, 14.865141 ], [ 145.579148, 14.860246 ], [ 145.576936, 14.853517 ], [ 145.562929, 14.843746 ], [ 145.557884, 14.843972 ], [ 145.546491, 14.840544 ], [ 145.539049, 14.841788 ], [ 145.537296, 14.84578 ] ] ], [ [ [ 145.766271, 16.705248 ], [ 145.769904, 16.711995 ], [ 145.77366, 16.712018 ], [ 145.777664, 16.715144 ], [ 145.778185, 16.717603 ], [ 145.781272, 16.717234 ], [ 145.78223, 16.714395 ], [ 145.786799, 16.713129 ], [ 145.788352, 16.704124 ], [ 145.786235, 16.696062 ], [ 145.786398, 16.691538 ], [ 145.777264, 16.693682 ], [ 145.770181, 16.701062 ], [ 145.766922, 16.702827 ], [ 145.766271, 16.705248 ] ] ], [ [ [ 145.83179, 17.311452 ], [ 145.83361, 17.318108 ], [ 145.836253, 17.321062 ], [ 145.8421, 17.32199 ], [ 145.847972, 17.319213 ], [ 145.849852, 17.316413 ], [ 145.84801, 17.31308 ], [ 145.85188, 17.311057 ], [ 145.850038, 17.307724 ], [ 145.848744, 17.301838 ], [ 145.844383, 17.29734 ], [ 145.837984, 17.299603 ], [ 145.833038, 17.303281 ], [ 145.83179, 17.311452 ] ] ], [ [ [ 144.886701, 20.543303 ], [ 144.886782, 20.547434 ], [ 144.88865, 20.551071 ], [ 144.89438, 20.552948 ], [ 144.89691, 20.548332 ], [ 144.901284, 20.549159 ], [ 144.902548, 20.546851 ], [ 144.900701, 20.541666 ], [ 144.89828, 20.538281 ], [ 144.895423, 20.536826 ], [ 144.888564, 20.537388 ], [ 144.886754, 20.539431 ], [ 144.886701, 20.543303 ] ] ], [ [ [ 145.22942, 20.015539 ], [ 145.230031, 20.02171 ], [ 145.233766, 20.027911 ], [ 145.238321, 20.021536 ], [ 145.238214, 20.018966 ], [ 145.232827, 20.014674 ], [ 145.22942, 20.015539 ] ] ], [ [ [ 146.055948, 16.014242 ], [ 146.056488, 16.018619 ], [ 146.060045, 16.022358 ], [ 146.061395, 16.027684 ], [ 146.063593, 16.028225 ], [ 146.064715, 16.023443 ], [ 146.061174, 16.016246 ], [ 146.055948, 16.014242 ] ] ], [ [ [ 145.208582, 20.016798 ], [ 145.208685, 20.01927 ], [ 145.211562, 20.0193 ], [ 145.217256, 20.01293 ], [ 145.214792, 20.011175 ], [ 145.210719, 20.012864 ], [ 145.208582, 20.016798 ] ] ], [ [ [ 145.214913, 20.032637 ], [ 145.220333, 20.035266 ], [ 145.223493, 20.034892 ], [ 145.225259, 20.030843 ], [ 145.218667, 20.03037 ], [ 145.214913, 20.032637 ] ] ], [ [ [ 145.709639, 15.240047 ], [ 145.712248, 15.244395 ], [ 145.715581, 15.240421 ], [ 145.713828, 15.237943 ], [ 145.709639, 15.240047 ] ] ] ] } }
]
}
