{
"type": "FeatureCollection",
"name": "North Korea",
"crs": { "type": "name", "properties": { "name": "urn:ogc:def:crs:OGC:1.3:CRS84" } },
"features": [
{ "type": "Feature", "properties": { "id": "KP", "CNTR_ID": "KP", "CNTR_NAME": "조선민주주의인민공화국", "NAME_ENGL": "North Korea", "ISO3_CODE": "PRK", "FID": "KP" }, "geometry": { "type": "MultiPolygon", "coordinates": [ [ [ [ 124.358295, 40.000001 ], [ 124.36479, 40.013388 ], [ 124.364715, 40.027867 ], [ 124.35481, 40.039707 ], [ 124.338515, 40.047659 ], [ 124.33525, 40.053953 ], [ 124.335624, 40.060738 ], [ 124.34821, 40.078853 ], [ 124.38491, 40.110098 ], [ 124.387865, 40.113862 ], [ 124.403298, 40.133517 ], [ 124.426419, 40.145188 ], [ 124.446261, 40.1666 ], [ 124.455049, 40.172743 ], [ 124.466234, 40.175655 ], [ 124.482612, 40.175579 ], [ 124.496617, 40.197165 ], [ 124.50536, 40.203658 ], [ 124.509653, 40.217219 ], [ 124.518456, 40.222288 ], [ 124.522224, 40.228254 ], [ 124.568107, 40.250259 ], [ 124.580255, 40.263165 ], [ 124.608371, 40.28187 ], [ 124.611836, 40.284174 ], [ 124.625031, 40.289435 ], [ 124.648881, 40.293648 ], [ 124.719039, 40.320173 ], [ 124.729488, 40.33389 ], [ 124.734111, 40.35974 ], [ 124.742757, 40.373671 ], [ 124.760351, 40.384572 ], [ 124.802986, 40.397655 ], [ 124.851881, 40.425482 ], [ 124.886911, 40.470507 ], [ 124.896942, 40.478677 ], [ 124.905582, 40.4768 ], [ 124.909196, 40.461729 ], [ 124.925543, 40.454544 ], [ 124.943347, 40.454643 ], [ 124.985769, 40.467946 ], [ 125.019716, 40.458236 ], [ 125.03462, 40.460261 ], [ 125.041768, 40.468878 ], [ 125.040436, 40.480057 ], [ 125.034355, 40.486657 ], [ 125.015102, 40.494857 ], [ 125.007707, 40.500667 ], [ 125.002957, 40.514132 ], [ 125.00848, 40.523942 ], [ 125.029032, 40.535639 ], [ 125.110511, 40.564341 ], [ 125.157369, 40.591157 ], [ 125.182125, 40.602224 ], [ 125.200863, 40.606891 ], [ 125.236583, 40.609652 ], [ 125.251837, 40.613495 ], [ 125.263585, 40.623547 ], [ 125.270087, 40.646007 ], [ 125.281792, 40.653554 ], [ 125.296785, 40.653403 ], [ 125.326495, 40.638552 ], [ 125.365209, 40.647676 ], [ 125.394608, 40.627964 ], [ 125.408618, 40.626308 ], [ 125.416969, 40.635477 ], [ 125.409689, 40.658741 ], [ 125.412583, 40.667245 ], [ 125.423894, 40.670462 ], [ 125.440039, 40.667693 ], [ 125.448046, 40.669803 ], [ 125.456676, 40.70009 ], [ 125.466286, 40.711537 ], [ 125.475711, 40.717741 ], [ 125.483271, 40.718815 ], [ 125.496699, 40.72072 ], [ 125.520865, 40.718091 ], [ 125.534635, 40.722041 ], [ 125.544522, 40.735323 ], [ 125.548894, 40.75857 ], [ 125.564611, 40.772012 ], [ 125.572923, 40.774299 ], [ 125.579762, 40.7736 ], [ 125.594327, 40.760597 ], [ 125.603236, 40.757313 ], [ 125.641755, 40.763401 ], [ 125.670393, 40.762174 ], [ 125.678213, 40.763889 ], [ 125.683604, 40.773504 ], [ 125.678988, 40.783494 ], [ 125.666722, 40.78889 ], [ 125.636343, 40.795551 ], [ 125.632398, 40.798711 ], [ 125.631964, 40.802972 ], [ 125.642428, 40.815503 ], [ 125.680459, 40.838945 ], [ 125.71061, 40.867457 ], [ 125.721382, 40.869945 ], [ 125.748, 40.869913 ], [ 125.760086, 40.886043 ], [ 125.772718, 40.890371 ], [ 125.790241, 40.883999 ], [ 125.796394, 40.877438 ], [ 125.79942, 40.866597 ], [ 125.809777, 40.86367 ], [ 125.853792, 40.884451 ], [ 125.871248, 40.903004 ], [ 125.876825, 40.903295 ], [ 125.89324, 40.897965 ], [ 125.90842, 40.907246 ], [ 125.910819, 40.905066 ], [ 125.907717, 40.89418 ], [ 125.909788, 40.88727 ], [ 125.918578, 40.880688 ], [ 125.932731, 40.877285 ], [ 125.948118, 40.878511 ], [ 125.95804, 40.882472 ], [ 125.965448, 40.896045 ], [ 125.970428, 40.900102 ], [ 125.992398, 40.89448 ], [ 126.018754, 40.899858 ], [ 126.020981, 40.903019 ], [ 126.019028, 40.906508 ], [ 126.002669, 40.914658 ], [ 125.994023, 40.914542 ], [ 125.979117, 40.908377 ], [ 125.975305, 40.90958 ], [ 125.9748, 40.912695 ], [ 125.989511, 40.926803 ], [ 125.999301, 40.931781 ], [ 126.011043, 40.931527 ], [ 126.026579, 40.925965 ], [ 126.031727, 40.926878 ], [ 126.03555, 40.937872 ], [ 126.04789, 40.948109 ], [ 126.051266, 40.96065 ], [ 126.067162, 40.967429 ], [ 126.073406, 40.972651 ], [ 126.063721, 40.989463 ], [ 126.064539, 40.995842 ], [ 126.076887, 41.002601 ], [ 126.092804, 41.002279 ], [ 126.101863, 41.004711 ], [ 126.096215, 41.030805 ], [ 126.101833, 41.034187 ], [ 126.112441, 41.032214 ], [ 126.117754, 41.03351 ], [ 126.125198, 41.042126 ], [ 126.129285, 41.052927 ], [ 126.127267, 41.06018 ], [ 126.112022, 41.071795 ], [ 126.117985, 41.085557 ], [ 126.126096, 41.08871 ], [ 126.149942, 41.088186 ], [ 126.164991, 41.092444 ], [ 126.193728, 41.116654 ], [ 126.222572, 41.12785 ], [ 126.236916, 41.14414 ], [ 126.268212, 41.153027 ], [ 126.282399, 41.16047 ], [ 126.289822, 41.169962 ], [ 126.286328, 41.184548 ], [ 126.304113, 41.191706 ], [ 126.307068, 41.202414 ], [ 126.308683, 41.210692 ], [ 126.315911, 41.225919 ], [ 126.32685, 41.234093 ], [ 126.353166, 41.244264 ], [ 126.362798, 41.280173 ], [ 126.394761, 41.303655 ], [ 126.40729, 41.329162 ], [ 126.430656, 41.330741 ], [ 126.42898, 41.34261 ], [ 126.433213, 41.35115 ], [ 126.492614, 41.37158 ], [ 126.503444, 41.370365 ], [ 126.505486, 41.364237 ], [ 126.477671, 41.351738 ], [ 126.476952, 41.346475 ], [ 126.512376, 41.346673 ], [ 126.523016, 41.349473 ], [ 126.530028, 41.354869 ], [ 126.533788, 41.362321 ], [ 126.532338, 41.370186 ], [ 126.512222, 41.383296 ], [ 126.504292, 41.393713 ], [ 126.505786, 41.418752 ], [ 126.50269, 41.43236 ], [ 126.519663, 41.453785 ], [ 126.529933, 41.472864 ], [ 126.549781, 41.486048 ], [ 126.544481, 41.497053 ], [ 126.551396, 41.511771 ], [ 126.555888, 41.532028 ], [ 126.565685, 41.542129 ], [ 126.581902, 41.551785 ], [ 126.584874, 41.56625 ], [ 126.56888, 41.592228 ], [ 126.561232, 41.612594 ], [ 126.565281, 41.615185 ], [ 126.581201, 41.614868 ], [ 126.588616, 41.617972 ], [ 126.592339, 41.627655 ], [ 126.607227, 41.641465 ], [ 126.605165, 41.659065 ], [ 126.609821, 41.668262 ], [ 126.620577, 41.669131 ], [ 126.63883, 41.656696 ], [ 126.651533, 41.656999 ], [ 126.664731, 41.664522 ], [ 126.681736, 41.66967 ], [ 126.687579, 41.680476 ], [ 126.724274, 41.707355 ], [ 126.725625, 41.713213 ], [ 126.722082, 41.717003 ], [ 126.695, 41.723827 ], [ 126.68517, 41.729355 ], [ 126.682988, 41.738336 ], [ 126.690302, 41.747711 ], [ 126.699871, 41.749014 ], [ 126.724972, 41.74201 ], [ 126.74361, 41.728792 ], [ 126.766627, 41.716912 ], [ 126.770877, 41.701863 ], [ 126.776412, 41.695602 ], [ 126.783355, 41.692296 ], [ 126.79027, 41.692221 ], [ 126.796223, 41.696957 ], [ 126.791927, 41.71116 ], [ 126.795336, 41.731078 ], [ 126.804249, 41.745011 ], [ 126.809292, 41.746127 ], [ 126.814667, 41.742916 ], [ 126.826676, 41.722285 ], [ 126.837072, 41.721831 ], [ 126.852715, 41.757432 ], [ 126.869096, 41.778128 ], [ 126.883279, 41.788971 ], [ 126.901729, 41.795254 ], [ 126.918335, 41.803976 ], [ 126.932955, 41.807618 ], [ 126.941778, 41.805424 ], [ 126.946186, 41.794184 ], [ 126.943666, 41.788433 ], [ 126.930725, 41.782176 ], [ 126.929898, 41.776578 ], [ 126.93269, 41.77237 ], [ 126.942507, 41.769971 ], [ 126.971646, 41.773143 ], [ 126.982242, 41.763902 ], [ 127.001419, 41.758729 ], [ 127.001192, 41.747671 ], [ 127.005579, 41.743302 ], [ 127.017237, 41.740106 ], [ 127.044168, 41.740333 ], [ 127.050836, 41.704126 ], [ 127.057466, 41.700896 ], [ 127.070913, 41.700773 ], [ 127.073794, 41.698379 ], [ 127.072116, 41.691993 ], [ 127.065243, 41.688067 ], [ 127.049203, 41.690645 ], [ 127.044685, 41.689162 ], [ 127.034046, 41.673783 ], [ 127.034805, 41.668957 ], [ 127.062961, 41.656786 ], [ 127.074534, 41.643654 ], [ 127.083665, 41.641982 ], [ 127.095278, 41.643443 ], [ 127.100773, 41.641378 ], [ 127.101673, 41.634856 ], [ 127.09, 41.627594 ], [ 127.088748, 41.623885 ], [ 127.100325, 41.619225 ], [ 127.117109, 41.620344 ], [ 127.120535, 41.611663 ], [ 127.118473, 41.603596 ], [ 127.123464, 41.598372 ], [ 127.131821, 41.596414 ], [ 127.168275, 41.596682 ], [ 127.177039, 41.59201 ], [ 127.177376, 41.5884 ], [ 127.17296, 41.585909 ], [ 127.142606, 41.582672 ], [ 127.13919, 41.578724 ], [ 127.137872, 41.569331 ], [ 127.119288, 41.563277 ], [ 127.115006, 41.558558 ], [ 127.113498, 41.549922 ], [ 127.100248, 41.550325 ], [ 127.098241, 41.546024 ], [ 127.10036, 41.542054 ], [ 127.110026, 41.537196 ], [ 127.134563, 41.537929 ], [ 127.136022, 41.528996 ], [ 127.139028, 41.526313 ], [ 127.162206, 41.538512 ], [ 127.166709, 41.536964 ], [ 127.171083, 41.528384 ], [ 127.176873, 41.524843 ], [ 127.188457, 41.525548 ], [ 127.202821, 41.530714 ], [ 127.20724, 41.528579 ], [ 127.209427, 41.51902 ], [ 127.228064, 41.520307 ], [ 127.232579, 41.518596 ], [ 127.233681, 41.514965 ], [ 127.228481, 41.506469 ], [ 127.239636, 41.498035 ], [ 127.244975, 41.498689 ], [ 127.261925, 41.510817 ], [ 127.27671, 41.51025 ], [ 127.281592, 41.503574 ], [ 127.279258, 41.496224 ], [ 127.272901, 41.491648 ], [ 127.255676, 41.488534 ], [ 127.248153, 41.484873 ], [ 127.250895, 41.479513 ], [ 127.259772, 41.476152 ], [ 127.27214, 41.475922 ], [ 127.279752, 41.480486 ], [ 127.289692, 41.482651 ], [ 127.337252, 41.463129 ], [ 127.347937, 41.460602 ], [ 127.355955, 41.462835 ], [ 127.356712, 41.476536 ], [ 127.389937, 41.478723 ], [ 127.397856, 41.474713 ], [ 127.402203, 41.459759 ], [ 127.410987, 41.456061 ], [ 127.424508, 41.461541 ], [ 127.44363, 41.457363 ], [ 127.459397, 41.460166 ], [ 127.46198, 41.462551 ], [ 127.459558, 41.474441 ], [ 127.462525, 41.478662 ], [ 127.464513, 41.479357 ], [ 127.467175, 41.480287 ], [ 127.472595, 41.478909 ], [ 127.472031, 41.470526 ], [ 127.476949, 41.468512 ], [ 127.495596, 41.474657 ], [ 127.509649, 41.466929 ], [ 127.520534, 41.465144 ], [ 127.525732, 41.466924 ], [ 127.528225, 41.469532 ], [ 127.533466, 41.473298 ], [ 127.540788, 41.472022 ], [ 127.539879, 41.450559 ], [ 127.55587, 41.431831 ], [ 127.567372, 41.42715 ], [ 127.586115, 41.424352 ], [ 127.612943, 41.428741 ], [ 127.627308, 41.413161 ], [ 127.647931, 41.403728 ], [ 127.653661, 41.404133 ], [ 127.65832, 41.407404 ], [ 127.648359, 41.42067 ], [ 127.648701, 41.423871 ], [ 127.651844, 41.425125 ], [ 127.66975, 41.413214 ], [ 127.684048, 41.420477 ], [ 127.7151, 41.416415 ], [ 127.740544, 41.42386 ], [ 127.751215, 41.424007 ], [ 127.76447, 41.420284 ], [ 127.775637, 41.42318 ], [ 127.780308, 41.419717 ], [ 127.783245, 41.409304 ], [ 127.787556, 41.405779 ], [ 127.790368, 41.407583 ], [ 127.79286, 41.417897 ], [ 127.802774, 41.421396 ], [ 127.812239, 41.419143 ], [ 127.819792, 41.408615 ], [ 127.826115, 41.405349 ], [ 127.829194, 41.40775 ], [ 127.830255, 41.416176 ], [ 127.842523, 41.419654 ], [ 127.84836, 41.417148 ], [ 127.856844, 41.404408 ], [ 127.864302, 41.401683 ], [ 127.870805, 41.407457 ], [ 127.867639, 41.414855 ], [ 127.868489, 41.436468 ], [ 127.876515, 41.444217 ], [ 127.883367, 41.442685 ], [ 127.881566, 41.436848 ], [ 127.884746, 41.432952 ], [ 127.896682, 41.432713 ], [ 127.906152, 41.427725 ], [ 127.926273, 41.443045 ], [ 127.92791, 41.451564 ], [ 127.932694, 41.454569 ], [ 127.936521, 41.448441 ], [ 127.943944, 41.446663 ], [ 127.94191, 41.439898 ], [ 127.943731, 41.437055 ], [ 127.964738, 41.435135 ], [ 127.973312, 41.431325 ], [ 127.976506, 41.417763 ], [ 127.979748, 41.415616 ], [ 127.987498, 41.420421 ], [ 127.997561, 41.441382 ], [ 128.007536, 41.444005 ], [ 128.010196, 41.439401 ], [ 127.999823, 41.431005 ], [ 127.998739, 41.427056 ], [ 128.011895, 41.424186 ], [ 128.012404, 41.413947 ], [ 128.016457, 41.41001 ], [ 128.02283, 41.410758 ], [ 128.030924, 41.417822 ], [ 128.038135, 41.414979 ], [ 128.034328, 41.391226 ], [ 128.03975, 41.390349 ], [ 128.043589, 41.390349 ], [ 128.054588, 41.39394 ], [ 128.063173, 41.392427 ], [ 128.065958, 41.390349 ], [ 128.06756, 41.389153 ], [ 128.070292, 41.380167 ], [ 128.076222, 41.377398 ], [ 128.079628, 41.379585 ], [ 128.078066, 41.386728 ], [ 128.080459, 41.390349 ], [ 128.092953, 41.390537 ], [ 128.098575, 41.393346 ], [ 128.10232, 41.390349 ], [ 128.101703, 41.38525 ], [ 128.090199, 41.378374 ], [ 128.087333, 41.372958 ], [ 128.102654, 41.364833 ], [ 128.1099, 41.363305 ], [ 128.116331, 41.367237 ], [ 128.122443, 41.376671 ], [ 128.149027, 41.382888 ], [ 128.156183, 41.390349 ], [ 128.162542, 41.398157 ], [ 128.171189, 41.404269 ], [ 128.184917, 41.409623 ], [ 128.202793, 41.410534 ], [ 128.207518, 41.425977 ], [ 128.215747, 41.437889 ], [ 128.222423, 41.442848 ], [ 128.22644, 41.443325 ], [ 128.232166, 41.444006 ], [ 128.238164, 41.447331 ], [ 128.237921, 41.451646 ], [ 128.229229, 41.456297 ], [ 128.238351, 41.47902 ], [ 128.237966, 41.485642 ], [ 128.232647, 41.493213 ], [ 128.237172, 41.497656 ], [ 128.255968, 41.505288 ], [ 128.2758, 41.521743 ], [ 128.280128, 41.531866 ], [ 128.293781, 41.536327 ], [ 128.293291, 41.541057 ], [ 128.287164, 41.545309 ], [ 128.286988, 41.549958 ], [ 128.292507, 41.554497 ], [ 128.292998, 41.560528 ], [ 128.309286, 41.570487 ], [ 128.307605, 41.575282 ], [ 128.310699, 41.586618 ], [ 128.30638, 41.594015 ], [ 128.308983, 41.599736 ], [ 128.297141, 41.60144 ], [ 128.297718, 41.608046 ], [ 128.289708, 41.610178 ], [ 128.291754, 41.614633 ], [ 128.298432, 41.616295 ], [ 128.2967, 41.625045 ], [ 128.281546, 41.624773 ], [ 128.281527, 41.629294 ], [ 128.269299, 41.646758 ], [ 128.271096, 41.654489 ], [ 128.263341, 41.656944 ], [ 128.262148, 41.663872 ], [ 128.253973, 41.665796 ], [ 128.252244, 41.670078 ], [ 128.243682, 41.673202 ], [ 128.239886, 41.678001 ], [ 128.22644, 41.678815 ], [ 128.219875, 41.679212 ], [ 128.21101, 41.686239 ], [ 128.202094, 41.686143 ], [ 128.195373, 41.693271 ], [ 128.193323, 41.699962 ], [ 128.185214, 41.706456 ], [ 128.162839, 41.712824 ], [ 128.150957, 41.727229 ], [ 128.141562, 41.749643 ], [ 128.142033, 41.761044 ], [ 128.137907, 41.767135 ], [ 128.138645, 41.777422 ], [ 128.133094, 41.782204 ], [ 128.124599, 41.7813 ], [ 128.105928, 41.792687 ], [ 128.103721, 41.803635 ], [ 128.105535, 41.810816 ], [ 128.102554, 41.821031 ], [ 128.097703, 41.837652 ], [ 128.102554, 41.85524 ], [ 128.102554, 41.872825 ], [ 128.102369, 41.882641 ], [ 128.098142, 41.895548 ], [ 128.085621, 41.905275 ], [ 128.085004, 41.9194 ], [ 128.076193, 41.934628 ], [ 128.075044, 41.950533 ], [ 128.067831, 41.96053 ], [ 128.071801, 41.981787 ], [ 128.079338, 41.991777 ], [ 128.088538, 41.993326 ], [ 128.099245, 41.990786 ], [ 128.102554, 41.987063 ], [ 128.109617, 41.979533 ], [ 128.114535, 41.978504 ], [ 128.151282, 42.002416 ], [ 128.188214, 42.009687 ], [ 128.22644, 42.025297 ], [ 128.239587, 42.030665 ], [ 128.265138, 42.035363 ], [ 128.324902, 42.03812 ], [ 128.44146, 42.028559 ], [ 128.45194, 42.02286 ], [ 128.465133, 42.008149 ], [ 128.490419, 41.998486 ], [ 128.505951, 41.998294 ], [ 128.539973, 42.003167 ], [ 128.562626, 41.99866 ], [ 128.574178, 42.00038 ], [ 128.588426, 42.00888 ], [ 128.591689, 42.022196 ], [ 128.597172, 42.026596 ], [ 128.603259, 42.030032 ], [ 128.614966, 42.03082 ], [ 128.629647, 42.035469 ], [ 128.636502, 42.034659 ], [ 128.649961, 42.02737 ], [ 128.652066, 42.017749 ], [ 128.684522, 42.013332 ], [ 128.691785, 42.016172 ], [ 128.714885, 42.035388 ], [ 128.727062, 42.040831 ], [ 128.731325, 42.047258 ], [ 128.737962, 42.048305 ], [ 128.742004, 42.048943 ], [ 128.749947, 42.046468 ], [ 128.757425, 42.038644 ], [ 128.769021, 42.03341 ], [ 128.784339, 42.039015 ], [ 128.809251, 42.040397 ], [ 128.835705, 42.025586 ], [ 128.853098, 42.026933 ], [ 128.873628, 42.021224 ], [ 128.884935, 42.023754 ], [ 128.903823, 42.011808 ], [ 128.914546, 42.010636 ], [ 128.928291, 42.015966 ], [ 128.937902, 42.023773 ], [ 128.94659, 42.027188 ], [ 128.956108, 42.054797 ], [ 128.946705, 42.064297 ], [ 128.946851, 42.076597 ], [ 128.960311, 42.090466 ], [ 128.965868, 42.092507 ], [ 128.975143, 42.090154 ], [ 129.000301, 42.090351 ], [ 129.008668, 42.097069 ], [ 129.02351, 42.099643 ], [ 129.030478, 42.104311 ], [ 129.037288, 42.114526 ], [ 129.030458, 42.118761 ], [ 129.038447, 42.130687 ], [ 129.054692, 42.137351 ], [ 129.068502, 42.139011 ], [ 129.064813, 42.149511 ], [ 129.067763, 42.154335 ], [ 129.075987, 42.153341 ], [ 129.079962, 42.148211 ], [ 129.086336, 42.139986 ], [ 129.111481, 42.139641 ], [ 129.12651, 42.150201 ], [ 129.130652, 42.160666 ], [ 129.161969, 42.164818 ], [ 129.158534, 42.178941 ], [ 129.160821, 42.184011 ], [ 129.186659, 42.189906 ], [ 129.191202, 42.202463 ], [ 129.218421, 42.205426 ], [ 129.218075, 42.21383 ], [ 129.205572, 42.214327 ], [ 129.19796, 42.223058 ], [ 129.197672, 42.228187 ], [ 129.203341, 42.235688 ], [ 129.201675, 42.239494 ], [ 129.18936, 42.240466 ], [ 129.179693, 42.23563 ], [ 129.175414, 42.239977 ], [ 129.176583, 42.25629 ], [ 129.180019, 42.261707 ], [ 129.189332, 42.264045 ], [ 129.207003, 42.262705 ], [ 129.216055, 42.266442 ], [ 129.222425, 42.280013 ], [ 129.206304, 42.281416 ], [ 129.201581, 42.28631 ], [ 129.208385, 42.291517 ], [ 129.224467, 42.297206 ], [ 129.232569, 42.30566 ], [ 129.227482, 42.30914 ], [ 129.215572, 42.304484 ], [ 129.209273, 42.304463 ], [ 129.197864, 42.310691 ], [ 129.19626, 42.314829 ], [ 129.208129, 42.319451 ], [ 129.223622, 42.314266 ], [ 129.233608, 42.314508 ], [ 129.24495, 42.318312 ], [ 129.252992, 42.32587 ], [ 129.249017, 42.336265 ], [ 129.232805, 42.344389 ], [ 129.22704, 42.350873 ], [ 129.227624, 42.35596 ], [ 129.234984, 42.363212 ], [ 129.235489, 42.371809 ], [ 129.240625, 42.375816 ], [ 129.246188, 42.377539 ], [ 129.25476, 42.37394 ], [ 129.260923, 42.37393 ], [ 129.272154, 42.385421 ], [ 129.288602, 42.380418 ], [ 129.296713, 42.387546 ], [ 129.316447, 42.385167 ], [ 129.316441, 42.390681 ], [ 129.304315, 42.401772 ], [ 129.309203, 42.407889 ], [ 129.308669, 42.42089 ], [ 129.319091, 42.419979 ], [ 129.324118, 42.426386 ], [ 129.329737, 42.428972 ], [ 129.336439, 42.411389 ], [ 129.341355, 42.407775 ], [ 129.346645, 42.407953 ], [ 129.342444, 42.415185 ], [ 129.351901, 42.41824 ], [ 129.353583, 42.421903 ], [ 129.340618, 42.433102 ], [ 129.337485, 42.439583 ], [ 129.341822, 42.447609 ], [ 129.349087, 42.452086 ], [ 129.360807, 42.45446 ], [ 129.365816, 42.451297 ], [ 129.365716, 42.443052 ], [ 129.357989, 42.429871 ], [ 129.375881, 42.424332 ], [ 129.382273, 42.42458 ], [ 129.386485, 42.427333 ], [ 129.387958, 42.442924 ], [ 129.395541, 42.449755 ], [ 129.40138, 42.448847 ], [ 129.414978, 42.437203 ], [ 129.423462, 42.434233 ], [ 129.43139, 42.434889 ], [ 129.439204, 42.441047 ], [ 129.446336, 42.44024 ], [ 129.460591, 42.423882 ], [ 129.489217, 42.414517 ], [ 129.502889, 42.39667 ], [ 129.521313, 42.390022 ], [ 129.53418, 42.365509 ], [ 129.537257, 42.364388 ], [ 129.543251, 42.366373 ], [ 129.54739, 42.362113 ], [ 129.551234, 42.365168 ], [ 129.553126, 42.374798 ], [ 129.569468, 42.382224 ], [ 129.559389, 42.387833 ], [ 129.563879, 42.398963 ], [ 129.576653, 42.411516 ], [ 129.589162, 42.410822 ], [ 129.593496, 42.412643 ], [ 129.597597, 42.425313 ], [ 129.605281, 42.436251 ], [ 129.604977, 42.441811 ], [ 129.589779, 42.443246 ], [ 129.586696, 42.448133 ], [ 129.599876, 42.45288 ], [ 129.609416, 42.460611 ], [ 129.614892, 42.461149 ], [ 129.619016, 42.458936 ], [ 129.62749, 42.446322 ], [ 129.645888, 42.42705 ], [ 129.671366, 42.433043 ], [ 129.694781, 42.427031 ], [ 129.705319, 42.429378 ], [ 129.72155, 42.442295 ], [ 129.732962, 42.460741 ], [ 129.741969, 42.468562 ], [ 129.73969, 42.487345 ], [ 129.733774, 42.498234 ], [ 129.745183, 42.538739 ], [ 129.737623, 42.55624 ], [ 129.737675, 42.574225 ], [ 129.74106, 42.580214 ], [ 129.751053, 42.585317 ], [ 129.757445, 42.598798 ], [ 129.773713, 42.603719 ], [ 129.778232, 42.608441 ], [ 129.775948, 42.613229 ], [ 129.75911, 42.615148 ], [ 129.75481, 42.617757 ], [ 129.754757, 42.624455 ], [ 129.763909, 42.634053 ], [ 129.750553, 42.64249 ], [ 129.749397, 42.647224 ], [ 129.763219, 42.654103 ], [ 129.773282, 42.644008 ], [ 129.782939, 42.643294 ], [ 129.783932, 42.647266 ], [ 129.774678, 42.655316 ], [ 129.776462, 42.673566 ], [ 129.784052, 42.678192 ], [ 129.795458, 42.673596 ], [ 129.801816, 42.678642 ], [ 129.799447, 42.682088 ], [ 129.780226, 42.687924 ], [ 129.77065, 42.69508 ], [ 129.760722, 42.709057 ], [ 129.760749, 42.723447 ], [ 129.774877, 42.740469 ], [ 129.785802, 42.770586 ], [ 129.807852, 42.791175 ], [ 129.808487, 42.803795 ], [ 129.804685, 42.81784 ], [ 129.813835, 42.832999 ], [ 129.814235, 42.848571 ], [ 129.837094, 42.867472 ], [ 129.84293, 42.889414 ], [ 129.840542, 42.907238 ], [ 129.843848, 42.916487 ], [ 129.851971, 42.9197 ], [ 129.8631, 42.916505 ], [ 129.867753, 42.918607 ], [ 129.851733, 42.945031 ], [ 129.84998, 42.953202 ], [ 129.852178, 42.960414 ], [ 129.868022, 42.971106 ], [ 129.887669, 42.971372 ], [ 129.905812, 42.968832 ], [ 129.909929, 42.97047 ], [ 129.9134, 42.974279 ], [ 129.911456, 42.978122 ], [ 129.885534, 42.97951 ], [ 129.879914, 42.984065 ], [ 129.882371, 42.993444 ], [ 129.892443, 43.000878 ], [ 129.907455, 43.006177 ], [ 129.952786, 43.009467 ], [ 129.950703, 42.989027 ], [ 129.953185, 42.982565 ], [ 129.960733, 42.977423 ], [ 129.985253, 42.972029 ], [ 130.005292, 42.973573 ], [ 130.021264, 42.969169 ], [ 130.040746, 42.970966 ], [ 130.057863, 42.9693 ], [ 130.093772, 42.98458 ], [ 130.105211, 42.987004 ], [ 130.117003, 42.986337 ], [ 130.129628, 42.979882 ], [ 130.140206, 42.977715 ], [ 130.142964, 42.972932 ], [ 130.117875, 42.954343 ], [ 130.119315, 42.944263 ], [ 130.129415, 42.939414 ], [ 130.130955, 42.936548 ], [ 130.124338, 42.930842 ], [ 130.104469, 42.925663 ], [ 130.102638, 42.920047 ], [ 130.107063, 42.914142 ], [ 130.138101, 42.904199 ], [ 130.168217, 42.912948 ], [ 130.21514, 42.904274 ], [ 130.249076, 42.906079 ], [ 130.259709, 42.902831 ], [ 130.266851, 42.891365 ], [ 130.267125, 42.880508 ], [ 130.251814, 42.858285 ], [ 130.253088, 42.839185 ], [ 130.237905, 42.819421 ], [ 130.235343, 42.802446 ], [ 130.229443, 42.787807 ], [ 130.241835, 42.762787 ], [ 130.236689, 42.735994 ], [ 130.252344, 42.710089 ], [ 130.259556, 42.705064 ], [ 130.279063, 42.701073 ], [ 130.288152, 42.696226 ], [ 130.310815, 42.659458 ], [ 130.341324, 42.640958 ], [ 130.360163, 42.629532 ], [ 130.373676, 42.61555 ], [ 130.380656, 42.601911 ], [ 130.393723, 42.601669 ], [ 130.41543, 42.612976 ], [ 130.423322, 42.611724 ], [ 130.431365, 42.607263 ], [ 130.434304, 42.598725 ], [ 130.421163, 42.585912 ], [ 130.418178, 42.57033 ], [ 130.425409, 42.557914 ], [ 130.439523, 42.549942 ], [ 130.460101, 42.549205 ], [ 130.47009, 42.553041 ], [ 130.47501, 42.557872 ], [ 130.474526, 42.571294 ], [ 130.459856, 42.594739 ], [ 130.463429, 42.60394 ], [ 130.472501, 42.613745 ], [ 130.480084, 42.617858 ], [ 130.491253, 42.618859 ], [ 130.512046, 42.614456 ], [ 130.517378, 42.60073 ], [ 130.513026, 42.580889 ], [ 130.522823, 42.564895 ], [ 130.527141, 42.543623 ], [ 130.548074, 42.521729 ], [ 130.550494, 42.496368 ], [ 130.556721, 42.490067 ], [ 130.575893, 42.484158 ], [ 130.581194, 42.479212 ], [ 130.57936, 42.474476 ], [ 130.568296, 42.467883 ], [ 130.563904, 42.462215 ], [ 130.562299, 42.45041 ], [ 130.565109, 42.441907 ], [ 130.578478, 42.432822 ], [ 130.61242, 42.428163 ], [ 130.63393, 42.41417 ], [ 130.642091, 42.405924 ], [ 130.647876, 42.397978 ], [ 130.655385, 42.386707 ], [ 130.658703, 42.37643 ], [ 130.659976, 42.367555 ], [ 130.645102, 42.348367 ], [ 130.645638, 42.343459 ], [ 130.646122, 42.339032 ], [ 130.650659, 42.329282 ], [ 130.658006, 42.316243 ], [ 130.660961, 42.312367 ], [ 130.66488, 42.307225 ], [ 130.661763, 42.299811 ], [ 130.662359, 42.295596 ], [ 130.671818, 42.289785 ], [ 130.674864, 42.283614 ], [ 130.650395, 42.276417 ], [ 130.636427, 42.269054 ], [ 130.619286, 42.270358 ], [ 130.606986, 42.259848 ], [ 130.592449, 42.25486 ], [ 130.58788, 42.259761 ], [ 130.59047, 42.270953 ], [ 130.596608, 42.275491 ], [ 130.606561, 42.277465 ], [ 130.608792, 42.283392 ], [ 130.594044, 42.2968 ], [ 130.587948, 42.305842 ], [ 130.577238, 42.312075 ], [ 130.528444, 42.318262 ], [ 130.508919, 42.33341 ], [ 130.486193, 42.336665 ], [ 130.47362, 42.334147 ], [ 130.463232, 42.327602 ], [ 130.463913, 42.318795 ], [ 130.451763, 42.305707 ], [ 130.4049, 42.328907 ], [ 130.390324, 42.328041 ], [ 130.39987, 42.318804 ], [ 130.398214, 42.298686 ], [ 130.404484, 42.291644 ], [ 130.399816, 42.288996 ], [ 130.386765, 42.292565 ], [ 130.383176, 42.282545 ], [ 130.385004, 42.276644 ], [ 130.39563, 42.26728 ], [ 130.398154, 42.248999 ], [ 130.383183, 42.251366 ], [ 130.376271, 42.255933 ], [ 130.367859, 42.251874 ], [ 130.363039, 42.242644 ], [ 130.368579, 42.231917 ], [ 130.358757, 42.230608 ], [ 130.348011, 42.217487 ], [ 130.341324, 42.214327 ], [ 130.331554, 42.209709 ], [ 130.328927, 42.204515 ], [ 130.330059, 42.192026 ], [ 130.319821, 42.189164 ], [ 130.312749, 42.181514 ], [ 130.308001, 42.183912 ], [ 130.306713, 42.188952 ], [ 130.31391, 42.218501 ], [ 130.30801, 42.230488 ], [ 130.300917, 42.234381 ], [ 130.293951, 42.230852 ], [ 130.281179, 42.214882 ], [ 130.248391, 42.194194 ], [ 130.231502, 42.177626 ], [ 130.224076, 42.17524 ], [ 130.213081, 42.177923 ], [ 130.207487, 42.176124 ], [ 130.199912, 42.166613 ], [ 130.209976, 42.156511 ], [ 130.211762, 42.151568 ], [ 130.209825, 42.149489 ], [ 130.20097, 42.148943 ], [ 130.206898, 42.140436 ], [ 130.198211, 42.126868 ], [ 130.198259, 42.112834 ], [ 130.191451, 42.098781 ], [ 130.187744, 42.098894 ], [ 130.183514, 42.105452 ], [ 130.178634, 42.107249 ], [ 130.147132, 42.097069 ], [ 130.151904, 42.092517 ], [ 130.173687, 42.083582 ], [ 130.175792, 42.078797 ], [ 130.171773, 42.072563 ], [ 130.153427, 42.067095 ], [ 130.146333, 42.076835 ], [ 130.133487, 42.080232 ], [ 130.129272, 42.086933 ], [ 130.100088, 42.085938 ], [ 130.086927, 42.082115 ], [ 130.0761, 42.073698 ], [ 130.079838, 42.046869 ], [ 130.074803, 42.039058 ], [ 130.068762, 42.037155 ], [ 130.059235, 42.052452 ], [ 130.054371, 42.055265 ], [ 130.049576, 42.05335 ], [ 130.048539, 42.034597 ], [ 130.043673, 42.022258 ], [ 130.032022, 42.010069 ], [ 130.033802, 42.003071 ], [ 130.031035, 41.991544 ], [ 130.026491, 41.991793 ], [ 130.021233, 42.01076 ], [ 130.012776, 42.014184 ], [ 129.981481, 41.980903 ], [ 129.990739, 41.969977 ], [ 129.974256, 41.956164 ], [ 129.970582, 41.949448 ], [ 129.985123, 41.942394 ], [ 129.973125, 41.935626 ], [ 129.961193, 41.914577 ], [ 129.953185, 41.911301 ], [ 129.950402, 41.910162 ], [ 129.950937, 41.906767 ], [ 129.953185, 41.905208 ], [ 129.958818, 41.901301 ], [ 129.954934, 41.894355 ], [ 129.953185, 41.893823 ], [ 129.947538, 41.892104 ], [ 129.937212, 41.899057 ], [ 129.909502, 41.906086 ], [ 129.903191, 41.905641 ], [ 129.898384, 41.902552 ], [ 129.89253, 41.885401 ], [ 129.883499, 41.871476 ], [ 129.888263, 41.852843 ], [ 129.887014, 41.841336 ], [ 129.879609, 41.830314 ], [ 129.880437, 41.819393 ], [ 129.871364, 41.805886 ], [ 129.867427, 41.792081 ], [ 129.854829, 41.784808 ], [ 129.848082, 41.777579 ], [ 129.850699, 41.764667 ], [ 129.848486, 41.760818 ], [ 129.84134, 41.760568 ], [ 129.826775, 41.770982 ], [ 129.814375, 41.774926 ], [ 129.79955, 41.771741 ], [ 129.788053, 41.766362 ], [ 129.782008, 41.766895 ], [ 129.771164, 41.751437 ], [ 129.765438, 41.757029 ], [ 129.761068, 41.75638 ], [ 129.756903, 41.735717 ], [ 129.758189, 41.721992 ], [ 129.742182, 41.688494 ], [ 129.737092, 41.68307 ], [ 129.710312, 41.668074 ], [ 129.699477, 41.654737 ], [ 129.688604, 41.63438 ], [ 129.680326, 41.60504 ], [ 129.667172, 41.572455 ], [ 129.651015, 41.546666 ], [ 129.657349, 41.51434 ], [ 129.65545, 41.498723 ], [ 129.653886, 41.485858 ], [ 129.661196, 41.465992 ], [ 129.678089, 41.443778 ], [ 129.688736, 41.434128 ], [ 129.706202, 41.424682 ], [ 129.731902, 41.415545 ], [ 129.733273, 41.410534 ], [ 129.736903, 41.398946 ], [ 129.746001, 41.404507 ], [ 129.771093, 41.384507 ], [ 129.792265, 41.384122 ], [ 129.80642, 41.374909 ], [ 129.795443, 41.357066 ], [ 129.790851, 41.333576 ], [ 129.776296, 41.319661 ], [ 129.778735, 41.310728 ], [ 129.759841, 41.292407 ], [ 129.75988, 41.288796 ], [ 129.759557, 41.274497 ], [ 129.750565, 41.262941 ], [ 129.749475, 41.254255 ], [ 129.737953, 41.24369 ], [ 129.738924, 41.216396 ], [ 129.721864, 41.189534 ], [ 129.718643, 41.15133 ], [ 129.72499, 41.135541 ], [ 129.720667, 41.123062 ], [ 129.722869, 41.100438 ], [ 129.726894, 41.096513 ], [ 129.736542, 41.096873 ], [ 129.73902, 41.094885 ], [ 129.73246, 41.083528 ], [ 129.725666, 41.058337 ], [ 129.72164, 41.018274 ], [ 129.731188, 40.992541 ], [ 129.726674, 40.983296 ], [ 129.738755, 40.963473 ], [ 129.761099, 40.936122 ], [ 129.750577, 40.916095 ], [ 129.752914, 40.901627 ], [ 129.739271, 40.884718 ], [ 129.732754, 40.855308 ], [ 129.717318, 40.834392 ], [ 129.709287, 40.831511 ], [ 129.701904, 40.84026 ], [ 129.696779, 40.841857 ], [ 129.664634, 40.836771 ], [ 129.645133, 40.838615 ], [ 129.627207, 40.835478 ], [ 129.610151, 40.837387 ], [ 129.57014, 40.832325 ], [ 129.553086, 40.820411 ], [ 129.546271, 40.809068 ], [ 129.530729, 40.802537 ], [ 129.516077, 40.792625 ], [ 129.48419, 40.789941 ], [ 129.42569, 40.774132 ], [ 129.41476, 40.769498 ], [ 129.398247, 40.757725 ], [ 129.380486, 40.752454 ], [ 129.348237, 40.737657 ], [ 129.327201, 40.716817 ], [ 129.300646, 40.679339 ], [ 129.291427, 40.682348 ], [ 129.268616, 40.703619 ], [ 129.241316, 40.704474 ], [ 129.224739, 40.699602 ], [ 129.212426, 40.685342 ], [ 129.208939, 40.670629 ], [ 129.210747, 40.659566 ], [ 129.202433, 40.651117 ], [ 129.200137, 40.636835 ], [ 129.191333, 40.628455 ], [ 129.169878, 40.593943 ], [ 129.166403, 40.56969 ], [ 129.157435, 40.56073 ], [ 129.146689, 40.542019 ], [ 129.129192, 40.531994 ], [ 129.103897, 40.497434 ], [ 129.079962, 40.478574 ], [ 129.062938, 40.472237 ], [ 129.050781, 40.47946 ], [ 129.040948, 40.480139 ], [ 129.026141, 40.475307 ], [ 129.007481, 40.465499 ], [ 128.975123, 40.459338 ], [ 128.959988, 40.449739 ], [ 128.904507, 40.399486 ], [ 128.88673, 40.387279 ], [ 128.859698, 40.373804 ], [ 128.833275, 40.365245 ], [ 128.807567, 40.351902 ], [ 128.779388, 40.346142 ], [ 128.768501, 40.349892 ], [ 128.748767, 40.339202 ], [ 128.737962, 40.337567 ], [ 128.697993, 40.331234 ], [ 128.66542, 40.309307 ], [ 128.659237, 40.309329 ], [ 128.651224, 40.313837 ], [ 128.636075, 40.308972 ], [ 128.626407, 40.29769 ], [ 128.62057, 40.275813 ], [ 128.622042, 40.271139 ], [ 128.628874, 40.261058 ], [ 128.650269, 40.250873 ], [ 128.664502, 40.235099 ], [ 128.66188, 40.223627 ], [ 128.664846, 40.207402 ], [ 128.659588, 40.194085 ], [ 128.656238, 40.193975 ], [ 128.65044, 40.20062 ], [ 128.643275, 40.191448 ], [ 128.629293, 40.181638 ], [ 128.617084, 40.179812 ], [ 128.597276, 40.182256 ], [ 128.557635, 40.167607 ], [ 128.546943, 40.160376 ], [ 128.530635, 40.142327 ], [ 128.521752, 40.136948 ], [ 128.469379, 40.128986 ], [ 128.459171, 40.114953 ], [ 128.442334, 40.103406 ], [ 128.428888, 40.101966 ], [ 128.417079, 40.104092 ], [ 128.408605, 40.099075 ], [ 128.378914, 40.09674 ], [ 128.364344, 40.091583 ], [ 128.333171, 40.05321 ], [ 128.327331, 40.037825 ], [ 128.322583, 40.005956 ], [ 128.316226, 39.998658 ], [ 128.294998, 39.997505 ], [ 128.264728, 40.004654 ], [ 128.24686, 40.00506 ], [ 128.231531, 40.000186 ], [ 128.22644, 39.994005 ], [ 128.223699, 39.990679 ], [ 128.213654, 39.985046 ], [ 128.174834, 39.980035 ], [ 128.167167, 39.983768 ], [ 128.17034, 39.993221 ], [ 128.168896, 39.999741 ], [ 128.147744, 40.008632 ], [ 128.102595, 40.012996 ], [ 128.062502, 40.014022 ], [ 127.963905, 40.004627 ], [ 127.922698, 39.975196 ], [ 127.912376, 39.973662 ], [ 127.899466, 39.976916 ], [ 127.881287, 39.959459 ], [ 127.872636, 39.93954 ], [ 127.880063, 39.922844 ], [ 127.87259, 39.89789 ], [ 127.875034, 39.884483 ], [ 127.859711, 39.887671 ], [ 127.835093, 39.877717 ], [ 127.823387, 39.876115 ], [ 127.812653, 39.878098 ], [ 127.802001, 39.874803 ], [ 127.792994, 39.877919 ], [ 127.784, 39.885744 ], [ 127.774692, 39.888155 ], [ 127.773533, 39.883448 ], [ 127.776791, 39.874638 ], [ 127.78543, 39.862222 ], [ 127.78409, 39.854058 ], [ 127.776696, 39.850547 ], [ 127.748853, 39.846493 ], [ 127.731786, 39.847936 ], [ 127.706044, 39.842124 ], [ 127.691878, 39.833004 ], [ 127.67557, 39.813219 ], [ 127.657222, 39.799273 ], [ 127.645021, 39.813263 ], [ 127.630718, 39.820985 ], [ 127.6131, 39.816802 ], [ 127.586751, 39.802915 ], [ 127.579476, 39.811867 ], [ 127.573857, 39.828229 ], [ 127.57093, 39.829686 ], [ 127.573119, 39.812972 ], [ 127.57129, 39.795699 ], [ 127.546199, 39.774978 ], [ 127.54244, 39.753055 ], [ 127.526784, 39.745768 ], [ 127.513014, 39.734337 ], [ 127.493322, 39.703307 ], [ 127.488534, 39.682945 ], [ 127.489179, 39.66318 ], [ 127.500221, 39.639373 ], [ 127.512414, 39.633205 ], [ 127.534861, 39.633379 ], [ 127.555564, 39.621033 ], [ 127.560464, 39.602065 ], [ 127.57114, 39.585738 ], [ 127.565773, 39.569369 ], [ 127.543986, 39.549889 ], [ 127.520643, 39.518166 ], [ 127.515562, 39.502549 ], [ 127.519996, 39.443506 ], [ 127.552517, 39.358783 ], [ 127.562864, 39.312116 ], [ 127.554838, 39.29787 ], [ 127.537404, 39.296467 ], [ 127.518357, 39.305215 ], [ 127.51704, 39.312116 ], [ 127.517013, 39.314714 ], [ 127.527776, 39.332183 ], [ 127.527577, 39.344454 ], [ 127.536067, 39.353771 ], [ 127.538235, 39.36225 ], [ 127.5307, 39.387431 ], [ 127.514297, 39.398467 ], [ 127.507965, 39.412821 ], [ 127.500342, 39.421899 ], [ 127.464078, 39.416002 ], [ 127.448496, 39.408026 ], [ 127.415488, 39.41641 ], [ 127.398539, 39.412322 ], [ 127.371674, 39.411876 ], [ 127.345819, 39.404642 ], [ 127.350905, 39.401689 ], [ 127.372631, 39.40237 ], [ 127.371797, 39.397081 ], [ 127.365919, 39.389851 ], [ 127.3686, 39.387322 ], [ 127.378813, 39.390542 ], [ 127.397311, 39.403407 ], [ 127.410707, 39.405534 ], [ 127.423278, 39.40308 ], [ 127.430063, 39.39535 ], [ 127.427543, 39.387656 ], [ 127.411902, 39.385174 ], [ 127.390781, 39.376247 ], [ 127.387067, 39.367763 ], [ 127.375509, 39.368074 ], [ 127.373946, 39.364305 ], [ 127.376953, 39.358353 ], [ 127.383789, 39.352703 ], [ 127.392202, 39.350591 ], [ 127.411262, 39.35382 ], [ 127.424703, 39.352346 ], [ 127.445606, 39.364609 ], [ 127.461672, 39.354723 ], [ 127.466814, 39.345052 ], [ 127.460819, 39.330086 ], [ 127.443523, 39.327856 ], [ 127.425561, 39.320237 ], [ 127.424953, 39.315485 ], [ 127.428121, 39.312116 ], [ 127.444979, 39.305826 ], [ 127.435131, 39.30069 ], [ 127.425211, 39.300587 ], [ 127.417165, 39.305039 ], [ 127.412907, 39.312116 ], [ 127.402533, 39.331181 ], [ 127.392361, 39.331757 ], [ 127.396963, 39.317409 ], [ 127.395961, 39.312116 ], [ 127.394205, 39.302841 ], [ 127.396319, 39.294622 ], [ 127.3833, 39.288201 ], [ 127.374127, 39.279737 ], [ 127.365372, 39.254291 ], [ 127.366238, 39.227907 ], [ 127.378579, 39.203399 ], [ 127.402672, 39.185362 ], [ 127.430554, 39.170984 ], [ 127.447118, 39.156199 ], [ 127.464856, 39.160807 ], [ 127.469716, 39.171191 ], [ 127.470526, 39.185461 ], [ 127.473881, 39.188206 ], [ 127.487415, 39.167056 ], [ 127.517591, 39.140664 ], [ 127.52769, 39.126982 ], [ 127.533669, 39.136403 ], [ 127.549551, 39.145174 ], [ 127.566169, 39.146391 ], [ 127.583135, 39.144381 ], [ 127.604213, 39.1523 ], [ 127.6131, 39.143255 ], [ 127.623226, 39.131276 ], [ 127.669271, 39.101981 ], [ 127.682172, 39.102691 ], [ 127.698761, 39.11062 ], [ 127.717948, 39.109313 ], [ 127.736755, 39.123992 ], [ 127.744367, 39.125095 ], [ 127.782164, 39.07568 ], [ 127.80376, 39.03358 ], [ 127.827246, 39.016151 ], [ 127.847267, 38.991309 ], [ 127.854872, 38.977265 ], [ 127.86198, 38.974295 ], [ 127.874442, 38.973281 ], [ 127.879762, 38.955446 ], [ 127.884681, 38.955114 ], [ 127.894662, 38.959006 ], [ 127.900316, 38.957975 ], [ 127.901013, 38.94504 ], [ 127.909491, 38.934436 ], [ 127.931014, 38.919037 ], [ 127.950798, 38.915082 ], [ 127.960901, 38.894476 ], [ 127.986434, 38.867437 ], [ 128.001356, 38.856 ], [ 128.043191, 38.843982 ], [ 128.060782, 38.848712 ], [ 128.090153, 38.834412 ], [ 128.107525, 38.820322 ], [ 128.125083, 38.812456 ], [ 128.138217, 38.800398 ], [ 128.148816, 38.782217 ], [ 128.155389, 38.777396 ], [ 128.164039, 38.77105 ], [ 128.184223, 38.750191 ], [ 128.201491, 38.738933 ], [ 128.20205, 38.734072 ], [ 128.197157, 38.722732 ], [ 128.200968, 38.716016 ], [ 128.206478, 38.716879 ], [ 128.212404, 38.724788 ], [ 128.219419, 38.7289 ], [ 128.22644, 38.729567 ], [ 128.259417, 38.732699 ], [ 128.266506, 38.746542 ], [ 128.276389, 38.744086 ], [ 128.286083, 38.721909 ], [ 128.306842, 38.707654 ], [ 128.318635, 38.703536 ], [ 128.330586, 38.691381 ], [ 128.356441, 38.675074 ], [ 128.358336, 38.642558 ], [ 128.362733, 38.624682 ], [ 128.361316, 38.61495 ], [ 128.317939, 38.592285 ], [ 128.312046, 38.591448 ], [ 128.316117, 38.572029 ], [ 128.311923, 38.535108 ], [ 128.314668, 38.516149 ], [ 128.306321, 38.500078 ], [ 128.303575, 38.47433 ], [ 128.28416, 38.434864 ], [ 128.272671, 38.429719 ], [ 128.265393, 38.422473 ], [ 128.247693, 38.4122 ], [ 128.245703, 38.401701 ], [ 128.232921, 38.394924 ], [ 128.227979, 38.386528 ], [ 128.22644, 38.385261 ], [ 128.220406, 38.380292 ], [ 128.215113, 38.36891 ], [ 128.206524, 38.372701 ], [ 128.19512, 38.370884 ], [ 128.186505, 38.358684 ], [ 128.175486, 38.36001 ], [ 128.15904, 38.341041 ], [ 128.146863, 38.339459 ], [ 128.138233, 38.33099 ], [ 128.125824, 38.330206 ], [ 128.115896, 38.333067 ], [ 128.102554, 38.323603 ], [ 128.089402, 38.314272 ], [ 128.079348, 38.310224 ], [ 128.050979, 38.304713 ], [ 128.033594, 38.308151 ], [ 128.032216, 38.312907 ], [ 127.992931, 38.312891 ], [ 127.982406, 38.318236 ], [ 127.955637, 38.312861 ], [ 127.93629, 38.319956 ], [ 127.906627, 38.322866 ], [ 127.88775, 38.328079 ], [ 127.881735, 38.326204 ], [ 127.881179, 38.320027 ], [ 127.87246, 38.3125 ], [ 127.859386, 38.309494 ], [ 127.850344, 38.310422 ], [ 127.837687, 38.304409 ], [ 127.824889, 38.301496 ], [ 127.798418, 38.322546 ], [ 127.78682, 38.343559 ], [ 127.782817, 38.345154 ], [ 127.770184, 38.332865 ], [ 127.762659, 38.334702 ], [ 127.753571, 38.331772 ], [ 127.742169, 38.33743 ], [ 127.71996, 38.327639 ], [ 127.714094, 38.332004 ], [ 127.702616, 38.333626 ], [ 127.692258, 38.3223 ], [ 127.672004, 38.320039 ], [ 127.650284, 38.322641 ], [ 127.639091, 38.319758 ], [ 127.633029, 38.322221 ], [ 127.621307, 38.32145 ], [ 127.6131, 38.330056 ], [ 127.610707, 38.332566 ], [ 127.580987, 38.332793 ], [ 127.553202, 38.32333 ], [ 127.528225, 38.308028 ], [ 127.519017, 38.302387 ], [ 127.50179, 38.297316 ], [ 127.484477, 38.304981 ], [ 127.477378, 38.313564 ], [ 127.464513, 38.314799 ], [ 127.457613, 38.315461 ], [ 127.447343, 38.314249 ], [ 127.426719, 38.324556 ], [ 127.387072, 38.332793 ], [ 127.366428, 38.32408 ], [ 127.349071, 38.325394 ], [ 127.33191, 38.316278 ], [ 127.311197, 38.31494 ], [ 127.301893, 38.310231 ], [ 127.290494, 38.320559 ], [ 127.277954, 38.322459 ], [ 127.255368, 38.325881 ], [ 127.243676, 38.32998 ], [ 127.228901, 38.326596 ], [ 127.208207, 38.316531 ], [ 127.178299, 38.307711 ], [ 127.156101, 38.301164 ], [ 127.151997, 38.301702 ], [ 127.144892, 38.308038 ], [ 127.141291, 38.31135 ], [ 127.133965, 38.310266 ], [ 127.127498, 38.296638 ], [ 127.122005, 38.296278 ], [ 127.111488, 38.292656 ], [ 127.100592, 38.282167 ], [ 127.095904, 38.276295 ], [ 127.085974, 38.274374 ], [ 127.077617, 38.27469 ], [ 127.078187, 38.270887 ], [ 127.071751, 38.263811 ], [ 127.068106, 38.260705 ], [ 127.059631, 38.259346 ], [ 127.056878, 38.25629 ], [ 127.044917, 38.256436 ], [ 127.042888, 38.254202 ], [ 127.034148, 38.244578 ], [ 127.024679, 38.237796 ], [ 127.01415, 38.231593 ], [ 127.013121, 38.227037 ], [ 127.00622, 38.219702 ], [ 127.003197, 38.214194 ], [ 126.990547, 38.212768 ], [ 126.980636, 38.199684 ], [ 126.967537, 38.188411 ], [ 126.972473, 38.181805 ], [ 126.96847, 38.169199 ], [ 126.952939, 38.156746 ], [ 126.954075, 38.152699 ], [ 126.970664, 38.143188 ], [ 126.96747, 38.133456 ], [ 126.961144, 38.130435 ], [ 126.94332, 38.130626 ], [ 126.939313, 38.12588 ], [ 126.931364, 38.123421 ], [ 126.922104, 38.116172 ], [ 126.917365, 38.114788 ], [ 126.909058, 38.112361 ], [ 126.900405, 38.097931 ], [ 126.886521, 38.100569 ], [ 126.880578, 38.098097 ], [ 126.870518, 38.083233 ], [ 126.868534, 38.067494 ], [ 126.859843, 38.055798 ], [ 126.858129, 38.038644 ], [ 126.837168, 38.025553 ], [ 126.828571, 38.015522 ], [ 126.821268, 38.002554 ], [ 126.810893, 37.997125 ], [ 126.794101, 37.995074 ], [ 126.785421, 37.983308 ], [ 126.775976, 37.982935 ], [ 126.762252, 37.977229 ], [ 126.75399, 37.97077 ], [ 126.735225, 37.963897 ], [ 126.724384, 37.95475 ], [ 126.706149, 37.950463 ], [ 126.690708, 37.955328 ], [ 126.673976, 37.952738 ], [ 126.672508, 37.940335 ], [ 126.676173, 37.926522 ], [ 126.691368, 37.914116 ], [ 126.683026, 37.894324 ], [ 126.683423, 37.872597 ], [ 126.690341, 37.845843 ], [ 126.665833, 37.83302 ], [ 126.650468, 37.801743 ], [ 126.652756, 37.788224 ], [ 126.620083, 37.787977 ], [ 126.608442, 37.78239 ], [ 126.594856, 37.770148 ], [ 126.577972, 37.769137 ], [ 126.557739, 37.786591 ], [ 126.528302, 37.802959 ], [ 126.516286, 37.806931 ], [ 126.50624, 37.814119 ], [ 126.473302, 37.816826 ], [ 126.45817, 37.83933 ], [ 126.423015, 37.852875 ], [ 126.405473, 37.877938 ], [ 126.416434, 37.899993 ], [ 126.414727, 37.905764 ], [ 126.410921, 37.908382 ], [ 126.392632, 37.885196 ], [ 126.337227, 37.875724 ], [ 126.281638, 37.847294 ], [ 126.272351, 37.846859 ], [ 126.263891, 37.84322 ], [ 126.210565, 37.863454 ], [ 126.211373, 37.854528 ], [ 126.208518, 37.849757 ], [ 126.193728, 37.845453 ], [ 126.15665, 37.834662 ], [ 126.152217, 37.822609 ], [ 126.150531, 37.818022 ], [ 126.152217, 37.813875 ], [ 126.169092, 37.771046 ], [ 126.16241, 37.74422 ], [ 126.152217, 37.739638 ], [ 126.136158, 37.740239 ], [ 126.099705, 37.752383 ], [ 126.098594, 37.759672 ], [ 126.102696, 37.783339 ], [ 126.085977, 37.791425 ], [ 126.065619, 37.809852 ], [ 126.060859, 37.855945 ], [ 126.055254, 37.8699 ], [ 126.047416, 37.869549 ], [ 126.042279, 37.862187 ], [ 126.034515, 37.85106 ], [ 126.028129, 37.848132 ], [ 126.01521, 37.854639 ], [ 126.007804, 37.866243 ], [ 125.995288, 37.873265 ], [ 125.988306, 37.885508 ], [ 125.974677, 37.888702 ], [ 125.955404, 37.879256 ], [ 125.96908, 37.861522 ], [ 125.964995, 37.846462 ], [ 125.976486, 37.835397 ], [ 125.976237, 37.830191 ], [ 125.956571, 37.829469 ], [ 125.931876, 37.840269 ], [ 125.921029, 37.83727 ], [ 125.903897, 37.838616 ], [ 125.895186, 37.84871 ], [ 125.890138, 37.864719 ], [ 125.878632, 37.884433 ], [ 125.862327, 37.893577 ], [ 125.859421, 37.907367 ], [ 125.84845, 37.912606 ], [ 125.840732, 37.919783 ], [ 125.826657, 37.933767 ], [ 125.826662, 37.944037 ], [ 125.808722, 37.941963 ], [ 125.796673, 37.950421 ], [ 125.793174, 37.963123 ], [ 125.797089, 37.971966 ], [ 125.807584, 37.982602 ], [ 125.805079, 37.988852 ], [ 125.780734, 37.995278 ], [ 125.776597, 37.99637 ], [ 125.748138, 38.013535 ], [ 125.740243, 38.01513 ], [ 125.721298, 38.011409 ], [ 125.713858, 37.992668 ], [ 125.701781, 37.989026 ], [ 125.692327, 37.994583 ], [ 125.692841, 38.009943 ], [ 125.684771, 38.012368 ], [ 125.673369, 38.022831 ], [ 125.645371, 38.020063 ], [ 125.62253, 38.03469 ], [ 125.619338, 38.034133 ], [ 125.614022, 38.026878 ], [ 125.603378, 38.033137 ], [ 125.588012, 38.037978 ], [ 125.568688, 38.030039 ], [ 125.564717, 38.02414 ], [ 125.597931, 37.989582 ], [ 125.621365, 37.976689 ], [ 125.631463, 37.96769 ], [ 125.646338, 37.965816 ], [ 125.681169, 37.98534 ], [ 125.683597, 37.978734 ], [ 125.674789, 37.964409 ], [ 125.674459, 37.957507 ], [ 125.685467, 37.961445 ], [ 125.69659, 37.961564 ], [ 125.705487, 37.965287 ], [ 125.713938, 37.955646 ], [ 125.702536, 37.951888 ], [ 125.697586, 37.945554 ], [ 125.695975, 37.937487 ], [ 125.685966, 37.933023 ], [ 125.685465, 37.930895 ], [ 125.696867, 37.91921 ], [ 125.710671, 37.924152 ], [ 125.722022, 37.924065 ], [ 125.731623, 37.933588 ], [ 125.734181, 37.926585 ], [ 125.729727, 37.915912 ], [ 125.700078, 37.895641 ], [ 125.673617, 37.890233 ], [ 125.655036, 37.894611 ], [ 125.642333, 37.916502 ], [ 125.625181, 37.923658 ], [ 125.624084, 37.914179 ], [ 125.619343, 37.908785 ], [ 125.631927, 37.901823 ], [ 125.639209, 37.890798 ], [ 125.632418, 37.87537 ], [ 125.634776, 37.855411 ], [ 125.620046, 37.850119 ], [ 125.617792, 37.843658 ], [ 125.622948, 37.829782 ], [ 125.628837, 37.825257 ], [ 125.636041, 37.823643 ], [ 125.625805, 37.81411 ], [ 125.602602, 37.802529 ], [ 125.605395, 37.794581 ], [ 125.615944, 37.794692 ], [ 125.619413, 37.792353 ], [ 125.60976, 37.760274 ], [ 125.60319, 37.759029 ], [ 125.569633, 37.763538 ], [ 125.569461, 37.766723 ], [ 125.579518, 37.77227 ], [ 125.583416, 37.779095 ], [ 125.566855, 37.780537 ], [ 125.557389, 37.791195 ], [ 125.541664, 37.774971 ], [ 125.545977, 37.769667 ], [ 125.545648, 37.765522 ], [ 125.528287, 37.76569 ], [ 125.515709, 37.777951 ], [ 125.513154, 37.788589 ], [ 125.515228, 37.798662 ], [ 125.512973, 37.800014 ], [ 125.498868, 37.786962 ], [ 125.494405, 37.777704 ], [ 125.492648, 37.763669 ], [ 125.483271, 37.751686 ], [ 125.478685, 37.735261 ], [ 125.469248, 37.726034 ], [ 125.437677, 37.725326 ], [ 125.414985, 37.730657 ], [ 125.397634, 37.72294 ], [ 125.381805, 37.720613 ], [ 125.373231, 37.722758 ], [ 125.35272, 37.692706 ], [ 125.353579, 37.682005 ], [ 125.343282, 37.677322 ], [ 125.334431, 37.692488 ], [ 125.317453, 37.711756 ], [ 125.333534, 37.735511 ], [ 125.353339, 37.749782 ], [ 125.356323, 37.758193 ], [ 125.362619, 37.758798 ], [ 125.374684, 37.75029 ], [ 125.41149, 37.764376 ], [ 125.428303, 37.761579 ], [ 125.439227, 37.773945 ], [ 125.43612, 37.783117 ], [ 125.42823, 37.784896 ], [ 125.418417, 37.781779 ], [ 125.401544, 37.768117 ], [ 125.382494, 37.765256 ], [ 125.379429, 37.767378 ], [ 125.379409, 37.774731 ], [ 125.360944, 37.778327 ], [ 125.361962, 37.78235 ], [ 125.370093, 37.788547 ], [ 125.383346, 37.785747 ], [ 125.398211, 37.788098 ], [ 125.399622, 37.791177 ], [ 125.396567, 37.797954 ], [ 125.400047, 37.805741 ], [ 125.409499, 37.808805 ], [ 125.426601, 37.821304 ], [ 125.438789, 37.827081 ], [ 125.447874, 37.822189 ], [ 125.464001, 37.825732 ], [ 125.483271, 37.820478 ], [ 125.487324, 37.815604 ], [ 125.48788, 37.803522 ], [ 125.491734, 37.801723 ], [ 125.505734, 37.812488 ], [ 125.53023, 37.837952 ], [ 125.52968, 37.842284 ], [ 125.521902, 37.837793 ], [ 125.512935, 37.836143 ], [ 125.506677, 37.824415 ], [ 125.497531, 37.820977 ], [ 125.483271, 37.835831 ], [ 125.474378, 37.845093 ], [ 125.475975, 37.848648 ], [ 125.483271, 37.85236 ], [ 125.485797, 37.853645 ], [ 125.486945, 37.858026 ], [ 125.483271, 37.85853 ], [ 125.468027, 37.860622 ], [ 125.463575, 37.863547 ], [ 125.478743, 37.871722 ], [ 125.483271, 37.87253 ], [ 125.50473, 37.876547 ], [ 125.51019, 37.88377 ], [ 125.506302, 37.889771 ], [ 125.483271, 37.89144 ], [ 125.470009, 37.898317 ], [ 125.46371, 37.889528 ], [ 125.456611, 37.888314 ], [ 125.453154, 37.898254 ], [ 125.456431, 37.907666 ], [ 125.455302, 37.921386 ], [ 125.449593, 37.925757 ], [ 125.435984, 37.923183 ], [ 125.428768, 37.914765 ], [ 125.433993, 37.900904 ], [ 125.431079, 37.894953 ], [ 125.408863, 37.892729 ], [ 125.394015, 37.898416 ], [ 125.375502, 37.900257 ], [ 125.373957, 37.897466 ], [ 125.376515, 37.892297 ], [ 125.391372, 37.880198 ], [ 125.429083, 37.876015 ], [ 125.430686, 37.868283 ], [ 125.444417, 37.859706 ], [ 125.442933, 37.845095 ], [ 125.43547, 37.842101 ], [ 125.433004, 37.849089 ], [ 125.42465, 37.848796 ], [ 125.423135, 37.85961 ], [ 125.408093, 37.855343 ], [ 125.395049, 37.85506 ], [ 125.390957, 37.857237 ], [ 125.388444, 37.863349 ], [ 125.373321, 37.865003 ], [ 125.36866, 37.873541 ], [ 125.35174, 37.870704 ], [ 125.349082, 37.868501 ], [ 125.349684, 37.858935 ], [ 125.374853, 37.858917 ], [ 125.378182, 37.857239 ], [ 125.358019, 37.845876 ], [ 125.343974, 37.820683 ], [ 125.330067, 37.820233 ], [ 125.318309, 37.807988 ], [ 125.306307, 37.803342 ], [ 125.302959, 37.807485 ], [ 125.306384, 37.829579 ], [ 125.282961, 37.82223 ], [ 125.274023, 37.825284 ], [ 125.262571, 37.822749 ], [ 125.264234, 37.818264 ], [ 125.284268, 37.804955 ], [ 125.285936, 37.800788 ], [ 125.283218, 37.799087 ], [ 125.274446, 37.801651 ], [ 125.260867, 37.810101 ], [ 125.247483, 37.814099 ], [ 125.229268, 37.810062 ], [ 125.235513, 37.823259 ], [ 125.267943, 37.840036 ], [ 125.302201, 37.872396 ], [ 125.298138, 37.890417 ], [ 125.291524, 37.898478 ], [ 125.267153, 37.896389 ], [ 125.253765, 37.898773 ], [ 125.244886, 37.903254 ], [ 125.244491, 37.914056 ], [ 125.256424, 37.929576 ], [ 125.236686, 37.94212 ], [ 125.233397, 37.942205 ], [ 125.232479, 37.93962 ], [ 125.239582, 37.927567 ], [ 125.230519, 37.91298 ], [ 125.231938, 37.901816 ], [ 125.227793, 37.900878 ], [ 125.218098, 37.905101 ], [ 125.214266, 37.904456 ], [ 125.221639, 37.896333 ], [ 125.221772, 37.887934 ], [ 125.193702, 37.870463 ], [ 125.165041, 37.866011 ], [ 125.153233, 37.868756 ], [ 125.148171, 37.873641 ], [ 125.129918, 37.865547 ], [ 125.109833, 37.87268 ], [ 125.100562, 37.874413 ], [ 125.084856, 37.87735 ], [ 125.076823, 37.885762 ], [ 125.073667, 37.895177 ], [ 125.068675, 37.898987 ], [ 125.060587, 37.900144 ], [ 125.03642, 37.897653 ], [ 125.014823, 37.90648 ], [ 125.007915, 37.917765 ], [ 125.009939, 37.927819 ], [ 125.008127, 37.931164 ], [ 124.995287, 37.929177 ], [ 124.985743, 37.923373 ], [ 124.979314, 37.928048 ], [ 124.985145, 37.945135 ], [ 124.993366, 37.954203 ], [ 125.015122, 37.959525 ], [ 125.02813, 37.956735 ], [ 125.038388, 37.964931 ], [ 125.056393, 37.972287 ], [ 125.064363, 37.978582 ], [ 125.076685, 37.975069 ], [ 125.087205, 37.959824 ], [ 125.100562, 37.959499 ], [ 125.127668, 37.958839 ], [ 125.141371, 37.954594 ], [ 125.152886, 37.955389 ], [ 125.16769, 37.968808 ], [ 125.169614, 37.979435 ], [ 125.147956, 37.973881 ], [ 125.133869, 37.973611 ], [ 125.136308, 37.986638 ], [ 125.119137, 37.988653 ], [ 125.115314, 38.002712 ], [ 125.103801, 38.021203 ], [ 125.112565, 38.042491 ], [ 125.11848, 38.045991 ], [ 125.152911, 38.04919 ], [ 125.170418, 38.055087 ], [ 125.188253, 38.054975 ], [ 125.196388, 38.052226 ], [ 125.202209, 38.045927 ], [ 125.213221, 38.039698 ], [ 125.216617, 38.032776 ], [ 125.216859, 38.023513 ], [ 125.238504, 38.018891 ], [ 125.240835, 38.022255 ], [ 125.235219, 38.034453 ], [ 125.237206, 38.049241 ], [ 125.255845, 38.064313 ], [ 125.273134, 38.064712 ], [ 125.256721, 38.080259 ], [ 125.242918, 38.084109 ], [ 125.217915, 38.080446 ], [ 125.176088, 38.093094 ], [ 125.14822, 38.088176 ], [ 125.128248, 38.090445 ], [ 125.100562, 38.083499 ], [ 125.081828, 38.076267 ], [ 125.048537, 38.069116 ], [ 125.021996, 38.072363 ], [ 125.006787, 38.065388 ], [ 124.986843, 38.079084 ], [ 124.951846, 38.093503 ], [ 124.919441, 38.112093 ], [ 124.893989, 38.122529 ], [ 124.88529, 38.131104 ], [ 124.878461, 38.126191 ], [ 124.874672, 38.117592 ], [ 124.858658, 38.108656 ], [ 124.785426, 38.094691 ], [ 124.75798, 38.096167 ], [ 124.734111, 38.100982 ], [ 124.693601, 38.109154 ], [ 124.668479, 38.11791 ], [ 124.657662, 38.128132 ], [ 124.659962, 38.134077 ], [ 124.667302, 38.137722 ], [ 124.72685, 38.139298 ], [ 124.734111, 38.143488 ], [ 124.753587, 38.154952 ], [ 124.77624, 38.175411 ], [ 124.799272, 38.171144 ], [ 124.820356, 38.179573 ], [ 124.82387, 38.183777 ], [ 124.817225, 38.186534 ], [ 124.817398, 38.190404 ], [ 124.865058, 38.232181 ], [ 124.869719, 38.230531 ], [ 124.88364, 38.213787 ], [ 124.909939, 38.208961 ], [ 124.921047, 38.191977 ], [ 124.934532, 38.196002 ], [ 124.940103, 38.204513 ], [ 124.957003, 38.215619 ], [ 124.981271, 38.21701 ], [ 124.987879, 38.219324 ], [ 124.984989, 38.22488 ], [ 124.97358, 38.226919 ], [ 124.954022, 38.224898 ], [ 124.925697, 38.216663 ], [ 124.899669, 38.221919 ], [ 124.892148, 38.227056 ], [ 124.886673, 38.238301 ], [ 124.876686, 38.247554 ], [ 124.869911, 38.259013 ], [ 124.86854, 38.271142 ], [ 124.873751, 38.308935 ], [ 124.862316, 38.328449 ], [ 124.860639, 38.337538 ], [ 124.915555, 38.397672 ], [ 124.940736, 38.438108 ], [ 124.955471, 38.449746 ], [ 124.965897, 38.439027 ], [ 124.972448, 38.438751 ], [ 124.975835, 38.454368 ], [ 124.998419, 38.474313 ], [ 125.008938, 38.487929 ], [ 125.013036, 38.505631 ], [ 125.000975, 38.53595 ], [ 125.004206, 38.57618 ], [ 125.038778, 38.578169 ], [ 125.047299, 38.566756 ], [ 125.044653, 38.553528 ], [ 125.071809, 38.54186 ], [ 125.07989, 38.54767 ], [ 125.089831, 38.572113 ], [ 125.135799, 38.571733 ], [ 125.136523, 38.579658 ], [ 125.129123, 38.592258 ], [ 125.126931, 38.617896 ], [ 125.111937, 38.645835 ], [ 125.112348, 38.65459 ], [ 125.119136, 38.661418 ], [ 125.130039, 38.659511 ], [ 125.151107, 38.631317 ], [ 125.166287, 38.62257 ], [ 125.174001, 38.623857 ], [ 125.177592, 38.628376 ], [ 125.174579, 38.64724 ], [ 125.176015, 38.656636 ], [ 125.194032, 38.64991 ], [ 125.212863, 38.647613 ], [ 125.228575, 38.650414 ], [ 125.261981, 38.661537 ], [ 125.289962, 38.646269 ], [ 125.298864, 38.631119 ], [ 125.304023, 38.627621 ], [ 125.316107, 38.656494 ], [ 125.326824, 38.668715 ], [ 125.347387, 38.672852 ], [ 125.369185, 38.685578 ], [ 125.39886, 38.68362 ], [ 125.432681, 38.685118 ], [ 125.43596, 38.689478 ], [ 125.432908, 38.701087 ], [ 125.436151, 38.704945 ], [ 125.478156, 38.695558 ], [ 125.483271, 38.692573 ], [ 125.517573, 38.672553 ], [ 125.526214, 38.675062 ], [ 125.539172, 38.68467 ], [ 125.551808, 38.688561 ], [ 125.556237, 38.693803 ], [ 125.551084, 38.70304 ], [ 125.532301, 38.710009 ], [ 125.517848, 38.718917 ], [ 125.503321, 38.72119 ], [ 125.487285, 38.718184 ], [ 125.483271, 38.719131 ], [ 125.468524, 38.72261 ], [ 125.459122, 38.738118 ], [ 125.44291, 38.748393 ], [ 125.432639, 38.75037 ], [ 125.425557, 38.747188 ], [ 125.431579, 38.73986 ], [ 125.429649, 38.732627 ], [ 125.3863, 38.7152 ], [ 125.376374, 38.716178 ], [ 125.368905, 38.721235 ], [ 125.365715, 38.732024 ], [ 125.367734, 38.74336 ], [ 125.364056, 38.744877 ], [ 125.355301, 38.715562 ], [ 125.342454, 38.712967 ], [ 125.328778, 38.71915 ], [ 125.314206, 38.719555 ], [ 125.307691, 38.702343 ], [ 125.294763, 38.692074 ], [ 125.280881, 38.691071 ], [ 125.230612, 38.721289 ], [ 125.231422, 38.727964 ], [ 125.245039, 38.744962 ], [ 125.252894, 38.759529 ], [ 125.263427, 38.769047 ], [ 125.25977, 38.772766 ], [ 125.238025, 38.78223 ], [ 125.232516, 38.790422 ], [ 125.229029, 38.804321 ], [ 125.217819, 38.803984 ], [ 125.228195, 38.772291 ], [ 125.222657, 38.759529 ], [ 125.215095, 38.742097 ], [ 125.198263, 38.759529 ], [ 125.191148, 38.773993 ], [ 125.173697, 38.774244 ], [ 125.147429, 38.792977 ], [ 125.139829, 38.811534 ], [ 125.149391, 38.852203 ], [ 125.132371, 38.873127 ], [ 125.145365, 38.879628 ], [ 125.154416, 38.887596 ], [ 125.166109, 38.906994 ], [ 125.180118, 38.94067 ], [ 125.197689, 38.965535 ], [ 125.198215, 38.97184 ], [ 125.191435, 38.979693 ], [ 125.192012, 38.984947 ], [ 125.211662, 38.99815 ], [ 125.217825, 39.010168 ], [ 125.244383, 39.043892 ], [ 125.260692, 39.072333 ], [ 125.291221, 39.100091 ], [ 125.286632, 39.123491 ], [ 125.29499, 39.155333 ], [ 125.302729, 39.169392 ], [ 125.326127, 39.189209 ], [ 125.335818, 39.203527 ], [ 125.360666, 39.225442 ], [ 125.375002, 39.229439 ], [ 125.390743, 39.22456 ], [ 125.388618, 39.241802 ], [ 125.399308, 39.257146 ], [ 125.409775, 39.261052 ], [ 125.421778, 39.257714 ], [ 125.426395, 39.259186 ], [ 125.423416, 39.272351 ], [ 125.407391, 39.27959 ], [ 125.405758, 39.2883 ], [ 125.411418, 39.294653 ], [ 125.437065, 39.306488 ], [ 125.448396, 39.316244 ], [ 125.446231, 39.316244 ], [ 125.428885, 39.312744 ], [ 125.418516, 39.316244 ], [ 125.405874, 39.338219 ], [ 125.398321, 39.367068 ], [ 125.389844, 39.374735 ], [ 125.371544, 39.38495 ], [ 125.357491, 39.414863 ], [ 125.358644, 39.420947 ], [ 125.378516, 39.439437 ], [ 125.351603, 39.437893 ], [ 125.345707, 39.441459 ], [ 125.342361, 39.450113 ], [ 125.351752, 39.467402 ], [ 125.380496, 39.485452 ], [ 125.39596, 39.498821 ], [ 125.39989, 39.521602 ], [ 125.406206, 39.53697 ], [ 125.416263, 39.546028 ], [ 125.431306, 39.553406 ], [ 125.43491, 39.560045 ], [ 125.431282, 39.570744 ], [ 125.425817, 39.576046 ], [ 125.416947, 39.578012 ], [ 125.403712, 39.575428 ], [ 125.369686, 39.554407 ], [ 125.336867, 39.54445 ], [ 125.305077, 39.526442 ], [ 125.290604, 39.522096 ], [ 125.280717, 39.521961 ], [ 125.269475, 39.531231 ], [ 125.26071, 39.546282 ], [ 125.219761, 39.577548 ], [ 125.227202, 39.603837 ], [ 125.242787, 39.626228 ], [ 125.228128, 39.623369 ], [ 125.212584, 39.60491 ], [ 125.183494, 39.588861 ], [ 125.175282, 39.575438 ], [ 125.144526, 39.568186 ], [ 125.1352, 39.568211 ], [ 125.098305, 39.611762 ], [ 125.065618, 39.610559 ], [ 125.049741, 39.617777 ], [ 125.023489, 39.625547 ], [ 125.007552, 39.633401 ], [ 124.977726, 39.631631 ], [ 124.968149, 39.650498 ], [ 124.952667, 39.666457 ], [ 124.946764, 39.662953 ], [ 124.942304, 39.644584 ], [ 124.91362, 39.649957 ], [ 124.908044, 39.654522 ], [ 124.905712, 39.66898 ], [ 124.88799, 39.695455 ], [ 124.859124, 39.69875 ], [ 124.851963, 39.709975 ], [ 124.846508, 39.713264 ], [ 124.805187, 39.715418 ], [ 124.792347, 39.727332 ], [ 124.773458, 39.732817 ], [ 124.763853, 39.739612 ], [ 124.747626, 39.767671 ], [ 124.741196, 39.766101 ], [ 124.736936, 39.761094 ], [ 124.747826, 39.738866 ], [ 124.748567, 39.718264 ], [ 124.743753, 39.710499 ], [ 124.731674, 39.704743 ], [ 124.728518, 39.700884 ], [ 124.74254, 39.695687 ], [ 124.738685, 39.683499 ], [ 124.759126, 39.674879 ], [ 124.758686, 39.671435 ], [ 124.738421, 39.660701 ], [ 124.731013, 39.654169 ], [ 124.729807, 39.647974 ], [ 124.732884, 39.636624 ], [ 124.703186, 39.632481 ], [ 124.681467, 39.621916 ], [ 124.668523, 39.612396 ], [ 124.646449, 39.601453 ], [ 124.636999, 39.585049 ], [ 124.615123, 39.586665 ], [ 124.612992, 39.591053 ], [ 124.625611, 39.599606 ], [ 124.615494, 39.612097 ], [ 124.614232, 39.619682 ], [ 124.64238, 39.673207 ], [ 124.637271, 39.685734 ], [ 124.620287, 39.690269 ], [ 124.595347, 39.711111 ], [ 124.566927, 39.718658 ], [ 124.580029, 39.734271 ], [ 124.584879, 39.746971 ], [ 124.583375, 39.757452 ], [ 124.578618, 39.764184 ], [ 124.571711, 39.76642 ], [ 124.55945, 39.765922 ], [ 124.552675, 39.771584 ], [ 124.55773, 39.793164 ], [ 124.569338, 39.810706 ], [ 124.568172, 39.819913 ], [ 124.561704, 39.821023 ], [ 124.548753, 39.811737 ], [ 124.534172, 39.808242 ], [ 124.5107, 39.81356 ], [ 124.486741, 39.822961 ], [ 124.461485, 39.82802 ], [ 124.427352, 39.80151 ], [ 124.417722, 39.799642 ], [ 124.412252, 39.807062 ], [ 124.414106, 39.824241 ], [ 124.395036, 39.857179 ], [ 124.382774, 39.848044 ], [ 124.374109, 39.847023 ], [ 124.369079, 39.850016 ], [ 124.36688, 39.871105 ], [ 124.373444, 39.872618 ], [ 124.387918, 39.868194 ], [ 124.387835, 39.870069 ], [ 124.374215, 39.878799 ], [ 124.351163, 39.883225 ], [ 124.336951, 39.894282 ], [ 124.319623, 39.903493 ], [ 124.321529, 39.909748 ], [ 124.332882, 39.922067 ], [ 124.35429, 39.931112 ], [ 124.376714, 39.945574 ], [ 124.389035, 39.949625 ], [ 124.383941, 39.953409 ], [ 124.368609, 39.95842 ], [ 124.36521, 39.97178 ], [ 124.368437, 39.994399 ], [ 124.358295, 40.000001 ] ] ], [ [ [ 124.81743, 39.491553 ], [ 124.81925, 39.494045 ], [ 124.826372, 39.49579 ], [ 124.834197, 39.503242 ], [ 124.836142, 39.511679 ], [ 124.838516, 39.512796 ], [ 124.846397, 39.50812 ], [ 124.854782, 39.513961 ], [ 124.857614, 39.522392 ], [ 124.856497, 39.525379 ], [ 124.847395, 39.528011 ], [ 124.845702, 39.531469 ], [ 124.847808, 39.533724 ], [ 124.857941, 39.538174 ], [ 124.860413, 39.543403 ], [ 124.853364, 39.545554 ], [ 124.850198, 39.549712 ], [ 124.846655, 39.549758 ], [ 124.840942, 39.544794 ], [ 124.835929, 39.545086 ], [ 124.825232, 39.54156 ], [ 124.822593, 39.542738 ], [ 124.821768, 39.54595 ], [ 124.839439, 39.557855 ], [ 124.849746, 39.556585 ], [ 124.857621, 39.565631 ], [ 124.875504, 39.572723 ], [ 124.871559, 39.582611 ], [ 124.865989, 39.584743 ], [ 124.866042, 39.587028 ], [ 124.86962, 39.589042 ], [ 124.881751, 39.589572 ], [ 124.885985, 39.594094 ], [ 124.872223, 39.60022 ], [ 124.88774, 39.607341 ], [ 124.903662, 39.605531 ], [ 124.90783, 39.60685 ], [ 124.909523, 39.602712 ], [ 124.915092, 39.600806 ], [ 124.919542, 39.601431 ], [ 124.926811, 39.595849 ], [ 124.929626, 39.589405 ], [ 124.923684, 39.587421 ], [ 124.914261, 39.589608 ], [ 124.911874, 39.588495 ], [ 124.909369, 39.581894 ], [ 124.909562, 39.577088 ], [ 124.917764, 39.573548 ], [ 124.910607, 39.570896 ], [ 124.909392, 39.56885 ], [ 124.913147, 39.565373 ], [ 124.919342, 39.564374 ], [ 124.919882, 39.562079 ], [ 124.917764, 39.55959 ], [ 124.925049, 39.554915 ], [ 124.91761, 39.552731 ], [ 124.915177, 39.549784 ], [ 124.916343, 39.548396 ], [ 124.922531, 39.547859 ], [ 124.933212, 39.550233 ], [ 124.936728, 39.548812 ], [ 124.939848, 39.543053 ], [ 124.923982, 39.532971 ], [ 124.917793, 39.53305 ], [ 124.910469, 39.536121 ], [ 124.906615, 39.535483 ], [ 124.905083, 39.532762 ], [ 124.90856, 39.529969 ], [ 124.908524, 39.527913 ], [ 124.898712, 39.524835 ], [ 124.89383, 39.51735 ], [ 124.886689, 39.514698 ], [ 124.883948, 39.51107 ], [ 124.878326, 39.510455 ], [ 124.871988, 39.503903 ], [ 124.866019, 39.50055 ], [ 124.858436, 39.491036 ], [ 124.842117, 39.486668 ], [ 124.841102, 39.49446 ], [ 124.838463, 39.495177 ], [ 124.830962, 39.489094 ], [ 124.822053, 39.486462 ], [ 124.817626, 39.486972 ], [ 124.81743, 39.491553 ] ] ], [ [ [ 124.770157, 38.51438 ], [ 124.773451, 38.518234 ], [ 124.777832, 38.519095 ], [ 124.78199, 38.522939 ], [ 124.777472, 38.530551 ], [ 124.779266, 38.533508 ], [ 124.792687, 38.533574 ], [ 124.802064, 38.536432 ], [ 124.814483, 38.544981 ], [ 124.816588, 38.548618 ], [ 124.815498, 38.552295 ], [ 124.818206, 38.556843 ], [ 124.827652, 38.54779 ], [ 124.843597, 38.543694 ], [ 124.855424, 38.5369 ], [ 124.875475, 38.533894 ], [ 124.876169, 38.525866 ], [ 124.878752, 38.523312 ], [ 124.88662, 38.523666 ], [ 124.888634, 38.522039 ], [ 124.893869, 38.507766 ], [ 124.894334, 38.502033 ], [ 124.89258, 38.499227 ], [ 124.887445, 38.495969 ], [ 124.87416, 38.493776 ], [ 124.867129, 38.495608 ], [ 124.863531, 38.499227 ], [ 124.860323, 38.500058 ], [ 124.857947, 38.499227 ], [ 124.854913, 38.497737 ], [ 124.852385, 38.499227 ], [ 124.838211, 38.507576 ], [ 124.821984, 38.512848 ], [ 124.81742, 38.51677 ], [ 124.803999, 38.51625 ], [ 124.795015, 38.518653 ], [ 124.789079, 38.512776 ], [ 124.79805, 38.509914 ], [ 124.800918, 38.507357 ], [ 124.797395, 38.505569 ], [ 124.782226, 38.505298 ], [ 124.773566, 38.509299 ], [ 124.770157, 38.51438 ] ] ], [ [ [ 125.209952, 37.696136 ], [ 125.213783, 37.69997 ], [ 125.229738, 37.703844 ], [ 125.234711, 37.706512 ], [ 125.243637, 37.718057 ], [ 125.252778, 37.725699 ], [ 125.253724, 37.728665 ], [ 125.248879, 37.731036 ], [ 125.250719, 37.735819 ], [ 125.269981, 37.732984 ], [ 125.273101, 37.730869 ], [ 125.276336, 37.722107 ], [ 125.281561, 37.722935 ], [ 125.283081, 37.726121 ], [ 125.280321, 37.731209 ], [ 125.271608, 37.740521 ], [ 125.283791, 37.742839 ], [ 125.293283, 37.75277 ], [ 125.295326, 37.75365 ], [ 125.300758, 37.751728 ], [ 125.313536, 37.75946 ], [ 125.325088, 37.766449 ], [ 125.325812, 37.760703 ], [ 125.328713, 37.761574 ], [ 125.336692, 37.768545 ], [ 125.338074, 37.765997 ], [ 125.334083, 37.757124 ], [ 125.32705, 37.75312 ], [ 125.319558, 37.742702 ], [ 125.313536, 37.737584 ], [ 125.296547, 37.723145 ], [ 125.280854, 37.718135 ], [ 125.252876, 37.694984 ], [ 125.244452, 37.692142 ], [ 125.23552, 37.692744 ], [ 125.224984, 37.686268 ], [ 125.221228, 37.686101 ], [ 125.219018, 37.69003 ], [ 125.211602, 37.693131 ], [ 125.209952, 37.696136 ] ] ], [ [ [ 124.593312, 39.529227 ], [ 124.594411, 39.536589 ], [ 124.608367, 39.544791 ], [ 124.614719, 39.545846 ], [ 124.619794, 39.54968 ], [ 124.620793, 39.556072 ], [ 124.62708, 39.560355 ], [ 124.631445, 39.556871 ], [ 124.636177, 39.557051 ], [ 124.64605, 39.563577 ], [ 124.660189, 39.56136 ], [ 124.66498, 39.564966 ], [ 124.670625, 39.566505 ], [ 124.686222, 39.563129 ], [ 124.691143, 39.557811 ], [ 124.697044, 39.557284 ], [ 124.698485, 39.555207 ], [ 124.692915, 39.541314 ], [ 124.672289, 39.528507 ], [ 124.659685, 39.533451 ], [ 124.651109, 39.532862 ], [ 124.651757, 39.536284 ], [ 124.648902, 39.541579 ], [ 124.644209, 39.543232 ], [ 124.639848, 39.547398 ], [ 124.637467, 39.546055 ], [ 124.633161, 39.536032 ], [ 124.634559, 39.531899 ], [ 124.627159, 39.530835 ], [ 124.623707, 39.536595 ], [ 124.618154, 39.53986 ], [ 124.612538, 39.539686 ], [ 124.608367, 39.536318 ], [ 124.594738, 39.528589 ], [ 124.593312, 39.529227 ] ] ], [ [ [ 124.990969, 37.808991 ], [ 124.99682, 37.812343 ], [ 125.005096, 37.821393 ], [ 125.008498, 37.818368 ], [ 125.015426, 37.818496 ], [ 125.022554, 37.814036 ], [ 125.026313, 37.814442 ], [ 125.031096, 37.821707 ], [ 125.030297, 37.8247 ], [ 125.020554, 37.828049 ], [ 125.020043, 37.831035 ], [ 125.02442, 37.833033 ], [ 125.033653, 37.832672 ], [ 125.047837, 37.834526 ], [ 125.049765, 37.829919 ], [ 125.043197, 37.820385 ], [ 125.041878, 37.813074 ], [ 125.034364, 37.81272 ], [ 125.032013, 37.810464 ], [ 125.032151, 37.804276 ], [ 125.021019, 37.797099 ], [ 125.017836, 37.79669 ], [ 125.012162, 37.801126 ], [ 125.008691, 37.800946 ], [ 125.00106, 37.795321 ], [ 124.998574, 37.80017 ], [ 124.994537, 37.800688 ], [ 124.991332, 37.799129 ], [ 124.990969, 37.808991 ] ] ], [ [ [ 126.35581, 37.847665 ], [ 126.356077, 37.850694 ], [ 126.356858, 37.859557 ], [ 126.359297, 37.862704 ], [ 126.380153, 37.86401 ], [ 126.385383, 37.864337 ], [ 126.397478, 37.863568 ], [ 126.401656, 37.859567 ], [ 126.400032, 37.855022 ], [ 126.393037, 37.850694 ], [ 126.388343, 37.84779 ], [ 126.381781, 37.839441 ], [ 126.380153, 37.838117 ], [ 126.375213, 37.834104 ], [ 126.363059, 37.833495 ], [ 126.358292, 37.838347 ], [ 126.35581, 37.847665 ] ] ], [ [ [ 124.979983, 38.621132 ], [ 124.982139, 38.626823 ], [ 124.986645, 38.63271 ], [ 124.991335, 38.633561 ], [ 124.995363, 38.630986 ], [ 124.998001, 38.63164 ], [ 125.0, 38.640306 ], [ 124.99286, 38.63844 ], [ 124.987683, 38.640024 ], [ 124.985975, 38.642105 ], [ 124.987774, 38.644141 ], [ 124.98696, 38.6469 ], [ 124.991178, 38.652564 ], [ 124.987234, 38.659256 ], [ 124.989758, 38.667922 ], [ 124.992395, 38.668112 ], [ 124.998223, 38.654754 ], [ 125.00108, 38.652198 ], [ 125.010979, 38.65137 ], [ 125.0201, 38.654675 ], [ 125.021517, 38.652823 ], [ 125.014533, 38.640561 ], [ 125.015836, 38.634134 ], [ 125.013159, 38.631195 ], [ 125.001057, 38.624955 ], [ 124.99377, 38.62483 ], [ 124.989636, 38.622827 ], [ 124.984214, 38.614888 ], [ 124.979983, 38.621132 ] ] ], [ [ [ 125.132629, 37.792237 ], [ 125.133827, 37.793825 ], [ 125.149543, 37.798851 ], [ 125.166549, 37.810277 ], [ 125.178467, 37.813296 ], [ 125.188683, 37.817952 ], [ 125.191102, 37.810349 ], [ 125.197068, 37.806587 ], [ 125.192674, 37.803677 ], [ 125.1846, 37.804263 ], [ 125.179649, 37.802508 ], [ 125.17018, 37.793029 ], [ 125.155008, 37.78616 ], [ 125.146308, 37.772546 ], [ 125.143119, 37.771904 ], [ 125.141738, 37.774677 ], [ 125.146623, 37.785832 ], [ 125.144439, 37.791137 ], [ 125.134322, 37.790603 ], [ 125.132629, 37.792237 ] ] ], [ [ [ 124.678575, 39.500066 ], [ 124.681921, 39.505979 ], [ 124.679711, 39.51424 ], [ 124.685097, 39.518067 ], [ 124.690857, 39.526466 ], [ 124.705407, 39.530876 ], [ 124.710112, 39.529219 ], [ 124.711242, 39.526459 ], [ 124.70433, 39.520363 ], [ 124.704811, 39.514407 ], [ 124.708328, 39.513225 ], [ 124.709182, 39.511381 ], [ 124.70192, 39.501628 ], [ 124.702424, 39.497047 ], [ 124.691705, 39.491451 ], [ 124.686112, 39.49266 ], [ 124.678575, 39.500066 ] ] ], [ [ [ 126.166733, 37.813548 ], [ 126.170669, 37.826524 ], [ 126.172207, 37.827475 ], [ 126.190854, 37.838947 ], [ 126.193728, 37.840101 ], [ 126.20151, 37.843227 ], [ 126.210812, 37.844412 ], [ 126.214478, 37.843024 ], [ 126.195676, 37.82929 ], [ 126.193728, 37.827073 ], [ 126.172207, 37.802583 ], [ 126.170348, 37.802226 ], [ 126.166733, 37.813548 ] ] ], [ [ [ 124.588279, 39.432872 ], [ 124.588973, 39.439047 ], [ 124.592852, 39.441982 ], [ 124.606193, 39.444812 ], [ 124.608371, 39.446391 ], [ 124.613148, 39.448231 ], [ 124.620489, 39.432078 ], [ 124.615007, 39.424591 ], [ 124.608371, 39.422987 ], [ 124.599875, 39.421532 ], [ 124.594929, 39.425017 ], [ 124.596219, 39.431185 ], [ 124.588279, 39.432872 ] ] ], [ [ [ 130.263383, 42.160242 ], [ 130.273219, 42.170422 ], [ 130.279221, 42.171645 ], [ 130.284691, 42.170832 ], [ 130.287608, 42.166735 ], [ 130.28808, 42.152211 ], [ 130.285743, 42.147993 ], [ 130.280719, 42.144633 ], [ 130.275756, 42.144492 ], [ 130.269371, 42.150658 ], [ 130.27024, 42.15543 ], [ 130.263383, 42.160242 ] ] ], [ [ [ 125.390952, 39.545354 ], [ 125.396813, 39.554175 ], [ 125.408593, 39.563588 ], [ 125.421202, 39.57069 ], [ 125.428582, 39.570336 ], [ 125.430877, 39.568008 ], [ 125.427757, 39.562112 ], [ 125.414755, 39.551582 ], [ 125.393866, 39.54393 ], [ 125.390952, 39.545354 ] ] ], [ [ [ 124.334426, 39.870602 ], [ 124.334747, 39.873342 ], [ 124.345735, 39.872563 ], [ 124.351357, 39.872514 ], [ 124.359015, 39.868559 ], [ 124.36132, 39.863507 ], [ 124.35856, 39.856899 ], [ 124.354058, 39.853736 ], [ 124.338021, 39.851588 ], [ 124.336564, 39.853432 ], [ 124.337602, 39.8644 ], [ 124.334426, 39.870602 ] ] ], [ [ [ 125.328279, 37.77941 ], [ 125.334471, 37.795157 ], [ 125.359873, 37.814708 ], [ 125.36154, 37.822948 ], [ 125.366459, 37.823322 ], [ 125.368408, 37.820077 ], [ 125.367443, 37.816415 ], [ 125.355476, 37.80192 ], [ 125.340673, 37.789077 ], [ 125.330273, 37.777547 ], [ 125.328279, 37.77941 ] ] ], [ [ [ 125.885307, 37.767176 ], [ 125.890648, 37.771416 ], [ 125.904006, 37.773882 ], [ 125.912012, 37.780125 ], [ 125.9169, 37.779559 ], [ 125.917686, 37.777251 ], [ 125.911668, 37.770048 ], [ 125.889472, 37.762271 ], [ 125.886918, 37.763473 ], [ 125.885307, 37.767176 ] ] ], [ [ [ 125.756111, 37.798071 ], [ 125.758487, 37.800832 ], [ 125.760285, 37.808477 ], [ 125.77131, 37.809316 ], [ 125.774287, 37.800832 ], [ 125.776323, 37.797891 ], [ 125.774512, 37.795177 ], [ 125.768357, 37.792554 ], [ 125.758348, 37.795504 ], [ 125.756111, 37.798071 ] ] ], [ [ [ 124.766893, 39.457393 ], [ 124.768098, 39.458752 ], [ 124.772819, 39.459152 ], [ 124.781928, 39.45721 ], [ 124.787147, 39.452341 ], [ 124.784698, 39.448026 ], [ 124.781113, 39.445325 ], [ 124.777861, 39.445361 ], [ 124.774849, 39.44174 ], [ 124.768065, 39.442506 ], [ 124.769624, 39.446376 ], [ 124.767273, 39.449277 ], [ 124.771248, 39.453906 ], [ 124.766893, 39.457393 ] ] ], [ [ [ 125.128968, 39.522301 ], [ 125.129623, 39.52435 ], [ 125.135559, 39.525863 ], [ 125.137756, 39.531321 ], [ 125.156403, 39.53287 ], [ 125.156304, 39.528754 ], [ 125.150679, 39.528381 ], [ 125.147376, 39.525916 ], [ 125.142982, 39.515458 ], [ 125.139717, 39.51459 ], [ 125.138008, 39.517131 ], [ 125.128968, 39.522301 ] ] ], [ [ [ 127.613093, 39.218755 ], [ 127.617437, 39.223724 ], [ 127.616123, 39.231795 ], [ 127.620452, 39.235082 ], [ 127.624285, 39.230134 ], [ 127.6323, 39.225956 ], [ 127.633333, 39.2234 ], [ 127.631927, 39.21955 ], [ 127.628607, 39.218062 ], [ 127.622496, 39.219422 ], [ 127.614963, 39.216473 ], [ 127.613093, 39.218755 ] ] ], [ [ [ 124.517158, 39.705612 ], [ 124.51869, 39.709031 ], [ 124.524407, 39.714921 ], [ 124.53936, 39.723915 ], [ 124.542022, 39.723201 ], [ 124.544321, 39.719292 ], [ 124.540994, 39.71498 ], [ 124.527894, 39.710537 ], [ 124.523078, 39.705783 ], [ 124.518311, 39.703543 ], [ 124.517158, 39.705612 ] ] ], [ [ [ 124.321947, 39.888529 ], [ 124.325248, 39.891922 ], [ 124.329687, 39.892339 ], [ 124.334998, 39.891609 ], [ 124.342712, 39.885427 ], [ 124.340442, 39.879034 ], [ 124.338054, 39.877462 ], [ 124.33275, 39.878417 ], [ 124.321947, 39.888529 ] ] ], [ [ [ 127.463343, 39.388261 ], [ 127.464513, 39.391671 ], [ 127.466318, 39.393121 ], [ 127.473891, 39.391262 ], [ 127.480171, 39.392882 ], [ 127.482407, 39.390518 ], [ 127.473747, 39.383479 ], [ 127.47522, 39.377932 ], [ 127.471841, 39.375529 ], [ 127.466681, 39.378224 ], [ 127.464513, 39.384251 ], [ 127.463343, 39.388261 ] ] ], [ [ [ 125.190087, 39.521603 ], [ 125.195824, 39.526551 ], [ 125.200234, 39.525565 ], [ 125.203911, 39.51956 ], [ 125.207978, 39.51698 ], [ 125.208184, 39.513087 ], [ 125.204857, 39.510393 ], [ 125.191194, 39.518611 ], [ 125.190087, 39.521603 ] ] ], [ [ [ 125.13626, 39.542558 ], [ 125.136643, 39.545983 ], [ 125.138742, 39.547551 ], [ 125.145211, 39.546081 ], [ 125.156196, 39.548665 ], [ 125.158203, 39.545659 ], [ 125.155748, 39.542493 ], [ 125.157739, 39.539258 ], [ 125.147363, 39.537581 ], [ 125.14273, 39.541314 ], [ 125.13626, 39.542558 ] ] ], [ [ [ 125.365151, 37.840485 ], [ 125.367263, 37.843658 ], [ 125.373946, 37.845609 ], [ 125.379646, 37.842299 ], [ 125.381866, 37.839051 ], [ 125.376251, 37.834107 ], [ 125.372178, 37.833259 ], [ 125.369035, 37.834231 ], [ 125.365151, 37.840485 ] ] ], [ [ [ 124.348053, 39.933364 ], [ 124.351966, 39.937447 ], [ 124.357208, 39.951579 ], [ 124.360191, 39.95224 ], [ 124.364869, 39.947165 ], [ 124.360603, 39.939661 ], [ 124.351304, 39.932192 ], [ 124.348053, 39.933364 ] ] ], [ [ [ 124.954117, 37.922261 ], [ 124.961167, 37.927663 ], [ 124.965439, 37.924392 ], [ 124.967086, 37.920702 ], [ 124.966431, 37.916816 ], [ 124.964624, 37.913408 ], [ 124.9582, 37.910516 ], [ 124.957473, 37.916714 ], [ 124.954117, 37.922261 ] ] ], [ [ [ 125.224113, 37.744502 ], [ 125.225059, 37.747695 ], [ 125.227996, 37.749712 ], [ 125.236054, 37.748893 ], [ 125.238876, 37.746555 ], [ 125.235022, 37.742263 ], [ 125.237213, 37.737414 ], [ 125.231391, 37.735446 ], [ 125.224113, 37.744502 ] ] ], [ [ [ 124.614401, 39.458909 ], [ 124.622819, 39.468424 ], [ 124.625746, 39.467252 ], [ 124.625327, 39.46016 ], [ 124.629731, 39.45851 ], [ 124.631447, 39.456205 ], [ 124.627878, 39.454414 ], [ 124.618468, 39.455658 ], [ 124.614401, 39.458909 ] ] ], [ [ [ 124.716369, 39.406277 ], [ 124.717034, 39.409473 ], [ 124.732439, 39.414328 ], [ 124.734111, 39.412869 ], [ 124.734111, 39.410529 ], [ 124.722197, 39.402551 ], [ 124.718962, 39.403045 ], [ 124.716369, 39.406277 ] ] ], [ [ [ 126.154311, 37.821636 ], [ 126.155349, 37.8262 ], [ 126.157335, 37.828239 ], [ 126.160415, 37.830988 ], [ 126.164897, 37.831873 ], [ 126.166264, 37.830921 ], [ 126.166533, 37.828239 ], [ 126.158158, 37.816272 ], [ 126.154311, 37.821636 ] ] ], [ [ [ 125.892792, 37.836052 ], [ 125.905165, 37.834372 ], [ 125.909972, 37.831062 ], [ 125.911324, 37.828053 ], [ 125.909828, 37.826711 ], [ 125.905486, 37.826573 ], [ 125.898064, 37.829025 ], [ 125.89418, 37.833924 ], [ 125.892792, 37.836052 ] ] ], [ [ [ 124.822037, 39.632654 ], [ 124.823792, 39.635695 ], [ 124.82479, 39.637424 ], [ 124.829499, 39.636219 ], [ 124.839013, 39.638619 ], [ 124.838481, 39.635695 ], [ 124.83735, 39.629488 ], [ 124.832314, 39.628866 ], [ 124.827943, 39.632349 ], [ 124.822037, 39.632654 ] ] ], [ [ [ 124.729438, 39.546696 ], [ 124.734111, 39.5524 ], [ 124.739363, 39.552125 ], [ 124.741411, 39.549754 ], [ 124.734111, 39.540748 ], [ 124.729917, 39.542337 ], [ 124.729438, 39.546696 ] ] ], [ [ [ 124.895287, 39.615248 ], [ 124.895362, 39.61845 ], [ 124.899222, 39.619086 ], [ 124.902267, 39.623165 ], [ 124.9058, 39.622432 ], [ 124.910377, 39.615281 ], [ 124.908835, 39.612786 ], [ 124.906478, 39.612586 ], [ 124.904471, 39.615586 ], [ 124.895287, 39.615248 ] ] ], [ [ [ 125.064873, 38.595406 ], [ 125.069054, 38.599463 ], [ 125.076378, 38.600959 ], [ 125.077475, 38.598199 ], [ 125.074434, 38.592515 ], [ 125.069457, 38.591903 ], [ 125.065407, 38.593105 ], [ 125.064873, 38.595406 ] ] ], [ [ [ 124.617797, 39.484956 ], [ 124.623199, 39.490387 ], [ 124.62645, 39.490577 ], [ 124.628464, 39.487355 ], [ 124.626932, 39.483937 ], [ 124.62185, 39.480332 ], [ 124.618311, 39.480598 ], [ 124.617797, 39.484956 ] ] ], [ [ [ 127.511131, 39.217537 ], [ 127.528225, 39.220084 ], [ 127.529495, 39.216973 ], [ 127.528225, 39.215237 ], [ 127.525001, 39.21294 ], [ 127.518387, 39.215687 ], [ 127.512209, 39.215667 ], [ 127.511131, 39.217537 ] ] ], [ [ [ 127.560228, 39.740718 ], [ 127.563463, 39.74542 ], [ 127.566367, 39.744405 ], [ 127.568816, 39.740653 ], [ 127.565529, 39.734815 ], [ 127.560464, 39.734304 ], [ 127.560228, 39.740718 ] ] ], [ [ [ 124.751809, 39.625041 ], [ 124.756638, 39.630244 ], [ 124.763442, 39.630395 ], [ 124.765472, 39.628541 ], [ 124.763946, 39.62604 ], [ 124.761543, 39.624013 ], [ 124.756507, 39.623388 ], [ 124.751809, 39.625041 ] ] ], [ [ [ 127.438798, 39.386252 ], [ 127.438972, 39.389225 ], [ 127.443107, 39.394814 ], [ 127.447602, 39.396039 ], [ 127.447196, 39.388721 ], [ 127.441948, 39.384317 ], [ 127.438798, 39.386252 ] ] ], [ [ [ 130.282608, 42.182213 ], [ 130.287948, 42.190834 ], [ 130.29155, 42.19267 ], [ 130.294647, 42.187412 ], [ 130.291762, 42.183922 ], [ 130.282608, 42.182213 ] ] ], [ [ [ 125.744262, 37.8343 ], [ 125.754317, 37.832493 ], [ 125.754799, 37.829507 ], [ 125.7492, 37.825951 ], [ 125.745192, 37.82695 ], [ 125.744262, 37.8343 ] ] ], [ [ [ 125.248322, 37.789493 ], [ 125.24842, 37.79316 ], [ 125.253083, 37.794918 ], [ 125.258537, 37.794139 ], [ 125.26467, 37.796791 ], [ 125.266068, 37.794705 ], [ 125.263678, 37.791536 ], [ 125.259042, 37.790924 ], [ 125.255044, 37.792361 ], [ 125.248322, 37.789493 ] ] ], [ [ [ 125.087272, 37.67786 ], [ 125.089393, 37.682182 ], [ 125.093512, 37.685557 ], [ 125.095719, 37.681399 ], [ 125.095048, 37.677283 ], [ 125.089491, 37.673931 ], [ 125.087272, 37.67786 ] ] ], [ [ [ 124.79769, 39.5085 ], [ 124.801324, 39.512344 ], [ 124.808701, 39.512711 ], [ 124.810996, 39.509479 ], [ 124.809775, 39.507207 ], [ 124.805961, 39.508395 ], [ 124.800309, 39.506408 ], [ 124.79769, 39.5085 ] ] ] ] } }
]
}
