{
"type": "FeatureCollection",
"name": "North Macedonia",
"crs": { "type": "name", "properties": { "name": "urn:ogc:def:crs:OGC:1.3:CRS84" } },
"features": [
{ "type": "Feature", "properties": { "id": "MK", "CNTR_ID": "MK", "CNTR_NAME": "Северна Македонија", "NAME_ENGL": "North Macedonia", "ISO3_CODE": "MKD", "FID": "MK" }, "geometry": { "type": "MultiPolygon", "coordinates": [ [ [ [ 22.360207, 42.311157 ], [ 22.367039, 42.308632 ], [ 22.378917, 42.308362 ], [ 22.382091, 42.304171 ], [ 22.384368, 42.303294 ], [ 22.389503, 42.295068 ], [ 22.400929, 42.290003 ], [ 22.40178, 42.281078 ], [ 22.41395, 42.269106 ], [ 22.419185, 42.264635 ], [ 22.424122, 42.264081 ], [ 22.425172, 42.256891 ], [ 22.434192, 42.257198 ], [ 22.441183, 42.246106 ], [ 22.450741, 42.241243 ], [ 22.449122, 42.236597 ], [ 22.467482, 42.209403 ], [ 22.471124, 42.201779 ], [ 22.473127, 42.201692 ], [ 22.485612, 42.201149 ], [ 22.500863, 42.196213 ], [ 22.503568, 42.192215 ], [ 22.501364, 42.185828 ], [ 22.506004, 42.169775 ], [ 22.516224, 42.157923 ], [ 22.510412, 42.155158 ], [ 22.522636, 42.147452 ], [ 22.5288, 42.139934 ], [ 22.548193, 42.133994 ], [ 22.566417, 42.117987 ], [ 22.570913, 42.115355 ], [ 22.580569, 42.110108 ], [ 22.590701, 42.108537 ], [ 22.599098, 42.100007 ], [ 22.612066, 42.09466 ], [ 22.628809, 42.093968 ], [ 22.641714, 42.085797 ], [ 22.651678, 42.076773 ], [ 22.661196, 42.073034 ], [ 22.67777, 42.064367 ], [ 22.68684, 42.06441 ], [ 22.695353, 42.063226 ], [ 22.708101, 42.066661 ], [ 22.717397, 42.068477 ], [ 22.719649, 42.062696 ], [ 22.728338, 42.057084 ], [ 22.734099, 42.048135 ], [ 22.740444, 42.044881 ], [ 22.749544, 42.046609 ], [ 22.75734, 42.04334 ], [ 22.778132, 42.037454 ], [ 22.788627, 42.03749 ], [ 22.800174, 42.044693 ], [ 22.806158, 42.038241 ], [ 22.815052, 42.028914 ], [ 22.826209, 42.022285 ], [ 22.832444, 42.021318 ], [ 22.853575, 42.025139 ], [ 22.857783, 42.024232 ], [ 22.867214, 42.022199 ], [ 22.868792, 42.015439 ], [ 22.86973, 42.011419 ], [ 22.864069, 42.001658 ], [ 22.875094, 41.996464 ], [ 22.874738, 41.977901 ], [ 22.878127, 41.976171 ], [ 22.874213, 41.954552 ], [ 22.877664, 41.941791 ], [ 22.873449, 41.936101 ], [ 22.883232, 41.92255 ], [ 22.891648, 41.918701 ], [ 22.896415, 41.906676 ], [ 22.898778, 41.9037 ], [ 22.897426, 41.89524 ], [ 22.901424, 41.892471 ], [ 22.899714, 41.887081 ], [ 22.901934, 41.877642 ], [ 22.905274, 41.875625 ], [ 22.915374, 41.876462 ], [ 22.925895, 41.863494 ], [ 22.931948, 41.850025 ], [ 22.937189, 41.847157 ], [ 22.936396, 41.841961 ], [ 22.941506, 41.83205 ], [ 22.940981, 41.817716 ], [ 22.953785, 41.798347 ], [ 22.957655, 41.792212 ], [ 22.963469, 41.78938 ], [ 22.965437, 41.781571 ], [ 22.963597, 41.775491 ], [ 22.968674, 41.770988 ], [ 22.983016, 41.769469 ], [ 22.989244, 41.770787 ], [ 22.994835, 41.767032 ], [ 23.00028, 41.769258 ], [ 23.007593, 41.768578 ], [ 23.012701, 41.759598 ], [ 23.015658, 41.756486 ], [ 23.015877, 41.75052 ], [ 23.021435, 41.747158 ], [ 23.030963, 41.729531 ], [ 23.033991, 41.710759 ], [ 23.034123, 41.709444 ], [ 23.022019, 41.701801 ], [ 23.013415, 41.691822 ], [ 23.001273, 41.678 ], [ 22.995743, 41.674758 ], [ 22.987457, 41.659905 ], [ 22.982636, 41.65682 ], [ 22.984383, 41.650527 ], [ 22.981703, 41.646423 ], [ 22.968044, 41.648092 ], [ 22.959673, 41.646473 ], [ 22.952121, 41.641919 ], [ 22.948412, 41.631796 ], [ 22.952786, 41.62731 ], [ 22.952242, 41.621436 ], [ 22.953393, 41.619605 ], [ 22.95291, 41.616918 ], [ 22.952868, 41.614144 ], [ 22.951666, 41.611574 ], [ 22.950472, 41.606127 ], [ 22.951202, 41.60468 ], [ 22.949314, 41.598664 ], [ 22.949745, 41.594579 ], [ 22.950831, 41.592235 ], [ 22.950266, 41.590883 ], [ 22.951227, 41.589621 ], [ 22.952364, 41.586255 ], [ 22.955776, 41.586116 ], [ 22.960616, 41.584789 ], [ 22.960685, 41.581509 ], [ 22.962738, 41.581213 ], [ 22.96315, 41.57946 ], [ 22.965613, 41.578292 ], [ 22.965049, 41.575309 ], [ 22.965684, 41.569858 ], [ 22.967144, 41.567278 ], [ 22.969747, 41.563728 ], [ 22.972283, 41.563594 ], [ 22.972567, 41.560856 ], [ 22.968373, 41.554689 ], [ 22.96901, 41.553323 ], [ 22.969814, 41.546692 ], [ 22.969722, 41.54333 ], [ 22.963951, 41.543764 ], [ 22.960257, 41.543116 ], [ 22.960115, 41.540371 ], [ 22.958622, 41.538006 ], [ 22.958351, 41.535427 ], [ 22.959489, 41.532963 ], [ 22.960233, 41.530471 ], [ 22.968328, 41.519835 ], [ 22.970544, 41.516371 ], [ 22.96968, 41.505344 ], [ 22.961446, 41.498609 ], [ 22.957468, 41.493774 ], [ 22.960316, 41.492377 ], [ 22.961616, 41.477764 ], [ 22.967118, 41.473919 ], [ 22.964592, 41.464349 ], [ 22.977353, 41.451728 ], [ 22.977654, 41.442039 ], [ 22.969844, 41.43204 ], [ 22.96334, 41.430571 ], [ 22.956895, 41.423719 ], [ 22.952767, 41.417531 ], [ 22.955123, 41.412196 ], [ 22.960437, 41.408552 ], [ 22.966257, 41.392958 ], [ 22.9622, 41.379495 ], [ 22.965081, 41.353026 ], [ 22.950189, 41.351727 ], [ 22.937931, 41.341732 ], [ 22.928263, 41.341241 ], [ 22.927592, 41.338539 ], [ 22.908154, 41.340839 ], [ 22.896892, 41.338118 ], [ 22.879686, 41.340692 ], [ 22.879179, 41.340653 ], [ 22.857783, 41.338342 ], [ 22.830848, 41.335433 ], [ 22.820118, 41.335259 ], [ 22.815665, 41.340892 ], [ 22.811962, 41.342806 ], [ 22.806024, 41.339303 ], [ 22.799353, 41.340899 ], [ 22.792367, 41.33011 ], [ 22.78525, 41.326681 ], [ 22.779614, 41.327059 ], [ 22.768674, 41.325232 ], [ 22.763877, 41.321494 ], [ 22.757237, 41.302991 ], [ 22.758967, 41.298416 ], [ 22.764361, 41.29461 ], [ 22.762854, 41.284648 ], [ 22.756772, 41.275839 ], [ 22.760796, 41.265862 ], [ 22.758307, 41.246044 ], [ 22.755759, 41.226659 ], [ 22.751275, 41.192557 ], [ 22.748711, 41.173065 ], [ 22.746865, 41.162978 ], [ 22.732506, 41.14709 ], [ 22.711354, 41.140336 ], [ 22.704892, 41.144662 ], [ 22.683338, 41.164983 ], [ 22.66647, 41.186339 ], [ 22.648205, 41.180395 ], [ 22.644849, 41.176477 ], [ 22.641479, 41.169587 ], [ 22.642572, 41.162735 ], [ 22.637305, 41.154228 ], [ 22.617668, 41.133919 ], [ 22.609399, 41.128614 ], [ 22.605696, 41.126569 ], [ 22.588548, 41.118945 ], [ 22.584507, 41.117148 ], [ 22.581519, 41.117875 ], [ 22.577121, 41.118945 ], [ 22.573475, 41.119832 ], [ 22.570913, 41.122115 ], [ 22.569469, 41.123403 ], [ 22.561164, 41.130805 ], [ 22.536926, 41.130114 ], [ 22.534787, 41.129816 ], [ 22.506465, 41.125765 ], [ 22.485457, 41.119616 ], [ 22.473127, 41.119565 ], [ 22.469275, 41.119549 ], [ 22.468126, 41.118945 ], [ 22.465247, 41.117429 ], [ 22.460744, 41.118945 ], [ 22.453439, 41.121405 ], [ 22.447295, 41.118945 ], [ 22.442507, 41.118945 ], [ 22.430352, 41.120522 ], [ 22.417944, 41.119064 ], [ 22.402919, 41.129113 ], [ 22.403355, 41.136678 ], [ 22.395813, 41.137508 ], [ 22.387867, 41.13259 ], [ 22.382008, 41.132661 ], [ 22.371834, 41.13762 ], [ 22.363552, 41.132959 ], [ 22.348681, 41.135028 ], [ 22.334143, 41.128039 ], [ 22.332052, 41.120272 ], [ 22.326496, 41.123373 ], [ 22.327232, 41.13653 ], [ 22.321447, 41.143469 ], [ 22.320919, 41.149693 ], [ 22.305505, 41.146383 ], [ 22.286551, 41.155248 ], [ 22.277028, 41.155975 ], [ 22.273044, 41.16261 ], [ 22.257876, 41.166021 ], [ 22.237965, 41.163041 ], [ 22.224626, 41.16524 ], [ 22.216216, 41.170457 ], [ 22.202311, 41.161804 ], [ 22.189521, 41.161244 ], [ 22.170848, 41.155555 ], [ 22.15765, 41.140416 ], [ 22.148679, 41.128035 ], [ 22.129057, 41.123354 ], [ 22.119511, 41.127113 ], [ 22.112403, 41.134299 ], [ 22.08839, 41.138529 ], [ 22.079929, 41.144592 ], [ 22.078386, 41.153007 ], [ 22.06168, 41.161313 ], [ 22.059194, 41.151294 ], [ 22.047016, 41.14778 ], [ 22.040379, 41.140549 ], [ 22.031527, 41.136701 ], [ 22.027497, 41.13281 ], [ 22.016196, 41.132322 ], [ 21.992554, 41.126543 ], [ 21.984109, 41.127699 ], [ 21.979728, 41.127131 ], [ 21.974903, 41.129475 ], [ 21.971063, 41.126713 ], [ 21.963662, 41.118945 ], [ 21.962357, 41.117575 ], [ 21.955068, 41.116306 ], [ 21.951008, 41.110898 ], [ 21.934348, 41.10477 ], [ 21.929438, 41.10035 ], [ 21.92175, 41.094639 ], [ 21.908897, 41.090851 ], [ 21.91015, 41.081946 ], [ 21.904084, 41.069555 ], [ 21.908676, 41.063134 ], [ 21.911778, 41.049416 ], [ 21.906877, 41.044007 ], [ 21.897876, 41.039517 ], [ 21.882855, 41.040151 ], [ 21.883641, 41.028253 ], [ 21.875422, 41.02594 ], [ 21.871692, 41.021495 ], [ 21.860957, 41.018947 ], [ 21.854616, 41.013943 ], [ 21.848651, 41.007009 ], [ 21.844819, 40.996269 ], [ 21.816379, 40.986445 ], [ 21.799817, 40.975426 ], [ 21.800077, 40.959228 ], [ 21.805368, 40.950756 ], [ 21.803126, 40.944642 ], [ 21.790999, 40.938576 ], [ 21.787378, 40.931125 ], [ 21.756445, 40.925658 ], [ 21.745602, 40.930511 ], [ 21.730893, 40.930893 ], [ 21.70584, 40.943427 ], [ 21.693178, 40.941013 ], [ 21.684487, 40.94028 ], [ 21.681696, 40.934357 ], [ 21.668171, 40.922061 ], [ 21.666298, 40.91699 ], [ 21.671513, 40.90669 ], [ 21.670274, 40.899284 ], [ 21.649464, 40.901137 ], [ 21.634329, 40.896412 ], [ 21.629683, 40.888885 ], [ 21.620595, 40.887853 ], [ 21.610038, 40.879227 ], [ 21.603242, 40.879184 ], [ 21.594137, 40.86706 ], [ 21.582847, 40.868321 ], [ 21.567007, 40.866983 ], [ 21.563816, 40.875182 ], [ 21.551086, 40.882373 ], [ 21.531373, 40.907508 ], [ 21.524977, 40.909652 ], [ 21.502939, 40.910607 ], [ 21.489766, 40.911968 ], [ 21.464453, 40.907278 ], [ 21.43967, 40.916904 ], [ 21.430059, 40.917243 ], [ 21.425185, 40.917416 ], [ 21.417246, 40.917696 ], [ 21.388382, 40.897682 ], [ 21.362948, 40.879604 ], [ 21.34396, 40.873984 ], [ 21.300948, 40.865461 ], [ 21.272619, 40.864984 ], [ 21.259474, 40.859504 ], [ 21.251681, 40.862424 ], [ 21.242827, 40.874186 ], [ 21.2077, 40.883662 ], [ 21.19482, 40.877433 ], [ 21.182021, 40.875705 ], [ 21.176817, 40.875002 ], [ 21.169186, 40.866685 ], [ 21.155418, 40.857828 ], [ 21.148991, 40.857263 ], [ 21.119612, 40.854683 ], [ 21.071103, 40.855024 ], [ 20.980205, 40.855665 ], [ 20.977664, 40.889661 ], [ 20.976929, 40.900644 ], [ 20.968065, 40.910468 ], [ 20.961873, 40.911898 ], [ 20.959231, 40.914267 ], [ 20.956845, 40.916407 ], [ 20.93896, 40.924075 ], [ 20.92806, 40.921773 ], [ 20.917986, 40.923606 ], [ 20.911267, 40.920499 ], [ 20.899151, 40.919116 ], [ 20.889168, 40.924353 ], [ 20.859987, 40.933549 ], [ 20.847524, 40.937051 ], [ 20.837823, 40.927683 ], [ 20.829173, 40.914124 ], [ 20.82577, 40.905831 ], [ 20.817619, 40.900675 ], [ 20.801969, 40.898247 ], [ 20.774259, 40.904303 ], [ 20.75879, 40.902635 ], [ 20.732269, 40.911732 ], [ 20.730865, 40.917013 ], [ 20.704749, 40.990194 ], [ 20.670626, 41.087351 ], [ 20.632866, 41.086513 ], [ 20.597745, 41.092033 ], [ 20.59409, 41.095812 ], [ 20.582903, 41.112965 ], [ 20.588965, 41.123705 ], [ 20.59605, 41.126713 ], [ 20.596762, 41.129841 ], [ 20.586266, 41.14711 ], [ 20.582997, 41.150357 ], [ 20.582018, 41.157129 ], [ 20.567216, 41.173222 ], [ 20.559629, 41.182513 ], [ 20.558934, 41.192672 ], [ 20.552851, 41.191508 ], [ 20.543607, 41.196842 ], [ 20.539647, 41.195334 ], [ 20.533868, 41.199129 ], [ 20.531178, 41.211658 ], [ 20.516402, 41.230533 ], [ 20.516512, 41.237873 ], [ 20.521973, 41.246326 ], [ 20.515236, 41.254929 ], [ 20.515434, 41.26013 ], [ 20.510869, 41.274809 ], [ 20.513869, 41.287053 ], [ 20.50888, 41.291161 ], [ 20.509054, 41.30157 ], [ 20.50166, 41.317154 ], [ 20.498455, 41.321935 ], [ 20.498724, 41.32662 ], [ 20.49233, 41.332176 ], [ 20.497795, 41.337683 ], [ 20.498635, 41.346049 ], [ 20.506153, 41.34479 ], [ 20.516568, 41.33753 ], [ 20.526625, 41.344727 ], [ 20.527497, 41.353579 ], [ 20.533868, 41.357287 ], [ 20.550443, 41.375832 ], [ 20.551218, 41.379933 ], [ 20.546773, 41.384261 ], [ 20.553877, 41.399026 ], [ 20.560026, 41.403672 ], [ 20.560363, 41.408458 ], [ 20.556517, 41.417002 ], [ 20.539393, 41.427038 ], [ 20.539408, 41.435197 ], [ 20.533868, 41.435977 ], [ 20.52371, 41.438291 ], [ 20.513995, 41.438092 ], [ 20.508445, 41.443566 ], [ 20.511739, 41.450972 ], [ 20.502678, 41.466277 ], [ 20.502711, 41.475899 ], [ 20.494585, 41.491685 ], [ 20.483434, 41.494259 ], [ 20.479321, 41.497897 ], [ 20.477639, 41.497897 ], [ 20.474583, 41.496381 ], [ 20.471986, 41.496213 ], [ 20.470223, 41.49665 ], [ 20.468962, 41.497897 ], [ 20.469107, 41.499833 ], [ 20.471346, 41.502267 ], [ 20.476505, 41.506122 ], [ 20.47659, 41.507608 ], [ 20.47088, 41.509212 ], [ 20.466838, 41.508042 ], [ 20.463152, 41.508897 ], [ 20.456666, 41.512383 ], [ 20.454538, 41.514193 ], [ 20.453539, 41.51638 ], [ 20.453261, 41.519774 ], [ 20.453762, 41.521886 ], [ 20.454895, 41.523446 ], [ 20.460416, 41.525401 ], [ 20.461011, 41.52878 ], [ 20.465196, 41.529257 ], [ 20.468949, 41.529087 ], [ 20.472263, 41.531745 ], [ 20.472986, 41.533201 ], [ 20.472036, 41.535014 ], [ 20.469616, 41.536944 ], [ 20.469751, 41.540239 ], [ 20.466993, 41.541532 ], [ 20.465429, 41.543626 ], [ 20.46329, 41.545302 ], [ 20.462037, 41.548692 ], [ 20.45821, 41.549927 ], [ 20.456603, 41.552509 ], [ 20.456285, 41.554024 ], [ 20.468584, 41.55853 ], [ 20.48684, 41.558907 ], [ 20.493767, 41.561229 ], [ 20.508186, 41.56413 ], [ 20.519222, 41.563756 ], [ 20.533868, 41.572422 ], [ 20.542578, 41.577496 ], [ 20.557774, 41.58187 ], [ 20.55321, 41.595853 ], [ 20.555247, 41.600639 ], [ 20.547483, 41.608243 ], [ 20.545851, 41.61556 ], [ 20.543517, 41.622676 ], [ 20.533868, 41.631752 ], [ 20.532685, 41.632996 ], [ 20.526014, 41.635462 ], [ 20.525098, 41.637273 ], [ 20.526623, 41.651919 ], [ 20.516612, 41.662429 ], [ 20.529215, 41.686351 ], [ 20.527274, 41.699799 ], [ 20.526461, 41.705634 ], [ 20.514464, 41.721845 ], [ 20.514667, 41.730521 ], [ 20.519116, 41.739268 ], [ 20.519511, 41.74887 ], [ 20.527801, 41.756346 ], [ 20.534674, 41.768331 ], [ 20.533807, 41.777151 ], [ 20.545883, 41.780016 ], [ 20.548319, 41.789442 ], [ 20.564729, 41.786216 ], [ 20.572394, 41.787884 ], [ 20.573576, 41.798248 ], [ 20.566915, 41.802388 ], [ 20.56456, 41.817198 ], [ 20.559834, 41.824268 ], [ 20.562872, 41.846136 ], [ 20.560131, 41.868777 ], [ 20.573113, 41.874767 ], [ 20.594286, 41.877327 ], [ 20.605169, 41.867076 ], [ 20.619641, 41.858095 ], [ 20.633627, 41.862048 ], [ 20.647546, 41.873552 ], [ 20.652299, 41.874719 ], [ 20.663021, 41.875088 ], [ 20.671316, 41.872838 ], [ 20.678316, 41.868145 ], [ 20.683996, 41.858383 ], [ 20.705867, 41.86445 ], [ 20.727973, 41.864277 ], [ 20.735629, 41.876851 ], [ 20.736832, 41.886748 ], [ 20.740462, 41.892262 ], [ 20.750122, 41.895563 ], [ 20.755945, 41.905984 ], [ 20.776524, 41.918485 ], [ 20.771321, 41.923058 ], [ 20.772944, 41.926758 ], [ 20.755545, 41.946546 ], [ 20.765631, 41.95409 ], [ 20.767117, 41.962759 ], [ 20.748895, 41.984495 ], [ 20.751429, 42.013275 ], [ 20.749223, 42.025475 ], [ 20.762696, 42.041413 ], [ 20.759964, 42.053468 ], [ 20.785986, 42.071754 ], [ 20.785063, 42.078744 ], [ 20.794235, 42.083645 ], [ 20.804507, 42.081873 ], [ 20.826123, 42.084449 ], [ 20.834472, 42.086837 ], [ 20.843811, 42.098372 ], [ 20.860894, 42.099336 ], [ 20.883699, 42.096086 ], [ 20.891873, 42.098022 ], [ 20.903581, 42.107734 ], [ 20.914887, 42.11612 ], [ 20.920322, 42.127711 ], [ 20.927939, 42.127326 ], [ 20.944696, 42.13754 ], [ 20.959231, 42.136848 ], [ 20.966866, 42.136484 ], [ 20.983673, 42.139854 ], [ 21.002785, 42.146149 ], [ 21.009647, 42.150234 ], [ 21.026438, 42.152253 ], [ 21.042884, 42.165118 ], [ 21.049344, 42.166252 ], [ 21.067034, 42.185137 ], [ 21.080385, 42.188762 ], [ 21.092079, 42.19517 ], [ 21.099275, 42.203427 ], [ 21.10894, 42.206171 ], [ 21.119105, 42.206836 ], [ 21.121271, 42.203987 ], [ 21.161837, 42.196464 ], [ 21.168784, 42.1895 ], [ 21.180184, 42.167797 ], [ 21.182021, 42.166019 ], [ 21.19592, 42.152568 ], [ 21.200142, 42.151146 ], [ 21.206963, 42.141549 ], [ 21.214218, 42.132647 ], [ 21.216494, 42.125359 ], [ 21.212565, 42.110955 ], [ 21.212698, 42.110701 ], [ 21.223108, 42.095561 ], [ 21.232812, 42.097405 ], [ 21.245674, 42.09278 ], [ 21.256879, 42.092786 ], [ 21.273269, 42.096636 ], [ 21.296209, 42.110765 ], [ 21.304074, 42.105681 ], [ 21.31502, 42.106917 ], [ 21.321235, 42.107989 ], [ 21.31397, 42.120907 ], [ 21.302589, 42.140052 ], [ 21.309866, 42.144922 ], [ 21.320177, 42.160752 ], [ 21.317797, 42.16878 ], [ 21.319395, 42.173 ], [ 21.327191, 42.177573 ], [ 21.334002, 42.18855 ], [ 21.331497, 42.199097 ], [ 21.335018, 42.207483 ], [ 21.338721, 42.204466 ], [ 21.345803, 42.204795 ], [ 21.35935, 42.221227 ], [ 21.369805, 42.223739 ], [ 21.377254, 42.238066 ], [ 21.384285, 42.240665 ], [ 21.384362, 42.245541 ], [ 21.400536, 42.248811 ], [ 21.412769, 42.244595 ], [ 21.418195, 42.244903 ], [ 21.433942, 42.23169 ], [ 21.443017, 42.234898 ], [ 21.442609, 42.241445 ], [ 21.43574, 42.249041 ], [ 21.433499, 42.256714 ], [ 21.439725, 42.263142 ], [ 21.440935, 42.273468 ], [ 21.445044, 42.276981 ], [ 21.471607, 42.279458 ], [ 21.500969, 42.271333 ], [ 21.509606, 42.270871 ], [ 21.510912, 42.266903 ], [ 21.519004, 42.261359 ], [ 21.521278, 42.241469 ], [ 21.533552, 42.241593 ], [ 21.540462, 42.251279 ], [ 21.546059, 42.253481 ], [ 21.550449, 42.252152 ], [ 21.568219, 42.250918 ], [ 21.57665, 42.256004 ], [ 21.586947, 42.262817 ], [ 21.596355, 42.256696 ], [ 21.606889, 42.255018 ], [ 21.613218, 42.256499 ], [ 21.629475, 42.250833 ], [ 21.658724, 42.248166 ], [ 21.665464, 42.243579 ], [ 21.675935, 42.240685 ], [ 21.684566, 42.241414 ], [ 21.697956, 42.232821 ], [ 21.714091, 42.243743 ], [ 21.714667, 42.252476 ], [ 21.728811, 42.262355 ], [ 21.748868, 42.260913 ], [ 21.754138, 42.258397 ], [ 21.76351, 42.259197 ], [ 21.769181, 42.265392 ], [ 21.777148, 42.264997 ], [ 21.778748, 42.266948 ], [ 21.778969, 42.277214 ], [ 21.785277, 42.280318 ], [ 21.789957, 42.286042 ], [ 21.794944, 42.297626 ], [ 21.806281, 42.293267 ], [ 21.815331, 42.293796 ], [ 21.824133, 42.299708 ], [ 21.825064, 42.304178 ], [ 21.831322, 42.308778 ], [ 21.835084, 42.311948 ], [ 21.835224, 42.321872 ], [ 21.84996, 42.325527 ], [ 21.865339, 42.316966 ], [ 21.869828, 42.309443 ], [ 21.882463, 42.313058 ], [ 21.887131, 42.307217 ], [ 21.893231, 42.300975 ], [ 21.89971, 42.301448 ], [ 21.912154, 42.304239 ], [ 21.928322, 42.310002 ], [ 21.934319, 42.340812 ], [ 21.946912, 42.343644 ], [ 21.973974, 42.32848 ], [ 21.984109, 42.324958 ], [ 21.986434, 42.3249 ], [ 22.018685, 42.305533 ], [ 22.023602, 42.300769 ], [ 22.031355, 42.298718 ], [ 22.042885, 42.306467 ], [ 22.048447, 42.307521 ], [ 22.061203, 42.303083 ], [ 22.065601, 42.298497 ], [ 22.074632, 42.30255 ], [ 22.101402, 42.306163 ], [ 22.118352, 42.314231 ], [ 22.132615, 42.307214 ], [ 22.145982, 42.320692 ], [ 22.158204, 42.317745 ], [ 22.166509, 42.312282 ], [ 22.173934, 42.321107 ], [ 22.180702, 42.324968 ], [ 22.182939, 42.332744 ], [ 22.196946, 42.340094 ], [ 22.201791, 42.34005 ], [ 22.206602, 42.336979 ], [ 22.218584, 42.338123 ], [ 22.223108, 42.335543 ], [ 22.22883, 42.335489 ], [ 22.242837, 42.345931 ], [ 22.237671, 42.350019 ], [ 22.241476, 42.351105 ], [ 22.245972, 42.349329 ], [ 22.251743, 42.352082 ], [ 22.252606, 42.35979 ], [ 22.260184, 42.365784 ], [ 22.264424, 42.36598 ], [ 22.272832, 42.361844 ], [ 22.288053, 42.371878 ], [ 22.293868, 42.373293 ], [ 22.297706, 42.370969 ], [ 22.298456, 42.365248 ], [ 22.291497, 42.351643 ], [ 22.304308, 42.341605 ], [ 22.312604, 42.333808 ], [ 22.322592, 42.333234 ], [ 22.334045, 42.321274 ], [ 22.350702, 42.317411 ], [ 22.358827, 42.31151 ], [ 22.360207, 42.311157 ] ] ] ] } }
]
}
