{
"type": "FeatureCollection",
"name": "Oman",
"crs": { "type": "name", "properties": { "name": "urn:ogc:def:crs:OGC:1.3:CRS84" } },
"features": [
{ "type": "Feature", "properties": { "id": "OM", "CNTR_ID": "OM", "CNTR_NAME": "سلطنة عمان", "NAME_ENGL": "Oman", "ISO3_CODE": "OMN", "FID": "OM" }, "geometry": { "type": "MultiPolygon", "coordinates": [ [ [ [ 53.107026, 16.654387 ], [ 53.078143, 16.716326 ], [ 53.014923, 16.851834 ], [ 52.959299, 16.970976 ], [ 52.901566, 17.094422 ], [ 52.892766, 17.113232 ], [ 52.812891, 17.283869 ], [ 52.748757, 17.294109 ], [ 52.745215, 17.297005 ], [ 52.743861, 17.301847 ], [ 52.750612, 17.304867 ], [ 52.780575, 17.347601 ], [ 52.780767, 17.352659 ], [ 52.587933, 17.760955 ], [ 52.263448, 18.445896 ], [ 52.142753, 18.699976 ], [ 52.06633, 18.860661 ], [ 52.0, 19.0 ], [ 52.06633, 19.022639 ], [ 52.263448, 19.089898 ], [ 52.756385, 19.257976 ], [ 52.959299, 19.326167 ], [ 53.060126, 19.360041 ], [ 53.271734, 19.431109 ], [ 53.303358, 19.441727 ], [ 53.513347, 19.512216 ], [ 53.843556, 19.621455 ], [ 54.068082, 19.69569 ], [ 54.26002, 19.759123 ], [ 54.802441, 19.935739 ], [ 54.913698, 19.971941 ], [ 54.999849, 19.999968 ], [ 55.244536, 20.739399 ], [ 55.289288, 20.874329 ], [ 55.336821, 21.01751 ], [ 55.356045, 21.074773 ], [ 55.357475, 21.079031 ], [ 55.432107, 21.301333 ], [ 55.622982, 21.869879 ], [ 55.666667, 22.0 ], [ 55.208333, 22.708333 ], [ 55.213348, 22.705929 ], [ 55.220714, 22.76483 ], [ 55.228055, 22.791531 ], [ 55.22427, 22.807432 ], [ 55.223688, 22.816965 ], [ 55.226512, 22.825127 ], [ 55.221855, 22.83294 ], [ 55.219214, 22.841485 ], [ 55.218242, 22.850821 ], [ 55.223265, 22.859437 ], [ 55.224374, 22.866616 ], [ 55.225472, 22.884637 ], [ 55.216073, 22.906891 ], [ 55.215787, 22.910462 ], [ 55.214042, 22.934651 ], [ 55.218316, 22.95294 ], [ 55.219654, 22.976607 ], [ 55.21693, 23.025022 ], [ 55.219465, 23.034008 ], [ 55.229515, 23.049417 ], [ 55.226464, 23.07218 ], [ 55.230972, 23.085786 ], [ 55.234309, 23.113547 ], [ 55.298595, 23.206218 ], [ 55.399466, 23.388021 ], [ 55.403764, 23.390196 ], [ 55.416774, 23.384025 ], [ 55.429712, 23.398565 ], [ 55.437194, 23.413506 ], [ 55.450515, 23.461318 ], [ 55.496573, 23.530753 ], [ 55.52372, 23.556192 ], [ 55.53792, 23.583392 ], [ 55.564246, 23.613947 ], [ 55.571842, 23.629373 ], [ 55.571923, 23.702254 ], [ 55.569691, 23.716886 ], [ 55.561176, 23.732471 ], [ 55.533111, 23.759037 ], [ 55.535451, 23.773358 ], [ 55.532078, 23.80662 ], [ 55.534803, 23.840477 ], [ 55.533162, 23.851283 ], [ 55.520747, 23.883239 ], [ 55.501353, 23.90533 ], [ 55.497903, 23.92352 ], [ 55.486565, 23.938791 ], [ 55.486653, 23.944796 ], [ 55.497329, 23.954139 ], [ 55.572015, 23.986432 ], [ 55.588624, 23.998001 ], [ 55.630771, 24.0188 ], [ 55.731321, 24.056959 ], [ 55.743136, 24.056731 ], [ 55.758966, 24.052005 ], [ 55.779946, 24.053728 ], [ 55.801896, 24.026224 ], [ 55.832222, 24.015282 ], [ 55.85282, 24.022294 ], [ 55.905491, 24.04707 ], [ 55.960474, 24.060383 ], [ 56.017035, 24.068902 ], [ 56.013749, 24.091355 ], [ 56.001857, 24.114613 ], [ 55.992993, 24.128218 ], [ 55.974955, 24.147177 ], [ 55.96329, 24.167436 ], [ 55.971079, 24.188089 ], [ 55.96348, 24.214379 ], [ 55.953336, 24.21551 ], [ 55.952881, 24.222248 ], [ 55.872269, 24.215453 ], [ 55.852614, 24.210689 ], [ 55.83305, 24.202062 ], [ 55.808721, 24.212026 ], [ 55.777969, 24.233801 ], [ 55.764295, 24.232684 ], [ 55.753353, 24.2366 ], [ 55.759431, 24.259959 ], [ 55.769442, 24.263371 ], [ 55.790465, 24.278677 ], [ 55.808167, 24.310063 ], [ 55.834324, 24.32956 ], [ 55.834144, 24.407387 ], [ 55.827484, 24.413139 ], [ 55.819317, 24.442039 ], [ 55.785338, 24.487538 ], [ 55.772439, 24.518244 ], [ 55.765747, 24.534171 ], [ 55.769623, 24.572994 ], [ 55.814642, 24.614575 ], [ 55.79678, 24.63808 ], [ 55.835719, 24.6741 ], [ 55.828232, 24.723512 ], [ 55.831949, 24.775543 ], [ 55.830878, 24.777495 ], [ 55.815292, 24.805896 ], [ 55.815149, 24.813247 ], [ 55.813353, 24.90584 ], [ 55.851775, 24.963577 ], [ 55.910767, 24.966663 ], [ 55.963629, 25.004139 ], [ 56.005055, 24.994163 ], [ 56.028213, 24.975449 ], [ 56.04261, 24.968201 ], [ 56.043741, 24.949097 ], [ 56.0605, 24.944734 ], [ 56.041533, 24.907135 ], [ 56.042458, 24.890404 ], [ 56.047516, 24.877991 ], [ 55.997735, 24.889056 ], [ 55.981334, 24.876122 ], [ 56.036701, 24.820978 ], [ 56.049333, 24.813247 ], [ 56.050826, 24.812334 ], [ 56.066556, 24.777495 ], [ 56.080091, 24.747507 ], [ 56.084646, 24.744343 ], [ 56.110951, 24.739006 ], [ 56.185859, 24.777495 ], [ 56.199611, 24.78456 ], [ 56.203185, 24.813247 ], [ 56.207712, 24.84958 ], [ 56.258035, 24.860187 ], [ 56.277714, 24.873308 ], [ 56.282749, 24.883432 ], [ 56.305609, 24.885015 ], [ 56.327053, 24.896682 ], [ 56.341485, 24.914627 ], [ 56.348625, 24.932786 ], [ 56.325944, 24.97128 ], [ 56.343463, 24.972393 ], [ 56.374242, 24.980353 ], [ 56.382905, 24.935099 ], [ 56.420187, 24.842772 ], [ 56.437282, 24.813247 ], [ 56.447753, 24.795158 ], [ 56.45449, 24.777495 ], [ 56.484392, 24.699061 ], [ 56.532642, 24.606012 ], [ 56.581369, 24.536769 ], [ 56.594401, 24.518244 ], [ 56.601721, 24.507836 ], [ 56.617563, 24.488018 ], [ 56.670007, 24.4394 ], [ 56.716101, 24.40558 ], [ 56.772556, 24.332294 ], [ 56.855757, 24.224209 ], [ 56.874017, 24.204713 ], [ 56.893319, 24.170821 ], [ 56.91819, 24.144233 ], [ 56.939101, 24.116929 ], [ 56.974305, 24.087285 ], [ 57.093392, 24.00086 ], [ 57.14962, 23.951679 ], [ 57.195276, 23.926602 ], [ 57.219845, 23.917353 ], [ 57.252859, 23.904924 ], [ 57.295376, 23.89008 ], [ 57.481664, 23.836664 ], [ 57.585307, 23.795062 ], [ 57.600465, 23.790336 ], [ 57.626372, 23.782259 ], [ 57.634947, 23.782006 ], [ 57.669409, 23.77102 ], [ 57.717475, 23.765151 ], [ 57.761748, 23.765103 ], [ 57.788809, 23.773883 ], [ 57.794255, 23.764518 ], [ 57.787462, 23.752934 ], [ 57.788666, 23.750393 ], [ 57.795161, 23.74716 ], [ 57.796863, 23.752895 ], [ 57.800018, 23.75437 ], [ 57.821525, 23.735739 ], [ 57.846117, 23.721105 ], [ 57.885559, 23.706708 ], [ 57.951916, 23.704572 ], [ 58.0306, 23.711466 ], [ 58.079701, 23.711626 ], [ 58.127734, 23.702563 ], [ 58.187045, 23.679028 ], [ 58.209904, 23.66497 ], [ 58.245781, 23.635921 ], [ 58.299786, 23.607702 ], [ 58.339633, 23.603753 ], [ 58.39683, 23.603562 ], [ 58.442318, 23.610352 ], [ 58.473829, 23.623455 ], [ 58.488217, 23.640757 ], [ 58.495093, 23.643256 ], [ 58.505538, 23.641941 ], [ 58.523675, 23.628583 ], [ 58.55012, 23.628322 ], [ 58.563663, 23.63115 ], [ 58.56693, 23.618808 ], [ 58.587942, 23.617618 ], [ 58.596878, 23.613368 ], [ 58.603967, 23.604344 ], [ 58.601115, 23.595929 ], [ 58.606921, 23.587397 ], [ 58.608047, 23.578397 ], [ 58.619125, 23.565691 ], [ 58.641333, 23.5596 ], [ 58.650719, 23.547633 ], [ 58.66041, 23.551142 ], [ 58.672923, 23.534753 ], [ 58.688381, 23.530614 ], [ 58.700017, 23.530926 ], [ 58.706156, 23.523189 ], [ 58.712189, 23.529046 ], [ 58.721202, 23.528401 ], [ 58.725057, 23.523391 ], [ 58.724984, 23.512708 ], [ 58.729493, 23.508429 ], [ 58.733072, 23.515223 ], [ 58.740626, 23.514536 ], [ 58.747234, 23.518563 ], [ 58.754745, 23.515235 ], [ 58.760233, 23.507639 ], [ 58.75917, 23.501089 ], [ 58.778418, 23.477785 ], [ 58.785504, 23.422233 ], [ 58.802064, 23.396226 ], [ 58.813197, 23.385654 ], [ 58.844711, 23.367034 ], [ 58.849854, 23.361607 ], [ 58.858751, 23.352746 ], [ 58.879214, 23.340348 ], [ 58.891686, 23.327815 ], [ 58.911638, 23.317202 ], [ 58.917197, 23.299965 ], [ 58.918178, 23.276386 ], [ 58.924983, 23.256557 ], [ 58.935834, 23.244164 ], [ 58.944166, 23.238865 ], [ 58.964366, 23.226015 ], [ 58.987856, 23.206526 ], [ 58.993508, 23.193349 ], [ 58.991383, 23.168187 ], [ 58.995252, 23.153271 ], [ 59.021816, 23.107675 ], [ 59.052045, 23.083688 ], [ 59.066231, 23.046467 ], [ 59.091686, 23.020863 ], [ 59.124456, 22.995083 ], [ 59.157514, 22.976566 ], [ 59.179472, 22.969501 ], [ 59.194106, 22.956641 ], [ 59.221315, 22.900912 ], [ 59.223615, 22.880843 ], [ 59.233309, 22.867846 ], [ 59.238435, 22.849209 ], [ 59.263193, 22.815408 ], [ 59.270677, 22.794489 ], [ 59.289988, 22.759243 ], [ 59.307515, 22.74904 ], [ 59.319131, 22.748965 ], [ 59.335833, 22.743452 ], [ 59.348553, 22.715222 ], [ 59.355061, 22.7081 ], [ 59.374993, 22.696148 ], [ 59.386767, 22.673079 ], [ 59.425579, 22.64822 ], [ 59.466573, 22.607353 ], [ 59.517154, 22.576356 ], [ 59.523867, 22.572241 ], [ 59.528157, 22.561549 ], [ 59.523458, 22.559145 ], [ 59.519094, 22.565553 ], [ 59.517154, 22.565229 ], [ 59.509072, 22.552269 ], [ 59.511015, 22.547621 ], [ 59.517154, 22.545951 ], [ 59.533068, 22.551802 ], [ 59.540502, 22.56396 ], [ 59.545934, 22.566595 ], [ 59.573497, 22.561865 ], [ 59.643902, 22.556307 ], [ 59.665368, 22.551314 ], [ 59.724084, 22.531043 ], [ 59.726119, 22.526316 ], [ 59.724418, 22.517683 ], [ 59.715299, 22.505597 ], [ 59.714573, 22.50059 ], [ 59.744533, 22.481584 ], [ 59.754243, 22.483596 ], [ 59.760156, 22.489725 ], [ 59.748188, 22.495622 ], [ 59.741561, 22.502619 ], [ 59.732309, 22.518618 ], [ 59.735581, 22.527427 ], [ 59.749598, 22.527718 ], [ 59.761881, 22.516842 ], [ 59.771547, 22.515062 ], [ 59.776953, 22.516811 ], [ 59.778288, 22.52044 ], [ 59.764054, 22.523298 ], [ 59.763365, 22.527457 ], [ 59.780771, 22.532241 ], [ 59.79068, 22.531401 ], [ 59.802183, 22.499778 ], [ 59.81348, 22.485568 ], [ 59.823462, 22.466692 ], [ 59.835021, 22.428446 ], [ 59.818228, 22.39081 ], [ 59.818669, 22.37316 ], [ 59.822889, 22.360667 ], [ 59.816787, 22.338359 ], [ 59.824461, 22.29768 ], [ 59.80683, 22.228157 ], [ 59.774146, 22.196775 ], [ 59.765039, 22.174069 ], [ 59.740586, 22.151336 ], [ 59.708718, 22.102607 ], [ 59.692738, 22.088481 ], [ 59.676286, 22.066012 ], [ 59.671611, 22.022052 ], [ 59.646378, 21.9669 ], [ 59.648322, 21.950846 ], [ 59.64878, 21.947063 ], [ 59.643685, 21.934162 ], [ 59.594269, 21.88984 ], [ 59.572044, 21.85695 ], [ 59.569891, 21.833068 ], [ 59.528302, 21.793145 ], [ 59.517154, 21.780886 ], [ 59.499165, 21.760957 ], [ 59.489585, 21.745591 ], [ 59.481933, 21.724552 ], [ 59.482131, 21.699695 ], [ 59.459225, 21.658787 ], [ 59.453502, 21.631612 ], [ 59.42409, 21.590327 ], [ 59.405825, 21.554646 ], [ 59.384592, 21.527022 ], [ 59.374457, 21.503262 ], [ 59.347219, 21.467337 ], [ 59.343072, 21.455257 ], [ 59.347969, 21.441291 ], [ 59.344273, 21.432191 ], [ 59.3314, 21.42143 ], [ 59.301379, 21.406339 ], [ 59.194666, 21.365085 ], [ 59.046076, 21.260494 ], [ 59.005999, 21.223676 ], [ 58.965691, 21.173026 ], [ 58.944166, 21.155372 ], [ 58.914848, 21.131123 ], [ 58.848749, 21.057518 ], [ 58.801618, 20.98752 ], [ 58.799188, 20.96933 ], [ 58.80364, 20.951539 ], [ 58.797992, 20.937562 ], [ 58.760369, 20.894818 ], [ 58.738037, 20.852203 ], [ 58.690044, 20.818141 ], [ 58.682039, 20.802122 ], [ 58.669949, 20.78833 ], [ 58.668729, 20.779809 ], [ 58.674746, 20.770432 ], [ 58.663403, 20.728317 ], [ 58.675729, 20.709091 ], [ 58.616137, 20.664742 ], [ 58.586377, 20.628982 ], [ 58.580144, 20.598286 ], [ 58.56892, 20.568922 ], [ 58.538558, 20.512978 ], [ 58.534912, 20.495962 ], [ 58.534906, 20.475812 ], [ 58.52571, 20.432358 ], [ 58.518067, 20.418437 ], [ 58.50336, 20.402952 ], [ 58.47567, 20.387513 ], [ 58.445183, 20.354461 ], [ 58.429522, 20.349533 ], [ 58.404609, 20.351855 ], [ 58.387968, 20.361655 ], [ 58.346241, 20.377057 ], [ 58.318162, 20.377404 ], [ 58.28272, 20.367707 ], [ 58.27989, 20.369632 ], [ 58.282979, 20.37492 ], [ 58.262772, 20.378671 ], [ 58.258694, 20.378526 ], [ 58.254857, 20.372524 ], [ 58.239305, 20.384096 ], [ 58.206861, 20.395317 ], [ 58.195952, 20.409704 ], [ 58.197349, 20.427942 ], [ 58.213811, 20.453283 ], [ 58.225449, 20.462414 ], [ 58.245373, 20.523498 ], [ 58.248341, 20.526485 ], [ 58.251485, 20.521275 ], [ 58.256276, 20.523545 ], [ 58.271662, 20.551398 ], [ 58.274594, 20.565518 ], [ 58.261803, 20.587457 ], [ 58.24271, 20.598809 ], [ 58.216527, 20.606628 ], [ 58.187966, 20.609477 ], [ 58.17706, 20.606841 ], [ 58.150576, 20.589955 ], [ 58.094068, 20.565463 ], [ 58.080425, 20.556525 ], [ 58.073064, 20.540162 ], [ 58.073017, 20.523983 ], [ 58.065433, 20.498637 ], [ 58.059746, 20.45945 ], [ 58.041355, 20.446285 ], [ 57.98433, 20.426185 ], [ 57.950994, 20.398364 ], [ 57.94081, 20.37226 ], [ 57.942691, 20.363528 ], [ 57.950205, 20.350821 ], [ 57.967335, 20.339976 ], [ 57.957664, 20.315747 ], [ 57.946515, 20.305684 ], [ 57.902572, 20.283963 ], [ 57.864321, 20.256935 ], [ 57.852567, 20.244998 ], [ 57.844283, 20.223475 ], [ 57.824999, 20.20017 ], [ 57.81756, 20.166698 ], [ 57.817594, 20.152127 ], [ 57.829496, 20.129719 ], [ 57.831402, 20.115866 ], [ 57.80867, 19.985053 ], [ 57.794687, 19.95896 ], [ 57.784849, 19.928256 ], [ 57.771816, 19.902944 ], [ 57.767469, 19.876269 ], [ 57.767111, 19.874075 ], [ 57.753902, 19.841457 ], [ 57.741595, 19.821505 ], [ 57.736078, 19.804975 ], [ 57.688279, 19.74721 ], [ 57.682142, 19.735025 ], [ 57.677514, 19.711239 ], [ 57.678914, 19.68648 ], [ 57.682129, 19.677549 ], [ 57.720636, 19.653254 ], [ 57.713856, 19.622119 ], [ 57.712893, 19.599624 ], [ 57.699903, 19.554446 ], [ 57.698137, 19.527477 ], [ 57.703496, 19.511994 ], [ 57.717319, 19.493595 ], [ 57.728056, 19.469114 ], [ 57.745639, 19.443576 ], [ 57.756581, 19.413701 ], [ 57.75975, 19.396464 ], [ 57.757945, 19.362114 ], [ 57.745946, 19.328392 ], [ 57.741187, 19.306257 ], [ 57.740468, 19.263319 ], [ 57.744432, 19.237029 ], [ 57.766032, 19.177185 ], [ 57.775522, 19.169679 ], [ 57.792249, 19.1665 ], [ 57.799155, 19.159028 ], [ 57.795042, 19.097758 ], [ 57.797314, 19.076418 ], [ 57.810441, 19.05999 ], [ 57.814584, 19.03492 ], [ 57.819327, 19.023457 ], [ 57.82046, 19.020718 ], [ 57.830141, 19.010129 ], [ 57.840623, 19.006257 ], [ 57.83804, 19.000014 ], [ 57.803022, 18.973107 ], [ 57.743326, 18.964953 ], [ 57.708771, 18.94479 ], [ 57.6878, 18.940327 ], [ 57.600465, 18.940401 ], [ 57.474034, 18.940507 ], [ 57.396948, 18.935739 ], [ 57.301301, 18.924225 ], [ 57.265512, 18.917326 ], [ 57.06024, 18.864967 ], [ 57.033825, 18.860244 ], [ 56.935976, 18.818819 ], [ 56.872272, 18.795615 ], [ 56.844003, 18.780773 ], [ 56.802479, 18.750982 ], [ 56.776772, 18.728071 ], [ 56.646119, 18.582511 ], [ 56.628599, 18.533353 ], [ 56.631828, 18.448314 ], [ 56.613294, 18.401592 ], [ 56.607418, 18.361642 ], [ 56.607467, 18.335537 ], [ 56.599222, 18.298863 ], [ 56.560066, 18.228519 ], [ 56.54616, 18.182031 ], [ 56.544769, 18.165643 ], [ 56.550073, 18.137096 ], [ 56.548778, 18.127709 ], [ 56.525285, 18.112681 ], [ 56.50562, 18.092093 ], [ 56.487055, 18.084506 ], [ 56.437074, 18.049267 ], [ 56.430628, 18.039121 ], [ 56.428625, 18.022858 ], [ 56.423289, 18.012814 ], [ 56.387818, 17.983087 ], [ 56.369276, 17.972723 ], [ 56.35733, 17.96165 ], [ 56.353094, 17.948169 ], [ 56.354293, 17.931832 ], [ 56.349376, 17.922159 ], [ 56.32121, 17.919035 ], [ 56.270761, 17.933309 ], [ 56.188438, 17.939948 ], [ 56.165799, 17.938128 ], [ 56.14347, 17.927469 ], [ 56.104048, 17.921891 ], [ 56.033272, 17.92948 ], [ 55.98003, 17.928254 ], [ 55.952403, 17.919009 ], [ 55.917483, 17.898377 ], [ 55.890302, 17.894596 ], [ 55.798509, 17.902595 ], [ 55.73087, 17.901254 ], [ 55.629977, 17.88831 ], [ 55.530341, 17.865826 ], [ 55.428529, 17.819004 ], [ 55.420271, 17.802946 ], [ 55.416424, 17.784518 ], [ 55.416862, 17.765736 ], [ 55.392601, 17.745767 ], [ 55.384525, 17.731874 ], [ 55.382555, 17.717274 ], [ 55.38593, 17.703081 ], [ 55.37737, 17.682566 ], [ 55.322118, 17.652164 ], [ 55.300689, 17.628457 ], [ 55.265938, 17.605216 ], [ 55.258177, 17.586053 ], [ 55.235347, 17.553249 ], [ 55.228094, 17.53393 ], [ 55.225869, 17.511271 ], [ 55.231305, 17.493827 ], [ 55.231648, 17.477339 ], [ 55.235181, 17.465907 ], [ 55.241833, 17.45647 ], [ 55.250953, 17.45017 ], [ 55.274577, 17.44728 ], [ 55.302676, 17.395774 ], [ 55.293992, 17.359743 ], [ 55.282973, 17.347258 ], [ 55.279632, 17.330016 ], [ 55.268083, 17.315615 ], [ 55.262308, 17.297708 ], [ 55.249169, 17.287406 ], [ 55.243564, 17.272455 ], [ 55.244272, 17.265416 ], [ 55.261017, 17.243209 ], [ 55.261198, 17.235703 ], [ 55.248239, 17.217269 ], [ 55.229774, 17.200976 ], [ 55.213231, 17.191216 ], [ 55.197123, 17.164491 ], [ 55.192446, 17.141427 ], [ 55.168285, 17.13655 ], [ 55.146807, 17.128159 ], [ 55.101004, 17.066001 ], [ 55.088626, 17.057561 ], [ 55.083649, 17.047508 ], [ 55.033535, 17.016293 ], [ 55.025588, 17.008216 ], [ 55.013798, 17.01785 ], [ 54.995842, 17.020731 ], [ 54.991474, 17.017339 ], [ 54.980001, 16.995796 ], [ 54.960619, 16.987112 ], [ 54.947168, 16.988559 ], [ 54.939631, 16.977818 ], [ 54.929961, 16.977097 ], [ 54.915669, 16.987574 ], [ 54.913698, 16.980421 ], [ 54.912461, 16.975931 ], [ 54.903149, 16.965203 ], [ 54.879933, 16.96557 ], [ 54.872234, 16.960608 ], [ 54.859646, 16.962779 ], [ 54.830585, 16.95914 ], [ 54.820411, 16.954757 ], [ 54.814748, 16.945975 ], [ 54.802441, 16.941663 ], [ 54.782261, 16.953243 ], [ 54.768836, 16.950519 ], [ 54.753867, 16.957696 ], [ 54.739988, 16.953669 ], [ 54.720646, 16.964626 ], [ 54.700983, 16.968655 ], [ 54.689472, 16.978893 ], [ 54.690753, 16.9981 ], [ 54.687929, 17.005461 ], [ 54.674186, 17.016039 ], [ 54.630677, 17.026052 ], [ 54.562044, 17.031467 ], [ 54.509381, 17.033099 ], [ 54.459176, 17.03013 ], [ 54.442897, 17.026705 ], [ 54.402608, 17.032022 ], [ 54.327194, 17.029871 ], [ 54.27833, 17.025226 ], [ 54.102392, 16.996618 ], [ 54.074381, 16.994169 ], [ 54.036489, 16.985729 ], [ 54.01264, 16.973858 ], [ 53.997561, 16.956733 ], [ 53.998811, 16.942137 ], [ 54.007205, 16.935636 ], [ 54.007216, 16.932165 ], [ 53.989794, 16.927848 ], [ 53.971984, 16.913561 ], [ 53.954091, 16.910549 ], [ 53.9438, 16.901495 ], [ 53.90537, 16.896322 ], [ 53.888324, 16.898397 ], [ 53.85607, 16.889858 ], [ 53.817798, 16.888608 ], [ 53.783104, 16.882243 ], [ 53.761556, 16.87539 ], [ 53.731341, 16.844918 ], [ 53.68534, 16.814985 ], [ 53.676271, 16.801591 ], [ 53.671207, 16.783951 ], [ 53.599046, 16.759696 ], [ 53.586999, 16.75247 ], [ 53.510971, 16.762997 ], [ 53.45459, 16.75607 ], [ 53.435345, 16.748453 ], [ 53.387682, 16.739857 ], [ 53.345416, 16.735644 ], [ 53.31785, 16.724646 ], [ 53.292426, 16.721059 ], [ 53.253073, 16.707483 ], [ 53.193437, 16.693168 ], [ 53.149616, 16.670992 ], [ 53.107026, 16.654387 ] ] ], [ [ [ 56.265841, 25.624721 ], [ 56.259843, 25.616171 ], [ 56.265901, 25.607203 ], [ 56.253387, 25.602764 ], [ 56.216639, 25.615128 ], [ 56.181733, 25.620961 ], [ 56.178845, 25.623596 ], [ 56.156281, 25.685611 ], [ 56.167129, 25.727272 ], [ 56.156554, 25.762331 ], [ 56.154625, 25.797232 ], [ 56.142267, 25.812115 ], [ 56.141651, 25.823765 ], [ 56.153056, 25.847908 ], [ 56.16297, 25.859076 ], [ 56.161192, 25.876823 ], [ 56.178167, 25.894563 ], [ 56.179363, 25.915848 ], [ 56.173436, 25.920004 ], [ 56.17237, 25.928827 ], [ 56.165663, 25.942245 ], [ 56.166608, 25.946881 ], [ 56.180602, 25.953556 ], [ 56.190741, 25.971695 ], [ 56.187687, 25.985752 ], [ 56.180713, 25.996115 ], [ 56.181394, 26.017441 ], [ 56.172413, 26.02337 ], [ 56.162164, 26.047891 ], [ 56.162709, 26.055714 ], [ 56.153447, 26.068636 ], [ 56.142768, 26.066789 ], [ 56.135009, 26.057652 ], [ 56.121193, 26.051184 ], [ 56.107218, 26.054932 ], [ 56.085999, 26.050652 ], [ 56.084646, 26.050548 ], [ 56.081093, 26.053804 ], [ 56.081068, 26.058377 ], [ 56.098088, 26.093918 ], [ 56.129139, 26.135409 ], [ 56.15545, 26.159534 ], [ 56.181379, 26.227031 ], [ 56.204381, 26.251367 ], [ 56.211107, 26.247744 ], [ 56.213531, 26.228625 ], [ 56.220902, 26.208066 ], [ 56.232723, 26.208203 ], [ 56.245501, 26.204816 ], [ 56.257899, 26.21346 ], [ 56.273664, 26.214907 ], [ 56.299478, 26.187895 ], [ 56.310119, 26.189835 ], [ 56.333758, 26.185078 ], [ 56.356395, 26.204865 ], [ 56.378971, 26.205511 ], [ 56.394986, 26.201792 ], [ 56.402476, 26.205406 ], [ 56.401881, 26.225462 ], [ 56.383048, 26.234849 ], [ 56.375772, 26.233048 ], [ 56.36802, 26.226284 ], [ 56.3592, 26.230069 ], [ 56.352477, 26.228852 ], [ 56.315454, 26.200546 ], [ 56.304749, 26.201989 ], [ 56.298447, 26.211954 ], [ 56.298806, 26.232794 ], [ 56.309275, 26.251349 ], [ 56.316796, 26.284561 ], [ 56.321832, 26.284482 ], [ 56.328417, 26.279962 ], [ 56.351221, 26.256618 ], [ 56.359452, 26.254295 ], [ 56.364057, 26.257308 ], [ 56.357823, 26.27355 ], [ 56.34155, 26.284204 ], [ 56.325184, 26.304862 ], [ 56.331101, 26.313481 ], [ 56.343018, 26.31623 ], [ 56.354606, 26.323165 ], [ 56.364513, 26.371615 ], [ 56.368966, 26.380581 ], [ 56.371934, 26.379786 ], [ 56.373712, 26.373674 ], [ 56.380538, 26.372182 ], [ 56.386113, 26.367316 ], [ 56.399884, 26.363917 ], [ 56.406877, 26.365353 ], [ 56.407007, 26.351247 ], [ 56.409647, 26.345853 ], [ 56.429482, 26.347815 ], [ 56.439752, 26.331812 ], [ 56.454172, 26.329924 ], [ 56.464185, 26.32454 ], [ 56.487953, 26.326838 ], [ 56.485876, 26.336813 ], [ 56.477434, 26.348728 ], [ 56.488078, 26.349183 ], [ 56.498791, 26.353578 ], [ 56.50442, 26.327144 ], [ 56.511817, 26.317137 ], [ 56.50945, 26.31194 ], [ 56.500405, 26.310142 ], [ 56.484598, 26.314544 ], [ 56.463757, 26.313933 ], [ 56.449111, 26.306879 ], [ 56.430532, 26.303802 ], [ 56.422394, 26.293066 ], [ 56.403704, 26.288265 ], [ 56.397401, 26.28179 ], [ 56.400689, 26.268963 ], [ 56.400134, 26.25484 ], [ 56.415866, 26.243701 ], [ 56.426833, 26.231782 ], [ 56.434884, 26.228442 ], [ 56.441762, 26.228716 ], [ 56.456551, 26.242339 ], [ 56.482096, 26.230225 ], [ 56.477097, 26.215963 ], [ 56.480669, 26.197558 ], [ 56.479168, 26.191132 ], [ 56.469187, 26.190717 ], [ 56.462964, 26.206449 ], [ 56.456268, 26.209629 ], [ 56.443462, 26.201489 ], [ 56.434324, 26.18242 ], [ 56.439054, 26.161632 ], [ 56.443866, 26.159351 ], [ 56.454854, 26.160315 ], [ 56.461441, 26.156917 ], [ 56.476967, 26.141458 ], [ 56.476141, 26.129742 ], [ 56.470056, 26.127638 ], [ 56.453963, 26.132836 ], [ 56.427834, 26.130615 ], [ 56.419556, 26.132959 ], [ 56.408118, 26.150923 ], [ 56.410663, 26.173214 ], [ 56.408404, 26.179007 ], [ 56.394252, 26.171665 ], [ 56.384224, 26.155944 ], [ 56.377549, 26.15264 ], [ 56.376452, 26.173146 ], [ 56.388292, 26.188743 ], [ 56.381442, 26.194441 ], [ 56.366598, 26.191691 ], [ 56.348813, 26.167741 ], [ 56.331714, 26.160429 ], [ 56.326378, 26.155105 ], [ 56.329052, 26.143564 ], [ 56.337443, 26.140982 ], [ 56.33041, 26.114474 ], [ 56.331739, 26.101284 ], [ 56.340088, 26.103848 ], [ 56.352033, 26.120943 ], [ 56.36593, 26.125828 ], [ 56.369982, 26.119719 ], [ 56.364848, 26.098968 ], [ 56.369256, 26.092003 ], [ 56.377621, 26.092276 ], [ 56.390635, 26.102841 ], [ 56.405416, 26.09631 ], [ 56.415097, 26.086046 ], [ 56.439909, 26.087437 ], [ 56.458756, 26.080812 ], [ 56.441574, 26.064749 ], [ 56.428284, 26.042198 ], [ 56.413286, 26.039597 ], [ 56.395, 26.040588 ], [ 56.388156, 26.035771 ], [ 56.385596, 26.029359 ], [ 56.388969, 26.022885 ], [ 56.401781, 26.02281 ], [ 56.419468, 26.017864 ], [ 56.421972, 25.990418 ], [ 56.409157, 25.978118 ], [ 56.403599, 25.968114 ], [ 56.416266, 25.957334 ], [ 56.426787, 25.939071 ], [ 56.443495, 25.936626 ], [ 56.430617, 25.924359 ], [ 56.417029, 25.923276 ], [ 56.401045, 25.927148 ], [ 56.395153, 25.924404 ], [ 56.392945, 25.907688 ], [ 56.399759, 25.895941 ], [ 56.399924, 25.889139 ], [ 56.385233, 25.860955 ], [ 56.368348, 25.852416 ], [ 56.371374, 25.8422 ], [ 56.362632, 25.832909 ], [ 56.363462, 25.820793 ], [ 56.360024, 25.804485 ], [ 56.352701, 25.794121 ], [ 56.341968, 25.79011 ], [ 56.336433, 25.773197 ], [ 56.321963, 25.748457 ], [ 56.31109, 25.743207 ], [ 56.312806, 25.755058 ], [ 56.309263, 25.756978 ], [ 56.274748, 25.715201 ], [ 56.274863, 25.683134 ], [ 56.263114, 25.649798 ], [ 56.265841, 25.624721 ] ] ], [ [ [ 58.621599, 20.265451 ], [ 58.62689, 20.276334 ], [ 58.625039, 20.285434 ], [ 58.633591, 20.309368 ], [ 58.629897, 20.31838 ], [ 58.628789, 20.333025 ], [ 58.631, 20.341643 ], [ 58.646508, 20.358948 ], [ 58.649757, 20.367465 ], [ 58.679047, 20.391301 ], [ 58.682901, 20.406168 ], [ 58.696608, 20.417568 ], [ 58.703061, 20.429129 ], [ 58.708301, 20.429788 ], [ 58.721348, 20.421299 ], [ 58.742047, 20.419874 ], [ 58.749874, 20.422244 ], [ 58.769413, 20.438194 ], [ 58.774105, 20.454789 ], [ 58.781024, 20.465675 ], [ 58.777361, 20.487339 ], [ 58.781234, 20.494085 ], [ 58.7855, 20.521464 ], [ 58.802141, 20.54935 ], [ 58.811353, 20.559479 ], [ 58.817048, 20.577559 ], [ 58.840419, 20.602699 ], [ 58.861109, 20.615323 ], [ 58.863206, 20.621023 ], [ 58.861977, 20.633043 ], [ 58.872962, 20.668138 ], [ 58.872502, 20.68748 ], [ 58.884535, 20.695755 ], [ 58.906254, 20.691131 ], [ 58.91231, 20.684083 ], [ 58.913662, 20.672599 ], [ 58.905157, 20.649612 ], [ 58.899722, 20.620366 ], [ 58.903074, 20.596537 ], [ 58.910287, 20.58595 ], [ 58.932196, 20.573059 ], [ 58.930802, 20.559618 ], [ 58.934268, 20.550926 ], [ 58.933246, 20.543706 ], [ 58.944166, 20.522975 ], [ 58.945606, 20.521551 ], [ 58.955773, 20.518574 ], [ 58.958618, 20.515294 ], [ 58.958782, 20.512075 ], [ 58.9478, 20.501503 ], [ 58.944166, 20.494816 ], [ 58.905593, 20.477653 ], [ 58.897868, 20.469766 ], [ 58.870469, 20.458542 ], [ 58.841383, 20.438028 ], [ 58.838904, 20.429709 ], [ 58.82219, 20.41664 ], [ 58.815773, 20.403438 ], [ 58.817468, 20.393418 ], [ 58.812365, 20.380302 ], [ 58.795403, 20.358298 ], [ 58.796541, 20.341221 ], [ 58.792874, 20.32277 ], [ 58.773188, 20.295123 ], [ 58.779126, 20.274732 ], [ 58.76819, 20.268379 ], [ 58.763423, 20.26112 ], [ 58.756367, 20.259591 ], [ 58.737345, 20.247792 ], [ 58.717888, 20.213063 ], [ 58.702254, 20.202034 ], [ 58.666895, 20.188426 ], [ 58.661263, 20.175399 ], [ 58.653238, 20.165908 ], [ 58.643526, 20.167813 ], [ 58.634226, 20.165919 ], [ 58.626649, 20.184496 ], [ 58.629145, 20.206064 ], [ 58.632361, 20.211151 ], [ 58.624532, 20.227003 ], [ 58.625263, 20.24653 ], [ 58.621599, 20.265451 ] ] ], [ [ [ 56.223381, 25.262005 ], [ 56.226433, 25.26569 ], [ 56.237871, 25.272731 ], [ 56.246785, 25.281796 ], [ 56.249985, 25.283157 ], [ 56.255084, 25.282433 ], [ 56.257832, 25.28662 ], [ 56.258571, 25.29618 ], [ 56.252405, 25.303008 ], [ 56.251418, 25.308659 ], [ 56.244081, 25.317132 ], [ 56.247982, 25.324782 ], [ 56.26558, 25.334347 ], [ 56.267727, 25.337409 ], [ 56.275959, 25.337301 ], [ 56.280614, 25.33477 ], [ 56.291154, 25.325231 ], [ 56.299142, 25.325712 ], [ 56.303266, 25.329787 ], [ 56.30686, 25.329407 ], [ 56.309669, 25.321842 ], [ 56.309381, 25.315163 ], [ 56.314394, 25.307029 ], [ 56.319655, 25.302574 ], [ 56.32283, 25.309844 ], [ 56.348736, 25.306532 ], [ 56.350564, 25.304189 ], [ 56.344823, 25.274416 ], [ 56.337877, 25.272909 ], [ 56.33527, 25.268828 ], [ 56.32141, 25.261224 ], [ 56.304911, 25.257786 ], [ 56.294789, 25.248405 ], [ 56.29007, 25.242669 ], [ 56.28226, 25.236775 ], [ 56.274063, 25.239465 ], [ 56.272004, 25.242549 ], [ 56.260949, 25.243033 ], [ 56.258354, 25.241443 ], [ 56.258272, 25.237866 ], [ 56.250504, 25.236723 ], [ 56.247412, 25.240579 ], [ 56.234432, 25.247756 ], [ 56.228197, 25.247443 ], [ 56.224497, 25.248771 ], [ 56.223381, 25.262005 ] ], [ [ 56.267647, 25.279468 ], [ 56.271114, 25.274426 ], [ 56.270199, 25.263214 ], [ 56.273652, 25.260647 ], [ 56.276966, 25.262746 ], [ 56.284659, 25.262734 ], [ 56.284723, 25.270573 ], [ 56.290109, 25.276985 ], [ 56.287246, 25.277531 ], [ 56.281256, 25.284744 ], [ 56.279532, 25.290341 ], [ 56.277785, 25.290432 ], [ 56.272678, 25.286687 ], [ 56.267647, 25.279468 ] ] ], [ [ [ 55.962117, 17.508374 ], [ 55.96325, 17.512742 ], [ 55.965974, 17.515803 ], [ 55.970302, 17.518076 ], [ 55.977329, 17.521088 ], [ 55.984611, 17.523324 ], [ 55.99002, 17.525842 ], [ 55.993294, 17.52967 ], [ 56.000828, 17.530357 ], [ 56.005117, 17.529532 ], [ 56.009432, 17.53077 ], [ 56.014569, 17.533029 ], [ 56.018619, 17.534528 ], [ 56.023744, 17.535759 ], [ 56.028341, 17.538025 ], [ 56.035907, 17.541286 ], [ 56.043261, 17.548676 ], [ 56.045196, 17.552775 ], [ 56.050327, 17.554521 ], [ 56.052723, 17.552687 ], [ 56.055353, 17.548273 ], [ 56.056518, 17.534856 ], [ 56.058826, 17.526575 ], [ 56.061695, 17.520099 ], [ 56.067578, 17.517964 ], [ 56.076681, 17.515279 ], [ 56.08149, 17.513158 ], [ 56.084646, 17.514249 ], [ 56.091472, 17.513751 ], [ 56.093671, 17.510621 ], [ 56.090321, 17.50445 ], [ 56.084646, 17.501708 ], [ 56.080233, 17.500025 ], [ 56.075109, 17.498283 ], [ 56.068885, 17.495006 ], [ 56.064795, 17.490674 ], [ 56.059144, 17.48997 ], [ 56.056426, 17.487681 ], [ 56.050199, 17.48389 ], [ 56.045363, 17.484204 ], [ 56.043202, 17.483199 ], [ 56.038101, 17.483517 ], [ 56.034054, 17.482017 ], [ 56.030845, 17.483346 ], [ 56.027093, 17.483903 ], [ 56.022765, 17.481893 ], [ 56.017644, 17.480406 ], [ 56.014144, 17.479931 ], [ 56.012549, 17.481238 ], [ 56.009894, 17.483847 ], [ 56.006132, 17.483376 ], [ 56.000212, 17.482931 ], [ 55.994341, 17.48609 ], [ 55.987377, 17.487717 ], [ 55.983625, 17.488277 ], [ 55.979346, 17.489875 ], [ 55.975577, 17.4894 ], [ 55.971317, 17.492285 ], [ 55.967058, 17.495428 ], [ 55.9636, 17.498303 ], [ 55.963662, 17.502942 ], [ 55.963155, 17.505526 ], [ 55.962117, 17.508374 ] ] ], [ [ [ 58.680164, 20.726848 ], [ 58.681502, 20.732102 ], [ 58.695935, 20.755245 ], [ 58.699645, 20.757699 ], [ 58.704216, 20.754849 ], [ 58.709114, 20.755671 ], [ 58.711356, 20.757693 ], [ 58.715518, 20.768867 ], [ 58.713623, 20.771432 ], [ 58.716195, 20.774167 ], [ 58.722991, 20.775607 ], [ 58.725169, 20.761502 ], [ 58.726881, 20.761282 ], [ 58.730651, 20.76925 ], [ 58.728759, 20.78238 ], [ 58.725936, 20.787033 ], [ 58.727287, 20.792749 ], [ 58.731802, 20.797458 ], [ 58.732921, 20.806246 ], [ 58.73711, 20.80373 ], [ 58.736809, 20.792785 ], [ 58.734502, 20.788008 ], [ 58.738055, 20.783342 ], [ 58.739214, 20.748858 ], [ 58.733991, 20.744602 ], [ 58.711928, 20.739991 ], [ 58.705257, 20.736222 ], [ 58.688298, 20.719793 ], [ 58.682418, 20.718759 ], [ 58.680164, 20.726848 ] ] ], [ [ [ 55.829885, 17.493391 ], [ 55.843413, 17.507496 ], [ 55.852323, 17.509188 ], [ 55.867821, 17.500029 ], [ 55.880093, 17.496682 ], [ 55.882519, 17.489718 ], [ 55.877124, 17.480022 ], [ 55.865856, 17.476567 ], [ 55.852323, 17.488193 ], [ 55.840156, 17.486272 ], [ 55.829885, 17.493391 ] ] ], [ [ [ 56.336068, 26.34092 ], [ 56.336922, 26.347825 ], [ 56.34517, 26.365437 ], [ 56.344482, 26.373003 ], [ 56.346444, 26.376254 ], [ 56.352864, 26.37408 ], [ 56.355529, 26.368848 ], [ 56.352632, 26.362133 ], [ 56.353002, 26.346292 ], [ 56.350887, 26.338673 ], [ 56.346653, 26.334689 ], [ 56.341608, 26.332757 ], [ 56.338782, 26.333621 ], [ 56.336068, 26.34092 ] ] ], [ [ [ 56.510801, 26.360902 ], [ 56.511511, 26.363213 ], [ 56.518282, 26.368154 ], [ 56.524769, 26.385953 ], [ 56.529388, 26.384427 ], [ 56.532204, 26.372077 ], [ 56.537708, 26.364821 ], [ 56.535236, 26.361334 ], [ 56.53095, 26.359422 ], [ 56.521301, 26.358102 ], [ 56.512887, 26.358643 ], [ 56.510801, 26.360902 ] ] ], [ [ [ 58.721446, 20.814727 ], [ 58.733459, 20.837928 ], [ 58.741569, 20.840063 ], [ 58.74113, 20.820994 ], [ 58.735885, 20.816044 ], [ 58.723319, 20.81124 ], [ 58.721446, 20.814727 ] ] ], [ [ [ 58.737646, 20.447019 ], [ 58.738922, 20.460117 ], [ 58.749105, 20.479335 ], [ 58.750809, 20.478891 ], [ 58.749502, 20.46382 ], [ 58.753313, 20.459596 ], [ 58.753736, 20.456825 ], [ 58.750962, 20.452965 ], [ 58.740582, 20.447189 ], [ 58.737646, 20.447019 ] ] ], [ [ [ 56.327997, 17.50124 ], [ 56.329156, 17.506898 ], [ 56.33244, 17.510977 ], [ 56.339931, 17.508813 ], [ 56.345841, 17.508731 ], [ 56.349525, 17.503525 ], [ 56.35162, 17.499891 ], [ 56.348876, 17.496315 ], [ 56.346699, 17.494282 ], [ 56.343474, 17.494328 ], [ 56.341346, 17.495906 ], [ 56.338137, 17.49698 ], [ 56.334945, 17.499085 ], [ 56.332266, 17.499635 ], [ 56.327997, 17.50124 ] ] ], [ [ [ 58.252777, 20.544745 ], [ 58.256057, 20.560713 ], [ 58.259773, 20.566643 ], [ 58.263319, 20.566558 ], [ 58.266083, 20.563817 ], [ 58.261276, 20.543874 ], [ 58.256254, 20.541988 ], [ 58.252777, 20.544745 ] ] ], [ [ [ 55.594636, 17.465777 ], [ 55.59534, 17.468806 ], [ 55.597209, 17.47464 ], [ 55.59568, 17.479424 ], [ 55.597534, 17.483959 ], [ 55.6007, 17.484145 ], [ 55.605117, 17.48519 ], [ 55.608961, 17.485154 ], [ 55.610372, 17.479938 ], [ 55.606479, 17.475312 ], [ 55.60307, 17.473177 ], [ 55.603047, 17.471009 ], [ 55.603692, 17.46786 ], [ 55.600055, 17.465941 ], [ 55.596427, 17.464458 ], [ 55.594636, 17.465777 ] ] ], [ [ [ 58.159518, 20.575778 ], [ 58.171318, 20.580633 ], [ 58.171911, 20.573266 ], [ 58.175892, 20.564924 ], [ 58.173381, 20.561286 ], [ 58.168784, 20.563205 ], [ 58.163044, 20.56882 ], [ 58.159518, 20.575778 ] ] ], [ [ [ 56.443291, 26.373465 ], [ 56.445003, 26.376484 ], [ 56.454249, 26.372977 ], [ 56.459861, 26.37262 ], [ 56.460667, 26.370796 ], [ 56.457242, 26.364533 ], [ 56.44518, 26.368678 ], [ 56.443291, 26.373465 ] ] ], [ [ [ 58.696045, 20.707197 ], [ 58.698844, 20.7122 ], [ 58.703802, 20.715546 ], [ 58.705629, 20.709993 ], [ 58.703772, 20.703592 ], [ 58.70149, 20.699732 ], [ 58.696088, 20.698232 ], [ 58.696045, 20.707197 ] ] ], [ [ [ 58.728204, 23.520985 ], [ 58.728381, 23.526692 ], [ 58.731059, 23.527439 ], [ 58.740741, 23.525553 ], [ 58.737984, 23.52236 ], [ 58.731691, 23.519263 ], [ 58.728204, 23.520985 ] ] ], [ [ [ 56.137184, 17.615594 ], [ 56.137747, 17.61765 ], [ 56.139934, 17.620201 ], [ 56.142609, 17.619136 ], [ 56.142583, 17.617074 ], [ 56.141473, 17.61451 ], [ 56.139306, 17.613505 ], [ 56.137184, 17.615594 ] ] ] ] } }
]
}
