{
"type": "FeatureCollection",
"name": "Palau",
"crs": { "type": "name", "properties": { "name": "urn:ogc:def:crs:OGC:1.3:CRS84" } },
"features": [
{ "type": "Feature", "properties": { "id": "PW", "CNTR_ID": "PW", "CNTR_NAME": "Palau-Belau", "NAME_ENGL": "Palau", "ISO3_CODE": "PLW", "FID": "PW" }, "geometry": { "type": "MultiPolygon", "coordinates": [ [ [ [ 134.465095, 7.445667 ], [ 134.471936, 7.453258 ], [ 134.484939, 7.480187 ], [ 134.482239, 7.492466 ], [ 134.496856, 7.495106 ], [ 134.502273, 7.500653 ], [ 134.507227, 7.498664 ], [ 134.504829, 7.48314 ], [ 134.507287, 7.475475 ], [ 134.520889, 7.474619 ], [ 134.512739, 7.464896 ], [ 134.516207, 7.463343 ], [ 134.52502, 7.466127 ], [ 134.528439, 7.474554 ], [ 134.519731, 7.489413 ], [ 134.532096, 7.498785 ], [ 134.537581, 7.507404 ], [ 134.525128, 7.508271 ], [ 134.51915, 7.502471 ], [ 134.502195, 7.507019 ], [ 134.497833, 7.513453 ], [ 134.500684, 7.535801 ], [ 134.513219, 7.538034 ], [ 134.522037, 7.55773 ], [ 134.528946, 7.555795 ], [ 134.532096, 7.557367 ], [ 134.537855, 7.562974 ], [ 134.539417, 7.57588 ], [ 134.535889, 7.592543 ], [ 134.539147, 7.598353 ], [ 134.5557, 7.597943 ], [ 134.56683, 7.61079 ], [ 134.579789, 7.61901 ], [ 134.599218, 7.612859 ], [ 134.607704, 7.614803 ], [ 134.631993, 7.645358 ], [ 134.634787, 7.656544 ], [ 134.631986, 7.666825 ], [ 134.627568, 7.671745 ], [ 134.63105, 7.683441 ], [ 134.622955, 7.691588 ], [ 134.618899, 7.704385 ], [ 134.609127, 7.715833 ], [ 134.612344, 7.725538 ], [ 134.621741, 7.730019 ], [ 134.628575, 7.725616 ], [ 134.631626, 7.716973 ], [ 134.644804, 7.700077 ], [ 134.639209, 7.687824 ], [ 134.645725, 7.64009 ], [ 134.639586, 7.587308 ], [ 134.634216, 7.579535 ], [ 134.636831, 7.550079 ], [ 134.626999, 7.539659 ], [ 134.619571, 7.538723 ], [ 134.619074, 7.534807 ], [ 134.623461, 7.534276 ], [ 134.620667, 7.52925 ], [ 134.617645, 7.529458 ], [ 134.618769, 7.533666 ], [ 134.617114, 7.534325 ], [ 134.614863, 7.530294 ], [ 134.620239, 7.516148 ], [ 134.631955, 7.50636 ], [ 134.63648, 7.496139 ], [ 134.609341, 7.466031 ], [ 134.606534, 7.44533 ], [ 134.597901, 7.440154 ], [ 134.590556, 7.42811 ], [ 134.589305, 7.402393 ], [ 134.580854, 7.398699 ], [ 134.582624, 7.390535 ], [ 134.589121, 7.383398 ], [ 134.593379, 7.361475 ], [ 134.586383, 7.352062 ], [ 134.578956, 7.350431 ], [ 134.576727, 7.354127 ], [ 134.579824, 7.358908 ], [ 134.572829, 7.36849 ], [ 134.566212, 7.368875 ], [ 134.557412, 7.353601 ], [ 134.532096, 7.348056 ], [ 134.50772, 7.36256 ], [ 134.508523, 7.386394 ], [ 134.503538, 7.400781 ], [ 134.504966, 7.412793 ], [ 134.478347, 7.430332 ], [ 134.480139, 7.441394 ], [ 134.469584, 7.44225 ], [ 134.465095, 7.445667 ] ] ], [ [ [ 134.365333, 7.237585 ], [ 134.379217, 7.229329 ], [ 134.386051, 7.240067 ], [ 134.39788, 7.250005 ], [ 134.407634, 7.26883 ], [ 134.426055, 7.276564 ], [ 134.43295, 7.282776 ], [ 134.434828, 7.296758 ], [ 134.432543, 7.302218 ], [ 134.438326, 7.302259 ], [ 134.440045, 7.306022 ], [ 134.430039, 7.317283 ], [ 134.431106, 7.318675 ], [ 134.44743, 7.310826 ], [ 134.450076, 7.299019 ], [ 134.441112, 7.297219 ], [ 134.437311, 7.287783 ], [ 134.44364, 7.270107 ], [ 134.45075, 7.269138 ], [ 134.44982, 7.253879 ], [ 134.445328, 7.253474 ], [ 134.431823, 7.267471 ], [ 134.42482, 7.268257 ], [ 134.422147, 7.263676 ], [ 134.413902, 7.263254 ], [ 134.409968, 7.24737 ], [ 134.401332, 7.238711 ], [ 134.394601, 7.239722 ], [ 134.384877, 7.226099 ], [ 134.370683, 7.221905 ], [ 134.368204, 7.223653 ], [ 134.368204, 7.226877 ], [ 134.365698, 7.230531 ], [ 134.365333, 7.237585 ] ] ], [ [ [ 134.464688, 7.344317 ], [ 134.477559, 7.345402 ], [ 134.485554, 7.350765 ], [ 134.493404, 7.351703 ], [ 134.497492, 7.357961 ], [ 134.506991, 7.352427 ], [ 134.50609, 7.341663 ], [ 134.515667, 7.332636 ], [ 134.514516, 7.320969 ], [ 134.506979, 7.31745 ], [ 134.504236, 7.311759 ], [ 134.501467, 7.31289 ], [ 134.492337, 7.320073 ], [ 134.490037, 7.315487 ], [ 134.495528, 7.311759 ], [ 134.496032, 7.303225 ], [ 134.481546, 7.299722 ], [ 134.481598, 7.307234 ], [ 134.473552, 7.308294 ], [ 134.473253, 7.311759 ], [ 134.469761, 7.327102 ], [ 134.471333, 7.327868 ], [ 134.481699, 7.315448 ], [ 134.485914, 7.318298 ], [ 134.485389, 7.325755 ], [ 134.48702, 7.326419 ], [ 134.497297, 7.322416 ], [ 134.504052, 7.323847 ], [ 134.507258, 7.330859 ], [ 134.50589, 7.335709 ], [ 134.501467, 7.3354 ], [ 134.483881, 7.339093 ], [ 134.476815, 7.330168 ], [ 134.464688, 7.344317 ] ] ], [ [ [ 134.220809, 6.984629 ], [ 134.223111, 6.98931 ], [ 134.223414, 7.010863 ], [ 134.239672, 7.019798 ], [ 134.256207, 7.044177 ], [ 134.268358, 7.048711 ], [ 134.265866, 7.039396 ], [ 134.256505, 7.036862 ], [ 134.256205, 7.025998 ], [ 134.251129, 7.024228 ], [ 134.23938, 7.010863 ], [ 134.240621, 7.00764 ], [ 134.247028, 7.010863 ], [ 134.24845, 7.013842 ], [ 134.253392, 7.014368 ], [ 134.258068, 7.010863 ], [ 134.251245, 7.005172 ], [ 134.255344, 7.000101 ], [ 134.252359, 6.996207 ], [ 134.24398, 6.993313 ], [ 134.239367, 6.999706 ], [ 134.225588, 6.974514 ], [ 134.220809, 6.984629 ] ] ], [ [ [ 134.338593, 7.164598 ], [ 134.34373, 7.166806 ], [ 134.344635, 7.174564 ], [ 134.354621, 7.175968 ], [ 134.355374, 7.174459 ], [ 134.350577, 7.16976 ], [ 134.349068, 7.162411 ], [ 134.350574, 7.160827 ], [ 134.354173, 7.162932 ], [ 134.356198, 7.161801 ], [ 134.355765, 7.158379 ], [ 134.352306, 7.157729 ], [ 134.353556, 7.155977 ], [ 134.368207, 7.158602 ], [ 134.371371, 7.162411 ], [ 134.368207, 7.169273 ], [ 134.365408, 7.170103 ], [ 134.368207, 7.172835 ], [ 134.370588, 7.17278 ], [ 134.368887, 7.17617 ], [ 134.371478, 7.178159 ], [ 134.371991, 7.181538 ], [ 134.375179, 7.178512 ], [ 134.372312, 7.174268 ], [ 134.373984, 7.170042 ], [ 134.372233, 7.168258 ], [ 134.375612, 7.166656 ], [ 134.37722, 7.178641 ], [ 134.379936, 7.177918 ], [ 134.380421, 7.162411 ], [ 134.377582, 7.156 ], [ 134.378723, 7.146202 ], [ 134.383952, 7.142763 ], [ 134.384132, 7.136935 ], [ 134.375791, 7.142 ], [ 134.372961, 7.148334 ], [ 134.368207, 7.148961 ], [ 134.355644, 7.142108 ], [ 134.348389, 7.142301 ], [ 134.340268, 7.151967 ], [ 134.341251, 7.155173 ], [ 134.344194, 7.155311 ], [ 134.342442, 7.162411 ], [ 134.339015, 7.162411 ], [ 134.338593, 7.164598 ] ] ], [ [ [ 134.121791, 6.889699 ], [ 134.127781, 6.896599 ], [ 134.126592, 6.899686 ], [ 134.12964, 6.903219 ], [ 134.12912, 6.909335 ], [ 134.124487, 6.922179 ], [ 134.125649, 6.922738 ], [ 134.136379, 6.922222 ], [ 134.141154, 6.924855 ], [ 134.143444, 6.923893 ], [ 134.143851, 6.920344 ], [ 134.148314, 6.918262 ], [ 134.150771, 6.914013 ], [ 134.152614, 6.914291 ], [ 134.153707, 6.909682 ], [ 134.150033, 6.90572 ], [ 134.148615, 6.90168 ], [ 134.143451, 6.898409 ], [ 134.135199, 6.890687 ], [ 134.131129, 6.888019 ], [ 134.125623, 6.888256 ], [ 134.121791, 6.889699 ] ] ], [ [ [ 134.439392, 7.360206 ], [ 134.440479, 7.361085 ], [ 134.458492, 7.357355 ], [ 134.464722, 7.353434 ], [ 134.463716, 7.351656 ], [ 134.458492, 7.352121 ], [ 134.454178, 7.346713 ], [ 134.448338, 7.346893 ], [ 134.439392, 7.360206 ] ] ], [ [ [ 134.368775, 7.247454 ], [ 134.379039, 7.259893 ], [ 134.386058, 7.255836 ], [ 134.386058, 7.253759 ], [ 134.386058, 7.250712 ], [ 134.390351, 7.251467 ], [ 134.390734, 7.248579 ], [ 134.387154, 7.245769 ], [ 134.386058, 7.247776 ], [ 134.380439, 7.244702 ], [ 134.368775, 7.247454 ] ] ], [ [ [ 134.375107, 7.269474 ], [ 134.376837, 7.272171 ], [ 134.383707, 7.272627 ], [ 134.386058, 7.278225 ], [ 134.390887, 7.275723 ], [ 134.39462, 7.275731 ], [ 134.394825, 7.271565 ], [ 134.391567, 7.272451 ], [ 134.390716, 7.26749 ], [ 134.388389, 7.264802 ], [ 134.386058, 7.26603 ], [ 134.379043, 7.265479 ], [ 134.375107, 7.269474 ] ] ], [ [ [ 134.441075, 7.341333 ], [ 134.443463, 7.343668 ], [ 134.447585, 7.341456 ], [ 134.45209, 7.342033 ], [ 134.458423, 7.336457 ], [ 134.460931, 7.339777 ], [ 134.465347, 7.335706 ], [ 134.464651, 7.334177 ], [ 134.458423, 7.334798 ], [ 134.454626, 7.329703 ], [ 134.450461, 7.328811 ], [ 134.449697, 7.33387 ], [ 134.452505, 7.33782 ], [ 134.444072, 7.337558 ], [ 134.441075, 7.341333 ] ] ], [ [ [ 134.532094, 7.34222 ], [ 134.532094, 7.344257 ], [ 134.534927, 7.344999 ], [ 134.539078, 7.337177 ], [ 134.54532, 7.334726 ], [ 134.548373, 7.331338 ], [ 134.54532, 7.329524 ], [ 134.534779, 7.329232 ], [ 134.532094, 7.34222 ] ] ], [ [ [ 134.334944, 7.260422 ], [ 134.337667, 7.264663 ], [ 134.340739, 7.262636 ], [ 134.339752, 7.260262 ], [ 134.342419, 7.255526 ], [ 134.344661, 7.256008 ], [ 134.351638, 7.252708 ], [ 134.353859, 7.248046 ], [ 134.363157, 7.24592 ], [ 134.361522, 7.24223 ], [ 134.35884, 7.243477 ], [ 134.352843, 7.243465 ], [ 134.352023, 7.247084 ], [ 134.347586, 7.252533 ], [ 134.342316, 7.25211 ], [ 134.338294, 7.256398 ], [ 134.338644, 7.258435 ], [ 134.334944, 7.260422 ] ] ], [ [ [ 132.217932, 5.330979 ], [ 132.221852, 5.334679 ], [ 132.224999, 5.334956 ], [ 132.226715, 5.332597 ], [ 132.226781, 5.317867 ], [ 132.224818, 5.316937 ], [ 132.219934, 5.32336 ], [ 132.217932, 5.330979 ] ] ], [ [ [ 134.712919, 8.090231 ], [ 134.713819, 8.092672 ], [ 134.718827, 8.093019 ], [ 134.720913, 8.086126 ], [ 134.720919, 8.078162 ], [ 134.717702, 8.070452 ], [ 134.714479, 8.071221 ], [ 134.716538, 8.075076 ], [ 134.716532, 8.084068 ], [ 134.712919, 8.090231 ] ] ], [ [ [ 134.25662, 7.174245 ], [ 134.259534, 7.177369 ], [ 134.260415, 7.182951 ], [ 134.264479, 7.182958 ], [ 134.267154, 7.178895 ], [ 134.271347, 7.179926 ], [ 134.271443, 7.17614 ], [ 134.269708, 7.174547 ], [ 134.267303, 7.176074 ], [ 134.265003, 7.173316 ], [ 134.262372, 7.174801 ], [ 134.263195, 7.169935 ], [ 134.259423, 7.16966 ], [ 134.25662, 7.174245 ] ] ], [ [ [ 134.25392, 7.064195 ], [ 134.257119, 7.064594 ], [ 134.26107, 7.059086 ], [ 134.266593, 7.057781 ], [ 134.268221, 7.061075 ], [ 134.271322, 7.059365 ], [ 134.265022, 7.053708 ], [ 134.258714, 7.053435 ], [ 134.254496, 7.060914 ], [ 134.25392, 7.064195 ] ] ], [ [ [ 134.271825, 7.091353 ], [ 134.274716, 7.096214 ], [ 134.277575, 7.096798 ], [ 134.282103, 7.097592 ], [ 134.283976, 7.091676 ], [ 134.277575, 7.08767 ], [ 134.271825, 7.091353 ] ] ], [ [ [ 132.307769, 4.313119 ], [ 132.309805, 4.320298 ], [ 132.313962, 4.322075 ], [ 132.31315, 4.306794 ], [ 132.308336, 4.308432 ], [ 132.307769, 4.313119 ] ] ], [ [ [ 131.12048, 3.007525 ], [ 131.122719, 3.011063 ], [ 131.128128, 3.012926 ], [ 131.12906, 3.009201 ], [ 131.124428, 3.000753 ], [ 131.122782, 3.000891 ], [ 131.12048, 3.007525 ] ] ], [ [ [ 134.265884, 7.016846 ], [ 134.26883, 7.022482 ], [ 134.277626, 7.025262 ], [ 134.277626, 7.02144 ], [ 134.267194, 7.016162 ], [ 134.265884, 7.016846 ] ] ], [ [ [ 134.482824, 7.331275 ], [ 134.483151, 7.332876 ], [ 134.48809, 7.334617 ], [ 134.489955, 7.331389 ], [ 134.494189, 7.330736 ], [ 134.494384, 7.326873 ], [ 134.488003, 7.329219 ], [ 134.486376, 7.327996 ], [ 134.482824, 7.331275 ] ] ], [ [ [ 132.22374, 5.354883 ], [ 132.226871, 5.358323 ], [ 132.230153, 5.358202 ], [ 132.230863, 5.352448 ], [ 132.227727, 5.350377 ], [ 132.224986, 5.351599 ], [ 132.22374, 5.354883 ] ] ], [ [ [ 134.280424, 7.289235 ], [ 134.283684, 7.289783 ], [ 134.287906, 7.284091 ], [ 134.284187, 7.281073 ], [ 134.282473, 7.282183 ], [ 134.280424, 7.289235 ] ] ], [ [ [ 134.244103, 7.105706 ], [ 134.249123, 7.10545 ], [ 134.25255, 7.109942 ], [ 134.254982, 7.110171 ], [ 134.254668, 7.107043 ], [ 134.248864, 7.102415 ], [ 134.246216, 7.101625 ], [ 134.244103, 7.105706 ] ] ], [ [ [ 131.947877, 4.654265 ], [ 131.951827, 4.658095 ], [ 131.95649, 4.657088 ], [ 131.956348, 4.654902 ], [ 131.949827, 4.650799 ], [ 131.947877, 4.654265 ] ] ], [ [ [ 134.708458, 8.052919 ], [ 134.710461, 8.06375 ], [ 134.713591, 8.063493 ], [ 134.711901, 8.055433 ], [ 134.710209, 8.052181 ], [ 134.708458, 8.052919 ] ] ], [ [ [ 134.562776, 7.353423 ], [ 134.565289, 7.352891 ], [ 134.565554, 7.350014 ], [ 134.568174, 7.35054 ], [ 134.570534, 7.348449 ], [ 134.569829, 7.344517 ], [ 134.565033, 7.346743 ], [ 134.562776, 7.353423 ] ] ], [ [ [ 134.22892, 7.133811 ], [ 134.232571, 7.135642 ], [ 134.236374, 7.129345 ], [ 134.234413, 7.12639 ], [ 134.22892, 7.133811 ] ] ], [ [ [ 134.359384, 7.112556 ], [ 134.362096, 7.11587 ], [ 134.368233, 7.114705 ], [ 134.368233, 7.112979 ], [ 134.362508, 7.110855 ], [ 134.359384, 7.112556 ] ] ], [ [ [ 134.316022, 7.142849 ], [ 134.317122, 7.147283 ], [ 134.320879, 7.147288 ], [ 134.31973, 7.14159 ], [ 134.316924, 7.140397 ], [ 134.316022, 7.142849 ] ] ], [ [ [ 134.288879, 7.27712 ], [ 134.292976, 7.279345 ], [ 134.297399, 7.279237 ], [ 134.297648, 7.277453 ], [ 134.290475, 7.275254 ], [ 134.288879, 7.27712 ] ] ], [ [ [ 134.272103, 7.064465 ], [ 134.273041, 7.066103 ], [ 134.278325, 7.067406 ], [ 134.278325, 7.063593 ], [ 134.273247, 7.062876 ], [ 134.272103, 7.064465 ] ] ], [ [ [ 134.260572, 7.089871 ], [ 134.265812, 7.091913 ], [ 134.266875, 7.087254 ], [ 134.262084, 7.087109 ], [ 134.260572, 7.089871 ] ] ], [ [ [ 134.241544, 7.107134 ], [ 134.242069, 7.112055 ], [ 134.244088, 7.113123 ], [ 134.246383, 7.110163 ], [ 134.244311, 7.106925 ], [ 134.241544, 7.107134 ] ] ], [ [ [ 134.354019, 7.168157 ], [ 134.359623, 7.172954 ], [ 134.360096, 7.170045 ], [ 134.357737, 7.16578 ], [ 134.354019, 7.168157 ] ] ], [ [ [ 134.358973, 7.19079 ], [ 134.362885, 7.190052 ], [ 134.362339, 7.183481 ], [ 134.359993, 7.18444 ], [ 134.358973, 7.19079 ] ] ], [ [ [ 134.378521, 7.215144 ], [ 134.380136, 7.21975 ], [ 134.382938, 7.219823 ], [ 134.382168, 7.214694 ], [ 134.378753, 7.212869 ], [ 134.378521, 7.215144 ] ] ], [ [ [ 134.416888, 7.281228 ], [ 134.419846, 7.283005 ], [ 134.421776, 7.277687 ], [ 134.41793, 7.276204 ], [ 134.416888, 7.281228 ] ] ], [ [ [ 134.388166, 7.255587 ], [ 134.391877, 7.258105 ], [ 134.395179, 7.255462 ], [ 134.39477, 7.252345 ], [ 134.388166, 7.255587 ] ] ], [ [ [ 134.367706, 7.266914 ], [ 134.367706, 7.269076 ], [ 134.369092, 7.270562 ], [ 134.371621, 7.269456 ], [ 134.37191, 7.264391 ], [ 134.369482, 7.264492 ], [ 134.367706, 7.266914 ] ] ], [ [ [ 134.331507, 7.271097 ], [ 134.334799, 7.273095 ], [ 134.33617, 7.265455 ], [ 134.333312, 7.266311 ], [ 134.331507, 7.271097 ] ] ], [ [ [ 134.396367, 7.270269 ], [ 134.400568, 7.273055 ], [ 134.402108, 7.267748 ], [ 134.397397, 7.267476 ], [ 134.396367, 7.270269 ] ] ], [ [ [ 134.401013, 7.276951 ], [ 134.407005, 7.278065 ], [ 134.408491, 7.274479 ], [ 134.405447, 7.273228 ], [ 134.401013, 7.276951 ] ] ], [ [ [ 134.302991, 7.276385 ], [ 134.304318, 7.277775 ], [ 134.310639, 7.278311 ], [ 134.311169, 7.276207 ], [ 134.306694, 7.27449 ], [ 134.302991, 7.276385 ] ] ], [ [ [ 134.407733, 7.284777 ], [ 134.410492, 7.287578 ], [ 134.414458, 7.285373 ], [ 134.411246, 7.281694 ], [ 134.407733, 7.284777 ] ] ], [ [ [ 134.439934, 7.289585 ], [ 134.441943, 7.293946 ], [ 134.446262, 7.294248 ], [ 134.445807, 7.291939 ], [ 134.441076, 7.288459 ], [ 134.439934, 7.289585 ] ] ], [ [ [ 134.420832, 7.331961 ], [ 134.423381, 7.336873 ], [ 134.426448, 7.332557 ], [ 134.422799, 7.329685 ], [ 134.420832, 7.331961 ] ] ], [ [ [ 134.426272, 7.340578 ], [ 134.429418, 7.344167 ], [ 134.433273, 7.341083 ], [ 134.430891, 7.338558 ], [ 134.426272, 7.340578 ] ] ], [ [ [ 134.428721, 7.370118 ], [ 134.433832, 7.36878 ], [ 134.431742, 7.363404 ], [ 134.429153, 7.365932 ], [ 134.428721, 7.370118 ] ] ], [ [ [ 134.617166, 7.759229 ], [ 134.621994, 7.757945 ], [ 134.621758, 7.753532 ], [ 134.61868, 7.75335 ], [ 134.617166, 7.759229 ] ] ] ] } }
]
}
