{
"type": "FeatureCollection",
"name": "Palestine",
"crs": { "type": "name", "properties": { "name": "urn:ogc:def:crs:OGC:1.3:CRS84" } },
"features": [
{ "type": "Feature", "properties": { "id": "PS", "CNTR_ID": "PS", "CNTR_NAME": "فلسطين", "NAME_ENGL": "Palestine", "ISO3_CODE": "PSE", "FID": "PS" }, "geometry": { "type": "MultiPolygon", "coordinates": [ [ [ [ 35.555121, 32.388995 ], [ 35.562878, 32.383877 ], [ 35.564199, 32.372993 ], [ 35.561842, 32.365145 ], [ 35.555464, 32.366418 ], [ 35.553315, 32.364754 ], [ 35.556687, 32.348075 ], [ 35.555147, 32.32618 ], [ 35.563144, 32.310559 ], [ 35.556086, 32.299058 ], [ 35.564072, 32.292934 ], [ 35.567347, 32.28448 ], [ 35.564847, 32.276866 ], [ 35.558502, 32.272225 ], [ 35.563908, 32.261787 ], [ 35.563479, 32.251291 ], [ 35.570717, 32.249845 ], [ 35.562674, 32.232434 ], [ 35.564727, 32.229582 ], [ 35.571825, 32.229268 ], [ 35.566758, 32.221324 ], [ 35.57306, 32.212082 ], [ 35.567743, 32.210797 ], [ 35.563495, 32.204575 ], [ 35.569984, 32.196045 ], [ 35.569748, 32.191888 ], [ 35.559161, 32.179785 ], [ 35.556583, 32.168182 ], [ 35.548624, 32.166849 ], [ 35.550263, 32.160973 ], [ 35.558643, 32.157914 ], [ 35.560257, 32.14984 ], [ 35.556684, 32.144364 ], [ 35.545098, 32.142111 ], [ 35.544751, 32.135494 ], [ 35.549993, 32.124866 ], [ 35.533816, 32.106403 ], [ 35.544684, 32.083398 ], [ 35.533005, 32.074878 ], [ 35.52781, 32.054899 ], [ 35.51994, 32.047263 ], [ 35.519361, 32.037721 ], [ 35.523098, 32.023245 ], [ 35.528286, 32.01798 ], [ 35.526564, 32.003288 ], [ 35.537281, 31.998275 ], [ 35.536562, 31.98331 ], [ 35.547888, 31.970999 ], [ 35.542161, 31.96158 ], [ 35.540852, 31.936844 ], [ 35.535472, 31.925442 ], [ 35.527452, 31.922406 ], [ 35.524868, 31.906304 ], [ 35.526533, 31.901066 ], [ 35.534774, 31.89405 ], [ 35.534462, 31.882092 ], [ 35.549487, 31.871865 ], [ 35.547834, 31.864711 ], [ 35.537516, 31.85534 ], [ 35.545874, 31.846153 ], [ 35.548826, 31.838523 ], [ 35.548011, 31.824535 ], [ 35.541978, 31.82001 ], [ 35.54321, 31.806295 ], [ 35.551176, 31.797471 ], [ 35.548118, 31.78268 ], [ 35.558333, 31.761418 ], [ 35.543388, 31.748537 ], [ 35.522802, 31.714622 ], [ 35.489648, 31.618799 ], [ 35.479625, 31.561331 ], [ 35.47596, 31.49051 ], [ 35.471219, 31.490914 ], [ 35.426878, 31.49469 ], [ 35.401342, 31.493748 ], [ 35.283924, 31.406695 ], [ 35.245363, 31.381593 ], [ 35.227782, 31.375214 ], [ 35.146345, 31.358209 ], [ 35.029632, 31.357357 ], [ 34.985488, 31.354055 ], [ 34.928409, 31.345511 ], [ 34.885704, 31.37139 ], [ 34.877357, 31.381818 ], [ 34.879549, 31.397736 ], [ 34.898177, 31.433164 ], [ 34.94637, 31.503724 ], [ 34.951754, 31.565248 ], [ 34.957704, 31.589681 ], [ 34.999785, 31.650193 ], [ 35.015101, 31.662248 ], [ 35.051954, 31.676951 ], [ 35.118937, 31.709556 ], [ 35.125749, 31.738009 ], [ 35.131155, 31.746582 ], [ 35.174986, 31.746723 ], [ 35.1972, 31.752085 ], [ 35.208956, 31.748926 ], [ 35.218768, 31.739243 ], [ 35.22718, 31.759919 ], [ 35.225679, 31.78883 ], [ 35.216604, 31.801284 ], [ 35.1655, 31.805063 ], [ 35.127031, 31.82039 ], [ 35.050009, 31.844105 ], [ 35.045108, 31.841655 ], [ 35.039092, 31.825407 ], [ 35.026225, 31.819524 ], [ 34.972601, 31.81621 ], [ 34.963878, 31.820194 ], [ 34.957177, 31.831938 ], [ 34.955897, 31.846589 ], [ 34.961116, 31.85713 ], [ 35.013952, 31.871706 ], [ 35.020542, 31.877392 ], [ 35.028564, 31.895809 ], [ 35.023422, 31.913783 ], [ 34.992579, 31.933384 ], [ 34.980326, 31.959685 ], [ 34.99416, 31.977619 ], [ 34.998848, 32.01433 ], [ 35.003066, 32.026798 ], [ 34.996508, 32.058783 ], [ 34.98381, 32.091502 ], [ 34.991316, 32.109286 ], [ 34.9858, 32.12776 ], [ 34.988188, 32.14412 ], [ 34.976827, 32.152882 ], [ 34.974067, 32.161246 ], [ 34.961002, 32.175674 ], [ 34.958557, 32.187953 ], [ 34.965008, 32.197267 ], [ 34.987792, 32.206552 ], [ 35.019561, 32.236689 ], [ 35.028472, 32.263348 ], [ 35.020953, 32.275711 ], [ 35.010269, 32.282701 ], [ 35.016131, 32.33341 ], [ 35.028227, 32.344045 ], [ 35.039401, 32.347689 ], [ 35.048778, 32.362875 ], [ 35.048537, 32.372771 ], [ 35.042188, 32.38214 ], [ 35.052697, 32.401854 ], [ 35.055245, 32.419335 ], [ 35.068547, 32.452843 ], [ 35.089809, 32.473801 ], [ 35.125729, 32.484565 ], [ 35.159396, 32.505615 ], [ 35.18004, 32.522786 ], [ 35.188447, 32.52585 ], [ 35.201967, 32.539231 ], [ 35.224388, 32.550681 ], [ 35.250856, 32.524801 ], [ 35.278939, 32.513642 ], [ 35.304649, 32.510124 ], [ 35.341008, 32.518446 ], [ 35.355305, 32.51861 ], [ 35.370772, 32.514815 ], [ 35.400897, 32.501442 ], [ 35.416639, 32.46282 ], [ 35.415472, 32.452843 ], [ 35.412961, 32.431377 ], [ 35.41925, 32.417809 ], [ 35.431425, 32.409019 ], [ 35.43979, 32.406882 ], [ 35.453638, 32.412198 ], [ 35.471219, 32.411288 ], [ 35.473848, 32.411152 ], [ 35.494285, 32.401925 ], [ 35.540384, 32.388256 ], [ 35.555121, 32.388995 ] ] ], [ [ [ 34.268839, 31.220535 ], [ 34.24201, 31.293188 ], [ 34.239725, 31.295663 ], [ 34.236229, 31.29648 ], [ 34.231217, 31.304169 ], [ 34.219796, 31.321688 ], [ 34.231217, 31.331088 ], [ 34.234033, 31.333406 ], [ 34.236011, 31.335034 ], [ 34.262076, 31.35945 ], [ 34.272208, 31.366718 ], [ 34.293911, 31.388679 ], [ 34.336392, 31.423975 ], [ 34.363146, 31.45148 ], [ 34.376321, 31.465022 ], [ 34.386766, 31.478295 ], [ 34.408011, 31.497779 ], [ 34.43988, 31.534962 ], [ 34.458493, 31.553964 ], [ 34.472859, 31.572566 ], [ 34.49086, 31.595874 ], [ 34.565286, 31.543152 ], [ 34.56579, 31.535035 ], [ 34.546456, 31.512653 ], [ 34.509536, 31.497108 ], [ 34.478447, 31.477183 ], [ 34.464547, 31.460774 ], [ 34.383513, 31.392654 ], [ 34.36374, 31.363438 ], [ 34.373549, 31.307944 ], [ 34.367752, 31.292489 ], [ 34.363146, 31.288923 ], [ 34.342988, 31.27932 ], [ 34.337063, 31.26866 ], [ 34.327622, 31.258864 ], [ 34.319769, 31.25325 ], [ 34.292095, 31.241051 ], [ 34.268839, 31.220535 ] ] ] ] } }
]
}
