{
"type": "FeatureCollection",
"name": "Paraguay",
"crs": { "type": "name", "properties": { "name": "urn:ogc:def:crs:OGC:1.3:CRS84" } },
"features": [
{ "type": "Feature", "properties": { "id": "PY", "CNTR_ID": "PY", "CNTR_NAME": "Paraguay-Paraguái", "NAME_ENGL": "Paraguay", "ISO3_CODE": "PRY", "FID": "PY" }, "geometry": { "type": "MultiPolygon", "coordinates": [ [ [ [ -54.5941, -25.592273 ], [ -54.597038, -25.623364 ], [ -54.58206, -25.656761 ], [ -54.583141, -25.663213 ], [ -54.589891, -25.667229 ], [ -54.603519, -25.668155 ], [ -54.628116, -25.660017 ], [ -54.642274, -25.659918 ], [ -54.653754, -25.667245 ], [ -54.658537, -25.680323 ], [ -54.654371, -25.695966 ], [ -54.639401, -25.724095 ], [ -54.629059, -25.771407 ], [ -54.614784, -25.793839 ], [ -54.594341, -25.81493 ], [ -54.588242, -25.828288 ], [ -54.589046, -25.838947 ], [ -54.598007, -25.863431 ], [ -54.613206, -25.888361 ], [ -54.622574, -25.915015 ], [ -54.62108, -25.937515 ], [ -54.608939, -25.955746 ], [ -54.608379, -25.967911 ], [ -54.61329, -25.979875 ], [ -54.62275, -25.985081 ], [ -54.65476, -25.979453 ], [ -54.668126, -25.981606 ], [ -54.677328, -25.989797 ], [ -54.679896, -25.997855 ], [ -54.677593, -26.015784 ], [ -54.6503, -26.066054 ], [ -54.643956, -26.090065 ], [ -54.645278, -26.106104 ], [ -54.650542, -26.116888 ], [ -54.674204, -26.14192 ], [ -54.672105, -26.159845 ], [ -54.657772, -26.178762 ], [ -54.625984, -26.198485 ], [ -54.620413, -26.20668 ], [ -54.618968, -26.214456 ], [ -54.624188, -26.223093 ], [ -54.650385, -26.238119 ], [ -54.676824, -26.25942 ], [ -54.678503, -26.272653 ], [ -54.663972, -26.286282 ], [ -54.653316, -26.301061 ], [ -54.649718, -26.313793 ], [ -54.653747, -26.321377 ], [ -54.672844, -26.340585 ], [ -54.696595, -26.376581 ], [ -54.699124, -26.4288 ], [ -54.705248, -26.444931 ], [ -54.718711, -26.461302 ], [ -54.737531, -26.476198 ], [ -54.753353, -26.492969 ], [ -54.783765, -26.511601 ], [ -54.801992, -26.5373 ], [ -54.807706, -26.560589 ], [ -54.788986, -26.592205 ], [ -54.785511, -26.60626 ], [ -54.786174, -26.622265 ], [ -54.790655, -26.634965 ], [ -54.812913, -26.667307 ], [ -54.823253, -26.67331 ], [ -54.834227, -26.672831 ], [ -54.857843, -26.657507 ], [ -54.875598, -26.656443 ], [ -54.91568, -26.667172 ], [ -54.940875, -26.681427 ], [ -54.945955, -26.690352 ], [ -54.948835, -26.706701 ], [ -54.944806, -26.736396 ], [ -54.945641, -26.751859 ], [ -54.949931, -26.768499 ], [ -54.959444, -26.783205 ], [ -54.975606, -26.789679 ], [ -55.023267, -26.789091 ], [ -55.052892, -26.797397 ], [ -55.068523, -26.808059 ], [ -55.08998, -26.833677 ], [ -55.124145, -26.850148 ], [ -55.140957, -26.865252 ], [ -55.146381, -26.875893 ], [ -55.150209, -26.894189 ], [ -55.132606, -26.935275 ], [ -55.133763, -26.944112 ], [ -55.139487, -26.950701 ], [ -55.193004, -26.96761 ], [ -55.203576, -26.968745 ], [ -55.216677, -26.962708 ], [ -55.241297, -26.941735 ], [ -55.258921, -26.937387 ], [ -55.274282, -26.941476 ], [ -55.297746, -26.958813 ], [ -55.308594, -26.963139 ], [ -55.336017, -26.962754 ], [ -55.379935, -26.967354 ], [ -55.4174, -26.990233 ], [ -55.440921, -27.015717 ], [ -55.453408, -27.043994 ], [ -55.456418, -27.057577 ], [ -55.456542, -27.072467 ], [ -55.451609, -27.094362 ], [ -55.454894, -27.102511 ], [ -55.474988, -27.110006 ], [ -55.519769, -27.103284 ], [ -55.544881, -27.102739 ], [ -55.555937, -27.107344 ], [ -55.564905, -27.12201 ], [ -55.563391, -27.151718 ], [ -55.567195, -27.161601 ], [ -55.579169, -27.166551 ], [ -55.592856, -27.161917 ], [ -55.6069, -27.162987 ], [ -55.614703, -27.170075 ], [ -55.621748, -27.185242 ], [ -55.620489, -27.198943 ], [ -55.616235, -27.207085 ], [ -55.585615, -27.232395 ], [ -55.57907, -27.244184 ], [ -55.581102, -27.265143 ], [ -55.595579, -27.275827 ], [ -55.600592, -27.284082 ], [ -55.592083, -27.316516 ], [ -55.594724, -27.327783 ], [ -55.603618, -27.340325 ], [ -55.625596, -27.355006 ], [ -55.652736, -27.367403 ], [ -55.67617, -27.373751 ], [ -55.686302, -27.380272 ], [ -55.710551, -27.406576 ], [ -55.720056, -27.425434 ], [ -55.735722, -27.442752 ], [ -55.784063, -27.440542 ], [ -55.825568, -27.424204 ], [ -55.859219, -27.397912 ], [ -55.867854, -27.382789 ], [ -55.872744, -27.362118 ], [ -55.884462, -27.347381 ], [ -55.894475, -27.340781 ], [ -55.927834, -27.332551 ], [ -55.948123, -27.333669 ], [ -55.965744, -27.338564 ], [ -55.985407, -27.33797 ], [ -56.016089, -27.326072 ], [ -56.041625, -27.31039 ], [ -56.063611, -27.305324 ], [ -56.081549, -27.305145 ], [ -56.129548, -27.314023 ], [ -56.184475, -27.336363 ], [ -56.198526, -27.376262 ], [ -56.222111, -27.381809 ], [ -56.26874, -27.382865 ], [ -56.300771, -27.396823 ], [ -56.314305, -27.424207 ], [ -56.307468, -27.441093 ], [ -56.293573, -27.462136 ], [ -56.290015, -27.483343 ], [ -56.297506, -27.492757 ], [ -56.347314, -27.527592 ], [ -56.357968, -27.541012 ], [ -56.373684, -27.575236 ], [ -56.391863, -27.585731 ], [ -56.419215, -27.586543 ], [ -56.479953, -27.56159 ], [ -56.500296, -27.53942 ], [ -56.517088, -27.500789 ], [ -56.539802, -27.458677 ], [ -56.561405, -27.443669 ], [ -56.598452, -27.431686 ], [ -56.691851, -27.443633 ], [ -56.712776, -27.45495 ], [ -56.720322, -27.463761 ], [ -56.725012, -27.493706 ], [ -56.74849, -27.497553 ], [ -56.761692, -27.49472 ], [ -56.792378, -27.476243 ], [ -56.81981, -27.465707 ], [ -56.832941, -27.456527 ], [ -56.85142, -27.43566 ], [ -56.869727, -27.422818 ], [ -56.888567, -27.413591 ], [ -56.905968, -27.40986 ], [ -56.919103, -27.409631 ], [ -56.933475, -27.413011 ], [ -56.960648, -27.431264 ], [ -56.983534, -27.440268 ], [ -57.001392, -27.457279 ], [ -57.04377, -27.479273 ], [ -57.055208, -27.482161 ], [ -57.127532, -27.485138 ], [ -57.147014, -27.480832 ], [ -57.212414, -27.466377 ], [ -57.233771, -27.466271 ], [ -57.284788, -27.432325 ], [ -57.326516, -27.412933 ], [ -57.341341, -27.412722 ], [ -57.358963, -27.417696 ], [ -57.376833, -27.418958 ], [ -57.393963, -27.416713 ], [ -57.423417, -27.406758 ], [ -57.478547, -27.404066 ], [ -57.52459, -27.393416 ], [ -57.543794, -27.383714 ], [ -57.552404, -27.381274 ], [ -57.565241, -27.38256 ], [ -57.575868, -27.380692 ], [ -57.593701, -27.380129 ], [ -57.62675, -27.372549 ], [ -57.648053, -27.365 ], [ -57.660973, -27.358285 ], [ -57.680088, -27.342274 ], [ -57.699454, -27.339717 ], [ -57.707143, -27.338701 ], [ -57.728257, -27.330621 ], [ -57.739683, -27.330337 ], [ -57.769899, -27.334641 ], [ -57.783104, -27.335133 ], [ -57.791965, -27.331632 ], [ -57.806233, -27.323322 ], [ -57.820537, -27.322193 ], [ -57.828725, -27.319198 ], [ -57.854631, -27.299781 ], [ -57.861069, -27.291522 ], [ -57.877445, -27.279895 ], [ -57.898308, -27.270258 ], [ -57.90732, -27.272152 ], [ -57.928898, -27.282104 ], [ -57.939025, -27.283728 ], [ -57.950907, -27.282076 ], [ -57.97886, -27.267314 ], [ -57.985589, -27.26606 ], [ -57.987993, -27.265613 ], [ -58.030665, -27.263179 ], [ -58.061447, -27.263176 ], [ -58.074048, -27.264541 ], [ -58.0915, -27.269127 ], [ -58.144431, -27.269931 ], [ -58.164819, -27.266659 ], [ -58.174784, -27.263151 ], [ -58.188585, -27.255875 ], [ -58.207105, -27.2513 ], [ -58.241042, -27.250457 ], [ -58.267396, -27.25396 ], [ -58.298351, -27.253733 ], [ -58.319818, -27.25882 ], [ -58.332051, -27.260212 ], [ -58.356704, -27.271009 ], [ -58.386478, -27.277507 ], [ -58.412521, -27.27777 ], [ -58.417405, -27.276372 ], [ -58.423374, -27.27051 ], [ -58.437671, -27.268887 ], [ -58.455035, -27.273721 ], [ -58.480532, -27.274436 ], [ -58.508783, -27.278532 ], [ -58.516683, -27.281847 ], [ -58.525526, -27.287958 ], [ -58.529487, -27.290695 ], [ -58.560802, -27.299247 ], [ -58.606182, -27.296719 ], [ -58.607029, -27.282053 ], [ -58.597758, -27.26981 ], [ -58.593374, -27.258269 ], [ -58.594407, -27.225026 ], [ -58.608569, -27.21254 ], [ -58.654099, -27.192453 ], [ -58.660912, -27.18519 ], [ -58.664098, -27.17348 ], [ -58.651534, -27.13089 ], [ -58.637938, -27.118475 ], [ -58.620719, -27.112673 ], [ -58.554988, -27.108597 ], [ -58.557445, -27.082796 ], [ -58.555205, -27.059513 ], [ -58.561185, -27.043355 ], [ -58.557107, -27.037039 ], [ -58.551442, -27.03454 ], [ -58.529487, -27.037771 ], [ -58.527164, -27.038555 ], [ -58.525526, -27.039526 ], [ -58.523083, -27.040973 ], [ -58.517502, -27.047954 ], [ -58.519757, -27.056926 ], [ -58.518763, -27.061108 ], [ -58.512192, -27.062764 ], [ -58.506321, -27.059422 ], [ -58.502607, -27.053892 ], [ -58.500712, -27.043973 ], [ -58.505679, -27.030217 ], [ -58.517584, -27.014213 ], [ -58.519482, -27.008046 ], [ -58.518387, -27.00298 ], [ -58.510895, -26.997534 ], [ -58.500989, -26.995734 ], [ -58.492152, -26.997399 ], [ -58.480451, -27.001908 ], [ -58.473187, -27.001384 ], [ -58.469896, -26.998422 ], [ -58.468654, -26.990936 ], [ -58.470439, -26.982282 ], [ -58.474418, -26.973471 ], [ -58.489352, -26.949236 ], [ -58.491957, -26.942589 ], [ -58.50005, -26.932793 ], [ -58.501682, -26.924601 ], [ -58.497072, -26.922537 ], [ -58.493023, -26.922673 ], [ -58.47678, -26.930847 ], [ -58.471064, -26.931347 ], [ -58.46076, -26.929147 ], [ -58.400278, -26.898034 ], [ -58.384063, -26.892093 ], [ -58.378003, -26.88384 ], [ -58.377633, -26.871684 ], [ -58.376113, -26.868152 ], [ -58.37284, -26.86543 ], [ -58.364285, -26.864725 ], [ -58.347261, -26.87047 ], [ -58.337659, -26.872007 ], [ -58.328513, -26.870359 ], [ -58.323875, -26.867258 ], [ -58.320293, -26.857599 ], [ -58.320027, -26.846763 ], [ -58.32556, -26.831013 ], [ -58.335599, -26.819652 ], [ -58.335279, -26.811744 ], [ -58.33007, -26.805763 ], [ -58.323554, -26.805644 ], [ -58.314007, -26.808089 ], [ -58.307197, -26.807245 ], [ -58.287659, -26.798036 ], [ -58.283205, -26.794564 ], [ -58.282787, -26.788162 ], [ -58.296907, -26.764787 ], [ -58.293458, -26.7574 ], [ -58.284063, -26.755202 ], [ -58.272327, -26.761079 ], [ -58.26015, -26.762738 ], [ -58.250453, -26.757372 ], [ -58.246672, -26.750412 ], [ -58.246006, -26.742319 ], [ -58.255645, -26.719622 ], [ -58.25429, -26.686159 ], [ -58.256276, -26.671016 ], [ -58.264253, -26.657247 ], [ -58.262167, -26.646088 ], [ -58.255854, -26.642565 ], [ -58.247483, -26.642567 ], [ -58.240813, -26.644794 ], [ -58.229036, -26.651865 ], [ -58.217183, -26.654891 ], [ -58.201156, -26.654286 ], [ -58.196948, -26.652624 ], [ -58.19188, -26.648178 ], [ -58.190622, -26.641484 ], [ -58.191721, -26.639136 ], [ -58.20753, -26.627188 ], [ -58.210035, -26.621138 ], [ -58.209059, -26.615341 ], [ -58.197873, -26.606629 ], [ -58.193863, -26.597697 ], [ -58.193411, -26.59145 ], [ -58.197222, -26.578841 ], [ -58.197873, -26.566113 ], [ -58.199702, -26.560791 ], [ -58.203074, -26.556373 ], [ -58.22063, -26.545487 ], [ -58.224513, -26.53447 ], [ -58.224381, -26.530085 ], [ -58.221507, -26.523847 ], [ -58.216486, -26.516772 ], [ -58.209408, -26.506797 ], [ -58.207781, -26.497065 ], [ -58.210562, -26.491854 ], [ -58.215453, -26.488076 ], [ -58.230251, -26.481525 ], [ -58.23394, -26.47621 ], [ -58.234195, -26.47124 ], [ -58.232166, -26.46769 ], [ -58.226475, -26.464351 ], [ -58.204951, -26.46524 ], [ -58.189529, -26.463359 ], [ -58.181798, -26.459642 ], [ -58.18106, -26.454204 ], [ -58.183322, -26.450386 ], [ -58.198453, -26.438351 ], [ -58.208456, -26.426639 ], [ -58.218234, -26.418823 ], [ -58.221528, -26.411466 ], [ -58.222579, -26.400844 ], [ -58.218718, -26.389284 ], [ -58.21233, -26.379651 ], [ -58.192037, -26.36709 ], [ -58.173526, -26.362886 ], [ -58.170678, -26.361222 ], [ -58.162147, -26.35134 ], [ -58.157343, -26.342816 ], [ -58.155939, -26.335266 ], [ -58.155138, -26.330961 ], [ -58.15437, -26.315144 ], [ -58.155939, -26.310229 ], [ -58.156739, -26.30772 ], [ -58.165136, -26.296682 ], [ -58.167596, -26.288106 ], [ -58.168714, -26.279416 ], [ -58.165089, -26.26646 ], [ -58.159282, -26.260847 ], [ -58.155939, -26.259529 ], [ -58.111643, -26.242069 ], [ -58.105599, -26.236808 ], [ -58.104043, -26.227524 ], [ -58.104662, -26.221973 ], [ -58.10745, -26.218431 ], [ -58.124262, -26.207755 ], [ -58.140421, -26.200243 ], [ -58.155939, -26.187075 ], [ -58.159215, -26.184295 ], [ -58.159133, -26.180623 ], [ -58.155939, -26.178847 ], [ -58.145258, -26.178451 ], [ -58.125507, -26.185983 ], [ -58.119997, -26.185706 ], [ -58.117873, -26.182551 ], [ -58.12164, -26.168028 ], [ -58.120726, -26.159092 ], [ -58.087127, -26.113398 ], [ -58.067486, -26.107652 ], [ -58.040692, -26.11163 ], [ -58.021403, -26.104507 ], [ -58.004584, -26.092531 ], [ -57.985589, -26.085855 ], [ -57.949037, -26.066812 ], [ -57.917641, -26.031179 ], [ -57.899279, -26.021076 ], [ -57.874453, -26.015158 ], [ -57.852568, -26.004924 ], [ -57.849414, -25.996573 ], [ -57.854268, -25.98754 ], [ -57.889155, -25.967002 ], [ -57.89427, -25.956668 ], [ -57.888887, -25.944867 ], [ -57.874697, -25.931098 ], [ -57.84431, -25.921698 ], [ -57.835806, -25.91387 ], [ -57.838284, -25.903352 ], [ -57.86372, -25.880849 ], [ -57.868503, -25.870515 ], [ -57.86545, -25.859332 ], [ -57.85427, -25.852547 ], [ -57.81564, -25.845864 ], [ -57.801729, -25.833386 ], [ -57.794681, -25.822238 ], [ -57.795013, -25.80957 ], [ -57.818473, -25.782479 ], [ -57.826818, -25.761723 ], [ -57.826625, -25.755553 ], [ -57.81749, -25.751283 ], [ -57.79402, -25.760408 ], [ -57.780502, -25.760322 ], [ -57.732968, -25.723522 ], [ -57.728327, -25.714947 ], [ -57.729263, -25.710652 ], [ -57.76172, -25.706769 ], [ -57.7658, -25.701244 ], [ -57.7643, -25.687483 ], [ -57.747702, -25.657591 ], [ -57.731646, -25.645841 ], [ -57.719431, -25.645075 ], [ -57.687761, -25.66112 ], [ -57.680166, -25.660933 ], [ -57.674237, -25.65763 ], [ -57.671069, -25.645934 ], [ -57.677006, -25.603134 ], [ -57.673226, -25.595753 ], [ -57.667745, -25.594277 ], [ -57.657959, -25.596228 ], [ -57.641836, -25.610479 ], [ -57.629796, -25.616323 ], [ -57.619242, -25.616245 ], [ -57.612907, -25.611746 ], [ -57.6059, -25.592423 ], [ -57.604124, -25.569664 ], [ -57.598035, -25.567373 ], [ -57.586658, -25.570039 ], [ -57.581142, -25.568871 ], [ -57.571357, -25.550141 ], [ -57.570166, -25.537369 ], [ -57.578877, -25.523449 ], [ -57.579703, -25.511195 ], [ -57.560606, -25.469693 ], [ -57.556002, -25.44637 ], [ -57.603282, -25.39684 ], [ -57.615049, -25.389483 ], [ -57.634718, -25.385018 ], [ -57.642981, -25.379982 ], [ -57.665689, -25.346749 ], [ -57.673564, -25.315645 ], [ -57.671206, -25.278334 ], [ -57.678169, -25.275824 ], [ -57.69212, -25.283059 ], [ -57.707849, -25.270349 ], [ -57.724906, -25.263162 ], [ -57.728908, -25.249853 ], [ -57.736817, -25.248869 ], [ -57.736902, -25.237249 ], [ -57.745782, -25.233922 ], [ -57.746817, -25.226811 ], [ -57.755836, -25.214899 ], [ -57.749001, -25.202605 ], [ -57.756474, -25.191127 ], [ -57.755517, -25.177189 ], [ -57.766735, -25.169569 ], [ -57.780628, -25.153501 ], [ -57.799007, -25.149188 ], [ -57.807838, -25.143083 ], [ -57.820931, -25.139704 ], [ -57.828317, -25.131092 ], [ -57.836763, -25.1286 ], [ -57.843852, -25.116242 ], [ -57.847909, -25.100566 ], [ -57.85511, -25.095504 ], [ -57.861722, -25.083716 ], [ -57.883506, -25.077089 ], [ -57.896315, -25.078581 ], [ -57.908438, -25.074782 ], [ -57.928025, -25.076293 ], [ -57.937599, -25.072774 ], [ -57.949556, -25.07789 ], [ -57.959021, -25.075707 ], [ -57.974032, -25.084111 ], [ -57.985589, -25.082228 ], [ -57.998423, -25.071635 ], [ -57.997033, -25.058591 ], [ -58.005584, -25.03753 ], [ -58.04232, -25.04205 ], [ -58.070153, -25.042367 ], [ -58.075423, -25.037501 ], [ -58.078847, -25.026157 ], [ -58.089135, -25.011192 ], [ -58.102921, -25.01171 ], [ -58.114007, -25.017112 ], [ -58.130986, -25.009543 ], [ -58.152582, -24.974609 ], [ -58.16552, -24.969433 ], [ -58.190264, -24.967514 ], [ -58.201259, -24.951337 ], [ -58.217595, -24.947733 ], [ -58.222414, -24.941126 ], [ -58.221836, -24.932051 ], [ -58.230014, -24.928736 ], [ -58.255221, -24.933817 ], [ -58.274031, -24.95196 ], [ -58.288083, -24.958666 ], [ -58.29729, -24.973148 ], [ -58.311464, -24.98634 ], [ -58.330195, -24.996979 ], [ -58.336882, -24.99712 ], [ -58.342891, -24.991434 ], [ -58.351833, -24.970404 ], [ -58.390552, -24.952543 ], [ -58.410669, -24.923322 ], [ -58.42923, -24.919588 ], [ -58.431937, -24.911675 ], [ -58.429781, -24.898468 ], [ -58.434899, -24.888785 ], [ -58.443351, -24.880428 ], [ -58.472789, -24.862747 ], [ -58.496503, -24.857607 ], [ -58.511073, -24.845336 ], [ -58.527777, -24.84817 ], [ -58.549983, -24.829468 ], [ -58.572319, -24.82191 ], [ -58.60983, -24.830286 ], [ -58.64652, -24.825916 ], [ -58.659649, -24.830554 ], [ -58.67133, -24.83031 ], [ -58.686226, -24.813225 ], [ -58.705545, -24.810116 ], [ -58.718039, -24.785662 ], [ -58.726075, -24.777189 ], [ -58.745054, -24.779365 ], [ -58.806221, -24.771231 ], [ -58.850107, -24.736051 ], [ -58.865383, -24.730002 ], [ -58.878696, -24.729433 ], [ -58.902543, -24.705606 ], [ -58.910941, -24.701532 ], [ -58.926264, -24.694098 ], [ -58.944037, -24.680424 ], [ -58.963005, -24.672471 ], [ -58.974214, -24.662879 ], [ -59.019899, -24.659287 ], [ -59.035458, -24.647684 ], [ -59.049881, -24.641268 ], [ -59.060363, -24.630296 ], [ -59.079091, -24.621829 ], [ -59.095789, -24.617816 ], [ -59.112309, -24.621671 ], [ -59.124075, -24.618146 ], [ -59.135266, -24.607076 ], [ -59.151633, -24.598246 ], [ -59.15976, -24.586972 ], [ -59.176632, -24.576827 ], [ -59.18753, -24.564057 ], [ -59.237551, -24.546336 ], [ -59.257743, -24.521698 ], [ -59.289713, -24.515472 ], [ -59.32087, -24.493689 ], [ -59.337554, -24.489739 ], [ -59.346158, -24.484995 ], [ -59.375041, -24.423647 ], [ -59.396304, -24.412931 ], [ -59.417137, -24.408461 ], [ -59.426686, -24.396997 ], [ -59.442087, -24.387741 ], [ -59.456272, -24.370923 ], [ -59.459955, -24.357872 ], [ -59.468456, -24.349 ], [ -59.470085, -24.339088 ], [ -59.47575, -24.332263 ], [ -60.025677, -24.007456 ], [ -60.097943, -24.031542 ], [ -60.122096, -24.039591 ], [ -60.298503, -24.04816 ], [ -60.327727, -24.046263 ], [ -60.373646, -24.025325 ], [ -60.387178, -24.001762 ], [ -60.395478, -23.993257 ], [ -60.43202, -23.978292 ], [ -60.45327, -23.965134 ], [ -60.475547, -23.96141 ], [ -60.520836, -23.964889 ], [ -60.567451, -23.955402 ], [ -60.583681, -23.94271 ], [ -60.589592, -23.917794 ], [ -60.603127, -23.904373 ], [ -60.662737, -23.905357 ], [ -60.688741, -23.899039 ], [ -60.716489, -23.885005 ], [ -60.746125, -23.874698 ], [ -60.765048, -23.872354 ], [ -60.793847, -23.876886 ], [ -60.803511, -23.869675 ], [ -60.822159, -23.872599 ], [ -60.836902, -23.870588 ], [ -60.89617, -23.833405 ], [ -60.912661, -23.817585 ], [ -60.930052, -23.806974 ], [ -60.94047, -23.806 ], [ -60.955585, -23.811979 ], [ -60.984324, -23.808217 ], [ -61.006384, -23.788244 ], [ -61.049061, -23.723873 ], [ -61.084316, -23.688154 ], [ -61.087021, -23.673253 ], [ -61.09793, -23.659254 ], [ -61.096603, -23.645228 ], [ -61.100449, -23.630437 ], [ -61.095702, -23.621472 ], [ -61.097651, -23.615578 ], [ -61.109481, -23.6056 ], [ -61.125424, -23.597011 ], [ -61.139707, -23.582339 ], [ -61.155295, -23.57441 ], [ -61.173364, -23.552695 ], [ -61.196555, -23.546109 ], [ -61.213779, -23.55258 ], [ -61.238217, -23.548242 ], [ -61.271512, -23.522385 ], [ -61.278531, -23.507159 ], [ -61.291303, -23.501724 ], [ -61.319253, -23.475671 ], [ -61.348345, -23.466031 ], [ -61.359427, -23.451735 ], [ -61.383614, -23.452273 ], [ -61.39111, -23.459174 ], [ -61.397083, -23.460201 ], [ -61.424973, -23.446485 ], [ -61.44792, -23.42903 ], [ -61.478512, -23.424214 ], [ -61.491142, -23.419382 ], [ -61.525363, -23.371391 ], [ -61.524773, -23.362353 ], [ -61.517953, -23.350372 ], [ -61.553644, -23.341765 ], [ -61.573227, -23.324089 ], [ -61.581641, -23.306103 ], [ -61.609306, -23.28793 ], [ -61.638003, -23.282812 ], [ -61.670856, -23.283879 ], [ -61.683554, -23.278132 ], [ -61.700595, -23.25645 ], [ -61.736163, -23.238815 ], [ -61.747316, -23.20134 ], [ -61.761592, -23.179855 ], [ -61.776323, -23.169543 ], [ -61.813655, -23.155051 ], [ -61.826164, -23.134546 ], [ -61.845517, -23.118196 ], [ -61.867846, -23.09103 ], [ -61.933371, -23.068768 ], [ -61.988596, -23.021525 ], [ -62.004893, -22.992909 ], [ -62.005085, -22.961013 ], [ -62.009866, -22.942277 ], [ -62.019999, -22.930168 ], [ -62.034667, -22.922657 ], [ -62.047713, -22.872091 ], [ -62.061887, -22.855744 ], [ -62.075238, -22.84672 ], [ -62.086742, -22.824456 ], [ -62.106155, -22.817053 ], [ -62.117686, -22.79981 ], [ -62.13431, -22.787421 ], [ -62.142881, -22.767639 ], [ -62.161453, -22.753971 ], [ -62.164756, -22.734428 ], [ -62.177213, -22.716954 ], [ -62.184623, -22.712859 ], [ -62.198218, -22.713275 ], [ -62.201679, -22.699027 ], [ -62.19835, -22.67835 ], [ -62.200641, -22.66492 ], [ -62.209149, -22.658638 ], [ -62.211563, -22.650299 ], [ -62.234706, -22.639146 ], [ -62.238053, -22.61482 ], [ -62.249141, -22.610547 ], [ -62.254297, -22.602057 ], [ -62.264024, -22.60067 ], [ -62.258963, -22.594255 ], [ -62.244943, -22.587929 ], [ -62.24376, -22.575747 ], [ -62.233447, -22.566239 ], [ -62.23284, -22.559148 ], [ -62.227505, -22.551768 ], [ -62.230765, -22.542829 ], [ -62.251046, -22.529746 ], [ -62.249283, -22.516699 ], [ -62.276665, -22.521606 ], [ -62.285783, -22.520208 ], [ -62.291561, -22.513076 ], [ -62.285955, -22.500228 ], [ -62.289752, -22.478983 ], [ -62.295606, -22.478382 ], [ -62.308639, -22.484727 ], [ -62.316722, -22.483681 ], [ -62.34431, -22.471902 ], [ -62.345419, -22.469162 ], [ -62.340218, -22.465396 ], [ -62.353113, -22.456206 ], [ -62.365892, -22.462699 ], [ -62.376266, -22.474666 ], [ -62.383226, -22.459013 ], [ -62.398774, -22.444667 ], [ -62.409698, -22.443377 ], [ -62.418524, -22.427058 ], [ -62.426686, -22.425111 ], [ -62.435632, -22.416615 ], [ -62.447207, -22.415703 ], [ -62.457336, -22.410143 ], [ -62.465381, -22.388976 ], [ -62.475477, -22.376846 ], [ -62.489253, -22.373999 ], [ -62.511482, -22.377496 ], [ -62.536124, -22.367826 ], [ -62.545045, -22.353845 ], [ -62.541777, -22.33551 ], [ -62.553316, -22.337193 ], [ -62.562615, -22.327472 ], [ -62.597297, -22.311226 ], [ -62.617993, -22.296314 ], [ -62.636668, -22.295801 ], [ -62.627553, -22.26722 ], [ -62.633006, -22.254004 ], [ -62.645202, -22.250466 ], [ -62.642434, -22.241858 ], [ -62.637439, -22.22632 ], [ -62.504882, -21.81403 ], [ -62.458412, -21.669496 ], [ -62.342511, -21.30901 ], [ -62.33414, -21.282993 ], [ -62.261339, -21.055565 ], [ -62.265868, -20.561356 ], [ -62.132686, -20.377076 ], [ -62.104658, -20.338512 ], [ -62.05028, -20.263718 ], [ -61.921725, -20.086896 ], [ -61.915315, -20.072048 ], [ -61.909718, -20.059086 ], [ -61.730155, -19.643186 ], [ -61.607668, -19.622971 ], [ -61.458045, -19.598276 ], [ -60.847786, -19.497511 ], [ -60.700337, -19.473155 ], [ -60.604005, -19.45724 ], [ -60.358588, -19.392716 ], [ -60.097943, -19.324194 ], [ -59.976699, -19.29231 ], [ -59.546332, -19.289867 ], [ -59.066225, -19.287758 ], [ -58.529487, -19.601112 ], [ -58.525526, -19.603422 ], [ -58.235792, -19.772317 ], [ -58.163727, -19.826339 ], [ -58.172798, -19.834195 ], [ -58.177576, -19.844132 ], [ -58.190228, -19.851253 ], [ -58.201341, -19.864311 ], [ -58.204687, -19.892573 ], [ -58.199235, -19.904239 ], [ -58.196415, -19.926606 ], [ -58.212495, -19.952675 ], [ -58.20261, -19.96034 ], [ -58.193999, -19.963148 ], [ -58.185048, -19.974914 ], [ -58.177628, -19.997267 ], [ -58.177335, -20.012373 ], [ -58.173619, -20.019388 ], [ -58.174778, -20.028338 ], [ -58.157879, -20.043017 ], [ -58.159985, -20.046907 ], [ -58.166462, -20.049771 ], [ -58.162978, -20.05775 ], [ -58.164138, -20.065565 ], [ -58.154254, -20.076798 ], [ -58.154795, -20.085567 ], [ -58.14385, -20.100146 ], [ -58.1381, -20.117857 ], [ -58.14496, -20.137277 ], [ -58.159113, -20.14372 ], [ -58.167771, -20.153578 ], [ -58.169149, -20.163128 ], [ -58.16346, -20.16246 ], [ -58.158826, -20.176428 ], [ -58.135468, -20.182592 ], [ -58.125579, -20.19108 ], [ -58.12859, -20.200942 ], [ -58.153643, -20.214931 ], [ -58.161077, -20.224928 ], [ -58.16237, -20.242691 ], [ -58.154836, -20.260912 ], [ -58.142401, -20.26555 ], [ -58.130636, -20.256631 ], [ -58.114516, -20.251016 ], [ -58.093097, -20.257962 ], [ -58.088259, -20.266459 ], [ -58.096349, -20.325411 ], [ -58.09218, -20.346354 ], [ -58.079624, -20.375483 ], [ -58.057007, -20.394392 ], [ -58.017838, -20.413353 ], [ -58.003536, -20.427638 ], [ -57.996195, -20.444145 ], [ -58.013827, -20.482629 ], [ -58.018074, -20.512575 ], [ -57.998119, -20.571644 ], [ -58.012493, -20.597759 ], [ -58.014103, -20.609114 ], [ -58.003411, -20.625161 ], [ -57.985589, -20.636587 ], [ -57.97831, -20.641254 ], [ -57.973829, -20.649432 ], [ -57.985589, -20.674099 ], [ -57.987057, -20.677178 ], [ -57.987671, -20.694072 ], [ -57.985589, -20.695622 ], [ -57.97629, -20.702543 ], [ -57.960523, -20.702169 ], [ -57.951492, -20.692078 ], [ -57.939796, -20.671465 ], [ -57.933064, -20.66818 ], [ -57.920719, -20.667819 ], [ -57.885007, -20.70679 ], [ -57.870089, -20.733511 ], [ -57.87037, -20.739364 ], [ -57.875361, -20.743662 ], [ -57.914514, -20.747791 ], [ -57.936293, -20.755485 ], [ -57.953138, -20.770466 ], [ -57.95937, -20.781837 ], [ -57.958359, -20.792586 ], [ -57.950067, -20.798316 ], [ -57.933509, -20.797248 ], [ -57.909967, -20.791124 ], [ -57.89806, -20.791757 ], [ -57.885891, -20.796328 ], [ -57.870924, -20.809027 ], [ -57.856164, -20.834551 ], [ -57.856311, -20.843877 ], [ -57.860187, -20.849974 ], [ -57.918174, -20.882379 ], [ -57.924792, -20.889404 ], [ -57.925663, -20.896819 ], [ -57.921264, -20.90066 ], [ -57.9023, -20.901523 ], [ -57.891714, -20.90643 ], [ -57.875137, -20.932129 ], [ -57.862671, -20.943189 ], [ -57.849854, -20.944097 ], [ -57.833391, -20.936602 ], [ -57.8257, -20.93844 ], [ -57.822088, -20.943864 ], [ -57.822149, -20.961672 ], [ -57.818421, -20.976854 ], [ -57.820284, -20.98483 ], [ -57.834765, -21.000389 ], [ -57.86617, -21.046356 ], [ -57.865932, -21.06954 ], [ -57.847859, -21.099485 ], [ -57.862794, -21.140963 ], [ -57.850537, -21.19599 ], [ -57.852773, -21.222038 ], [ -57.85844, -21.234296 ], [ -57.864773, -21.240924 ], [ -57.904264, -21.265099 ], [ -57.917024, -21.279253 ], [ -57.912343, -21.292791 ], [ -57.90303, -21.302051 ], [ -57.858027, -21.315885 ], [ -57.854805, -21.322755 ], [ -57.855309, -21.33826 ], [ -57.862483, -21.351642 ], [ -57.886718, -21.374419 ], [ -57.900071, -21.393566 ], [ -57.928164, -21.470003 ], [ -57.96217, -21.51165 ], [ -57.966746, -21.525921 ], [ -57.961561, -21.553016 ], [ -57.925537, -21.57865 ], [ -57.917883, -21.587739 ], [ -57.918778, -21.594944 ], [ -57.933825, -21.611728 ], [ -57.936174, -21.637624 ], [ -57.929038, -21.65581 ], [ -57.904064, -21.674683 ], [ -57.894613, -21.689859 ], [ -57.899348, -21.704333 ], [ -57.936611, -21.73037 ], [ -57.945615, -21.743815 ], [ -57.943661, -21.751695 ], [ -57.937996, -21.758026 ], [ -57.929881, -21.763605 ], [ -57.91747, -21.767162 ], [ -57.912104, -21.774167 ], [ -57.912936, -21.792214 ], [ -57.921015, -21.811335 ], [ -57.938159, -21.829655 ], [ -57.967192, -21.844372 ], [ -57.953318, -21.859383 ], [ -57.9234, -21.874335 ], [ -57.920261, -21.882721 ], [ -57.923277, -21.887044 ], [ -57.938215, -21.893769 ], [ -57.944343, -21.901058 ], [ -57.941806, -21.931901 ], [ -57.960056, -21.974735 ], [ -57.968871, -22.003508 ], [ -57.985589, -22.016226 ], [ -58.000582, -22.027631 ], [ -58.005413, -22.034453 ], [ -58.005301, -22.04481 ], [ -57.988722, -22.064017 ], [ -57.98792, -22.083788 ], [ -57.985589, -22.084853 ], [ -57.979722, -22.087533 ], [ -57.959043, -22.082911 ], [ -57.942415, -22.086582 ], [ -57.928638, -22.105821 ], [ -57.927721, -22.117599 ], [ -57.92473, -22.120406 ], [ -57.894046, -22.123629 ], [ -57.867848, -22.132654 ], [ -57.850367, -22.123911 ], [ -57.828564, -22.121907 ], [ -57.81865, -22.137902 ], [ -57.803589, -22.146183 ], [ -57.782213, -22.12671 ], [ -57.769284, -22.126283 ], [ -57.756343, -22.132681 ], [ -57.746033, -22.130982 ], [ -57.740461, -22.124947 ], [ -57.738662, -22.107003 ], [ -57.730195, -22.103729 ], [ -57.718838, -22.107449 ], [ -57.699454, -22.092641 ], [ -57.688875, -22.092756 ], [ -57.656391, -22.106358 ], [ -57.642732, -22.105998 ], [ -57.63093, -22.099711 ], [ -57.617906, -22.096567 ], [ -57.614053, -22.101802 ], [ -57.612399, -22.119747 ], [ -57.605019, -22.125772 ], [ -57.600961, -22.13461 ], [ -57.587944, -22.142241 ], [ -57.588642, -22.157264 ], [ -57.584692, -22.16574 ], [ -57.554249, -22.180486 ], [ -57.541846, -22.180925 ], [ -57.520991, -22.173888 ], [ -57.504934, -22.182799 ], [ -57.478547, -22.186699 ], [ -57.448564, -22.19113 ], [ -57.425884, -22.199247 ], [ -57.408771, -22.199733 ], [ -57.394783, -22.207455 ], [ -57.384495, -22.208231 ], [ -57.379401, -22.222483 ], [ -57.366398, -22.227277 ], [ -57.343799, -22.227316 ], [ -57.318694, -22.232354 ], [ -57.30846, -22.229615 ], [ -57.299619, -22.222499 ], [ -57.289947, -22.220561 ], [ -57.262869, -22.237301 ], [ -57.242798, -22.244018 ], [ -57.233949, -22.243592 ], [ -57.224773, -22.23863 ], [ -57.217164, -22.21921 ], [ -57.212414, -22.216191 ], [ -57.20343, -22.21048 ], [ -57.198442, -22.212452 ], [ -57.19141, -22.225114 ], [ -57.183337, -22.231113 ], [ -57.110194, -22.223753 ], [ -57.10851, -22.226326 ], [ -57.111476, -22.235502 ], [ -57.09959, -22.246798 ], [ -57.091173, -22.241216 ], [ -57.081977, -22.243243 ], [ -57.065203, -22.237248 ], [ -57.049364, -22.240152 ], [ -57.041145, -22.235339 ], [ -57.002664, -22.225532 ], [ -56.986893, -22.241593 ], [ -56.980019, -22.242438 ], [ -56.963808, -22.238348 ], [ -56.946369, -22.250981 ], [ -56.92673, -22.251841 ], [ -56.911813, -22.257383 ], [ -56.902293, -22.24723 ], [ -56.893296, -22.247236 ], [ -56.883526, -22.256671 ], [ -56.882585, -22.272698 ], [ -56.873794, -22.282979 ], [ -56.838464, -22.299616 ], [ -56.830344, -22.299686 ], [ -56.82303, -22.292974 ], [ -56.810905, -22.28897 ], [ -56.811659, -22.260062 ], [ -56.810409, -22.253604 ], [ -56.806182, -22.249251 ], [ -56.798058, -22.24676 ], [ -56.794313, -22.255984 ], [ -56.785415, -22.261366 ], [ -56.772242, -22.250083 ], [ -56.761166, -22.245017 ], [ -56.755848, -22.237493 ], [ -56.748227, -22.239264 ], [ -56.741132, -22.246393 ], [ -56.733, -22.26 ], [ -56.728049, -22.260234 ], [ -56.720417, -22.256045 ], [ -56.708806, -22.23248 ], [ -56.705568, -22.219158 ], [ -56.698014, -22.216866 ], [ -56.690765, -22.220759 ], [ -56.688256, -22.23923 ], [ -56.684713, -22.244047 ], [ -56.643818, -22.260332 ], [ -56.645854, -22.242612 ], [ -56.631705, -22.242528 ], [ -56.618108, -22.23462 ], [ -56.606483, -22.215247 ], [ -56.577459, -22.201149 ], [ -56.566569, -22.192621 ], [ -56.560986, -22.182516 ], [ -56.557717, -22.168227 ], [ -56.545651, -22.163302 ], [ -56.541099, -22.15097 ], [ -56.53383, -22.145962 ], [ -56.528383, -22.136787 ], [ -56.527153, -22.119226 ], [ -56.517464, -22.102273 ], [ -56.5093, -22.09783 ], [ -56.488476, -22.093354 ], [ -56.472956, -22.079836 ], [ -56.448551, -22.082101 ], [ -56.439203, -22.079186 ], [ -56.423205, -22.080282 ], [ -56.404987, -22.077833 ], [ -56.400896, -22.081568 ], [ -56.399242, -22.096703 ], [ -56.380235, -22.131391 ], [ -56.380572, -22.147838 ], [ -56.377862, -22.156259 ], [ -56.368718, -22.167847 ], [ -56.352773, -22.180985 ], [ -56.340716, -22.206156 ], [ -56.330014, -22.212997 ], [ -56.311066, -22.216642 ], [ -56.29211, -22.232436 ], [ -56.260698, -22.235397 ], [ -56.249718, -22.239499 ], [ -56.241698, -22.257282 ], [ -56.207545, -22.280875 ], [ -56.181712, -22.286421 ], [ -56.138328, -22.290255 ], [ -56.1192, -22.282079 ], [ -56.108114, -22.280388 ], [ -56.086988, -22.288873 ], [ -56.061109, -22.292915 ], [ -56.03018, -22.284981 ], [ -56.007441, -22.291882 ], [ -55.989272, -22.282671 ], [ -55.961411, -22.29259 ], [ -55.93439, -22.281412 ], [ -55.922483, -22.280935 ], [ -55.895057, -22.286238 ], [ -55.859126, -22.279942 ], [ -55.853307, -22.282395 ], [ -55.843607, -22.292856 ], [ -55.831557, -22.325217 ], [ -55.80183, -22.358316 ], [ -55.78863, -22.382873 ], [ -55.774374, -22.389156 ], [ -55.746975, -22.389524 ], [ -55.74123, -22.394569 ], [ -55.734065, -22.439639 ], [ -55.737478, -22.461677 ], [ -55.744454, -22.473051 ], [ -55.745807, -22.483942 ], [ -55.741853, -22.51358 ], [ -55.735436, -22.531973 ], [ -55.723902, -22.548034 ], [ -55.701284, -22.563422 ], [ -55.661508, -22.601729 ], [ -55.659729, -22.60269 ], [ -55.629902, -22.618793 ], [ -55.62587, -22.640413 ], [ -55.624064, -22.642928 ], [ -55.613265, -22.657965 ], [ -55.619198, -22.677145 ], [ -55.61305, -22.689699 ], [ -55.616474, -22.701675 ], [ -55.614893, -22.720893 ], [ -55.61851, -22.738214 ], [ -55.626459, -22.755383 ], [ -55.6237, -22.766493 ], [ -55.626792, -22.769412 ], [ -55.638096, -22.768349 ], [ -55.644757, -22.784565 ], [ -55.65399, -22.791204 ], [ -55.658174, -22.810068 ], [ -55.658072, -22.831542 ], [ -55.659729, -22.837504 ], [ -55.666671, -22.862486 ], [ -55.659729, -22.879947 ], [ -55.653041, -22.896764 ], [ -55.649803, -22.935532 ], [ -55.639901, -22.955524 ], [ -55.637835, -22.965679 ], [ -55.62536, -22.982025 ], [ -55.626102, -22.985807 ], [ -55.634677, -22.991981 ], [ -55.635145, -23.00221 ], [ -55.642783, -23.022155 ], [ -55.64011, -23.027327 ], [ -55.625163, -23.037194 ], [ -55.620872, -23.046179 ], [ -55.617963, -23.091649 ], [ -55.598818, -23.12311 ], [ -55.595082, -23.142868 ], [ -55.590231, -23.146347 ], [ -55.565035, -23.148411 ], [ -55.545205, -23.1596 ], [ -55.539871, -23.166046 ], [ -55.537442, -23.179931 ], [ -55.520571, -23.201438 ], [ -55.522201, -23.211419 ], [ -55.531685, -23.221643 ], [ -55.534133, -23.232818 ], [ -55.530105, -23.248179 ], [ -55.521153, -23.262666 ], [ -55.538581, -23.271768 ], [ -55.548891, -23.28858 ], [ -55.548057, -23.318571 ], [ -55.527893, -23.338131 ], [ -55.51507, -23.361006 ], [ -55.504679, -23.369609 ], [ -55.502227, -23.380213 ], [ -55.509044, -23.39322 ], [ -55.513147, -23.409189 ], [ -55.514614, -23.411906 ], [ -55.524309, -23.429851 ], [ -55.536054, -23.444559 ], [ -55.539761, -23.457191 ], [ -55.542902, -23.501971 ], [ -55.53649, -23.537163 ], [ -55.525682, -23.567841 ], [ -55.528135, -23.574676 ], [ -55.53311, -23.58854 ], [ -55.534967, -23.613093 ], [ -55.529241, -23.621564 ], [ -55.512649, -23.620317 ], [ -55.503754, -23.63186 ], [ -55.488723, -23.639265 ], [ -55.476675, -23.645201 ], [ -55.471985, -23.66632 ], [ -55.459603, -23.686337 ], [ -55.46155, -23.708476 ], [ -55.459639, -23.716111 ], [ -55.453481, -23.717571 ], [ -55.440603, -23.710505 ], [ -55.434606, -23.714096 ], [ -55.442392, -23.734677 ], [ -55.432073, -23.780488 ], [ -55.434253, -23.79121 ], [ -55.446655, -23.817484 ], [ -55.444769, -23.823604 ], [ -55.436771, -23.831472 ], [ -55.434289, -23.840381 ], [ -55.436406, -23.851576 ], [ -55.433972, -23.866518 ], [ -55.441233, -23.911286 ], [ -55.430828, -23.921806 ], [ -55.428071, -23.934302 ], [ -55.419171, -23.945842 ], [ -55.412956, -23.959989 ], [ -55.398298, -23.972578 ], [ -55.379521, -23.968531 ], [ -55.373818, -23.977949 ], [ -55.354687, -23.991071 ], [ -55.342158, -23.99306 ], [ -55.334187, -23.989035 ], [ -55.32444, -23.964662 ], [ -55.31346, -23.959768 ], [ -55.258502, -23.990485 ], [ -55.231868, -24.010614 ], [ -55.224572, -24.012409 ], [ -55.2102, -24.008129 ], [ -55.194969, -23.988326 ], [ -55.173465, -23.990008 ], [ -55.159831, -23.985283 ], [ -55.151685, -23.986478 ], [ -55.145741, -23.987351 ], [ -55.137232, -23.980969 ], [ -55.121082, -23.975693 ], [ -55.113013, -23.964004 ], [ -55.08777, -23.983406 ], [ -55.077142, -23.98835 ], [ -55.061281, -23.990895 ], [ -55.053417, -23.98892 ], [ -55.005191, -23.958496 ], [ -54.973574, -23.957684 ], [ -54.950579, -23.96361 ], [ -54.934061, -23.964358 ], [ -54.925005, -23.955883 ], [ -54.918815, -23.935043 ], [ -54.921874, -23.924958 ], [ -54.905135, -23.909512 ], [ -54.894668, -23.909521 ], [ -54.887498, -23.900024 ], [ -54.882127, -23.898504 ], [ -54.863271, -23.906949 ], [ -54.855825, -23.906939 ], [ -54.840145, -23.888458 ], [ -54.812493, -23.884873 ], [ -54.804536, -23.881321 ], [ -54.796513, -23.870947 ], [ -54.787794, -23.86757 ], [ -54.772009, -23.867197 ], [ -54.761322, -23.857804 ], [ -54.739276, -23.866111 ], [ -54.720747, -23.863655 ], [ -54.702801, -23.861276 ], [ -54.699292, -23.857452 ], [ -54.695845, -23.836961 ], [ -54.678041, -23.81813 ], [ -54.668678, -23.815732 ], [ -54.663822, -23.817853 ], [ -54.65541, -23.821528 ], [ -54.640848, -23.837093 ], [ -54.618422, -23.83438 ], [ -54.598679, -23.838832 ], [ -54.575012, -23.849332 ], [ -54.567219, -23.85938 ], [ -54.568384, -23.874726 ], [ -54.563264, -23.878381 ], [ -54.536502, -23.872866 ], [ -54.526916, -23.875483 ], [ -54.513897, -23.886965 ], [ -54.496393, -23.882705 ], [ -54.483183, -23.885272 ], [ -54.460585, -23.904692 ], [ -54.432371, -23.915179 ], [ -54.408888, -23.931139 ], [ -54.39961, -23.94108 ], [ -54.389001, -23.96546 ], [ -54.367942, -23.999673 ], [ -54.345472, -24.008299 ], [ -54.32478, -24.009963 ], [ -54.317078, -24.014521 ], [ -54.317662, -24.029241 ], [ -54.315005, -24.03755 ], [ -54.29818, -24.055751 ], [ -54.284604, -24.070436 ], [ -54.281541, -24.079009 ], [ -54.285415, -24.086694 ], [ -54.29818, -24.098698 ], [ -54.322104, -24.121193 ], [ -54.328657, -24.131422 ], [ -54.331192, -24.150881 ], [ -54.325212, -24.181478 ], [ -54.329975, -24.219919 ], [ -54.328566, -24.234026 ], [ -54.324034, -24.245093 ], [ -54.29818, -24.268388 ], [ -54.289573, -24.276142 ], [ -54.278705, -24.289768 ], [ -54.261508, -24.331003 ], [ -54.260369, -24.365212 ], [ -54.261917, -24.371979 ], [ -54.26305, -24.376926 ], [ -54.277161, -24.405221 ], [ -54.29818, -24.434387 ], [ -54.317139, -24.460688 ], [ -54.333478, -24.494515 ], [ -54.338771, -24.539336 ], [ -54.331354, -24.617378 ], [ -54.335768, -24.648565 ], [ -54.353346, -24.701532 ], [ -54.36772, -24.744828 ], [ -54.405134, -24.835939 ], [ -54.452801, -25.013298 ], [ -54.458015, -25.032683 ], [ -54.464964, -25.070116 ], [ -54.464756, -25.086856 ], [ -54.458361, -25.111078 ], [ -54.437648, -25.145875 ], [ -54.437395, -25.158636 ], [ -54.478176, -25.229145 ], [ -54.497362, -25.281517 ], [ -54.509923, -25.304871 ], [ -54.542911, -25.35129 ], [ -54.578007, -25.390962 ], [ -54.594031, -25.425274 ], [ -54.61608, -25.458456 ], [ -54.602899, -25.510316 ], [ -54.598093, -25.572253 ], [ -54.5941, -25.592273 ] ] ] ] } }
]
}
