{
"type": "FeatureCollection",
"name": "Peru",
"crs": { "type": "name", "properties": { "name": "urn:ogc:def:crs:OGC:1.3:CRS84" } },
"features": [
{ "type": "Feature", "properties": { "id": "PE", "CNTR_ID": "PE", "CNTR_NAME": "Piruw-Piruw-Perú", "NAME_ENGL": "Peru", "ISO3_CODE": "PER", "FID": "PE" }, "geometry": { "type": "MultiPolygon", "coordinates": [ [ [ [ -69.47262, -17.49896 ], [ -69.496549, -17.53296 ], [ -69.504219, -17.539931 ], [ -69.533402, -17.563797 ], [ -69.556502, -17.583536 ], [ -69.61383, -17.623698 ], [ -69.661911, -17.657804 ], [ -69.671078, -17.659766 ], [ -69.682848, -17.660505 ], [ -69.769592, -17.651013 ], [ -69.794595, -17.647928 ], [ -69.799069, -17.650512 ], [ -69.809159, -17.671589 ], [ -69.821273, -17.701068 ], [ -69.814146, -17.713452 ], [ -69.819769, -17.721381 ], [ -69.818868, -17.747427 ], [ -69.815599, -17.757617 ], [ -69.806459, -17.767266 ], [ -69.785261, -17.77511 ], [ -69.780013, -17.77816 ], [ -69.796546, -17.799577 ], [ -69.796103, -17.831613 ], [ -69.792414, -17.869586 ], [ -69.774758, -17.908379 ], [ -69.760213, -17.925546 ], [ -69.746954, -17.939224 ], [ -69.745235, -17.949796 ], [ -69.752593, -17.981677 ], [ -69.755514, -17.991898 ], [ -69.77648, -18.031275 ], [ -69.785185, -18.05176 ], [ -69.791008, -18.067194 ], [ -69.80629, -18.096465 ], [ -69.818948, -18.118625 ], [ -69.836116, -18.139852 ], [ -69.844566, -18.150299 ], [ -69.874173, -18.17728 ], [ -69.915277, -18.209061 ], [ -69.919996, -18.2139 ], [ -69.936364, -18.237368 ], [ -69.948157, -18.248195 ], [ -69.967796, -18.25988 ], [ -69.984569, -18.266453 ], [ -69.994007, -18.267986 ], [ -70.005697, -18.267986 ], [ -70.013563, -18.267987 ], [ -70.022333, -18.267988 ], [ -70.048698, -18.264877 ], [ -70.097058, -18.290166 ], [ -70.114363, -18.298869 ], [ -70.136656, -18.307034 ], [ -70.159339, -18.315807 ], [ -70.17449, -18.319451 ], [ -70.190949, -18.319192 ], [ -70.271128, -18.308905 ], [ -70.286153, -18.306323 ], [ -70.304698, -18.305559 ], [ -70.327741, -18.310626 ], [ -70.340486, -18.316413 ], [ -70.355072, -18.327585 ], [ -70.372736, -18.346977 ], [ -70.37617, -18.353578 ], [ -70.400036, -18.332423 ], [ -70.413107, -18.320836 ], [ -70.484825, -18.271394 ], [ -70.596447, -18.204919 ], [ -70.622742, -18.190669 ], [ -70.682261, -18.158411 ], [ -70.706977, -18.137754 ], [ -70.727132, -18.117209 ], [ -70.733446, -18.105178 ], [ -70.760982, -18.080198 ], [ -70.794402, -18.056174 ], [ -70.809511, -18.049615 ], [ -70.816655, -18.039527 ], [ -70.856375, -18.02551 ], [ -70.884642, -18.009568 ], [ -70.887545, -18.003788 ], [ -70.884606, -17.990744 ], [ -70.891156, -17.970735 ], [ -70.909332, -17.952794 ], [ -70.912306, -17.941299 ], [ -70.922432, -17.935832 ], [ -70.92736, -17.927945 ], [ -70.937094, -17.925207 ], [ -70.944752, -17.914665 ], [ -70.960221, -17.909009 ], [ -70.97685, -17.896022 ], [ -71.00599, -17.879252 ], [ -71.030298, -17.882949 ], [ -71.093603, -17.86752 ], [ -71.108415, -17.842085 ], [ -71.136382, -17.823534 ], [ -71.165403, -17.81016 ], [ -71.186612, -17.780759 ], [ -71.3265, -17.704736 ], [ -71.358039, -17.692929 ], [ -71.363688, -17.695355 ], [ -71.369486, -17.704688 ], [ -71.378593, -17.705605 ], [ -71.370168, -17.680264 ], [ -71.342575, -17.632662 ], [ -71.344728, -17.614585 ], [ -71.3566, -17.590346 ], [ -71.358192, -17.56821 ], [ -71.363842, -17.549615 ], [ -71.362209, -17.537386 ], [ -71.366448, -17.520882 ], [ -71.362144, -17.507465 ], [ -71.363548, -17.491024 ], [ -71.372885, -17.472634 ], [ -71.384643, -17.436645 ], [ -71.386735, -17.408274 ], [ -71.396048, -17.389284 ], [ -71.412624, -17.379286 ], [ -71.423193, -17.367037 ], [ -71.431297, -17.36406 ], [ -71.432766, -17.349709 ], [ -71.439654, -17.33786 ], [ -71.474805, -17.320115 ], [ -71.471999, -17.30411 ], [ -71.47455, -17.296793 ], [ -71.501157, -17.280589 ], [ -71.511351, -17.268877 ], [ -71.528121, -17.267401 ], [ -71.537638, -17.25586 ], [ -71.565334, -17.259361 ], [ -71.572992, -17.25437 ], [ -71.598267, -17.247357 ], [ -71.672337, -17.21905 ], [ -71.688335, -17.212936 ], [ -71.791191, -17.191021 ], [ -71.830164, -17.17632 ], [ -71.8519, -17.163208 ], [ -71.874116, -17.143196 ], [ -71.932758, -17.078963 ], [ -71.961081, -17.059777 ], [ -72.015293, -17.031765 ], [ -72.023879, -17.023279 ], [ -72.043556, -17.017423 ], [ -72.073043, -17.021215 ], [ -72.09044, -17.013071 ], [ -72.109895, -17.014928 ], [ -72.11171, -17.00739 ], [ -72.105889, -16.995587 ], [ -72.120517, -16.979573 ], [ -72.121736, -16.970327 ], [ -72.133567, -16.969342 ], [ -72.137503, -16.965409 ], [ -72.145141, -16.963657 ], [ -72.147453, -16.95822 ], [ -72.16305, -16.948355 ], [ -72.16543, -16.93992 ], [ -72.18065, -16.936143 ], [ -72.185467, -16.926833 ], [ -72.195027, -16.924973 ], [ -72.212773, -16.902998 ], [ -72.22603, -16.897956 ], [ -72.234213, -16.898543 ], [ -72.247149, -16.887045 ], [ -72.263987, -16.884483 ], [ -72.276457, -16.875113 ], [ -72.282608, -16.874733 ], [ -72.288136, -16.879306 ], [ -72.290194, -16.860649 ], [ -72.295823, -16.848255 ], [ -72.292339, -16.837025 ], [ -72.293599, -16.831614 ], [ -72.309928, -16.814781 ], [ -72.314983, -16.804654 ], [ -72.327112, -16.800191 ], [ -72.331906, -16.78943 ], [ -72.344157, -16.779562 ], [ -72.349016, -16.772011 ], [ -72.362994, -16.762323 ], [ -72.37233, -16.760587 ], [ -72.375026, -16.754115 ], [ -72.399593, -16.750472 ], [ -72.406093, -16.73938 ], [ -72.416034, -16.735102 ], [ -72.421442, -16.727115 ], [ -72.436029, -16.717226 ], [ -72.448609, -16.703022 ], [ -72.473034, -16.697152 ], [ -72.605936, -16.665207 ], [ -72.695345, -16.654309 ], [ -72.705139, -16.653115 ], [ -72.727582, -16.647057 ], [ -72.776481, -16.625431 ], [ -72.846164, -16.566701 ], [ -72.883315, -16.542596 ], [ -72.919226, -16.519869 ], [ -72.956043, -16.515679 ], [ -72.985294, -16.516408 ], [ -73.000947, -16.50953 ], [ -73.013065, -16.510043 ], [ -73.027362, -16.503048 ], [ -73.048844, -16.498234 ], [ -73.059081, -16.485432 ], [ -73.070688, -16.479683 ], [ -73.100875, -16.45709 ], [ -73.13245, -16.448728 ], [ -73.148216, -16.437443 ], [ -73.15943, -16.421475 ], [ -73.188201, -16.41432 ], [ -73.206873, -16.402098 ], [ -73.215992, -16.40219 ], [ -73.224104, -16.410983 ], [ -73.229524, -16.412535 ], [ -73.244133, -16.407911 ], [ -73.256402, -16.408246 ], [ -73.267569, -16.40018 ], [ -73.289127, -16.402307 ], [ -73.304485, -16.37703 ], [ -73.302436, -16.352388 ], [ -73.313873, -16.340149 ], [ -73.367504, -16.314823 ], [ -73.390974, -16.308089 ], [ -73.410782, -16.297451 ], [ -73.457146, -16.280379 ], [ -73.484998, -16.281233 ], [ -73.556141, -16.246998 ], [ -73.573059, -16.247297 ], [ -73.620151, -16.23099 ], [ -73.64819, -16.231384 ], [ -73.676648, -16.225243 ], [ -73.699059, -16.236131 ], [ -73.701332, -16.220395 ], [ -73.718466, -16.208064 ], [ -73.730776, -16.194873 ], [ -73.772737, -16.175251 ], [ -73.800463, -16.168079 ], [ -73.829131, -16.156413 ], [ -73.862266, -16.13911 ], [ -73.888411, -16.110891 ], [ -73.912173, -16.09712 ], [ -73.94833, -16.076045 ], [ -73.9603, -16.061837 ], [ -73.976679, -16.052465 ], [ -73.986819, -16.042845 ], [ -74.018173, -16.032606 ], [ -74.030785, -16.015436 ], [ -74.026688, -15.997788 ], [ -74.030111, -15.985139 ], [ -74.044271, -15.963844 ], [ -74.062376, -15.950682 ], [ -74.174237, -15.898017 ], [ -74.241375, -15.877298 ], [ -74.248413, -15.870483 ], [ -74.255113, -15.85416 ], [ -74.277296, -15.840736 ], [ -74.29137, -15.838959 ], [ -74.305162, -15.844153 ], [ -74.314353, -15.843262 ], [ -74.324391, -15.846917 ], [ -74.332091, -15.843118 ], [ -74.351603, -15.840792 ], [ -74.365514, -15.833176 ], [ -74.377245, -15.832961 ], [ -74.398225, -15.826304 ], [ -74.420815, -15.811189 ], [ -74.437977, -15.794369 ], [ -74.460184, -15.755725 ], [ -74.464356, -15.727995 ], [ -74.473839, -15.719501 ], [ -74.503953, -15.706746 ], [ -74.553472, -15.693164 ], [ -74.664956, -15.651012 ], [ -74.682737, -15.64275 ], [ -74.698888, -15.629111 ], [ -74.745903, -15.602583 ], [ -74.803617, -15.57714 ], [ -74.836016, -15.566952 ], [ -74.848829, -15.569093 ], [ -74.849558, -15.558474 ], [ -74.849818, -15.554688 ], [ -74.877749, -15.530499 ], [ -74.915349, -15.510196 ], [ -74.970304, -15.490498 ], [ -74.984653, -15.472358 ], [ -74.997644, -15.464244 ], [ -75.020937, -15.459173 ], [ -75.037013, -15.45917 ], [ -75.055839, -15.453638 ], [ -75.067533, -15.444772 ], [ -75.072959, -15.434056 ], [ -75.082072, -15.425834 ], [ -75.113409, -15.410181 ], [ -75.13831, -15.404708 ], [ -75.146352, -15.395007 ], [ -75.15785, -15.389398 ], [ -75.165248, -15.378535 ], [ -75.189582, -15.366804 ], [ -75.18352, -15.35737 ], [ -75.163439, -15.35665 ], [ -75.156063, -15.352203 ], [ -75.153436, -15.332902 ], [ -75.165316, -15.312506 ], [ -75.192859, -15.294151 ], [ -75.211634, -15.291416 ], [ -75.226132, -15.28467 ], [ -75.243129, -15.262828 ], [ -75.25759, -15.253487 ], [ -75.253357, -15.251819 ], [ -75.229711, -15.25712 ], [ -75.220231, -15.249168 ], [ -75.218192, -15.23168 ], [ -75.233769, -15.202551 ], [ -75.274429, -15.169367 ], [ -75.311225, -15.152602 ], [ -75.326402, -15.149527 ], [ -75.333901, -15.148007 ], [ -75.346323, -15.154258 ], [ -75.357113, -15.143027 ], [ -75.369709, -15.146623 ], [ -75.372076, -15.12953 ], [ -75.390302, -15.101305 ], [ -75.396862, -15.079796 ], [ -75.408621, -15.065357 ], [ -75.415413, -15.042685 ], [ -75.433165, -15.023607 ], [ -75.442408, -15.004275 ], [ -75.48378, -14.979136 ], [ -75.500318, -14.963386 ], [ -75.500562, -14.946472 ], [ -75.494113, -14.934914 ], [ -75.508314, -14.913998 ], [ -75.550439, -14.88155 ], [ -75.679063, -14.818287 ], [ -75.706253, -14.798386 ], [ -75.733201, -14.783334 ], [ -75.76227, -14.761035 ], [ -75.848132, -14.718684 ], [ -75.85191, -14.713976 ], [ -75.851503, -14.703362 ], [ -75.858343, -14.693361 ], [ -75.917298, -14.655848 ], [ -75.925729, -14.640808 ], [ -75.932742, -14.570537 ], [ -75.971392, -14.524016 ], [ -75.966081, -14.50127 ], [ -75.97516, -14.468997 ], [ -75.98795, -14.456918 ], [ -76.035688, -14.425959 ], [ -76.070435, -14.384672 ], [ -76.089716, -14.373023 ], [ -76.122173, -14.359635 ], [ -76.135147, -14.346219 ], [ -76.140439, -14.329987 ], [ -76.113082, -14.327086 ], [ -76.106563, -14.310478 ], [ -76.109244, -14.297484 ], [ -76.126939, -14.267223 ], [ -76.13113, -14.248613 ], [ -76.138935, -14.23429 ], [ -76.151232, -14.222498 ], [ -76.186643, -14.199025 ], [ -76.198185, -14.176378 ], [ -76.213764, -14.168318 ], [ -76.218693, -14.157647 ], [ -76.227342, -14.151949 ], [ -76.249187, -14.150664 ], [ -76.259843, -14.144677 ], [ -76.266825, -14.14456 ], [ -76.265551, -14.151946 ], [ -76.255121, -14.165946 ], [ -76.262464, -14.184143 ], [ -76.270718, -14.193108 ], [ -76.273448, -14.192454 ], [ -76.28767, -14.166592 ], [ -76.281533, -14.15073 ], [ -76.28393, -14.137121 ], [ -76.282211, -14.121035 ], [ -76.287324, -14.092534 ], [ -76.277845, -14.079879 ], [ -76.273917, -14.064923 ], [ -76.263704, -14.055665 ], [ -76.26801, -14.03869 ], [ -76.26457, -14.022402 ], [ -76.2813, -13.998562 ], [ -76.274439, -13.987789 ], [ -76.271404, -13.974311 ], [ -76.275318, -13.951499 ], [ -76.290926, -13.930631 ], [ -76.285147, -13.917857 ], [ -76.28551, -13.911143 ], [ -76.298983, -13.896616 ], [ -76.305298, -13.894338 ], [ -76.312394, -13.897682 ], [ -76.317993, -13.912797 ], [ -76.326056, -13.920196 ], [ -76.341905, -13.917248 ], [ -76.356511, -13.919189 ], [ -76.369568, -13.912503 ], [ -76.390917, -13.907854 ], [ -76.394708, -13.902296 ], [ -76.395727, -13.891387 ], [ -76.385415, -13.846634 ], [ -76.370243, -13.826631 ], [ -76.367857, -13.809138 ], [ -76.359424, -13.803276 ], [ -76.342241, -13.801935 ], [ -76.319821, -13.793994 ], [ -76.297997, -13.795629 ], [ -76.293876, -13.799447 ], [ -76.293369, -13.804351 ], [ -76.302913, -13.824914 ], [ -76.306179, -13.840552 ], [ -76.294743, -13.842465 ], [ -76.265369, -13.861055 ], [ -76.254193, -13.853395 ], [ -76.255001, -13.838627 ], [ -76.250079, -13.828222 ], [ -76.24802, -13.807471 ], [ -76.221669, -13.72103 ], [ -76.21627, -13.68127 ], [ -76.19984, -13.645122 ], [ -76.193961, -13.615435 ], [ -76.187067, -13.551173 ], [ -76.190506, -13.474983 ], [ -76.185999, -13.453453 ], [ -76.190921, -13.427135 ], [ -76.203217, -13.393697 ], [ -76.222439, -13.356155 ], [ -76.258216, -13.304437 ], [ -76.349866, -13.197429 ], [ -76.363662, -13.175611 ], [ -76.38728, -13.149268 ], [ -76.399209, -13.13113 ], [ -76.48508, -13.035448 ], [ -76.484832, -13.015079 ], [ -76.504079, -12.982875 ], [ -76.512384, -12.959813 ], [ -76.507263, -12.942797 ], [ -76.506756, -12.927088 ], [ -76.516614, -12.877242 ], [ -76.517263, -12.860389 ], [ -76.521493, -12.850208 ], [ -76.53739, -12.834415 ], [ -76.556027, -12.821785 ], [ -76.570161, -12.802395 ], [ -76.606536, -12.777804 ], [ -76.631489, -12.746473 ], [ -76.634497, -12.737811 ], [ -76.632786, -12.720175 ], [ -76.653388, -12.6977 ], [ -76.657342, -12.683813 ], [ -76.67018, -12.662116 ], [ -76.67356, -12.629442 ], [ -76.687351, -12.610404 ], [ -76.702183, -12.596055 ], [ -76.710513, -12.575638 ], [ -76.723892, -12.563991 ], [ -76.731029, -12.557777 ], [ -76.742364, -12.543577 ], [ -76.799877, -12.507109 ], [ -76.802237, -12.49587 ], [ -76.800496, -12.479716 ], [ -76.792085, -12.47313 ], [ -76.777282, -12.433148 ], [ -76.77958, -12.395892 ], [ -76.797985, -12.366535 ], [ -76.830953, -12.331923 ], [ -76.840346, -12.31445 ], [ -76.854946, -12.301506 ], [ -76.891373, -12.282513 ], [ -76.946803, -12.244611 ], [ -77.032465, -12.205738 ], [ -77.038166, -12.185329 ], [ -77.035252, -12.170442 ], [ -77.027461, -12.157535 ], [ -77.029037, -12.143209 ], [ -77.064597, -12.104735 ], [ -77.132562, -12.071536 ], [ -77.158536, -12.068751 ], [ -77.144308, -12.046385 ], [ -77.146083, -12.030366 ], [ -77.143781, -12.023051 ], [ -77.138708, -12.006928 ], [ -77.134781, -11.968526 ], [ -77.148873, -11.897236 ], [ -77.167306, -11.855269 ], [ -77.181597, -11.842144 ], [ -77.185301, -11.834947 ], [ -77.179215, -11.807208 ], [ -77.184086, -11.793457 ], [ -77.194604, -11.78168 ], [ -77.195788, -11.773896 ], [ -77.193127, -11.770877 ], [ -77.183039, -11.772663 ], [ -77.175817, -11.769335 ], [ -77.171758, -11.761033 ], [ -77.169507, -11.743089 ], [ -77.182809, -11.715052 ], [ -77.194453, -11.698098 ], [ -77.194685, -11.678492 ], [ -77.209107, -11.648925 ], [ -77.219625, -11.636953 ], [ -77.275176, -11.590689 ], [ -77.272621, -11.578566 ], [ -77.275471, -11.564283 ], [ -77.29343, -11.538748 ], [ -77.303925, -11.515764 ], [ -77.337287, -11.489274 ], [ -77.346793, -11.473174 ], [ -77.361183, -11.460845 ], [ -77.463112, -11.398133 ], [ -77.56764, -11.340801 ], [ -77.640369, -11.306225 ], [ -77.64903, -11.296003 ], [ -77.649573, -11.292512 ], [ -77.643624, -11.286513 ], [ -77.641479, -11.278725 ], [ -77.648192, -11.246066 ], [ -77.643838, -11.220773 ], [ -77.635644, -11.214717 ], [ -77.620992, -11.216159 ], [ -77.602778, -11.211278 ], [ -77.5934, -11.185869 ], [ -77.597174, -11.163346 ], [ -77.616495, -11.129676 ], [ -77.615187, -11.112928 ], [ -77.630423, -11.093643 ], [ -77.630271, -11.084587 ], [ -77.63521, -11.0715 ], [ -77.635491, -11.051485 ], [ -77.658227, -11.015392 ], [ -77.648432, -10.996234 ], [ -77.652779, -10.97925 ], [ -77.661467, -10.961329 ], [ -77.660288, -10.943314 ], [ -77.676642, -10.913939 ], [ -77.70154, -10.882368 ], [ -77.706354, -10.871061 ], [ -77.707314, -10.853607 ], [ -77.723235, -10.836899 ], [ -77.748841, -10.816825 ], [ -77.751321, -10.805028 ], [ -77.746565, -10.792488 ], [ -77.762162, -10.770766 ], [ -77.766189, -10.759897 ], [ -77.800843, -10.727592 ], [ -77.810684, -10.701924 ], [ -77.850188, -10.660936 ], [ -77.881282, -10.61914 ], [ -77.904935, -10.573788 ], [ -77.903078, -10.559747 ], [ -77.909157, -10.544519 ], [ -77.940079, -10.50937 ], [ -77.962579, -10.492193 ], [ -77.965383, -10.470891 ], [ -77.980961, -10.441434 ], [ -78.011693, -10.411348 ], [ -78.011155, -10.40602 ], [ -78.003022, -10.395616 ], [ -78.011412, -10.375709 ], [ -78.04688, -10.348958 ], [ -78.052338, -10.344842 ], [ -78.060288, -10.301047 ], [ -78.085017, -10.275215 ], [ -78.084006, -10.250218 ], [ -78.0888, -10.243271 ], [ -78.089974, -10.229413 ], [ -78.101221, -10.204715 ], [ -78.112915, -10.193962 ], [ -78.123213, -10.178871 ], [ -78.160411, -10.148724 ], [ -78.172742, -10.120068 ], [ -78.18109, -10.110342 ], [ -78.17988, -10.102373 ], [ -78.170319, -10.096912 ], [ -78.167079, -10.09104 ], [ -78.173582, -10.068576 ], [ -78.176273, -10.046396 ], [ -78.193452, -10.016779 ], [ -78.195779, -9.997076 ], [ -78.209308, -9.968835 ], [ -78.229762, -9.950145 ], [ -78.224876, -9.934793 ], [ -78.226319, -9.905959 ], [ -78.241871, -9.866689 ], [ -78.235775, -9.851567 ], [ -78.235312, -9.835254 ], [ -78.227137, -9.815339 ], [ -78.227833, -9.796079 ], [ -78.2453, -9.772275 ], [ -78.269749, -9.755453 ], [ -78.291426, -9.728406 ], [ -78.298475, -9.70122 ], [ -78.30811, -9.687019 ], [ -78.317501, -9.679046 ], [ -78.322922, -9.663629 ], [ -78.334043, -9.653141 ], [ -78.344688, -9.635421 ], [ -78.364046, -9.624706 ], [ -78.363268, -9.611152 ], [ -78.368867, -9.59011 ], [ -78.368418, -9.560958 ], [ -78.385649, -9.53498 ], [ -78.387394, -9.518083 ], [ -78.400904, -9.474407 ], [ -78.394299, -9.462312 ], [ -78.382984, -9.454146 ], [ -78.381901, -9.445183 ], [ -78.391148, -9.431768 ], [ -78.406113, -9.431014 ], [ -78.422306, -9.415524 ], [ -78.430575, -9.387983 ], [ -78.426529, -9.374914 ], [ -78.416061, -9.368674 ], [ -78.414244, -9.364389 ], [ -78.424529, -9.357199 ], [ -78.42924, -9.3425 ], [ -78.462818, -9.319188 ], [ -78.470535, -9.319738 ], [ -78.475382, -9.3278 ], [ -78.479364, -9.328629 ], [ -78.495824, -9.309245 ], [ -78.501744, -9.286733 ], [ -78.521069, -9.273818 ], [ -78.518965, -9.268732 ], [ -78.49838, -9.255691 ], [ -78.492716, -9.248258 ], [ -78.486283, -9.215858 ], [ -78.489634, -9.20114 ], [ -78.497181, -9.190601 ], [ -78.514274, -9.179918 ], [ -78.541497, -9.176211 ], [ -78.555297, -9.179607 ], [ -78.56367, -9.190226 ], [ -78.55552, -9.222702 ], [ -78.559721, -9.228832 ], [ -78.572652, -9.215769 ], [ -78.580947, -9.197006 ], [ -78.593294, -9.190407 ], [ -78.604859, -9.176305 ], [ -78.599673, -9.166078 ], [ -78.578346, -9.168607 ], [ -78.568769, -9.165029 ], [ -78.560728, -9.149401 ], [ -78.560822, -9.12293 ], [ -78.568713, -9.103835 ], [ -78.585329, -9.084534 ], [ -78.61078, -9.076348 ], [ -78.623611, -9.076573 ], [ -78.628315, -9.07253 ], [ -78.63541, -9.042844 ], [ -78.632795, -9.032011 ], [ -78.624337, -9.016762 ], [ -78.63365, -9.006403 ], [ -78.651609, -8.997128 ], [ -78.65543, -8.991722 ], [ -78.647613, -8.98471 ], [ -78.645296, -8.978833 ], [ -78.649009, -8.92357 ], [ -78.65929, -8.904227 ], [ -78.7586, -8.774582 ], [ -78.758522, -8.757699 ], [ -78.744324, -8.739713 ], [ -78.739641, -8.720219 ], [ -78.74499, -8.68593 ], [ -78.739403, -8.663721 ], [ -78.747493, -8.625547 ], [ -78.762262, -8.594483 ], [ -78.778103, -8.570098 ], [ -78.79846, -8.547609 ], [ -78.835616, -8.514968 ], [ -78.912196, -8.461034 ], [ -78.930615, -8.439367 ], [ -78.930635, -8.43085 ], [ -78.91492, -8.427317 ], [ -78.905069, -8.418073 ], [ -78.89726, -8.398915 ], [ -78.897196, -8.383077 ], [ -78.954554, -8.295792 ], [ -78.963375, -8.265118 ], [ -78.98513, -8.23636 ], [ -78.983705, -8.223237 ], [ -78.98903, -8.208991 ], [ -79.03451, -8.163507 ], [ -79.114853, -8.096928 ], [ -79.121485, -8.085815 ], [ -79.123528, -8.070718 ], [ -79.132585, -8.05909 ], [ -79.302965, -7.928328 ], [ -79.315369, -7.908853 ], [ -79.350852, -7.873556 ], [ -79.370452, -7.848846 ], [ -79.391614, -7.790412 ], [ -79.404995, -7.776742 ], [ -79.460659, -7.719871 ], [ -79.459997, -7.711076 ], [ -79.439436, -7.696605 ], [ -79.436137, -7.685053 ], [ -79.439514, -7.669503 ], [ -79.466723, -7.620034 ], [ -79.503204, -7.565486 ], [ -79.537507, -7.524305 ], [ -79.549582, -7.496569 ], [ -79.575433, -7.460975 ], [ -79.586688, -7.419299 ], [ -79.574268, -7.400906 ], [ -79.57134, -7.387182 ], [ -79.587585, -7.34969 ], [ -79.591134, -7.307927 ], [ -79.617518, -7.256005 ], [ -79.687153, -7.17931 ], [ -79.682762, -7.136756 ], [ -79.691878, -7.115034 ], [ -79.74527, -7.052448 ], [ -79.829083, -6.976072 ], [ -79.860005, -6.952658 ], [ -79.872893, -6.924918 ], [ -79.91072, -6.895831 ], [ -79.924568, -6.881041 ], [ -79.931552, -6.867541 ], [ -79.934627, -6.861598 ], [ -79.943548, -6.819194 ], [ -79.956505, -6.7924 ], [ -79.982617, -6.751823 ], [ -80.076742, -6.674592 ], [ -80.177594, -6.606112 ], [ -80.269197, -6.554322 ], [ -80.538142, -6.414299 ], [ -80.704659, -6.332719 ], [ -80.783127, -6.298693 ], [ -80.80426, -6.283084 ], [ -80.84579, -6.242718 ], [ -80.877931, -6.21598 ], [ -80.95557, -6.164321 ], [ -81.089339, -6.082835 ], [ -81.111418, -6.059433 ], [ -81.119734, -6.037839 ], [ -81.140571, -6.004487 ], [ -81.147123, -5.984177 ], [ -81.146713, -5.888968 ], [ -81.130329, -5.865691 ], [ -81.122077, -5.845479 ], [ -81.115896, -5.842408 ], [ -81.104771, -5.841994 ], [ -81.097132, -5.835716 ], [ -81.086968, -5.81685 ], [ -81.07983, -5.792507 ], [ -81.074323, -5.789645 ], [ -81.064548, -5.790673 ], [ -81.056034, -5.797137 ], [ -81.037316, -5.820249 ], [ -81.02409, -5.828336 ], [ -81.006323, -5.833609 ], [ -80.99092, -5.834979 ], [ -80.952929, -5.845434 ], [ -80.941097, -5.844094 ], [ -80.921351, -5.835585 ], [ -80.904014, -5.822899 ], [ -80.891222, -5.807956 ], [ -80.861963, -5.749283 ], [ -80.854046, -5.714452 ], [ -80.85122, -5.657355 ], [ -80.855984, -5.623737 ], [ -80.873984, -5.568781 ], [ -80.899046, -5.509445 ], [ -80.932148, -5.455549 ], [ -80.957856, -5.424895 ], [ -81.04746, -5.336204 ], [ -81.084729, -5.311412 ], [ -81.108389, -5.310935 ], [ -81.137116, -5.266449 ], [ -81.18573, -5.223116 ], [ -81.19167, -5.213646 ], [ -81.189512, -5.198701 ], [ -81.174937, -5.183166 ], [ -81.168621, -5.167192 ], [ -81.169159, -5.154183 ], [ -81.175455, -5.135858 ], [ -81.165844, -5.127367 ], [ -81.161297, -5.119219 ], [ -81.162047, -5.108033 ], [ -81.168607, -5.090256 ], [ -81.16609, -5.081371 ], [ -81.159424, -5.075912 ], [ -81.146088, -5.077234 ], [ -81.131041, -5.07213 ], [ -81.111549, -5.082676 ], [ -81.087689, -5.078051 ], [ -81.074814, -5.067545 ], [ -81.064724, -5.052079 ], [ -81.061573, -5.029292 ], [ -81.067868, -5.00447 ], [ -81.09004, -4.963567 ], [ -81.135813, -4.91475 ], [ -81.178876, -4.853036 ], [ -81.325635, -4.68303 ], [ -81.325281, -4.672349 ], [ -81.315559, -4.666024 ], [ -81.310179, -4.658738 ], [ -81.307823, -4.655547 ], [ -81.296783, -4.622743 ], [ -81.29401, -4.601479 ], [ -81.287744, -4.582813 ], [ -81.276773, -4.568721 ], [ -81.2821, -4.528657 ], [ -81.302301, -4.480539 ], [ -81.296578, -4.460691 ], [ -81.279084, -4.449022 ], [ -81.268632, -4.434535 ], [ -81.253871, -4.39547 ], [ -81.250213, -4.350311 ], [ -81.259307, -4.305997 ], [ -81.253238, -4.276204 ], [ -81.240688, -4.255969 ], [ -81.222061, -4.245717 ], [ -81.202921, -4.227771 ], [ -81.176704, -4.214875 ], [ -81.149142, -4.183478 ], [ -81.128883, -4.172385 ], [ -81.097107, -4.126891 ], [ -81.053388, -4.100301 ], [ -81.011203, -4.040849 ], [ -80.987384, -3.988071 ], [ -80.974141, -3.97615 ], [ -80.962527, -3.959593 ], [ -80.845912, -3.8847 ], [ -80.839589, -3.879199 ], [ -80.837684, -3.877542 ], [ -80.832956, -3.868055 ], [ -80.832092, -3.850833 ], [ -80.82747, -3.833545 ], [ -80.796164, -3.763732 ], [ -80.78642, -3.748754 ], [ -80.772242, -3.738918 ], [ -80.752934, -3.718653 ], [ -80.728488, -3.709043 ], [ -80.684507, -3.680142 ], [ -80.669007, -3.675873 ], [ -80.655967, -3.667668 ], [ -80.632531, -3.663766 ], [ -80.603436, -3.637444 ], [ -80.579013, -3.63137 ], [ -80.562984, -3.613664 ], [ -80.546572, -3.589397 ], [ -80.510233, -3.514677 ], [ -80.499566, -3.504406 ], [ -80.461357, -3.4889 ], [ -80.459542, -3.498483 ], [ -80.453153, -3.495819 ], [ -80.444637, -3.497632 ], [ -80.416447, -3.495047 ], [ -80.415215, -3.498889 ], [ -80.421383, -3.506157 ], [ -80.419753, -3.509084 ], [ -80.391627, -3.499514 ], [ -80.389198, -3.494371 ], [ -80.380102, -3.492343 ], [ -80.369452, -3.479611 ], [ -80.344991, -3.459504 ], [ -80.330572, -3.441187 ], [ -80.307453, -3.400881 ], [ -80.303995, -3.403446 ], [ -80.298332, -3.418319 ], [ -80.282749, -3.429106 ], [ -80.270581, -3.425428 ], [ -80.239552, -3.427309 ], [ -80.219995, -3.440662 ], [ -80.233295, -3.453611 ], [ -80.238326, -3.466576 ], [ -80.232762, -3.487799 ], [ -80.224579, -3.499066 ], [ -80.217459, -3.500536 ], [ -80.21486, -3.504742 ], [ -80.214504, -3.526046 ], [ -80.207303, -3.54889 ], [ -80.215367, -3.574875 ], [ -80.212456, -3.586262 ], [ -80.20837, -3.591705 ], [ -80.196123, -3.595538 ], [ -80.191844, -3.6015 ], [ -80.195872, -3.621591 ], [ -80.186368, -3.639333 ], [ -80.186681, -3.663735 ], [ -80.195549, -3.69237 ], [ -80.192244, -3.710147 ], [ -80.184152, -3.718507 ], [ -80.180924, -3.729161 ], [ -80.181726, -3.742115 ], [ -80.184151, -3.748162 ], [ -80.188859, -3.751113 ], [ -80.189287, -3.771115 ], [ -80.181579, -3.779429 ], [ -80.174441, -3.795056 ], [ -80.166482, -3.798416 ], [ -80.162568, -3.80756 ], [ -80.161211, -3.878565 ], [ -80.159488, -3.8847 ], [ -80.153991, -3.90428 ], [ -80.155349, -3.910526 ], [ -80.163223, -3.920972 ], [ -80.174441, -3.926094 ], [ -80.183528, -3.929432 ], [ -80.196829, -3.943344 ], [ -80.203361, -3.945995 ], [ -80.21282, -3.952712 ], [ -80.231082, -3.950045 ], [ -80.234778, -3.951795 ], [ -80.237707, -3.962827 ], [ -80.248183, -3.974538 ], [ -80.250817, -3.987456 ], [ -80.258126, -3.998884 ], [ -80.268654, -4.009407 ], [ -80.270752, -4.009867 ], [ -80.287515, -4.01733 ], [ -80.314225, -4.011751 ], [ -80.326613, -3.99903 ], [ -80.339278, -3.996707 ], [ -80.362917, -3.984249 ], [ -80.398245, -3.984734 ], [ -80.429972, -3.992269 ], [ -80.438833, -3.99864 ], [ -80.439462, -4.011965 ], [ -80.446259, -4.021153 ], [ -80.448789, -4.030566 ], [ -80.461951, -4.038172 ], [ -80.475264, -4.054967 ], [ -80.46887, -4.073944 ], [ -80.479269, -4.079509 ], [ -80.480849, -4.083434 ], [ -80.475308, -4.096356 ], [ -80.462688, -4.108707 ], [ -80.459884, -4.126131 ], [ -80.444734, -4.122496 ], [ -80.445612, -4.154881 ], [ -80.442595, -4.194332 ], [ -80.422031, -4.195855 ], [ -80.40534, -4.21173 ], [ -80.38802, -4.20225 ], [ -80.376471, -4.20223 ], [ -80.367255, -4.197607 ], [ -80.35202, -4.21137 ], [ -80.337213, -4.203529 ], [ -80.322845, -4.202838 ], [ -80.312609, -4.195748 ], [ -80.305691, -4.199751 ], [ -80.311886, -4.210041 ], [ -80.332167, -4.229382 ], [ -80.349545, -4.251908 ], [ -80.354091, -4.262058 ], [ -80.362406, -4.268499 ], [ -80.368088, -4.282588 ], [ -80.383996, -4.29389 ], [ -80.414197, -4.322805 ], [ -80.42406, -4.349704 ], [ -80.442795, -4.370398 ], [ -80.446407, -4.405732 ], [ -80.44233, -4.437823 ], [ -80.417243, -4.46163 ], [ -80.41185, -4.45743 ], [ -80.40789, -4.45814 ], [ -80.395436, -4.469744 ], [ -80.388211, -4.482172 ], [ -80.38274, -4.482649 ], [ -80.372195, -4.477123 ], [ -80.358293, -4.479327 ], [ -80.348321, -4.472529 ], [ -80.335152, -4.469625 ], [ -80.31664, -4.448537 ], [ -80.305738, -4.445866 ], [ -80.297193, -4.436374 ], [ -80.287333, -4.434491 ], [ -80.284196, -4.42914 ], [ -80.284959, -4.418116 ], [ -80.276577, -4.40525 ], [ -80.270752, -4.401885 ], [ -80.260402, -4.406241 ], [ -80.256208, -4.405287 ], [ -80.251844, -4.399318 ], [ -80.245681, -4.397311 ], [ -80.225642, -4.370016 ], [ -80.218316, -4.371846 ], [ -80.213423, -4.349306 ], [ -80.205516, -4.350451 ], [ -80.199546, -4.345375 ], [ -80.192173, -4.344713 ], [ -80.190614, -4.338588 ], [ -80.181192, -4.336782 ], [ -80.180775, -4.315573 ], [ -80.174441, -4.303878 ], [ -80.169803, -4.295312 ], [ -80.164885, -4.294151 ], [ -80.159595, -4.301513 ], [ -80.155092, -4.302733 ], [ -80.13596, -4.286277 ], [ -80.131457, -4.29669 ], [ -80.11954, -4.294634 ], [ -80.109021, -4.297805 ], [ -80.100539, -4.294317 ], [ -80.074047, -4.305143 ], [ -80.060447, -4.306854 ], [ -80.049022, -4.326665 ], [ -80.041085, -4.331368 ], [ -80.026811, -4.34864 ], [ -80.015136, -4.35412 ], [ -80.004224, -4.36783 ], [ -79.990904, -4.375835 ], [ -79.974548, -4.376735 ], [ -79.960136, -4.391391 ], [ -79.935815, -4.393501 ], [ -79.931552, -4.391312 ], [ -79.914581, -4.382599 ], [ -79.893192, -4.394966 ], [ -79.867943, -4.410998 ], [ -79.859216, -4.41996 ], [ -79.853486, -4.428923 ], [ -79.851771, -4.44423 ], [ -79.848032, -4.451567 ], [ -79.813824, -4.483294 ], [ -79.810533, -4.486347 ], [ -79.762073, -4.485161 ], [ -79.758573, -4.483294 ], [ -79.752347, -4.479974 ], [ -79.738868, -4.479035 ], [ -79.718136, -4.468493 ], [ -79.702869, -4.468185 ], [ -79.688781, -4.460519 ], [ -79.679938, -4.450385 ], [ -79.652078, -4.434818 ], [ -79.639938, -4.4326 ], [ -79.615483, -4.441518 ], [ -79.607206, -4.453051 ], [ -79.598953, -4.455504 ], [ -79.588399, -4.474506 ], [ -79.579938, -4.483294 ], [ -79.578161, -4.48514 ], [ -79.576219, -4.494267 ], [ -79.569107, -4.497561 ], [ -79.557284, -4.510517 ], [ -79.548704, -4.509341 ], [ -79.543878, -4.512065 ], [ -79.540553, -4.526532 ], [ -79.518761, -4.522425 ], [ -79.507233, -4.513947 ], [ -79.489486, -4.521793 ], [ -79.482279, -4.528765 ], [ -79.472481, -4.558008 ], [ -79.474269, -4.567128 ], [ -79.486992, -4.580837 ], [ -79.479554, -4.619404 ], [ -79.461569, -4.643068 ], [ -79.458958, -4.646504 ], [ -79.457283, -4.658738 ], [ -79.451214, -4.703071 ], [ -79.425554, -4.74142 ], [ -79.415581, -4.798871 ], [ -79.404995, -4.811502 ], [ -79.387274, -4.832646 ], [ -79.369509, -4.832815 ], [ -79.357902, -4.839721 ], [ -79.349944, -4.870567 ], [ -79.341934, -4.88427 ], [ -79.320028, -4.887185 ], [ -79.298211, -4.900128 ], [ -79.292986, -4.918857 ], [ -79.258701, -4.967108 ], [ -79.173744, -4.960902 ], [ -79.140605, -4.962538 ], [ -79.105112, -4.974736 ], [ -79.071146, -4.970335 ], [ -79.066894, -4.972175 ], [ -79.06533, -4.983991 ], [ -79.044058, -4.987298 ], [ -79.035889, -4.997906 ], [ -79.017094, -4.985164 ], [ -79.000838, -4.979728 ], [ -78.992952, -4.972565 ], [ -78.986802, -4.960337 ], [ -78.978057, -4.918364 ], [ -78.962968, -4.885273 ], [ -78.94071, -4.854279 ], [ -78.913216, -4.825548 ], [ -78.918965, -4.80304 ], [ -78.918284, -4.795465 ], [ -78.884251, -4.725371 ], [ -78.86559, -4.701682 ], [ -78.837732, -4.680645 ], [ -78.791302, -4.663122 ], [ -78.751033, -4.658738 ], [ -78.732802, -4.650313 ], [ -78.676152, -4.585526 ], [ -78.647236, -4.543053 ], [ -78.619014, -4.491801 ], [ -78.610935, -4.466816 ], [ -78.609398, -4.446618 ], [ -78.612739, -4.42179 ], [ -78.628146, -4.371592 ], [ -78.630684, -4.347273 ], [ -78.626483, -4.316544 ], [ -78.614599, -4.290794 ], [ -78.579647, -4.264727 ], [ -78.571725, -4.253685 ], [ -78.568671, -4.234931 ], [ -78.575049, -4.158763 ], [ -78.570751, -4.129246 ], [ -78.5501, -4.066238 ], [ -78.523186, -4.009555 ], [ -78.498311, -3.948066 ], [ -78.473682, -3.9071 ], [ -78.399899, -3.823858 ], [ -78.376569, -3.784953 ], [ -78.365472, -3.749607 ], [ -78.350544, -3.677636 ], [ -78.34753, -3.644313 ], [ -78.34833, -3.547499 ], [ -78.336858, -3.465215 ], [ -78.327929, -3.441827 ], [ -78.313913, -3.424776 ], [ -78.297981, -3.414331 ], [ -78.281615, -3.411455 ], [ -78.26553, -3.415668 ], [ -78.249447, -3.428874 ], [ -78.243192, -3.441037 ], [ -78.240884, -3.454548 ], [ -78.24341, -3.514806 ], [ -78.240447, -3.525058 ], [ -78.234108, -3.53191 ], [ -78.225215, -3.535138 ], [ -78.215913, -3.534105 ], [ -78.198658, -3.516966 ], [ -78.190217, -3.512951 ], [ -78.180445, -3.514999 ], [ -78.158697, -3.526129 ], [ -78.140226, -3.523611 ], [ -78.124363, -3.505428 ], [ -78.121727, -3.491405 ], [ -78.123116, -3.480823 ], [ -78.131219, -3.46626 ], [ -78.175702, -3.412229 ], [ -78.189828, -3.390048 ], [ -78.194951, -3.373661 ], [ -78.190362, -3.35717 ], [ -78.172663, -3.339462 ], [ -78.139956, -3.317375 ], [ -78.108623, -3.282833 ], [ -78.097524, -3.2624 ], [ -78.093764, -3.231607 ], [ -78.08919, -3.220877 ], [ -78.080371, -3.218669 ], [ -78.063883, -3.223333 ], [ -78.056421, -3.220304 ], [ -78.018903, -3.163484 ], [ -77.994952, -3.134407 ], [ -77.83613, -3.005325 ], [ -77.758976, -2.972649 ], [ -77.099184, -2.753582 ], [ -76.897236, -2.684084 ], [ -76.646213, -2.597691 ], [ -76.633835, -2.593431 ], [ -76.072126, -2.151361 ], [ -76.043757, -2.126523 ], [ -76.035108, -2.115524 ], [ -75.61937, -1.586703 ], [ -75.57775, -1.548886 ], [ -75.560772, -1.543808 ], [ -75.548455, -1.544069 ], [ -75.53855, -1.535985 ], [ -75.425397, -1.155014 ], [ -75.364972, -0.958097 ], [ -75.359843, -0.948727 ], [ -75.353029, -0.944815 ], [ -75.34473, -0.94754 ], [ -75.320408, -0.970432 ], [ -75.301272, -0.979753 ], [ -75.279804, -0.979941 ], [ -75.25705, -0.972134 ], [ -75.198706, -0.975939 ], [ -75.189922, -0.975307 ], [ -75.185659, -0.971087 ], [ -75.197263, -0.958017 ], [ -75.216217, -0.945707 ], [ -75.226329, -0.931843 ], [ -75.225785, -0.916114 ], [ -75.216229, -0.898429 ], [ -75.215147, -0.869878 ], [ -75.220218, -0.853365 ], [ -75.241451, -0.824871 ], [ -75.235894, -0.802192 ], [ -75.237559, -0.794863 ], [ -75.242067, -0.788043 ], [ -75.260395, -0.777298 ], [ -75.25157, -0.752898 ], [ -75.273806, -0.730793 ], [ -75.27979, -0.712162 ], [ -75.27933, -0.704546 ], [ -75.275024, -0.69746 ], [ -75.258245, -0.681642 ], [ -75.277727, -0.662068 ], [ -75.280996, -0.653841 ], [ -75.280083, -0.64756 ], [ -75.273485, -0.641233 ], [ -75.268979, -0.630138 ], [ -75.25932, -0.626061 ], [ -75.244863, -0.62595 ], [ -75.244167, -0.616107 ], [ -75.235334, -0.60851 ], [ -75.244967, -0.59493 ], [ -75.243012, -0.587339 ], [ -75.250482, -0.584908 ], [ -75.252682, -0.580423 ], [ -75.253511, -0.564958 ], [ -75.244301, -0.553801 ], [ -75.244972, -0.536237 ], [ -75.260551, -0.527959 ], [ -75.260243, -0.517517 ], [ -75.268066, -0.504048 ], [ -75.272499, -0.505013 ], [ -75.28172, -0.515037 ], [ -75.285886, -0.515342 ], [ -75.294301, -0.491876 ], [ -75.300908, -0.483642 ], [ -75.306602, -0.48219 ], [ -75.313243, -0.490153 ], [ -75.317385, -0.491119 ], [ -75.323495, -0.483953 ], [ -75.336345, -0.480266 ], [ -75.336524, -0.462972 ], [ -75.341039, -0.455353 ], [ -75.348274, -0.450839 ], [ -75.351804, -0.442434 ], [ -75.357514, -0.442811 ], [ -75.364648, -0.450319 ], [ -75.37451, -0.451786 ], [ -75.382087, -0.435802 ], [ -75.397511, -0.435358 ], [ -75.413548, -0.424149 ], [ -75.424407, -0.385106 ], [ -75.449091, -0.329335 ], [ -75.471595, -0.324958 ], [ -75.50052, -0.333804 ], [ -75.535462, -0.326357 ], [ -75.560772, -0.306589 ], [ -75.618453, -0.265878 ], [ -75.625834, -0.249412 ], [ -75.620641, -0.109694 ], [ -75.61498, -0.108139 ], [ -75.600245, -0.116382 ], [ -75.577926, -0.115528 ], [ -75.560772, -0.123539 ], [ -75.557302, -0.124039 ], [ -75.546963, -0.122455 ], [ -75.543137, -0.117798 ], [ -75.537046, -0.116489 ], [ -75.53412, -0.111368 ], [ -75.523033, -0.113648 ], [ -75.511192, -0.110664 ], [ -75.498467, -0.116758 ], [ -75.478644, -0.118979 ], [ -75.465678, -0.128301 ], [ -75.457515, -0.138545 ], [ -75.436128, -0.136798 ], [ -75.412055, -0.148188 ], [ -75.387748, -0.148396 ], [ -75.375572, -0.141649 ], [ -75.370724, -0.125232 ], [ -75.364107, -0.127027 ], [ -75.36301, -0.138368 ], [ -75.359495, -0.141049 ], [ -75.349309, -0.136104 ], [ -75.327504, -0.134466 ], [ -75.316612, -0.125475 ], [ -75.308378, -0.133178 ], [ -75.304455, -0.133068 ], [ -75.291817, -0.108777 ], [ -75.2882, -0.093691 ], [ -75.270542, -0.083727 ], [ -75.252526, -0.066259 ], [ -75.24781, -0.058025 ], [ -75.241308, -0.031132 ], [ -75.234447, -0.021472 ], [ -75.220335, -0.0154 ], [ -75.206229, -0.013404 ], [ -75.16582, -0.033115 ], [ -75.141781, -0.037677 ], [ -75.12367, -0.035642 ], [ -75.114301, -0.039243 ], [ -75.068989, -0.071602 ], [ -75.041131, -0.087844 ], [ -75.020443, -0.099907 ], [ -75.005843, -0.113195 ], [ -74.981969, -0.144679 ], [ -74.965188, -0.161711 ], [ -74.957095, -0.166559 ], [ -74.935544, -0.169185 ], [ -74.918225, -0.187866 ], [ -74.907228, -0.193703 ], [ -74.885534, -0.19336 ], [ -74.875239, -0.187599 ], [ -74.854564, -0.164409 ], [ -74.840241, -0.142334 ], [ -74.830449, -0.1424 ], [ -74.813986, -0.151948 ], [ -74.804422, -0.162556 ], [ -74.797912, -0.181092 ], [ -74.781009, -0.212725 ], [ -74.775621, -0.250518 ], [ -74.777384, -0.265108 ], [ -74.785772, -0.274319 ], [ -74.797848, -0.280952 ], [ -74.800441, -0.286704 ], [ -74.799124, -0.291139 ], [ -74.760603, -0.306347 ], [ -74.730845, -0.306868 ], [ -74.704152, -0.328927 ], [ -74.660806, -0.331403 ], [ -74.647099, -0.348963 ], [ -74.632004, -0.361612 ], [ -74.622822, -0.365669 ], [ -74.604782, -0.365595 ], [ -74.60216, -0.372201 ], [ -74.606839, -0.386017 ], [ -74.605439, -0.391341 ], [ -74.599114, -0.395395 ], [ -74.581319, -0.396739 ], [ -74.574317, -0.400926 ], [ -74.566708, -0.421853 ], [ -74.5501, -0.433484 ], [ -74.533281, -0.463735 ], [ -74.52082, -0.478219 ], [ -74.515148, -0.480017 ], [ -74.497523, -0.473146 ], [ -74.494231, -0.477315 ], [ -74.495321, -0.490801 ], [ -74.493335, -0.494339 ], [ -74.478784, -0.48638 ], [ -74.442204, -0.506058 ], [ -74.42634, -0.510584 ], [ -74.421733, -0.516291 ], [ -74.423289, -0.537029 ], [ -74.421776, -0.55903 ], [ -74.418925, -0.564705 ], [ -74.411552, -0.566034 ], [ -74.399837, -0.554128 ], [ -74.392899, -0.556088 ], [ -74.38855, -0.570848 ], [ -74.387857, -0.60159 ], [ -74.368286, -0.627723 ], [ -74.364357, -0.637625 ], [ -74.371953, -0.66237 ], [ -74.371556, -0.669312 ], [ -74.36585, -0.676764 ], [ -74.348091, -0.687685 ], [ -74.341519, -0.699947 ], [ -74.3463, -0.716715 ], [ -74.35489, -0.725659 ], [ -74.375047, -0.732285 ], [ -74.377557, -0.74552 ], [ -74.34939, -0.773614 ], [ -74.317603, -0.774518 ], [ -74.31503, -0.781276 ], [ -74.318636, -0.802265 ], [ -74.31477, -0.808324 ], [ -74.307136, -0.811348 ], [ -74.296799, -0.798656 ], [ -74.290175, -0.796303 ], [ -74.285628, -0.797951 ], [ -74.283764, -0.804805 ], [ -74.291793, -0.833451 ], [ -74.285649, -0.845772 ], [ -74.279093, -0.847207 ], [ -74.26095, -0.84219 ], [ -74.257564, -0.844753 ], [ -74.25852, -0.853287 ], [ -74.267873, -0.869725 ], [ -74.268315, -0.891638 ], [ -74.270785, -0.898003 ], [ -74.27716, -0.898997 ], [ -74.290922, -0.888733 ], [ -74.303876, -0.884575 ], [ -74.313657, -0.889435 ], [ -74.317308, -0.899286 ], [ -74.3157, -0.909166 ], [ -74.310909, -0.915002 ], [ -74.288393, -0.918301 ], [ -74.279544, -0.924229 ], [ -74.275602, -0.930783 ], [ -74.27115, -0.952359 ], [ -74.264201, -0.96935 ], [ -74.266498, -0.975771 ], [ -74.275689, -0.983022 ], [ -74.278856, -0.989931 ], [ -74.271213, -1.002312 ], [ -74.22271, -1.031281 ], [ -74.206562, -1.030486 ], [ -74.188885, -1.029906 ], [ -74.158482, -1.036367 ], [ -74.12634, -1.058167 ], [ -74.074128, -1.08026 ], [ -74.060565, -1.076024 ], [ -74.056436, -1.074734 ], [ -74.048717, -1.039446 ], [ -74.042602, -1.030182 ], [ -74.034284, -1.029278 ], [ -74.027488, -1.043056 ], [ -74.027434, -1.083674 ], [ -74.012719, -1.121459 ], [ -74.004979, -1.126764 ], [ -73.993486, -1.128476 ], [ -73.974416, -1.110746 ], [ -73.964035, -1.106128 ], [ -73.958167, -1.116633 ], [ -73.969877, -1.13872 ], [ -73.965783, -1.145547 ], [ -73.947779, -1.150876 ], [ -73.922324, -1.140139 ], [ -73.906244, -1.148835 ], [ -73.901397, -1.156797 ], [ -73.895574, -1.189117 ], [ -73.875532, -1.222421 ], [ -73.871444, -1.237901 ], [ -73.862217, -1.248659 ], [ -73.831636, -1.251715 ], [ -73.8106, -1.265822 ], [ -73.790759, -1.261312 ], [ -73.783702, -1.273311 ], [ -73.773822, -1.275768 ], [ -73.76692, -1.272584 ], [ -73.761875, -1.265341 ], [ -73.754568, -1.226026 ], [ -73.748819, -1.221545 ], [ -73.745338, -1.22519 ], [ -73.740679, -1.25643 ], [ -73.73061, -1.267036 ], [ -73.707096, -1.269917 ], [ -73.682639, -1.258712 ], [ -73.649089, -1.286783 ], [ -73.641678, -1.286344 ], [ -73.631831, -1.280088 ], [ -73.625325, -1.282634 ], [ -73.621909, -1.294453 ], [ -73.623039, -1.315875 ], [ -73.616142, -1.340599 ], [ -73.609887, -1.346597 ], [ -73.596489, -1.349076 ], [ -73.580954, -1.341137 ], [ -73.575472, -1.341985 ], [ -73.579381, -1.378043 ], [ -73.558937, -1.408824 ], [ -73.553419, -1.424598 ], [ -73.553267, -1.432746 ], [ -73.557624, -1.43807 ], [ -73.58037, -1.439827 ], [ -73.584042, -1.445921 ], [ -73.569508, -1.453156 ], [ -73.538187, -1.455294 ], [ -73.532759, -1.478306 ], [ -73.525472, -1.494598 ], [ -73.515652, -1.503223 ], [ -73.495034, -1.510952 ], [ -73.490366, -1.516832 ], [ -73.495221, -1.537517 ], [ -73.48459, -1.549765 ], [ -73.482389, -1.557589 ], [ -73.492, -1.583847 ], [ -73.490717, -1.596602 ], [ -73.481056, -1.602294 ], [ -73.465551, -1.59738 ], [ -73.459957, -1.603083 ], [ -73.462985, -1.617228 ], [ -73.495909, -1.646788 ], [ -73.503964, -1.657884 ], [ -73.5156, -1.692431 ], [ -73.532133, -1.718679 ], [ -73.531501, -1.733156 ], [ -73.523226, -1.743288 ], [ -73.500246, -1.761445 ], [ -73.486214, -1.766408 ], [ -73.463061, -1.767077 ], [ -73.438415, -1.784906 ], [ -73.420826, -1.819196 ], [ -73.411651, -1.819803 ], [ -73.394916, -1.809588 ], [ -73.384639, -1.808083 ], [ -73.328854, -1.834195 ], [ -73.314471, -1.853712 ], [ -73.299424, -1.853668 ], [ -73.297939, -1.842083 ], [ -73.304924, -1.818168 ], [ -73.30135, -1.810226 ], [ -73.293342, -1.804387 ], [ -73.279092, -1.808589 ], [ -73.249751, -1.805147 ], [ -73.245262, -1.813222 ], [ -73.250688, -1.828942 ], [ -73.242331, -1.830088 ], [ -73.234344, -1.825229 ], [ -73.22806, -1.810957 ], [ -73.232473, -1.785371 ], [ -73.228107, -1.778546 ], [ -73.219579, -1.774874 ], [ -73.213278, -1.778346 ], [ -73.193846, -1.808511 ], [ -73.183183, -1.818937 ], [ -73.172227, -1.82607 ], [ -73.152734, -1.82858 ], [ -73.143746, -1.833994 ], [ -73.139939, -1.848766 ], [ -73.141153, -1.89325 ], [ -73.130053, -1.901815 ], [ -73.107425, -1.905791 ], [ -73.100546, -1.924389 ], [ -73.105148, -1.955603 ], [ -73.104064, -1.98546 ], [ -73.112657, -2.03187 ], [ -73.11082, -2.043028 ], [ -73.105878, -2.051796 ], [ -73.092188, -2.058321 ], [ -73.086521, -2.065546 ], [ -73.0869, -2.079165 ], [ -73.095457, -2.100152 ], [ -73.095368, -2.110028 ], [ -73.086969, -2.115524 ], [ -73.084417, -2.117194 ], [ -73.063829, -2.117246 ], [ -73.05946, -2.126751 ], [ -73.065341, -2.142628 ], [ -73.100311, -2.168434 ], [ -73.112932, -2.207639 ], [ -73.121597, -2.223238 ], [ -73.128769, -2.226961 ], [ -73.144658, -2.226953 ], [ -73.153466, -2.234584 ], [ -73.155582, -2.245526 ], [ -73.151956, -2.275159 ], [ -73.140863, -2.297623 ], [ -73.128277, -2.308537 ], [ -73.110897, -2.331273 ], [ -73.112533, -2.352986 ], [ -73.110523, -2.360176 ], [ -73.10402, -2.363873 ], [ -73.092821, -2.364878 ], [ -73.068787, -2.353068 ], [ -73.060875, -2.353118 ], [ -73.056284, -2.360219 ], [ -73.054807, -2.388714 ], [ -73.045805, -2.397797 ], [ -73.03961, -2.398397 ], [ -73.035552, -2.395465 ], [ -73.027346, -2.362596 ], [ -73.018122, -2.355117 ], [ -73.012742, -2.357453 ], [ -73.006065, -2.378298 ], [ -72.99163, -2.394714 ], [ -72.983646, -2.394858 ], [ -72.968535, -2.384478 ], [ -72.960991, -2.384529 ], [ -72.945252, -2.41685 ], [ -72.937564, -2.443178 ], [ -72.92074, -2.457228 ], [ -72.915879, -2.4646 ], [ -72.915974, -2.473906 ], [ -72.923572, -2.490621 ], [ -72.920666, -2.498738 ], [ -72.904689, -2.494215 ], [ -72.878267, -2.477986 ], [ -72.855948, -2.479052 ], [ -72.843241, -2.47611 ], [ -72.820084, -2.460223 ], [ -72.800885, -2.453616 ], [ -72.788647, -2.446153 ], [ -72.772652, -2.423991 ], [ -72.766706, -2.420467 ], [ -72.760954, -2.42086 ], [ -72.753174, -2.426018 ], [ -72.741178, -2.454946 ], [ -72.730758, -2.457123 ], [ -72.723681, -2.450523 ], [ -72.719045, -2.425481 ], [ -72.707035, -2.416803 ], [ -72.692319, -2.425066 ], [ -72.680816, -2.440264 ], [ -72.677306, -2.454004 ], [ -72.681527, -2.477938 ], [ -72.677558, -2.484081 ], [ -72.670913, -2.484819 ], [ -72.656441, -2.471925 ], [ -72.646062, -2.444086 ], [ -72.626736, -2.427478 ], [ -72.624688, -2.418331 ], [ -72.626453, -2.399995 ], [ -72.613362, -2.395691 ], [ -72.587864, -2.397635 ], [ -72.557275, -2.424998 ], [ -72.519786, -2.432343 ], [ -72.441971, -2.431633 ], [ -72.423088, -2.438832 ], [ -72.409552, -2.440542 ], [ -72.398803, -2.434615 ], [ -72.390454, -2.420295 ], [ -72.384446, -2.417163 ], [ -72.376631, -2.431179 ], [ -72.363066, -2.446219 ], [ -72.353463, -2.482292 ], [ -72.344617, -2.489498 ], [ -72.281284, -2.47601 ], [ -72.259756, -2.45775 ], [ -72.243651, -2.458995 ], [ -72.239708, -2.453036 ], [ -72.239832, -2.438922 ], [ -72.225083, -2.433956 ], [ -72.184582, -2.443705 ], [ -72.175693, -2.440733 ], [ -72.162014, -2.429299 ], [ -72.154665, -2.428622 ], [ -72.14534, -2.437751 ], [ -72.144849, -2.456125 ], [ -72.141867, -2.46505 ], [ -72.136746, -2.468539 ], [ -72.12856, -2.468223 ], [ -72.122078, -2.463348 ], [ -72.117735, -2.454251 ], [ -72.115226, -2.425154 ], [ -72.109019, -2.412337 ], [ -72.091673, -2.393373 ], [ -72.065011, -2.372153 ], [ -72.033831, -2.331625 ], [ -72.020351, -2.333531 ], [ -71.983669, -2.362996 ], [ -71.972644, -2.36464 ], [ -71.932548, -2.353241 ], [ -71.926115, -2.356947 ], [ -71.915348, -2.372435 ], [ -71.906871, -2.371394 ], [ -71.903431, -2.359983 ], [ -71.919167, -2.325902 ], [ -71.918269, -2.312373 ], [ -71.905121, -2.30478 ], [ -71.877507, -2.308834 ], [ -71.863816, -2.302162 ], [ -71.852332, -2.279316 ], [ -71.841488, -2.238252 ], [ -71.8223, -2.188783 ], [ -71.813759, -2.186214 ], [ -71.800246, -2.193491 ], [ -71.794133, -2.193542 ], [ -71.774715, -2.173517 ], [ -71.749263, -2.161936 ], [ -71.742935, -2.154866 ], [ -71.734911, -2.136636 ], [ -71.721186, -2.129327 ], [ -71.70994, -2.135874 ], [ -71.705906, -2.150081 ], [ -71.705713, -2.16318 ], [ -71.715624, -2.200713 ], [ -71.711449, -2.209928 ], [ -71.70036, -2.216695 ], [ -71.691625, -2.216268 ], [ -71.661138, -2.196621 ], [ -71.629414, -2.191338 ], [ -71.615958, -2.197521 ], [ -71.591891, -2.216262 ], [ -71.575678, -2.223937 ], [ -71.522672, -2.238264 ], [ -71.50688, -2.239822 ], [ -71.499122, -2.253068 ], [ -71.500275, -2.29609 ], [ -71.496642, -2.315434 ], [ -71.492589, -2.324709 ], [ -71.482663, -2.335776 ], [ -71.472087, -2.335665 ], [ -71.46289, -2.325115 ], [ -71.472087, -2.303026 ], [ -71.476978, -2.291279 ], [ -71.475859, -2.272619 ], [ -71.472087, -2.269776 ], [ -71.464304, -2.263913 ], [ -71.45178, -2.260804 ], [ -71.444819, -2.263325 ], [ -71.422392, -2.288093 ], [ -71.411757, -2.306715 ], [ -71.390499, -2.330747 ], [ -71.377124, -2.345866 ], [ -71.377033, -2.356208 ], [ -71.385515, -2.382125 ], [ -71.381689, -2.393803 ], [ -71.372737, -2.397777 ], [ -71.36536, -2.397041 ], [ -71.339276, -2.37912 ], [ -71.30459, -2.37467 ], [ -71.29781, -2.366581 ], [ -71.290598, -2.347076 ], [ -71.278455, -2.338162 ], [ -71.264812, -2.338386 ], [ -71.239798, -2.349024 ], [ -71.220846, -2.342385 ], [ -71.211485, -2.342219 ], [ -71.20301, -2.347585 ], [ -71.184586, -2.368668 ], [ -71.17394, -2.37397 ], [ -71.164136, -2.374211 ], [ -71.157751, -2.367575 ], [ -71.152525, -2.345525 ], [ -71.148615, -2.339754 ], [ -71.136221, -2.336474 ], [ -71.121346, -2.339548 ], [ -71.115553, -2.335186 ], [ -71.115, -2.325459 ], [ -71.12666, -2.300728 ], [ -71.12092, -2.288168 ], [ -71.114202, -2.283429 ], [ -71.081305, -2.274416 ], [ -71.062177, -2.266003 ], [ -71.04861, -2.264094 ], [ -71.027022, -2.268676 ], [ -70.996147, -2.294933 ], [ -70.985511, -2.296208 ], [ -70.97914, -2.289627 ], [ -70.978978, -2.280335 ], [ -71.002895, -2.227716 ], [ -71.000258, -2.217478 ], [ -70.990891, -2.205673 ], [ -70.959802, -2.208948 ], [ -70.951094, -2.217779 ], [ -70.941136, -2.236055 ], [ -70.925255, -2.245059 ], [ -70.913488, -2.243761 ], [ -70.902712, -2.238664 ], [ -70.888969, -2.223084 ], [ -70.879628, -2.21678 ], [ -70.856616, -2.218037 ], [ -70.847973, -2.221879 ], [ -70.842081, -2.229245 ], [ -70.827667, -2.274198 ], [ -70.819782, -2.283683 ], [ -70.799573, -2.290642 ], [ -70.765843, -2.28789 ], [ -70.755928, -2.297043 ], [ -70.746284, -2.314214 ], [ -70.737638, -2.323156 ], [ -70.718567, -2.331724 ], [ -70.675231, -2.340771 ], [ -70.65978, -2.350746 ], [ -70.6564, -2.36536 ], [ -70.667172, -2.389222 ], [ -70.666783, -2.397902 ], [ -70.658403, -2.407658 ], [ -70.647591, -2.41038 ], [ -70.638476, -2.408145 ], [ -70.625089, -2.399362 ], [ -70.621334, -2.400147 ], [ -70.619491, -2.412118 ], [ -70.627929, -2.45545 ], [ -70.625856, -2.463954 ], [ -70.614973, -2.476239 ], [ -70.597216, -2.482854 ], [ -70.581759, -2.483394 ], [ -70.551308, -2.46892 ], [ -70.550958, -2.460048 ], [ -70.557015, -2.449175 ], [ -70.582365, -2.427542 ], [ -70.57663, -2.418786 ], [ -70.560932, -2.416043 ], [ -70.550106, -2.419227 ], [ -70.539215, -2.426513 ], [ -70.521097, -2.453143 ], [ -70.505196, -2.465591 ], [ -70.488918, -2.468449 ], [ -70.46966, -2.455858 ], [ -70.461463, -2.457116 ], [ -70.444532, -2.480856 ], [ -70.436055, -2.509383 ], [ -70.419075, -2.523786 ], [ -70.409501, -2.52214 ], [ -70.386581, -2.503933 ], [ -70.366764, -2.494258 ], [ -70.352493, -2.494086 ], [ -70.3234, -2.501002 ], [ -70.306998, -2.499676 ], [ -70.29883, -2.512 ], [ -70.300901, -2.525153 ], [ -70.312841, -2.533686 ], [ -70.334747, -2.535886 ], [ -70.350665, -2.542227 ], [ -70.356534, -2.553379 ], [ -70.348578, -2.567525 ], [ -70.334347, -2.574927 ], [ -70.314721, -2.574775 ], [ -70.291672, -2.562612 ], [ -70.270883, -2.544838 ], [ -70.255533, -2.544167 ], [ -70.247274, -2.547234 ], [ -70.23251, -2.564965 ], [ -70.224265, -2.624138 ], [ -70.214121, -2.64769 ], [ -70.206383, -2.652547 ], [ -70.198272, -2.652351 ], [ -70.190806, -2.646689 ], [ -70.182032, -2.631457 ], [ -70.169575, -2.633658 ], [ -70.164017, -2.640526 ], [ -70.159598, -2.655989 ], [ -70.162996, -2.680751 ], [ -70.161583, -2.691959 ], [ -70.153069, -2.702621 ], [ -70.139198, -2.704718 ], [ -70.119971, -2.694644 ], [ -70.110653, -2.678026 ], [ -70.103124, -2.651609 ], [ -70.099063, -2.646847 ], [ -70.091422, -2.646305 ], [ -70.077769, -2.660363 ], [ -70.072192, -2.67206 ], [ -70.072178, -2.710907 ], [ -70.068698, -2.730818 ], [ -70.052603, -2.742498 ], [ -70.035546, -2.743597 ], [ -70.036647, -2.764625 ], [ -70.702305, -3.793441 ], [ -70.691649, -3.793117 ], [ -70.677995, -3.796986 ], [ -70.664243, -3.809265 ], [ -70.651454, -3.827794 ], [ -70.628937, -3.830778 ], [ -70.613559, -3.842544 ], [ -70.590791, -3.833877 ], [ -70.578314, -3.832972 ], [ -70.566479, -3.836968 ], [ -70.539135, -3.86744 ], [ -70.521604, -3.878793 ], [ -70.485719, -3.884227 ], [ -70.462357, -3.879615 ], [ -70.432311, -3.86231 ], [ -70.405729, -3.85232 ], [ -70.372872, -3.816888 ], [ -70.358025, -3.806988 ], [ -70.345774, -3.804433 ], [ -70.319453, -3.804782 ], [ -70.295776, -3.812818 ], [ -70.242811, -3.870349 ], [ -70.220231, -3.881272 ], [ -70.187009, -3.891818 ], [ -70.168774, -3.946009 ], [ -70.151721, -3.984811 ], [ -70.133258, -4.008943 ], [ -70.109511, -4.018523 ], [ -70.090813, -4.032283 ], [ -70.033078, -4.127957 ], [ -69.964928, -4.20495 ], [ -69.95342, -4.23049 ], [ -69.950671, -4.245322 ], [ -69.953222, -4.259303 ], [ -69.970933, -4.284752 ], [ -69.987416, -4.315212 ], [ -69.991364, -4.348693 ], [ -70.00689, -4.36038 ], [ -70.031019, -4.366984 ], [ -70.040132, -4.363701 ], [ -70.042233, -4.356126 ], [ -70.038286, -4.341374 ], [ -70.041279, -4.32876 ], [ -70.050167, -4.322207 ], [ -70.066861, -4.318704 ], [ -70.07278, -4.309661 ], [ -70.069253, -4.30348 ], [ -70.048095, -4.29253 ], [ -70.044907, -4.287166 ], [ -70.087095, -4.280179 ], [ -70.09557, -4.261773 ], [ -70.10314, -4.25688 ], [ -70.107435, -4.259043 ], [ -70.112557, -4.271544 ], [ -70.118647, -4.276539 ], [ -70.150015, -4.2677 ], [ -70.160689, -4.268294 ], [ -70.16728, -4.271833 ], [ -70.169171, -4.279969 ], [ -70.159504, -4.294831 ], [ -70.157726, -4.303904 ], [ -70.16195, -4.307998 ], [ -70.176815, -4.310036 ], [ -70.176465, -4.34412 ], [ -70.18172, -4.352546 ], [ -70.18858, -4.355032 ], [ -70.19466, -4.351813 ], [ -70.199332, -4.344317 ], [ -70.203883, -4.319722 ], [ -70.210085, -4.303378 ], [ -70.227507, -4.311677 ], [ -70.247678, -4.30634 ], [ -70.258182, -4.298796 ], [ -70.258116, -4.290726 ], [ -70.246345, -4.279455 ], [ -70.247801, -4.270572 ], [ -70.256218, -4.270293 ], [ -70.279519, -4.28358 ], [ -70.286788, -4.283122 ], [ -70.28378, -4.2697 ], [ -70.300328, -4.257463 ], [ -70.304666, -4.248717 ], [ -70.301442, -4.242163 ], [ -70.285567, -4.232857 ], [ -70.279675, -4.224245 ], [ -70.287133, -4.168762 ], [ -70.293512, -4.15615 ], [ -70.316581, -4.139245 ], [ -70.321447, -4.139259 ], [ -70.32518, -4.143516 ], [ -70.330191, -4.167735 ], [ -70.339314, -4.171659 ], [ -70.351494, -4.163631 ], [ -70.362992, -4.139439 ], [ -70.370181, -4.131828 ], [ -70.396877, -4.131686 ], [ -70.418859, -4.126057 ], [ -70.430712, -4.126148 ], [ -70.43942, -4.134151 ], [ -70.435454, -4.147989 ], [ -70.436765, -4.153737 ], [ -70.452429, -4.153505 ], [ -70.466052, -4.166913 ], [ -70.477488, -4.154615 ], [ -70.484388, -4.153734 ], [ -70.49112, -4.162408 ], [ -70.496006, -4.181903 ], [ -70.504494, -4.187114 ], [ -70.509405, -4.181672 ], [ -70.504643, -4.156689 ], [ -70.510208, -4.138093 ], [ -70.519733, -4.13254 ], [ -70.534998, -4.136123 ], [ -70.549217, -4.130608 ], [ -70.550598, -4.13452 ], [ -70.545314, -4.146046 ], [ -70.553812, -4.16046 ], [ -70.552934, -4.179428 ], [ -70.555546, -4.193489 ], [ -70.565822, -4.202698 ], [ -70.570335, -4.198968 ], [ -70.564721, -4.178515 ], [ -70.567388, -4.170294 ], [ -70.588552, -4.179213 ], [ -70.613621, -4.184752 ], [ -70.627821, -4.175925 ], [ -70.629953, -4.157612 ], [ -70.617512, -4.127099 ], [ -70.623285, -4.122283 ], [ -70.63753, -4.122427 ], [ -70.647078, -4.128636 ], [ -70.65196, -4.151239 ], [ -70.661155, -4.140418 ], [ -70.66573, -4.13975 ], [ -70.669148, -4.180467 ], [ -70.677698, -4.196722 ], [ -70.683947, -4.195389 ], [ -70.695672, -4.182266 ], [ -70.725535, -4.17741 ], [ -70.743333, -4.156114 ], [ -70.755279, -4.153664 ], [ -70.76372, -4.157707 ], [ -70.781498, -4.175264 ], [ -70.799745, -4.179679 ], [ -70.822034, -4.203726 ], [ -70.839284, -4.213003 ], [ -70.842059, -4.217843 ], [ -70.840324, -4.220968 ], [ -70.824816, -4.214856 ], [ -70.816388, -4.217499 ], [ -70.816537, -4.224563 ], [ -70.823316, -4.237819 ], [ -70.833743, -4.245026 ], [ -70.850993, -4.241638 ], [ -70.858862, -4.244863 ], [ -70.859856, -4.253502 ], [ -70.848041, -4.264918 ], [ -70.846879, -4.272364 ], [ -70.871069, -4.288053 ], [ -70.87464, -4.29609 ], [ -70.876293, -4.314699 ], [ -70.895371, -4.323051 ], [ -70.91014, -4.348719 ], [ -70.929493, -4.353561 ], [ -70.931635, -4.373661 ], [ -70.934783, -4.37792 ], [ -70.964815, -4.371825 ], [ -70.976245, -4.351344 ], [ -70.988463, -4.342633 ], [ -70.993182, -4.347447 ], [ -70.985181, -4.362272 ], [ -70.987752, -4.373969 ], [ -70.996498, -4.378555 ], [ -71.016505, -4.379826 ], [ -71.032418, -4.394776 ], [ -71.041746, -4.390184 ], [ -71.043222, -4.3744 ], [ -71.04642, -4.369685 ], [ -71.052084, -4.372718 ], [ -71.060207, -4.385032 ], [ -71.069836, -4.389076 ], [ -71.076583, -4.385794 ], [ -71.076092, -4.376318 ], [ -71.079778, -4.371513 ], [ -71.089677, -4.370811 ], [ -71.100496, -4.373852 ], [ -71.10604, -4.39481 ], [ -71.11265, -4.401485 ], [ -71.121231, -4.397217 ], [ -71.133952, -4.379358 ], [ -71.143263, -4.376533 ], [ -71.146604, -4.379051 ], [ -71.151397, -4.394785 ], [ -71.161218, -4.387453 ], [ -71.179941, -4.391896 ], [ -71.184948, -4.410329 ], [ -71.19242, -4.416628 ], [ -71.196724, -4.413327 ], [ -71.199914, -4.405068 ], [ -71.198271, -4.384461 ], [ -71.202279, -4.377842 ], [ -71.212419, -4.379397 ], [ -71.219065, -4.395955 ], [ -71.227693, -4.38233 ], [ -71.244007, -4.384428 ], [ -71.268364, -4.382718 ], [ -71.27402, -4.385485 ], [ -71.275138, -4.388981 ], [ -71.27418, -4.39227 ], [ -71.263877, -4.396848 ], [ -71.262995, -4.417582 ], [ -71.268831, -4.428438 ], [ -71.277219, -4.433872 ], [ -71.286482, -4.433717 ], [ -71.303902, -4.41614 ], [ -71.31142, -4.415638 ], [ -71.312594, -4.424482 ], [ -71.300303, -4.441668 ], [ -71.302187, -4.452465 ], [ -71.307514, -4.453342 ], [ -71.316661, -4.439226 ], [ -71.331668, -4.438082 ], [ -71.338439, -4.444273 ], [ -71.340566, -4.462944 ], [ -71.346039, -4.467379 ], [ -71.354496, -4.464423 ], [ -71.358005, -4.453472 ], [ -71.353827, -4.443825 ], [ -71.342536, -4.43096 ], [ -71.344905, -4.42544 ], [ -71.361739, -4.428101 ], [ -71.36536, -4.427308 ], [ -71.379171, -4.424281 ], [ -71.389, -4.425349 ], [ -71.390499, -4.427334 ], [ -71.39962, -4.439419 ], [ -71.425087, -4.46364 ], [ -71.427521, -4.447667 ], [ -71.418911, -4.436633 ], [ -71.422135, -4.431243 ], [ -71.432376, -4.429069 ], [ -71.436566, -4.438195 ], [ -71.442871, -4.441441 ], [ -71.454327, -4.431229 ], [ -71.472087, -4.430902 ], [ -71.477062, -4.444089 ], [ -71.481764, -4.44805 ], [ -71.501378, -4.438218 ], [ -71.504131, -4.439683 ], [ -71.504741, -4.445624 ], [ -71.49233, -4.467265 ], [ -71.49368, -4.476482 ], [ -71.50094, -4.475475 ], [ -71.518629, -4.462389 ], [ -71.531895, -4.462048 ], [ -71.537082, -4.475909 ], [ -71.55066, -4.478545 ], [ -71.571572, -4.50839 ], [ -71.597769, -4.522437 ], [ -71.612843, -4.520317 ], [ -71.625933, -4.508052 ], [ -71.611129, -4.480853 ], [ -71.610289, -4.472786 ], [ -71.61418, -4.468865 ], [ -71.62016, -4.472733 ], [ -71.627752, -4.487473 ], [ -71.638354, -4.494572 ], [ -71.643722, -4.490532 ], [ -71.64652, -4.476253 ], [ -71.652242, -4.473025 ], [ -71.654537, -4.49125 ], [ -71.66406, -4.499158 ], [ -71.683832, -4.495725 ], [ -71.707647, -4.50193 ], [ -71.729375, -4.49084 ], [ -71.742109, -4.474162 ], [ -71.747294, -4.486221 ], [ -71.75769, -4.495535 ], [ -71.776605, -4.481433 ], [ -71.781502, -4.490867 ], [ -71.791244, -4.484098 ], [ -71.804411, -4.496934 ], [ -71.822561, -4.494747 ], [ -71.826495, -4.505229 ], [ -71.844432, -4.5069 ], [ -71.858022, -4.517861 ], [ -71.874909, -4.513149 ], [ -71.892549, -4.513286 ], [ -71.893667, -4.516259 ], [ -71.885728, -4.521865 ], [ -71.883863, -4.52723 ], [ -71.898162, -4.525668 ], [ -71.904917, -4.527819 ], [ -71.902123, -4.538543 ], [ -71.912621, -4.540725 ], [ -71.915483, -4.555641 ], [ -71.936873, -4.576106 ], [ -71.937234, -4.591902 ], [ -71.941763, -4.603265 ], [ -71.960496, -4.608022 ], [ -71.980283, -4.606205 ], [ -71.982193, -4.609544 ], [ -71.977848, -4.615992 ], [ -71.978117, -4.620588 ], [ -71.995662, -4.627172 ], [ -72.009659, -4.625387 ], [ -72.024836, -4.616801 ], [ -72.043962, -4.627449 ], [ -72.055651, -4.666187 ], [ -72.068905, -4.668973 ], [ -72.077048, -4.673806 ], [ -72.09641, -4.692457 ], [ -72.114975, -4.719897 ], [ -72.125406, -4.721426 ], [ -72.147564, -4.718986 ], [ -72.15967, -4.730988 ], [ -72.186043, -4.743623 ], [ -72.200667, -4.757569 ], [ -72.214675, -4.760791 ], [ -72.219815, -4.773087 ], [ -72.224926, -4.777543 ], [ -72.235981, -4.776691 ], [ -72.247365, -4.768409 ], [ -72.252937, -4.780216 ], [ -72.259427, -4.784478 ], [ -72.27399, -4.773461 ], [ -72.31027, -4.772452 ], [ -72.310688, -4.780891 ], [ -72.299105, -4.789852 ], [ -72.297413, -4.794437 ], [ -72.313411, -4.798776 ], [ -72.332135, -4.796114 ], [ -72.352601, -4.805311 ], [ -72.357983, -4.822049 ], [ -72.3693, -4.841574 ], [ -72.368889, -4.862865 ], [ -72.375048, -4.88185 ], [ -72.395441, -4.895208 ], [ -72.408381, -4.894758 ], [ -72.413707, -4.906022 ], [ -72.422337, -4.912993 ], [ -72.432333, -4.913797 ], [ -72.449833, -4.90939 ], [ -72.451324, -4.915671 ], [ -72.44689, -4.935828 ], [ -72.456693, -4.957603 ], [ -72.499126, -4.956198 ], [ -72.502784, -4.960269 ], [ -72.503965, -4.973715 ], [ -72.507597, -4.978481 ], [ -72.526824, -4.975614 ], [ -72.547346, -4.995314 ], [ -72.55847, -4.999307 ], [ -72.571054, -4.994307 ], [ -72.576994, -4.995465 ], [ -72.592605, -5.02131 ], [ -72.593469, -5.041177 ], [ -72.603799, -5.052464 ], [ -72.621285, -5.060723 ], [ -72.632267, -5.053805 ], [ -72.647013, -5.055798 ], [ -72.658756, -5.061934 ], [ -72.673371, -5.050912 ], [ -72.728428, -5.045291 ], [ -72.745372, -5.069006 ], [ -72.772517, -5.078094 ], [ -72.787796, -5.078952 ], [ -72.78763, -5.083289 ], [ -72.781523, -5.088966 ], [ -72.782664, -5.091714 ], [ -72.795474, -5.092384 ], [ -72.822513, -5.08716 ], [ -72.825816, -5.092875 ], [ -72.827238, -5.109998 ], [ -72.831199, -5.116974 ], [ -72.856875, -5.118053 ], [ -72.893101, -5.138575 ], [ -72.89462, -5.146312 ], [ -72.890966, -5.155632 ], [ -72.874502, -5.170097 ], [ -72.868612, -5.182288 ], [ -72.871612, -5.217114 ], [ -72.879721, -5.233381 ], [ -72.874612, -5.251304 ], [ -72.906427, -5.310439 ], [ -72.899269, -5.339784 ], [ -72.922821, -5.375914 ], [ -72.936955, -5.429521 ], [ -72.945665, -5.451021 ], [ -72.944643, -5.46871 ], [ -72.948977, -5.493808 ], [ -72.934793, -5.529562 ], [ -72.952956, -5.592926 ], [ -72.949924, -5.617641 ], [ -72.951541, -5.637736 ], [ -72.962821, -5.652782 ], [ -72.964223, -5.664961 ], [ -72.970917, -5.676645 ], [ -72.971365, -5.692558 ], [ -72.97799, -5.707833 ], [ -73.007788, -5.737772 ], [ -73.031505, -5.784512 ], [ -73.049907, -5.796115 ], [ -73.05685, -5.810847 ], [ -73.072243, -5.819292 ], [ -73.076435, -5.840586 ], [ -73.08213, -5.850231 ], [ -73.112962, -5.866203 ], [ -73.113493, -5.881199 ], [ -73.119136, -5.894818 ], [ -73.120263, -5.914346 ], [ -73.131544, -5.939864 ], [ -73.132506, -5.985383 ], [ -73.182141, -6.039368 ], [ -73.177837, -6.055704 ], [ -73.177073, -6.083661 ], [ -73.178252, -6.106236 ], [ -73.185464, -6.13428 ], [ -73.180146, -6.164715 ], [ -73.157255, -6.205077 ], [ -73.156786, -6.231697 ], [ -73.141674, -6.28866 ], [ -73.143391, -6.324834 ], [ -73.138461, -6.368427 ], [ -73.126615, -6.394083 ], [ -73.134304, -6.420782 ], [ -73.152401, -6.452975 ], [ -73.163932, -6.482256 ], [ -73.172462, -6.490272 ], [ -73.185084, -6.492203 ], [ -73.195121, -6.504433 ], [ -73.207952, -6.509828 ], [ -73.214417, -6.528049 ], [ -73.232917, -6.524844 ], [ -73.248379, -6.533478 ], [ -73.286681, -6.544631 ], [ -73.300309, -6.545893 ], [ -73.327606, -6.557973 ], [ -73.350715, -6.563055 ], [ -73.365986, -6.576335 ], [ -73.373759, -6.591642 ], [ -73.385818, -6.605587 ], [ -73.40659, -6.617319 ], [ -73.426202, -6.624334 ], [ -73.436404, -6.637877 ], [ -73.45788, -6.648053 ], [ -73.481554, -6.668126 ], [ -73.50855, -6.69827 ], [ -73.533933, -6.704415 ], [ -73.571127, -6.722067 ], [ -73.615076, -6.773086 ], [ -73.639961, -6.789523 ], [ -73.651382, -6.802351 ], [ -73.667321, -6.811461 ], [ -73.682304, -6.840977 ], [ -73.715899, -6.864687 ], [ -73.737715, -6.891479 ], [ -73.744298, -6.907241 ], [ -73.743388, -6.933217 ], [ -73.754434, -6.956872 ], [ -73.761776, -6.98442 ], [ -73.760106, -7.0514 ], [ -73.786992, -7.09344 ], [ -73.793833, -7.112685 ], [ -73.758998, -7.15136 ], [ -73.739599, -7.196017 ], [ -73.710534, -7.231409 ], [ -73.70322, -7.271001 ], [ -73.690778, -7.29923 ], [ -73.691774, -7.310809 ], [ -73.706835, -7.32655 ], [ -73.73305, -7.33802 ], [ -73.768687, -7.335122 ], [ -73.827943, -7.343161 ], [ -73.840015, -7.350695 ], [ -73.858049, -7.370473 ], [ -73.868766, -7.375335 ], [ -73.883569, -7.374216 ], [ -73.912815, -7.362063 ], [ -73.952224, -7.351201 ], [ -73.953815, -7.360455 ], [ -73.950144, -7.373544 ], [ -73.919274, -7.435201 ], [ -73.917839, -7.45877 ], [ -73.943541, -7.516751 ], [ -73.955755, -7.524999 ], [ -73.977923, -7.52886 ], [ -73.984396, -7.539425 ], [ -73.975585, -7.559627 ], [ -73.956398, -7.57371 ], [ -73.935288, -7.597171 ], [ -73.909714, -7.618645 ], [ -73.877275, -7.656735 ], [ -73.840977, -7.689482 ], [ -73.819068, -7.716858 ], [ -73.718621, -7.762931 ], [ -73.69514, -7.78283 ], [ -73.68622, -7.805433 ], [ -73.685295, -7.820776 ], [ -73.690168, -7.8506 ], [ -73.697242, -7.864188 ], [ -73.709911, -7.872888 ], [ -73.723355, -7.875498 ], [ -73.739424, -7.874511 ], [ -73.765088, -7.865014 ], [ -73.775383, -7.870064 ], [ -73.776484, -7.884618 ], [ -73.764875, -7.93673 ], [ -73.742508, -7.958307 ], [ -73.692407, -7.977709 ], [ -73.680956, -7.989685 ], [ -73.672581, -8.00602 ], [ -73.646464, -8.014 ], [ -73.631327, -8.026148 ], [ -73.619181, -8.070681 ], [ -73.59076, -8.118638 ], [ -73.582364, -8.164707 ], [ -73.583026, -8.200225 ], [ -73.578859, -8.219279 ], [ -73.568847, -8.234663 ], [ -73.541544, -8.259515 ], [ -73.536238, -8.267949 ], [ -73.529342, -8.349959 ], [ -73.523688, -8.369084 ], [ -73.463383, -8.401457 ], [ -73.417331, -8.416081 ], [ -73.405701, -8.43093 ], [ -73.393721, -8.459303 ], [ -73.385137, -8.468169 ], [ -73.375618, -8.471246 ], [ -73.354324, -8.469146 ], [ -73.338419, -8.476801 ], [ -73.331907, -8.487308 ], [ -73.328842, -8.501711 ], [ -73.331087, -8.526461 ], [ -73.343094, -8.583848 ], [ -73.341725, -8.599711 ], [ -73.337324, -8.608655 ], [ -73.329117, -8.61631 ], [ -73.301881, -8.631011 ], [ -73.285026, -8.663457 ], [ -73.256711, -8.686089 ], [ -73.243692, -8.69028 ], [ -73.184739, -8.696313 ], [ -73.167495, -8.704064 ], [ -73.151905, -8.724218 ], [ -73.107704, -8.817176 ], [ -73.076812, -8.854521 ], [ -73.058043, -8.903578 ], [ -73.042466, -8.916266 ], [ -73.010966, -8.923233 ], [ -72.994155, -8.930787 ], [ -72.981996, -8.946734 ], [ -72.970631, -8.977118 ], [ -72.949109, -8.989953 ], [ -72.953115, -9.020433 ], [ -72.945437, -9.061649 ], [ -72.948141, -9.100559 ], [ -72.956931, -9.135545 ], [ -72.967359, -9.155341 ], [ -72.979901, -9.163955 ], [ -73.011042, -9.174222 ], [ -73.012954, -9.182057 ], [ -73.010342, -9.206027 ], [ -73.019847, -9.225567 ], [ -73.028503, -9.231578 ], [ -73.060756, -9.237886 ], [ -73.072746, -9.244119 ], [ -73.098121, -9.28485 ], [ -73.116037, -9.32282 ], [ -73.140873, -9.345862 ], [ -73.170787, -9.365462 ], [ -73.180996, -9.375345 ], [ -73.19195, -9.399559 ], [ -73.194184, -9.415981 ], [ -72.727076, -9.417429 ], [ -72.708911, -9.429284 ], [ -72.691715, -9.436054 ], [ -72.646045, -9.442132 ], [ -72.621927, -9.438443 ], [ -72.593581, -9.445711 ], [ -72.55676, -9.461391 ], [ -72.522653, -9.480826 ], [ -72.455063, -9.481083 ], [ -72.432524, -9.47587 ], [ -72.362705, -9.492734 ], [ -72.325395, -9.532362 ], [ -72.316498, -9.535116 ], [ -72.298683, -9.531148 ], [ -72.288722, -9.538621 ], [ -72.28707, -9.553123 ], [ -72.292316, -9.59053 ], [ -72.290558, -9.604498 ], [ -72.284279, -9.613664 ], [ -72.262774, -9.629373 ], [ -72.24846, -9.661676 ], [ -72.251686, -9.695097 ], [ -72.26186, -9.738778 ], [ -72.257902, -9.756983 ], [ -72.243309, -9.768897 ], [ -72.179625, -9.796142 ], [ -72.167303, -9.807243 ], [ -72.160208, -9.818804 ], [ -72.15717, -9.831374 ], [ -72.156571, -9.8561 ], [ -72.146749, -9.885047 ], [ -72.149847, -9.899351 ], [ -72.164979, -9.928644 ], [ -72.160032, -9.958161 ], [ -72.164072, -9.981284 ], [ -72.160346, -10.001535 ], [ -71.390499, -10.000523 ], [ -71.36536, -10.00049 ], [ -71.355482, -9.994716 ], [ -71.338333, -9.976427 ], [ -71.306759, -9.995646 ], [ -71.28997, -9.996255 ], [ -71.260642, -9.974338 ], [ -71.196393, -9.951713 ], [ -71.181069, -9.941511 ], [ -71.170376, -9.925302 ], [ -71.152834, -9.886013 ], [ -71.129498, -9.860918 ], [ -71.093614, -9.850008 ], [ -71.077744, -9.838534 ], [ -71.043489, -9.82099 ], [ -71.022525, -9.823645 ], [ -70.984405, -9.814355 ], [ -70.977995, -9.805344 ], [ -70.972218, -9.78435 ], [ -70.965872, -9.775121 ], [ -70.948823, -9.756937 ], [ -70.92669, -9.743014 ], [ -70.903381, -9.723628 ], [ -70.88164, -9.685158 ], [ -70.874409, -9.677374 ], [ -70.831094, -9.649038 ], [ -70.812384, -9.646156 ], [ -70.79389, -9.636696 ], [ -70.762452, -9.601771 ], [ -70.746714, -9.571513 ], [ -70.72701, -9.563738 ], [ -70.700881, -9.546064 ], [ -70.663497, -9.529066 ], [ -70.650741, -9.515026 ], [ -70.63105, -9.48276 ], [ -70.59343, -9.448452 ], [ -70.568694, -9.439128 ], [ -70.534628, -9.438043 ], [ -70.508922, -9.431968 ], [ -70.500029, -9.431928 ], [ -70.496992, -9.434444 ], [ -70.502618, -9.444895 ], [ -70.524697, -9.464864 ], [ -70.523, -9.474054 ], [ -70.52545, -9.480895 ], [ -70.51563, -9.486212 ], [ -70.515908, -9.489787 ], [ -70.527061, -9.503456 ], [ -70.539368, -9.499093 ], [ -70.546417, -9.501159 ], [ -70.549327, -9.507462 ], [ -70.541093, -9.514843 ], [ -70.541465, -9.520453 ], [ -70.57011, -9.530823 ], [ -70.565275, -9.541812 ], [ -70.565748, -9.550298 ], [ -70.559502, -9.572416 ], [ -70.560807, -9.577844 ], [ -70.568538, -9.580209 ], [ -70.59343, -9.570575 ], [ -70.597439, -9.574477 ], [ -70.59343, -9.583281 ], [ -70.58551, -9.599634 ], [ -70.590262, -9.616027 ], [ -70.585291, -9.632849 ], [ -70.557615, -9.667569 ], [ -70.533602, -9.68313 ], [ -70.520321, -9.728507 ], [ -70.523674, -9.740236 ], [ -70.542275, -9.759248 ], [ -70.555374, -9.783578 ], [ -70.559857, -9.785421 ], [ -70.5787, -9.78204 ], [ -70.59343, -9.794604 ], [ -70.61309, -9.821195 ], [ -70.62189, -9.850447 ], [ -70.621593, -10.348958 ], [ -70.621378, -10.710089 ], [ -70.61883, -10.747651 ], [ -70.619936, -10.982873 ], [ -70.617496, -11.005751 ], [ -70.59343, -10.9871 ], [ -70.533326, -10.942386 ], [ -70.523309, -10.938772 ], [ -70.508535, -10.940003 ], [ -70.497429, -10.946708 ], [ -70.462046, -10.983997 ], [ -70.451398, -10.997433 ], [ -70.439139, -11.021608 ], [ -70.430617, -11.030553 ], [ -70.409311, -11.033819 ], [ -70.386615, -11.044315 ], [ -70.363956, -11.049476 ], [ -70.333241, -11.066436 ], [ -70.299549, -11.061894 ], [ -70.272574, -11.052751 ], [ -70.228494, -11.053103 ], [ -70.191697, -11.043066 ], [ -70.177667, -11.036619 ], [ -70.142688, -11.028654 ], [ -70.133016, -11.02417 ], [ -70.125372, -11.017865 ], [ -70.093556, -10.991622 ], [ -70.037842, -10.976208 ], [ -70.005697, -10.962563 ], [ -69.987379, -10.954787 ], [ -69.94646, -10.929844 ], [ -69.936403, -10.926329 ], [ -69.922109, -10.925707 ], [ -69.896178, -10.93236 ], [ -69.871939, -10.9346 ], [ -69.853382, -10.930545 ], [ -69.830394, -10.932441 ], [ -69.81329, -10.928114 ], [ -69.790033, -10.929282 ], [ -69.77326, -10.934951 ], [ -69.75308, -10.949672 ], [ -69.729121, -10.97261 ], [ -69.703961, -10.972138 ], [ -69.692582, -10.966136 ], [ -69.67505, -10.962455 ], [ -69.643413, -10.964045 ], [ -69.571211, -10.954629 ], [ -69.56644, -10.95666 ], [ -69.327221, -11.335504 ], [ -69.288448, -11.401268 ], [ -69.031317, -11.81178 ], [ -68.998984, -11.873923 ], [ -68.92433, -11.994083 ], [ -68.910256, -12.023051 ], [ -68.687763, -12.480579 ], [ -68.681423, -12.493605 ], [ -68.679418, -12.519641 ], [ -68.682949, -12.524333 ], [ -68.687763, -12.525435 ], [ -68.693187, -12.526677 ], [ -68.698531, -12.531015 ], [ -68.699799, -12.547825 ], [ -68.705205, -12.559361 ], [ -68.721623, -12.573815 ], [ -68.750066, -12.589815 ], [ -68.765275, -12.616149 ], [ -68.770121, -12.634817 ], [ -68.769396, -12.646006 ], [ -68.764359, -12.647756 ], [ -68.749049, -12.645719 ], [ -68.746011, -12.650134 ], [ -68.747207, -12.659724 ], [ -68.734986, -12.659473 ], [ -68.729563, -12.668477 ], [ -68.741284, -12.688423 ], [ -68.739287, -12.703768 ], [ -68.741514, -12.70812 ], [ -68.751898, -12.718727 ], [ -68.788337, -12.722755 ], [ -68.804716, -12.727905 ], [ -68.848842, -12.729228 ], [ -68.849599, -12.734639 ], [ -68.842009, -12.745361 ], [ -68.843388, -12.749895 ], [ -68.851175, -12.753385 ], [ -68.875558, -12.753009 ], [ -68.880878, -12.773922 ], [ -68.892517, -12.79352 ], [ -68.916215, -12.79711 ], [ -68.934969, -12.844014 ], [ -68.945998, -12.851741 ], [ -68.961191, -12.855066 ], [ -68.962588, -12.885124 ], [ -68.966992, -12.896889 ], [ -68.963756, -12.909313 ], [ -68.970249, -12.913404 ], [ -68.958475, -12.929688 ], [ -68.967789, -12.93423 ], [ -68.969529, -12.938627 ], [ -68.957631, -12.9568 ], [ -68.969049, -13.002496 ], [ -68.963432, -13.019346 ], [ -68.951045, -13.019944 ], [ -68.954749, -13.028549 ], [ -68.948942, -13.032938 ], [ -68.944081, -13.045173 ], [ -68.945512, -13.053669 ], [ -68.951962, -13.061234 ], [ -68.94609, -13.074641 ], [ -68.958324, -13.094086 ], [ -68.951003, -13.106027 ], [ -68.952178, -13.116229 ], [ -68.956892, -13.124002 ], [ -68.964923, -13.126945 ], [ -68.967874, -13.139045 ], [ -68.964901, -13.140959 ], [ -68.95483, -13.134189 ], [ -68.951113, -13.134965 ], [ -68.951907, -13.157336 ], [ -68.957466, -13.164972 ], [ -68.959588, -13.177531 ], [ -68.95802, -13.18218 ], [ -68.952325, -13.18568 ], [ -68.963867, -13.19452 ], [ -68.965559, -13.199019 ], [ -68.962621, -13.204662 ], [ -68.953976, -13.204721 ], [ -68.945203, -13.221072 ], [ -68.944857, -13.22488 ], [ -68.953132, -13.23279 ], [ -68.954239, -13.240476 ], [ -68.943457, -13.243445 ], [ -68.939984, -13.251027 ], [ -68.942191, -13.256951 ], [ -68.950402, -13.257556 ], [ -68.953482, -13.26158 ], [ -68.944494, -13.278699 ], [ -68.945498, -13.283218 ], [ -68.951374, -13.284211 ], [ -68.949015, -13.299944 ], [ -68.940732, -13.308389 ], [ -68.942698, -13.314548 ], [ -68.95147, -13.32067 ], [ -68.945879, -13.326922 ], [ -68.953351, -13.330749 ], [ -68.945333, -13.341893 ], [ -68.942412, -13.36496 ], [ -68.944005, -13.370479 ], [ -68.950436, -13.36738 ], [ -68.953681, -13.396947 ], [ -68.944442, -13.419844 ], [ -68.947425, -13.425242 ], [ -68.954309, -13.429178 ], [ -68.946996, -13.442559 ], [ -68.946306, -13.454621 ], [ -68.950956, -13.463928 ], [ -68.942718, -13.489104 ], [ -68.94818, -13.511737 ], [ -68.960672, -13.534204 ], [ -68.961949, -13.547326 ], [ -68.974855, -13.578633 ], [ -68.984064, -13.588433 ], [ -68.998592, -13.597525 ], [ -69.005892, -13.608663 ], [ -68.999734, -13.653192 ], [ -69.023425, -13.651551 ], [ -69.037915, -13.64388 ], [ -69.059382, -13.64267 ], [ -69.070123, -13.645451 ], [ -69.075482, -13.655358 ], [ -69.075192, -13.67205 ], [ -69.050863, -13.717373 ], [ -69.013579, -13.737873 ], [ -68.995593, -13.754903 ], [ -68.989369, -13.766097 ], [ -68.989691, -13.777347 ], [ -68.999176, -13.789677 ], [ -68.999124, -13.801103 ], [ -68.979847, -13.847432 ], [ -68.964321, -13.866541 ], [ -68.960128, -13.876653 ], [ -68.967936, -13.912267 ], [ -68.960451, -13.940662 ], [ -68.964834, -13.972852 ], [ -68.962243, -13.986468 ], [ -68.951978, -13.99983 ], [ -68.91774, -14.026155 ], [ -68.882709, -14.063431 ], [ -68.86539, -14.107351 ], [ -68.85667, -14.120333 ], [ -68.854302, -14.167201 ], [ -68.851551, -14.176613 ], [ -68.839793, -14.193905 ], [ -68.841626, -14.209252 ], [ -68.848453, -14.216828 ], [ -68.856737, -14.219835 ], [ -68.942774, -14.224989 ], [ -68.971859, -14.231786 ], [ -68.980309, -14.236884 ], [ -68.990956, -14.263837 ], [ -68.995961, -14.300042 ], [ -68.989875, -14.341935 ], [ -68.978579, -14.368696 ], [ -68.980658, -14.386718 ], [ -69.015559, -14.415691 ], [ -69.06183, -14.434495 ], [ -69.108239, -14.485201 ], [ -69.126289, -14.496548 ], [ -69.150193, -14.505997 ], [ -69.153162, -14.515655 ], [ -69.146587, -14.574989 ], [ -69.149822, -14.583138 ], [ -69.158241, -14.584666 ], [ -69.209011, -14.576649 ], [ -69.218846, -14.578675 ], [ -69.225832, -14.584758 ], [ -69.236696, -14.605303 ], [ -69.24348, -14.650421 ], [ -69.24515, -14.683365 ], [ -69.23666, -14.718812 ], [ -69.237507, -14.737286 ], [ -69.2442, -14.752601 ], [ -69.253921, -14.759027 ], [ -69.297773, -14.768273 ], [ -69.31781, -14.775917 ], [ -69.351654, -14.79326 ], [ -69.361843, -14.803536 ], [ -69.356573, -14.828425 ], [ -69.359427, -14.861742 ], [ -69.347397, -14.88977 ], [ -69.349846, -14.90453 ], [ -69.367731, -14.934596 ], [ -69.37344, -14.950395 ], [ -69.372395, -14.962923 ], [ -69.365556, -14.978934 ], [ -69.331629, -15.021519 ], [ -69.321312, -15.048572 ], [ -69.280219, -15.110852 ], [ -69.192559, -15.162706 ], [ -69.184896, -15.174918 ], [ -69.170688, -15.187207 ], [ -69.151746, -15.213873 ], [ -69.13209, -15.227532 ], [ -69.127035, -15.255127 ], [ -69.133275, -15.265876 ], [ -69.145363, -15.270262 ], [ -69.15483, -15.269971 ], [ -69.17908, -15.26178 ], [ -69.185186, -15.262576 ], [ -69.202799, -15.285703 ], [ -69.21203, -15.307922 ], [ -69.227346, -15.313299 ], [ -69.236408, -15.326308 ], [ -69.253808, -15.329748 ], [ -69.264557, -15.336725 ], [ -69.26765, -15.345816 ], [ -69.266839, -15.364903 ], [ -69.279992, -15.36685 ], [ -69.283481, -15.371313 ], [ -69.274418, -15.418319 ], [ -69.298153, -15.420641 ], [ -69.317722, -15.440678 ], [ -69.334031, -15.468214 ], [ -69.336156, -15.487597 ], [ -69.340114, -15.497198 ], [ -69.375816, -15.558474 ], [ -69.412653, -15.621678 ], [ -69.298587, -15.937225 ], [ -69.247941, -16.114268 ], [ -69.235915, -16.14172 ], [ -69.097316, -16.218767 ], [ -69.075944, -16.217478 ], [ -69.041127, -16.201413 ], [ -69.008828, -16.214659 ], [ -69.001242, -16.21044 ], [ -68.985331, -16.193463 ], [ -68.974193, -16.189524 ], [ -68.961895, -16.19009 ], [ -68.92683, -16.216875 ], [ -68.896512, -16.252428 ], [ -68.843673, -16.291128 ], [ -68.822696, -16.310808 ], [ -68.815347, -16.325024 ], [ -68.814663, -16.335771 ], [ -68.822308, -16.345515 ], [ -68.86876, -16.370649 ], [ -68.963144, -16.42171 ], [ -68.979478, -16.431279 ], [ -68.984312, -16.436988 ], [ -69.031635, -16.563953 ], [ -69.027054, -16.600303 ], [ -68.997917, -16.658061 ], [ -69.007938, -16.675337 ], [ -69.022312, -16.679024 ], [ -69.042377, -16.692621 ], [ -69.062889, -16.693915 ], [ -69.113195, -16.71803 ], [ -69.151348, -16.723637 ], [ -69.166607, -16.731194 ], [ -69.173997, -16.744086 ], [ -69.183412, -16.794042 ], [ -69.201809, -16.811146 ], [ -69.219162, -16.838541 ], [ -69.274756, -16.888181 ], [ -69.276029, -16.889703 ], [ -69.311783, -16.932469 ], [ -69.317399, -16.944182 ], [ -69.31257, -16.958977 ], [ -69.318213, -16.967477 ], [ -69.335813, -16.982854 ], [ -69.362891, -16.988502 ], [ -69.389185, -17.018806 ], [ -69.388027, -17.026473 ], [ -69.37767, -17.034715 ], [ -69.370091, -17.050107 ], [ -69.376613, -17.078746 ], [ -69.415744, -17.106377 ], [ -69.420644, -17.109837 ], [ -69.437776, -17.100991 ], [ -69.454623, -17.103467 ], [ -69.50682, -17.144488 ], [ -69.552415, -17.163006 ], [ -69.560561, -17.171948 ], [ -69.565497, -17.1925 ], [ -69.571192, -17.202493 ], [ -69.580662, -17.210107 ], [ -69.593488, -17.211811 ], [ -69.599252, -17.215536 ], [ -69.600397, -17.21905 ], [ -69.612337, -17.255702 ], [ -69.638522, -17.280259 ], [ -69.638202, -17.284632 ], [ -69.634416, -17.286631 ], [ -69.598714, -17.283882 ], [ -69.572129, -17.290194 ], [ -69.465018, -17.374399 ], [ -69.465653, -17.435091 ], [ -69.47262, -17.49896 ] ] ], [ [ [ -77.251595, -12.065906 ], [ -77.247784, -12.060122 ], [ -77.245144, -12.059146 ], [ -77.240878, -12.059979 ], [ -77.237222, -12.064919 ], [ -77.232779, -12.065129 ], [ -77.225705, -12.069317 ], [ -77.221348, -12.070178 ], [ -77.218428, -12.07635 ], [ -77.214768, -12.076423 ], [ -77.21362, -12.078449 ], [ -77.209315, -12.079813 ], [ -77.209843, -12.082718 ], [ -77.203991, -12.090054 ], [ -77.200899, -12.09167 ], [ -77.200255, -12.095427 ], [ -77.197078, -12.096414 ], [ -77.193568, -12.101077 ], [ -77.189906, -12.102647 ], [ -77.188907, -12.107129 ], [ -77.192464, -12.11047 ], [ -77.198673, -12.109894 ], [ -77.200399, -12.112411 ], [ -77.207784, -12.110631 ], [ -77.213766, -12.105809 ], [ -77.220519, -12.098526 ], [ -77.231704, -12.090852 ], [ -77.235636, -12.090692 ], [ -77.23739, -12.092644 ], [ -77.239391, -12.091117 ], [ -77.238307, -12.088042 ], [ -77.241967, -12.085261 ], [ -77.244081, -12.080957 ], [ -77.246357, -12.081545 ], [ -77.248911, -12.077903 ], [ -77.246679, -12.072036 ], [ -77.249888, -12.070167 ], [ -77.251595, -12.065906 ] ] ], [ [ [ -80.873211, -6.43455 ], [ -80.8666, -6.429028 ], [ -80.862346, -6.423093 ], [ -80.864278, -6.417939 ], [ -80.860025, -6.415617 ], [ -80.862987, -6.411744 ], [ -80.865058, -6.411234 ], [ -80.863767, -6.407361 ], [ -80.860415, -6.40633 ], [ -80.856542, -6.400135 ], [ -80.858524, -6.396332 ], [ -80.853459, -6.384132 ], [ -80.848786, -6.380418 ], [ -80.845463, -6.382841 ], [ -80.846364, -6.386724 ], [ -80.851778, -6.39394 ], [ -80.852288, -6.397293 ], [ -80.855641, -6.402707 ], [ -80.853589, -6.40658 ], [ -80.855901, -6.411224 ], [ -80.856021, -6.415857 ], [ -80.850607, -6.418189 ], [ -80.849836, -6.422322 ], [ -80.847254, -6.427216 ], [ -80.84235, -6.430319 ], [ -80.843892, -6.434702 ], [ -80.84183, -6.435473 ], [ -80.843121, -6.440377 ], [ -80.845573, -6.442959 ], [ -80.844662, -6.447092 ], [ -80.84183, -6.447333 ], [ -80.84144, -6.449925 ], [ -80.844922, -6.453537 ], [ -80.844152, -6.457411 ], [ -80.841059, -6.45676 ], [ -80.842731, -6.461274 ], [ -80.842851, -6.465667 ], [ -80.840018, -6.466438 ], [ -80.840624, -6.468758 ], [ -80.845433, -6.46889 ], [ -80.847885, -6.471342 ], [ -80.847234, -6.474694 ], [ -80.849816, -6.475345 ], [ -80.851097, -6.472242 ], [ -80.858333, -6.471101 ], [ -80.860257, -6.473694 ], [ -80.863107, -6.470061 ], [ -80.861623, -6.460635 ], [ -80.859934, -6.458471 ], [ -80.856532, -6.458191 ], [ -80.857563, -6.447352 ], [ -80.860405, -6.445931 ], [ -80.861175, -6.448123 ], [ -80.867805, -6.443648 ], [ -80.86724, -6.436774 ], [ -80.873211, -6.43455 ] ] ], [ [ [ -76.217449, -14.273609 ], [ -76.216863, -14.261765 ], [ -76.203606, -14.261181 ], [ -76.192971, -14.267865 ], [ -76.186929, -14.273302 ], [ -76.182071, -14.285721 ], [ -76.17481, -14.29128 ], [ -76.177244, -14.295803 ], [ -76.182071, -14.296908 ], [ -76.20979, -14.283993 ], [ -76.217449, -14.273609 ] ] ], [ [ [ -76.466776, -13.850032 ], [ -76.464877, -13.840312 ], [ -76.461061, -13.836495 ], [ -76.459292, -13.827034 ], [ -76.457443, -13.823456 ], [ -76.45324, -13.821687 ], [ -76.449582, -13.824142 ], [ -76.443033, -13.823794 ], [ -76.442277, -13.828416 ], [ -76.439694, -13.835601 ], [ -76.434983, -13.835879 ], [ -76.434118, -13.844079 ], [ -76.434804, -13.849574 ], [ -76.441661, -13.856839 ], [ -76.446335, -13.857903 ], [ -76.448718, -13.854106 ], [ -76.456022, -13.85022 ], [ -76.461558, -13.853391 ], [ -76.466776, -13.850032 ] ] ], [ [ [ -78.62679, -9.1035 ], [ -78.623682, -9.100885 ], [ -78.621912, -9.091552 ], [ -78.622727, -9.08767 ], [ -78.619609, -9.085317 ], [ -78.617507, -9.088414 ], [ -78.618045, -9.09818 ], [ -78.61281, -9.108589 ], [ -78.616592, -9.110037 ], [ -78.618346, -9.11247 ], [ -78.621258, -9.111616 ], [ -78.621027, -9.107865 ], [ -78.622847, -9.108137 ], [ -78.62679, -9.1035 ] ] ], [ [ [ -80.733788, -6.937254 ], [ -80.731319, -6.93357 ], [ -80.728152, -6.934314 ], [ -80.7212, -6.941505 ], [ -80.720691, -6.945624 ], [ -80.716821, -6.947938 ], [ -80.717081, -6.950631 ], [ -80.719913, -6.950252 ], [ -80.719395, -6.953075 ], [ -80.723254, -6.952556 ], [ -80.723841, -6.947895 ], [ -80.728732, -6.946339 ], [ -80.725708, -6.942792 ], [ -80.727124, -6.93958 ], [ -80.73253, -6.940099 ], [ -80.733788, -6.937254 ] ] ], [ [ [ -78.680531, -9.018815 ], [ -78.675495, -9.01773 ], [ -78.676935, -9.022104 ], [ -78.673571, -9.02852 ], [ -78.674247, -9.03292 ], [ -78.670051, -9.038783 ], [ -78.669191, -9.041867 ], [ -78.676938, -9.040932 ], [ -78.674574, -9.036962 ], [ -78.675116, -9.034465 ], [ -78.679793, -9.030413 ], [ -78.680531, -9.018815 ] ] ], [ [ [ -80.724217, -6.933299 ], [ -80.718931, -6.925954 ], [ -80.715891, -6.928984 ], [ -80.716422, -6.936498 ], [ -80.71885, -6.935967 ], [ -80.721478, -6.938693 ], [ -80.724217, -6.933299 ] ] ], [ [ [ -78.470925, -9.34788 ], [ -78.469876, -9.346037 ], [ -78.464592, -9.346791 ], [ -78.46338, -9.344591 ], [ -78.464999, -9.341979 ], [ -78.46226, -9.341526 ], [ -78.45946, -9.344917 ], [ -78.463767, -9.351638 ], [ -78.470905, -9.350507 ], [ -78.470925, -9.34788 ] ] ], [ [ [ -76.39758, -13.625805 ], [ -76.39598, -13.623202 ], [ -76.391716, -13.625056 ], [ -76.390126, -13.627932 ], [ -76.387462, -13.627689 ], [ -76.389356, -13.632763 ], [ -76.39363, -13.633391 ], [ -76.395598, -13.630948 ], [ -76.39362, -13.629998 ], [ -76.397327, -13.627891 ], [ -76.39758, -13.625805 ] ] ], [ [ [ -76.628043, -12.791983 ], [ -76.624903, -12.791386 ], [ -76.621415, -12.788208 ], [ -76.617109, -12.788422 ], [ -76.616839, -12.792156 ], [ -76.619674, -12.792483 ], [ -76.621387, -12.796242 ], [ -76.625581, -12.796516 ], [ -76.628043, -12.791983 ] ] ], [ [ [ -76.404577, -13.645413 ], [ -76.404556, -13.641483 ], [ -76.39919, -13.641269 ], [ -76.395438, -13.639706 ], [ -76.392524, -13.643128 ], [ -76.394951, -13.645992 ], [ -76.404577, -13.645413 ] ] ], [ [ [ -78.559219, -9.241125 ], [ -78.553813, -9.235476 ], [ -78.550366, -9.237725 ], [ -78.55098, -9.241491 ], [ -78.552891, -9.242075 ], [ -78.55401, -9.245847 ], [ -78.556298, -9.245611 ], [ -78.559219, -9.241125 ] ] ], [ [ [ -78.446166, -9.382951 ], [ -78.444924, -9.37706 ], [ -78.440633, -9.375372 ], [ -78.438705, -9.382384 ], [ -78.441775, -9.384709 ], [ -78.445629, -9.384997 ], [ -78.446166, -9.382951 ] ] ], [ [ [ -77.184928, -12.115252 ], [ -77.18164, -12.11127 ], [ -77.176694, -12.120126 ], [ -77.183316, -12.119806 ], [ -77.184928, -12.115252 ] ] ], [ [ [ -78.617366, -9.149782 ], [ -78.615298, -9.149513 ], [ -78.615298, -9.150022 ], [ -78.61244, -9.150262 ], [ -78.61191, -9.152061 ], [ -78.609852, -9.151022 ], [ -78.608553, -9.151781 ], [ -78.608153, -9.15306 ], [ -78.608793, -9.154099 ], [ -78.607754, -9.154349 ], [ -78.608285, -9.155778 ], [ -78.611101, -9.156687 ], [ -78.610941, -9.155228 ], [ -78.61215, -9.155408 ], [ -78.61294, -9.15322 ], [ -78.614489, -9.153619 ], [ -78.614748, -9.154649 ], [ -78.615907, -9.154399 ], [ -78.616697, -9.15261 ], [ -78.617366, -9.149782 ] ] ], [ [ [ -78.966579, -8.530998 ], [ -78.960598, -8.530455 ], [ -78.961022, -8.537612 ], [ -78.962518, -8.53719 ], [ -78.966579, -8.530998 ] ] ], [ [ [ -80.413814, -3.492916 ], [ -80.409097, -3.490421 ], [ -80.405312, -3.491474 ], [ -80.409321, -3.496222 ], [ -80.413814, -3.492916 ] ] ], [ [ [ -76.404726, -13.651293 ], [ -76.404428, -13.649108 ], [ -76.400771, -13.648586 ], [ -76.398343, -13.650188 ], [ -76.402498, -13.654886 ], [ -76.404726, -13.651293 ] ] ], [ [ [ -81.208547, -5.20955 ], [ -81.207353, -5.207167 ], [ -81.202606, -5.210051 ], [ -81.203598, -5.213276 ], [ -81.207314, -5.212034 ], [ -81.208547, -5.20955 ] ] ], [ [ [ -76.905721, -12.301801 ], [ -76.903384, -12.297485 ], [ -76.900325, -12.302262 ], [ -76.900668, -12.305462 ], [ -76.905721, -12.301801 ] ] ], [ [ [ -80.453843, -3.483615 ], [ -80.451402, -3.482085 ], [ -80.446546, -3.482273 ], [ -80.444778, -3.484433 ], [ -80.448365, -3.485682 ], [ -80.453843, -3.483615 ] ] ], [ [ [ -80.402498, -3.489468 ], [ -80.397804, -3.487139 ], [ -80.395574, -3.49111 ], [ -80.397246, -3.493088 ], [ -80.402498, -3.489468 ] ] ], [ [ [ -80.452159, -3.491175 ], [ -80.449627, -3.488642 ], [ -80.445213, -3.491591 ], [ -80.44784, -3.494547 ], [ -80.452159, -3.491175 ] ] ], [ [ [ -78.970024, -8.566456 ], [ -78.968343, -8.562416 ], [ -78.964891, -8.563005 ], [ -78.96529, -8.568137 ], [ -78.970024, -8.566456 ] ] ], [ [ [ -78.624552, -9.141836 ], [ -78.622903, -9.13796 ], [ -78.619532, -9.137213 ], [ -78.618449, -9.141794 ], [ -78.624552, -9.141836 ] ] ], [ [ [ -78.611958, -9.160318 ], [ -78.606358, -9.160346 ], [ -78.604873, -9.163847 ], [ -78.6112, -9.163557 ], [ -78.611958, -9.160318 ] ] ], [ [ [ -77.674596, -11.018623 ], [ -77.669865, -11.017227 ], [ -77.668623, -11.021902 ], [ -77.673173, -11.022042 ], [ -77.674596, -11.018623 ] ] ], [ [ [ -77.749205, -11.38224 ], [ -77.746953, -11.38071 ], [ -77.742572, -11.382927 ], [ -77.744131, -11.385272 ], [ -77.747634, -11.385393 ], [ -77.749205, -11.38224 ] ] ], [ [ [ -77.268676, -11.775799 ], [ -77.265463, -11.774637 ], [ -77.266781, -11.772833 ], [ -77.262981, -11.772791 ], [ -77.262644, -11.777708 ], [ -77.266795, -11.777491 ], [ -77.268676, -11.775799 ] ] ], [ [ [ -77.213542, -11.788741 ], [ -77.209937, -11.787761 ], [ -77.209487, -11.793814 ], [ -77.213307, -11.793285 ], [ -77.213542, -11.788741 ] ] ], [ [ [ -77.211885, -12.119178 ], [ -77.211283, -12.114385 ], [ -77.206677, -12.114945 ], [ -77.206967, -12.118452 ], [ -77.211885, -12.119178 ] ] ], [ [ [ -76.898484, -12.311433 ], [ -76.898131, -12.309506 ], [ -76.893949, -12.307759 ], [ -76.893231, -12.310097 ], [ -76.896103, -12.314394 ], [ -76.898484, -12.311433 ] ] ], [ [ [ -76.400144, -13.732156 ], [ -76.399811, -13.730926 ], [ -76.394967, -13.72908 ], [ -76.395972, -13.735186 ], [ -76.398385, -13.734711 ], [ -76.400144, -13.732156 ] ] ], [ [ [ -76.178554, -14.298375 ], [ -76.176349, -14.296866 ], [ -76.173365, -14.298786 ], [ -76.176449, -14.303033 ], [ -76.178165, -14.302588 ], [ -76.178554, -14.298375 ] ] ], [ [ [ -76.167159, -14.31527 ], [ -76.166277, -14.311811 ], [ -76.16322, -14.311823 ], [ -76.162019, -14.315406 ], [ -76.164743, -14.31733 ], [ -76.167159, -14.31527 ] ] ], [ [ [ -76.163296, -14.318955 ], [ -76.161898, -14.317678 ], [ -76.157447, -14.319878 ], [ -76.159394, -14.324758 ], [ -76.163296, -14.318955 ] ] ], [ [ [ -78.621711, -9.150126 ], [ -78.61851, -9.147094 ], [ -78.617247, -9.15043 ], [ -78.620493, -9.152669 ], [ -78.621711, -9.150126 ] ] ] ] } }
]
}
