{
"type": "FeatureCollection",
"name": "Puerto Rico",
"crs": { "type": "name", "properties": { "name": "urn:ogc:def:crs:OGC:1.3:CRS84" } },
"features": [
{ "type": "Feature", "properties": { "id": "PR", "CNTR_ID": "PR", "CNTR_NAME": "Puerto Rico", "NAME_ENGL": "Puerto Rico", "ISO3_CODE": "PRI", "FID": "PR" }, "geometry": { "type": "MultiPolygon", "coordinates": [ [ [ [ -65.728646, 18.182767 ], [ -65.744343, 18.164077 ], [ -65.768753, 18.144229 ], [ -65.777489, 18.128061 ], [ -65.779411, 18.115214 ], [ -65.786068, 18.103885 ], [ -65.789479, 18.090716 ], [ -65.795904, 18.081305 ], [ -65.800904, 18.061938 ], [ -65.808565, 18.058534 ], [ -65.819538, 18.061239 ], [ -65.83063, 18.054589 ], [ -65.833387, 18.052936 ], [ -65.830801, 18.02983 ], [ -65.835599, 18.016105 ], [ -65.845421, 18.013973 ], [ -65.858117, 18.006654 ], [ -65.870272, 18.005138 ], [ -65.88378, 17.991882 ], [ -65.896415, 17.98954 ], [ -65.920025, 17.976298 ], [ -65.952489, 17.971221 ], [ -65.968362, 17.973112 ], [ -65.979246, 17.969386 ], [ -65.995679, 17.977969 ], [ -66.015251, 17.979043 ], [ -66.024235, 17.974822 ], [ -66.035825, 17.962616 ], [ -66.046218, 17.95625 ], [ -66.070671, 17.965689 ], [ -66.081889, 17.965494 ], [ -66.139103, 17.941251 ], [ -66.153874, 17.93201 ], [ -66.158919, 17.934493 ], [ -66.190182, 17.937156 ], [ -66.209924, 17.926585 ], [ -66.209924, 17.943315 ], [ -66.185586, 17.939945 ], [ -66.177476, 17.945063 ], [ -66.17743, 17.948318 ], [ -66.207035, 17.961088 ], [ -66.230024, 17.947136 ], [ -66.231084, 17.934827 ], [ -66.23644, 17.930087 ], [ -66.243465, 17.93785 ], [ -66.248461, 17.933277 ], [ -66.258558, 17.937021 ], [ -66.26459, 17.946138 ], [ -66.287745, 17.945045 ], [ -66.292483, 17.959826 ], [ -66.301738, 17.962477 ], [ -66.32435, 17.97779 ], [ -66.337851, 17.976037 ], [ -66.361286, 17.966551 ], [ -66.363223, 17.95956 ], [ -66.367724, 17.958198 ], [ -66.369623, 17.954021 ], [ -66.375405, 17.953946 ], [ -66.380633, 17.94427 ], [ -66.386492, 17.941261 ], [ -66.412512, 17.956777 ], [ -66.429441, 17.961962 ], [ -66.44445, 17.978046 ], [ -66.464714, 17.989744 ], [ -66.49694, 17.989055 ], [ -66.580007, 17.963145 ], [ -66.595358, 17.969108 ], [ -66.614909, 17.96608 ], [ -66.620058, 17.977466 ], [ -66.630799, 17.981638 ], [ -66.647868, 17.979271 ], [ -66.662952, 17.970208 ], [ -66.672009, 17.968167 ], [ -66.682221, 17.973579 ], [ -66.707439, 17.98062 ], [ -66.717169, 17.988751 ], [ -66.726211, 17.991357 ], [ -66.746228, 17.988829 ], [ -66.758154, 17.979309 ], [ -66.759505, 17.982189 ], [ -66.755815, 17.988766 ], [ -66.757302, 17.998287 ], [ -66.76699, 18.004235 ], [ -66.796482, 17.992563 ], [ -66.798568, 17.984119 ], [ -66.805862, 17.98117 ], [ -66.805614, 17.977925 ], [ -66.802378, 17.976618 ], [ -66.785365, 17.983297 ], [ -66.785034, 17.978879 ], [ -66.789079, 17.972823 ], [ -66.834677, 17.951378 ], [ -66.855613, 17.954522 ], [ -66.866608, 17.946631 ], [ -66.873871, 17.950912 ], [ -66.878079, 17.950809 ], [ -66.899437, 17.950291 ], [ -66.90853, 17.963727 ], [ -66.925702, 17.970861 ], [ -66.927798, 17.963042 ], [ -66.916271, 17.958064 ], [ -66.911595, 17.951465 ], [ -66.915006, 17.946868 ], [ -66.929725, 17.940637 ], [ -66.922458, 17.932228 ], [ -66.924998, 17.929369 ], [ -66.954723, 17.932175 ], [ -66.960315, 17.940131 ], [ -66.979793, 17.953151 ], [ -66.98603, 17.969131 ], [ -67.010084, 17.974831 ], [ -67.020411, 17.969 ], [ -67.03169, 17.971974 ], [ -67.044659, 17.969554 ], [ -67.058322, 17.973125 ], [ -67.068923, 17.972097 ], [ -67.075292, 17.968217 ], [ -67.079228, 17.960034 ], [ -67.106729, 17.946208 ], [ -67.124007, 17.946237 ], [ -67.138266, 17.951978 ], [ -67.156503, 17.954573 ], [ -67.167835, 17.962445 ], [ -67.177744, 17.963249 ], [ -67.189847, 17.952927 ], [ -67.1867, 17.936598 ], [ -67.193221, 17.935168 ], [ -67.195176, 17.946819 ], [ -67.205007, 17.957853 ], [ -67.21356, 17.986445 ], [ -67.210291, 17.993636 ], [ -67.202513, 17.999717 ], [ -67.185443, 18.006497 ], [ -67.176342, 18.005622 ], [ -67.170828, 18.008457 ], [ -67.173984, 18.011606 ], [ -67.173398, 18.019149 ], [ -67.176373, 18.025631 ], [ -67.205576, 18.038333 ], [ -67.197841, 18.062483 ], [ -67.185526, 18.070736 ], [ -67.200586, 18.090554 ], [ -67.195861, 18.092635 ], [ -67.183094, 18.11024 ], [ -67.185524, 18.133238 ], [ -67.177715, 18.151287 ], [ -67.182324, 18.165907 ], [ -67.157273, 18.193853 ], [ -67.154856, 18.20699 ], [ -67.159742, 18.216571 ], [ -67.172252, 18.227673 ], [ -67.17585, 18.246501 ], [ -67.187124, 18.265872 ], [ -67.194884, 18.287258 ], [ -67.203543, 18.292907 ], [ -67.23545, 18.301482 ], [ -67.270316, 18.362122 ], [ -67.263087, 18.369124 ], [ -67.230848, 18.377771 ], [ -67.199026, 18.390944 ], [ -67.159635, 18.417197 ], [ -67.156516, 18.435259 ], [ -67.167673, 18.466377 ], [ -67.167411, 18.479232 ], [ -67.162183, 18.488013 ], [ -67.142123, 18.504183 ], [ -67.12348, 18.511535 ], [ -67.096245, 18.515349 ], [ -67.053156, 18.514933 ], [ -67.028688, 18.509509 ], [ -67.015118, 18.509208 ], [ -66.975836, 18.49255 ], [ -66.941438, 18.490738 ], [ -66.91282, 18.484819 ], [ -66.878079, 18.488936 ], [ -66.866529, 18.490304 ], [ -66.833145, 18.487847 ], [ -66.790482, 18.49189 ], [ -66.775888, 18.488937 ], [ -66.743554, 18.475523 ], [ -66.71197, 18.473141 ], [ -66.704608, 18.474726 ], [ -66.697739, 18.481128 ], [ -66.685445, 18.482012 ], [ -66.672441, 18.488658 ], [ -66.6486, 18.489182 ], [ -66.626367, 18.493567 ], [ -66.580007, 18.484778 ], [ -66.55807, 18.488201 ], [ -66.466619, 18.469436 ], [ -66.45155, 18.472073 ], [ -66.437037, 18.485857 ], [ -66.399785, 18.490919 ], [ -66.371907, 18.477987 ], [ -66.370121, 18.485786 ], [ -66.345414, 18.482178 ], [ -66.335065, 18.483688 ], [ -66.316957, 18.476564 ], [ -66.299732, 18.476296 ], [ -66.289782, 18.473004 ], [ -66.268888, 18.478567 ], [ -66.235972, 18.468343 ], [ -66.189481, 18.467531 ], [ -66.180444, 18.456885 ], [ -66.169368, 18.451674 ], [ -66.157124, 18.453393 ], [ -66.141728, 18.461508 ], [ -66.13125, 18.445623 ], [ -66.112927, 18.442174 ], [ -66.107451, 18.430215 ], [ -66.085049, 18.442983 ], [ -66.087774, 18.447153 ], [ -66.100702, 18.452308 ], [ -66.101606, 18.458301 ], [ -66.043391, 18.454047 ], [ -66.021421, 18.444948 ], [ -66.003185, 18.447177 ], [ -65.987827, 18.459 ], [ -65.92545, 18.445964 ], [ -65.913007, 18.446994 ], [ -65.901619, 18.452021 ], [ -65.872609, 18.437728 ], [ -65.835756, 18.430669 ], [ -65.83063, 18.426336 ], [ -65.812735, 18.41121 ], [ -65.804712, 18.411578 ], [ -65.795017, 18.417069 ], [ -65.793914, 18.407025 ], [ -65.773472, 18.411802 ], [ -65.768979, 18.400731 ], [ -65.747189, 18.383981 ], [ -65.737533, 18.382057 ], [ -65.728646, 18.385482 ], [ -65.722712, 18.38777 ], [ -65.708416, 18.373054 ], [ -65.695839, 18.368029 ], [ -65.671618, 18.364892 ], [ -65.662222, 18.363675 ], [ -65.644405, 18.375831 ], [ -65.634141, 18.371646 ], [ -65.62433, 18.384051 ], [ -65.619294, 18.384764 ], [ -65.618921, 18.37134 ], [ -65.633671, 18.346571 ], [ -65.627795, 18.328966 ], [ -65.626312, 18.307434 ], [ -65.633551, 18.290626 ], [ -65.632118, 18.283589 ], [ -65.627316, 18.278084 ], [ -65.629779, 18.266816 ], [ -65.621445, 18.256023 ], [ -65.607331, 18.259412 ], [ -65.607206, 18.248891 ], [ -65.592818, 18.228215 ], [ -65.602766, 18.22696 ], [ -65.605936, 18.219094 ], [ -65.60983, 18.216726 ], [ -65.618842, 18.228226 ], [ -65.631013, 18.232516 ], [ -65.635619, 18.229289 ], [ -65.637616, 18.223599 ], [ -65.633712, 18.208505 ], [ -65.630706, 18.206074 ], [ -65.632663, 18.202641 ], [ -65.639168, 18.204201 ], [ -65.647827, 18.200702 ], [ -65.665906, 18.204877 ], [ -65.671618, 18.20234 ], [ -65.689062, 18.194592 ], [ -65.695295, 18.181751 ], [ -65.707365, 18.183529 ], [ -65.717183, 18.188502 ], [ -65.725884, 18.186057 ], [ -65.728646, 18.182767 ] ] ], [ [ [ -65.576812, 18.103219 ], [ -65.575946, 18.118591 ], [ -65.54631, 18.11963 ], [ -65.532714, 18.124307 ], [ -65.501702, 18.135885 ], [ -65.489098, 18.136671 ], [ -65.473334, 18.142859 ], [ -65.44824, 18.146847 ], [ -65.444431, 18.149071 ], [ -65.442475, 18.155318 ], [ -65.435582, 18.158106 ], [ -65.394721, 18.162287 ], [ -65.366774, 18.157779 ], [ -65.358301, 18.154082 ], [ -65.35507, 18.15509 ], [ -65.331701, 18.147567 ], [ -65.325209, 18.149074 ], [ -65.303859, 18.142336 ], [ -65.288512, 18.146512 ], [ -65.282727, 18.144093 ], [ -65.275736, 18.135679 ], [ -65.26952, 18.133907 ], [ -65.273185, 18.131106 ], [ -65.282527, 18.132745 ], [ -65.294567, 18.12911 ], [ -65.299484, 18.134022 ], [ -65.306052, 18.135186 ], [ -65.309428, 18.132665 ], [ -65.308619, 18.128462 ], [ -65.312356, 18.126594 ], [ -65.333507, 18.124597 ], [ -65.338263, 18.115978 ], [ -65.344429, 18.111708 ], [ -65.350389, 18.114219 ], [ -65.341783, 18.120236 ], [ -65.351552, 18.125307 ], [ -65.358301, 18.125669 ], [ -65.361776, 18.129713 ], [ -65.366218, 18.125282 ], [ -65.373263, 18.124145 ], [ -65.378957, 18.112183 ], [ -65.404646, 18.109698 ], [ -65.408439, 18.112597 ], [ -65.409082, 18.107533 ], [ -65.415837, 18.107437 ], [ -65.419174, 18.102613 ], [ -65.426537, 18.110142 ], [ -65.430613, 18.110121 ], [ -65.433526, 18.106247 ], [ -65.424332, 18.101551 ], [ -65.423645, 18.096699 ], [ -65.436073, 18.092229 ], [ -65.441228, 18.095656 ], [ -65.451783, 18.087367 ], [ -65.455752, 18.088236 ], [ -65.455114, 18.093476 ], [ -65.458447, 18.095915 ], [ -65.469879, 18.093943 ], [ -65.481177, 18.096156 ], [ -65.50529, 18.092599 ], [ -65.532714, 18.080423 ], [ -65.56603, 18.089692 ], [ -65.576812, 18.103219 ] ] ], [ [ [ -67.944898, 18.08306 ], [ -67.938155, 18.090691 ], [ -67.935131, 18.108157 ], [ -67.93072, 18.113665 ], [ -67.910941, 18.119502 ], [ -67.883197, 18.113394 ], [ -67.861034, 18.120983 ], [ -67.849488, 18.110471 ], [ -67.843835, 18.093271 ], [ -67.845526, 18.082975 ], [ -67.854347, 18.07811 ], [ -67.871997, 18.058853 ], [ -67.883197, 18.054944 ], [ -67.897101, 18.053801 ], [ -67.905007, 18.059416 ], [ -67.921298, 18.064709 ], [ -67.944898, 18.08306 ] ] ], [ [ [ -65.341818, 18.346692 ], [ -65.33819, 18.350054 ], [ -65.334956, 18.345219 ], [ -65.335035, 18.343233 ], [ -65.331793, 18.339041 ], [ -65.325118, 18.337012 ], [ -65.322221, 18.334622 ], [ -65.318206, 18.328689 ], [ -65.313466, 18.329505 ], [ -65.312526, 18.334018 ], [ -65.308996, 18.33759 ], [ -65.305126, 18.332603 ], [ -65.299037, 18.330846 ], [ -65.294607, 18.330951 ], [ -65.291332, 18.335484 ], [ -65.289091, 18.331893 ], [ -65.281825, 18.32961 ], [ -65.277586, 18.332555 ], [ -65.267014, 18.327699 ], [ -65.262437, 18.324096 ], [ -65.252958, 18.31858 ], [ -65.245844, 18.311253 ], [ -65.24442, 18.303868 ], [ -65.246521, 18.303326 ], [ -65.252726, 18.306433 ], [ -65.255748, 18.306197 ], [ -65.258239, 18.308878 ], [ -65.25945, 18.30664 ], [ -65.255194, 18.300741 ], [ -65.257716, 18.297158 ], [ -65.256583, 18.294985 ], [ -65.261902, 18.289584 ], [ -65.264031, 18.290267 ], [ -65.263612, 18.295477 ], [ -65.269042, 18.297437 ], [ -65.274207, 18.295277 ], [ -65.279119, 18.300858 ], [ -65.279473, 18.306374 ], [ -65.287108, 18.306777 ], [ -65.291625, 18.311402 ], [ -65.29322, 18.307936 ], [ -65.295506, 18.309339 ], [ -65.302464, 18.310432 ], [ -65.302167, 18.30532 ], [ -65.29947, 18.302413 ], [ -65.291304, 18.301088 ], [ -65.286638, 18.298135 ], [ -65.287976, 18.295872 ], [ -65.287379, 18.291914 ], [ -65.283917, 18.293167 ], [ -65.281015, 18.289335 ], [ -65.283866, 18.286786 ], [ -65.282612, 18.284488 ], [ -65.285977, 18.282248 ], [ -65.283464, 18.280039 ], [ -65.286332, 18.279479 ], [ -65.292916, 18.286697 ], [ -65.294637, 18.291342 ], [ -65.298387, 18.294474 ], [ -65.301175, 18.294461 ], [ -65.300359, 18.296867 ], [ -65.301855, 18.301019 ], [ -65.310069, 18.303007 ], [ -65.313608, 18.30841 ], [ -65.316431, 18.309437 ], [ -65.317752, 18.318296 ], [ -65.322696, 18.318819 ], [ -65.322966, 18.321134 ], [ -65.32931, 18.323735 ], [ -65.330069, 18.32747 ], [ -65.33416, 18.334091 ], [ -65.335426, 18.338159 ], [ -65.338414, 18.340561 ], [ -65.341818, 18.346692 ] ] ], [ [ [ -66.124879, 18.4714 ], [ -66.122864, 18.47172 ], [ -66.116202, 18.469204 ], [ -66.101804, 18.467753 ], [ -66.098082, 18.466153 ], [ -66.091389, 18.466741 ], [ -66.087962, 18.467976 ], [ -66.084521, 18.46397 ], [ -66.086868, 18.459987 ], [ -66.094918, 18.461479 ], [ -66.102058, 18.461536 ], [ -66.109732, 18.463645 ], [ -66.116255, 18.458964 ], [ -66.118168, 18.460479 ], [ -66.119619, 18.465407 ], [ -66.124111, 18.467814 ], [ -66.124879, 18.4714 ] ] ], [ [ [ -67.488839, 18.385162 ], [ -67.482816, 18.390249 ], [ -67.477894, 18.389621 ], [ -67.472168, 18.382224 ], [ -67.476481, 18.378409 ], [ -67.480013, 18.378176 ], [ -67.486226, 18.381758 ], [ -67.488839, 18.385162 ] ] ], [ [ [ -66.528019, 17.886788 ], [ -66.525515, 17.894436 ], [ -66.522191, 17.897879 ], [ -66.513658, 17.902738 ], [ -66.509604, 17.899044 ], [ -66.515309, 17.892948 ], [ -66.522205, 17.889902 ], [ -66.526744, 17.885835 ], [ -66.528019, 17.886788 ] ] ], [ [ [ -65.337906, 18.308698 ], [ -65.333516, 18.310915 ], [ -65.331458, 18.315285 ], [ -65.329046, 18.31544 ], [ -65.330245, 18.311135 ], [ -65.327804, 18.308978 ], [ -65.328816, 18.300435 ], [ -65.328075, 18.294779 ], [ -65.330675, 18.295133 ], [ -65.331553, 18.299894 ], [ -65.337254, 18.30297 ], [ -65.337906, 18.308698 ] ] ], [ [ [ -65.600391, 18.254023 ], [ -65.599947, 18.255728 ], [ -65.592363, 18.255927 ], [ -65.590606, 18.254239 ], [ -65.586051, 18.255675 ], [ -65.583374, 18.247993 ], [ -65.587979, 18.247118 ], [ -65.591696, 18.24917 ], [ -65.597814, 18.246859 ], [ -65.600391, 18.254023 ] ] ], [ [ [ -65.2669, 18.341393 ], [ -65.256848, 18.342556 ], [ -65.251231, 18.33972 ], [ -65.251057, 18.337782 ], [ -65.24734, 18.335896 ], [ -65.247053, 18.333169 ], [ -65.249577, 18.334431 ], [ -65.256195, 18.332862 ], [ -65.259872, 18.334096 ], [ -65.2669, 18.341393 ] ] ], [ [ [ -65.237935, 18.319423 ], [ -65.236482, 18.321584 ], [ -65.231606, 18.320422 ], [ -65.229727, 18.317782 ], [ -65.226343, 18.319925 ], [ -65.226503, 18.323252 ], [ -65.222286, 18.321955 ], [ -65.222892, 18.318596 ], [ -65.226111, 18.316005 ], [ -65.223976, 18.314378 ], [ -65.225244, 18.310901 ], [ -65.230461, 18.311927 ], [ -65.231062, 18.315065 ], [ -65.237935, 18.319423 ] ] ], [ [ [ -67.015094, 17.968821 ], [ -67.009319, 17.970423 ], [ -67.002655, 17.968821 ], [ -67.001533, 17.961445 ], [ -67.003478, 17.960251 ], [ -67.015094, 17.968821 ] ] ], [ [ [ -66.249403, 17.917538 ], [ -66.248367, 17.918449 ], [ -66.234748, 17.916173 ], [ -66.230983, 17.917633 ], [ -66.224853, 17.913853 ], [ -66.227439, 17.913045 ], [ -66.23478, 17.91431 ], [ -66.240852, 17.913837 ], [ -66.247372, 17.915745 ], [ -66.249403, 17.917538 ] ] ], [ [ [ -65.593861, 18.390519 ], [ -65.589425, 18.390589 ], [ -65.583173, 18.386242 ], [ -65.583415, 18.383663 ], [ -65.587436, 18.381848 ], [ -65.592329, 18.384403 ], [ -65.592104, 18.387656 ], [ -65.593861, 18.390519 ] ] ], [ [ [ -65.571876, 18.350991 ], [ -65.569304, 18.353047 ], [ -65.564202, 18.3478 ], [ -65.567596, 18.343544 ], [ -65.571876, 18.350991 ] ] ], [ [ [ -66.459783, 17.933921 ], [ -66.456204, 17.933534 ], [ -66.453279, 17.927414 ], [ -66.455612, 17.925281 ], [ -66.459783, 17.933921 ] ] ], [ [ [ -65.571301, 18.376972 ], [ -65.570555, 18.379333 ], [ -65.567717, 18.378138 ], [ -65.564452, 18.380294 ], [ -65.561646, 18.377626 ], [ -65.566063, 18.374812 ], [ -65.567547, 18.37658 ], [ -65.571301, 18.376972 ] ] ], [ [ [ -66.187024, 18.474859 ], [ -66.18242, 18.475572 ], [ -66.179015, 18.474706 ], [ -66.179835, 18.472755 ], [ -66.185905, 18.471856 ], [ -66.187024, 18.474859 ] ] ], [ [ [ -67.213186, 17.957152 ], [ -67.208294, 17.957603 ], [ -67.208085, 17.953406 ], [ -67.212026, 17.95228 ], [ -67.213186, 17.957152 ] ] ], [ [ [ -66.292894, 17.935317 ], [ -66.285921, 17.935549 ], [ -66.284435, 17.932484 ], [ -66.291613, 17.932917 ], [ -66.292894, 17.935317 ] ] ], [ [ [ -66.303163, 17.935006 ], [ -66.298696, 17.938345 ], [ -66.295662, 17.935618 ], [ -66.297304, 17.933341 ], [ -66.303163, 17.935006 ] ] ], [ [ [ -66.296244, 17.949769 ], [ -66.29592, 17.954248 ], [ -66.292126, 17.954248 ], [ -66.293077, 17.948021 ], [ -66.296244, 17.949769 ] ] ], [ [ [ -67.215212, 17.963202 ], [ -67.213983, 17.967696 ], [ -67.211114, 17.966914 ], [ -67.211561, 17.960523 ], [ -67.215212, 17.963202 ] ] ], [ [ [ -66.73469, 17.96716 ], [ -66.73411, 17.972172 ], [ -66.73039, 17.973317 ], [ -66.732539, 17.965495 ], [ -66.73469, 17.96716 ] ] ], [ [ [ -66.753473, 17.9754 ], [ -66.749838, 17.976334 ], [ -66.746507, 17.975022 ], [ -66.748576, 17.971816 ], [ -66.752124, 17.972905 ], [ -66.753473, 17.9754 ] ] ], [ [ [ -66.741422, 17.981765 ], [ -66.73602, 17.985923 ], [ -66.73394, 17.984144 ], [ -66.736283, 17.980711 ], [ -66.741422, 17.981765 ] ] ], [ [ [ -65.475328, 18.088063 ], [ -65.474495, 18.090571 ], [ -65.472092, 18.092184 ], [ -65.470804, 18.0896 ], [ -65.471275, 18.086017 ], [ -65.473867, 18.086211 ], [ -65.475328, 18.088063 ] ] ], [ [ [ -65.470441, 18.089501 ], [ -65.467152, 18.092757 ], [ -65.464297, 18.089575 ], [ -65.465509, 18.086534 ], [ -65.470441, 18.089501 ] ] ], [ [ [ -65.37974, 18.109738 ], [ -65.376168, 18.111157 ], [ -65.372346, 18.108125 ], [ -65.373645, 18.10542 ], [ -65.37974, 18.109738 ] ] ], [ [ [ -65.736592, 18.157954 ], [ -65.736483, 18.160411 ], [ -65.731717, 18.159283 ], [ -65.731852, 18.155429 ], [ -65.734586, 18.15522 ], [ -65.736592, 18.157954 ] ] ], [ [ [ -67.952346, 18.158602 ], [ -67.950755, 18.162259 ], [ -67.947031, 18.161692 ], [ -67.945829, 18.15791 ], [ -67.952346, 18.158602 ] ] ], [ [ [ -65.605698, 18.211311 ], [ -65.603448, 18.214317 ], [ -65.598355, 18.213527 ], [ -65.598103, 18.21071 ], [ -65.605698, 18.211311 ] ] ], [ [ [ -65.58207, 18.24776 ], [ -65.576105, 18.250626 ], [ -65.575055, 18.247093 ], [ -65.579889, 18.245523 ], [ -65.58207, 18.24776 ] ] ], [ [ [ -65.613164, 18.312146 ], [ -65.610697, 18.315756 ], [ -65.608421, 18.315718 ], [ -65.606936, 18.310512 ], [ -65.613164, 18.312146 ] ] ], [ [ [ -65.380188, 18.324971 ], [ -65.376811, 18.327183 ], [ -65.373773, 18.323753 ], [ -65.37669, 18.321189 ], [ -65.380188, 18.324971 ] ] ], [ [ [ -65.620516, 18.339178 ], [ -65.616551, 18.341499 ], [ -65.614771, 18.33772 ], [ -65.619734, 18.335639 ], [ -65.620516, 18.339178 ] ] ], [ [ [ -65.533419, 18.361809 ], [ -65.532385, 18.365309 ], [ -65.526298, 18.364405 ], [ -65.52801, 18.361527 ], [ -65.533419, 18.361809 ] ] ], [ [ [ -66.138396, 18.472602 ], [ -66.134566, 18.475117 ], [ -66.132479, 18.473588 ], [ -66.136004, 18.468409 ], [ -66.138396, 18.472602 ] ] ] ] } }
]
}
