{
"type": "FeatureCollection",
"name": "Qatar",
"crs": { "type": "name", "properties": { "name": "urn:ogc:def:crs:OGC:1.3:CRS84" } },
"features": [
{ "type": "Feature", "properties": { "id": "QA", "CNTR_ID": "QA", "CNTR_NAME": "قطر", "NAME_ENGL": "Qatar", "ISO3_CODE": "QAT", "FID": "QA" }, "geometry": { "type": "MultiPolygon", "coordinates": [ [ [ [ 50.815028, 24.739452 ], [ 50.83703, 24.7465 ], [ 50.864783, 24.762343 ], [ 50.874997, 24.797224 ], [ 50.865633, 24.825733 ], [ 50.869565, 24.873362 ], [ 50.863388, 24.897653 ], [ 50.835599, 24.935489 ], [ 50.807268, 24.983267 ], [ 50.807037, 25.01078 ], [ 50.817989, 25.037609 ], [ 50.814853, 25.055211 ], [ 50.802592, 25.080457 ], [ 50.785214, 25.099014 ], [ 50.779811, 25.110946 ], [ 50.781255, 25.150442 ], [ 50.773347, 25.193734 ], [ 50.769914, 25.25487 ], [ 50.77458, 25.304468 ], [ 50.768717, 25.346346 ], [ 50.76766, 25.384743 ], [ 50.760879, 25.417668 ], [ 50.772278, 25.475098 ], [ 50.770103, 25.499125 ], [ 50.788469, 25.518619 ], [ 50.803727, 25.520416 ], [ 50.815292, 25.507632 ], [ 50.833789, 25.464364 ], [ 50.84166, 25.460174 ], [ 50.847717, 25.46297 ], [ 50.844027, 25.493744 ], [ 50.829773, 25.524528 ], [ 50.8394, 25.555539 ], [ 50.836467, 25.57741 ], [ 50.827324, 25.58914 ], [ 50.812139, 25.59289 ], [ 50.807249, 25.599436 ], [ 50.81261, 25.6081 ], [ 50.82353, 25.613429 ], [ 50.85321, 25.613501 ], [ 50.85539, 25.617946 ], [ 50.852059, 25.629529 ], [ 50.858039, 25.63591 ], [ 50.880221, 25.62165 ], [ 50.878611, 25.601915 ], [ 50.869763, 25.575671 ], [ 50.875419, 25.540652 ], [ 50.88476, 25.520972 ], [ 50.890678, 25.517674 ], [ 50.899101, 25.517915 ], [ 50.901755, 25.514452 ], [ 50.899652, 25.506922 ], [ 50.887188, 25.495667 ], [ 50.886819, 25.480916 ], [ 50.895857, 25.475985 ], [ 50.912254, 25.480577 ], [ 50.92074, 25.508289 ], [ 50.917831, 25.545649 ], [ 50.930623, 25.59115 ], [ 50.941457, 25.601838 ], [ 50.956845, 25.594673 ], [ 50.968379, 25.595128 ], [ 50.975549, 25.602763 ], [ 50.977996, 25.61426 ], [ 50.971061, 25.620334 ], [ 50.937811, 25.622557 ], [ 50.918712, 25.635311 ], [ 50.910825, 25.646738 ], [ 50.905736, 25.661107 ], [ 50.902281, 25.703547 ], [ 50.918281, 25.737085 ], [ 50.915067, 25.76161 ], [ 50.916405, 25.772776 ], [ 50.934235, 25.794236 ], [ 50.948835, 25.796233 ], [ 50.957, 25.789682 ], [ 50.963083, 25.777579 ], [ 50.965655, 25.762433 ], [ 50.976044, 25.766307 ], [ 50.989451, 25.784655 ], [ 50.992838, 25.796625 ], [ 50.991317, 25.808823 ], [ 50.985781, 25.817633 ], [ 50.974131, 25.823957 ], [ 50.968362, 25.831132 ], [ 50.968284, 25.868778 ], [ 50.997899, 25.908376 ], [ 50.998743, 25.969287 ], [ 51.001479, 25.969949 ], [ 51.01447, 25.962536 ], [ 51.033717, 25.973979 ], [ 51.040533, 25.967489 ], [ 51.044438, 25.968292 ], [ 51.046606, 25.975306 ], [ 51.043403, 25.99981 ], [ 51.053983, 26.044498 ], [ 51.097318, 26.068345 ], [ 51.117979, 26.073727 ], [ 51.135791, 26.07341 ], [ 51.147645, 26.07832 ], [ 51.157483, 26.088323 ], [ 51.169277, 26.110605 ], [ 51.195121, 26.135091 ], [ 51.225712, 26.139186 ], [ 51.246708, 26.149257 ], [ 51.262579, 26.150318 ], [ 51.315727, 26.129385 ], [ 51.341653, 26.114903 ], [ 51.359866, 26.101103 ], [ 51.368562, 26.051997 ], [ 51.386165, 26.025142 ], [ 51.402545, 26.00743 ], [ 51.408281, 25.976225 ], [ 51.418834, 25.960791 ], [ 51.434941, 25.951546 ], [ 51.448555, 25.94761 ], [ 51.494553, 25.949716 ], [ 51.518855, 25.94743 ], [ 51.539725, 25.93155 ], [ 51.569371, 25.91882 ], [ 51.579825, 25.905293 ], [ 51.583041, 25.879131 ], [ 51.59473, 25.846316 ], [ 51.600768, 25.809301 ], [ 51.592855, 25.814273 ], [ 51.594517, 25.790382 ], [ 51.585977, 25.777514 ], [ 51.56811, 25.766447 ], [ 51.572905, 25.758228 ], [ 51.569997, 25.749395 ], [ 51.561593, 25.746261 ], [ 51.546448, 25.75198 ], [ 51.541754, 25.749538 ], [ 51.551822, 25.736784 ], [ 51.575734, 25.721596 ], [ 51.582272, 25.72173 ], [ 51.587752, 25.728929 ], [ 51.591797, 25.729226 ], [ 51.597343, 25.707225 ], [ 51.58904, 25.68763 ], [ 51.579973, 25.680312 ], [ 51.568068, 25.681658 ], [ 51.563961, 25.69165 ], [ 51.553426, 25.69987 ], [ 51.539309, 25.699076 ], [ 51.522926, 25.690055 ], [ 51.52852, 25.68238 ], [ 51.541923, 25.675012 ], [ 51.543849, 25.656895 ], [ 51.55623, 25.654242 ], [ 51.558372, 25.634684 ], [ 51.549823, 25.620173 ], [ 51.54033, 25.61775 ], [ 51.528061, 25.619628 ], [ 51.502426, 25.595334 ], [ 51.498468, 25.577489 ], [ 51.501089, 25.55397 ], [ 51.485877, 25.509202 ], [ 51.500282, 25.477906 ], [ 51.518916, 25.459018 ], [ 51.529752, 25.435055 ], [ 51.534244, 25.387652 ], [ 51.531417, 25.338511 ], [ 51.54213, 25.316041 ], [ 51.53388, 25.302602 ], [ 51.533155, 25.295376 ], [ 51.541207, 25.288673 ], [ 51.553665, 25.284946 ], [ 51.584387, 25.281451 ], [ 51.611599, 25.264169 ], [ 51.610959, 25.229479 ], [ 51.625243, 25.202138 ], [ 51.628554, 25.182928 ], [ 51.622185, 25.158831 ], [ 51.62702, 25.136559 ], [ 51.629363, 25.105751 ], [ 51.620723, 25.058167 ], [ 51.632712, 25.013449 ], [ 51.629881, 24.996953 ], [ 51.622231, 24.984205 ], [ 51.59791, 24.966191 ], [ 51.594544, 24.957029 ], [ 51.593631, 24.939819 ], [ 51.575197, 24.908152 ], [ 51.518265, 24.841132 ], [ 51.503275, 24.810325 ], [ 51.487483, 24.75117 ], [ 51.462709, 24.709574 ], [ 51.44139, 24.654764 ], [ 51.422882, 24.636341 ], [ 51.394298, 24.62597 ], [ 51.388227, 24.612576 ], [ 51.385624, 24.59374 ], [ 51.37981, 24.582434 ], [ 51.352799, 24.560841 ], [ 51.345594, 24.563721 ], [ 51.339564, 24.587458 ], [ 51.355026, 24.606026 ], [ 51.361426, 24.619411 ], [ 51.361712, 24.627724 ], [ 51.352714, 24.628796 ], [ 51.349254, 24.642192 ], [ 51.336078, 24.634598 ], [ 51.314251, 24.637065 ], [ 51.302201, 24.641263 ], [ 51.295579, 24.654479 ], [ 51.285421, 24.647378 ], [ 51.270151, 24.645873 ], [ 51.230773, 24.633749 ], [ 51.228616, 24.62339 ], [ 51.236997, 24.613288 ], [ 51.251898, 24.609579 ], [ 51.284706, 24.608524 ], [ 51.303924, 24.594162 ], [ 51.317252, 24.589586 ], [ 51.317301, 24.582968 ], [ 51.309457, 24.562468 ], [ 51.305516, 24.506301 ], [ 51.301734, 24.505474 ], [ 51.134701, 24.477217 ], [ 51.098611, 24.471111 ], [ 51.0, 24.5 ], [ 50.928889, 24.545278 ], [ 50.859531, 24.673353 ], [ 50.815028, 24.739452 ] ] ], [ [ [ 51.218208, 26.174467 ], [ 51.21949, 26.177586 ], [ 51.238476, 26.175615 ], [ 51.240082, 26.17697 ], [ 51.250599, 26.177357 ], [ 51.254757, 26.174074 ], [ 51.254318, 26.172684 ], [ 51.248165, 26.174623 ], [ 51.227833, 26.171722 ], [ 51.225399, 26.168989 ], [ 51.22879, 26.16608 ], [ 51.226372, 26.163696 ], [ 51.21904, 26.165319 ], [ 51.220387, 26.170191 ], [ 51.218208, 26.174467 ] ] ], [ [ [ 51.265907, 26.160055 ], [ 51.265999, 26.162508 ], [ 51.268833, 26.165581 ], [ 51.271595, 26.16655 ], [ 51.276943, 26.163931 ], [ 51.282612, 26.15955 ], [ 51.284763, 26.154572 ], [ 51.288139, 26.151312 ], [ 51.297215, 26.144369 ], [ 51.297123, 26.141916 ], [ 51.29245, 26.141708 ], [ 51.272926, 26.160543 ], [ 51.268681, 26.161375 ], [ 51.265907, 26.160055 ] ] ], [ [ [ 52.413288, 25.671422 ], [ 52.417011, 25.675425 ], [ 52.42239, 25.676607 ], [ 52.427586, 25.66791 ], [ 52.421806, 25.663294 ], [ 52.41539, 25.661459 ], [ 52.413406, 25.662451 ], [ 52.413288, 25.671422 ] ] ], [ [ [ 51.56861, 25.388888 ], [ 51.574814, 25.394825 ], [ 51.569045, 25.40495 ], [ 51.571964, 25.408287 ], [ 51.582413, 25.400899 ], [ 51.581469, 25.397138 ], [ 51.578219, 25.395438 ], [ 51.57044, 25.386789 ], [ 51.56861, 25.388888 ] ] ], [ [ [ 51.591257, 25.751997 ], [ 51.591641, 25.754831 ], [ 51.599879, 25.761335 ], [ 51.601445, 25.766618 ], [ 51.600739, 25.769695 ], [ 51.602722, 25.776993 ], [ 51.604961, 25.775562 ], [ 51.604857, 25.766618 ], [ 51.604698, 25.761022 ], [ 51.602591, 25.756985 ], [ 51.591257, 25.751997 ] ] ], [ [ [ 51.579395, 25.750235 ], [ 51.582405, 25.757967 ], [ 51.589649, 25.763073 ], [ 51.591972, 25.764626 ], [ 51.593185, 25.76276 ], [ 51.59129, 25.758444 ], [ 51.58342, 25.74922 ], [ 51.580341, 25.747915 ], [ 51.579395, 25.750235 ] ] ], [ [ [ 50.879375, 25.53878 ], [ 50.882332, 25.539145 ], [ 50.887547, 25.533661 ], [ 50.894779, 25.529902 ], [ 50.894707, 25.527679 ], [ 50.89175, 25.527315 ], [ 50.883579, 25.532434 ], [ 50.879375, 25.53878 ] ] ], [ [ [ 51.577435, 25.337824 ], [ 51.57803, 25.340334 ], [ 51.580872, 25.342085 ], [ 51.589275, 25.343899 ], [ 51.592953, 25.340797 ], [ 51.577435, 25.337824 ] ] ] ] } }
]
}
