{
"type": "FeatureCollection",
"name": "Saint Helena, Ascension and Tristan Da Cunha",
"crs": { "type": "name", "properties": { "name": "urn:ogc:def:crs:OGC:1.3:CRS84" } },
"features": [
{ "type": "Feature", "properties": { "id": "SH", "CNTR_ID": "SH", "CNTR_NAME": "Saint Helena, Ascension and Tristan Da Cunha", "NAME_ENGL": "Saint Helena, Ascension and Tristan Da Cunha", "ISO3_CODE": "SHN", "FID": "SH" }, "geometry": { "type": "MultiPolygon", "coordinates": [ [ [ [ -5.788296, -15.994078 ], [ -5.784867, -15.99207 ], [ -5.780198, -15.984833 ], [ -5.775654, -15.982832 ], [ -5.773982, -15.975046 ], [ -5.770564, -15.974084 ], [ -5.77032, -15.971829 ], [ -5.766478, -15.970245 ], [ -5.764749, -15.96655 ], [ -5.765093, -15.95955 ], [ -5.759701, -15.952374 ], [ -5.757783, -15.94849 ], [ -5.747599, -15.943168 ], [ -5.744179, -15.939978 ], [ -5.741374, -15.941034 ], [ -5.737977, -15.938687 ], [ -5.736599, -15.935357 ], [ -5.734048, -15.93497 ], [ -5.729337, -15.928765 ], [ -5.725925, -15.92819 ], [ -5.717684, -15.923081 ], [ -5.717699, -15.919258 ], [ -5.712292, -15.91937 ], [ -5.711685, -15.91509 ], [ -5.707008, -15.910539 ], [ -5.70718, -15.907048 ], [ -5.703807, -15.904275 ], [ -5.697325, -15.904124 ], [ -5.696338, -15.907951 ], [ -5.69135, -15.91152 ], [ -5.686394, -15.91348 ], [ -5.682192, -15.912029 ], [ -5.676655, -15.913708 ], [ -5.678015, -15.918099 ], [ -5.674501, -15.919526 ], [ -5.67318, -15.915515 ], [ -5.666409, -15.911018 ], [ -5.662135, -15.909978 ], [ -5.656866, -15.911488 ], [ -5.655708, -15.914525 ], [ -5.651227, -15.919934 ], [ -5.653752, -15.921094 ], [ -5.654198, -15.924996 ], [ -5.64948, -15.930424 ], [ -5.651877, -15.935134 ], [ -5.64818, -15.940066 ], [ -5.642367, -15.939655 ], [ -5.638881, -15.947627 ], [ -5.636567, -15.947406 ], [ -5.634145, -15.950283 ], [ -5.640544, -15.958894 ], [ -5.639053, -15.962554 ], [ -5.640331, -15.963986 ], [ -5.635778, -15.97205 ], [ -5.636179, -15.973866 ], [ -5.64259, -15.974543 ], [ -5.645183, -15.973636 ], [ -5.650558, -15.97571 ], [ -5.649713, -15.979371 ], [ -5.65146, -15.983704 ], [ -5.656837, -15.986167 ], [ -5.657524, -15.988971 ], [ -5.66119, -15.989826 ], [ -5.663607, -15.988361 ], [ -5.666278, -15.991388 ], [ -5.669447, -15.990963 ], [ -5.672549, -15.992748 ], [ -5.670433, -15.994212 ], [ -5.673128, -15.998367 ], [ -5.672373, -16.00068 ], [ -5.674866, -16.002502 ], [ -5.677243, -15.999289 ], [ -5.679801, -16.001047 ], [ -5.685964, -16.002247 ], [ -5.687784, -16.007113 ], [ -5.693119, -16.004463 ], [ -5.696228, -16.004969 ], [ -5.701996, -16.00179 ], [ -5.702865, -16.003266 ], [ -5.709006, -16.002755 ], [ -5.713868, -16.004615 ], [ -5.714345, -16.009099 ], [ -5.720621, -16.009801 ], [ -5.722468, -16.013172 ], [ -5.729116, -16.014553 ], [ -5.741861, -16.025013 ], [ -5.745931, -16.026064 ], [ -5.748146, -16.023371 ], [ -5.752479, -16.021474 ], [ -5.757762, -16.014374 ], [ -5.757622, -16.009678 ], [ -5.762637, -16.005659 ], [ -5.7682, -16.005463 ], [ -5.769544, -16.002874 ], [ -5.775496, -16.004251 ], [ -5.777204, -16.000701 ], [ -5.781242, -15.998772 ], [ -5.783288, -15.999657 ], [ -5.784991, -15.996411 ], [ -5.786662, -15.997425 ], [ -5.788296, -15.994078 ] ] ], [ [ [ -12.35042, -37.118504 ], [ -12.347686, -37.115982 ], [ -12.346893, -37.110969 ], [ -12.342872, -37.108079 ], [ -12.342957, -37.102614 ], [ -12.341598, -37.094754 ], [ -12.33888, -37.093761 ], [ -12.336902, -37.089322 ], [ -12.337562, -37.08736 ], [ -12.331163, -37.081426 ], [ -12.328212, -37.082467 ], [ -12.326689, -37.079372 ], [ -12.323658, -37.079312 ], [ -12.318822, -37.074915 ], [ -12.319459, -37.070533 ], [ -12.317077, -37.064558 ], [ -12.314389, -37.063412 ], [ -12.297033, -37.063124 ], [ -12.285608, -37.063963 ], [ -12.279767, -37.061563 ], [ -12.273879, -37.063069 ], [ -12.262948, -37.062122 ], [ -12.258133, -37.064094 ], [ -12.254013, -37.06816 ], [ -12.247459, -37.070329 ], [ -12.239132, -37.077111 ], [ -12.233327, -37.080675 ], [ -12.226445, -37.089748 ], [ -12.221855, -37.096971 ], [ -12.219966, -37.103663 ], [ -12.217293, -37.107868 ], [ -12.215228, -37.114066 ], [ -12.218259, -37.118892 ], [ -12.227346, -37.127806 ], [ -12.231256, -37.129297 ], [ -12.237428, -37.134437 ], [ -12.238409, -37.1374 ], [ -12.243127, -37.140804 ], [ -12.247307, -37.141866 ], [ -12.253315, -37.145437 ], [ -12.257224, -37.152815 ], [ -12.261372, -37.154267 ], [ -12.267137, -37.158059 ], [ -12.268109, -37.160909 ], [ -12.266616, -37.163788 ], [ -12.271216, -37.167693 ], [ -12.279153, -37.168492 ], [ -12.283181, -37.169821 ], [ -12.289571, -37.166777 ], [ -12.291749, -37.163831 ], [ -12.296727, -37.160698 ], [ -12.299122, -37.160439 ], [ -12.304366, -37.157533 ], [ -12.311753, -37.157992 ], [ -12.314715, -37.16021 ], [ -12.32274, -37.153478 ], [ -12.32424, -37.149732 ], [ -12.327214, -37.146233 ], [ -12.337691, -37.135963 ], [ -12.344656, -37.127497 ], [ -12.346525, -37.12104 ], [ -12.35042, -37.118504 ] ] ], [ [ [ -14.420207, -7.941639 ], [ -14.418951, -7.931326 ], [ -14.407443, -7.921353 ], [ -14.403713, -7.912675 ], [ -14.404239, -7.906117 ], [ -14.397157, -7.897576 ], [ -14.377955, -7.890023 ], [ -14.356615, -7.89777 ], [ -14.342994, -7.912675 ], [ -14.340302, -7.914655 ], [ -14.338424, -7.912675 ], [ -14.333714, -7.912675 ], [ -14.323726, -7.920741 ], [ -14.314872, -7.93704 ], [ -14.296941, -7.945846 ], [ -14.297153, -7.953956 ], [ -14.301382, -7.956091 ], [ -14.309127, -7.954023 ], [ -14.31368, -7.966241 ], [ -14.331699, -7.973585 ], [ -14.343596, -7.982982 ], [ -14.353594, -7.980467 ], [ -14.366495, -7.986197 ], [ -14.374799, -7.985571 ], [ -14.39416, -7.992141 ], [ -14.401189, -7.989617 ], [ -14.41459, -7.976585 ], [ -14.411385, -7.965861 ], [ -14.420207, -7.941639 ] ] ], [ [ [ -10.018506, -40.310503 ], [ -10.018203, -40.309101 ], [ -10.01348, -40.307526 ], [ -10.01108, -40.305106 ], [ -10.0109, -40.301642 ], [ -10.008129, -40.300477 ], [ -10.005222, -40.296032 ], [ -10.001171, -40.29295 ], [ -10.002518, -40.289061 ], [ -10.000163, -40.285505 ], [ -10.002046, -40.282399 ], [ -9.997796, -40.280822 ], [ -9.990993, -40.276757 ], [ -9.98823, -40.278528 ], [ -9.982213, -40.278879 ], [ -9.980303, -40.277601 ], [ -9.969714, -40.276425 ], [ -9.968575, -40.277985 ], [ -9.962251, -40.278512 ], [ -9.959882, -40.275948 ], [ -9.955459, -40.275493 ], [ -9.952121, -40.278546 ], [ -9.943964, -40.279444 ], [ -9.942399, -40.277638 ], [ -9.939861, -40.27887 ], [ -9.935116, -40.27662 ], [ -9.931706, -40.276581 ], [ -9.92432, -40.28069 ], [ -9.92291, -40.284191 ], [ -9.919448, -40.287654 ], [ -9.919601, -40.291485 ], [ -9.917992, -40.293752 ], [ -9.911994, -40.298688 ], [ -9.908914, -40.302417 ], [ -9.905177, -40.302899 ], [ -9.905704, -40.308234 ], [ -9.904497, -40.313322 ], [ -9.901071, -40.318177 ], [ -9.897579, -40.319561 ], [ -9.898888, -40.321198 ], [ -9.896428, -40.326517 ], [ -9.888007, -40.329634 ], [ -9.886072, -40.331697 ], [ -9.879, -40.334244 ], [ -9.878783, -40.338132 ], [ -9.875503, -40.33956 ], [ -9.878112, -40.342844 ], [ -9.875903, -40.346495 ], [ -9.880071, -40.350003 ], [ -9.882004, -40.355533 ], [ -9.884227, -40.357723 ], [ -9.882591, -40.359509 ], [ -9.885857, -40.364415 ], [ -9.890382, -40.367064 ], [ -9.890777, -40.369547 ], [ -9.89463, -40.370831 ], [ -9.899233, -40.367117 ], [ -9.912707, -40.366809 ], [ -9.914713, -40.364739 ], [ -9.918892, -40.364462 ], [ -9.921833, -40.366693 ], [ -9.922941, -40.363724 ], [ -9.927957, -40.364307 ], [ -9.928461, -40.363127 ], [ -9.923608, -40.358861 ], [ -9.925082, -40.353986 ], [ -9.929727, -40.352223 ], [ -9.931114, -40.350397 ], [ -9.935802, -40.351564 ], [ -9.942199, -40.347768 ], [ -9.948768, -40.346951 ], [ -9.961554, -40.339361 ], [ -9.961979, -40.333743 ], [ -9.967298, -40.328249 ], [ -9.974574, -40.323226 ], [ -9.98264, -40.322334 ], [ -9.988817, -40.320425 ], [ -9.995342, -40.316028 ], [ -10.002901, -40.315899 ], [ -10.005965, -40.31665 ], [ -10.007235, -40.314375 ], [ -10.0109, -40.311698 ], [ -10.013738, -40.3116 ], [ -10.014977, -40.314217 ], [ -10.018506, -40.310503 ] ] ], [ [ [ -12.705686, -37.305359 ], [ -12.704535, -37.303475 ], [ -12.705667, -37.294286 ], [ -12.703465, -37.291884 ], [ -12.697561, -37.292384 ], [ -12.689055, -37.287181 ], [ -12.688855, -37.28538 ], [ -12.683652, -37.281077 ], [ -12.676747, -37.281077 ], [ -12.673045, -37.283979 ], [ -12.664039, -37.287281 ], [ -12.662738, -37.290083 ], [ -12.653932, -37.291884 ], [ -12.649329, -37.291083 ], [ -12.646727, -37.294586 ], [ -12.643925, -37.295386 ], [ -12.641123, -37.299689 ], [ -12.644425, -37.303392 ], [ -12.65173, -37.304693 ], [ -12.660836, -37.309696 ], [ -12.669542, -37.312398 ], [ -12.670143, -37.314199 ], [ -12.675822, -37.314718 ], [ -12.679368, -37.316829 ], [ -12.682576, -37.320205 ], [ -12.684687, -37.320712 ], [ -12.683505, -37.316069 ], [ -12.684599, -37.31435 ], [ -12.689583, -37.31666 ], [ -12.691207, -37.314992 ], [ -12.693551, -37.317251 ], [ -12.695746, -37.311173 ], [ -12.699038, -37.310666 ], [ -12.698824, -37.313473 ], [ -12.700895, -37.313705 ], [ -12.700895, -37.310666 ], [ -12.705686, -37.305359 ] ] ], [ [ [ -12.494169, -37.422928 ], [ -12.49377, -37.421014 ], [ -12.49058, -37.418382 ], [ -12.486353, -37.417903 ], [ -12.482445, -37.418781 ], [ -12.48109, -37.416388 ], [ -12.477581, -37.414394 ], [ -12.47471, -37.414953 ], [ -12.471041, -37.418462 ], [ -12.470961, -37.421811 ], [ -12.472476, -37.423087 ], [ -12.469605, -37.426118 ], [ -12.472636, -37.426517 ], [ -12.473274, -37.429388 ], [ -12.479654, -37.431222 ], [ -12.480212, -37.42851 ], [ -12.486592, -37.429308 ], [ -12.489942, -37.43186 ], [ -12.492733, -37.426995 ], [ -12.492023, -37.424604 ], [ -12.494169, -37.422928 ] ] ], [ [ [ -12.492441, -37.401872 ], [ -12.490619, -37.399724 ], [ -12.48504, -37.401933 ], [ -12.48622, -37.404092 ], [ -12.492441, -37.401872 ] ] ], [ [ [ -12.481906, -37.409801 ], [ -12.480176, -37.408096 ], [ -12.474945, -37.410662 ], [ -12.47909, -37.412834 ], [ -12.481906, -37.409801 ] ] ], [ [ [ -9.901041, -40.297293 ], [ -9.898137, -40.295836 ], [ -9.895387, -40.297118 ], [ -9.895693, -40.299449 ], [ -9.900582, -40.299332 ], [ -9.901041, -40.297293 ] ] ] ] } }
]
}
