{
"type": "FeatureCollection",
"name": "Saint Vincent and The Grenadines",
"crs": { "type": "name", "properties": { "name": "urn:ogc:def:crs:OGC:1.3:CRS84" } },
"features": [
{ "type": "Feature", "properties": { "id": "VC", "CNTR_ID": "VC", "CNTR_NAME": "Saint Vincent and The Grenadines", "NAME_ENGL": "Saint Vincent and The Grenadines", "ISO3_CODE": "VCT", "FID": "VC" }, "geometry": { "type": "MultiPolygon", "coordinates": [ [ [ [ -61.279336, 13.207025 ], [ -61.275141, 13.217798 ], [ -61.277723, 13.222191 ], [ -61.275107, 13.226633 ], [ -61.273829, 13.234675 ], [ -61.276119, 13.239669 ], [ -61.275525, 13.246162 ], [ -61.270277, 13.24791 ], [ -61.272491, 13.250415 ], [ -61.272988, 13.255175 ], [ -61.265722, 13.2595 ], [ -61.263595, 13.264359 ], [ -61.259923, 13.264401 ], [ -61.260163, 13.26714 ], [ -61.264453, 13.270563 ], [ -61.263072, 13.274028 ], [ -61.258645, 13.279121 ], [ -61.262248, 13.282836 ], [ -61.259537, 13.287653 ], [ -61.25542, 13.286401 ], [ -61.24534, 13.289924 ], [ -61.244767, 13.292301 ], [ -61.24045, 13.291076 ], [ -61.235655, 13.293731 ], [ -61.233253, 13.298348 ], [ -61.235055, 13.304625 ], [ -61.23484, 13.311371 ], [ -61.232696, 13.314075 ], [ -61.227703, 13.316204 ], [ -61.223748, 13.323658 ], [ -61.222933, 13.328642 ], [ -61.219717, 13.335553 ], [ -61.214252, 13.340745 ], [ -61.215084, 13.347297 ], [ -61.212193, 13.347314 ], [ -61.210392, 13.351387 ], [ -61.209877, 13.356545 ], [ -61.205991, 13.360401 ], [ -61.204927, 13.367579 ], [ -61.202071, 13.368872 ], [ -61.201539, 13.371426 ], [ -61.194951, 13.370124 ], [ -61.19182, 13.374514 ], [ -61.186201, 13.379763 ], [ -61.182701, 13.379138 ], [ -61.181011, 13.380773 ], [ -61.179355, 13.378428 ], [ -61.174878, 13.382042 ], [ -61.170674, 13.38281 ], [ -61.157935, 13.380565 ], [ -61.156477, 13.380848 ], [ -61.15266, 13.376116 ], [ -61.148842, 13.374589 ], [ -61.145111, 13.375774 ], [ -61.141919, 13.378804 ], [ -61.14029, 13.374564 ], [ -61.142606, 13.372795 ], [ -61.137768, 13.368973 ], [ -61.134079, 13.370692 ], [ -61.130999, 13.36702 ], [ -61.134817, 13.36404 ], [ -61.133032, 13.3598 ], [ -61.13063, 13.358048 ], [ -61.132054, 13.355268 ], [ -61.12979, 13.351612 ], [ -61.128915, 13.346821 ], [ -61.126813, 13.342857 ], [ -61.123725, 13.341505 ], [ -61.122549, 13.337089 ], [ -61.118518, 13.329894 ], [ -61.117849, 13.312155 ], [ -61.117162, 13.305644 ], [ -61.115515, 13.30127 ], [ -61.115189, 13.294441 ], [ -61.11639, 13.286676 ], [ -61.116013, 13.279947 ], [ -61.11826, 13.277802 ], [ -61.118046, 13.272458 ], [ -61.116159, 13.262172 ], [ -61.118175, 13.257062 ], [ -61.114872, 13.240128 ], [ -61.119581, 13.234884 ], [ -61.123553, 13.231811 ], [ -61.126839, 13.220061 ], [ -61.126307, 13.214741 ], [ -61.129695, 13.210983 ], [ -61.131171, 13.2071 ], [ -61.130999, 13.202106 ], [ -61.134714, 13.200268 ], [ -61.13715, 13.195783 ], [ -61.137991, 13.187682 ], [ -61.139766, 13.187991 ], [ -61.141533, 13.183924 ], [ -61.141465, 13.180315 ], [ -61.143481, 13.173399 ], [ -61.143258, 13.164178 ], [ -61.144081, 13.15494 ], [ -61.146552, 13.1525 ], [ -61.146209, 13.150203 ], [ -61.151579, 13.145316 ], [ -61.156005, 13.147112 ], [ -61.162679, 13.138675 ], [ -61.163372, 13.134422 ], [ -61.165501, 13.133346 ], [ -61.168083, 13.123638 ], [ -61.170314, 13.122844 ], [ -61.176833, 13.12566 ], [ -61.180256, 13.123972 ], [ -61.184245, 13.125877 ], [ -61.187659, 13.123262 ], [ -61.1931, 13.123605 ], [ -61.189701, 13.127239 ], [ -61.193072, 13.128325 ], [ -61.196306, 13.131249 ], [ -61.199429, 13.131725 ], [ -61.202217, 13.134766 ], [ -61.207089, 13.137021 ], [ -61.212965, 13.141215 ], [ -61.22012, 13.140095 ], [ -61.222019, 13.137356 ], [ -61.224709, 13.137096 ], [ -61.228672, 13.140354 ], [ -61.225413, 13.14418 ], [ -61.225996, 13.147405 ], [ -61.223465, 13.148716 ], [ -61.226425, 13.15372 ], [ -61.234651, 13.158039 ], [ -61.238692, 13.156886 ], [ -61.241917, 13.154246 ], [ -61.245966, 13.155566 ], [ -61.248025, 13.1629 ], [ -61.245314, 13.165865 ], [ -61.250144, 13.172038 ], [ -61.252796, 13.171509 ], [ -61.254785, 13.174343 ], [ -61.257907, 13.175237 ], [ -61.25729, 13.178177 ], [ -61.261896, 13.178511 ], [ -61.266357, 13.18146 ], [ -61.265851, 13.183757 ], [ -61.26893, 13.184692 ], [ -61.269359, 13.187766 ], [ -61.266786, 13.18916 ], [ -61.269471, 13.194806 ], [ -61.272491, 13.196301 ], [ -61.270191, 13.198949 ], [ -61.272816, 13.203033 ], [ -61.276553, 13.202526 ], [ -61.279336, 13.207025 ] ] ], [ [ [ -61.497206, 12.444979 ], [ -61.494805, 12.450131 ], [ -61.486616, 12.453453 ], [ -61.483623, 12.458121 ], [ -61.486616, 12.463036 ], [ -61.496594, 12.46699 ], [ -61.496476, 12.472261 ], [ -61.482519, 12.472173 ], [ -61.477201, 12.478021 ], [ -61.458544, 12.483435 ], [ -61.44973, 12.503133 ], [ -61.449461, 12.516989 ], [ -61.438348, 12.526933 ], [ -61.430358, 12.524569 ], [ -61.429176, 12.509747 ], [ -61.420958, 12.50044 ], [ -61.42521, 12.487406 ], [ -61.431784, 12.479278 ], [ -61.430516, 12.459158 ], [ -61.438766, 12.456389 ], [ -61.442607, 12.457954 ], [ -61.457198, 12.456957 ], [ -61.47211, 12.446163 ], [ -61.483803, 12.448356 ], [ -61.494938, 12.443264 ], [ -61.497206, 12.444979 ] ] ], [ [ [ -61.271126, 12.9926 ], [ -61.262687, 12.996371 ], [ -61.248585, 12.996089 ], [ -61.243756, 12.999018 ], [ -61.236889, 13.010176 ], [ -61.247265, 13.011876 ], [ -61.248352, 13.017585 ], [ -61.220908, 13.036453 ], [ -61.212682, 13.038923 ], [ -61.209102, 13.045926 ], [ -61.205113, 13.046036 ], [ -61.206205, 13.032698 ], [ -61.220908, 13.021141 ], [ -61.222422, 13.019446 ], [ -61.215643, 13.015155 ], [ -61.220908, 12.999207 ], [ -61.228995, 12.993942 ], [ -61.230948, 12.988405 ], [ -61.236704, 12.991845 ], [ -61.244823, 12.984908 ], [ -61.270467, 12.991796 ], [ -61.271126, 12.9926 ] ] ], [ [ [ -61.46071, 12.589977 ], [ -61.45894, 12.594138 ], [ -61.450661, 12.597036 ], [ -61.448619, 12.598505 ], [ -61.447071, 12.603703 ], [ -61.452491, 12.607312 ], [ -61.45341, 12.610197 ], [ -61.450772, 12.612223 ], [ -61.44685, 12.611143 ], [ -61.442604, 12.61201 ], [ -61.438485, 12.61485 ], [ -61.433266, 12.605543 ], [ -61.415695, 12.603788 ], [ -61.412212, 12.600368 ], [ -61.418793, 12.591952 ], [ -61.433761, 12.588291 ], [ -61.435922, 12.592493 ], [ -61.442604, 12.587162 ], [ -61.445417, 12.585068 ], [ -61.44919, 12.585269 ], [ -61.46071, 12.589977 ] ] ], [ [ [ -61.348066, 12.700654 ], [ -61.34627, 12.702388 ], [ -61.341478, 12.699522 ], [ -61.336748, 12.703141 ], [ -61.332723, 12.702091 ], [ -61.326381, 12.706361 ], [ -61.325653, 12.711127 ], [ -61.327863, 12.712498 ], [ -61.329048, 12.716132 ], [ -61.328557, 12.720278 ], [ -61.334044, 12.728546 ], [ -61.33296, 12.736623 ], [ -61.331021, 12.738861 ], [ -61.32876, 12.735285 ], [ -61.326611, 12.735529 ], [ -61.3239, 12.732114 ], [ -61.320251, 12.731255 ], [ -61.316652, 12.736615 ], [ -61.311987, 12.737441 ], [ -61.310818, 12.730513 ], [ -61.311953, 12.728554 ], [ -61.308329, 12.72568 ], [ -61.308481, 12.718536 ], [ -61.313044, 12.718516 ], [ -61.317719, 12.720047 ], [ -61.322435, 12.716619 ], [ -61.320454, 12.714902 ], [ -61.32368, 12.70072 ], [ -61.322401, 12.699902 ], [ -61.326914, 12.694194 ], [ -61.328946, 12.694021 ], [ -61.33119, 12.697292 ], [ -61.337574, 12.696424 ], [ -61.339522, 12.693839 ], [ -61.344009, 12.69369 ], [ -61.348066, 12.700654 ] ] ], [ [ [ -61.193696, 12.869856 ], [ -61.193399, 12.871891 ], [ -61.189251, 12.874788 ], [ -61.18728, 12.879193 ], [ -61.190727, 12.883582 ], [ -61.185352, 12.890075 ], [ -61.18461, 12.893645 ], [ -61.180827, 12.89118 ], [ -61.17685, 12.891063 ], [ -61.172907, 12.895096 ], [ -61.168658, 12.891038 ], [ -61.169843, 12.888953 ], [ -61.166631, 12.885688 ], [ -61.170015, 12.88244 ], [ -61.171827, 12.883227 ], [ -61.175846, 12.881109 ], [ -61.177306, 12.874135 ], [ -61.179401, 12.871255 ], [ -61.178553, 12.867556 ], [ -61.182716, 12.858328 ], [ -61.190726, 12.861918 ], [ -61.193696, 12.869856 ] ] ], [ [ [ -61.398311, 12.630686 ], [ -61.397443, 12.639112 ], [ -61.393329, 12.647105 ], [ -61.383473, 12.643424 ], [ -61.383225, 12.638948 ], [ -61.389876, 12.636926 ], [ -61.393329, 12.632665 ], [ -61.393329, 12.629966 ], [ -61.398311, 12.630686 ] ] ], [ [ [ -61.393335, 12.516911 ], [ -61.393335, 12.519618 ], [ -61.383499, 12.52601 ], [ -61.378411, 12.517787 ], [ -61.379529, 12.513034 ], [ -61.383986, 12.511041 ], [ -61.393335, 12.516911 ] ] ], [ [ [ -61.268098, 12.95029 ], [ -61.266271, 12.95293 ], [ -61.255644, 12.955774 ], [ -61.250496, 12.961606 ], [ -61.249753, 12.965527 ], [ -61.245651, 12.964812 ], [ -61.247561, 12.962654 ], [ -61.246477, 12.960349 ], [ -61.250238, 12.958315 ], [ -61.250541, 12.953562 ], [ -61.248417, 12.950158 ], [ -61.255917, 12.949107 ], [ -61.259168, 12.953002 ], [ -61.262286, 12.948749 ], [ -61.265723, 12.948484 ], [ -61.268098, 12.95029 ] ] ], [ [ [ -61.149299, 12.955468 ], [ -61.1465, 12.959397 ], [ -61.14257, 12.95885 ], [ -61.143404, 12.954299 ], [ -61.142706, 12.947426 ], [ -61.140656, 12.949184 ], [ -61.137296, 12.945179 ], [ -61.137075, 12.940346 ], [ -61.141294, 12.941764 ], [ -61.143355, 12.940242 ], [ -61.148729, 12.952053 ], [ -61.149299, 12.955468 ] ] ], [ [ [ -61.135882, 12.961454 ], [ -61.131268, 12.966643 ], [ -61.127452, 12.965605 ], [ -61.126645, 12.961386 ], [ -61.129873, 12.958933 ], [ -61.13482, 12.957916 ], [ -61.135882, 12.961454 ] ] ], [ [ [ -61.493683, 12.407103 ], [ -61.489159, 12.4106 ], [ -61.486622, 12.408348 ], [ -61.48469, 12.405792 ], [ -61.486622, 12.401979 ], [ -61.491219, 12.403805 ], [ -61.493683, 12.407103 ] ] ], [ [ [ -61.198945, 12.840399 ], [ -61.196847, 12.842436 ], [ -61.193936, 12.842068 ], [ -61.189809, 12.838212 ], [ -61.192904, 12.835038 ], [ -61.196684, 12.836709 ], [ -61.198945, 12.840399 ] ] ], [ [ [ -61.388968, 12.538739 ], [ -61.386038, 12.540485 ], [ -61.380295, 12.538017 ], [ -61.380741, 12.534256 ], [ -61.387297, 12.536208 ], [ -61.388968, 12.538739 ] ] ], [ [ [ -61.400887, 12.587903 ], [ -61.399383, 12.589367 ], [ -61.393335, 12.587285 ], [ -61.393335, 12.585006 ], [ -61.395771, 12.583557 ], [ -61.398979, 12.584433 ], [ -61.400887, 12.587903 ] ] ], [ [ [ -61.481477, 12.41249 ], [ -61.480379, 12.415827 ], [ -61.47504, 12.41546 ], [ -61.473668, 12.411838 ], [ -61.478745, 12.411024 ], [ -61.481477, 12.41249 ] ] ], [ [ [ -61.362895, 12.631892 ], [ -61.362629, 12.634987 ], [ -61.358966, 12.641094 ], [ -61.35649, 12.63609 ], [ -61.362895, 12.631892 ] ] ], [ [ [ -61.247342, 12.970796 ], [ -61.246514, 12.97547 ], [ -61.240755, 12.975436 ], [ -61.239903, 12.972432 ], [ -61.247342, 12.970796 ] ] ], [ [ [ -61.476776, 12.432121 ], [ -61.471625, 12.434016 ], [ -61.468724, 12.431325 ], [ -61.473022, 12.428626 ], [ -61.476776, 12.432121 ] ] ], [ [ [ -61.495998, 12.4846 ], [ -61.495192, 12.487777 ], [ -61.49083, 12.489632 ], [ -61.491579, 12.483673 ], [ -61.495998, 12.4846 ] ] ], [ [ [ -61.439069, 12.579478 ], [ -61.438753, 12.582353 ], [ -61.434806, 12.582372 ], [ -61.433436, 12.579478 ], [ -61.438101, 12.577395 ], [ -61.439069, 12.579478 ] ] ], [ [ [ -61.355513, 12.705233 ], [ -61.35092, 12.705043 ], [ -61.351155, 12.700323 ], [ -61.354675, 12.700242 ], [ -61.355513, 12.705233 ] ] ], [ [ [ -61.282766, 12.792537 ], [ -61.281235, 12.795441 ], [ -61.27708, 12.79422 ], [ -61.277395, 12.789658 ], [ -61.282766, 12.792537 ] ] ], [ [ [ -61.175926, 12.913222 ], [ -61.171319, 12.914516 ], [ -61.169529, 12.911682 ], [ -61.170976, 12.909821 ], [ -61.175091, 12.910664 ], [ -61.175926, 12.913222 ] ] ] ] } }
]
}
