{
"type": "FeatureCollection",
"name": "Saint Kitts and Nevis",
"crs": { "type": "name", "properties": { "name": "urn:ogc:def:crs:OGC:1.3:CRS84" } },
"features": [
{ "type": "Feature", "properties": { "id": "KN", "CNTR_ID": "KN", "CNTR_NAME": "Saint Kitts and Nevis", "NAME_ENGL": "Saint Kitts and Nevis", "ISO3_CODE": "KNA", "FID": "KN" }, "geometry": { "type": "MultiPolygon", "coordinates": [ [ [ [ -62.864496, 17.370333 ], [ -62.863212, 17.376852 ], [ -62.863597, 17.386701 ], [ -62.861364, 17.391678 ], [ -62.859387, 17.392901 ], [ -62.857987, 17.397076 ], [ -62.852313, 17.399748 ], [ -62.848428, 17.4062 ], [ -62.844681, 17.407854 ], [ -62.843544, 17.410254 ], [ -62.84086, 17.409972 ], [ -62.837545, 17.412259 ], [ -62.830813, 17.411674 ], [ -62.82447, 17.413698 ], [ -62.820728, 17.416615 ], [ -62.814784, 17.416409 ], [ -62.810478, 17.417866 ], [ -62.808186, 17.416434 ], [ -62.800682, 17.406805 ], [ -62.794839, 17.409346 ], [ -62.791737, 17.406797 ], [ -62.782491, 17.403039 ], [ -62.780596, 17.404004 ], [ -62.776351, 17.401126 ], [ -62.769472, 17.392858 ], [ -62.759177, 17.384718 ], [ -62.754344, 17.383065 ], [ -62.74972, 17.379743 ], [ -62.746785, 17.379588 ], [ -62.743817, 17.376719 ], [ -62.741201, 17.376755 ], [ -62.738485, 17.371878 ], [ -62.735378, 17.371118 ], [ -62.732833, 17.367262 ], [ -62.726533, 17.36238 ], [ -62.725939, 17.360043 ], [ -62.721568, 17.355585 ], [ -62.718321, 17.349729 ], [ -62.709714, 17.340946 ], [ -62.704126, 17.334528 ], [ -62.701686, 17.327258 ], [ -62.69694, 17.318944 ], [ -62.690882, 17.312263 ], [ -62.691603, 17.306462 ], [ -62.688125, 17.302543 ], [ -62.684252, 17.301873 ], [ -62.685058, 17.298287 ], [ -62.682646, 17.295859 ], [ -62.683559, 17.288478 ], [ -62.682289, 17.284817 ], [ -62.677011, 17.283687 ], [ -62.675417, 17.279922 ], [ -62.668112, 17.274348 ], [ -62.664481, 17.274018 ], [ -62.662331, 17.270842 ], [ -62.659358, 17.269642 ], [ -62.656186, 17.265572 ], [ -62.656666, 17.263771 ], [ -62.651556, 17.262687 ], [ -62.648276, 17.258587 ], [ -62.645397, 17.257728 ], [ -62.640866, 17.249612 ], [ -62.638283, 17.250407 ], [ -62.636066, 17.255692 ], [ -62.631848, 17.252214 ], [ -62.625752, 17.250373 ], [ -62.621487, 17.240233 ], [ -62.624174, 17.237111 ], [ -62.62768, 17.235586 ], [ -62.628908, 17.232096 ], [ -62.62629, 17.230138 ], [ -62.627953, 17.226338 ], [ -62.630917, 17.22704 ], [ -62.631626, 17.229642 ], [ -62.634566, 17.229643 ], [ -62.639887, 17.226254 ], [ -62.641782, 17.222108 ], [ -62.645824, 17.227041 ], [ -62.649031, 17.226966 ], [ -62.652288, 17.224073 ], [ -62.651654, 17.215187 ], [ -62.654362, 17.212982 ], [ -62.657932, 17.213603 ], [ -62.660321, 17.216718 ], [ -62.658565, 17.220117 ], [ -62.660823, 17.226691 ], [ -62.664403, 17.227742 ], [ -62.664324, 17.231913 ], [ -62.659396, 17.235132 ], [ -62.657254, 17.239949 ], [ -62.660146, 17.245903 ], [ -62.657049, 17.249513 ], [ -62.659624, 17.255866 ], [ -62.659768, 17.260492 ], [ -62.667805, 17.269713 ], [ -62.677916, 17.27482 ], [ -62.681916, 17.275218 ], [ -62.686343, 17.278409 ], [ -62.686818, 17.280216 ], [ -62.691187, 17.281763 ], [ -62.701514, 17.282518 ], [ -62.704546, 17.284212 ], [ -62.709407, 17.289887 ], [ -62.711273, 17.293921 ], [ -62.720249, 17.294455 ], [ -62.721155, 17.291898 ], [ -62.725767, 17.291922 ], [ -62.727088, 17.293926 ], [ -62.731317, 17.292577 ], [ -62.734324, 17.288852 ], [ -62.736822, 17.290889 ], [ -62.740153, 17.289847 ], [ -62.744074, 17.292164 ], [ -62.756914, 17.293117 ], [ -62.759897, 17.292651 ], [ -62.763504, 17.294636 ], [ -62.767305, 17.294095 ], [ -62.772581, 17.296258 ], [ -62.774687, 17.295896 ], [ -62.776619, 17.299463 ], [ -62.785378, 17.303082 ], [ -62.788902, 17.303138 ], [ -62.791222, 17.30823 ], [ -62.793762, 17.309994 ], [ -62.795264, 17.315294 ], [ -62.798875, 17.319039 ], [ -62.817138, 17.32782 ], [ -62.824214, 17.330131 ], [ -62.829146, 17.33303 ], [ -62.834689, 17.338471 ], [ -62.837581, 17.340164 ], [ -62.840758, 17.344624 ], [ -62.84714, 17.348442 ], [ -62.847512, 17.354456 ], [ -62.853268, 17.362999 ], [ -62.856748, 17.365857 ], [ -62.864496, 17.370333 ] ] ], [ [ [ -62.6335, 17.13292 ], [ -62.630009, 17.134379 ], [ -62.629734, 17.144567 ], [ -62.627882, 17.146951 ], [ -62.629554, 17.158171 ], [ -62.628885, 17.166087 ], [ -62.627616, 17.171455 ], [ -62.624057, 17.179485 ], [ -62.619125, 17.185459 ], [ -62.617641, 17.190342 ], [ -62.618816, 17.191251 ], [ -62.61433, 17.195414 ], [ -62.610677, 17.201837 ], [ -62.612126, 17.202886 ], [ -62.608207, 17.205852 ], [ -62.601319, 17.204762 ], [ -62.589466, 17.207581 ], [ -62.585324, 17.206221 ], [ -62.580341, 17.207572 ], [ -62.574457, 17.204762 ], [ -62.566772, 17.195496 ], [ -62.560228, 17.195881 ], [ -62.556445, 17.194627 ], [ -62.555528, 17.191219 ], [ -62.552946, 17.18949 ], [ -62.551591, 17.18613 ], [ -62.545596, 17.180681 ], [ -62.545742, 17.176052 ], [ -62.544352, 17.175118 ], [ -62.544301, 17.165219 ], [ -62.541908, 17.160195 ], [ -62.542826, 17.154754 ], [ -62.542285, 17.150262 ], [ -62.539858, 17.145476 ], [ -62.54123, 17.135797 ], [ -62.543057, 17.127838 ], [ -62.545107, 17.126363 ], [ -62.547483, 17.114437 ], [ -62.554284, 17.106813 ], [ -62.565202, 17.107035 ], [ -62.571429, 17.10392 ], [ -62.577759, 17.103395 ], [ -62.580469, 17.10137 ], [ -62.583591, 17.10137 ], [ -62.588343, 17.099058 ], [ -62.591859, 17.095845 ], [ -62.596182, 17.096288 ], [ -62.597683, 17.094705 ], [ -62.605934, 17.095222 ], [ -62.610874, 17.097919 ], [ -62.611011, 17.099452 ], [ -62.619768, 17.107936 ], [ -62.622291, 17.109061 ], [ -62.622273, 17.112699 ], [ -62.626844, 17.119535 ], [ -62.628877, 17.126224 ], [ -62.63235, 17.128863 ], [ -62.6335, 17.13292 ] ] ] ] } }
]
}
