{
"type": "FeatureCollection",
"name": "Saint Pierre and Miquelon",
"crs": { "type": "name", "properties": { "name": "urn:ogc:def:crs:OGC:1.3:CRS84" } },
"features": [
{ "type": "Feature", "properties": { "id": "PM", "CNTR_ID": "PM", "CNTR_NAME": "Saint-Pierre-Et-Miquelon", "NAME_ENGL": "Saint Pierre and Miquelon", "ISO3_CODE": "SPM", "FID": "PM" }, "geometry": { "type": "MultiPolygon", "coordinates": [ [ [ [ -56.405271, 46.836471 ], [ -56.392681, 46.846249 ], [ -56.380564, 46.857436 ], [ -56.356893, 46.863705 ], [ -56.348105, 46.869339 ], [ -56.342372, 46.876911 ], [ -56.340859, 46.89065 ], [ -56.33058, 46.897777 ], [ -56.327641, 46.918877 ], [ -56.332991, 46.950912 ], [ -56.352451, 46.994652 ], [ -56.360892, 47.006319 ], [ -56.371498, 47.010489 ], [ -56.382639, 47.019187 ], [ -56.389119, 47.054907 ], [ -56.383572, 47.066234 ], [ -56.384823, 47.081254 ], [ -56.389734, 47.098418 ], [ -56.399033, 47.103246 ], [ -56.401069, 47.108084 ], [ -56.390844, 47.126374 ], [ -56.382133, 47.131794 ], [ -56.368516, 47.132589 ], [ -56.34894, 47.142905 ], [ -56.345075, 47.142987 ], [ -56.343981, 47.133012 ], [ -56.355726, 47.128546 ], [ -56.363158, 47.121634 ], [ -56.380372, 47.115625 ], [ -56.377778, 47.102853 ], [ -56.365234, 47.095217 ], [ -56.351567, 47.098425 ], [ -56.346058, 47.097742 ], [ -56.309618, 47.076755 ], [ -56.267001, 47.065393 ], [ -56.253901, 47.058651 ], [ -56.250835, 47.039618 ], [ -56.267001, 47.007293 ], [ -56.270315, 46.999476 ], [ -56.27867, 46.990821 ], [ -56.289516, 46.987178 ], [ -56.302208, 46.979328 ], [ -56.313899, 46.966105 ], [ -56.323235, 46.942927 ], [ -56.32552, 46.926668 ], [ -56.322586, 46.912538 ], [ -56.314363, 46.901417 ], [ -56.301732, 46.89917 ], [ -56.290829, 46.891192 ], [ -56.270877, 46.894248 ], [ -56.267001, 46.891232 ], [ -56.255779, 46.885658 ], [ -56.24718, 46.886411 ], [ -56.246658, 46.877531 ], [ -56.239632, 46.870711 ], [ -56.238177, 46.864802 ], [ -56.238866, 46.852849 ], [ -56.243153, 46.844386 ], [ -56.267001, 46.828313 ], [ -56.312317, 46.80637 ], [ -56.328906, 46.792233 ], [ -56.335812, 46.791179 ], [ -56.348665, 46.783257 ], [ -56.351446, 46.793874 ], [ -56.363953, 46.799164 ], [ -56.371364, 46.795215 ], [ -56.373771, 46.796513 ], [ -56.375208, 46.802952 ], [ -56.37012, 46.820661 ], [ -56.371952, 46.824685 ], [ -56.380123, 46.828369 ], [ -56.400557, 46.827156 ], [ -56.405271, 46.836471 ] ] ], [ [ [ -56.241906, 46.765595 ], [ -56.237575, 46.76582 ], [ -56.23382, 46.767093 ], [ -56.231094, 46.772205 ], [ -56.228652, 46.773223 ], [ -56.228293, 46.775692 ], [ -56.222037, 46.781617 ], [ -56.221951, 46.785021 ], [ -56.21861, 46.787702 ], [ -56.215295, 46.791957 ], [ -56.212851, 46.792891 ], [ -56.212193, 46.795789 ], [ -56.208171, 46.79631 ], [ -56.205241, 46.800656 ], [ -56.199547, 46.80231 ], [ -56.19593, 46.808227 ], [ -56.192736, 46.810321 ], [ -56.180761, 46.813102 ], [ -56.177557, 46.813847 ], [ -56.169799, 46.81377 ], [ -56.166202, 46.815763 ], [ -56.158642, 46.811707 ], [ -56.155113, 46.807779 ], [ -56.155896, 46.804005 ], [ -56.154116, 46.803884 ], [ -56.154621, 46.796718 ], [ -56.159163, 46.793747 ], [ -56.164757, 46.791219 ], [ -56.169191, 46.787237 ], [ -56.166626, 46.786344 ], [ -56.166153, 46.783841 ], [ -56.168329, 46.781489 ], [ -56.175105, 46.77754 ], [ -56.176577, 46.774857 ], [ -56.168456, 46.774681 ], [ -56.162432, 46.776014 ], [ -56.158883, 46.775143 ], [ -56.160524, 46.771736 ], [ -56.159693, 46.770093 ], [ -56.150186, 46.767822 ], [ -56.150875, 46.76474 ], [ -56.155557, 46.762124 ], [ -56.158958, 46.762646 ], [ -56.162171, 46.760006 ], [ -56.172754, 46.762514 ], [ -56.175093, 46.761693 ], [ -56.176311, 46.759085 ], [ -56.172683, 46.75507 ], [ -56.174704, 46.753795 ], [ -56.17898, 46.756571 ], [ -56.178172, 46.758347 ], [ -56.180761, 46.758124 ], [ -56.184508, 46.757802 ], [ -56.18772, 46.756164 ], [ -56.191584, 46.757755 ], [ -56.191524, 46.760589 ], [ -56.19316, 46.762209 ], [ -56.191024, 46.763521 ], [ -56.19051, 46.766185 ], [ -56.19535, 46.766948 ], [ -56.201098, 46.762429 ], [ -56.201766, 46.760786 ], [ -56.206824, 46.76056 ], [ -56.210285, 46.761816 ], [ -56.214123, 46.761757 ], [ -56.217061, 46.759955 ], [ -56.217772, 46.757373 ], [ -56.216672, 46.754203 ], [ -56.222934, 46.750822 ], [ -56.224505, 46.753723 ], [ -56.228347, 46.75461 ], [ -56.227726, 46.757532 ], [ -56.225627, 46.758189 ], [ -56.227595, 46.762061 ], [ -56.231384, 46.763365 ], [ -56.235573, 46.761739 ], [ -56.240802, 46.762652 ], [ -56.241906, 46.765595 ] ] ], [ [ [ -56.156167, 46.783615 ], [ -56.149385, 46.786979 ], [ -56.148376, 46.790878 ], [ -56.145618, 46.789778 ], [ -56.142435, 46.792653 ], [ -56.138212, 46.792784 ], [ -56.138825, 46.790321 ], [ -56.143025, 46.789988 ], [ -56.146862, 46.786503 ], [ -56.145116, 46.786098 ], [ -56.148029, 46.783877 ], [ -56.148768, 46.780828 ], [ -56.155367, 46.781662 ], [ -56.156167, 46.783615 ] ] ], [ [ [ -56.174718, 46.821336 ], [ -56.169184, 46.825161 ], [ -56.165913, 46.824521 ], [ -56.162155, 46.82556 ], [ -56.158403, 46.823831 ], [ -56.161422, 46.82067 ], [ -56.171557, 46.820314 ], [ -56.174718, 46.821336 ] ] ], [ [ [ -56.131623, 46.788633 ], [ -56.128418, 46.792748 ], [ -56.125614, 46.790935 ], [ -56.127758, 46.788404 ], [ -56.131623, 46.788633 ] ] ], [ [ [ -56.134449, 46.796415 ], [ -56.131671, 46.798528 ], [ -56.127284, 46.796702 ], [ -56.131671, 46.794673 ], [ -56.134449, 46.796415 ] ] ], [ [ [ -56.404672, 46.822492 ], [ -56.402669, 46.825102 ], [ -56.399136, 46.823038 ], [ -56.403304, 46.820052 ], [ -56.404672, 46.822492 ] ] ] ] } }
]
}
