{
"type": "FeatureCollection",
"name": "Samoa",
"crs": { "type": "name", "properties": { "name": "urn:ogc:def:crs:OGC:1.3:CRS84" } },
"features": [
{ "type": "Feature", "properties": { "id": "WS", "CNTR_ID": "WS", "CNTR_NAME": "Samoa-Sāmoa", "NAME_ENGL": "Samoa", "ISO3_CODE": "WSM", "FID": "WS" }, "geometry": { "type": "MultiPolygon", "coordinates": [ [ [ [ -172.803105, -13.516191 ], [ -172.78385, -13.493237 ], [ -172.775859, -13.492694 ], [ -172.764311, -13.497025 ], [ -172.757122, -13.490667 ], [ -172.750261, -13.496652 ], [ -172.739002, -13.499855 ], [ -172.720881, -13.514038 ], [ -172.70303, -13.518558 ], [ -172.688257, -13.515064 ], [ -172.682374, -13.510148 ], [ -172.676089, -13.514233 ], [ -172.661642, -13.506564 ], [ -172.650023, -13.516832 ], [ -172.638161, -13.517982 ], [ -172.633624, -13.513205 ], [ -172.634865, -13.504115 ], [ -172.617614, -13.494223 ], [ -172.600096, -13.492321 ], [ -172.587284, -13.495705 ], [ -172.577547, -13.488542 ], [ -172.542419, -13.475582 ], [ -172.530208, -13.473654 ], [ -172.513238, -13.476857 ], [ -172.479278, -13.461758 ], [ -172.464523, -13.468322 ], [ -172.420855, -13.46937 ], [ -172.420855, -13.466408 ], [ -172.41316, -13.450771 ], [ -172.381885, -13.446314 ], [ -172.364594, -13.448953 ], [ -172.355793, -13.440478 ], [ -172.331681, -13.449493 ], [ -172.318817, -13.450371 ], [ -172.306172, -13.459924 ], [ -172.274234, -13.50487 ], [ -172.265478, -13.509736 ], [ -172.258173, -13.522859 ], [ -172.23872, -13.54308 ], [ -172.236117, -13.552791 ], [ -172.227609, -13.559292 ], [ -172.225354, -13.570715 ], [ -172.211009, -13.579959 ], [ -172.213278, -13.585421 ], [ -172.205586, -13.595293 ], [ -172.194842, -13.623104 ], [ -172.196745, -13.632448 ], [ -172.184544, -13.6567 ], [ -172.17504, -13.668155 ], [ -172.178915, -13.677069 ], [ -172.192988, -13.689652 ], [ -172.202918, -13.704857 ], [ -172.202385, -13.713668 ], [ -172.197599, -13.715863 ], [ -172.196898, -13.721451 ], [ -172.219167, -13.736346 ], [ -172.217897, -13.743254 ], [ -172.221918, -13.750637 ], [ -172.214024, -13.767135 ], [ -172.21266, -13.7791 ], [ -172.215146, -13.79104 ], [ -172.229468, -13.80222 ], [ -172.24396, -13.802848 ], [ -172.25432, -13.795447 ], [ -172.267056, -13.796995 ], [ -172.286857, -13.771512 ], [ -172.286263, -13.766646 ], [ -172.28999, -13.759724 ], [ -172.300595, -13.759548 ], [ -172.30867, -13.755537 ], [ -172.322599, -13.761516 ], [ -172.327202, -13.773601 ], [ -172.331808, -13.777641 ], [ -172.347427, -13.777634 ], [ -172.354681, -13.772952 ], [ -172.365599, -13.773697 ], [ -172.373218, -13.778276 ], [ -172.385443, -13.777896 ], [ -172.394833, -13.783216 ], [ -172.405353, -13.784811 ], [ -172.413409, -13.781134 ], [ -172.420855, -13.785307 ], [ -172.44592, -13.789717 ], [ -172.454222, -13.794407 ], [ -172.465796, -13.78795 ], [ -172.473932, -13.787113 ], [ -172.489694, -13.797066 ], [ -172.505719, -13.798085 ], [ -172.512392, -13.796027 ], [ -172.517853, -13.800982 ], [ -172.52928, -13.802397 ], [ -172.545178, -13.7964 ], [ -172.552748, -13.777801 ], [ -172.576427, -13.765403 ], [ -172.583112, -13.746677 ], [ -172.594219, -13.739329 ], [ -172.595027, -13.718172 ], [ -172.599994, -13.709116 ], [ -172.632712, -13.684392 ], [ -172.645261, -13.668232 ], [ -172.648709, -13.659601 ], [ -172.668369, -13.646001 ], [ -172.678676, -13.63295 ], [ -172.679436, -13.626788 ], [ -172.684512, -13.620308 ], [ -172.704104, -13.613018 ], [ -172.720406, -13.600285 ], [ -172.73576, -13.577052 ], [ -172.761494, -13.565314 ], [ -172.785785, -13.543653 ], [ -172.793484, -13.527992 ], [ -172.803105, -13.516191 ] ] ], [ [ [ -172.071838, -13.866176 ], [ -172.055464, -13.84954 ], [ -172.043752, -13.841761 ], [ -172.039934, -13.834673 ], [ -172.029774, -13.826799 ], [ -172.021738, -13.825103 ], [ -172.006212, -13.8292 ], [ -171.969908, -13.82742 ], [ -171.941116, -13.810442 ], [ -171.912646, -13.802619 ], [ -171.906395, -13.798603 ], [ -171.891116, -13.802125 ], [ -171.882636, -13.797711 ], [ -171.865747, -13.795673 ], [ -171.859066, -13.798954 ], [ -171.852159, -13.796213 ], [ -171.848329, -13.799651 ], [ -171.830766, -13.793901 ], [ -171.811066, -13.806102 ], [ -171.807608, -13.815789 ], [ -171.790955, -13.82717 ], [ -171.777538, -13.828359 ], [ -171.779202, -13.819403 ], [ -171.777586, -13.818741 ], [ -171.771129, -13.827521 ], [ -171.76406, -13.832194 ], [ -171.760807, -13.830913 ], [ -171.760192, -13.824604 ], [ -171.743657, -13.832162 ], [ -171.743657, -13.834775 ], [ -171.740259, -13.841742 ], [ -171.72275, -13.845222 ], [ -171.72051, -13.850807 ], [ -171.712539, -13.855188 ], [ -171.707445, -13.86317 ], [ -171.699468, -13.860309 ], [ -171.686479, -13.864026 ], [ -171.667666, -13.86187 ], [ -171.649204, -13.87515 ], [ -171.639936, -13.872853 ], [ -171.632283, -13.874149 ], [ -171.62235, -13.884388 ], [ -171.606668, -13.873044 ], [ -171.595256, -13.873685 ], [ -171.586074, -13.877686 ], [ -171.583994, -13.880009 ], [ -171.58593, -13.890057 ], [ -171.58169, -13.891927 ], [ -171.570912, -13.888791 ], [ -171.563041, -13.903141 ], [ -171.562021, -13.910303 ], [ -171.556607, -13.911454 ], [ -171.549071, -13.908847 ], [ -171.541249, -13.9153 ], [ -171.549546, -13.925673 ], [ -171.566986, -13.93656 ], [ -171.569119, -13.94205 ], [ -171.545833, -13.942956 ], [ -171.524729, -13.929457 ], [ -171.520921, -13.938636 ], [ -171.51285, -13.941681 ], [ -171.514635, -13.951003 ], [ -171.498044, -13.95029 ], [ -171.492323, -13.954059 ], [ -171.482504, -13.954523 ], [ -171.470468, -13.966689 ], [ -171.469463, -13.974137 ], [ -171.464647, -13.97702 ], [ -171.455764, -13.978644 ], [ -171.449433, -13.974008 ], [ -171.441178, -13.976712 ], [ -171.436676, -13.988079 ], [ -171.42922, -13.994647 ], [ -171.425345, -14.002632 ], [ -171.424116, -14.017301 ], [ -171.439122, -14.047279 ], [ -171.467092, -14.045543 ], [ -171.492453, -14.040161 ], [ -171.506392, -14.042529 ], [ -171.529157, -14.039836 ], [ -171.539906, -14.045468 ], [ -171.547257, -14.043215 ], [ -171.582951, -14.045096 ], [ -171.604583, -14.041284 ], [ -171.615637, -14.034696 ], [ -171.653691, -14.043132 ], [ -171.676733, -14.039272 ], [ -171.696036, -14.029113 ], [ -171.715798, -14.035533 ], [ -171.729176, -14.043834 ], [ -171.743657, -14.044392 ], [ -171.767405, -14.041515 ], [ -171.767088, -14.031952 ], [ -171.773728, -14.026874 ], [ -171.7758, -14.018932 ], [ -171.782068, -14.01233 ], [ -171.790523, -14.009476 ], [ -171.828271, -14.007654 ], [ -171.829134, -14.00554 ], [ -171.823764, -14.004238 ], [ -171.830979, -13.99518 ], [ -171.833375, -13.986913 ], [ -171.837968, -13.990086 ], [ -171.85009, -13.989349 ], [ -171.857399, -13.984194 ], [ -171.888285, -14.001038 ], [ -171.912646, -14.004831 ], [ -171.919892, -14.0027 ], [ -171.932767, -13.988815 ], [ -171.940029, -13.986482 ], [ -171.949209, -13.978415 ], [ -171.959238, -13.959691 ], [ -171.961943, -13.947214 ], [ -171.972854, -13.935032 ], [ -171.978971, -13.936379 ], [ -171.978944, -13.946096 ], [ -171.987039, -13.950677 ], [ -171.990515, -13.947335 ], [ -171.989884, -13.941341 ], [ -171.994656, -13.936175 ], [ -172.002226, -13.935232 ], [ -172.004307, -13.930275 ], [ -172.009637, -13.927272 ], [ -172.005096, -13.919918 ], [ -172.006834, -13.916629 ], [ -172.02029, -13.912479 ], [ -172.028594, -13.912903 ], [ -172.04794, -13.905911 ], [ -172.065738, -13.89274 ], [ -172.071838, -13.866176 ] ] ], [ [ [ -172.121886, -13.845596 ], [ -172.12128, -13.844722 ], [ -172.108154, -13.840349 ], [ -172.10098, -13.850443 ], [ -172.101554, -13.854769 ], [ -172.106168, -13.860001 ], [ -172.116535, -13.855606 ], [ -172.118648, -13.847956 ], [ -172.121886, -13.845596 ] ] ], [ [ [ -171.429107, -14.063651 ], [ -171.427548, -14.058548 ], [ -171.420307, -14.058409 ], [ -171.419994, -14.061362 ], [ -171.41688, -14.065314 ], [ -171.417827, -14.06875 ], [ -171.423191, -14.06849 ], [ -171.429107, -14.063651 ] ] ], [ [ [ -172.156613, -13.824545 ], [ -172.154036, -13.818415 ], [ -172.150416, -13.818168 ], [ -172.146176, -13.821176 ], [ -172.147324, -13.827019 ], [ -172.151186, -13.829619 ], [ -172.155079, -13.828093 ], [ -172.156613, -13.824545 ] ] ], [ [ [ -171.838532, -13.997055 ], [ -171.837207, -13.996082 ], [ -171.830698, -13.998317 ], [ -171.832883, -14.003043 ], [ -171.838532, -13.997055 ] ] ], [ [ [ -171.418216, -14.019038 ], [ -171.415136, -14.018648 ], [ -171.41396, -14.024894 ], [ -171.416989, -14.025297 ], [ -171.418216, -14.019038 ] ] ], [ [ [ -171.413418, -14.072878 ], [ -171.408392, -14.069556 ], [ -171.408331, -14.075772 ], [ -171.409974, -14.07635 ], [ -171.413418, -14.072878 ] ] ] ] } }
]
}
