{
"type": "FeatureCollection",
"name": "San Marino",
"crs": { "type": "name", "properties": { "name": "urn:ogc:def:crs:OGC:1.3:CRS84" } },
"features": [
{ "type": "Feature", "properties": { "id": "SM", "CNTR_ID": "SM", "CNTR_NAME": "San Marino", "NAME_ENGL": "San Marino", "ISO3_CODE": "SMR", "FID": "SM" }, "geometry": { "type": "MultiPolygon", "coordinates": [ [ [ [ 12.45301, 43.9694 ], [ 12.470768, 43.97794 ], [ 12.501699, 43.987117 ], [ 12.506378, 43.990951 ], [ 12.513436, 43.991269 ], [ 12.515373, 43.986101 ], [ 12.5108, 43.981348 ], [ 12.511774, 43.973489 ], [ 12.506919, 43.969214 ], [ 12.507549, 43.957581 ], [ 12.513806, 43.948882 ], [ 12.515462, 43.941296 ], [ 12.502419, 43.924532 ], [ 12.493763, 43.919317 ], [ 12.493956, 43.915546 ], [ 12.494124, 43.908806 ], [ 12.487416, 43.896451 ], [ 12.468817, 43.896578 ], [ 12.462406, 43.893753 ], [ 12.452187, 43.89531 ], [ 12.442129, 43.905622 ], [ 12.43436, 43.902746 ], [ 12.425637, 43.903062 ], [ 12.4177, 43.89903 ], [ 12.408338, 43.90296 ], [ 12.412038, 43.909641 ], [ 12.408769, 43.922126 ], [ 12.414813, 43.931759 ], [ 12.411854, 43.93821 ], [ 12.405569, 43.943611 ], [ 12.404608, 43.955678 ], [ 12.412326, 43.952593 ], [ 12.421539, 43.957414 ], [ 12.436008, 43.95698 ], [ 12.45301, 43.9694 ] ] ] ] } }
]
}
