{
"type": "FeatureCollection",
"name": "Scarborough Reef",
"crs": { "type": "name", "properties": { "name": "urn:ogc:def:crs:OGC:1.3:CRS84" } },
"features": [
{ "type": "Feature", "properties": { "id": "XM", "CNTR_ID": "XM", "CNTR_NAME": "Scarborough Reef (Disputed Territory)", "NAME_ENGL": "Scarborough Reef", "ISO3_CODE": "XM", "FID": "XM" }, "geometry": { "type": "MultiPolygon", "coordinates": [ [ [ [ 117.711439, 15.206199 ], [ 117.713393, 15.216076 ], [ 117.721102, 15.223347 ], [ 117.730235, 15.223907 ], [ 117.739996, 15.224724 ], [ 117.749854, 15.214401 ], [ 117.76582, 15.204859 ], [ 117.778965, 15.194497 ], [ 117.787087, 15.179662 ], [ 117.79758, 15.169463 ], [ 117.8096, 15.163036 ], [ 117.822281, 15.160132 ], [ 117.829677, 15.157754 ], [ 117.835205, 15.154126 ], [ 117.839849, 15.150924 ], [ 117.84419, 15.147251 ], [ 117.847146, 15.142919 ], [ 117.850166, 15.13596 ], [ 117.850355, 15.130188 ], [ 117.848031, 15.124882 ], [ 117.844327, 15.122645 ], [ 117.840794, 15.126101 ], [ 117.836058, 15.132352 ], [ 117.833862, 15.136805 ], [ 117.831446, 15.142172 ], [ 117.827875, 15.145211 ], [ 117.818259, 15.148888 ], [ 117.804834, 15.153091 ], [ 117.791516, 15.159677 ], [ 117.772529, 15.17825 ], [ 117.761753, 15.190631 ], [ 117.755595, 15.197068 ], [ 117.742254, 15.203258 ], [ 117.73199, 15.200535 ], [ 117.726495, 15.199133 ], [ 117.722004, 15.193562 ], [ 117.724806, 15.172307 ], [ 117.726089, 15.150266 ], [ 117.725332, 15.143052 ], [ 117.726964, 15.130617 ], [ 117.73404, 15.126064 ], [ 117.739846, 15.119583 ], [ 117.749098, 15.116606 ], [ 117.762342, 15.117832 ], [ 117.773024, 15.11712 ], [ 117.785871, 15.113114 ], [ 117.802404, 15.109934 ], [ 117.811997, 15.109107 ], [ 117.822814, 15.111247 ], [ 117.829709, 15.114225 ], [ 117.837438, 15.121197 ], [ 117.84383, 15.116435 ], [ 117.83543, 15.10701 ], [ 117.825573, 15.101065 ], [ 117.811935, 15.102357 ], [ 117.794389, 15.102427 ], [ 117.783181, 15.104751 ], [ 117.77631, 15.109737 ], [ 117.764801, 15.109113 ], [ 117.751335, 15.111074 ], [ 117.738212, 15.112686 ], [ 117.72835, 15.117952 ], [ 117.723098, 15.125862 ], [ 117.722044, 15.136686 ], [ 117.723348, 15.157468 ], [ 117.720559, 15.176935 ], [ 117.713994, 15.197756 ], [ 117.711439, 15.206199 ] ] ] ] } }
]
}
