{
"type": "FeatureCollection",
"name": "Senkaku Islands",
"crs": { "type": "name", "properties": { "name": "urn:ogc:def:crs:OGC:1.3:CRS84" } },
"features": [
{ "type": "Feature", "properties": { "id": "XN", "CNTR_ID": "XN", "CNTR_NAME": "Senkaku Islands (Disputed Territory)", "NAME_ENGL": "Senkaku Islands", "ISO3_CODE": "XN", "FID": "XN" }, "geometry": { "type": "MultiPolygon", "coordinates": [ [ [ [ 123.457653, 25.739921 ], [ 123.459086, 25.742756 ], [ 123.466412, 25.748695 ], [ 123.472912, 25.751053 ], [ 123.478097, 25.751546 ], [ 123.48332, 25.749535 ], [ 123.486958, 25.749528 ], [ 123.493433, 25.744275 ], [ 123.493605, 25.742621 ], [ 123.488973, 25.740385 ], [ 123.484848, 25.741 ], [ 123.476766, 25.740739 ], [ 123.464355, 25.734584 ], [ 123.459291, 25.73515 ], [ 123.457653, 25.739921 ] ] ], [ [ [ 123.675835, 25.92354 ], [ 123.679853, 25.928681 ], [ 123.683505, 25.928843 ], [ 123.688263, 25.924871 ], [ 123.687621, 25.920209 ], [ 123.68137, 25.919251 ], [ 123.678272, 25.920514 ], [ 123.675835, 25.92354 ] ] ], [ [ [ 123.54432, 25.723539 ], [ 123.546128, 25.72518 ], [ 123.551224, 25.725565 ], [ 123.555838, 25.721624 ], [ 123.554465, 25.720255 ], [ 123.545759, 25.72212 ], [ 123.54432, 25.723539 ] ] ], [ [ [ 123.537575, 25.731891 ], [ 123.54064, 25.7337 ], [ 123.54423, 25.729224 ], [ 123.544909, 25.726036 ], [ 123.541531, 25.725771 ], [ 123.539189, 25.731396 ], [ 123.537575, 25.731891 ] ] ] ] } }
]
}
