{
"type": "FeatureCollection",
"name": "Seychelles",
"crs": { "type": "name", "properties": { "name": "urn:ogc:def:crs:OGC:1.3:CRS84" } },
"features": [
{ "type": "Feature", "properties": { "id": "SC", "CNTR_ID": "SC", "CNTR_NAME": "Sesel-Seychelles-Seychelles", "NAME_ENGL": "Seychelles", "ISO3_CODE": "SYC", "FID": "SC" }, "geometry": { "type": "MultiPolygon", "coordinates": [ [ [ [ 55.472164, -4.640442 ], [ 55.478046, -4.647073 ], [ 55.490589, -4.652729 ], [ 55.496106, -4.658776 ], [ 55.499591, -4.661654 ], [ 55.500018, -4.665064 ], [ 55.510726, -4.666364 ], [ 55.533035, -4.677863 ], [ 55.521814, -4.704099 ], [ 55.526223, -4.732626 ], [ 55.518463, -4.740985 ], [ 55.515893, -4.749926 ], [ 55.523645, -4.76976 ], [ 55.525292, -4.783775 ], [ 55.53518, -4.792608 ], [ 55.536404, -4.802412 ], [ 55.525457, -4.801937 ], [ 55.517214, -4.80482 ], [ 55.502577, -4.793834 ], [ 55.499613, -4.785756 ], [ 55.492728, -4.780643 ], [ 55.492794, -4.775385 ], [ 55.485076, -4.767557 ], [ 55.482535, -4.758814 ], [ 55.476623, -4.757551 ], [ 55.468647, -4.762917 ], [ 55.465825, -4.761654 ], [ 55.462609, -4.756535 ], [ 55.465912, -4.743688 ], [ 55.485202, -4.740673 ], [ 55.489631, -4.736821 ], [ 55.488025, -4.730362 ], [ 55.479007, -4.721324 ], [ 55.480219, -4.709093 ], [ 55.475558, -4.705213 ], [ 55.466717, -4.705389 ], [ 55.447708, -4.678955 ], [ 55.427878, -4.674605 ], [ 55.411537, -4.661654 ], [ 55.409178, -4.659669 ], [ 55.4007, -4.661654 ], [ 55.398701, -4.661654 ], [ 55.394296, -4.657434 ], [ 55.39888, -4.652199 ], [ 55.395629, -4.648649 ], [ 55.387902, -4.646454 ], [ 55.376588, -4.649915 ], [ 55.369205, -4.646333 ], [ 55.366135, -4.641519 ], [ 55.369132, -4.639648 ], [ 55.37916, -4.642464 ], [ 55.374911, -4.631971 ], [ 55.388853, -4.621029 ], [ 55.428224, -4.612408 ], [ 55.43185, -4.604596 ], [ 55.433412, -4.564182 ], [ 55.438966, -4.561475 ], [ 55.451579, -4.56423 ], [ 55.462262, -4.57458 ], [ 55.46546, -4.582071 ], [ 55.46334, -4.598381 ], [ 55.469705, -4.60707 ], [ 55.46377, -4.611147 ], [ 55.463767, -4.61856 ], [ 55.459295, -4.621103 ], [ 55.470685, -4.633497 ], [ 55.472164, -4.640442 ] ] ], [ [ [ 46.491239, -9.383587 ], [ 46.519336, -9.396743 ], [ 46.523798, -9.402568 ], [ 46.52304, -9.416548 ], [ 46.517815, -9.427755 ], [ 46.509355, -9.437597 ], [ 46.498181, -9.443068 ], [ 46.457589, -9.455028 ], [ 46.437354, -9.453427 ], [ 46.421917, -9.447544 ], [ 46.404282, -9.448296 ], [ 46.367261, -9.462006 ], [ 46.338128, -9.468483 ], [ 46.291894, -9.492509 ], [ 46.256169, -9.493919 ], [ 46.235495, -9.485637 ], [ 46.229937, -9.480509 ], [ 46.214807, -9.443504 ], [ 46.209654, -9.422022 ], [ 46.211614, -9.419517 ], [ 46.214061, -9.420623 ], [ 46.220261, -9.433085 ], [ 46.246432, -9.456516 ], [ 46.246653, -9.461404 ], [ 46.250524, -9.462571 ], [ 46.258808, -9.457813 ], [ 46.266126, -9.468783 ], [ 46.273537, -9.466858 ], [ 46.279353, -9.468682 ], [ 46.290811, -9.462439 ], [ 46.296834, -9.465279 ], [ 46.316947, -9.456392 ], [ 46.334556, -9.45333 ], [ 46.36058, -9.443133 ], [ 46.36782, -9.445857 ], [ 46.396692, -9.436161 ], [ 46.404282, -9.437245 ], [ 46.422157, -9.434699 ], [ 46.426343, -9.430754 ], [ 46.429809, -9.419409 ], [ 46.446716, -9.419959 ], [ 46.456855, -9.415923 ], [ 46.474789, -9.42323 ], [ 46.481022, -9.421575 ], [ 46.481293, -9.419984 ], [ 46.471743, -9.413583 ], [ 46.468849, -9.404195 ], [ 46.46175, -9.406749 ], [ 46.461093, -9.399119 ], [ 46.454865, -9.392482 ], [ 46.458972, -9.391103 ], [ 46.463452, -9.395621 ], [ 46.464991, -9.395073 ], [ 46.46539, -9.3903 ], [ 46.447375, -9.379707 ], [ 46.444817, -9.374341 ], [ 46.491239, -9.383587 ] ] ], [ [ [ 55.70516, -4.290026 ], [ 55.722665, -4.31116 ], [ 55.737277, -4.306473 ], [ 55.755793, -4.320543 ], [ 55.765977, -4.31613 ], [ 55.776893, -4.317328 ], [ 55.781279, -4.326784 ], [ 55.789873, -4.332926 ], [ 55.780203, -4.337134 ], [ 55.776028, -4.335562 ], [ 55.770741, -4.327456 ], [ 55.762082, -4.330639 ], [ 55.759906, -4.338485 ], [ 55.763774, -4.341095 ], [ 55.769927, -4.353947 ], [ 55.76166, -4.355902 ], [ 55.75606, -4.360599 ], [ 55.746764, -4.353947 ], [ 55.726177, -4.348028 ], [ 55.715668, -4.328548 ], [ 55.693633, -4.325903 ], [ 55.686935, -4.321212 ], [ 55.677838, -4.299565 ], [ 55.678735, -4.296188 ], [ 55.684679, -4.293169 ], [ 55.699168, -4.29495 ], [ 55.70516, -4.290026 ] ] ], [ [ [ 47.578336, -9.657145 ], [ 47.613247, -9.675076 ], [ 47.612908, -9.678974 ], [ 47.616523, -9.684431 ], [ 47.621607, -9.685545 ], [ 47.624996, -9.682427 ], [ 47.627708, -9.685434 ], [ 47.632114, -9.684431 ], [ 47.649626, -9.700357 ], [ 47.646915, -9.703252 ], [ 47.642847, -9.701582 ], [ 47.639571, -9.703141 ], [ 47.636294, -9.700134 ], [ 47.620929, -9.704811 ], [ 47.612343, -9.702473 ], [ 47.608388, -9.695234 ], [ 47.598672, -9.686213 ], [ 47.604321, -9.685434 ], [ 47.607259, -9.682761 ], [ 47.60579, -9.678529 ], [ 47.602175, -9.676078 ], [ 47.597768, -9.679976 ], [ 47.59404, -9.671846 ], [ 47.583307, -9.665943 ], [ 47.57811, -9.670955 ], [ 47.580934, -9.675076 ], [ 47.578675, -9.680088 ], [ 47.573591, -9.68109 ], [ 47.569749, -9.692561 ], [ 47.565456, -9.695791 ], [ 47.564891, -9.701025 ], [ 47.548057, -9.715391 ], [ 47.537889, -9.720624 ], [ 47.528512, -9.717952 ], [ 47.525687, -9.718843 ], [ 47.518118, -9.71695 ], [ 47.516988, -9.718286 ], [ 47.513373, -9.716727 ], [ 47.50874, -9.727863 ], [ 47.502752, -9.72686 ], [ 47.502978, -9.718397 ], [ 47.507611, -9.706704 ], [ 47.510548, -9.704254 ], [ 47.520264, -9.702139 ], [ 47.529868, -9.703698 ], [ 47.536646, -9.701804 ], [ 47.541391, -9.6998 ], [ 47.544442, -9.700691 ], [ 47.544781, -9.698129 ], [ 47.548622, -9.694566 ], [ 47.550995, -9.694788 ], [ 47.552689, -9.696459 ], [ 47.554836, -9.694677 ], [ 47.552125, -9.692004 ], [ 47.556757, -9.68432 ], [ 47.556192, -9.682649 ], [ 47.556305, -9.678863 ], [ 47.558564, -9.673405 ], [ 47.561615, -9.668505 ], [ 47.571557, -9.658036 ], [ 47.574269, -9.656476 ], [ 47.578336, -9.657145 ] ] ], [ [ [ 46.438874, -9.37472 ], [ 46.434783, -9.380867 ], [ 46.429008, -9.380334 ], [ 46.421459, -9.385657 ], [ 46.404284, -9.385902 ], [ 46.377963, -9.382915 ], [ 46.368639, -9.386004 ], [ 46.345221, -9.380559 ], [ 46.324366, -9.383349 ], [ 46.294993, -9.38246 ], [ 46.285677, -9.377163 ], [ 46.283194, -9.371192 ], [ 46.297866, -9.367623 ], [ 46.404284, -9.368711 ], [ 46.438874, -9.37472 ] ] ], [ [ [ 55.236334, -4.46581 ], [ 55.243257, -4.470487 ], [ 55.248949, -4.481362 ], [ 55.251915, -4.484804 ], [ 55.255079, -4.484565 ], [ 55.255256, -4.489362 ], [ 55.251961, -4.492156 ], [ 55.250553, -4.495378 ], [ 55.251759, -4.498058 ], [ 55.249273, -4.501132 ], [ 55.246901, -4.510522 ], [ 55.23746, -4.514031 ], [ 55.231722, -4.511781 ], [ 55.224576, -4.511169 ], [ 55.22493, -4.503159 ], [ 55.221255, -4.49927 ], [ 55.213058, -4.494314 ], [ 55.210979, -4.489709 ], [ 55.206706, -4.48597 ], [ 55.207086, -4.483255 ], [ 55.20514, -4.479976 ], [ 55.208517, -4.470603 ], [ 55.213383, -4.466558 ], [ 55.218425, -4.465621 ], [ 55.220944, -4.466913 ], [ 55.223893, -4.464029 ], [ 55.229675, -4.463935 ], [ 55.236334, -4.46581 ] ] ], [ [ [ 46.509974, -9.753235 ], [ 46.501385, -9.754251 ], [ 46.496059, -9.753912 ], [ 46.49228, -9.752388 ], [ 46.491111, -9.74973 ], [ 46.490811, -9.741242 ], [ 46.493731, -9.737101 ], [ 46.497564, -9.734246 ], [ 46.501227, -9.734009 ], [ 46.50471, -9.73199 ], [ 46.511343, -9.724783 ], [ 46.51521, -9.715441 ], [ 46.515029, -9.711273 ], [ 46.51268, -9.703341 ], [ 46.513312, -9.699951 ], [ 46.51739, -9.696001 ], [ 46.520453, -9.697359 ], [ 46.522515, -9.700407 ], [ 46.526122, -9.711922 ], [ 46.526638, -9.71751 ], [ 46.526122, -9.725637 ], [ 46.524405, -9.732071 ], [ 46.519766, -9.742568 ], [ 46.514784, -9.74968 ], [ 46.509974, -9.753235 ] ] ], [ [ [ 55.854896, -4.361953 ], [ 55.855618, -4.36534 ], [ 55.852342, -4.365169 ], [ 55.84373, -4.374504 ], [ 55.841803, -4.381714 ], [ 55.836702, -4.382284 ], [ 55.825616, -4.368273 ], [ 55.825765, -4.353938 ], [ 55.833057, -4.337519 ], [ 55.843382, -4.344667 ], [ 55.852342, -4.360587 ], [ 55.854896, -4.361953 ] ] ], [ [ [ 47.601895, -9.768853 ], [ 47.59352, -9.773631 ], [ 47.577653, -9.776889 ], [ 47.55826, -9.767767 ], [ 47.553191, -9.760817 ], [ 47.556938, -9.75756 ], [ 47.55826, -9.754519 ], [ 47.564431, -9.753867 ], [ 47.571923, -9.756256 ], [ 47.57589, -9.764292 ], [ 47.574568, -9.76755 ], [ 47.582942, -9.769939 ], [ 47.591537, -9.76755 ], [ 47.591757, -9.760817 ], [ 47.596606, -9.75756 ], [ 47.602335, -9.75756 ], [ 47.601674, -9.754736 ], [ 47.613575, -9.751261 ], [ 47.620406, -9.757342 ], [ 47.615999, -9.759731 ], [ 47.617101, -9.762989 ], [ 47.612253, -9.766247 ], [ 47.601895, -9.768853 ] ] ], [ [ [ 46.241837, -9.380479 ], [ 46.242554, -9.385226 ], [ 46.240485, -9.387075 ], [ 46.23727, -9.384192 ], [ 46.23504, -9.387322 ], [ 46.226134, -9.385689 ], [ 46.222665, -9.3894 ], [ 46.2273, -9.393398 ], [ 46.227851, -9.398819 ], [ 46.230895, -9.400936 ], [ 46.227749, -9.404205 ], [ 46.218685, -9.398085 ], [ 46.213497, -9.396708 ], [ 46.212574, -9.401891 ], [ 46.209388, -9.404468 ], [ 46.206403, -9.401435 ], [ 46.203576, -9.389863 ], [ 46.204452, -9.38661 ], [ 46.212568, -9.377805 ], [ 46.218564, -9.373853 ], [ 46.223922, -9.371919 ], [ 46.231398, -9.370537 ], [ 46.24155, -9.371321 ], [ 46.243202, -9.374972 ], [ 46.240019, -9.377953 ], [ 46.241837, -9.380479 ] ] ], [ [ [ 56.263314, -7.169746 ], [ 56.260299, -7.174049 ], [ 56.258104, -7.173842 ], [ 56.260206, -7.164251 ], [ 56.268533, -7.151357 ], [ 56.270489, -7.14466 ], [ 56.269984, -7.139589 ], [ 56.274224, -7.128321 ], [ 56.28072, -7.114846 ], [ 56.284124, -7.103899 ], [ 56.286819, -7.099098 ], [ 56.294128, -7.096473 ], [ 56.293903, -7.115394 ], [ 56.290676, -7.125693 ], [ 56.29043, -7.129135 ], [ 56.285178, -7.136292 ], [ 56.284003, -7.139755 ], [ 56.272237, -7.151618 ], [ 56.268771, -7.156568 ], [ 56.268815, -7.158524 ], [ 56.263314, -7.169746 ] ] ], [ [ [ 47.729433, -10.101823 ], [ 47.733401, -10.104672 ], [ 47.735381, -10.10087 ], [ 47.74256, -10.10125 ], [ 47.744963, -10.103586 ], [ 47.747166, -10.101701 ], [ 47.749774, -10.094855 ], [ 47.752323, -10.093943 ], [ 47.754931, -10.086869 ], [ 47.758349, -10.083503 ], [ 47.757191, -10.079966 ], [ 47.760541, -10.07866 ], [ 47.761445, -10.087323 ], [ 47.758258, -10.09685 ], [ 47.753982, -10.103265 ], [ 47.746357, -10.109574 ], [ 47.73633, -10.110041 ], [ 47.736538, -10.106215 ], [ 47.732079, -10.10754 ], [ 47.723782, -10.10033 ], [ 47.722623, -10.094899 ], [ 47.719564, -10.091796 ], [ 47.720166, -10.089423 ], [ 47.724384, -10.083946 ], [ 47.733702, -10.076005 ], [ 47.736205, -10.072445 ], [ 47.741953, -10.060761 ], [ 47.741211, -10.056607 ], [ 47.744085, -10.055831 ], [ 47.751711, -10.061389 ], [ 47.750064, -10.063923 ], [ 47.744643, -10.06681 ], [ 47.739573, -10.074797 ], [ 47.740514, -10.079575 ], [ 47.735951, -10.085993 ], [ 47.734213, -10.091626 ], [ 47.730592, -10.096975 ], [ 47.729433, -10.101823 ] ] ], [ [ [ 51.156468, -10.205241 ], [ 51.15387, -10.205919 ], [ 51.151159, -10.203999 ], [ 51.150481, -10.199255 ], [ 51.152176, -10.195189 ], [ 51.157484, -10.189316 ], [ 51.162002, -10.180506 ], [ 51.16539, -10.176553 ], [ 51.167875, -10.164468 ], [ 51.171715, -10.163226 ], [ 51.175658, -10.154642 ], [ 51.177133, -10.155045 ], [ 51.177698, -10.160128 ], [ 51.175149, -10.161526 ], [ 51.178266, -10.163451 ], [ 51.168892, -10.182426 ], [ 51.15771, -10.200949 ], [ 51.156468, -10.205241 ] ] ], [ [ [ 53.680318, -5.68654 ], [ 53.675219, -5.69168 ], [ 53.668027, -5.69168 ], [ 53.665674, -5.693826 ], [ 53.662536, -5.699486 ], [ 53.651945, -5.702283 ], [ 53.649395, -5.699421 ], [ 53.649853, -5.694152 ], [ 53.656652, -5.690183 ], [ 53.660901, -5.690053 ], [ 53.665151, -5.688102 ], [ 53.668419, -5.688232 ], [ 53.686006, -5.675871 ], [ 53.690582, -5.675962 ], [ 53.691234, -5.677455 ], [ 53.688032, -5.681011 ], [ 53.687836, -5.685825 ], [ 53.680318, -5.68654 ] ] ], [ [ [ 47.6526, -9.748416 ], [ 47.646945, -9.756664 ], [ 47.639528, -9.763072 ], [ 47.634618, -9.762798 ], [ 47.636749, -9.756954 ], [ 47.637027, -9.749558 ], [ 47.641937, -9.749832 ], [ 47.644531, -9.747001 ], [ 47.649627, -9.737049 ], [ 47.64982, -9.734991 ], [ 47.656897, -9.736155 ], [ 47.6526, -9.748416 ] ] ], [ [ [ 55.718613, -4.276498 ], [ 55.721124, -4.278656 ], [ 55.72845, -4.277217 ], [ 55.730214, -4.279479 ], [ 55.740529, -4.278266 ], [ 55.742201, -4.279409 ], [ 55.738826, -4.283197 ], [ 55.727639, -4.285254 ], [ 55.730202, -4.289814 ], [ 55.729199, -4.291124 ], [ 55.719403, -4.288682 ], [ 55.711826, -4.281299 ], [ 55.713625, -4.277607 ], [ 55.718613, -4.276498 ] ] ], [ [ [ 55.882772, -4.337821 ], [ 55.878486, -4.338549 ], [ 55.876599, -4.334833 ], [ 55.872912, -4.334027 ], [ 55.869478, -4.33115 ], [ 55.867348, -4.32555 ], [ 55.864807, -4.322298 ], [ 55.869329, -4.316355 ], [ 55.871109, -4.316245 ], [ 55.87335, -4.320166 ], [ 55.878716, -4.32306 ], [ 55.881944, -4.327854 ], [ 55.882184, -4.331091 ], [ 55.884855, -4.335457 ], [ 55.882772, -4.337821 ] ] ], [ [ [ 51.176609, -10.107837 ], [ 51.183829, -10.117037 ], [ 51.186215, -10.127704 ], [ 51.18348, -10.126818 ], [ 51.181151, -10.120064 ], [ 51.177774, -10.11529 ], [ 51.17265, -10.115639 ], [ 51.166129, -10.1189 ], [ 51.162519, -10.124722 ], [ 51.157977, -10.121345 ], [ 51.163567, -10.11494 ], [ 51.164382, -10.112379 ], [ 51.169622, -10.109584 ], [ 51.170903, -10.106789 ], [ 51.176609, -10.107837 ] ] ], [ [ [ 55.24607, -4.384966 ], [ 55.250357, -4.394115 ], [ 55.253324, -4.393885 ], [ 55.251818, -4.398272 ], [ 55.249404, -4.400267 ], [ 55.244181, -4.401736 ], [ 55.238697, -4.393621 ], [ 55.240125, -4.38777 ], [ 55.238502, -4.384237 ], [ 55.239486, -4.382285 ], [ 55.24607, -4.384966 ] ] ], [ [ [ 55.948375, -4.591929 ], [ 55.941174, -4.59199 ], [ 55.937766, -4.590788 ], [ 55.932614, -4.583285 ], [ 55.933973, -4.580869 ], [ 55.939488, -4.578364 ], [ 55.945942, -4.581305 ], [ 55.950204, -4.587388 ], [ 55.948375, -4.591929 ] ] ], [ [ [ 55.502638, -4.611299 ], [ 55.499226, -4.613726 ], [ 55.496106, -4.613603 ], [ 55.496106, -4.611184 ], [ 55.497578, -4.606948 ], [ 55.496725, -4.602576 ], [ 55.498806, -4.600188 ], [ 55.505202, -4.598732 ], [ 55.510936, -4.600263 ], [ 55.511459, -4.6048 ], [ 55.50799, -4.609848 ], [ 55.502638, -4.611299 ] ] ], [ [ [ 50.735982, -9.332563 ], [ 50.730968, -9.337457 ], [ 50.722516, -9.337052 ], [ 50.720696, -9.333898 ], [ 50.721828, -9.329086 ], [ 50.725023, -9.326053 ], [ 50.731493, -9.326214 ], [ 50.734405, -9.328722 ], [ 50.735982, -9.332563 ] ] ], [ [ [ 53.300538, -5.420372 ], [ 53.292977, -5.421623 ], [ 53.289325, -5.41956 ], [ 53.29091, -5.415511 ], [ 53.296226, -5.411707 ], [ 53.302134, -5.409563 ], [ 53.306803, -5.411855 ], [ 53.30562, -5.417197 ], [ 53.300538, -5.420372 ] ] ], [ [ [ 46.264504, -9.376307 ], [ 46.260052, -9.379743 ], [ 46.258568, -9.376871 ], [ 46.25206, -9.377715 ], [ 46.247266, -9.371352 ], [ 46.253031, -9.369211 ], [ 46.2681, -9.370732 ], [ 46.264504, -9.376307 ] ] ], [ [ [ 52.73503, -7.007357 ], [ 52.724286, -7.014141 ], [ 52.721031, -7.003435 ], [ 52.721342, -7.000039 ], [ 52.72666, -6.998964 ], [ 52.732444, -7.003435 ], [ 52.73503, -7.007357 ] ] ], [ [ [ 51.034499, -9.222072 ], [ 51.033627, -9.239385 ], [ 51.031296, -9.23835 ], [ 51.029456, -9.226848 ], [ 51.027684, -9.219583 ], [ 51.029252, -9.210233 ], [ 51.031024, -9.209426 ], [ 51.034499, -9.222072 ] ] ], [ [ [ 55.66786, -3.813047 ], [ 55.66413, -3.813047 ], [ 55.664519, -3.807258 ], [ 55.66009, -3.800887 ], [ 55.666151, -3.798167 ], [ 55.671318, -3.800343 ], [ 55.671784, -3.80516 ], [ 55.66786, -3.813047 ] ] ], [ [ [ 55.505128, -4.635928 ], [ 55.502142, -4.639452 ], [ 55.496106, -4.635795 ], [ 55.492792, -4.634404 ], [ 55.49179, -4.632052 ], [ 55.49288, -4.628604 ], [ 55.496106, -4.628457 ], [ 55.502362, -4.630713 ], [ 55.505128, -4.635928 ] ] ], [ [ [ 53.307169, -5.749468 ], [ 53.301195, -5.753812 ], [ 53.298323, -5.749468 ], [ 53.300621, -5.744954 ], [ 53.30378, -5.743239 ], [ 53.309868, -5.744268 ], [ 53.314406, -5.748497 ], [ 53.307169, -5.749468 ] ] ], [ [ [ 53.307336, -5.772566 ], [ 53.308427, -5.774878 ], [ 53.312068, -5.773757 ], [ 53.310117, -5.779221 ], [ 53.30723, -5.778836 ], [ 53.30298, -5.767844 ], [ 53.306597, -5.763503 ], [ 53.308658, -5.76553 ], [ 53.312441, -5.7657 ], [ 53.312373, -5.770635 ], [ 53.307336, -5.772566 ] ] ], [ [ [ 55.207335, -3.725116 ], [ 55.20187, -3.726988 ], [ 55.203342, -3.722087 ], [ 55.202259, -3.713976 ], [ 55.205576, -3.711556 ], [ 55.210968, -3.719595 ], [ 55.207335, -3.725116 ] ] ], [ [ [ 55.925107, -4.339396 ], [ 55.921583, -4.349019 ], [ 55.918185, -4.346215 ], [ 55.917206, -4.340238 ], [ 55.920663, -4.333251 ], [ 55.923649, -4.335037 ], [ 55.925107, -4.339396 ] ] ], [ [ [ 51.179362, -10.150654 ], [ 51.176214, -10.154092 ], [ 51.173327, -10.151364 ], [ 51.180191, -10.146039 ], [ 51.186321, -10.13719 ], [ 51.187646, -10.140004 ], [ 51.186936, -10.143909 ], [ 51.183149, -10.149352 ], [ 51.179362, -10.150654 ] ] ], [ [ [ 53.36356, -5.441889 ], [ 53.360214, -5.443691 ], [ 53.356021, -5.441782 ], [ 53.359918, -5.438883 ], [ 53.358546, -5.434723 ], [ 53.355816, -5.431602 ], [ 53.359224, -5.431012 ], [ 53.364243, -5.434513 ], [ 53.36578, -5.438252 ], [ 53.36356, -5.441889 ] ] ], [ [ [ 55.873203, -4.293816 ], [ 55.871829, -4.297412 ], [ 55.868443, -4.294734 ], [ 55.865958, -4.290187 ], [ 55.864797, -4.284919 ], [ 55.867528, -4.282462 ], [ 55.87209, -4.288764 ], [ 55.870677, -4.292119 ], [ 55.873203, -4.293816 ] ] ], [ [ [ 55.407133, -4.677133 ], [ 55.404421, -4.679429 ], [ 55.39993, -4.675821 ], [ 55.396076, -4.669711 ], [ 55.398142, -4.668023 ], [ 55.40517, -4.671757 ], [ 55.407133, -4.677133 ] ] ], [ [ [ 55.673189, -4.21397 ], [ 55.667711, -4.214663 ], [ 55.658983, -4.211899 ], [ 55.661597, -4.208998 ], [ 55.67045, -4.209795 ], [ 55.673189, -4.21397 ] ] ], [ [ [ 53.146882, -6.179831 ], [ 53.144563, -6.184821 ], [ 53.142244, -6.183788 ], [ 53.140547, -6.177421 ], [ 53.14394, -6.173773 ], [ 53.145601, -6.174427 ], [ 53.146882, -6.179831 ] ] ], [ [ [ 55.482952, -4.642646 ], [ 55.480196, -4.644506 ], [ 55.474576, -4.640642 ], [ 55.473208, -4.636619 ], [ 55.477185, -4.634764 ], [ 55.480634, -4.640975 ], [ 55.482952, -4.642646 ] ] ], [ [ [ 55.387782, -5.864281 ], [ 55.386158, -5.868977 ], [ 55.384137, -5.867497 ], [ 55.382101, -5.861387 ], [ 55.382958, -5.85785 ], [ 55.386817, -5.858922 ], [ 55.387782, -5.864281 ] ] ], [ [ [ 55.368186, -4.661654 ], [ 55.369381, -4.666066 ], [ 55.363275, -4.665464 ], [ 55.360598, -4.661654 ], [ 55.361719, -4.659 ], [ 55.368186, -4.661654 ] ] ], [ [ [ 47.75792, -10.070182 ], [ 47.758064, -10.073845 ], [ 47.752375, -10.072834 ], [ 47.751317, -10.069935 ], [ 47.753525, -10.068803 ], [ 47.752467, -10.065813 ], [ 47.754601, -10.064846 ], [ 47.75792, -10.070182 ] ] ], [ [ [ 52.741927, -7.158964 ], [ 52.736531, -7.160184 ], [ 52.734512, -7.155677 ], [ 52.735087, -7.15303 ], [ 52.741727, -7.15551 ], [ 52.741927, -7.158964 ] ] ], [ [ [ 53.045824, -6.237512 ], [ 53.039415, -6.237975 ], [ 53.043033, -6.230936 ], [ 53.047064, -6.232786 ], [ 53.045824, -6.237512 ] ] ], [ [ [ 50.990772, -9.539741 ], [ 50.988324, -9.541673 ], [ 50.984787, -9.536204 ], [ 50.984357, -9.532006 ], [ 50.988124, -9.530607 ], [ 50.987672, -9.537598 ], [ 50.990772, -9.539741 ] ] ], [ [ [ 46.241758, -9.441197 ], [ 46.238142, -9.443801 ], [ 46.234871, -9.43712 ], [ 46.234986, -9.435365 ], [ 46.240668, -9.438309 ], [ 46.241758, -9.441197 ] ] ], [ [ [ 55.665974, -4.332423 ], [ 55.660569, -4.334706 ], [ 55.658857, -4.331512 ], [ 55.665421, -4.32744 ], [ 55.665974, -4.332423 ] ] ], [ [ [ 46.25565, -9.427094 ], [ 46.251329, -9.430483 ], [ 46.246489, -9.426493 ], [ 46.251329, -9.42475 ], [ 46.25565, -9.427094 ] ] ], [ [ [ 46.449781, -9.405176 ], [ 46.449129, -9.414154 ], [ 46.446679, -9.412765 ], [ 46.445295, -9.406633 ], [ 46.449781, -9.405176 ] ] ], [ [ [ 51.133251, -10.224469 ], [ 51.129558, -10.227803 ], [ 51.126263, -10.225522 ], [ 51.126896, -10.222354 ], [ 51.132725, -10.222918 ], [ 51.133251, -10.224469 ] ] ], [ [ [ 53.315038, -5.117657 ], [ 53.31161, -5.12035 ], [ 53.309351, -5.118402 ], [ 53.310607, -5.114946 ], [ 53.31462, -5.113463 ], [ 53.315038, -5.117657 ] ] ], [ [ [ 55.858322, -4.287654 ], [ 55.858947, -4.290977 ], [ 55.856305, -4.29061 ], [ 55.852323, -4.286779 ], [ 55.852323, -4.284018 ], [ 55.858322, -4.287654 ] ] ], [ [ [ 55.793836, -4.340998 ], [ 55.789229, -4.344138 ], [ 55.786967, -4.342473 ], [ 55.787031, -4.340745 ], [ 55.791817, -4.338912 ], [ 55.793836, -4.340998 ] ] ], [ [ [ 55.649443, -4.347362 ], [ 55.648628, -4.352619 ], [ 55.643362, -4.348573 ], [ 55.647639, -4.3462 ], [ 55.649443, -4.347362 ] ] ], [ [ [ 55.767341, -4.581206 ], [ 55.763788, -4.583898 ], [ 55.761462, -4.580667 ], [ 55.764566, -4.577129 ], [ 55.767341, -4.581206 ] ] ], [ [ [ 55.512593, -4.619199 ], [ 55.509027, -4.622225 ], [ 55.505413, -4.620736 ], [ 55.510232, -4.616366 ], [ 55.512593, -4.619199 ] ] ], [ [ [ 55.472959, -4.62599 ], [ 55.471417, -4.628394 ], [ 55.468428, -4.627048 ], [ 55.468789, -4.622633 ], [ 55.471297, -4.621935 ], [ 55.472959, -4.62599 ] ] ], [ [ [ 55.510643, -4.625291 ], [ 55.512, -4.628754 ], [ 55.507093, -4.62815 ], [ 55.505163, -4.625789 ], [ 55.506391, -4.623826 ], [ 55.510643, -4.625291 ] ] ], [ [ [ 55.436708, -4.68685 ], [ 55.434741, -4.688134 ], [ 55.431113, -4.686522 ], [ 55.431427, -4.683732 ], [ 55.435935, -4.683237 ], [ 55.436708, -4.68685 ] ] ], [ [ [ 53.344606, -5.423468 ], [ 53.343894, -5.42511 ], [ 53.337422, -5.425022 ], [ 53.338371, -5.420712 ], [ 53.344606, -5.423468 ] ] ], [ [ [ 53.352355, -5.427211 ], [ 53.352842, -5.430952 ], [ 53.347292, -5.430529 ], [ 53.345177, -5.428041 ], [ 53.352355, -5.427211 ] ] ], [ [ [ 50.990779, -9.51309 ], [ 50.986222, -9.518483 ], [ 50.984772, -9.516823 ], [ 50.98725, -9.51122 ], [ 50.990779, -9.51309 ] ] ], [ [ [ 50.991478, -9.543727 ], [ 50.987338, -9.549351 ], [ 50.984806, -9.547369 ], [ 50.987696, -9.543192 ], [ 50.991478, -9.543727 ] ] ], [ [ [ 51.189325, -10.133759 ], [ 51.18583, -10.136576 ], [ 51.184415, -10.131479 ], [ 51.186027, -10.128578 ], [ 51.189325, -10.133759 ] ] ], [ [ [ 51.044854, -10.170273 ], [ 51.041156, -10.175842 ], [ 51.03812, -10.173729 ], [ 51.040463, -10.1703 ], [ 51.044854, -10.170273 ] ] ], [ [ [ -63.61641, 15.669124 ], [ -63.617866, 15.666175 ], [ -63.621347, 15.671796 ], [ -63.617866, 15.674044 ], [ -63.61641, 15.669124 ] ] ] ] } }
]
}
