{
"type": "FeatureCollection",
"name": "Sierra Leone",
"crs": { "type": "name", "properties": { "name": "urn:ogc:def:crs:OGC:1.3:CRS84" } },
"features": [
{ "type": "Feature", "properties": { "id": "SL", "CNTR_ID": "SL", "CNTR_NAME": "Sierra Leone", "NAME_ENGL": "Sierra Leone", "ISO3_CODE": "SLE", "FID": "SL" }, "geometry": { "type": "MultiPolygon", "coordinates": [ [ [ [ -10.282042, 8.487952 ], [ -10.275126, 8.476367 ], [ -10.278735, 8.461868 ], [ -10.272151, 8.442423 ], [ -10.279725, 8.427002 ], [ -10.274047, 8.418488 ], [ -10.280253, 8.402657 ], [ -10.279302, 8.394054 ], [ -10.282001, 8.390457 ], [ -10.289332, 8.380689 ], [ -10.287369, 8.370466 ], [ -10.294739, 8.359416 ], [ -10.289571, 8.338643 ], [ -10.294546, 8.331143 ], [ -10.302405, 8.296512 ], [ -10.319266, 8.283338 ], [ -10.308778, 8.247439 ], [ -10.302396, 8.240281 ], [ -10.301427, 8.232621 ], [ -10.29581, 8.223072 ], [ -10.301593, 8.198092 ], [ -10.3184, 8.193975 ], [ -10.334497, 8.167588 ], [ -10.352805, 8.150647 ], [ -10.375922, 8.164986 ], [ -10.386742, 8.160892 ], [ -10.389142, 8.149992 ], [ -10.424598, 8.148616 ], [ -10.427727, 8.15033 ], [ -10.433516, 8.153503 ], [ -10.463213, 8.156174 ], [ -10.486929, 8.146276 ], [ -10.501422, 8.143983 ], [ -10.526019, 8.126181 ], [ -10.525192, 8.119394 ], [ -10.536782, 8.098806 ], [ -10.555009, 8.079514 ], [ -10.572571, 8.051946 ], [ -10.577178, 8.047438 ], [ -10.58829, 8.044663 ], [ -10.60147, 8.041372 ], [ -10.60486, 8.036621 ], [ -10.605809, 7.774977 ], [ -10.629012, 7.766662 ], [ -10.646241, 7.767227 ], [ -10.663145, 7.752191 ], [ -10.698726, 7.736283 ], [ -10.706494, 7.727894 ], [ -10.709853, 7.712938 ], [ -10.723983, 7.696896 ], [ -10.728519, 7.686242 ], [ -10.743682, 7.674983 ], [ -10.748959, 7.661166 ], [ -10.774121, 7.647532 ], [ -10.776937, 7.635122 ], [ -10.790258, 7.617897 ], [ -10.791274, 7.598949 ], [ -10.798981, 7.591865 ], [ -10.81446, 7.588362 ], [ -10.827286, 7.563148 ], [ -10.835183, 7.560515 ], [ -10.846352, 7.546902 ], [ -10.8879, 7.524551 ], [ -10.898573, 7.512706 ], [ -10.920054, 7.498757 ], [ -10.926374, 7.499586 ], [ -10.931562, 7.509019 ], [ -10.936887, 7.509618 ], [ -10.969775, 7.483934 ], [ -10.978317, 7.47047 ], [ -11.003397, 7.453789 ], [ -11.011755, 7.441837 ], [ -11.032729, 7.433748 ], [ -11.035938, 7.424636 ], [ -11.059733, 7.402978 ], [ -11.080131, 7.391831 ], [ -11.10149, 7.388079 ], [ -11.112824, 7.371502 ], [ -11.124492, 7.361468 ], [ -11.129543, 7.350916 ], [ -11.14202, 7.340195 ], [ -11.144463, 7.321512 ], [ -11.159443, 7.307068 ], [ -11.169994, 7.301958 ], [ -11.176946, 7.29315 ], [ -11.176347, 7.282951 ], [ -11.18155, 7.27555 ], [ -11.180759, 7.267967 ], [ -11.184951, 7.262611 ], [ -11.220242, 7.245246 ], [ -11.235822, 7.247818 ], [ -11.253267, 7.230671 ], [ -11.264386, 7.231363 ], [ -11.271978, 7.236033 ], [ -11.273734, 7.226817 ], [ -11.28471, 7.214468 ], [ -11.28716, 7.201405 ], [ -11.291824, 7.197434 ], [ -11.295395, 7.198437 ], [ -11.293145, 7.203976 ], [ -11.300533, 7.205543 ], [ -11.30423, 7.21112 ], [ -11.308348, 7.209708 ], [ -11.311891, 7.185626 ], [ -11.316287, 7.174618 ], [ -11.332733, 7.158204 ], [ -11.329812, 7.147378 ], [ -11.335303, 7.143874 ], [ -11.345409, 7.145197 ], [ -11.350353, 7.139518 ], [ -11.334177, 7.1133 ], [ -11.333122, 7.078898 ], [ -11.338253, 7.076108 ], [ -11.363603, 7.078948 ], [ -11.372599, 7.070919 ], [ -11.373491, 7.062014 ], [ -11.364233, 7.049009 ], [ -11.368192, 7.040923 ], [ -11.371302, 7.018135 ], [ -11.378044, 7.010079 ], [ -11.392758, 7.003595 ], [ -11.39919, 6.987055 ], [ -11.412732, 6.986023 ], [ -11.416936, 6.970881 ], [ -11.430025, 6.967886 ], [ -11.421086, 6.949355 ], [ -11.419581, 6.939402 ], [ -11.441584, 6.938725 ], [ -11.450086, 6.934533 ], [ -11.461024, 6.923579 ], [ -11.497478, 6.923437 ], [ -11.57127, 6.964975 ], [ -11.56731, 6.993875 ], [ -11.576772, 6.992627 ], [ -11.594384, 6.983997 ], [ -11.604773, 6.98502 ], [ -11.630495, 7.015125 ], [ -11.665106, 7.041582 ], [ -11.746377, 7.089667 ], [ -11.906134, 7.168592 ], [ -12.308679, 7.326871 ], [ -12.432424, 7.367038 ], [ -12.504909, 7.386723 ], [ -12.500272, 7.393544 ], [ -12.470394, 7.405502 ], [ -12.42872, 7.409649 ], [ -12.391164, 7.402033 ], [ -12.42294, 7.42607 ], [ -12.45854, 7.42736 ], [ -12.484686, 7.436236 ], [ -12.487904, 7.443914 ], [ -12.458189, 7.500093 ], [ -12.43751, 7.52062 ], [ -12.401204, 7.532272 ], [ -12.374666, 7.536485 ], [ -12.347634, 7.552448 ], [ -12.350928, 7.55598 ], [ -12.357712, 7.557121 ], [ -12.378441, 7.5442 ], [ -12.398518, 7.552638 ], [ -12.459573, 7.55929 ], [ -12.47644, 7.606041 ], [ -12.487558, 7.60726 ], [ -12.498938, 7.615902 ], [ -12.492362, 7.623454 ], [ -12.494295, 7.638803 ], [ -12.484182, 7.654209 ], [ -12.492364, 7.653046 ], [ -12.510835, 7.642974 ], [ -12.535895, 7.65699 ], [ -12.540827, 7.676151 ], [ -12.52915, 7.69015 ], [ -12.533677, 7.697883 ], [ -12.530825, 7.705642 ], [ -12.511282, 7.713921 ], [ -12.489648, 7.737987 ], [ -12.467228, 7.726195 ], [ -12.460429, 7.72773 ], [ -12.470015, 7.734817 ], [ -12.482825, 7.761263 ], [ -12.587108, 7.689291 ], [ -12.60851, 7.690167 ], [ -12.622072, 7.697206 ], [ -12.640459, 7.696969 ], [ -12.676964, 7.706254 ], [ -12.707402, 7.705935 ], [ -12.734826, 7.723596 ], [ -12.753999, 7.742302 ], [ -12.770794, 7.752496 ], [ -12.785814, 7.769229 ], [ -12.787295, 7.799033 ], [ -12.767539, 7.817113 ], [ -12.781149, 7.814533 ], [ -12.812668, 7.795981 ], [ -12.83465, 7.803299 ], [ -12.864794, 7.822616 ], [ -12.90049, 7.86175 ], [ -12.93139, 7.880869 ], [ -12.952126, 7.907414 ], [ -12.94968, 7.916113 ], [ -12.902238, 7.941008 ], [ -12.859926, 7.943677 ], [ -12.874635, 7.956756 ], [ -12.887194, 7.974582 ], [ -12.901777, 8.033297 ], [ -12.90131, 8.085204 ], [ -12.91442, 8.102752 ], [ -12.944166, 8.156897 ], [ -12.9848, 8.20355 ], [ -12.992603, 8.230581 ], [ -13.023875, 8.238475 ], [ -13.067198, 8.233503 ], [ -13.108926, 8.203859 ], [ -13.147184, 8.180972 ], [ -13.158199, 8.178637 ], [ -13.16153, 8.192782 ], [ -13.158931, 8.218638 ], [ -13.170198, 8.257927 ], [ -13.171533, 8.280106 ], [ -13.186763, 8.293952 ], [ -13.205901, 8.330716 ], [ -13.241121, 8.356149 ], [ -13.265524, 8.390457 ], [ -13.277632, 8.41245 ], [ -13.287767, 8.424787 ], [ -13.287689, 8.433778 ], [ -13.281296, 8.447 ], [ -13.28053, 8.460554 ], [ -13.289991, 8.493066 ], [ -13.284818, 8.493525 ], [ -13.276919, 8.485786 ], [ -13.266307, 8.491757 ], [ -13.254297, 8.48904 ], [ -13.208641, 8.48947 ], [ -13.180241, 8.473091 ], [ -13.140428, 8.429749 ], [ -13.117427, 8.414824 ], [ -13.094102, 8.408015 ], [ -13.08176, 8.390457 ], [ -13.07816, 8.385335 ], [ -13.063111, 8.376768 ], [ -13.061095, 8.381008 ], [ -13.066364, 8.390457 ], [ -13.073689, 8.404321 ], [ -13.073848, 8.417546 ], [ -13.123065, 8.435075 ], [ -13.130215, 8.443263 ], [ -13.128198, 8.455548 ], [ -13.113184, 8.468136 ], [ -13.100429, 8.483688 ], [ -13.069639, 8.499406 ], [ -13.050234, 8.520229 ], [ -13.038007, 8.525501 ], [ -13.034435, 8.539946 ], [ -13.020587, 8.557349 ], [ -12.976924, 8.557115 ], [ -12.969641, 8.550494 ], [ -12.96263, 8.537571 ], [ -12.954655, 8.533158 ], [ -12.952297, 8.535811 ], [ -12.957714, 8.545676 ], [ -12.954552, 8.551821 ], [ -12.935877, 8.55233 ], [ -12.924191, 8.543432 ], [ -12.918159, 8.546215 ], [ -12.917198, 8.550721 ], [ -12.927, 8.563183 ], [ -12.946039, 8.577356 ], [ -12.949047, 8.590553 ], [ -12.987394, 8.598924 ], [ -13.0256, 8.599204 ], [ -13.05855, 8.579374 ], [ -13.06936, 8.576239 ], [ -13.073348, 8.577706 ], [ -13.08516, 8.588333 ], [ -13.086704, 8.603004 ], [ -13.067684, 8.615746 ], [ -13.035624, 8.649061 ], [ -13.049195, 8.652961 ], [ -13.056684, 8.66168 ], [ -13.060826, 8.655953 ], [ -13.065055, 8.632896 ], [ -13.086908, 8.61917 ], [ -13.100387, 8.620566 ], [ -13.112402, 8.629176 ], [ -13.114912, 8.634736 ], [ -13.112768, 8.643788 ], [ -13.151432, 8.648243 ], [ -13.149296, 8.643564 ], [ -13.129107, 8.629116 ], [ -13.115424, 8.606919 ], [ -13.115062, 8.5971 ], [ -13.127006, 8.567449 ], [ -13.135949, 8.534622 ], [ -13.149444, 8.52509 ], [ -13.174509, 8.538097 ], [ -13.193184, 8.567013 ], [ -13.212375, 8.614247 ], [ -13.232359, 8.644446 ], [ -13.240744, 8.663363 ], [ -13.242063, 8.71183 ], [ -13.239526, 8.731725 ], [ -13.24686, 8.791039 ], [ -13.24359, 8.816805 ], [ -13.228126, 8.838379 ], [ -13.204903, 8.853762 ], [ -13.153449, 8.844102 ], [ -13.133196, 8.847286 ], [ -13.134595, 8.857546 ], [ -13.158972, 8.882482 ], [ -13.146966, 8.895587 ], [ -13.134797, 8.91703 ], [ -13.104897, 8.925611 ], [ -13.069239, 8.922247 ], [ -13.065017, 8.924934 ], [ -13.093585, 8.93655 ], [ -13.128213, 8.929947 ], [ -13.161082, 8.911939 ], [ -13.190518, 8.915213 ], [ -13.224746, 8.947215 ], [ -13.228015, 8.960088 ], [ -13.240963, 8.953808 ], [ -13.246483, 8.955668 ], [ -13.254124, 8.98839 ], [ -13.257175, 8.984423 ], [ -13.261785, 8.959523 ], [ -13.28742, 8.96476 ], [ -13.292588, 8.982703 ], [ -13.293275, 9.009245 ], [ -13.302656, 9.040415 ], [ -13.300549, 9.041689 ], [ -13.288597, 9.05253 ], [ -13.281418, 9.056559 ], [ -13.277187, 9.061057 ], [ -13.247117, 9.074944 ], [ -13.20681, 9.073484 ], [ -13.199716, 9.077629 ], [ -13.177548, 9.090581 ], [ -13.167022, 9.091433 ], [ -13.151211, 9.085103 ], [ -13.121649, 9.05751 ], [ -13.107373, 9.050231 ], [ -13.085987, 9.048957 ], [ -13.061323, 9.057086 ], [ -13.049569, 9.08224 ], [ -13.042575, 9.086358 ], [ -13.018792, 9.088261 ], [ -13.006224, 9.094925 ], [ -12.983196, 9.128582 ], [ -12.971193, 9.168741 ], [ -12.955897, 9.18569 ], [ -12.958072, 9.235605 ], [ -12.944357, 9.273396 ], [ -12.937208, 9.283465 ], [ -12.924344, 9.285088 ], [ -12.902188, 9.272346 ], [ -12.895355, 9.27106 ], [ -12.882085, 9.278467 ], [ -12.872536, 9.296959 ], [ -12.857368, 9.295047 ], [ -12.841881, 9.286708 ], [ -12.829067, 9.290523 ], [ -12.814026, 9.287558 ], [ -12.791399, 9.300553 ], [ -12.777287, 9.340248 ], [ -12.758589, 9.342717 ], [ -12.752383, 9.348319 ], [ -12.757893, 9.378623 ], [ -12.75455, 9.392516 ], [ -12.728224, 9.395156 ], [ -12.713946, 9.391141 ], [ -12.708457, 9.409395 ], [ -12.704613, 9.413519 ], [ -12.700019, 9.414806 ], [ -12.691129, 9.408809 ], [ -12.687789, 9.409388 ], [ -12.683975, 9.42147 ], [ -12.684781, 9.430401 ], [ -12.680282, 9.436497 ], [ -12.68309, 9.443826 ], [ -12.678615, 9.461777 ], [ -12.67154, 9.468968 ], [ -12.670935, 9.476955 ], [ -12.650259, 9.511323 ], [ -12.65047, 9.521124 ], [ -12.658136, 9.535613 ], [ -12.648187, 9.546891 ], [ -12.640317, 9.549249 ], [ -12.634777, 9.550909 ], [ -12.635483, 9.565524 ], [ -12.628373, 9.582418 ], [ -12.621051, 9.599816 ], [ -12.614299, 9.604886 ], [ -12.598943, 9.601087 ], [ -12.591563, 9.60352 ], [ -12.585797, 9.630533 ], [ -12.590014, 9.657039 ], [ -12.585975, 9.662018 ], [ -12.578788, 9.659831 ], [ -12.575522, 9.662154 ], [ -12.568872, 9.681055 ], [ -12.566131, 9.700676 ], [ -12.552943, 9.706043 ], [ -12.536343, 9.718788 ], [ -12.526985, 9.708104 ], [ -12.520321, 9.708903 ], [ -12.52656, 9.737867 ], [ -12.522644, 9.742493 ], [ -12.508994, 9.745773 ], [ -12.517111, 9.756516 ], [ -12.510235, 9.77597 ], [ -12.502054, 9.789587 ], [ -12.499744, 9.806366 ], [ -12.491204, 9.815802 ], [ -12.491214, 9.825562 ], [ -12.499105, 9.83446 ], [ -12.498299, 9.841669 ], [ -12.482324, 9.853521 ], [ -12.454123, 9.856834 ], [ -12.430294, 9.881465 ], [ -12.308679, 9.905067 ], [ -12.293433, 9.908026 ], [ -12.227232, 9.923995 ], [ -12.218462, 9.920795 ], [ -12.203839, 9.907047 ], [ -12.177622, 9.897115 ], [ -12.144477, 9.875972 ], [ -12.124823, 9.872274 ], [ -11.907463, 9.936321 ], [ -11.898352, 9.947545 ], [ -11.890973, 9.985692 ], [ -11.884857, 9.992987 ], [ -11.881263, 9.997274 ], [ -11.850332, 9.997415 ], [ -11.620488, 9.998461 ], [ -11.214381, 10.000309 ], [ -11.202546, 9.997118 ], [ -11.197804, 9.992987 ], [ -11.174009, 9.972258 ], [ -11.167351, 9.94541 ], [ -11.160769, 9.894517 ], [ -11.153525, 9.879122 ], [ -11.141377, 9.86873 ], [ -11.099895, 9.84894 ], [ -11.073953, 9.830948 ], [ -11.039887, 9.798664 ], [ -10.993004, 9.735288 ], [ -10.978871, 9.716181 ], [ -10.971712, 9.699334 ], [ -10.967873, 9.67548 ], [ -10.963043, 9.665438 ], [ -10.953189, 9.658138 ], [ -10.932459, 9.655918 ], [ -10.92407, 9.651805 ], [ -10.915146, 9.632055 ], [ -10.909048, 9.60037 ], [ -10.89325, 9.591135 ], [ -10.884567, 9.582418 ], [ -10.861013, 9.558771 ], [ -10.860537, 9.552334 ], [ -10.869827, 9.542644 ], [ -10.871066, 9.53606 ], [ -10.856521, 9.525144 ], [ -10.828915, 9.517804 ], [ -10.830787, 9.50845 ], [ -10.843344, 9.50085 ], [ -10.847316, 9.495281 ], [ -10.841577, 9.475258 ], [ -10.843919, 9.468968 ], [ -10.848245, 9.461766 ], [ -10.84877, 9.456096 ], [ -10.842403, 9.442465 ], [ -10.826536, 9.434622 ], [ -10.80324, 9.415805 ], [ -10.804379, 9.408354 ], [ -10.815594, 9.393822 ], [ -10.81349, 9.385303 ], [ -10.805496, 9.381343 ], [ -10.799144, 9.389718 ], [ -10.794327, 9.390326 ], [ -10.772583, 9.38217 ], [ -10.759673, 9.385708 ], [ -10.749698, 9.384775 ], [ -10.738916, 9.374932 ], [ -10.730668, 9.378927 ], [ -10.711825, 9.349368 ], [ -10.709284, 9.33224 ], [ -10.687645, 9.323161 ], [ -10.669973, 9.31001 ], [ -10.664238, 9.301833 ], [ -10.662003, 9.289296 ], [ -10.67504, 9.248373 ], [ -10.673886, 9.239168 ], [ -10.664441, 9.22682 ], [ -10.664343, 9.209648 ], [ -10.67052, 9.202214 ], [ -10.695237, 9.19416 ], [ -10.707464, 9.192512 ], [ -10.714619, 9.197833 ], [ -10.719033, 9.19532 ], [ -10.722864, 9.183186 ], [ -10.714665, 9.163717 ], [ -10.714604, 9.146088 ], [ -10.725859, 9.130132 ], [ -10.732566, 9.083973 ], [ -10.72836, 9.079105 ], [ -10.708988, 9.075751 ], [ -10.659903, 9.081113 ], [ -10.632998, 9.069704 ], [ -10.612568, 9.066308 ], [ -10.594412, 9.054922 ], [ -10.58829, 9.047271 ], [ -10.58556, 9.043859 ], [ -10.586317, 9.016775 ], [ -10.58829, 9.013393 ], [ -10.594051, 9.003514 ], [ -10.598113, 8.974846 ], [ -10.597712, 8.956096 ], [ -10.59254, 8.932121 ], [ -10.595791, 8.888815 ], [ -10.58829, 8.846813 ], [ -10.584011, 8.822853 ], [ -10.58639, 8.805194 ], [ -10.576568, 8.799122 ], [ -10.572571, 8.800326 ], [ -10.5669, 8.799992 ], [ -10.535873, 8.772104 ], [ -10.527975, 8.757572 ], [ -10.524407, 8.73986 ], [ -10.511393, 8.737196 ], [ -10.516568, 8.729224 ], [ -10.507931, 8.716362 ], [ -10.509149, 8.709543 ], [ -10.49394, 8.701456 ], [ -10.485371, 8.690165 ], [ -10.482334, 8.681137 ], [ -10.474989, 8.679988 ], [ -10.470333, 8.674162 ], [ -10.480691, 8.654608 ], [ -10.478842, 8.644217 ], [ -10.481734, 8.638316 ], [ -10.497451, 8.631369 ], [ -10.502812, 8.624631 ], [ -10.523078, 8.610778 ], [ -10.54327, 8.611525 ], [ -10.565759, 8.596644 ], [ -10.572571, 8.59664 ], [ -10.580711, 8.593626 ], [ -10.582193, 8.573696 ], [ -10.58829, 8.56941 ], [ -10.593804, 8.565533 ], [ -10.602852, 8.549676 ], [ -10.622389, 8.540187 ], [ -10.632273, 8.506866 ], [ -10.63038, 8.492924 ], [ -10.638563, 8.492511 ], [ -10.640449, 8.482362 ], [ -10.64953, 8.474663 ], [ -10.652011, 8.444769 ], [ -10.656632, 8.425241 ], [ -10.653161, 8.412375 ], [ -10.653321, 8.390457 ], [ -10.671597, 8.373718 ], [ -10.69588, 8.35812 ], [ -10.702532, 8.332397 ], [ -10.715183, 8.305648 ], [ -10.713022, 8.284635 ], [ -10.716218, 8.271816 ], [ -10.701604, 8.275 ], [ -10.697492, 8.301509 ], [ -10.691505, 8.309375 ], [ -10.686169, 8.324348 ], [ -10.672205, 8.340188 ], [ -10.657476, 8.340603 ], [ -10.632464, 8.334704 ], [ -10.597351, 8.331597 ], [ -10.586987, 8.324988 ], [ -10.579859, 8.309804 ], [ -10.559302, 8.305858 ], [ -10.51005, 8.337905 ], [ -10.49146, 8.354642 ], [ -10.483934, 8.367283 ], [ -10.471817, 8.376771 ], [ -10.461077, 8.390457 ], [ -10.452528, 8.395426 ], [ -10.44569, 8.403589 ], [ -10.431277, 8.429886 ], [ -10.427727, 8.433653 ], [ -10.425523, 8.435992 ], [ -10.417179, 8.440633 ], [ -10.408463, 8.450161 ], [ -10.401487, 8.465434 ], [ -10.393835, 8.476037 ], [ -10.389611, 8.487685 ], [ -10.385985, 8.492782 ], [ -10.372767, 8.487102 ], [ -10.364103, 8.488131 ], [ -10.35348, 8.491625 ], [ -10.346845, 8.496078 ], [ -10.331371, 8.502831 ], [ -10.321689, 8.498914 ], [ -10.301789, 8.48863 ], [ -10.286954, 8.484851 ], [ -10.282042, 8.487952 ] ] ], [ [ [ -12.956652, 7.571689 ], [ -12.955017, 7.575432 ], [ -12.947673, 7.578709 ], [ -12.929404, 7.576189 ], [ -12.913526, 7.578484 ], [ -12.899246, 7.574772 ], [ -12.898243, 7.576084 ], [ -12.901062, 7.580852 ], [ -12.917566, 7.59015 ], [ -12.917934, 7.595495 ], [ -12.905383, 7.605146 ], [ -12.871598, 7.617159 ], [ -12.843862, 7.616332 ], [ -12.820821, 7.623704 ], [ -12.815217, 7.61748 ], [ -12.804822, 7.616178 ], [ -12.795242, 7.608053 ], [ -12.79473, 7.611708 ], [ -12.802947, 7.625762 ], [ -12.794843, 7.629291 ], [ -12.752112, 7.624752 ], [ -12.728486, 7.627752 ], [ -12.720402, 7.621878 ], [ -12.717424, 7.625892 ], [ -12.693174, 7.638508 ], [ -12.670142, 7.63648 ], [ -12.640318, 7.63885 ], [ -12.626047, 7.64069 ], [ -12.590467, 7.635991 ], [ -12.578242, 7.625264 ], [ -12.577811, 7.620076 ], [ -12.595873, 7.608927 ], [ -12.599905, 7.598738 ], [ -12.604233, 7.600806 ], [ -12.605379, 7.599522 ], [ -12.602716, 7.595407 ], [ -12.59741, 7.596601 ], [ -12.593297, 7.607634 ], [ -12.590397, 7.607249 ], [ -12.591569, 7.598202 ], [ -12.589972, 7.597537 ], [ -12.58227, 7.607212 ], [ -12.562355, 7.612556 ], [ -12.528447, 7.601407 ], [ -12.504115, 7.584191 ], [ -12.496497, 7.574388 ], [ -12.494528, 7.56653 ], [ -12.503982, 7.549939 ], [ -12.510957, 7.551319 ], [ -12.518786, 7.562616 ], [ -12.523257, 7.562495 ], [ -12.523615, 7.560799 ], [ -12.517724, 7.558053 ], [ -12.5132, 7.545447 ], [ -12.503502, 7.534317 ], [ -12.499226, 7.5209 ], [ -12.490173, 7.508987 ], [ -12.492239, 7.503421 ], [ -12.527731, 7.471379 ], [ -12.53566, 7.424627 ], [ -12.531273, 7.395397 ], [ -12.55319, 7.389562 ], [ -12.563573, 7.39627 ], [ -12.570704, 7.433896 ], [ -12.585329, 7.454757 ], [ -12.640318, 7.48212 ], [ -12.70194, 7.504955 ], [ -12.846588, 7.547606 ], [ -12.956652, 7.571689 ] ] ], [ [ [ -13.237791, 8.900399 ], [ -13.235984, 8.909495 ], [ -13.226357, 8.920529 ], [ -13.218768, 8.918033 ], [ -13.199716, 8.900952 ], [ -13.199716, 8.897861 ], [ -13.225394, 8.888214 ], [ -13.232526, 8.891779 ], [ -13.237791, 8.900399 ] ] ], [ [ [ -13.088719, 8.564906 ], [ -13.079698, 8.568621 ], [ -13.071581, 8.564649 ], [ -13.065709, 8.56657 ], [ -13.060067, 8.562738 ], [ -13.062809, 8.560202 ], [ -13.061274, 8.55294 ], [ -13.057669, 8.550697 ], [ -13.057358, 8.548282 ], [ -13.060073, 8.546034 ], [ -13.06625, 8.545428 ], [ -13.072422, 8.543218 ], [ -13.082908, 8.537692 ], [ -13.087979, 8.538586 ], [ -13.086081, 8.544782 ], [ -13.085704, 8.553138 ], [ -13.088719, 8.564906 ] ] ], [ [ [ -12.554605, 7.652318 ], [ -12.551767, 7.657374 ], [ -12.545196, 7.655937 ], [ -12.538853, 7.64648 ], [ -12.522628, 7.63835 ], [ -12.521571, 7.627808 ], [ -12.527544, 7.62409 ], [ -12.535165, 7.624877 ], [ -12.540143, 7.629981 ], [ -12.54714, 7.63835 ], [ -12.554605, 7.652318 ] ] ], [ [ [ -13.06532, 7.640108 ], [ -13.053865, 7.642061 ], [ -13.044476, 7.651565 ], [ -13.031718, 7.659156 ], [ -13.025897, 7.658591 ], [ -13.025481, 7.656965 ], [ -13.044476, 7.644234 ], [ -13.046464, 7.641163 ], [ -13.048037, 7.633808 ], [ -13.041602, 7.622026 ], [ -13.044476, 7.61897 ], [ -13.04866, 7.618532 ], [ -13.051146, 7.622026 ], [ -13.054382, 7.622026 ], [ -13.063479, 7.627781 ], [ -13.06532, 7.640108 ] ] ], [ [ [ -13.000915, 7.585904 ], [ -13.000771, 7.588748 ], [ -12.994018, 7.591304 ], [ -12.991432, 7.589999 ], [ -12.988112, 7.593031 ], [ -12.980294, 7.587877 ], [ -12.974989, 7.588656 ], [ -12.969926, 7.588114 ], [ -12.967504, 7.586171 ], [ -12.96771, 7.581925 ], [ -12.965061, 7.578437 ], [ -12.982018, 7.567976 ], [ -12.985402, 7.576519 ], [ -12.992507, 7.581854 ], [ -13.000915, 7.585904 ] ] ], [ [ [ -13.245896, 8.094532 ], [ -13.245011, 8.100063 ], [ -13.240938, 8.09904 ], [ -13.240574, 8.10133 ], [ -13.236901, 8.101575 ], [ -13.236623, 8.105234 ], [ -13.233998, 8.105745 ], [ -13.231097, 8.10926 ], [ -13.226632, 8.11107 ], [ -13.222436, 8.110921 ], [ -13.21975, 8.112747 ], [ -13.218992, 8.118746 ], [ -13.213214, 8.120681 ], [ -13.205841, 8.127314 ], [ -13.202162, 8.128866 ], [ -13.20136, 8.132521 ], [ -13.199716, 8.133276 ], [ -13.197417, 8.134332 ], [ -13.196377, 8.137793 ], [ -13.192751, 8.140972 ], [ -13.189166, 8.141028 ], [ -13.19482, 8.128572 ], [ -13.199716, 8.127723 ], [ -13.202169, 8.127298 ], [ -13.201137, 8.123372 ], [ -13.205596, 8.123392 ], [ -13.207447, 8.120003 ], [ -13.206436, 8.111374 ], [ -13.218934, 8.111862 ], [ -13.220218, 8.108559 ], [ -13.219186, 8.104635 ], [ -13.225106, 8.099956 ], [ -13.232193, 8.09881 ], [ -13.235074, 8.099346 ], [ -13.240514, 8.097925 ], [ -13.243991, 8.093128 ], [ -13.245896, 8.094532 ] ] ], [ [ [ -13.124207, 8.568114 ], [ -13.111934, 8.592559 ], [ -13.108618, 8.594201 ], [ -13.102647, 8.586737 ], [ -13.104034, 8.581235 ], [ -13.109422, 8.572612 ], [ -13.118532, 8.5664 ], [ -13.120331, 8.562097 ], [ -13.122009, 8.562133 ], [ -13.124207, 8.568114 ] ] ], [ [ [ -12.993907, 8.57504 ], [ -12.982337, 8.583527 ], [ -12.974558, 8.581778 ], [ -12.965874, 8.57635 ], [ -12.959512, 8.568722 ], [ -12.960718, 8.567727 ], [ -12.972779, 8.570592 ], [ -12.977392, 8.567878 ], [ -12.981402, 8.568149 ], [ -12.985834, 8.571798 ], [ -12.993907, 8.57504 ] ] ], [ [ [ -12.477138, 7.540231 ], [ -12.472382, 7.542109 ], [ -12.469232, 7.544838 ], [ -12.461422, 7.543405 ], [ -12.458096, 7.538623 ], [ -12.460884, 7.527684 ], [ -12.46822, 7.521419 ], [ -12.47061, 7.523191 ], [ -12.473986, 7.528692 ], [ -12.476956, 7.537301 ], [ -12.477138, 7.540231 ] ] ], [ [ [ -13.020359, 7.594983 ], [ -13.019038, 7.601083 ], [ -13.016955, 7.599897 ], [ -13.011479, 7.603115 ], [ -13.005497, 7.603218 ], [ -13.004596, 7.601397 ], [ -13.007021, 7.593983 ], [ -13.004474, 7.592699 ], [ -13.007116, 7.59038 ], [ -13.018289, 7.592637 ], [ -13.020359, 7.594983 ] ] ], [ [ [ -12.484347, 7.591644 ], [ -12.481967, 7.599256 ], [ -12.478457, 7.598614 ], [ -12.475435, 7.59509 ], [ -12.474077, 7.589911 ], [ -12.474547, 7.585753 ], [ -12.479364, 7.581525 ], [ -12.484347, 7.591644 ] ] ], [ [ [ -13.157709, 8.856926 ], [ -13.156716, 8.860424 ], [ -13.152801, 8.858334 ], [ -13.152199, 8.861171 ], [ -13.147502, 8.862269 ], [ -13.140047, 8.855549 ], [ -13.140603, 8.85422 ], [ -13.151503, 8.856873 ], [ -13.151004, 8.85235 ], [ -13.142956, 8.849978 ], [ -13.14496, 8.847851 ], [ -13.152288, 8.850262 ], [ -13.153393, 8.85342 ], [ -13.156178, 8.853829 ], [ -13.157709, 8.856926 ] ] ], [ [ [ -13.006817, 7.636147 ], [ -13.004703, 7.639525 ], [ -13.001951, 7.6375 ], [ -12.995507, 7.642636 ], [ -12.990279, 7.638948 ], [ -12.989773, 7.63476 ], [ -12.991353, 7.633327 ], [ -13.003682, 7.632992 ], [ -13.006817, 7.636147 ] ] ], [ [ [ -11.587963, 6.975692 ], [ -11.585851, 6.980256 ], [ -11.582647, 6.983199 ], [ -11.575465, 6.986858 ], [ -11.574173, 6.985865 ], [ -11.575439, 6.980302 ], [ -11.581798, 6.974404 ], [ -11.583928, 6.973593 ], [ -11.587963, 6.975692 ] ] ], [ [ [ -12.448207, 7.414753 ], [ -12.440537, 7.418329 ], [ -12.43151, 7.419709 ], [ -12.429192, 7.416374 ], [ -12.440537, 7.411305 ], [ -12.446216, 7.411521 ], [ -12.448207, 7.414753 ] ] ], [ [ [ -13.124846, 8.543534 ], [ -13.122923, 8.54681 ], [ -13.120722, 8.547014 ], [ -13.116014, 8.550672 ], [ -13.115364, 8.546213 ], [ -13.120107, 8.538858 ], [ -13.122804, 8.537397 ], [ -13.124846, 8.543534 ] ] ], [ [ [ -12.478947, 7.526822 ], [ -12.477211, 7.527392 ], [ -12.471166, 7.51699 ], [ -12.471446, 7.512297 ], [ -12.476932, 7.512589 ], [ -12.476573, 7.519712 ], [ -12.478141, 7.521153 ], [ -12.478947, 7.526822 ] ] ], [ [ [ -13.014896, 8.57903 ], [ -13.011326, 8.580682 ], [ -12.997698, 8.58139 ], [ -12.998082, 8.579591 ], [ -13.006902, 8.574783 ], [ -13.014896, 8.57903 ] ] ], [ [ [ -12.497017, 7.536252 ], [ -12.495669, 7.546012 ], [ -12.492164, 7.547253 ], [ -12.491301, 7.537007 ], [ -12.494375, 7.532316 ], [ -12.496424, 7.532154 ], [ -12.497017, 7.536252 ] ] ], [ [ [ -13.113572, 8.566291 ], [ -13.108988, 8.56882 ], [ -13.105643, 8.567006 ], [ -13.104894, 8.561865 ], [ -13.106538, 8.559056 ], [ -13.112178, 8.560497 ], [ -13.113572, 8.566291 ] ] ], [ [ [ -13.071654, 7.671263 ], [ -13.068395, 7.674825 ], [ -13.060386, 7.677069 ], [ -13.057324, 7.674054 ], [ -13.065847, 7.669969 ], [ -13.071654, 7.671263 ] ] ], [ [ [ -12.492044, 7.530044 ], [ -12.488572, 7.536372 ], [ -12.48594, 7.53038 ], [ -12.483028, 7.52702 ], [ -12.483974, 7.522288 ], [ -12.492044, 7.530044 ] ] ], [ [ [ -12.929582, 7.58621 ], [ -12.928477, 7.589535 ], [ -12.924405, 7.592292 ], [ -12.921083, 7.587006 ], [ -12.926694, 7.583737 ], [ -12.929582, 7.58621 ] ] ], [ [ [ -12.482357, 7.549358 ], [ -12.481239, 7.55068 ], [ -12.473958, 7.546898 ], [ -12.474158, 7.545347 ], [ -12.479206, 7.542701 ], [ -12.481391, 7.545191 ], [ -12.482357, 7.549358 ] ] ], [ [ [ -13.164051, 8.875077 ], [ -13.162609, 8.875806 ], [ -13.151916, 8.868995 ], [ -13.153195, 8.867291 ], [ -13.161201, 8.871434 ], [ -13.164051, 8.875077 ] ] ], [ [ [ -12.517262, 7.469061 ], [ -12.509884, 7.470776 ], [ -12.509087, 7.467585 ], [ -12.513035, 7.464993 ], [ -12.516385, 7.465711 ], [ -12.517262, 7.469061 ] ] ], [ [ [ -12.957053, 8.571404 ], [ -12.953799, 8.574551 ], [ -12.947376, 8.571982 ], [ -12.950759, 8.569584 ], [ -12.957053, 8.571404 ] ] ], [ [ [ -12.439554, 7.546621 ], [ -12.436198, 7.548043 ], [ -12.431477, 7.547133 ], [ -12.433525, 7.543549 ], [ -12.437677, 7.544061 ], [ -12.439554, 7.546621 ] ] ], [ [ [ -12.561174, 7.634795 ], [ -12.557072, 7.63567 ], [ -12.553503, 7.629885 ], [ -12.558303, 7.630378 ], [ -12.561174, 7.634795 ] ] ], [ [ [ -12.918379, 7.61794 ], [ -12.913178, 7.622479 ], [ -12.910348, 7.620661 ], [ -12.914695, 7.616485 ], [ -12.918379, 7.61794 ] ] ], [ [ [ -12.504551, 7.433557 ], [ -12.502047, 7.435895 ], [ -12.499431, 7.431053 ], [ -12.501351, 7.427741 ], [ -12.504551, 7.433557 ] ] ], [ [ [ -12.500196, 7.447305 ], [ -12.496457, 7.453107 ], [ -12.49405, 7.453752 ], [ -12.49693, 7.446102 ], [ -12.500196, 7.447305 ] ] ], [ [ [ -12.502386, 7.468934 ], [ -12.495448, 7.469682 ], [ -12.497352, 7.465873 ], [ -12.500686, 7.46492 ], [ -12.502386, 7.468934 ] ] ], [ [ [ -12.476343, 7.573618 ], [ -12.472147, 7.579285 ], [ -12.470658, 7.57759 ], [ -12.472012, 7.572344 ], [ -12.476343, 7.573618 ] ] ], [ [ [ -13.063578, 7.608746 ], [ -13.058306, 7.612189 ], [ -13.057314, 7.608829 ], [ -13.059772, 7.605786 ], [ -13.063578, 7.608746 ] ] ], [ [ [ -12.506375, 7.626522 ], [ -12.502881, 7.632391 ], [ -12.500785, 7.62764 ], [ -12.502043, 7.625404 ], [ -12.506375, 7.626522 ] ] ], [ [ [ -12.993797, 7.910202 ], [ -12.98926, 7.912971 ], [ -12.98666, 7.911127 ], [ -12.987554, 7.909035 ], [ -12.991879, 7.908194 ], [ -12.993797, 7.910202 ] ] ], [ [ [ -13.166551, 8.893619 ], [ -13.160723, 8.893221 ], [ -13.158294, 8.890109 ], [ -13.16476, 8.890109 ], [ -13.166551, 8.893619 ] ] ], [ [ [ -13.174522, 8.892032 ], [ -13.172557, 8.895095 ], [ -13.168551, 8.894718 ], [ -13.168409, 8.890285 ], [ -13.174522, 8.892032 ] ] ], [ [ [ -13.163347, 8.903492 ], [ -13.16043, 8.905527 ], [ -13.155798, 8.905763 ], [ -13.156865, 8.902745 ], [ -13.160464, 8.901499 ], [ -13.163347, 8.903492 ] ] ], [ [ [ -13.20448, 8.91072 ], [ -13.202829, 8.911587 ], [ -13.197249, 8.90815 ], [ -13.201076, 8.905451 ], [ -13.20448, 8.91072 ] ] ] ] } }
]
}
