{
"type": "FeatureCollection",
"name": "Sint-Maarten",
"crs": { "type": "name", "properties": { "name": "urn:ogc:def:crs:OGC:1.3:CRS84" } },
"features": [
{ "type": "Feature", "properties": { "id": "SX", "CNTR_ID": "SX", "CNTR_NAME": "Sint-Maarten", "NAME_ENGL": "Sint-Maarten", "ISO3_CODE": "SXM", "FID": "SX" }, "geometry": { "type": "MultiPolygon", "coordinates": [ [ [ [ -63.088253, 18.046261 ], [ -63.077209, 18.049985 ], [ -63.061589, 18.063287 ], [ -63.053443, 18.062521 ], [ -63.040293, 18.056488 ], [ -63.026273, 18.056363 ], [ -63.019068, 18.056299 ], [ -63.01669, 18.045884 ], [ -63.022039, 18.036871 ], [ -63.021493, 18.029746 ], [ -63.026273, 18.021574 ], [ -63.028231, 18.018225 ], [ -63.041481, 18.006509 ], [ -63.043931, 18.007979 ], [ -63.044615, 18.019601 ], [ -63.048181, 18.022742 ], [ -63.054463, 18.023224 ], [ -63.069364, 18.017654 ], [ -63.092576, 18.025348 ], [ -63.095513, 18.030137 ], [ -63.092858, 18.035137 ], [ -63.086884, 18.03434 ], [ -63.088253, 18.046261 ] ] ], [ [ [ -63.133336, 18.053948 ], [ -63.123753, 18.049998 ], [ -63.118307, 18.051927 ], [ -63.109638, 18.04344 ], [ -63.097492, 18.043145 ], [ -63.096927, 18.038827 ], [ -63.107066, 18.040068 ], [ -63.118052, 18.037042 ], [ -63.127515, 18.04673 ], [ -63.138075, 18.052819 ], [ -63.133336, 18.053948 ] ] ] ] } }
]
}
