{
"type": "FeatureCollection",
"name": "Somalia",
"crs": { "type": "name", "properties": { "name": "urn:ogc:def:crs:OGC:1.3:CRS84" } },
"features": [
{ "type": "Feature", "properties": { "id": "SO", "CNTR_ID": "SO", "CNTR_NAME": "الصومال-Soomaaliya", "NAME_ENGL": "Somalia", "ISO3_CODE": "SOM", "FID": "SO" }, "geometry": { "type": "MultiPolygon", "coordinates": [ [ [ [ 43.260316, 11.46059 ], [ 43.286597, 11.464519 ], [ 43.30155, 11.459422 ], [ 43.31137, 11.462115 ], [ 43.328493, 11.427968 ], [ 43.333759, 11.424408 ], [ 43.347374, 11.422215 ], [ 43.35377, 11.408823 ], [ 43.385823, 11.381527 ], [ 43.395449, 11.379079 ], [ 43.40664, 11.382409 ], [ 43.420691, 11.380301 ], [ 43.460391, 11.34958 ], [ 43.4672, 11.350122 ], [ 43.474987, 11.355557 ], [ 43.480914, 11.35309 ], [ 43.480134, 11.326129 ], [ 43.491109, 11.293261 ], [ 43.495608, 11.245931 ], [ 43.504321, 11.217868 ], [ 43.521427, 11.189772 ], [ 43.536474, 11.180272 ], [ 43.547335, 11.179878 ], [ 43.555341, 11.17427 ], [ 43.567399, 11.145449 ], [ 43.577594, 11.121076 ], [ 43.600166, 11.080951 ], [ 43.629326, 11.041462 ], [ 43.645944, 11.009544 ], [ 43.647201, 11.004166 ], [ 43.642258, 10.993976 ], [ 43.650431, 10.978897 ], [ 43.652873, 10.97838 ], [ 43.6562, 10.985689 ], [ 43.659584, 10.984791 ], [ 43.773677, 10.850095 ], [ 43.893021, 10.732733 ], [ 43.970875, 10.671996 ], [ 44.014726, 10.644357 ], [ 44.049532, 10.617418 ], [ 44.063555, 10.611149 ], [ 44.083589, 10.582714 ], [ 44.098607, 10.568399 ], [ 44.118084, 10.555774 ], [ 44.148734, 10.544071 ], [ 44.200616, 10.507123 ], [ 44.234558, 10.473915 ], [ 44.283498, 10.435206 ], [ 44.319032, 10.416891 ], [ 44.355389, 10.403225 ], [ 44.405631, 10.392201 ], [ 44.455595, 10.399839 ], [ 44.522817, 10.388213 ], [ 44.538314, 10.38783 ], [ 44.568075, 10.379318 ], [ 44.592013, 10.379111 ], [ 44.631061, 10.385046 ], [ 44.677073, 10.404453 ], [ 44.749439, 10.41782 ], [ 44.788689, 10.413693 ], [ 44.819159, 10.41491 ], [ 44.886571, 10.404482 ], [ 44.950774, 10.410982 ], [ 44.993422, 10.432303 ], [ 45.005857, 10.44352 ], [ 45.003855, 10.448398 ], [ 44.997078, 10.449959 ], [ 44.997203, 10.452156 ], [ 45.049181, 10.474345 ], [ 45.087305, 10.507062 ], [ 45.140629, 10.517318 ], [ 45.175016, 10.5364 ], [ 45.204944, 10.546685 ], [ 45.235261, 10.563301 ], [ 45.253833, 10.582405 ], [ 45.272593, 10.608267 ], [ 45.323548, 10.6602 ], [ 45.337441, 10.663034 ], [ 45.409732, 10.658466 ], [ 45.463504, 10.666491 ], [ 45.474671, 10.675797 ], [ 45.481607, 10.681577 ], [ 45.513225, 10.690088 ], [ 45.53041, 10.706172 ], [ 45.550391, 10.711987 ], [ 45.570183, 10.721652 ], [ 45.579349, 10.740069 ], [ 45.598192, 10.761898 ], [ 45.625103, 10.766814 ], [ 45.667895, 10.781959 ], [ 45.71562, 10.815437 ], [ 45.75308, 10.83236 ], [ 45.768947, 10.856306 ], [ 45.798725, 10.864752 ], [ 45.810864, 10.863385 ], [ 45.849475, 10.838734 ], [ 45.854717, 10.829945 ], [ 45.851098, 10.820525 ], [ 45.855528, 10.816386 ], [ 45.879653, 10.812887 ], [ 45.876045, 10.821166 ], [ 45.865427, 10.825944 ], [ 45.862232, 10.830565 ], [ 45.878471, 10.83212 ], [ 45.917741, 10.816214 ], [ 45.98191, 10.778674 ], [ 46.018264, 10.775443 ], [ 46.06698, 10.765801 ], [ 46.099278, 10.764546 ], [ 46.111454, 10.766037 ], [ 46.147394, 10.770439 ], [ 46.203071, 10.781855 ], [ 46.235898, 10.781116 ], [ 46.268489, 10.76271 ], [ 46.327382, 10.704106 ], [ 46.343567, 10.693066 ], [ 46.359345, 10.687626 ], [ 46.393782, 10.683249 ], [ 46.43745, 10.682825 ], [ 46.472903, 10.691356 ], [ 46.532197, 10.716671 ], [ 46.587193, 10.728422 ], [ 46.623013, 10.730046 ], [ 46.668955, 10.748569 ], [ 46.723928, 10.780898 ], [ 46.757094, 10.795472 ], [ 46.76765, 10.80011 ], [ 46.809283, 10.82338 ], [ 46.844559, 10.850647 ], [ 46.871017, 10.862899 ], [ 46.896609, 10.89 ], [ 46.922279, 10.900875 ], [ 46.932688, 10.91396 ], [ 46.960308, 10.917795 ], [ 46.987824, 10.929722 ], [ 47.011642, 10.960167 ], [ 47.043432, 10.963749 ], [ 47.096964, 10.986344 ], [ 47.106272, 10.997615 ], [ 47.114864, 11.020034 ], [ 47.140946, 11.041396 ], [ 47.147105, 11.058382 ], [ 47.151727, 11.063459 ], [ 47.218333, 11.087915 ], [ 47.252601, 11.110505 ], [ 47.28732, 11.127755 ], [ 47.412326, 11.176027 ], [ 47.441384, 11.174107 ], [ 47.458704, 11.178389 ], [ 47.511775, 11.182913 ], [ 47.538493, 11.180113 ], [ 47.560378, 11.168126 ], [ 47.63127, 11.114988 ], [ 47.666783, 11.096714 ], [ 47.674698, 11.094942 ], [ 47.691825, 11.091109 ], [ 47.706594, 11.092931 ], [ 47.762744, 11.113333 ], [ 47.794801, 11.120608 ], [ 47.875228, 11.113203 ], [ 47.893583, 11.115617 ], [ 47.917839, 11.125187 ], [ 47.947532, 11.116559 ], [ 47.964804, 11.115159 ], [ 48.023372, 11.118186 ], [ 48.052727, 11.126258 ], [ 48.07601, 11.12598 ], [ 48.09595, 11.129801 ], [ 48.140744, 11.127685 ], [ 48.164886, 11.138973 ], [ 48.211798, 11.182497 ], [ 48.239132, 11.203448 ], [ 48.275033, 11.212355 ], [ 48.306368, 11.223882 ], [ 48.356113, 11.268613 ], [ 48.381096, 11.274403 ], [ 48.402535, 11.283172 ], [ 48.46764, 11.284307 ], [ 48.494937, 11.296195 ], [ 48.524728, 11.309101 ], [ 48.596438, 11.308643 ], [ 48.661641, 11.323215 ], [ 48.773251, 11.291723 ], [ 48.887233, 11.247038 ], [ 48.924959, 11.240563 ], [ 48.960855, 11.241077 ], [ 49.065152, 11.267709 ], [ 49.250337, 11.30293 ], [ 49.275092, 11.313254 ], [ 49.293992, 11.327008 ], [ 49.303245, 11.333742 ], [ 49.383198, 11.330542 ], [ 49.431989, 11.339471 ], [ 49.442757, 11.345673 ], [ 49.451625, 11.356464 ], [ 49.470334, 11.363768 ], [ 49.478163, 11.373071 ], [ 49.495421, 11.377147 ], [ 49.511204, 11.385392 ], [ 49.526672, 11.402467 ], [ 49.551463, 11.44325 ], [ 49.571072, 11.452844 ], [ 49.650317, 11.460077 ], [ 49.666991, 11.46648 ], [ 49.68161, 11.476575 ], [ 49.690253, 11.478447 ], [ 49.75364, 11.459409 ], [ 49.82544, 11.460921 ], [ 49.87443, 11.476259 ], [ 49.914704, 11.501619 ], [ 49.94271, 11.513375 ], [ 50.00642, 11.503666 ], [ 50.070241, 11.508206 ], [ 50.102909, 11.522783 ], [ 50.125848, 11.538677 ], [ 50.152619, 11.549672 ], [ 50.21289, 11.564899 ], [ 50.230825, 11.57634 ], [ 50.266391, 11.586553 ], [ 50.28159, 11.595852 ], [ 50.301605, 11.615878 ], [ 50.325307, 11.623914 ], [ 50.383591, 11.653966 ], [ 50.413256, 11.664941 ], [ 50.447931, 11.686892 ], [ 50.478193, 11.716107 ], [ 50.504885, 11.752161 ], [ 50.527828, 11.805575 ], [ 50.532053, 11.808299 ], [ 50.536562, 11.817749 ], [ 50.542779, 11.860946 ], [ 50.547997, 11.862585 ], [ 50.554734, 11.873273 ], [ 50.551911, 11.87849 ], [ 50.553103, 11.882628 ], [ 50.567596, 11.900477 ], [ 50.593456, 11.920393 ], [ 50.620907, 11.930223 ], [ 50.635358, 11.941006 ], [ 50.669087, 11.93699 ], [ 50.684497, 11.93842 ], [ 50.724383, 11.95722 ], [ 50.763251, 11.969062 ], [ 50.798038, 11.983493 ], [ 50.852333, 11.950618 ], [ 50.897295, 11.941513 ], [ 50.973132, 11.919757 ], [ 51.055384, 11.874153 ], [ 51.134701, 11.872098 ], [ 51.142042, 11.871908 ], [ 51.186712, 11.850857 ], [ 51.213057, 11.845564 ], [ 51.234645, 11.836984 ], [ 51.269975, 11.841497 ], [ 51.282011, 11.83667 ], [ 51.285942, 11.831869 ], [ 51.2828, 11.806006 ], [ 51.260753, 11.765144 ], [ 51.25758, 11.73492 ], [ 51.249602, 11.716723 ], [ 51.254824, 11.691683 ], [ 51.253671, 11.674857 ], [ 51.243507, 11.655623 ], [ 51.22979, 11.64096 ], [ 51.221655, 11.627345 ], [ 51.199013, 11.605608 ], [ 51.173269, 11.573955 ], [ 51.134701, 11.513889 ], [ 51.126406, 11.500967 ], [ 51.123572, 11.488481 ], [ 51.127137, 11.463572 ], [ 51.123895, 11.437982 ], [ 51.114249, 11.403452 ], [ 51.09463, 11.360625 ], [ 51.08231, 11.318944 ], [ 51.077773, 11.237459 ], [ 51.082919, 11.207957 ], [ 51.092936, 11.184091 ], [ 51.11232, 11.16201 ], [ 51.134701, 11.157394 ], [ 51.171427, 11.15212 ], [ 51.1796, 11.142497 ], [ 51.134701, 11.038873 ], [ 51.122681, 10.988686 ], [ 51.118768, 10.948317 ], [ 51.123496, 10.846104 ], [ 51.129655, 10.78405 ], [ 51.12771, 10.715247 ], [ 51.129774, 10.690038 ], [ 51.134701, 10.674592 ], [ 51.146417, 10.658053 ], [ 51.152969, 10.62099 ], [ 51.168548, 10.575414 ], [ 51.158701, 10.565576 ], [ 51.134701, 10.560913 ], [ 51.12144, 10.558516 ], [ 51.111555, 10.553389 ], [ 51.106447, 10.541198 ], [ 51.111498, 10.50399 ], [ 51.101497, 10.481493 ], [ 51.084493, 10.466017 ], [ 51.045808, 10.458827 ], [ 51.036999, 10.454163 ], [ 51.034959, 10.447864 ], [ 51.038899, 10.427078 ], [ 51.048613, 10.411159 ], [ 51.074318, 10.419678 ], [ 51.134701, 10.430685 ], [ 51.136727, 10.431054 ], [ 51.232848, 10.434451 ], [ 51.235749, 10.43934 ], [ 51.233463, 10.445081 ], [ 51.205437, 10.469829 ], [ 51.19905, 10.479575 ], [ 51.197948, 10.49412 ], [ 51.206787, 10.528396 ], [ 51.219664, 10.524627 ], [ 51.246521, 10.504024 ], [ 51.305894, 10.476365 ], [ 51.327614, 10.472737 ], [ 51.354788, 10.481332 ], [ 51.387334, 10.47778 ], [ 51.412525, 10.440703 ], [ 51.407794, 10.424448 ], [ 51.394604, 10.398025 ], [ 51.377976, 10.38313 ], [ 51.372085, 10.368402 ], [ 51.355174, 10.370662 ], [ 51.339611, 10.376477 ], [ 51.299033, 10.374022 ], [ 51.274999, 10.3781 ], [ 51.268613, 10.386722 ], [ 51.269017, 10.411089 ], [ 51.26317, 10.417536 ], [ 51.255085, 10.421144 ], [ 51.229607, 10.424429 ], [ 51.182994, 10.421599 ], [ 51.134701, 10.413945 ], [ 51.091795, 10.406986 ], [ 51.031094, 10.388782 ], [ 50.939512, 10.343729 ], [ 50.902457, 10.31376 ], [ 50.895643, 10.260631 ], [ 50.903966, 10.182736 ], [ 50.886591, 10.096653 ], [ 50.890017, 10.060274 ], [ 50.896744, 10.030962 ], [ 50.89879, 9.996288 ], [ 50.886563, 9.965646 ], [ 50.868807, 9.884352 ], [ 50.852522, 9.853612 ], [ 50.842602, 9.785285 ], [ 50.833891, 9.754641 ], [ 50.835037, 9.730564 ], [ 50.830317, 9.69546 ], [ 50.823879, 9.67275 ], [ 50.823052, 9.655115 ], [ 50.808611, 9.61511 ], [ 50.801959, 9.582724 ], [ 50.801504, 9.558536 ], [ 50.806611, 9.515781 ], [ 50.820407, 9.488362 ], [ 50.840304, 9.475535 ], [ 50.844291, 9.468644 ], [ 50.842915, 9.451705 ], [ 50.828921, 9.419726 ], [ 50.80766, 9.382728 ], [ 50.778251, 9.343937 ], [ 50.750936, 9.300883 ], [ 50.706737, 9.267626 ], [ 50.657926, 9.206325 ], [ 50.646787, 9.172107 ], [ 50.651796, 9.135878 ], [ 50.649122, 9.104081 ], [ 50.645534, 9.090376 ], [ 50.635332, 9.071669 ], [ 50.620766, 9.054448 ], [ 50.590531, 9.032247 ], [ 50.568027, 9.004648 ], [ 50.509262, 8.957907 ], [ 50.474788, 8.925906 ], [ 50.450978, 8.900951 ], [ 50.441028, 8.882119 ], [ 50.421621, 8.855853 ], [ 50.412302, 8.832823 ], [ 50.407204, 8.788777 ], [ 50.392788, 8.751818 ], [ 50.382971, 8.703114 ], [ 50.352098, 8.667121 ], [ 50.335119, 8.635884 ], [ 50.327853, 8.601159 ], [ 50.333259, 8.576366 ], [ 50.333261, 8.561017 ], [ 50.319371, 8.523246 ], [ 50.297528, 8.49218 ], [ 50.241272, 8.437317 ], [ 50.225837, 8.405948 ], [ 50.205816, 8.383996 ], [ 50.194629, 8.365792 ], [ 50.183002, 8.334174 ], [ 50.162838, 8.314126 ], [ 50.149432, 8.284399 ], [ 50.144204, 8.249287 ], [ 50.131561, 8.20617 ], [ 50.12401, 8.192763 ], [ 50.069639, 8.141948 ], [ 50.033655, 8.12392 ], [ 50.024263, 8.119215 ], [ 49.969282, 8.080195 ], [ 49.921131, 8.032283 ], [ 49.897643, 8.004599 ], [ 49.853718, 7.966984 ], [ 49.822467, 7.925764 ], [ 49.808728, 7.88285 ], [ 49.80453, 7.837984 ], [ 49.806689, 7.822166 ], [ 49.814969, 7.803803 ], [ 49.830961, 7.793227 ], [ 49.82717, 7.783329 ], [ 49.82787, 7.768124 ], [ 49.821457, 7.754957 ], [ 49.822072, 7.738784 ], [ 49.77085, 7.669456 ], [ 49.754779, 7.608084 ], [ 49.684886, 7.465516 ], [ 49.657822, 7.420683 ], [ 49.568186, 7.291523 ], [ 49.475697, 7.170227 ], [ 49.431541, 7.101615 ], [ 49.415221, 7.071215 ], [ 49.3899, 7.041927 ], [ 49.338279, 6.956913 ], [ 49.319389, 6.933144 ], [ 49.293992, 6.889047 ], [ 49.214954, 6.751786 ], [ 49.198076, 6.704126 ], [ 49.143655, 6.582341 ], [ 49.136846, 6.55464 ], [ 49.106813, 6.485228 ], [ 49.084444, 6.41612 ], [ 49.073689, 6.348552 ], [ 49.077402, 6.295194 ], [ 49.063699, 6.24341 ], [ 49.050363, 6.207765 ], [ 48.98029, 6.051721 ], [ 48.912867, 5.922793 ], [ 48.67949, 5.559918 ], [ 48.65055, 5.506392 ], [ 48.622554, 5.465514 ], [ 48.539327, 5.361542 ], [ 48.525906, 5.333012 ], [ 48.503859, 5.308706 ], [ 48.494937, 5.294589 ], [ 48.433661, 5.21938 ], [ 48.385012, 5.149921 ], [ 48.353619, 5.113888 ], [ 48.27769, 5.012532 ], [ 48.229808, 4.937527 ], [ 48.19809, 4.893381 ], [ 48.167865, 4.835746 ], [ 48.148258, 4.788953 ], [ 48.113252, 4.731945 ], [ 48.081418, 4.671084 ], [ 48.040283, 4.608791 ], [ 48.021826, 4.58084 ], [ 47.98471, 4.510605 ], [ 47.94318, 4.454353 ], [ 47.859836, 4.371143 ], [ 47.807145, 4.313187 ], [ 47.747165, 4.23716 ], [ 47.691675, 4.18271 ], [ 47.674698, 4.164082 ], [ 47.585333, 4.066018 ], [ 47.463697, 3.914447 ], [ 47.400329, 3.850087 ], [ 47.319438, 3.76809 ], [ 47.216498, 3.670587 ], [ 47.086838, 3.52327 ], [ 46.927433, 3.361152 ], [ 46.840296, 3.25083 ], [ 46.796033, 3.200516 ], [ 46.757094, 3.161034 ], [ 46.730485, 3.134052 ], [ 46.688366, 3.085046 ], [ 46.574607, 2.978011 ], [ 46.457329, 2.885075 ], [ 46.398969, 2.825817 ], [ 46.361178, 2.800527 ], [ 46.339871, 2.782183 ], [ 46.328716, 2.760647 ], [ 46.309406, 2.746521 ], [ 46.301549, 2.719874 ], [ 46.295248, 2.710553 ], [ 46.268902, 2.694177 ], [ 46.219307, 2.656588 ], [ 46.195312, 2.63071 ], [ 46.189153, 2.61729 ], [ 46.171426, 2.598269 ], [ 46.166847, 2.586917 ], [ 46.146946, 2.575035 ], [ 46.130807, 2.55821 ], [ 46.120799, 2.544821 ], [ 46.116531, 2.530715 ], [ 46.111454, 2.524795 ], [ 46.105258, 2.51757 ], [ 46.047149, 2.470487 ], [ 46.019556, 2.437467 ], [ 46.009102, 2.428543 ], [ 45.979531, 2.411547 ], [ 45.899957, 2.352032 ], [ 45.843928, 2.323775 ], [ 45.830672, 2.312741 ], [ 45.815057, 2.306926 ], [ 45.803625, 2.298379 ], [ 45.790006, 2.294691 ], [ 45.743895, 2.263517 ], [ 45.730582, 2.258394 ], [ 45.559054, 2.157986 ], [ 45.486121, 2.109807 ], [ 45.474671, 2.105721 ], [ 45.471561, 2.104612 ], [ 45.445584, 2.089744 ], [ 45.3933, 2.053792 ], [ 45.379796, 2.049215 ], [ 45.356535, 2.035722 ], [ 45.345649, 2.033818 ], [ 45.332261, 2.021368 ], [ 45.283363, 2.0018 ], [ 45.25799, 1.985945 ], [ 45.236613, 1.976693 ], [ 45.223873, 1.965201 ], [ 45.193689, 1.957919 ], [ 45.152287, 1.936341 ], [ 45.140581, 1.935851 ], [ 45.130654, 1.931828 ], [ 45.107182, 1.916353 ], [ 45.047789, 1.886386 ], [ 45.014418, 1.859185 ], [ 44.995156, 1.851088 ], [ 44.935472, 1.813288 ], [ 44.914719, 1.80409 ], [ 44.788781, 1.722432 ], [ 44.764625, 1.71061 ], [ 44.748988, 1.693503 ], [ 44.716103, 1.67387 ], [ 44.691261, 1.653227 ], [ 44.662596, 1.639705 ], [ 44.642836, 1.625164 ], [ 44.623807, 1.605014 ], [ 44.599799, 1.596452 ], [ 44.585026, 1.580101 ], [ 44.375551, 1.418241 ], [ 44.322167, 1.376989 ], [ 44.302249, 1.353196 ], [ 44.286881, 1.344082 ], [ 44.231694, 1.297139 ], [ 44.210816, 1.270293 ], [ 44.177565, 1.246858 ], [ 44.13824, 1.210017 ], [ 44.129875, 1.198465 ], [ 44.127282, 1.186849 ], [ 44.101574, 1.174189 ], [ 44.050772, 1.1342 ], [ 44.036706, 1.118699 ], [ 44.021969, 1.092922 ], [ 44.009536, 1.090011 ], [ 43.990076, 1.0783 ], [ 43.949324, 1.045875 ], [ 43.933118, 1.023088 ], [ 43.854343, 0.969631 ], [ 43.809858, 0.93229 ], [ 43.777216, 0.908976 ], [ 43.759465, 0.892046 ], [ 43.749271, 0.87738 ], [ 43.650761, 0.798272 ], [ 43.618242, 0.765591 ], [ 43.567399, 0.721495 ], [ 43.547216, 0.70399 ], [ 43.491031, 0.650103 ], [ 43.370201, 0.527033 ], [ 42.881899, -0.009179 ], [ 42.783604, -0.106398 ], [ 42.68335, -0.205554 ], [ 42.660488, -0.228166 ], [ 42.643357, -0.243143 ], [ 42.63873, -0.24179 ], [ 42.624442, -0.252227 ], [ 42.622505, -0.259133 ], [ 42.581279, -0.308901 ], [ 42.574377, -0.322823 ], [ 42.569474, -0.343743 ], [ 42.557864, -0.357333 ], [ 42.555461, -0.367174 ], [ 42.533948, -0.369217 ], [ 42.519106, -0.379495 ], [ 42.49165, -0.415012 ], [ 42.478856, -0.427462 ], [ 42.47524, -0.439698 ], [ 42.482454, -0.449943 ], [ 42.475131, -0.462618 ], [ 42.470352, -0.463972 ], [ 42.466651, -0.455793 ], [ 42.459873, -0.45586 ], [ 42.420521, -0.494528 ], [ 42.388538, -0.537892 ], [ 42.371548, -0.55196 ], [ 42.333788, -0.597658 ], [ 42.313596, -0.630606 ], [ 42.262959, -0.69436 ], [ 42.257056, -0.712234 ], [ 42.24128, -0.722486 ], [ 42.220333, -0.756649 ], [ 42.17529, -0.81008 ], [ 42.151988, -0.826769 ], [ 42.140547, -0.828174 ], [ 42.114862, -0.842138 ], [ 42.079472, -0.838894 ], [ 42.066086, -0.844132 ], [ 42.06342, -0.850503 ], [ 42.065521, -0.859367 ], [ 42.082233, -0.848253 ], [ 42.100023, -0.859666 ], [ 42.088061, -0.882834 ], [ 42.084468, -0.897231 ], [ 42.058919, -0.921324 ], [ 42.046953, -0.939915 ], [ 42.033429, -0.954236 ], [ 42.022836, -0.986911 ], [ 42.01306, -0.992913 ], [ 41.99746, -1.002491 ], [ 41.983055, -1.018152 ], [ 41.968733, -1.018209 ], [ 41.975706, -1.035702 ], [ 41.956489, -1.086993 ], [ 41.931918, -1.123824 ], [ 41.927482, -1.137107 ], [ 41.902495, -1.155511 ], [ 41.898244, -1.163853 ], [ 41.89925, -1.173625 ], [ 41.876247, -1.202291 ], [ 41.877333, -1.212338 ], [ 41.894691, -1.202397 ], [ 41.894498, -1.206261 ], [ 41.87475, -1.222831 ], [ 41.866567, -1.218457 ], [ 41.8447, -1.214748 ], [ 41.840276, -1.216378 ], [ 41.83373, -1.254023 ], [ 41.824705, -1.271577 ], [ 41.800846, -1.305283 ], [ 41.786936, -1.329956 ], [ 41.783374, -1.342394 ], [ 41.746413, -1.382228 ], [ 41.738023, -1.395229 ], [ 41.738056, -1.403396 ], [ 41.722153, -1.420572 ], [ 41.713914, -1.439679 ], [ 41.685346, -1.477358 ], [ 41.644255, -1.548334 ], [ 41.627637, -1.567121 ], [ 41.622147, -1.581389 ], [ 41.610488, -1.589293 ], [ 41.592433, -1.613883 ], [ 41.587211, -1.629611 ], [ 41.591039, -1.641041 ], [ 41.58864, -1.643254 ], [ 41.584761, -1.640128 ], [ 41.578139, -1.641631 ], [ 41.564494, -1.655753 ], [ 41.564494, -1.601221 ], [ 41.47258, -1.47714 ], [ 41.413405, -1.397252 ], [ 41.345385, -1.305419 ], [ 41.222203, -1.139105 ], [ 41.109331, -0.986719 ], [ 40.99565, -0.833242 ], [ 40.99565, -0.793265 ], [ 40.99565, -0.325961 ], [ 40.99565, -0.278816 ], [ 40.99565, -0.197391 ], [ 40.99565, -0.117002 ], [ 40.99565, -0.00085 ], [ 40.99565, 0.005737 ], [ 40.99565, 0.083628 ], [ 40.99565, 0.375592 ], [ 40.99565, 0.394629 ], [ 40.99565, 0.463695 ], [ 40.99565, 0.511567 ], [ 40.99565, 0.694074 ], [ 40.99565, 0.934637 ], [ 40.99565, 1.082447 ], [ 40.99565, 1.232742 ], [ 40.99565, 1.401316 ], [ 40.99565, 1.418241 ], [ 40.99565, 1.699522 ], [ 40.99565, 1.707357 ], [ 40.99517, 1.792671 ], [ 40.994572, 1.899179 ], [ 40.994317, 1.944448 ], [ 40.994497, 2.062996 ], [ 40.99467, 2.176726 ], [ 40.994875, 2.311588 ], [ 40.994918, 2.340036 ], [ 40.995333, 2.612791 ], [ 40.995401, 2.65785 ], [ 40.995547, 2.753641 ], [ 40.995592, 2.783619 ], [ 40.995615, 2.798365 ], [ 40.99565, 2.82169 ], [ 41.181624, 3.006103 ], [ 41.277634, 3.101307 ], [ 41.316349, 3.139697 ], [ 41.333217, 3.156423 ], [ 41.385928, 3.231884 ], [ 41.393832, 3.2432 ], [ 41.413405, 3.271222 ], [ 41.471527, 3.354429 ], [ 41.649059, 3.608584 ], [ 41.694583, 3.673757 ], [ 41.780104, 3.796189 ], [ 41.802652, 3.828469 ], [ 41.825864, 3.861699 ], [ 41.839776, 3.881615 ], [ 41.850693, 3.897245 ], [ 41.864149, 3.916508 ], [ 41.884904, 3.946221 ], [ 41.910119, 3.982319 ], [ 41.913583, 3.99035 ], [ 41.921157, 3.994545 ], [ 41.944118, 4.01822 ], [ 41.948401, 4.028154 ], [ 41.947352, 4.055613 ], [ 41.96666, 4.078196 ], [ 41.974089, 4.081547 ], [ 41.979008, 4.09386 ], [ 42.001495, 4.094919 ], [ 42.059965, 4.160378 ], [ 42.087553, 4.178971 ], [ 42.197038, 4.178999 ], [ 42.297505, 4.184335 ], [ 42.372176, 4.189608 ], [ 42.475534, 4.202687 ], [ 42.525173, 4.202907 ], [ 42.550752, 4.205806 ], [ 42.587763, 4.215515 ], [ 42.67173, 4.250468 ], [ 42.707855, 4.261222 ], [ 42.749607, 4.264489 ], [ 42.816069, 4.264984 ], [ 42.833545, 4.270835 ], [ 42.860748, 4.288162 ], [ 42.897788, 4.318448 ], [ 42.953052, 4.381239 ], [ 42.971815, 4.407488 ], [ 43.007315, 4.468329 ], [ 43.022967, 4.53198 ], [ 43.034809, 4.559859 ], [ 43.045241, 4.572867 ], [ 43.079838, 4.602334 ], [ 43.170619, 4.660188 ], [ 43.32778, 4.743116 ], [ 43.435125, 4.794688 ], [ 43.567399, 4.838929 ], [ 43.658932, 4.867988 ], [ 43.813921, 4.909985 ], [ 44.007271, 4.958902 ], [ 44.015206, 4.960426 ], [ 44.203245, 4.952036 ], [ 44.750037, 4.928498 ], [ 44.978678, 4.918662 ], [ 44.984874, 4.920815 ], [ 45.209164, 5.151331 ], [ 45.474671, 5.424101 ], [ 46.111454, 6.077789 ], [ 46.272912, 6.24341 ], [ 46.757094, 6.739759 ], [ 47.179749, 7.17262 ], [ 47.674698, 7.682014 ], [ 47.972144, 7.987849 ], [ 47.978858, 7.995788 ], [ 47.972144, 7.997193 ], [ 47.674698, 7.998224 ], [ 46.991872, 8.000592 ], [ 46.92133, 8.027802 ], [ 46.757094, 8.083419 ], [ 46.637482, 8.12392 ], [ 46.615905, 8.131225 ], [ 46.577551, 8.14643 ], [ 46.241101, 8.258695 ], [ 46.194457, 8.271856 ], [ 46.111454, 8.302413 ], [ 46.101288, 8.306156 ], [ 46.083734, 8.30969 ], [ 45.931088, 8.358753 ], [ 45.608377, 8.468837 ], [ 45.474671, 8.511527 ], [ 45.236221, 8.587647 ], [ 45.209164, 8.596666 ], [ 44.872455, 8.708882 ], [ 44.832586, 8.719585 ], [ 44.804465, 8.732732 ], [ 44.750037, 8.751028 ], [ 44.556384, 8.815923 ], [ 44.518713, 8.830715 ], [ 44.203245, 8.931507 ], [ 44.005405, 8.997155 ], [ 43.984362, 9.014672 ], [ 43.89873, 9.099056 ], [ 43.869843, 9.13222 ], [ 43.655018, 9.351402 ], [ 43.644857, 9.358212 ], [ 43.595949, 9.360278 ], [ 43.567399, 9.370936 ], [ 43.554599, 9.375714 ], [ 43.519756, 9.387266 ], [ 43.491379, 9.401531 ], [ 43.46831, 9.419419 ], [ 43.445538, 9.444896 ], [ 43.432329, 9.470609 ], [ 43.413767, 9.512565 ], [ 43.410247, 9.532817 ], [ 43.404742, 9.545958 ], [ 43.398123, 9.552867 ], [ 43.375297, 9.569 ], [ 43.371256, 9.576154 ], [ 43.360735, 9.58615 ], [ 43.341779, 9.598454 ], [ 43.340501, 9.600314 ], [ 43.324804, 9.606107 ], [ 43.306976, 9.60827 ], [ 43.299206, 9.611204 ], [ 43.289562, 9.657636 ], [ 43.270005, 9.768242 ], [ 43.269025, 9.787512 ], [ 43.256822, 9.842605 ], [ 43.181924, 9.882607 ], [ 43.162201, 9.890731 ], [ 43.149931, 9.899364 ], [ 43.145319, 9.898806 ], [ 43.144415, 9.892627 ], [ 43.138169, 9.88638 ], [ 43.133011, 9.886353 ], [ 43.128862, 9.886332 ], [ 43.11516, 9.888878 ], [ 43.099875, 9.896488 ], [ 43.089429, 9.904583 ], [ 43.085831, 9.908986 ], [ 43.065261, 9.961677 ], [ 43.061718, 9.967133 ], [ 43.017468, 10.080598 ], [ 43.010749, 10.091268 ], [ 43.000005, 10.101182 ], [ 42.993149, 10.105722 ], [ 42.978606, 10.117082 ], [ 42.943215, 10.15144 ], [ 42.881036, 10.207236 ], [ 42.865353, 10.224189 ], [ 42.858421, 10.233944 ], [ 42.832694, 10.27778 ], [ 42.822787, 10.304125 ], [ 42.804954, 10.351754 ], [ 42.791772, 10.403745 ], [ 42.783604, 10.419037 ], [ 42.76391, 10.455906 ], [ 42.761713, 10.460019 ], [ 42.746455, 10.511925 ], [ 42.737276, 10.522563 ], [ 42.715418, 10.531456 ], [ 42.699698, 10.544685 ], [ 42.683698, 10.59139 ], [ 42.683133, 10.603077 ], [ 42.685158, 10.61274 ], [ 42.69206, 10.623731 ], [ 42.723347, 10.652572 ], [ 42.76391, 10.717627 ], [ 42.766516, 10.721805 ], [ 42.783604, 10.744692 ], [ 42.814903, 10.786606 ], [ 42.822787, 10.797162 ], [ 42.84093, 10.82286 ], [ 42.85571, 10.83816 ], [ 42.86422, 10.85429 ], [ 42.868096, 10.858646 ], [ 42.87044, 10.86128 ], [ 42.87626, 10.87149 ], [ 42.883835, 10.880967 ], [ 42.88554, 10.8831 ], [ 42.901254, 10.902737 ], [ 42.906491, 10.909282 ], [ 42.91005, 10.91373 ], [ 42.93133, 10.94796 ], [ 42.948911, 10.969103 ], [ 42.961351, 10.98431 ], [ 42.968055, 10.997431 ], [ 42.996689, 11.042809 ], [ 43.133011, 11.258885 ], [ 43.170614, 11.31846 ], [ 43.201768, 11.367806 ], [ 43.260316, 11.46059 ] ] ], [ [ [ 43.446719, 11.434693 ], [ 43.451395, 11.438975 ], [ 43.448671, 11.440307 ], [ 43.453817, 11.443242 ], [ 43.456402, 11.447372 ], [ 43.459784, 11.448804 ], [ 43.470735, 11.44899 ], [ 43.475056, 11.445412 ], [ 43.476127, 11.440273 ], [ 43.474186, 11.43769 ], [ 43.47343, 11.432799 ], [ 43.470595, 11.426482 ], [ 43.465629, 11.424739 ], [ 43.462047, 11.426318 ], [ 43.458106, 11.424419 ], [ 43.459416, 11.420379 ], [ 43.454568, 11.419392 ], [ 43.455341, 11.426531 ], [ 43.453376, 11.43221 ], [ 43.447655, 11.433288 ], [ 43.446719, 11.434693 ] ] ], [ [ [ 42.320852, -0.652077 ], [ 42.323484, -0.649305 ], [ 42.322485, -0.643757 ], [ 42.32653, -0.639052 ], [ 42.33, -0.641365 ], [ 42.335886, -0.639982 ], [ 42.338269, -0.635192 ], [ 42.336518, -0.630778 ], [ 42.339274, -0.629771 ], [ 42.343034, -0.624101 ], [ 42.349047, -0.620826 ], [ 42.351048, -0.626122 ], [ 42.349041, -0.631668 ], [ 42.349414, -0.635702 ], [ 42.346783, -0.639988 ], [ 42.340894, -0.644775 ], [ 42.338888, -0.648304 ], [ 42.339388, -0.650826 ], [ 42.336003, -0.657001 ], [ 42.331449, -0.658476 ], [ 42.328489, -0.656997 ], [ 42.327715, -0.661502 ], [ 42.323853, -0.660903 ], [ 42.321977, -0.657625 ], [ 42.322604, -0.654095 ], [ 42.320852, -0.652077 ] ] ], [ [ [ 42.02195, -1.020043 ], [ 42.023591, -1.015946 ], [ 42.027728, -1.012603 ], [ 42.03216, -1.002693 ], [ 42.03687, -1.003545 ], [ 42.042792, -0.998626 ], [ 42.041061, -0.992644 ], [ 42.046813, -0.989181 ], [ 42.051981, -0.990412 ], [ 42.052025, -0.997941 ], [ 42.04693, -1.006153 ], [ 42.033378, -1.022917 ], [ 42.027728, -1.023292 ], [ 42.02195, -1.020043 ] ] ], [ [ [ 42.131073, -0.900984 ], [ 42.136622, -0.894065 ], [ 42.136235, -0.891712 ], [ 42.141522, -0.883476 ], [ 42.150792, -0.875774 ], [ 42.154433, -0.869241 ], [ 42.159369, -0.867676 ], [ 42.167299, -0.856439 ], [ 42.169773, -0.848597 ], [ 42.181462, -0.84756 ], [ 42.184062, -0.844032 ], [ 42.185618, -0.847563 ], [ 42.178602, -0.851871 ], [ 42.175482, -0.855922 ], [ 42.170284, -0.859579 ], [ 42.164826, -0.865327 ], [ 42.159495, -0.872643 ], [ 42.151569, -0.879435 ], [ 42.147669, -0.883616 ], [ 42.143112, -0.892695 ], [ 42.145199, -0.893953 ], [ 42.140824, -0.900104 ], [ 42.137528, -0.898902 ], [ 42.132104, -0.901831 ], [ 42.131073, -0.900984 ] ] ], [ [ [ 41.912651, -1.167487 ], [ 41.913811, -1.162011 ], [ 41.91718, -1.16305 ], [ 41.921118, -1.1601 ], [ 41.920542, -1.158093 ], [ 41.930643, -1.156126 ], [ 41.931811, -1.158342 ], [ 41.925342, -1.165649 ], [ 41.922415, -1.167572 ], [ 41.918149, -1.172684 ], [ 41.913042, -1.169703 ], [ 41.912651, -1.167487 ] ] ], [ [ [ 43.450071, 11.491065 ], [ 43.452052, 11.494987 ], [ 43.45372, 11.502513 ], [ 43.460907, 11.509809 ], [ 43.462326, 11.514742 ], [ 43.465215, 11.515275 ], [ 43.468915, 11.511407 ], [ 43.465773, 11.509317 ], [ 43.459771, 11.501249 ], [ 43.457958, 11.496315 ], [ 43.451684, 11.490189 ], [ 43.450071, 11.491065 ] ] ], [ [ [ 41.976406, -1.091086 ], [ 41.976817, -1.088477 ], [ 41.980803, -1.079485 ], [ 41.985692, -1.077151 ], [ 41.993974, -1.08199 ], [ 41.988515, -1.088477 ], [ 41.985957, -1.08664 ], [ 41.977843, -1.091672 ], [ 41.976406, -1.091086 ] ] ], [ [ [ 42.271338, -0.738931 ], [ 42.278299, -0.727002 ], [ 42.285385, -0.724546 ], [ 42.288729, -0.718234 ], [ 42.292856, -0.717859 ], [ 42.288672, -0.724552 ], [ 42.285385, -0.726946 ], [ 42.272908, -0.739486 ], [ 42.271338, -0.738931 ] ] ], [ [ [ 43.488277, 11.367806 ], [ 43.490938, 11.367806 ], [ 43.498292, 11.37502 ], [ 43.500647, 11.370271 ], [ 43.505156, 11.37025 ], [ 43.50384, 11.367806 ], [ 43.490611, 11.364225 ], [ 43.488277, 11.367806 ] ] ], [ [ [ 50.772664, 11.986416 ], [ 50.775645, 11.989468 ], [ 50.778455, 11.988901 ], [ 50.778493, 11.984511 ], [ 50.78515, 11.985336 ], [ 50.784691, 11.982966 ], [ 50.780958, 11.982061 ], [ 50.777274, 11.978848 ], [ 50.773778, 11.979948 ], [ 50.777146, 11.984415 ], [ 50.772664, 11.986416 ] ] ], [ [ [ 42.552267, -0.381622 ], [ 42.555285, -0.37495 ], [ 42.559918, -0.375343 ], [ 42.556205, -0.381293 ], [ 42.552267, -0.381622 ] ] ], [ [ [ 44.980301, 10.441807 ], [ 44.980537, 10.445012 ], [ 44.984577, 10.447733 ], [ 44.986613, 10.447113 ], [ 44.983937, 10.441909 ], [ 44.980301, 10.441807 ] ] ], [ [ [ 47.23673, 11.218924 ], [ 47.241786, 11.224785 ], [ 47.245185, 11.224229 ], [ 47.240186, 11.218516 ], [ 47.23673, 11.218924 ] ] ], [ [ [ 43.375772, 11.43755 ], [ 43.376887, 11.441481 ], [ 43.379724, 11.442338 ], [ 43.381461, 11.43674 ], [ 43.375772, 11.43755 ] ] ], [ [ [ 42.505067, -0.436339 ], [ 42.51181, -0.435008 ], [ 42.509809, -0.440042 ], [ 42.507136, -0.439866 ], [ 42.505067, -0.436339 ] ] ], [ [ [ 42.352504, -0.605601 ], [ 42.357408, -0.604384 ], [ 42.358815, -0.608025 ], [ 42.35598, -0.610229 ], [ 42.352504, -0.605601 ] ] ], [ [ [ 42.248328, -0.769077 ], [ 42.253393, -0.764739 ], [ 42.253646, -0.769931 ], [ 42.249778, -0.771744 ], [ 42.248328, -0.769077 ] ] ], [ [ [ 42.100539, -0.949464 ], [ 42.102331, -0.947076 ], [ 42.10147, -0.943596 ], [ 42.106398, -0.945242 ], [ 42.102847, -0.950904 ], [ 42.100539, -0.949464 ] ] ], [ [ [ 42.017356, -1.031145 ], [ 42.022274, -1.031111 ], [ 42.022176, -1.034805 ], [ 42.01764, -1.035963 ], [ 42.017356, -1.031145 ] ] ], [ [ [ 41.936593, -1.147902 ], [ 41.940999, -1.141844 ], [ 41.942652, -1.144497 ], [ 41.939759, -1.149197 ], [ 41.936593, -1.147902 ] ] ], [ [ [ 41.608306, -1.611856 ], [ 41.61081, -1.608431 ], [ 41.613297, -1.608822 ], [ 41.613086, -1.61312 ], [ 41.609073, -1.614157 ], [ 41.608306, -1.611856 ] ] ], [ [ [ 51.192635, 10.533034 ], [ 51.194935, 10.535913 ], [ 51.199484, 10.53208 ], [ 51.197683, 10.529738 ], [ 51.192635, 10.533034 ] ] ], [ [ [ 51.187959, 10.536747 ], [ 51.188305, 10.541038 ], [ 51.192078, 10.539671 ], [ 51.191391, 10.533598 ], [ 51.187959, 10.536747 ] ] ], [ [ [ 50.530114, 11.816239 ], [ 50.532338, 11.824619 ], [ 50.534433, 11.822298 ], [ 50.532324, 11.815435 ], [ 50.530114, 11.816239 ] ] ], [ [ [ 43.478895, 11.364076 ], [ 43.48073, 11.366291 ], [ 43.485963, 11.366161 ], [ 43.483253, 11.361439 ], [ 43.478895, 11.364076 ] ] ], [ [ [ 43.368421, 11.441537 ], [ 43.373051, 11.442919 ], [ 43.373425, 11.437499 ], [ 43.368955, 11.438321 ], [ 43.368421, 11.441537 ] ] ], [ [ [ 43.33222, 11.447504 ], [ 43.339781, 11.44995 ], [ 43.340758, 11.447193 ], [ 43.337587, 11.447523 ], [ 43.334857, 11.444133 ], [ 43.33222, 11.447504 ] ] ], [ [ [ 43.359203, 11.464238 ], [ 43.364176, 11.466808 ], [ 43.366638, 11.462749 ], [ 43.360824, 11.462161 ], [ 43.359203, 11.464238 ] ] ], [ [ [ 43.291598, 11.486174 ], [ 43.294125, 11.488557 ], [ 43.297354, 11.486097 ], [ 43.295331, 11.481672 ], [ 43.291598, 11.486174 ] ] ], [ [ [ 43.280167, 11.484301 ], [ 43.280374, 11.486465 ], [ 43.284891, 11.488545 ], [ 43.285208, 11.484763 ], [ 43.282571, 11.482343 ], [ 43.280167, 11.484301 ] ] ] ] } }
]
}
