{
"type": "FeatureCollection",
"name": "South Georgia and The South Sandwich Islands",
"crs": { "type": "name", "properties": { "name": "urn:ogc:def:crs:OGC:1.3:CRS84" } },
"features": [
{ "type": "Feature", "properties": { "id": "GS", "CNTR_ID": "GS", "CNTR_NAME": "South Georgia and The South Sandwich Islands", "NAME_ENGL": "South Georgia and The South Sandwich Islands", "ISO3_CODE": "SGS", "FID": "GS" }, "geometry": { "type": "MultiPolygon", "coordinates": [ [ [ [ -38.016058, -54.05948 ], [ -38.011939, -54.054947 ], [ -38.012568, -54.047423 ], [ -38.001832, -54.030847 ], [ -38.015442, -54.013522 ], [ -38.010654, -54.011456 ], [ -38.001371, -54.011798 ], [ -37.976916, -54.019549 ], [ -37.961789, -54.026873 ], [ -37.958472, -54.024017 ], [ -37.961537, -54.015234 ], [ -37.956355, -54.009534 ], [ -37.945416, -54.006024 ], [ -37.911562, -54.001745 ], [ -37.873131, -54.004922 ], [ -37.849539, -54.013214 ], [ -37.838087, -54.020995 ], [ -37.813938, -54.019764 ], [ -37.79997, -54.015305 ], [ -37.785653, -54.015948 ], [ -37.772697, -54.008418 ], [ -37.752058, -54.004136 ], [ -37.742776, -53.99663 ], [ -37.748686, -53.987598 ], [ -37.743511, -53.979487 ], [ -37.726308, -53.977583 ], [ -37.711009, -53.988311 ], [ -37.692322, -53.987731 ], [ -37.679145, -53.989734 ], [ -37.679608, -54.000673 ], [ -37.687779, -54.008926 ], [ -37.682934, -54.013549 ], [ -37.662334, -54.012799 ], [ -37.645905, -54.008939 ], [ -37.62222, -54.013419 ], [ -37.593124, -54.011718 ], [ -37.579855, -54.013486 ], [ -37.570929, -54.019426 ], [ -37.55397, -54.024438 ], [ -37.533794, -54.020762 ], [ -37.506698, -54.023079 ], [ -37.488164, -54.014164 ], [ -37.471982, -54.009916 ], [ -37.458995, -53.998347 ], [ -37.451683, -53.997592 ], [ -37.436222, -54.000101 ], [ -37.428416, -53.995935 ], [ -37.422713, -53.989499 ], [ -37.412075, -53.98719 ], [ -37.40231, -53.991293 ], [ -37.375132, -53.992567 ], [ -37.372332, -53.994499 ], [ -37.373006, -53.99776 ], [ -37.390682, -54.006379 ], [ -37.416217, -54.006959 ], [ -37.440721, -54.010246 ], [ -37.448809, -54.013091 ], [ -37.45186, -54.018358 ], [ -37.442389, -54.024447 ], [ -37.454148, -54.034761 ], [ -37.447474, -54.041466 ], [ -37.455906, -54.045614 ], [ -37.482005, -54.050351 ], [ -37.492688, -54.057807 ], [ -37.492008, -54.061719 ], [ -37.482069, -54.063646 ], [ -37.442565, -54.063692 ], [ -37.419599, -54.065743 ], [ -37.407365, -54.062387 ], [ -37.388919, -54.062183 ], [ -37.376359, -54.05995 ], [ -37.350801, -54.051973 ], [ -37.33615, -54.053507 ], [ -37.31205, -54.059576 ], [ -37.274757, -54.058373 ], [ -37.252002, -54.077448 ], [ -37.247819, -54.088304 ], [ -37.24345, -54.090258 ], [ -37.238, -54.087491 ], [ -37.226386, -54.072463 ], [ -37.224651, -54.063514 ], [ -37.220285, -54.058034 ], [ -37.213815, -54.058115 ], [ -37.202315, -54.064561 ], [ -37.187918, -54.067208 ], [ -37.183187, -54.064949 ], [ -37.181725, -54.058208 ], [ -37.171726, -54.046811 ], [ -37.137788, -54.04485 ], [ -37.133645, -54.049167 ], [ -37.13948, -54.052298 ], [ -37.142212, -54.057395 ], [ -37.151925, -54.061092 ], [ -37.154235, -54.065242 ], [ -37.144057, -54.066823 ], [ -37.130712, -54.065657 ], [ -37.115662, -54.069704 ], [ -37.125115, -54.075462 ], [ -37.142834, -54.080451 ], [ -37.149921, -54.085491 ], [ -37.152793, -54.095104 ], [ -37.146472, -54.113166 ], [ -37.156592, -54.117856 ], [ -37.160422, -54.122826 ], [ -37.154004, -54.130475 ], [ -37.13987, -54.127173 ], [ -37.127162, -54.129529 ], [ -37.113609, -54.127328 ], [ -37.111952, -54.124117 ], [ -37.116822, -54.116514 ], [ -37.0855, -54.087673 ], [ -37.07112, -54.080822 ], [ -37.054327, -54.077358 ], [ -37.04638, -54.071875 ], [ -37.038212, -54.06995 ], [ -37.021862, -54.070791 ], [ -37.01677, -54.076565 ], [ -37.011382, -54.077336 ], [ -37.006355, -54.07323 ], [ -36.999289, -54.060966 ], [ -36.993129, -54.058222 ], [ -36.985982, -54.0616 ], [ -36.97849, -54.061212 ], [ -36.975122, -54.063174 ], [ -36.975897, -54.067853 ], [ -36.981159, -54.07302 ], [ -36.976229, -54.080309 ], [ -36.977636, -54.085735 ], [ -37.031116, -54.112449 ], [ -37.041977, -54.134133 ], [ -37.018853, -54.132734 ], [ -37.012968, -54.128131 ], [ -37.003676, -54.125832 ], [ -37.000855, -54.120675 ], [ -36.994483, -54.116123 ], [ -36.952285, -54.10223 ], [ -36.936878, -54.087828 ], [ -36.916405, -54.08174 ], [ -36.901124, -54.080277 ], [ -36.871497, -54.089522 ], [ -36.851474, -54.087311 ], [ -36.815296, -54.095958 ], [ -36.809558, -54.11221 ], [ -36.820667, -54.125333 ], [ -36.822955, -54.132118 ], [ -36.815179, -54.147535 ], [ -36.805136, -54.152665 ], [ -36.79601, -54.152088 ], [ -36.787588, -54.147339 ], [ -36.783218, -54.131135 ], [ -36.784475, -54.118993 ], [ -36.772637, -54.110075 ], [ -36.756947, -54.108163 ], [ -36.742664, -54.110295 ], [ -36.732013, -54.108751 ], [ -36.69076, -54.116609 ], [ -36.669594, -54.116701 ], [ -36.665657, -54.124396 ], [ -36.641699, -54.124177 ], [ -36.634296, -54.130151 ], [ -36.65019, -54.144357 ], [ -36.658291, -54.144612 ], [ -36.672947, -54.140017 ], [ -36.681809, -54.139362 ], [ -36.685887, -54.150356 ], [ -36.705689, -54.157016 ], [ -36.706246, -54.160404 ], [ -36.701611, -54.162822 ], [ -36.675043, -54.164966 ], [ -36.667124, -54.167336 ], [ -36.681056, -54.172322 ], [ -36.702508, -54.176279 ], [ -36.705795, -54.180838 ], [ -36.702306, -54.184961 ], [ -36.677722, -54.190212 ], [ -36.665917, -54.190465 ], [ -36.645655, -54.183807 ], [ -36.635239, -54.178123 ], [ -36.612823, -54.174634 ], [ -36.598349, -54.168587 ], [ -36.559639, -54.165224 ], [ -36.549458, -54.168522 ], [ -36.543932, -54.17485 ], [ -36.526366, -54.182046 ], [ -36.497174, -54.183979 ], [ -36.492227, -54.194709 ], [ -36.494345, -54.196788 ], [ -36.498635, -54.196975 ], [ -36.5336, -54.190459 ], [ -36.550723, -54.197413 ], [ -36.572898, -54.192448 ], [ -36.590084, -54.19274 ], [ -36.590262, -54.198958 ], [ -36.586292, -54.206171 ], [ -36.589733, -54.212312 ], [ -36.611168, -54.219193 ], [ -36.617887, -54.229854 ], [ -36.629785, -54.237122 ], [ -36.661278, -54.241899 ], [ -36.675022, -54.254475 ], [ -36.674142, -54.261782 ], [ -36.657898, -54.271278 ], [ -36.673589, -54.282753 ], [ -36.673983, -54.285082 ], [ -36.674313, -54.287036 ], [ -36.666002, -54.288033 ], [ -36.657447, -54.285082 ], [ -36.633804, -54.276925 ], [ -36.625019, -54.282878 ], [ -36.61741, -54.283106 ], [ -36.601989, -54.268861 ], [ -36.525659, -54.237481 ], [ -36.514155, -54.238459 ], [ -36.510882, -54.246336 ], [ -36.50499, -54.249827 ], [ -36.50056, -54.248891 ], [ -36.492762, -54.24244 ], [ -36.485886, -54.240922 ], [ -36.473796, -54.245335 ], [ -36.470252, -54.248811 ], [ -36.472014, -54.259439 ], [ -36.469898, -54.268369 ], [ -36.474054, -54.27442 ], [ -36.485999, -54.281235 ], [ -36.502451, -54.283269 ], [ -36.50097, -54.285082 ], [ -36.484032, -54.305801 ], [ -36.493426, -54.315977 ], [ -36.491321, -54.332264 ], [ -36.497359, -54.344288 ], [ -36.503026, -54.350358 ], [ -36.510645, -54.354018 ], [ -36.507685, -54.370013 ], [ -36.501747, -54.369385 ], [ -36.484353, -54.360367 ], [ -36.455849, -54.326241 ], [ -36.440581, -54.316574 ], [ -36.428563, -54.320512 ], [ -36.416476, -54.334499 ], [ -36.387035, -54.358663 ], [ -36.366464, -54.365695 ], [ -36.34861, -54.368196 ], [ -36.341873, -54.365471 ], [ -36.335113, -54.349374 ], [ -36.34763, -54.335176 ], [ -36.358967, -54.309145 ], [ -36.36935, -54.302067 ], [ -36.376033, -54.292015 ], [ -36.383759, -54.285082 ], [ -36.39166, -54.27799 ], [ -36.392627, -54.271467 ], [ -36.388873, -54.263186 ], [ -36.397577, -54.253391 ], [ -36.396734, -54.249443 ], [ -36.394658, -54.247953 ], [ -36.390486, -54.248615 ], [ -36.359597, -54.262806 ], [ -36.33777, -54.261419 ], [ -36.32242, -54.269876 ], [ -36.307608, -54.266914 ], [ -36.299219, -54.268146 ], [ -36.290756, -54.281122 ], [ -36.295219, -54.285082 ], [ -36.301958, -54.29106 ], [ -36.299036, -54.29544 ], [ -36.288967, -54.295784 ], [ -36.274148, -54.289669 ], [ -36.258764, -54.288457 ], [ -36.251946, -54.289789 ], [ -36.25802, -54.297235 ], [ -36.258407, -54.318134 ], [ -36.243279, -54.321298 ], [ -36.240295, -54.32626 ], [ -36.243966, -54.330356 ], [ -36.257023, -54.333554 ], [ -36.260868, -54.336681 ], [ -36.247518, -54.33978 ], [ -36.24093, -54.347768 ], [ -36.223229, -54.346063 ], [ -36.21445, -54.349332 ], [ -36.233172, -54.364532 ], [ -36.252456, -54.374328 ], [ -36.260598, -54.386282 ], [ -36.260191, -54.390175 ], [ -36.255835, -54.391289 ], [ -36.244051, -54.39025 ], [ -36.210921, -54.383328 ], [ -36.183938, -54.38584 ], [ -36.167313, -54.381827 ], [ -36.168839, -54.3862 ], [ -36.178737, -54.391072 ], [ -36.181834, -54.395049 ], [ -36.178595, -54.403099 ], [ -36.169203, -54.412511 ], [ -36.176633, -54.422623 ], [ -36.182963, -54.437756 ], [ -36.170002, -54.452118 ], [ -36.14199, -54.461823 ], [ -36.116952, -54.462044 ], [ -36.100592, -54.458449 ], [ -36.07333, -54.467528 ], [ -36.052381, -54.467644 ], [ -36.046217, -54.482431 ], [ -36.037418, -54.491891 ], [ -36.0097, -54.50261 ], [ -36.042517, -54.515323 ], [ -36.080787, -54.518288 ], [ -36.080681, -54.529348 ], [ -36.089373, -54.536699 ], [ -36.091536, -54.541972 ], [ -36.073812, -54.56516 ], [ -36.035198, -54.566679 ], [ -36.015774, -54.563919 ], [ -36.002281, -54.56994 ], [ -35.996225, -54.576091 ], [ -35.989049, -54.57683 ], [ -35.927003, -54.55816 ], [ -35.917918, -54.553704 ], [ -35.903437, -54.545668 ], [ -35.896508, -54.546304 ], [ -35.893778, -54.548717 ], [ -35.901116, -54.568877 ], [ -35.899068, -54.580355 ], [ -35.913492, -54.581461 ], [ -35.915804, -54.593535 ], [ -35.917918, -54.595337 ], [ -35.924686, -54.601102 ], [ -35.918513, -54.613599 ], [ -35.93604, -54.619491 ], [ -35.940221, -54.623429 ], [ -35.93853, -54.632633 ], [ -35.923483, -54.646751 ], [ -35.918507, -54.655624 ], [ -35.91978, -54.669028 ], [ -35.917918, -54.675877 ], [ -35.913383, -54.692554 ], [ -35.915046, -54.693753 ], [ -35.917918, -54.693744 ], [ -35.934843, -54.693693 ], [ -35.938177, -54.700806 ], [ -35.923613, -54.712031 ], [ -35.917918, -54.714834 ], [ -35.901746, -54.722792 ], [ -35.869225, -54.733685 ], [ -35.85181, -54.748435 ], [ -35.837387, -54.749852 ], [ -35.83322, -54.759503 ], [ -35.79906, -54.761353 ], [ -35.794233, -54.76411 ], [ -35.80573, -54.77657 ], [ -35.816341, -54.782436 ], [ -35.819589, -54.791779 ], [ -35.854496, -54.795337 ], [ -35.875087, -54.78913 ], [ -35.880265, -54.796025 ], [ -35.885265, -54.797784 ], [ -35.899767, -54.793006 ], [ -35.905114, -54.796743 ], [ -35.910508, -54.809021 ], [ -35.917918, -54.811505 ], [ -35.987662, -54.807179 ], [ -36.053177, -54.786367 ], [ -36.071018, -54.782409 ], [ -36.078099, -54.782847 ], [ -36.075671, -54.788017 ], [ -36.039163, -54.807868 ], [ -36.038959, -54.816057 ], [ -35.998054, -54.822307 ], [ -36.00902, -54.835433 ], [ -35.970721, -54.830361 ], [ -35.96044, -54.833084 ], [ -35.948517, -54.840268 ], [ -35.933641, -54.845208 ], [ -35.932689, -54.850924 ], [ -35.94299, -54.85597 ], [ -35.968676, -54.853832 ], [ -35.963014, -54.864748 ], [ -35.970148, -54.869236 ], [ -35.986668, -54.873163 ], [ -36.003171, -54.869308 ], [ -36.011495, -54.859963 ], [ -36.019329, -54.857048 ], [ -36.022126, -54.869519 ], [ -36.026684, -54.876227 ], [ -36.045616, -54.877247 ], [ -36.049097, -54.871217 ], [ -36.052999, -54.869894 ], [ -36.057273, -54.87223 ], [ -36.0609, -54.879748 ], [ -36.069332, -54.883332 ], [ -36.086893, -54.885235 ], [ -36.113365, -54.883241 ], [ -36.125526, -54.872895 ], [ -36.123337, -54.863159 ], [ -36.126405, -54.851234 ], [ -36.130878, -54.846882 ], [ -36.164034, -54.830494 ], [ -36.224146, -54.807193 ], [ -36.233833, -54.801182 ], [ -36.250783, -54.79813 ], [ -36.261231, -54.793781 ], [ -36.274818, -54.769336 ], [ -36.291289, -54.75845 ], [ -36.306968, -54.743394 ], [ -36.304741, -54.730197 ], [ -36.311626, -54.721068 ], [ -36.314649, -54.708435 ], [ -36.324589, -54.694745 ], [ -36.327272, -54.680076 ], [ -36.343615, -54.671757 ], [ -36.360081, -54.64993 ], [ -36.38698, -54.638455 ], [ -36.400111, -54.629042 ], [ -36.413075, -54.613056 ], [ -36.423095, -54.586741 ], [ -36.44553, -54.579915 ], [ -36.477208, -54.576716 ], [ -36.492705, -54.564592 ], [ -36.495646, -54.557985 ], [ -36.491402, -54.549854 ], [ -36.479057, -54.544507 ], [ -36.458676, -54.542456 ], [ -36.451783, -54.538271 ], [ -36.450124, -54.533389 ], [ -36.455772, -54.52826 ], [ -36.487631, -54.52046 ], [ -36.512825, -54.518936 ], [ -36.517047, -54.513488 ], [ -36.516865, -54.505821 ], [ -36.53197, -54.500148 ], [ -36.564094, -54.503954 ], [ -36.596275, -54.504816 ], [ -36.602664, -54.507677 ], [ -36.61023, -54.516368 ], [ -36.62092, -54.514193 ], [ -36.634952, -54.514831 ], [ -36.656845, -54.503322 ], [ -36.667755, -54.482505 ], [ -36.67858, -54.480768 ], [ -36.715571, -54.479655 ], [ -36.736342, -54.475247 ], [ -36.760514, -54.465671 ], [ -36.810777, -54.45838 ], [ -36.81282, -54.435676 ], [ -36.803873, -54.429461 ], [ -36.801088, -54.422824 ], [ -36.791908, -54.414692 ], [ -36.81067, -54.407777 ], [ -36.83455, -54.406149 ], [ -36.844479, -54.395606 ], [ -36.858348, -54.387135 ], [ -36.870674, -54.386376 ], [ -36.883705, -54.388699 ], [ -36.890503, -54.388125 ], [ -36.893, -54.373672 ], [ -36.897241, -54.372186 ], [ -36.907469, -54.373277 ], [ -36.910286, -54.372242 ], [ -36.908705, -54.369789 ], [ -36.894036, -54.363796 ], [ -36.868046, -54.357106 ], [ -36.86773, -54.354814 ], [ -36.873757, -54.350596 ], [ -36.92839, -54.343828 ], [ -36.968466, -54.356564 ], [ -37.015704, -54.353289 ], [ -37.026878, -54.345863 ], [ -37.068366, -54.335918 ], [ -37.089274, -54.326623 ], [ -37.103006, -54.322967 ], [ -37.100192, -54.315691 ], [ -37.085415, -54.306475 ], [ -37.093239, -54.28676 ], [ -37.102446, -54.285082 ], [ -37.127553, -54.280504 ], [ -37.147689, -54.268985 ], [ -37.1636, -54.268143 ], [ -37.198382, -54.261785 ], [ -37.201817, -54.25924 ], [ -37.200777, -54.253897 ], [ -37.202905, -54.251916 ], [ -37.221529, -54.25283 ], [ -37.238749, -54.247425 ], [ -37.248466, -54.246704 ], [ -37.258451, -54.252024 ], [ -37.272675, -54.263888 ], [ -37.298558, -54.271075 ], [ -37.326291, -54.271382 ], [ -37.353788, -54.280296 ], [ -37.35809, -54.278369 ], [ -37.361712, -54.270503 ], [ -37.39017, -54.268701 ], [ -37.412457, -54.27033 ], [ -37.409448, -54.250452 ], [ -37.395721, -54.24731 ], [ -37.346552, -54.241366 ], [ -37.341503, -54.233291 ], [ -37.325336, -54.229451 ], [ -37.350456, -54.217348 ], [ -37.392071, -54.208916 ], [ -37.403912, -54.19932 ], [ -37.410103, -54.190608 ], [ -37.409694, -54.186686 ], [ -37.370787, -54.176491 ], [ -37.326737, -54.171418 ], [ -37.297036, -54.172086 ], [ -37.288614, -54.166304 ], [ -37.269814, -54.162931 ], [ -37.232943, -54.163036 ], [ -37.230228, -54.159933 ], [ -37.232711, -54.156161 ], [ -37.252814, -54.144382 ], [ -37.338261, -54.146306 ], [ -37.40964, -54.151035 ], [ -37.457704, -54.142567 ], [ -37.477243, -54.137471 ], [ -37.500683, -54.139894 ], [ -37.544302, -54.140201 ], [ -37.553832, -54.146979 ], [ -37.540595, -54.160379 ], [ -37.544319, -54.171307 ], [ -37.570708, -54.17654 ], [ -37.587264, -54.177538 ], [ -37.622312, -54.185851 ], [ -37.633492, -54.181615 ], [ -37.678821, -54.175694 ], [ -37.684327, -54.169445 ], [ -37.678378, -54.159158 ], [ -37.695201, -54.153632 ], [ -37.702824, -54.147303 ], [ -37.722578, -54.146168 ], [ -37.726438, -54.140688 ], [ -37.724726, -54.138043 ], [ -37.708439, -54.136505 ], [ -37.662892, -54.122442 ], [ -37.647214, -54.119211 ], [ -37.646588, -54.115277 ], [ -37.667226, -54.105578 ], [ -37.675275, -54.106292 ], [ -37.687211, -54.110721 ], [ -37.71694, -54.11114 ], [ -37.723485, -54.108573 ], [ -37.724305, -54.102431 ], [ -37.683024, -54.080268 ], [ -37.642893, -54.078081 ], [ -37.641214, -54.068113 ], [ -37.631605, -54.062461 ], [ -37.61201, -54.05519 ], [ -37.612079, -54.047255 ], [ -37.620895, -54.045931 ], [ -37.643402, -54.049272 ], [ -37.664123, -54.047922 ], [ -37.667872, -54.045675 ], [ -37.667841, -54.03723 ], [ -37.677461, -54.034568 ], [ -37.699069, -54.038403 ], [ -37.713619, -54.046557 ], [ -37.734068, -54.048792 ], [ -37.753084, -54.054544 ], [ -37.784482, -54.052758 ], [ -37.796351, -54.056292 ], [ -37.805725, -54.055874 ], [ -37.819559, -54.051338 ], [ -37.8212, -54.04466 ], [ -37.823965, -54.043315 ], [ -37.852101, -54.053014 ], [ -37.876409, -54.057522 ], [ -37.887736, -54.054839 ], [ -37.905218, -54.056179 ], [ -37.922282, -54.049878 ], [ -37.941487, -54.047506 ], [ -37.956288, -54.037173 ], [ -37.962239, -54.035436 ], [ -37.966102, -54.037511 ], [ -37.969468, -54.045469 ], [ -37.983573, -54.051407 ], [ -37.981034, -54.057423 ], [ -37.9844, -54.061762 ], [ -37.991854, -54.066702 ], [ -38.004702, -54.068682 ], [ -38.006967, -54.066538 ], [ -38.005122, -54.061606 ], [ -38.016058, -54.05948 ] ] ], [ [ [ -26.451216, -58.43628 ], [ -26.450817, -58.43138 ], [ -26.437149, -58.419346 ], [ -26.436572, -58.415184 ], [ -26.43097, -58.408386 ], [ -26.431396, -58.395771 ], [ -26.414715, -58.391381 ], [ -26.396728, -58.390075 ], [ -26.362915, -58.39209 ], [ -26.349488, -58.390807 ], [ -26.337315, -58.39248 ], [ -26.318316, -58.391381 ], [ -26.312315, -58.39278 ], [ -26.305715, -58.392878 ], [ -26.301615, -58.391281 ], [ -26.291315, -58.39248 ], [ -26.285522, -58.394898 ], [ -26.267815, -58.393478 ], [ -26.262573, -58.395509 ], [ -26.246313, -58.405979 ], [ -26.239114, -58.40718 ], [ -26.237614, -58.410079 ], [ -26.237416, -58.41908 ], [ -26.248187, -58.428456 ], [ -26.245422, -58.439576 ], [ -26.248289, -58.459291 ], [ -26.246929, -58.466012 ], [ -26.230213, -58.47638 ], [ -26.229313, -58.48048 ], [ -26.232413, -58.486882 ], [ -26.231414, -58.491379 ], [ -26.237313, -58.494579 ], [ -26.235796, -58.503692 ], [ -26.237251, -58.5041 ], [ -26.240915, -58.502578 ], [ -26.253215, -58.500778 ], [ -26.256113, -58.495382 ], [ -26.264515, -58.49088 ], [ -26.289916, -58.483078 ], [ -26.318116, -58.48058 ], [ -26.327214, -58.483379 ], [ -26.328816, -58.488079 ], [ -26.335317, -58.488678 ], [ -26.341714, -58.479181 ], [ -26.350717, -58.478378 ], [ -26.361716, -58.473882 ], [ -26.375416, -58.471279 ], [ -26.383015, -58.466579 ], [ -26.401916, -58.464478 ], [ -26.419415, -58.460679 ], [ -26.422426, -58.452209 ], [ -26.430717, -58.44838 ], [ -26.438015, -58.446979 ], [ -26.448916, -58.440677 ], [ -26.451216, -58.43628 ] ] ], [ [ [ -26.66611, -59.037079 ], [ -26.662106, -59.032776 ], [ -26.638078, -59.023558 ], [ -26.630713, -59.018181 ], [ -26.615113, -59.015679 ], [ -26.597015, -59.003881 ], [ -26.592316, -59.002981 ], [ -26.585415, -59.003981 ], [ -26.572327, -59.013307 ], [ -26.549516, -59.022179 ], [ -26.530033, -59.026185 ], [ -26.506607, -59.03798 ], [ -26.508519, -59.050277 ], [ -26.532718, -59.06058 ], [ -26.547317, -59.071977 ], [ -26.579515, -59.080877 ], [ -26.598314, -59.076178 ], [ -26.616013, -59.074778 ], [ -26.623614, -59.06808 ], [ -26.631312, -59.065779 ], [ -26.637413, -59.05558 ], [ -26.66611, -59.037079 ] ] ], [ [ [ -26.512214, -57.772778 ], [ -26.506717, -57.769879 ], [ -26.495116, -57.767682 ], [ -26.488014, -57.759881 ], [ -26.479798, -57.757996 ], [ -26.475267, -57.753125 ], [ -26.466369, -57.743407 ], [ -26.463117, -57.74258 ], [ -26.436218, -57.750611 ], [ -26.428715, -57.752981 ], [ -26.42663, -57.761914 ], [ -26.423733, -57.775399 ], [ -26.417908, -57.785279 ], [ -26.411116, -57.788577 ], [ -26.392915, -57.79348 ], [ -26.370315, -57.79448 ], [ -26.352013, -57.791878 ], [ -26.351617, -57.794979 ], [ -26.365415, -57.803779 ], [ -26.400616, -57.810979 ], [ -26.408914, -57.81448 ], [ -26.431216, -57.814781 ], [ -26.445716, -57.816077 ], [ -26.465514, -57.80808 ], [ -26.473915, -57.806881 ], [ -26.496515, -57.799679 ], [ -26.497131, -57.798558 ], [ -26.499877, -57.793395 ], [ -26.506122, -57.788646 ], [ -26.508515, -57.786781 ], [ -26.50756, -57.781273 ], [ -26.51065, -57.775609 ], [ -26.512214, -57.772778 ] ] ], [ [ [ -27.202181, -56.707718 ], [ -27.200283, -56.704456 ], [ -27.187615, -56.695481 ], [ -27.167114, -56.69098 ], [ -27.160715, -56.686679 ], [ -27.149016, -56.686877 ], [ -27.142215, -56.688279 ], [ -27.110517, -56.696179 ], [ -27.097216, -56.701081 ], [ -27.081615, -56.713279 ], [ -27.078014, -56.71928 ], [ -27.100215, -56.728481 ], [ -27.111417, -56.728877 ], [ -27.119715, -56.731881 ], [ -27.126514, -56.73228 ], [ -27.152815, -56.736378 ], [ -27.161916, -56.732478 ], [ -27.198416, -56.729481 ], [ -27.198514, -56.725078 ], [ -27.198051, -56.716274 ], [ -27.202181, -56.707718 ] ] ], [ [ [ -27.253819, -59.474281 ], [ -27.246819, -59.465481 ], [ -27.250117, -59.457877 ], [ -27.24952, -59.451178 ], [ -27.237018, -59.445979 ], [ -27.220117, -59.444678 ], [ -27.192713, -59.446276 ], [ -27.170613, -59.448578 ], [ -27.15941, -59.448279 ], [ -27.157113, -59.45098 ], [ -27.150712, -59.45108 ], [ -27.155911, -59.45708 ], [ -27.15151, -59.465777 ], [ -27.156313, -59.469078 ], [ -27.158113, -59.480882 ], [ -27.163713, -59.484281 ], [ -27.180612, -59.483782 ], [ -27.227817, -59.477682 ], [ -27.234618, -59.47518 ], [ -27.253819, -59.474281 ] ] ], [ [ [ -27.418937, -59.440574 ], [ -27.405932, -59.439674 ], [ -27.382638, -59.431694 ], [ -27.34461, -59.430073 ], [ -27.327563, -59.435478 ], [ -27.336147, -59.441137 ], [ -27.333974, -59.453002 ], [ -27.336092, -59.463814 ], [ -27.319902, -59.47569 ], [ -27.310166, -59.477434 ], [ -27.313199, -59.47909 ], [ -27.329804, -59.475788 ], [ -27.345709, -59.477888 ], [ -27.352314, -59.471087 ], [ -27.384325, -59.466885 ], [ -27.418435, -59.445576 ], [ -27.418937, -59.440574 ] ] ], [ [ [ -27.610614, -56.30618 ], [ -27.609914, -56.302977 ], [ -27.59976, -56.301448 ], [ -27.596802, -56.299805 ], [ -27.600396, -56.290474 ], [ -27.584923, -56.288715 ], [ -27.581489, -56.283051 ], [ -27.579415, -56.27958 ], [ -27.566754, -56.280763 ], [ -27.548829, -56.27478 ], [ -27.546388, -56.277893 ], [ -27.539817, -56.286679 ], [ -27.534115, -56.28848 ], [ -27.525814, -56.296582 ], [ -27.525515, -56.300678 ], [ -27.529014, -56.304778 ], [ -27.544213, -56.31268 ], [ -27.552215, -56.314277 ], [ -27.558415, -56.32718 ], [ -27.563315, -56.330181 ], [ -27.577514, -56.329078 ], [ -27.583114, -56.315178 ], [ -27.610614, -56.30618 ] ] ], [ [ [ -37.118238, -54.488044 ], [ -37.118157, -54.483519 ], [ -37.116903, -54.478666 ], [ -37.112959, -54.476512 ], [ -37.101683, -54.476797 ], [ -37.084888, -54.470833 ], [ -37.066, -54.481232 ], [ -37.055265, -54.481134 ], [ -37.045567, -54.486466 ], [ -37.042314, -54.489922 ], [ -37.037559, -54.492058 ], [ -37.031504, -54.49738 ], [ -37.026366, -54.498847 ], [ -37.02199, -54.50236 ], [ -37.027109, -54.504702 ], [ -37.035979, -54.503872 ], [ -37.042756, -54.506615 ], [ -37.049704, -54.511456 ], [ -37.057809, -54.515404 ], [ -37.065882, -54.515692 ], [ -37.082344, -54.513064 ], [ -37.088334, -54.511391 ], [ -37.086189, -54.509929 ], [ -37.079396, -54.509801 ], [ -37.070236, -54.507327 ], [ -37.065453, -54.502627 ], [ -37.06663, -54.499826 ], [ -37.074235, -54.49982 ], [ -37.07701, -54.499215 ], [ -37.088754, -54.498664 ], [ -37.095726, -54.496279 ], [ -37.099396, -54.491324 ], [ -37.10622, -54.49098 ], [ -37.114626, -54.491141 ], [ -37.115543, -54.489122 ], [ -37.118238, -54.488044 ] ] ], [ [ [ -26.727109, -57.07418 ], [ -26.726508, -57.070181 ], [ -26.718733, -57.06674 ], [ -26.721408, -57.061583 ], [ -26.708212, -57.059683 ], [ -26.695614, -57.06378 ], [ -26.688313, -57.066581 ], [ -26.691715, -57.071081 ], [ -26.682741, -57.071579 ], [ -26.682915, -57.066079 ], [ -26.67328, -57.061098 ], [ -26.661419, -57.065783 ], [ -26.659819, -57.06978 ], [ -26.65412, -57.073381 ], [ -26.65052, -57.07848 ], [ -26.652721, -57.082778 ], [ -26.646022, -57.086978 ], [ -26.647922, -57.094475 ], [ -26.668718, -57.094277 ], [ -26.684514, -57.097478 ], [ -26.692114, -57.091276 ], [ -26.696214, -57.082981 ], [ -26.703376, -57.080962 ], [ -26.70298, -57.08004 ], [ -26.697212, -57.079978 ], [ -26.69702, -57.076295 ], [ -26.703212, -57.075279 ], [ -26.721109, -57.076778 ], [ -26.727109, -57.07418 ] ] ], [ [ [ -38.080741, -54.016233 ], [ -38.075448, -54.01094 ], [ -38.077066, -54.00697 ], [ -38.06692, -54.006676 ], [ -38.065597, -54.005794 ], [ -38.060598, -54.006382 ], [ -38.059569, -54.002706 ], [ -38.057069, -54.003442 ], [ -38.055326, -54.002412 ], [ -38.053098, -54.001098 ], [ -38.047512, -54.000648 ], [ -38.042072, -54.001971 ], [ -38.037367, -54.00006 ], [ -38.030309, -53.999031 ], [ -38.028545, -54.00006 ], [ -38.024281, -53.999031 ], [ -38.015018, -53.999472 ], [ -38.010312, -53.997854 ], [ -38.010459, -54.000648 ], [ -38.00796, -54.002412 ], [ -38.016488, -54.003883 ], [ -38.021046, -54.008735 ], [ -38.03075, -54.008882 ], [ -38.03325, -54.010058 ], [ -38.038984, -54.010058 ], [ -38.041484, -54.012117 ], [ -38.051188, -54.011528 ], [ -38.051923, -54.008588 ], [ -38.055326, -54.008966 ], [ -38.057216, -54.009176 ], [ -38.056334, -54.01344 ], [ -38.059612, -54.0134 ], [ -38.060157, -54.016086 ], [ -38.066626, -54.018292 ], [ -38.065744, -54.019909 ], [ -38.069714, -54.021674 ], [ -38.079271, -54.020056 ], [ -38.076918, -54.018586 ], [ -38.075742, -54.015939 ], [ -38.080741, -54.016233 ] ] ], [ [ [ -26.810313, -57.108078 ], [ -26.806915, -57.10168 ], [ -26.810215, -57.09288 ], [ -26.792415, -57.095581 ], [ -26.775914, -57.10078 ], [ -26.764416, -57.102279 ], [ -26.772915, -57.106678 ], [ -26.778415, -57.114379 ], [ -26.781015, -57.113078 ], [ -26.797815, -57.11148 ], [ -26.810313, -57.108078 ] ] ], [ [ [ -35.79734, -54.808052 ], [ -35.791161, -54.797762 ], [ -35.762321, -54.794991 ], [ -35.752708, -54.798949 ], [ -35.756142, -54.806865 ], [ -35.765068, -54.808448 ], [ -35.769188, -54.812405 ], [ -35.779488, -54.812801 ], [ -35.780174, -54.807261 ], [ -35.785667, -54.807261 ], [ -35.787041, -54.810031 ], [ -35.793907, -54.810426 ], [ -35.79734, -54.808052 ] ] ], [ [ [ -38.242728, -54.012389 ], [ -38.23786, -54.010334 ], [ -38.239171, -54.009398 ], [ -38.235316, -54.008468 ], [ -38.228905, -54.00319 ], [ -38.223635, -54.002651 ], [ -38.221766, -54.003274 ], [ -38.212691, -54.002481 ], [ -38.209876, -54.001113 ], [ -38.205752, -54.001066 ], [ -38.20411, -54.003161 ], [ -38.200141, -54.004544 ], [ -38.198434, -54.006857 ], [ -38.198752, -54.009435 ], [ -38.201498, -54.01016 ], [ -38.202372, -54.012176 ], [ -38.207266, -54.012294 ], [ -38.208658, -54.013787 ], [ -38.213757, -54.0155 ], [ -38.217315, -54.014359 ], [ -38.219032, -54.01649 ], [ -38.223285, -54.015618 ], [ -38.226751, -54.017152 ], [ -38.235576, -54.017395 ], [ -38.238379, -54.013968 ], [ -38.242728, -54.012389 ] ] ], [ [ [ -27.095317, -59.43428 ], [ -27.094615, -59.42598 ], [ -27.088015, -59.422679 ], [ -27.084815, -59.422982 ], [ -27.080514, -59.426679 ], [ -27.071315, -59.427579 ], [ -27.077114, -59.430378 ], [ -27.081515, -59.43768 ], [ -27.086515, -59.439782 ], [ -27.093316, -59.43758 ], [ -27.095317, -59.43428 ] ] ], [ [ [ -37.34784, -54.026694 ], [ -37.345591, -54.025602 ], [ -37.341479, -54.026051 ], [ -37.341865, -54.024574 ], [ -37.336853, -54.023353 ], [ -37.340323, -54.019112 ], [ -37.33152, -54.01924 ], [ -37.327665, -54.020204 ], [ -37.328628, -54.021232 ], [ -37.324773, -54.023288 ], [ -37.320532, -54.024188 ], [ -37.324837, -54.02618 ], [ -37.327921, -54.029585 ], [ -37.341736, -54.029393 ], [ -37.34784, -54.026694 ] ] ], [ [ [ -37.762115, -54.13992 ], [ -37.758523, -54.138794 ], [ -37.757397, -54.136596 ], [ -37.753537, -54.136756 ], [ -37.749195, -54.135738 ], [ -37.746299, -54.137453 ], [ -37.741421, -54.135255 ], [ -37.736166, -54.136435 ], [ -37.738526, -54.137829 ], [ -37.740884, -54.142439 ], [ -37.747211, -54.143244 ], [ -37.749087, -54.144423 ], [ -37.753752, -54.141582 ], [ -37.760507, -54.14185 ], [ -37.762115, -54.13992 ] ] ], [ [ [ -37.264357, -54.02909 ], [ -37.261929, -54.028286 ], [ -37.262353, -54.025422 ], [ -37.259404, -54.02391 ], [ -37.255547, -54.023645 ], [ -37.249308, -54.021225 ], [ -37.248816, -54.022284 ], [ -37.254375, -54.027275 ], [ -37.253519, -54.029027 ], [ -37.250111, -54.028544 ], [ -37.249026, -54.031296 ], [ -37.262996, -54.031057 ], [ -37.264357, -54.02909 ] ] ], [ [ [ -38.183103, -53.99886 ], [ -38.174685, -53.998254 ], [ -38.16754, -54.000091 ], [ -38.164399, -53.998165 ], [ -38.161294, -54.000067 ], [ -38.164492, -54.001107 ], [ -38.168079, -54.003841 ], [ -38.173279, -54.002393 ], [ -38.178383, -54.004978 ], [ -38.180731, -54.004468 ], [ -38.179117, -54.001411 ], [ -38.183103, -53.99886 ] ] ], [ [ [ -26.739346, -59.044207 ], [ -26.739346, -59.042311 ], [ -26.736509, -59.041289 ], [ -26.731971, -59.041435 ], [ -26.728851, -59.043916 ], [ -26.729418, -59.046396 ], [ -26.731971, -59.047563 ], [ -26.735942, -59.046104 ], [ -26.739346, -59.044207 ] ] ], [ [ [ -36.673263, -54.156092 ], [ -36.670059, -54.153747 ], [ -36.664053, -54.154216 ], [ -36.662451, -54.156795 ], [ -36.666055, -54.15914 ], [ -36.671261, -54.159375 ], [ -36.673263, -54.156092 ] ] ], [ [ [ -36.105389, -54.889993 ], [ -36.09778, -54.888611 ], [ -36.092575, -54.891145 ], [ -36.09778, -54.893217 ], [ -36.103387, -54.893448 ], [ -36.105389, -54.889993 ] ] ], [ [ [ -28.143424, -56.707375 ], [ -28.138828, -56.705629 ], [ -28.133877, -56.707764 ], [ -28.134585, -56.710869 ], [ -28.141303, -56.711451 ], [ -28.143424, -56.707375 ] ] ], [ [ [ -36.772234, -54.62883 ], [ -36.771389, -54.626507 ], [ -36.766954, -54.625284 ], [ -36.763574, -54.625406 ], [ -36.761039, -54.626996 ], [ -36.764208, -54.628952 ], [ -36.768643, -54.630297 ], [ -36.772234, -54.62883 ] ] ], [ [ [ -37.497627, -53.973353 ], [ -37.489676, -53.968406 ], [ -37.488093, -53.969954 ], [ -37.488969, -53.972505 ], [ -37.491549, -53.974272 ], [ -37.496734, -53.97488 ], [ -37.497627, -53.973353 ] ] ], [ [ [ -37.31903, -54.014216 ], [ -37.315033, -54.012991 ], [ -37.316569, -54.011182 ], [ -37.314512, -54.00926 ], [ -37.309801, -54.009012 ], [ -37.309657, -54.010642 ], [ -37.313384, -54.012829 ], [ -37.314546, -54.01543 ], [ -37.318895, -54.015767 ], [ -37.31903, -54.014216 ] ] ], [ [ [ -26.33685, -58.385023 ], [ -26.336618, -58.382469 ], [ -26.333833, -58.381131 ], [ -26.329889, -58.381374 ], [ -26.328729, -58.384172 ], [ -26.331513, -58.385753 ], [ -26.33685, -58.385023 ] ] ], [ [ [ -26.38465, -58.382104 ], [ -26.380473, -58.381009 ], [ -26.376993, -58.381496 ], [ -26.376761, -58.384172 ], [ -26.380009, -58.385145 ], [ -26.384418, -58.38478 ], [ -26.38465, -58.382104 ] ] ], [ [ [ -26.712399, -59.038371 ], [ -26.709846, -59.037203 ], [ -26.705024, -59.038517 ], [ -26.705591, -59.041143 ], [ -26.709279, -59.042748 ], [ -26.711832, -59.040122 ], [ -26.712399, -59.038371 ] ] ], [ [ [ -37.264674, -54.043241 ], [ -37.260576, -54.042472 ], [ -37.257369, -54.040237 ], [ -37.252396, -54.04046 ], [ -37.251997, -54.041483 ], [ -37.261159, -54.044609 ], [ -37.264674, -54.043241 ] ] ], [ [ [ -26.691976, -59.041873 ], [ -26.691125, -59.039684 ], [ -26.687438, -59.037933 ], [ -26.684885, -59.03983 ], [ -26.686303, -59.042311 ], [ -26.689423, -59.042894 ], [ -26.691976, -59.041873 ] ] ], [ [ [ -37.314986, -54.021001 ], [ -37.311268, -54.018306 ], [ -37.311501, -54.015544 ], [ -37.307675, -54.015079 ], [ -37.306677, -54.016642 ], [ -37.312698, -54.021566 ], [ -37.314986, -54.021001 ] ] ], [ [ [ -38.154132, -54.005949 ], [ -38.151225, -54.003869 ], [ -38.148605, -54.005845 ], [ -38.151188, -54.008535 ], [ -38.153466, -54.00819 ], [ -38.154132, -54.005949 ] ] ], [ [ [ -37.236552, -54.032723 ], [ -37.235841, -54.030387 ], [ -37.23263, -54.030722 ], [ -37.231136, -54.033897 ], [ -37.235671, -54.03403 ], [ -37.236552, -54.032723 ] ] ], [ [ [ -38.302503, -53.992095 ], [ -38.301635, -53.991077 ], [ -38.295191, -53.990764 ], [ -38.296905, -53.993711 ], [ -38.302503, -53.992095 ] ] ], [ [ [ -37.862572, -54.005319 ], [ -37.858059, -54.00438 ], [ -37.856051, -54.006284 ], [ -37.860772, -54.007745 ], [ -37.862572, -54.005319 ] ] ], [ [ [ -41.804914, -53.649912 ], [ -41.800071, -53.647948 ], [ -41.797246, -53.650166 ], [ -41.79817, -53.65113 ], [ -41.804914, -53.649912 ] ] ], [ [ [ -37.914477, -53.996596 ], [ -37.91427, -53.995398 ], [ -37.908733, -53.996266 ], [ -37.908319, -53.997712 ], [ -37.910882, -53.998621 ], [ -37.914477, -53.996596 ] ] ], [ [ [ -38.24247, -54.000518 ], [ -38.236486, -53.999711 ], [ -38.237331, -54.002664 ], [ -38.24206, -54.001999 ], [ -38.24247, -54.000518 ] ] ], [ [ [ -38.147909, -54.010774 ], [ -38.144303, -54.008565 ], [ -38.14169, -54.010174 ], [ -38.145774, -54.01252 ], [ -38.147909, -54.010774 ] ] ], [ [ [ -37.251162, -54.018533 ], [ -37.245086, -54.017244 ], [ -37.245756, -54.020498 ], [ -37.249045, -54.02019 ], [ -37.251162, -54.018533 ] ] ], [ [ [ -38.279337, -54.019485 ], [ -38.276775, -54.018269 ], [ -38.273293, -54.018433 ], [ -38.271946, -54.019977 ], [ -38.275987, -54.020832 ], [ -38.279337, -54.019485 ] ] ], [ [ [ -38.273587, -54.022178 ], [ -38.266476, -54.020685 ], [ -38.265813, -54.022157 ], [ -38.270549, -54.023745 ], [ -38.273587, -54.022178 ] ] ], [ [ [ -37.286261, -54.038057 ], [ -37.281358, -54.03598 ], [ -37.279696, -54.039054 ], [ -37.282688, -54.039387 ], [ -37.286261, -54.038057 ] ] ], [ [ [ -37.937865, -54.060266 ], [ -37.936284, -54.059128 ], [ -37.930723, -54.0588 ], [ -37.931202, -54.0614 ], [ -37.937865, -54.060266 ] ] ], [ [ [ -37.652675, -54.065865 ], [ -37.645479, -54.064421 ], [ -37.644737, -54.066083 ], [ -37.650631, -54.067262 ], [ -37.652675, -54.065865 ] ] ], [ [ [ -36.945359, -54.46942 ], [ -36.939351, -54.468534 ], [ -36.938006, -54.470566 ], [ -36.942759, -54.471192 ], [ -36.945359, -54.46942 ] ] ], [ [ [ -36.984431, -54.476656 ], [ -36.977798, -54.476579 ], [ -36.979616, -54.47885 ], [ -36.9842, -54.47853 ], [ -36.984431, -54.476656 ] ] ], [ [ [ -37.135476, -54.496485 ], [ -37.130646, -54.493923 ], [ -37.128344, -54.495905 ], [ -37.134278, -54.497504 ], [ -37.135476, -54.496485 ] ] ], [ [ [ -36.744118, -54.619281 ], [ -36.744053, -54.618153 ], [ -36.736128, -54.616385 ], [ -36.736193, -54.618228 ], [ -36.744118, -54.619281 ] ] ], [ [ [ -36.759839, -54.622353 ], [ -36.754811, -54.620051 ], [ -36.752473, -54.621812 ], [ -36.756799, -54.623369 ], [ -36.759839, -54.622353 ] ] ], [ [ [ -38.040535, -54.065152 ], [ -38.039582, -54.063574 ], [ -38.035657, -54.062963 ], [ -38.032324, -54.062963 ], [ -38.033448, -54.064259 ], [ -38.040535, -54.065152 ] ] ], [ [ [ -38.045641, -54.064973 ], [ -38.040531, -54.064361 ], [ -38.040706, -54.06589 ], [ -38.042409, -54.066545 ], [ -38.044549, -54.066327 ], [ -38.045641, -54.064973 ] ] ] ] } }
]
}
