{
"type": "FeatureCollection",
"name": "South Sudan",
"crs": { "type": "name", "properties": { "name": "urn:ogc:def:crs:OGC:1.3:CRS84" } },
"features": [
{ "type": "Feature", "properties": { "id": "SS", "CNTR_ID": "SS", "CNTR_NAME": "South Sudan", "NAME_ENGL": "South Sudan", "ISO3_CODE": "SSD", "FID": "SS" }, "geometry": { "type": "MultiPolygon", "coordinates": [ [ [ [ 35.9477, 4.62 ], [ 35.50877, 4.62 ], [ 35.492553, 4.647892 ], [ 35.474376, 4.679151 ], [ 35.420905, 4.771104 ], [ 35.476837, 4.902546 ], [ 35.476351, 4.91413 ], [ 35.469403, 4.921075 ], [ 35.457104, 4.922482 ], [ 35.310371, 4.907567 ], [ 35.311175, 4.919902 ], [ 35.331878, 4.981201 ], [ 35.34632, 5.007719 ], [ 35.344374, 5.012538 ], [ 35.336904, 5.018697 ], [ 35.327015, 5.023029 ], [ 35.309411, 5.021635 ], [ 35.286175, 5.010864 ], [ 35.232545, 4.97759 ], [ 35.19674, 4.955915 ], [ 35.163072, 4.980711 ], [ 35.152091, 4.988797 ], [ 35.000154, 4.906246 ], [ 34.966422, 4.893073 ], [ 34.712502, 4.798067 ], [ 34.6174, 4.77137 ], [ 34.500028, 4.738421 ], [ 34.476287, 4.724049 ], [ 34.46817, 4.715111 ], [ 34.434251, 4.679151 ], [ 34.404767, 4.647892 ], [ 34.37846, 4.62 ], [ 34.346297, 4.576322 ], [ 34.329269, 4.557788 ], [ 34.305379, 4.535885 ], [ 34.268516, 4.494503 ], [ 34.264958, 4.48864 ], [ 34.231217, 4.45363 ], [ 34.177782, 4.398182 ], [ 34.042604, 4.259129 ], [ 33.99449, 4.21443 ], [ 33.799759, 4.028154 ], [ 33.679224, 3.912832 ], [ 33.508447, 3.749412 ], [ 33.177822, 3.774091 ], [ 33.027548, 3.872955 ], [ 32.989939, 3.857018 ], [ 32.901098, 3.815369 ], [ 32.720478, 3.765418 ], [ 32.406201, 3.746945 ], [ 32.176726, 3.612257 ], [ 32.194303, 3.602125 ], [ 32.198505, 3.593271 ], [ 32.208572, 3.590969 ], [ 32.215893, 3.575672 ], [ 32.215167, 3.56451 ], [ 32.208534, 3.546154 ], [ 32.210228, 3.538098 ], [ 32.203026, 3.524824 ], [ 32.205159, 3.510816 ], [ 32.201419, 3.505579 ], [ 32.085982, 3.533511 ], [ 32.088235, 3.538129 ], [ 32.082848, 3.548996 ], [ 32.084144, 3.561529 ], [ 32.059297, 3.580012 ], [ 32.060397, 3.585862 ], [ 32.053989, 3.591264 ], [ 32.039296, 3.586504 ], [ 31.950263, 3.587535 ], [ 31.94933, 3.612349 ], [ 31.941621, 3.656496 ], [ 31.937393, 3.67143 ], [ 31.919523, 3.709256 ], [ 31.894425, 3.743681 ], [ 31.892055, 3.746931 ], [ 31.873371, 3.76455 ], [ 31.854231, 3.789499 ], [ 31.807857, 3.827881 ], [ 31.794481, 3.827382 ], [ 31.803677, 3.808113 ], [ 31.801902, 3.79999 ], [ 31.738476, 3.749021 ], [ 31.731035, 3.749076 ], [ 31.725731, 3.735614 ], [ 31.709965, 3.717552 ], [ 31.685841, 3.711028 ], [ 31.663925, 3.710178 ], [ 31.627752, 3.699834 ], [ 31.612272, 3.692095 ], [ 31.580946, 3.682238 ], [ 31.538732, 3.654905 ], [ 31.473728, 3.687552 ], [ 31.372687, 3.745423 ], [ 31.309225, 3.78177 ], [ 31.28599, 3.791331 ], [ 31.247767, 3.791888 ], [ 31.174881, 3.792949 ], [ 31.162067, 3.789324 ], [ 31.153069, 3.77801 ], [ 31.118334, 3.754777 ], [ 31.108575, 3.751472 ], [ 31.101874, 3.745817 ], [ 31.099363, 3.736285 ], [ 31.092182, 3.73524 ], [ 31.088223, 3.741503 ], [ 31.081095, 3.743766 ], [ 31.066298, 3.741245 ], [ 31.060741, 3.734789 ], [ 31.063434, 3.727761 ], [ 31.060658, 3.720142 ], [ 31.031751, 3.698312 ], [ 31.00109, 3.688536 ], [ 30.988471, 3.699159 ], [ 30.978731, 3.696916 ], [ 30.972348, 3.689153 ], [ 30.968422, 3.675858 ], [ 30.954436, 3.66619 ], [ 30.947744, 3.650966 ], [ 30.949484, 3.635509 ], [ 30.917383, 3.588811 ], [ 30.91271, 3.568579 ], [ 30.896182, 3.553191 ], [ 30.878708, 3.530448 ], [ 30.861218, 3.515138 ], [ 30.85453, 3.487471 ], [ 30.847783, 3.497242 ], [ 30.846431, 3.510165 ], [ 30.851981, 3.530906 ], [ 30.86195, 3.553238 ], [ 30.861683, 3.564309 ], [ 30.855741, 3.569557 ], [ 30.809242, 3.583236 ], [ 30.806717, 3.585235 ], [ 30.804313, 3.587137 ], [ 30.790846, 3.605288 ], [ 30.785427, 3.627289 ], [ 30.784963, 3.658021 ], [ 30.774553, 3.673307 ], [ 30.765252, 3.673893 ], [ 30.758262, 3.669745 ], [ 30.743749, 3.632866 ], [ 30.725932, 3.622621 ], [ 30.712631, 3.623279 ], [ 30.689296, 3.634057 ], [ 30.67324, 3.638058 ], [ 30.64735, 3.624675 ], [ 30.629661, 3.611433 ], [ 30.595281, 3.595979 ], [ 30.569805, 3.593089 ], [ 30.561117, 3.596413 ], [ 30.556992, 3.602568 ], [ 30.558662, 3.611759 ], [ 30.574149, 3.641799 ], [ 30.576359, 3.658247 ], [ 30.585002, 3.683441 ], [ 30.566997, 3.783381 ], [ 30.552831, 3.82139 ], [ 30.555248, 3.852256 ], [ 30.552375, 3.863532 ], [ 30.545023, 3.869379 ], [ 30.532916, 3.872032 ], [ 30.51535, 3.868536 ], [ 30.49519, 3.858193 ], [ 30.482277, 3.85752 ], [ 30.466259, 3.863988 ], [ 30.448824, 3.882663 ], [ 30.43916, 3.887075 ], [ 30.434897, 3.887423 ], [ 30.422911, 3.879204 ], [ 30.412203, 3.883426 ], [ 30.385439, 3.910858 ], [ 30.354851, 3.915486 ], [ 30.330598, 3.931606 ], [ 30.309903, 3.932769 ], [ 30.299039, 3.933523 ], [ 30.283096, 3.952718 ], [ 30.27465, 3.956806 ], [ 30.265292, 3.95651 ], [ 30.224823, 3.939267 ], [ 30.207782, 3.952473 ], [ 30.201854, 3.966459 ], [ 30.203954, 4.003995 ], [ 30.185374, 4.028154 ], [ 30.173417, 4.043702 ], [ 30.165543, 4.047928 ], [ 30.160304, 4.055034 ], [ 30.15817, 4.064837 ], [ 30.159023, 4.092847 ], [ 30.156535, 4.097984 ], [ 30.151219, 4.103351 ], [ 30.125872, 4.113959 ], [ 30.078597, 4.116319 ], [ 30.059619, 4.13173 ], [ 30.048474, 4.150774 ], [ 30.042694, 4.180475 ], [ 30.038207, 4.189998 ], [ 29.985864, 4.228595 ], [ 29.956429, 4.232997 ], [ 29.947626, 4.237739 ], [ 29.944577, 4.243858 ], [ 29.963864, 4.280653 ], [ 29.961735, 4.29099 ], [ 29.943028, 4.314936 ], [ 29.897644, 4.346882 ], [ 29.873999, 4.33878 ], [ 29.84194, 4.337815 ], [ 29.822492, 4.354802 ], [ 29.800207, 4.367138 ], [ 29.79614, 4.382434 ], [ 29.799502, 4.396708 ], [ 29.796153, 4.408534 ], [ 29.799169, 4.425 ], [ 29.795948, 4.439934 ], [ 29.806212, 4.485004 ], [ 29.804681, 4.493041 ], [ 29.793156, 4.509767 ], [ 29.798848, 4.520513 ], [ 29.821862, 4.540083 ], [ 29.824545, 4.552607 ], [ 29.817695, 4.562027 ], [ 29.785213, 4.565272 ], [ 29.76749, 4.582854 ], [ 29.759741, 4.580911 ], [ 29.747808, 4.572198 ], [ 29.73924, 4.572614 ], [ 29.732109, 4.578693 ], [ 29.708567, 4.617214 ], [ 29.681372, 4.625998 ], [ 29.660974, 4.636399 ], [ 29.649606, 4.646755 ], [ 29.644571, 4.647892 ], [ 29.628755, 4.651462 ], [ 29.618291, 4.658839 ], [ 29.616239, 4.660285 ], [ 29.611286, 4.660105 ], [ 29.595113, 4.648985 ], [ 29.588993, 4.650435 ], [ 29.581588, 4.658777 ], [ 29.573657, 4.662762 ], [ 29.558685, 4.66022 ], [ 29.551982, 4.666229 ], [ 29.527782, 4.654976 ], [ 29.524137, 4.657213 ], [ 29.519346, 4.669135 ], [ 29.509107, 4.679151 ], [ 29.499201, 4.688841 ], [ 29.490747, 4.679151 ], [ 29.483917, 4.671323 ], [ 29.476383, 4.668025 ], [ 29.46581, 4.668123 ], [ 29.463404, 4.663277 ], [ 29.466642, 4.647892 ], [ 29.468665, 4.638279 ], [ 29.466982, 4.616441 ], [ 29.472455, 4.604124 ], [ 29.472987, 4.593578 ], [ 29.450719, 4.573744 ], [ 29.442819, 4.562585 ], [ 29.441929, 4.538438 ], [ 29.437606, 4.522534 ], [ 29.408437, 4.483298 ], [ 29.391906, 4.472584 ], [ 29.368492, 4.468372 ], [ 29.358454, 4.461122 ], [ 29.349975, 4.444131 ], [ 29.341566, 4.406329 ], [ 29.322286, 4.385574 ], [ 29.306564, 4.378984 ], [ 29.296571, 4.379969 ], [ 29.287785, 4.387376 ], [ 29.265799, 4.392777 ], [ 29.249922, 4.38733 ], [ 29.248466, 4.379289 ], [ 29.254363, 4.366817 ], [ 29.245688, 4.345332 ], [ 29.218053, 4.338271 ], [ 29.204269, 4.341139 ], [ 29.189609, 4.361149 ], [ 29.175106, 4.37049 ], [ 29.165386, 4.38247 ], [ 29.15231, 4.391564 ], [ 29.145388, 4.401844 ], [ 29.133872, 4.408755 ], [ 29.133502, 4.42561 ], [ 29.115911, 4.430096 ], [ 29.098105, 4.428427 ], [ 29.078815, 4.430659 ], [ 29.077831, 4.436078 ], [ 29.082198, 4.448275 ], [ 29.080386, 4.453447 ], [ 29.046973, 4.458051 ], [ 29.040898, 4.464251 ], [ 29.037318, 4.48124 ], [ 29.017668, 4.491004 ], [ 29.009803, 4.492439 ], [ 28.991786, 4.479015 ], [ 28.975519, 4.47601 ], [ 28.957322, 4.477751 ], [ 28.948321, 4.478612 ], [ 28.927501, 4.473594 ], [ 28.913256, 4.476829 ], [ 28.902437, 4.472821 ], [ 28.869955, 4.488028 ], [ 28.856288, 4.477324 ], [ 28.830529, 4.47469 ], [ 28.805702, 4.492853 ], [ 28.810052, 4.516609 ], [ 28.806137, 4.532707 ], [ 28.789183, 4.556922 ], [ 28.779673, 4.558416 ], [ 28.77081, 4.554028 ], [ 28.753952, 4.538728 ], [ 28.72546, 4.537851 ], [ 28.713492, 4.531843 ], [ 28.712505, 4.527178 ], [ 28.717878, 4.521547 ], [ 28.711621, 4.511105 ], [ 28.696059, 4.507703 ], [ 28.690715, 4.503674 ], [ 28.696939, 4.484528 ], [ 28.672918, 4.445497 ], [ 28.662584, 4.42051 ], [ 28.628535, 4.412092 ], [ 28.617641, 4.416027 ], [ 28.599896, 4.413456 ], [ 28.592945, 4.401618 ], [ 28.590962, 4.387766 ], [ 28.579658, 4.375949 ], [ 28.551023, 4.379495 ], [ 28.511948, 4.369161 ], [ 28.509938, 4.360609 ], [ 28.497617, 4.352608 ], [ 28.49537, 4.339011 ], [ 28.487102, 4.333127 ], [ 28.488195, 4.318885 ], [ 28.485573, 4.31245 ], [ 28.469731, 4.304388 ], [ 28.457643, 4.285699 ], [ 28.437674, 4.284055 ], [ 28.412413, 4.273535 ], [ 28.406045, 4.273816 ], [ 28.392591, 4.280463 ], [ 28.377499, 4.276395 ], [ 28.372894, 4.278458 ], [ 28.367335, 4.286607 ], [ 28.370597, 4.300643 ], [ 28.367594, 4.323045 ], [ 28.355338, 4.337893 ], [ 28.351579, 4.349421 ], [ 28.336868, 4.346666 ], [ 28.330299, 4.349332 ], [ 28.318836, 4.353984 ], [ 28.294917, 4.354034 ], [ 28.285673, 4.351949 ], [ 28.281045, 4.350905 ], [ 28.268367, 4.354643 ], [ 28.254262, 4.342389 ], [ 28.203377, 4.348439 ], [ 28.176288, 4.376593 ], [ 28.133168, 4.394572 ], [ 28.131928, 4.402687 ], [ 28.143209, 4.42066 ], [ 28.14102, 4.430807 ], [ 28.133159, 4.436129 ], [ 28.121099, 4.433454 ], [ 28.111755, 4.44179 ], [ 28.098028, 4.432947 ], [ 28.0867, 4.430878 ], [ 28.084266, 4.416687 ], [ 28.079998, 4.41204 ], [ 28.075597, 4.412318 ], [ 28.061942, 4.444132 ], [ 28.041183, 4.455653 ], [ 28.03377, 4.476868 ], [ 28.035068, 4.524495 ], [ 28.042682, 4.543687 ], [ 28.03991, 4.549832 ], [ 28.035695, 4.551095 ], [ 28.021047, 4.546479 ], [ 28.010788, 4.550685 ], [ 27.979574, 4.555321 ], [ 27.973293, 4.550922 ], [ 27.941292, 4.567829 ], [ 27.93058, 4.545015 ], [ 27.912831, 4.549594 ], [ 27.869216, 4.549119 ], [ 27.854891, 4.559488 ], [ 27.844769, 4.572614 ], [ 27.833922, 4.575972 ], [ 27.831345, 4.584952 ], [ 27.81803, 4.588619 ], [ 27.81057, 4.600262 ], [ 27.80514, 4.600572 ], [ 27.794708, 4.594447 ], [ 27.784437, 4.598341 ], [ 27.781509, 4.604809 ], [ 27.787352, 4.626181 ], [ 27.779426, 4.647892 ], [ 27.776156, 4.656849 ], [ 27.77817, 4.670715 ], [ 27.776362, 4.679151 ], [ 27.773727, 4.691444 ], [ 27.77523, 4.695416 ], [ 27.787383, 4.704303 ], [ 27.787645, 4.736998 ], [ 27.767674, 4.785611 ], [ 27.755779, 4.791516 ], [ 27.743269, 4.791489 ], [ 27.727479, 4.786251 ], [ 27.713373, 4.788851 ], [ 27.702949, 4.800848 ], [ 27.709379, 4.81556 ], [ 27.700771, 4.833012 ], [ 27.69308, 4.859253 ], [ 27.669421, 4.883939 ], [ 27.657152, 4.892368 ], [ 27.60076, 4.894156 ], [ 27.580692, 4.88695 ], [ 27.568582, 4.897246 ], [ 27.558324, 4.91175 ], [ 27.539287, 4.920573 ], [ 27.530018, 4.935051 ], [ 27.526004, 4.942515 ], [ 27.525331, 4.965223 ], [ 27.520069, 4.975448 ], [ 27.515105, 4.978545 ], [ 27.499569, 4.983163 ], [ 27.491849, 4.995981 ], [ 27.485752, 5.000491 ], [ 27.458676, 5.015693 ], [ 27.443611, 5.019444 ], [ 27.450591, 5.025525 ], [ 27.454307, 5.039247 ], [ 27.453305, 5.075669 ], [ 27.44858, 5.081677 ], [ 27.434586, 5.0894 ], [ 27.409307, 5.116883 ], [ 27.407108, 5.119273 ], [ 27.400298, 5.146255 ], [ 27.395326, 5.154242 ], [ 27.361668, 5.177988 ], [ 27.35322, 5.19293 ], [ 27.324696, 5.200656 ], [ 27.303665, 5.225772 ], [ 27.294189, 5.262528 ], [ 27.274741, 5.282059 ], [ 27.261154, 5.311234 ], [ 27.249533, 5.328462 ], [ 27.24698, 5.348284 ], [ 27.254898, 5.35648 ], [ 27.256232, 5.363095 ], [ 27.239847, 5.385933 ], [ 27.232913, 5.426255 ], [ 27.236903, 5.446705 ], [ 27.254291, 5.48193 ], [ 27.259997, 5.506844 ], [ 27.27837, 5.535974 ], [ 27.273129, 5.569027 ], [ 27.275456, 5.572982 ], [ 27.283001, 5.585809 ], [ 27.278594, 5.592149 ], [ 27.260543, 5.600594 ], [ 27.250909, 5.596761 ], [ 27.242454, 5.588854 ], [ 27.239091, 5.590183 ], [ 27.236913, 5.604538 ], [ 27.231892, 5.611634 ], [ 27.237137, 5.626533 ], [ 27.23744, 5.642455 ], [ 27.215273, 5.671218 ], [ 27.217783, 5.687931 ], [ 27.188734, 5.727106 ], [ 27.147005, 5.748513 ], [ 27.14552, 5.755243 ], [ 27.160477, 5.759657 ], [ 27.162832, 5.763066 ], [ 27.160436, 5.76731 ], [ 27.151605, 5.772914 ], [ 27.136709, 5.771305 ], [ 27.129954, 5.777524 ], [ 27.120732, 5.777081 ], [ 27.118374, 5.791609 ], [ 27.108562, 5.787954 ], [ 27.103691, 5.800976 ], [ 27.083864, 5.7986 ], [ 27.073286, 5.788449 ], [ 27.061947, 5.795107 ], [ 27.052155, 5.791554 ], [ 27.047807, 5.797109 ], [ 27.046539, 5.809421 ], [ 27.031406, 5.813185 ], [ 27.025429, 5.818706 ], [ 27.025311, 5.837249 ], [ 27.017176, 5.847826 ], [ 26.994489, 5.855937 ], [ 26.98079, 5.865841 ], [ 26.954211, 5.865583 ], [ 26.939788, 5.872708 ], [ 26.924704, 5.885998 ], [ 26.906082, 5.892495 ], [ 26.877133, 5.897065 ], [ 26.866074, 5.902829 ], [ 26.856367, 5.915485 ], [ 26.85296, 5.924957 ], [ 26.851606, 5.949252 ], [ 26.84797, 5.958438 ], [ 26.845415, 5.982799 ], [ 26.841764, 5.986113 ], [ 26.819307, 5.991994 ], [ 26.805548, 6.004639 ], [ 26.784622, 6.009365 ], [ 26.754527, 6.004813 ], [ 26.729972, 6.008609 ], [ 26.699844, 6.003945 ], [ 26.688548, 5.99483 ], [ 26.672987, 5.992053 ], [ 26.661391, 5.996409 ], [ 26.646884, 6.009529 ], [ 26.611512, 6.023607 ], [ 26.574437, 6.027345 ], [ 26.555506, 6.038152 ], [ 26.553246, 6.058721 ], [ 26.544425, 6.05997 ], [ 26.53853, 6.065454 ], [ 26.539954, 6.076861 ], [ 26.531834, 6.087089 ], [ 26.530902, 6.101543 ], [ 26.516226, 6.113821 ], [ 26.483893, 6.101092 ], [ 26.457973, 6.074794 ], [ 26.451235, 6.071969 ], [ 26.444241, 6.084815 ], [ 26.458268, 6.11286 ], [ 26.492501, 6.145134 ], [ 26.518496, 6.160914 ], [ 26.527368, 6.176934 ], [ 26.533316, 6.197396 ], [ 26.532886, 6.232235 ], [ 26.517347, 6.234612 ], [ 26.501695, 6.216711 ], [ 26.489032, 6.219954 ], [ 26.476014, 6.217715 ], [ 26.472819, 6.23985 ], [ 26.484245, 6.267717 ], [ 26.47942, 6.275948 ], [ 26.436272, 6.305522 ], [ 26.393716, 6.305267 ], [ 26.378472, 6.327662 ], [ 26.363196, 6.336209 ], [ 26.360468, 6.346914 ], [ 26.352141, 6.356577 ], [ 26.349972, 6.36584 ], [ 26.33671, 6.380973 ], [ 26.307794, 6.382363 ], [ 26.297376, 6.407188 ], [ 26.311193, 6.419022 ], [ 26.314436, 6.433715 ], [ 26.304393, 6.445825 ], [ 26.30092, 6.45714 ], [ 26.286716, 6.459083 ], [ 26.285466, 6.461405 ], [ 26.290237, 6.476606 ], [ 26.298632, 6.486582 ], [ 26.322047, 6.499651 ], [ 26.320935, 6.509201 ], [ 26.329346, 6.517401 ], [ 26.329846, 6.534536 ], [ 26.337221, 6.540292 ], [ 26.34974, 6.544045 ], [ 26.354866, 6.582691 ], [ 26.379001, 6.581772 ], [ 26.394478, 6.589757 ], [ 26.385951, 6.606365 ], [ 26.402505, 6.622851 ], [ 26.411055, 6.635709 ], [ 26.411704, 6.653033 ], [ 26.364604, 6.684826 ], [ 26.360921, 6.694112 ], [ 26.338817, 6.693347 ], [ 26.320569, 6.704266 ], [ 26.302926, 6.707274 ], [ 26.275298, 6.700789 ], [ 26.26157, 6.707419 ], [ 26.255932, 6.714398 ], [ 26.260302, 6.732055 ], [ 26.257536, 6.738687 ], [ 26.208514, 6.747591 ], [ 26.206181, 6.759303 ], [ 26.192247, 6.766421 ], [ 26.185878, 6.775943 ], [ 26.174521, 6.792921 ], [ 26.176815, 6.801688 ], [ 26.171806, 6.811503 ], [ 26.152691, 6.818894 ], [ 26.131962, 6.81987 ], [ 26.117754, 6.812623 ], [ 26.109598, 6.811699 ], [ 26.095713, 6.824524 ], [ 26.070926, 6.830485 ], [ 26.084383, 6.898936 ], [ 26.062046, 6.90204 ], [ 26.055127, 6.922041 ], [ 26.037418, 6.927464 ], [ 26.04779, 6.947478 ], [ 26.037825, 6.971807 ], [ 26.045116, 6.977437 ], [ 26.047679, 6.984408 ], [ 26.044954, 6.99642 ], [ 26.038828, 7.004224 ], [ 25.999019, 7.00909 ], [ 25.988452, 7.018491 ], [ 25.981518, 7.039974 ], [ 25.971202, 7.041485 ], [ 25.961364, 7.035811 ], [ 25.941421, 7.041276 ], [ 25.936669, 7.04627 ], [ 25.932037, 7.063337 ], [ 25.902408, 7.069137 ], [ 25.901491, 7.074913 ], [ 25.905616, 7.083387 ], [ 25.89776, 7.091384 ], [ 25.880924, 7.087293 ], [ 25.869483, 7.081201 ], [ 25.863987, 7.083273 ], [ 25.857036, 7.092649 ], [ 25.864665, 7.100121 ], [ 25.857151, 7.105548 ], [ 25.838478, 7.108189 ], [ 25.82585, 7.119685 ], [ 25.822737, 7.132632 ], [ 25.83052, 7.145627 ], [ 25.821842, 7.153699 ], [ 25.801044, 7.15258 ], [ 25.787715, 7.151864 ], [ 25.755221, 7.175707 ], [ 25.716075, 7.184136 ], [ 25.695838, 7.195372 ], [ 25.676876, 7.19428 ], [ 25.662255, 7.201001 ], [ 25.64302, 7.217738 ], [ 25.62001, 7.219621 ], [ 25.588921, 7.242192 ], [ 25.580137, 7.239823 ], [ 25.574693, 7.241512 ], [ 25.566454, 7.259768 ], [ 25.5496, 7.258274 ], [ 25.536426, 7.279612 ], [ 25.510463, 7.291354 ], [ 25.499416, 7.30483 ], [ 25.448974, 7.306205 ], [ 25.435096, 7.314111 ], [ 25.409671, 7.34283 ], [ 25.397697, 7.347164 ], [ 25.394729, 7.334671 ], [ 25.393058, 7.333046 ], [ 25.389874, 7.329949 ], [ 25.358114, 7.346848 ], [ 25.345434, 7.374401 ], [ 25.343404, 7.392976 ], [ 25.330741, 7.402317 ], [ 25.335847, 7.413442 ], [ 25.333019, 7.426839 ], [ 25.30987, 7.431139 ], [ 25.289559, 7.452859 ], [ 25.280525, 7.472097 ], [ 25.253739, 7.48229 ], [ 25.230573, 7.484543 ], [ 25.202905, 7.493291 ], [ 25.186477, 7.528269 ], [ 25.195511, 7.535238 ], [ 25.192848, 7.545704 ], [ 25.182237, 7.557321 ], [ 25.180467, 7.570167 ], [ 25.178686, 7.571417 ], [ 25.167247, 7.579444 ], [ 25.178686, 7.590089 ], [ 25.195282, 7.605535 ], [ 25.229399, 7.630663 ], [ 25.264297, 7.640768 ], [ 25.286816, 7.656942 ], [ 25.295309, 7.678899 ], [ 25.280199, 7.708594 ], [ 25.278657, 7.738182 ], [ 25.285028, 7.7603 ], [ 25.283121, 7.794174 ], [ 25.266965, 7.796882 ], [ 25.254563, 7.810311 ], [ 25.23756, 7.853888 ], [ 25.224307, 7.868195 ], [ 25.218714, 7.880261 ], [ 25.207877, 7.879328 ], [ 25.200855, 7.882139 ], [ 25.193425, 7.89316 ], [ 25.178686, 7.905374 ], [ 25.169167, 7.913262 ], [ 25.085185, 7.895595 ], [ 25.035984, 7.948279 ], [ 25.005873, 7.96389 ], [ 24.97895, 7.95889 ], [ 24.968403, 7.981678 ], [ 24.9617, 8.008656 ], [ 24.94161, 8.035905 ], [ 24.92378, 8.039614 ], [ 24.901557, 8.051761 ], [ 24.888562, 8.119082 ], [ 24.859137, 8.173087 ], [ 24.832756, 8.169196 ], [ 24.80064, 8.175051 ], [ 24.790003, 8.182511 ], [ 24.770541, 8.184751 ], [ 24.751365, 8.169527 ], [ 24.748951, 8.184083 ], [ 24.728732, 8.208635 ], [ 24.683553, 8.208019 ], [ 24.644606, 8.221322 ], [ 24.593661, 8.214651 ], [ 24.560694, 8.202444 ], [ 24.550052, 8.211208 ], [ 24.538602, 8.209186 ], [ 24.515596, 8.228479 ], [ 24.499071, 8.234599 ], [ 24.495296, 8.235998 ], [ 24.486218, 8.256491 ], [ 24.480371, 8.283388 ], [ 24.415711, 8.276548 ], [ 24.397917, 8.271463 ], [ 24.383613, 8.260001 ], [ 24.360201, 8.251719 ], [ 24.341019, 8.261992 ], [ 24.287339, 8.271072 ], [ 24.2529, 8.28474 ], [ 24.229686, 8.290461 ], [ 24.203811, 8.305166 ], [ 24.194982, 8.320402 ], [ 24.18079, 8.334736 ], [ 24.171168, 8.353729 ], [ 24.155694, 8.370837 ], [ 24.151308, 8.396795 ], [ 24.165972, 8.424712 ], [ 24.164521, 8.444644 ], [ 24.170468, 8.458422 ], [ 24.163394, 8.480746 ], [ 24.17051, 8.486497 ], [ 24.182673, 8.488052 ], [ 24.203001, 8.50025 ], [ 24.215918, 8.534309 ], [ 24.232632, 8.563714 ], [ 24.255714, 8.577567 ], [ 24.254393, 8.593107 ], [ 24.230705, 8.622011 ], [ 24.223359, 8.642151 ], [ 24.244241, 8.648708 ], [ 24.383563, 8.789464 ], [ 24.512172, 8.837293 ], [ 24.525819, 8.844503 ], [ 24.578278, 8.922846 ], [ 24.57952, 8.935001 ], [ 24.576589, 8.956671 ], [ 24.563346, 8.991441 ], [ 24.563329, 9.001745 ], [ 24.547078, 9.04585 ], [ 24.543479, 9.063101 ], [ 24.547908, 9.107802 ], [ 24.558154, 9.138011 ], [ 24.56612, 9.186297 ], [ 24.582044, 9.221304 ], [ 24.589824, 9.247745 ], [ 24.596248, 9.256835 ], [ 24.625763, 9.322002 ], [ 24.62437, 9.329668 ], [ 24.602504, 9.355199 ], [ 24.596513, 9.375714 ], [ 24.613181, 9.390693 ], [ 24.655526, 9.416172 ], [ 24.685503, 9.445004 ], [ 24.737848, 9.481413 ], [ 24.745983, 9.492976 ], [ 24.754023, 9.520177 ], [ 24.753255, 9.581723 ], [ 24.745869, 9.604542 ], [ 24.732956, 9.625808 ], [ 24.735713, 9.641875 ], [ 24.743602, 9.655814 ], [ 24.740132, 9.668053 ], [ 24.739155, 9.71394 ], [ 24.734468, 9.727123 ], [ 24.724256, 9.73165 ], [ 24.720567, 9.744349 ], [ 24.725597, 9.749841 ], [ 24.740493, 9.756571 ], [ 24.739099, 9.768575 ], [ 24.750667, 9.768967 ], [ 24.762179, 9.764549 ], [ 24.768492, 9.773624 ], [ 24.781637, 9.77798 ], [ 24.78836, 9.790082 ], [ 24.798606, 9.796515 ], [ 24.801927, 9.803892 ], [ 24.811686, 9.805034 ], [ 24.823047, 9.820606 ], [ 24.820812, 9.839436 ], [ 24.827753, 9.849658 ], [ 24.842674, 9.860262 ], [ 24.852523, 9.875032 ], [ 24.885427, 9.890282 ], [ 24.897751, 9.902944 ], [ 24.919525, 9.913678 ], [ 24.924953, 9.922888 ], [ 24.948178, 9.934132 ], [ 24.956706, 9.952729 ], [ 24.966493, 9.962845 ], [ 24.969947, 9.973308 ], [ 24.978693, 9.981854 ], [ 24.983175, 9.992538 ], [ 24.995526, 9.996975 ], [ 25.00243, 10.003223 ], [ 25.009678, 10.040007 ], [ 25.014189, 10.040818 ], [ 25.027678, 10.033713 ], [ 25.033647, 10.035764 ], [ 25.034722, 10.045933 ], [ 25.030564, 10.059951 ], [ 25.030816, 10.071559 ], [ 25.05307, 10.097275 ], [ 25.05903, 10.121078 ], [ 25.03876, 10.165915 ], [ 25.030775, 10.169579 ], [ 25.029224, 10.173089 ], [ 25.033726, 10.179662 ], [ 25.043075, 10.209015 ], [ 25.055551, 10.218574 ], [ 25.061167, 10.234723 ], [ 25.067457, 10.238728 ], [ 25.065642, 10.245967 ], [ 25.071029, 10.25398 ], [ 25.074335, 10.267451 ], [ 25.09194, 10.284687 ], [ 25.093546, 10.296012 ], [ 25.100933, 10.305196 ], [ 25.100081, 10.314281 ], [ 25.130014, 10.316262 ], [ 25.132007, 10.319111 ], [ 25.126848, 10.329716 ], [ 25.14917, 10.333299 ], [ 25.159768, 10.333391 ], [ 25.178686, 10.324582 ], [ 25.184593, 10.321831 ], [ 25.190312, 10.33148 ], [ 25.203199, 10.336987 ], [ 25.209417, 10.344188 ], [ 25.213446, 10.34374 ], [ 25.215056, 10.338701 ], [ 25.217717, 10.338235 ], [ 25.250475, 10.351019 ], [ 25.264498, 10.341672 ], [ 25.30246, 10.33881 ], [ 25.315782, 10.343024 ], [ 25.339197, 10.336458 ], [ 25.356154, 10.345382 ], [ 25.363401, 10.354214 ], [ 25.378194, 10.360449 ], [ 25.393058, 10.360571 ], [ 25.395872, 10.360595 ], [ 25.409523, 10.364401 ], [ 25.417156, 10.362404 ], [ 25.425117, 10.367076 ], [ 25.433827, 10.363205 ], [ 25.443333, 10.367357 ], [ 25.453811, 10.367534 ], [ 25.462876, 10.373484 ], [ 25.506779, 10.367159 ], [ 25.514512, 10.361023 ], [ 25.520659, 10.365833 ], [ 25.53703, 10.361405 ], [ 25.549838, 10.365907 ], [ 25.554242, 10.372937 ], [ 25.560864, 10.368362 ], [ 25.572051, 10.371622 ], [ 25.597994, 10.386149 ], [ 25.606577, 10.386011 ], [ 25.624343, 10.395725 ], [ 25.635458, 10.395358 ], [ 25.664639, 10.403016 ], [ 25.676096, 10.399089 ], [ 25.691651, 10.399708 ], [ 25.700703, 10.412176 ], [ 25.709315, 10.416847 ], [ 25.72723, 10.417053 ], [ 25.74447, 10.405811 ], [ 25.773206, 10.415537 ], [ 25.787045, 10.412785 ], [ 25.794129, 10.425897 ], [ 25.801044, 10.427139 ], [ 25.803168, 10.42752 ], [ 25.81261, 10.438934 ], [ 25.820857, 10.43153 ], [ 25.829437, 10.436661 ], [ 25.836431, 10.433515 ], [ 25.850684, 10.438231 ], [ 25.857697, 10.434112 ], [ 25.865795, 10.435263 ], [ 25.873074, 10.427808 ], [ 25.888582, 10.424529 ], [ 25.920878, 10.403976 ], [ 25.932419, 10.373339 ], [ 25.931441, 10.182301 ], [ 25.958907, 10.174267 ], [ 25.999915, 10.156612 ], [ 26.026828, 10.139051 ], [ 26.046664, 10.120249 ], [ 26.060511, 10.101125 ], [ 26.077065, 10.065242 ], [ 26.114579, 10.010533 ], [ 26.117594, 9.993807 ], [ 26.185878, 9.934812 ], [ 26.211136, 9.912988 ], [ 26.266344, 9.748472 ], [ 26.312849, 9.638499 ], [ 26.33053, 9.613298 ], [ 26.347915, 9.594597 ], [ 26.394334, 9.566657 ], [ 26.481795, 9.538091 ], [ 26.559024, 9.516626 ], [ 26.704437, 9.488681 ], [ 26.751466, 9.497316 ], [ 26.851747, 9.531168 ], [ 26.915852, 9.561794 ], [ 26.992515, 9.593664 ], [ 27.004157, 9.594536 ], [ 27.025342, 9.602513 ], [ 27.135764, 9.623863 ], [ 27.239296, 9.62565 ], [ 27.480268, 9.619686 ], [ 27.758843, 9.603425 ], [ 27.822264, 9.602094 ], [ 27.907221, 9.610159 ], [ 28.023561, 9.375714 ], [ 28.037858, 9.345822 ], [ 28.041603, 9.343599 ], [ 28.765502, 9.348609 ], [ 28.768026, 9.35104 ], [ 28.763622, 9.375714 ], [ 28.758653, 9.403098 ], [ 28.760754, 9.404871 ], [ 28.777189, 9.424119 ], [ 28.788095, 9.435562 ], [ 28.790905, 9.44353 ], [ 28.790088, 9.447526 ], [ 28.791962, 9.450817 ], [ 28.79758, 9.459262 ], [ 28.799933, 9.464432 ], [ 28.799554, 9.472074 ], [ 28.803293, 9.476475 ], [ 28.803814, 9.483056 ], [ 28.8057, 9.487767 ], [ 28.811945, 9.490802 ], [ 28.81519, 9.494967 ], [ 28.817183, 9.498775 ], [ 28.821603, 9.500365 ], [ 28.834553, 9.509615 ], [ 28.837452, 9.512086 ], [ 28.860401, 9.53596 ], [ 28.873781, 9.548395 ], [ 28.893282, 9.567415 ], [ 28.977011, 9.641156 ], [ 29.006374, 9.677579 ], [ 29.019742, 9.700509 ], [ 29.03755, 9.711126 ], [ 29.051647, 9.727815 ], [ 29.088757, 9.751746 ], [ 29.100629, 9.752753 ], [ 29.129646, 9.748801 ], [ 29.533963, 9.752076 ], [ 29.542074, 10.080926 ], [ 29.618291, 10.119541 ], [ 29.947453, 10.286209 ], [ 30.004487, 10.28309 ], [ 30.522969, 9.96437 ], [ 30.826745, 9.723888 ], [ 30.860342, 9.730792 ], [ 30.901568, 9.748022 ], [ 31.185999, 9.75038 ], [ 31.274681, 9.759942 ], [ 31.319712, 9.777531 ], [ 31.356857, 9.809963 ], [ 31.512506, 10.003845 ], [ 31.688398, 10.202517 ], [ 31.789906, 10.306742 ], [ 31.857164, 10.408463 ], [ 31.964647, 10.611013 ], [ 31.989778, 10.645404 ], [ 32.021573, 10.669351 ], [ 32.152732, 10.743792 ], [ 32.424999, 11.0112 ], [ 32.461831, 11.043292 ], [ 32.410351, 11.154601 ], [ 32.401702, 11.178384 ], [ 32.395494, 11.211299 ], [ 32.393377, 11.598141 ], [ 32.391698, 11.659116 ], [ 32.384498, 11.691143 ], [ 32.360928, 11.724938 ], [ 32.131887, 11.938213 ], [ 32.737435, 11.951235 ], [ 32.750339, 11.968403 ], [ 32.756741, 12.010043 ], [ 32.752368, 12.044283 ], [ 32.754191, 12.079331 ], [ 32.740864, 12.148933 ], [ 32.743898, 12.193285 ], [ 32.738276, 12.22192 ], [ 32.743794, 12.231836 ], [ 32.983733, 12.228096 ], [ 33.283951, 12.213148 ], [ 33.290638, 12.207798 ], [ 33.28794, 12.1986 ], [ 33.254555, 12.14958 ], [ 33.177528, 11.754197 ], [ 33.138194, 11.623784 ], [ 33.234147, 11.029362 ], [ 33.238889, 10.977851 ], [ 33.261987, 10.846326 ], [ 33.227245, 10.740151 ], [ 33.485306, 10.651642 ], [ 33.662617, 10.448307 ], [ 33.792341, 10.336579 ], [ 33.897127, 10.171807 ], [ 33.945709, 10.161059 ], [ 33.966169, 10.148138 ], [ 33.968902, 10.140553 ], [ 33.971955, 10.097858 ], [ 33.994032, 10.052286 ], [ 33.997605, 10.002898 ], [ 33.989791, 9.96179 ], [ 33.991279, 9.915266 ], [ 33.977435, 9.875111 ], [ 33.963111, 9.8034 ], [ 33.947401, 9.78048 ], [ 33.925873, 9.763759 ], [ 33.916315, 9.74485 ], [ 33.897903, 9.67394 ], [ 33.8893, 9.628686 ], [ 33.890621, 9.541391 ], [ 33.913924, 9.4999 ], [ 34.113245, 9.498637 ], [ 34.115184, 9.48058 ], [ 34.120781, 9.375714 ], [ 34.127272, 9.235819 ], [ 34.14273, 9.044346 ], [ 34.140293, 9.020267 ], [ 34.144155, 8.976084 ], [ 34.141932, 8.824045 ], [ 34.144253, 8.70757 ], [ 34.142966, 8.62292 ], [ 34.139021, 8.595097 ], [ 34.103391, 8.552989 ], [ 34.076861, 8.545592 ], [ 34.053772, 8.525016 ], [ 34.033547, 8.511363 ], [ 34.026463, 8.494776 ], [ 34.019519, 8.487031 ], [ 34.012253, 8.486093 ], [ 34.0012, 8.492948 ], [ 33.992689, 8.487346 ], [ 33.98515, 8.486899 ], [ 33.972896, 8.496381 ], [ 33.956724, 8.491893 ], [ 33.942162, 8.495717 ], [ 33.9334, 8.4924 ], [ 33.92414, 8.484361 ], [ 33.898753, 8.479431 ], [ 33.892626, 8.473149 ], [ 33.888973, 8.462168 ], [ 33.88129, 8.458174 ], [ 33.874068, 8.444783 ], [ 33.875805, 8.434319 ], [ 33.840148, 8.428547 ], [ 33.826654, 8.418131 ], [ 33.814693, 8.399232 ], [ 33.795003, 8.388999 ], [ 33.784568, 8.375581 ], [ 33.767924, 8.363353 ], [ 33.750373, 8.373728 ], [ 33.73355, 8.362343 ], [ 33.716543, 8.363424 ], [ 33.7011, 8.370961 ], [ 33.692699, 8.37824 ], [ 33.689646, 8.396319 ], [ 33.68204, 8.405678 ], [ 33.679224, 8.414868 ], [ 33.676391, 8.439167 ], [ 33.649172, 8.456208 ], [ 33.62577, 8.465226 ], [ 33.612068, 8.461151 ], [ 33.59258, 8.444913 ], [ 33.571061, 8.448593 ], [ 33.559732, 8.466697 ], [ 33.542402, 8.46388 ], [ 33.508954, 8.470208 ], [ 33.490234, 8.467508 ], [ 33.477668, 8.452977 ], [ 33.459508, 8.447459 ], [ 33.446684, 8.438094 ], [ 33.439148, 8.43804 ], [ 33.426775, 8.444907 ], [ 33.421115, 8.444774 ], [ 33.39335, 8.422577 ], [ 33.373153, 8.431628 ], [ 33.3635, 8.439889 ], [ 33.325057, 8.445071 ], [ 33.31143, 8.457158 ], [ 33.303963, 8.452285 ], [ 33.298985, 8.441091 ], [ 33.29289, 8.435882 ], [ 33.286237, 8.43632 ], [ 33.276148, 8.449161 ], [ 33.269625, 8.450911 ], [ 33.249215, 8.443107 ], [ 33.234424, 8.423336 ], [ 33.217054, 8.42805 ], [ 33.21432, 8.406686 ], [ 33.190527, 8.402636 ], [ 33.192648, 8.391491 ], [ 33.188272, 8.380285 ], [ 33.194272, 8.349302 ], [ 33.213685, 8.352834 ], [ 33.214607, 8.34308 ], [ 33.207815, 8.33308 ], [ 33.192504, 8.33002 ], [ 33.19968, 8.312398 ], [ 33.197828, 8.30062 ], [ 33.19111, 8.296106 ], [ 33.170043, 8.293199 ], [ 33.174016, 8.283407 ], [ 33.172251, 8.265856 ], [ 33.17465, 8.255607 ], [ 33.180058, 8.248155 ], [ 33.196567, 8.245025 ], [ 33.200842, 8.234599 ], [ 33.193137, 8.214311 ], [ 33.170558, 8.197901 ], [ 33.166021, 8.19072 ], [ 33.172889, 8.182227 ], [ 33.176102, 8.168531 ], [ 33.18204, 8.159963 ], [ 33.187412, 8.127093 ], [ 33.182903, 8.123914 ], [ 33.169619, 8.123415 ], [ 33.156927, 8.110604 ], [ 33.13562, 8.110449 ], [ 33.121258, 8.105053 ], [ 33.116104, 8.094105 ], [ 33.115256, 8.066086 ], [ 33.102547, 8.07333 ], [ 33.085978, 8.070775 ], [ 33.084513, 8.059834 ], [ 33.078831, 8.048929 ], [ 33.074574, 8.022831 ], [ 33.042901, 8.00762 ], [ 33.03356, 7.990572 ], [ 33.035538, 7.975529 ], [ 33.033741, 7.967612 ], [ 33.009585, 7.949534 ], [ 33.001503, 7.938037 ], [ 33.004764, 7.911778 ], [ 33.011719, 7.890501 ], [ 33.003, 7.880505 ], [ 33.002768, 7.870199 ], [ 33.023536, 7.833535 ], [ 33.044127, 7.808145 ], [ 33.048049, 7.790143 ], [ 33.066824, 7.787275 ], [ 33.090578, 7.794179 ], [ 33.101459, 7.788503 ], [ 33.102789, 7.780241 ], [ 33.107493, 7.778246 ], [ 33.138342, 7.783894 ], [ 33.162144, 7.792812 ], [ 33.214711, 7.768867 ], [ 33.237966, 7.771397 ], [ 33.280656, 7.740974 ], [ 33.289481, 7.740299 ], [ 33.293841, 7.734837 ], [ 33.299628, 7.733347 ], [ 33.323147, 7.705321 ], [ 33.336445, 7.707227 ], [ 33.349762, 7.718704 ], [ 33.361113, 7.718868 ], [ 33.377059, 7.727964 ], [ 33.392877, 7.727128 ], [ 33.412301, 7.733706 ], [ 33.42039, 7.73957 ], [ 33.425284, 7.747411 ], [ 33.431174, 7.749146 ], [ 33.450792, 7.73702 ], [ 33.468081, 7.744218 ], [ 33.488488, 7.732924 ], [ 33.498318, 7.732775 ], [ 33.505567, 7.728429 ], [ 33.514058, 7.728952 ], [ 33.537926, 7.704433 ], [ 33.570635, 7.688685 ], [ 33.578542, 7.688587 ], [ 33.584674, 7.697307 ], [ 33.599988, 7.703389 ], [ 33.610933, 7.69965 ], [ 33.62917, 7.700879 ], [ 33.641875, 7.691903 ], [ 33.670768, 7.691159 ], [ 33.679027, 7.682818 ], [ 33.687056, 7.679266 ], [ 33.683922, 7.673607 ], [ 33.690149, 7.669415 ], [ 33.692655, 7.661887 ], [ 33.700697, 7.656977 ], [ 33.718949, 7.65208 ], [ 33.742947, 7.622403 ], [ 33.770614, 7.610401 ], [ 33.777575, 7.603717 ], [ 33.787903, 7.604561 ], [ 33.796644, 7.601293 ], [ 33.82804, 7.573346 ], [ 33.848395, 7.550796 ], [ 33.860173, 7.530185 ], [ 33.874943, 7.515572 ], [ 33.889284, 7.512205 ], [ 33.904512, 7.51572 ], [ 33.933815, 7.509706 ], [ 33.943949, 7.503906 ], [ 33.941248, 7.477574 ], [ 33.943776, 7.469278 ], [ 33.954941, 7.46103 ], [ 33.958759, 7.446666 ], [ 33.981639, 7.435613 ], [ 33.998155, 7.416889 ], [ 34.030966, 7.359854 ], [ 34.029719, 7.320202 ], [ 34.033206, 7.277666 ], [ 34.026214, 7.266069 ], [ 34.010879, 7.266567 ], [ 34.012526, 7.256388 ], [ 34.042203, 7.22233 ], [ 34.066253, 7.213729 ], [ 34.088609, 7.197886 ], [ 34.103344, 7.170504 ], [ 34.126921, 7.162311 ], [ 34.144319, 7.148929 ], [ 34.166134, 7.142899 ], [ 34.184239, 7.130403 ], [ 34.19074, 7.11994 ], [ 34.190468, 7.104661 ], [ 34.193613, 7.095904 ], [ 34.188377, 7.07804 ], [ 34.194234, 7.059501 ], [ 34.194121, 7.04079 ], [ 34.213305, 7.03465 ], [ 34.220508, 7.026864 ], [ 34.223242, 7.016241 ], [ 34.231217, 7.008312 ], [ 34.236328, 7.00347 ], [ 34.25417, 7.008867 ], [ 34.269465, 7.002756 ], [ 34.271111, 6.998632 ], [ 34.267291, 6.992639 ], [ 34.270709, 6.985367 ], [ 34.305461, 6.960654 ], [ 34.345221, 6.957972 ], [ 34.405909, 6.939712 ], [ 34.424773, 6.93699 ], [ 34.443282, 6.926388 ], [ 34.452997, 6.927183 ], [ 34.463402, 6.923445 ], [ 34.479431, 6.905944 ], [ 34.487505, 6.882236 ], [ 34.497963, 6.877062 ], [ 34.506768, 6.878378 ], [ 34.51068, 6.859964 ], [ 34.522578, 6.855642 ], [ 34.530565, 6.830281 ], [ 34.538661, 6.818716 ], [ 34.534386, 6.802238 ], [ 34.53863, 6.795641 ], [ 34.531529, 6.786201 ], [ 34.533998, 6.772117 ], [ 34.528945, 6.752149 ], [ 34.532088, 6.745179 ], [ 34.541298, 6.7432 ], [ 34.553415, 6.731868 ], [ 34.586504, 6.724646 ], [ 34.604785, 6.725958 ], [ 34.614471, 6.721854 ], [ 34.6174, 6.724041 ], [ 34.621422, 6.727045 ], [ 34.626746, 6.737117 ], [ 34.637847, 6.73566 ], [ 34.673259, 6.702171 ], [ 34.706154, 6.68549 ], [ 34.707904, 6.67066 ], [ 34.715046, 6.651212 ], [ 34.726336, 6.640707 ], [ 34.739218, 6.635284 ], [ 34.768404, 6.594927 ], [ 34.776325, 6.597915 ], [ 34.782794, 6.590078 ], [ 34.788737, 6.58813 ], [ 34.800874, 6.597901 ], [ 34.811707, 6.601031 ], [ 34.861313, 6.604249 ], [ 34.883473, 6.59738 ], [ 34.886751, 6.592231 ], [ 34.885576, 6.582646 ], [ 34.889531, 6.577011 ], [ 34.90692, 6.573404 ], [ 34.909831, 6.566042 ], [ 34.922838, 6.554742 ], [ 34.938242, 6.550473 ], [ 34.943838, 6.535679 ], [ 34.950797, 6.527095 ], [ 34.95764, 6.503253 ], [ 34.970128, 6.501601 ], [ 34.986249, 6.481872 ], [ 35.004516, 6.470777 ], [ 35.013142, 6.461792 ], [ 35.019408, 6.445846 ], [ 35.019289, 6.435243 ], [ 35.013672, 6.425757 ], [ 35.00866, 6.403826 ], [ 34.992484, 6.390366 ], [ 34.99005, 6.385207 ], [ 34.996394, 6.347588 ], [ 34.990598, 6.332848 ], [ 34.985829, 6.298493 ], [ 34.975461, 6.286036 ], [ 34.956247, 6.281549 ], [ 34.952713, 6.2657 ], [ 34.952463, 6.243227 ], [ 34.960177, 6.23413 ], [ 34.962229, 6.222516 ], [ 34.971831, 6.201415 ], [ 34.973968, 6.184317 ], [ 34.964075, 6.139244 ], [ 34.969386, 6.092253 ], [ 34.972612, 6.088833 ], [ 34.983237, 6.087783 ], [ 34.999884, 6.072079 ], [ 34.994795, 6.041902 ], [ 35.008298, 5.99893 ], [ 35.005912, 5.986118 ], [ 34.995492, 5.964732 ], [ 34.993242, 5.950694 ], [ 35.005624, 5.918218 ], [ 35.001685, 5.896965 ], [ 35.129062, 5.6926 ], [ 35.125879, 5.635219 ], [ 35.12749, 5.624834 ], [ 35.139331, 5.612407 ], [ 35.163072, 5.596381 ], [ 35.197734, 5.572982 ], [ 35.309054, 5.497828 ], [ 35.309635, 5.481809 ], [ 35.316578, 5.471843 ], [ 35.31819, 5.460817 ], [ 35.314913, 5.445147 ], [ 35.298071, 5.419307 ], [ 35.294146, 5.371248 ], [ 35.302754, 5.347954 ], [ 35.31944, 5.334071 ], [ 35.339675, 5.331046 ], [ 35.352802, 5.336711 ], [ 35.373546, 5.354289 ], [ 35.407889, 5.36066 ], [ 35.422006, 5.370605 ], [ 35.455322, 5.386813 ], [ 35.472423, 5.406646 ], [ 35.503414, 5.414925 ], [ 35.516394, 5.416793 ], [ 35.526246, 5.413812 ], [ 35.537275, 5.418165 ], [ 35.545442, 5.416855 ], [ 35.56358, 5.407737 ], [ 35.576943, 5.414278 ], [ 35.587316, 5.413252 ], [ 35.60181, 5.397575 ], [ 35.61816, 5.398104 ], [ 35.620534, 5.382477 ], [ 35.626976, 5.378356 ], [ 35.655885, 5.389639 ], [ 35.662149, 5.384386 ], [ 35.675737, 5.383214 ], [ 35.683562, 5.386212 ], [ 35.692071, 5.384849 ], [ 35.717674, 5.389192 ], [ 35.725794, 5.375997 ], [ 35.753965, 5.369871 ], [ 35.758115, 5.357057 ], [ 35.76959, 5.348815 ], [ 35.778665, 5.351932 ], [ 35.793225, 5.343981 ], [ 35.811781, 5.339383 ], [ 35.828264, 5.331254 ], [ 35.839338, 5.329744 ], [ 35.845097, 5.322821 ], [ 35.860658, 5.314627 ], [ 35.863828, 5.303476 ], [ 35.860949, 5.28962 ], [ 35.846275, 5.278404 ], [ 35.833012, 5.260033 ], [ 35.829652, 5.251196 ], [ 35.829278, 5.23693 ], [ 35.838373, 5.215162 ], [ 35.859152, 5.188352 ], [ 35.863379, 5.17599 ], [ 35.862766, 5.165968 ], [ 35.858178, 5.153123 ], [ 35.839779, 5.126828 ], [ 35.830072, 5.116883 ], [ 35.81828, 5.1048 ], [ 35.814942, 5.084977 ], [ 35.816278, 4.939442 ], [ 35.814094, 4.912706 ], [ 35.817179, 4.779209 ], [ 35.899211, 4.679151 ], [ 35.924836, 4.647892 ], [ 35.9477, 4.62 ] ] ] ] } }
]
}
