{
"type": "FeatureCollection",
"name": "Spratly Islands",
"crs": { "type": "name", "properties": { "name": "urn:ogc:def:crs:OGC:1.3:CRS84" } },
"features": [
{ "type": "Feature", "properties": { "id": "XB", "CNTR_ID": "XB", "CNTR_NAME": "Spratly Islands (Disputed Territory)", "NAME_ENGL": "Spratly Islands", "ISO3_CODE": "XB", "FID": "XB" }, "geometry": { "type": "MultiPolygon", "coordinates": [ [ [ [ 114.281488, 11.051246 ], [ 114.282975, 11.055675 ], [ 114.285221, 11.056488 ], [ 114.289568, 11.051541 ], [ 114.285931, 11.048822 ], [ 114.281488, 11.051246 ] ] ], [ [ [ 114.359882, 10.37553 ], [ 114.360894, 10.377291 ], [ 114.371199, 10.380355 ], [ 114.371719, 10.378491 ], [ 114.365151, 10.374891 ], [ 114.359882, 10.37553 ] ] ], [ [ [ 114.421975, 10.667371 ], [ 114.423065, 10.671748 ], [ 114.42722, 10.666984 ], [ 114.425396, 10.664016 ], [ 114.421975, 10.667371 ] ] ], [ [ [ 115.800857, 10.732667 ], [ 115.80322, 10.735988 ], [ 115.806055, 10.733595 ], [ 115.804129, 10.728524 ], [ 115.800857, 10.732667 ] ] ], [ [ [ 115.0206, 11.080196 ], [ 115.023208, 11.084079 ], [ 115.027238, 11.083238 ], [ 115.024797, 11.078843 ], [ 115.0206, 11.080196 ] ] ] ] } }
]
}
