{
"type": "FeatureCollection",
"name": "Sri Lanka",
"crs": { "type": "name", "properties": { "name": "urn:ogc:def:crs:OGC:1.3:CRS84" } },
"features": [
{ "type": "Feature", "properties": { "id": "LK", "CNTR_ID": "LK", "CNTR_NAME": "ශ්‍රී ලංකාව-இலங்கை", "NAME_ENGL": "Sri Lanka", "ISO3_CODE": "LKA", "FID": "LK" }, "geometry": { "type": "MultiPolygon", "coordinates": [ [ [ [ 81.017594, 8.916387 ], [ 81.033859, 8.887503 ], [ 81.06059, 8.863025 ], [ 81.067238, 8.860721 ], [ 81.077068, 8.861819 ], [ 81.083843, 8.857658 ], [ 81.092845, 8.833949 ], [ 81.107711, 8.80897 ], [ 81.173044, 8.73338 ], [ 81.202342, 8.681792 ], [ 81.22409, 8.655186 ], [ 81.225941, 8.631754 ], [ 81.221421, 8.619131 ], [ 81.221145, 8.606789 ], [ 81.231365, 8.584907 ], [ 81.241641, 8.577988 ], [ 81.244725, 8.557877 ], [ 81.243528, 8.54701 ], [ 81.2295, 8.53961 ], [ 81.226079, 8.548224 ], [ 81.231596, 8.562162 ], [ 81.227919, 8.571152 ], [ 81.222889, 8.573568 ], [ 81.198008, 8.573952 ], [ 81.194676, 8.560296 ], [ 81.20069, 8.553443 ], [ 81.198258, 8.545463 ], [ 81.207894, 8.522599 ], [ 81.209239, 8.511633 ], [ 81.191283, 8.511428 ], [ 81.187068, 8.516691 ], [ 81.184386, 8.533086 ], [ 81.175585, 8.530817 ], [ 81.165269, 8.539299 ], [ 81.157134, 8.54207 ], [ 81.141418, 8.523594 ], [ 81.125559, 8.510251 ], [ 81.126919, 8.499483 ], [ 81.139767, 8.492791 ], [ 81.153093, 8.506309 ], [ 81.178131, 8.509689 ], [ 81.190369, 8.502842 ], [ 81.197774, 8.4811 ], [ 81.203658, 8.473025 ], [ 81.2274, 8.462667 ], [ 81.266896, 8.463727 ], [ 81.277087, 8.466525 ], [ 81.285948, 8.481532 ], [ 81.285201, 8.505732 ], [ 81.307224, 8.513538 ], [ 81.31751, 8.522019 ], [ 81.351011, 8.49518 ], [ 81.379957, 8.381618 ], [ 81.389161, 8.361816 ], [ 81.388131, 8.329677 ], [ 81.41158, 8.234693 ], [ 81.424352, 8.192697 ], [ 81.431768, 8.177891 ], [ 81.434068, 8.160332 ], [ 81.442788, 8.133233 ], [ 81.457344, 8.109555 ], [ 81.460642, 8.081385 ], [ 81.474456, 8.041602 ], [ 81.492626, 8.012322 ], [ 81.507047, 7.999046 ], [ 81.528582, 7.986533 ], [ 81.545357, 7.99162 ], [ 81.550845, 7.990044 ], [ 81.54206, 7.972707 ], [ 81.541908, 7.95806 ], [ 81.547843, 7.946601 ], [ 81.560226, 7.938719 ], [ 81.566115, 7.928691 ], [ 81.57851, 7.922372 ], [ 81.569366, 7.913437 ], [ 81.565281, 7.893224 ], [ 81.569239, 7.87109 ], [ 81.582591, 7.844584 ], [ 81.604778, 7.825939 ], [ 81.621197, 7.825344 ], [ 81.634085, 7.80088 ], [ 81.649019, 7.78237 ], [ 81.670721, 7.765631 ], [ 81.691793, 7.757379 ], [ 81.703652, 7.745744 ], [ 81.75723, 7.659989 ], [ 81.786833, 7.598364 ], [ 81.80151, 7.549455 ], [ 81.823048, 7.441118 ], [ 81.840441, 7.410054 ], [ 81.863422, 7.335078 ], [ 81.867656, 7.290754 ], [ 81.861568, 7.219728 ], [ 81.857388, 7.106917 ], [ 81.877508, 7.021551 ], [ 81.865442, 6.984939 ], [ 81.863872, 6.962498 ], [ 81.845522, 6.909089 ], [ 81.844878, 6.872617 ], [ 81.833785, 6.851944 ], [ 81.837662, 6.835561 ], [ 81.82862, 6.824113 ], [ 81.822876, 6.811133 ], [ 81.819555, 6.788828 ], [ 81.822079, 6.762709 ], [ 81.802667, 6.732866 ], [ 81.797237, 6.705618 ], [ 81.772821, 6.671203 ], [ 81.771791, 6.660096 ], [ 81.774802, 6.644631 ], [ 81.770342, 6.627382 ], [ 81.760935, 6.61021 ], [ 81.759601, 6.596882 ], [ 81.739711, 6.572509 ], [ 81.700396, 6.495592 ], [ 81.698803, 6.492469 ], [ 81.665412, 6.465472 ], [ 81.649011, 6.445864 ], [ 81.620003, 6.432115 ], [ 81.615581, 6.424649 ], [ 81.614616, 6.414306 ], [ 81.583401, 6.391533 ], [ 81.568525, 6.382742 ], [ 81.563684, 6.372986 ], [ 81.558893, 6.369781 ], [ 81.525268, 6.361818 ], [ 81.502154, 6.349379 ], [ 81.497588, 6.34349 ], [ 81.497262, 6.335193 ], [ 81.484716, 6.323651 ], [ 81.480037, 6.312577 ], [ 81.439799, 6.294582 ], [ 81.399396, 6.250291 ], [ 81.377721, 6.242049 ], [ 81.368708, 6.233779 ], [ 81.342316, 6.222702 ], [ 81.32316, 6.20218 ], [ 81.271644, 6.185251 ], [ 81.242702, 6.180962 ], [ 81.223366, 6.165431 ], [ 81.183158, 6.157399 ], [ 81.169305, 6.146382 ], [ 81.134347, 6.133111 ], [ 81.127325, 6.121377 ], [ 81.101913, 6.119361 ], [ 81.071901, 6.111205 ], [ 81.05825, 6.111026 ], [ 81.047687, 6.107206 ], [ 80.999702, 6.100358 ], [ 80.97836, 6.087511 ], [ 80.944025, 6.083068 ], [ 80.933978, 6.075295 ], [ 80.906004, 6.064732 ], [ 80.874887, 6.059122 ], [ 80.861576, 6.043507 ], [ 80.827028, 6.042016 ], [ 80.809893, 6.036818 ], [ 80.801214, 6.029872 ], [ 80.796919, 6.01982 ], [ 80.78193, 6.008034 ], [ 80.749537, 5.996349 ], [ 80.736243, 5.97557 ], [ 80.725384, 5.9767 ], [ 80.715289, 5.961175 ], [ 80.709256, 5.961329 ], [ 80.692108, 5.961767 ], [ 80.650386, 5.953824 ], [ 80.639809, 5.946623 ], [ 80.625837, 5.945472 ], [ 80.616088, 5.931882 ], [ 80.591038, 5.921174 ], [ 80.577471, 5.933987 ], [ 80.555545, 5.941697 ], [ 80.542438, 5.941809 ], [ 80.519876, 5.936181 ], [ 80.494978, 5.93934 ], [ 80.470074, 5.938436 ], [ 80.466815, 5.939351 ], [ 80.450848, 5.943833 ], [ 80.451881, 5.960444 ], [ 80.441102, 5.969001 ], [ 80.428278, 5.968791 ], [ 80.418091, 5.958457 ], [ 80.410764, 5.957851 ], [ 80.378075, 5.965228 ], [ 80.316493, 5.99006 ], [ 80.264648, 5.999225 ], [ 80.251012, 6.007601 ], [ 80.24143, 6.010098 ], [ 80.2387, 6.014164 ], [ 80.24061, 6.024299 ], [ 80.238348, 6.029327 ], [ 80.225177, 6.033705 ], [ 80.216562, 6.026578 ], [ 80.207637, 6.034993 ], [ 80.1886, 6.044884 ], [ 80.169613, 6.065465 ], [ 80.134926, 6.091732 ], [ 80.127725, 6.097184 ], [ 80.120501, 6.112556 ], [ 80.100632, 6.132165 ], [ 80.096468, 6.14938 ], [ 80.087041, 6.166598 ], [ 80.063239, 6.193127 ], [ 80.061835, 6.205905 ], [ 80.053189, 6.230007 ], [ 80.03542, 6.267016 ], [ 80.037306, 6.2935 ], [ 80.028555, 6.33025 ], [ 80.012344, 6.368 ], [ 79.993958, 6.428368 ], [ 79.977582, 6.458673 ], [ 79.975894, 6.469676 ], [ 79.982292, 6.483973 ], [ 79.981211, 6.495592 ], [ 79.977811, 6.522405 ], [ 79.929746, 6.65317 ], [ 79.900433, 6.716367 ], [ 79.866229, 6.816623 ], [ 79.857226, 6.874772 ], [ 79.843256, 6.93073 ], [ 79.844379, 6.938071 ], [ 79.852982, 6.946863 ], [ 79.85871, 6.96175 ], [ 79.866379, 6.971431 ], [ 79.868173, 6.985417 ], [ 79.843456, 7.103518 ], [ 79.81872, 7.194642 ], [ 79.8209, 7.204146 ], [ 79.830672, 7.211655 ], [ 79.837307, 7.222097 ], [ 79.841014, 7.246722 ], [ 79.840862, 7.268692 ], [ 79.834603, 7.321182 ], [ 79.815145, 7.409462 ], [ 79.789643, 7.544212 ], [ 79.787601, 7.596972 ], [ 79.79652, 7.617524 ], [ 79.799737, 7.641016 ], [ 79.79703, 7.700276 ], [ 79.782906, 7.781562 ], [ 79.748167, 7.921556 ], [ 79.707951, 8.05262 ], [ 79.705834, 8.092848 ], [ 79.700252, 8.13095 ], [ 79.706854, 8.15044 ], [ 79.708253, 8.163948 ], [ 79.697856, 8.207233 ], [ 79.715795, 8.219219 ], [ 79.726431, 8.230308 ], [ 79.739258, 8.234195 ], [ 79.747086, 8.242929 ], [ 79.74691, 8.250846 ], [ 79.735957, 8.254304 ], [ 79.73815, 8.275779 ], [ 79.748376, 8.294423 ], [ 79.76253, 8.331551 ], [ 79.774311, 8.346326 ], [ 79.775147, 8.343643 ], [ 79.759743, 8.311637 ], [ 79.761111, 8.300333 ], [ 79.755567, 8.288076 ], [ 79.753912, 8.271618 ], [ 79.758604, 8.264989 ], [ 79.759532, 8.257068 ], [ 79.76824, 8.258572 ], [ 79.772163, 8.256649 ], [ 79.768695, 8.242131 ], [ 79.768559, 8.224466 ], [ 79.764711, 8.220036 ], [ 79.752865, 8.219044 ], [ 79.743119, 8.206552 ], [ 79.745947, 8.177556 ], [ 79.738786, 8.150032 ], [ 79.729116, 8.13194 ], [ 79.735158, 8.105091 ], [ 79.734184, 8.082202 ], [ 79.749701, 8.062491 ], [ 79.743799, 8.050789 ], [ 79.739276, 8.01347 ], [ 79.746617, 7.996131 ], [ 79.75867, 7.987696 ], [ 79.802562, 7.978634 ], [ 79.815145, 7.979317 ], [ 79.821624, 7.993345 ], [ 79.830633, 8.004199 ], [ 79.832249, 8.014596 ], [ 79.815145, 8.044607 ], [ 79.797006, 8.064255 ], [ 79.795139, 8.081586 ], [ 79.809805, 8.096355 ], [ 79.815145, 8.108613 ], [ 79.819502, 8.118612 ], [ 79.830073, 8.131309 ], [ 79.832362, 8.142135 ], [ 79.829865, 8.15243 ], [ 79.818039, 8.172868 ], [ 79.819476, 8.188014 ], [ 79.817075, 8.201932 ], [ 79.815145, 8.204349 ], [ 79.8053, 8.216683 ], [ 79.804627, 8.225866 ], [ 79.797426, 8.233731 ], [ 79.80943, 8.242902 ], [ 79.815145, 8.259647 ], [ 79.819557, 8.272572 ], [ 79.834418, 8.300199 ], [ 79.83598, 8.324962 ], [ 79.845353, 8.359215 ], [ 79.844155, 8.424904 ], [ 79.848051, 8.438474 ], [ 79.862359, 8.456339 ], [ 79.86334, 8.481108 ], [ 79.871561, 8.532528 ], [ 79.876368, 8.538059 ], [ 79.890876, 8.54066 ], [ 79.916958, 8.555515 ], [ 79.921959, 8.592184 ], [ 79.941313, 8.618429 ], [ 79.945685, 8.628718 ], [ 79.945024, 8.658779 ], [ 79.951913, 8.683244 ], [ 79.951242, 8.709203 ], [ 79.956128, 8.72295 ], [ 79.929276, 8.787845 ], [ 79.926446, 8.805884 ], [ 79.920967, 8.818217 ], [ 79.922546, 8.834575 ], [ 79.933008, 8.862867 ], [ 79.933848, 8.877582 ], [ 79.926366, 8.899964 ], [ 79.917413, 8.916387 ], [ 79.915887, 8.919188 ], [ 79.913933, 8.934157 ], [ 79.921173, 8.943024 ], [ 79.946641, 8.949028 ], [ 79.966301, 8.965237 ], [ 79.984776, 8.973298 ], [ 79.998294, 8.997867 ], [ 80.013587, 9.009209 ], [ 80.039546, 9.02083 ], [ 80.066435, 9.063406 ], [ 80.07097, 9.085925 ], [ 80.075953, 9.096513 ], [ 80.07835, 9.12705 ], [ 80.098724, 9.16088 ], [ 80.106719, 9.195395 ], [ 80.117608, 9.216968 ], [ 80.119263, 9.255857 ], [ 80.111932, 9.275587 ], [ 80.119455, 9.296335 ], [ 80.112233, 9.309499 ], [ 80.095165, 9.322406 ], [ 80.066091, 9.333236 ], [ 80.056208, 9.369591 ], [ 80.056571, 9.388349 ], [ 80.06233, 9.395384 ], [ 80.110287, 9.416891 ], [ 80.134926, 9.431681 ], [ 80.142498, 9.436226 ], [ 80.177351, 9.471947 ], [ 80.183025, 9.484082 ], [ 80.174927, 9.504605 ], [ 80.143207, 9.539182 ], [ 80.134926, 9.545497 ], [ 80.102003, 9.570601 ], [ 80.060419, 9.597402 ], [ 80.058586, 9.601815 ], [ 80.063571, 9.604893 ], [ 80.072006, 9.598851 ], [ 80.10372, 9.586488 ], [ 80.116275, 9.576679 ], [ 80.12931, 9.573231 ], [ 80.134926, 9.568141 ], [ 80.144681, 9.5593 ], [ 80.167151, 9.546977 ], [ 80.191999, 9.544509 ], [ 80.214675, 9.532711 ], [ 80.232011, 9.52934 ], [ 80.268021, 9.5009 ], [ 80.25652, 9.495528 ], [ 80.266106, 9.479395 ], [ 80.255445, 9.474007 ], [ 80.25469, 9.469247 ], [ 80.281554, 9.455851 ], [ 80.312566, 9.460386 ], [ 80.33014, 9.458395 ], [ 80.340862, 9.467759 ], [ 80.356197, 9.468265 ], [ 80.373192, 9.47388 ], [ 80.391516, 9.487272 ], [ 80.394231, 9.502259 ], [ 80.391053, 9.511606 ], [ 80.379317, 9.520221 ], [ 80.357393, 9.545965 ], [ 80.330289, 9.569196 ], [ 80.233967, 9.626664 ], [ 80.178449, 9.651677 ], [ 80.162132, 9.649473 ], [ 80.161251, 9.646205 ], [ 80.168454, 9.6391 ], [ 80.172317, 9.624797 ], [ 80.193635, 9.620127 ], [ 80.193265, 9.613059 ], [ 80.187591, 9.60423 ], [ 80.197066, 9.593752 ], [ 80.197286, 9.586178 ], [ 80.156461, 9.609475 ], [ 80.134926, 9.609525 ], [ 80.125518, 9.609547 ], [ 80.100464, 9.617407 ], [ 80.054291, 9.645557 ], [ 80.018095, 9.652507 ], [ 80.002833, 9.667348 ], [ 79.992683, 9.687407 ], [ 79.979428, 9.68883 ], [ 79.965807, 9.698614 ], [ 79.953476, 9.692574 ], [ 79.945664, 9.693448 ], [ 79.935054, 9.708922 ], [ 79.928632, 9.730921 ], [ 79.908866, 9.75954 ], [ 79.909324, 9.765714 ], [ 79.915411, 9.773474 ], [ 79.93241, 9.780539 ], [ 79.955928, 9.797742 ], [ 79.988028, 9.810715 ], [ 80.015697, 9.815729 ], [ 80.041414, 9.816834 ], [ 80.103341, 9.811096 ], [ 80.134926, 9.822126 ], [ 80.139931, 9.823874 ], [ 80.173955, 9.826058 ], [ 80.209621, 9.833506 ], [ 80.24424, 9.82694 ], [ 80.252428, 9.82132 ], [ 80.276441, 9.777198 ], [ 80.298052, 9.74893 ], [ 80.315427, 9.719984 ], [ 80.362729, 9.665138 ], [ 80.466815, 9.581099 ], [ 80.539717, 9.522224 ], [ 80.623693, 9.459405 ], [ 80.676585, 9.414073 ], [ 80.709256, 9.381492 ], [ 80.739759, 9.351071 ], [ 80.78991, 9.311728 ], [ 80.807865, 9.292754 ], [ 80.820461, 9.266004 ], [ 80.842418, 9.230112 ], [ 80.857481, 9.175985 ], [ 80.879401, 9.126739 ], [ 80.908583, 9.082729 ], [ 80.933395, 9.036829 ], [ 80.99047, 8.952139 ], [ 81.009143, 8.931393 ], [ 81.017594, 8.916387 ] ] ], [ [ [ 79.698443, 9.097247 ], [ 79.707231, 9.102542 ], [ 79.730019, 9.107249 ], [ 79.783557, 9.099861 ], [ 79.815145, 9.090017 ], [ 79.854423, 9.077778 ], [ 79.878529, 9.060383 ], [ 79.920545, 9.012576 ], [ 79.916787, 9.012388 ], [ 79.903611, 9.022365 ], [ 79.875459, 9.035221 ], [ 79.873209, 9.041799 ], [ 79.867665, 9.045742 ], [ 79.868112, 9.053242 ], [ 79.858173, 9.061525 ], [ 79.853346, 9.060562 ], [ 79.884378, 9.011415 ], [ 79.9012, 8.996346 ], [ 79.922932, 8.98403 ], [ 79.924545, 8.977187 ], [ 79.890446, 8.963893 ], [ 79.88165, 8.969247 ], [ 79.871067, 8.984023 ], [ 79.841683, 9.014348 ], [ 79.815145, 9.03343 ], [ 79.804411, 9.041148 ], [ 79.783557, 9.052772 ], [ 79.77485, 9.057556 ], [ 79.742306, 9.071026 ], [ 79.723931, 9.076296 ], [ 79.70009, 9.078262 ], [ 79.698443, 9.097247 ] ] ], [ [ [ 79.841707, 9.700467 ], [ 79.841889, 9.70396 ], [ 79.86233, 9.70426 ], [ 79.867711, 9.696847 ], [ 79.872797, 9.694714 ], [ 79.878601, 9.696847 ], [ 79.883922, 9.700807 ], [ 79.890193, 9.696847 ], [ 79.892958, 9.68985 ], [ 79.899132, 9.684247 ], [ 79.896109, 9.676009 ], [ 79.900045, 9.66997 ], [ 79.903824, 9.669252 ], [ 79.904939, 9.674137 ], [ 79.918204, 9.677632 ], [ 79.920701, 9.68111 ], [ 79.937328, 9.677567 ], [ 79.935279, 9.673345 ], [ 79.929991, 9.673806 ], [ 79.932136, 9.665656 ], [ 79.926084, 9.664181 ], [ 79.925917, 9.661912 ], [ 79.955276, 9.638005 ], [ 79.974254, 9.631714 ], [ 79.985541, 9.63404 ], [ 79.986593, 9.638387 ], [ 79.982617, 9.643192 ], [ 79.984014, 9.64413 ], [ 79.988697, 9.640003 ], [ 79.992423, 9.64146 ], [ 79.995511, 9.646639 ], [ 80.002525, 9.640199 ], [ 79.998645, 9.63866 ], [ 79.999107, 9.636377 ], [ 80.007371, 9.628644 ], [ 80.003798, 9.618366 ], [ 80.004871, 9.611786 ], [ 79.999126, 9.603122 ], [ 79.985486, 9.597728 ], [ 79.974254, 9.601461 ], [ 79.972032, 9.604822 ], [ 79.97798, 9.60618 ], [ 79.984395, 9.613887 ], [ 79.982439, 9.620819 ], [ 79.971382, 9.612528 ], [ 79.967779, 9.611706 ], [ 79.969854, 9.607408 ], [ 79.964756, 9.607027 ], [ 79.963885, 9.61089 ], [ 79.966756, 9.613129 ], [ 79.963965, 9.613742 ], [ 79.9389, 9.629292 ], [ 79.919749, 9.633593 ], [ 79.914676, 9.631815 ], [ 79.907562, 9.618069 ], [ 79.897756, 9.618724 ], [ 79.879261, 9.634947 ], [ 79.868976, 9.640386 ], [ 79.862475, 9.658064 ], [ 79.845062, 9.682964 ], [ 79.845072, 9.68833 ], [ 79.849236, 9.692757 ], [ 79.841707, 9.700467 ] ] ], [ [ [ 79.651332, 9.538345 ], [ 79.652729, 9.54892 ], [ 79.6599, 9.55473 ], [ 79.672286, 9.55179 ], [ 79.68265, 9.538345 ], [ 79.684022, 9.538345 ], [ 79.696128, 9.529441 ], [ 79.716901, 9.528645 ], [ 79.723991, 9.525756 ], [ 79.731045, 9.491919 ], [ 79.729038, 9.482864 ], [ 79.722773, 9.475949 ], [ 79.706678, 9.476325 ], [ 79.687016, 9.484871 ], [ 79.680524, 9.492083 ], [ 79.657461, 9.503004 ], [ 79.651332, 9.538345 ] ] ], [ [ [ 79.791923, 9.593935 ], [ 79.794778, 9.600448 ], [ 79.799984, 9.590732 ], [ 79.808085, 9.590991 ], [ 79.810751, 9.598961 ], [ 79.807681, 9.602977 ], [ 79.809038, 9.619819 ], [ 79.813457, 9.626733 ], [ 79.815145, 9.625088 ], [ 79.816945, 9.623334 ], [ 79.820073, 9.623363 ], [ 79.819201, 9.619839 ], [ 79.822185, 9.612508 ], [ 79.835904, 9.611726 ], [ 79.846411, 9.619373 ], [ 79.863343, 9.604767 ], [ 79.859594, 9.594006 ], [ 79.861014, 9.57217 ], [ 79.855768, 9.568298 ], [ 79.815145, 9.574511 ], [ 79.813016, 9.574837 ], [ 79.794778, 9.583355 ], [ 79.792722, 9.584986 ], [ 79.791923, 9.593935 ] ] ], [ [ [ 79.851489, 9.714628 ], [ 79.854493, 9.718703 ], [ 79.861662, 9.72612 ], [ 79.861991, 9.734542 ], [ 79.859392, 9.741414 ], [ 79.85661, 9.745647 ], [ 79.856442, 9.751055 ], [ 79.862075, 9.759923 ], [ 79.867646, 9.762936 ], [ 79.874945, 9.761456 ], [ 79.883161, 9.761153 ], [ 79.890552, 9.764331 ], [ 79.894006, 9.763026 ], [ 79.8986, 9.754816 ], [ 79.895497, 9.747524 ], [ 79.894434, 9.739062 ], [ 79.889887, 9.728616 ], [ 79.890261, 9.719815 ], [ 79.893173, 9.713826 ], [ 79.892187, 9.711816 ], [ 79.885966, 9.710149 ], [ 79.884231, 9.707435 ], [ 79.880073, 9.704962 ], [ 79.875939, 9.704808 ], [ 79.865957, 9.707827 ], [ 79.863519, 9.710115 ], [ 79.854852, 9.712145 ], [ 79.851489, 9.714628 ] ] ], [ [ [ 79.970794, 9.290583 ], [ 79.971949, 9.295467 ], [ 79.974268, 9.295783 ], [ 79.985142, 9.305814 ], [ 79.992983, 9.287892 ], [ 80.00417, 9.286383 ], [ 80.006461, 9.27787 ], [ 80.000289, 9.271526 ], [ 79.993903, 9.283023 ], [ 79.987724, 9.284555 ], [ 79.978778, 9.280648 ], [ 79.974268, 9.28216 ], [ 79.971789, 9.286007 ], [ 79.970794, 9.290583 ] ] ], [ [ [ 79.765022, 9.662115 ], [ 79.772158, 9.676952 ], [ 79.783557, 9.687791 ], [ 79.785397, 9.667138 ], [ 79.783557, 9.664051 ], [ 79.775486, 9.654719 ], [ 79.777316, 9.648582 ], [ 79.774131, 9.646655 ], [ 79.765687, 9.655422 ], [ 79.765022, 9.662115 ] ] ], [ [ [ 79.761442, 9.608208 ], [ 79.763944, 9.616504 ], [ 79.769543, 9.622476 ], [ 79.775273, 9.621243 ], [ 79.775165, 9.614116 ], [ 79.773721, 9.606546 ], [ 79.773157, 9.598285 ], [ 79.775505, 9.592276 ], [ 79.772841, 9.584703 ], [ 79.765334, 9.58788 ], [ 79.762917, 9.590857 ], [ 79.763334, 9.598714 ], [ 79.761442, 9.608208 ] ] ], [ [ [ 79.889829, 8.954917 ], [ 79.895372, 8.961004 ], [ 79.90241, 8.961695 ], [ 79.907118, 8.958831 ], [ 79.906719, 8.954445 ], [ 79.903722, 8.949262 ], [ 79.90481, 8.94824 ], [ 79.908491, 8.951104 ], [ 79.91039, 8.955593 ], [ 79.916074, 8.956624 ], [ 79.915033, 8.95953 ], [ 79.918727, 8.962294 ], [ 79.920042, 8.958273 ], [ 79.917879, 8.956299 ], [ 79.916388, 8.947961 ], [ 79.913307, 8.941636 ], [ 79.906415, 8.93867 ], [ 79.90339, 8.940945 ], [ 79.904137, 8.946861 ], [ 79.898838, 8.946743 ], [ 79.894134, 8.951296 ], [ 79.891945, 8.95127 ], [ 79.889829, 8.954917 ] ] ], [ [ [ 79.776734, 8.49195 ], [ 79.777026, 8.496403 ], [ 79.782766, 8.491263 ], [ 79.78318, 8.487271 ], [ 79.782497, 8.475928 ], [ 79.783557, 8.474437 ], [ 79.786384, 8.47162 ], [ 79.791632, 8.470431 ], [ 79.788018, 8.460576 ], [ 79.788974, 8.456593 ], [ 79.787976, 8.453512 ], [ 79.785653, 8.453291 ], [ 79.783557, 8.459764 ], [ 79.778628, 8.475116 ], [ 79.776734, 8.49195 ] ] ], [ [ [ 80.003723, 9.481048 ], [ 80.007071, 9.486254 ], [ 80.014263, 9.484541 ], [ 80.018406, 9.481667 ], [ 80.018421, 9.476951 ], [ 80.015254, 9.47168 ], [ 80.014515, 9.467692 ], [ 80.011842, 9.465289 ], [ 80.009162, 9.466817 ], [ 80.009696, 9.473036 ], [ 80.003723, 9.481048 ] ] ], [ [ [ 79.807252, 9.696767 ], [ 79.810339, 9.71078 ], [ 79.814332, 9.713017 ], [ 79.812564, 9.696767 ], [ 79.812593, 9.687686 ], [ 79.811426, 9.686155 ], [ 79.807944, 9.690059 ], [ 79.807252, 9.696767 ] ] ], [ [ [ 79.851921, 9.635246 ], [ 79.854651, 9.63797 ], [ 79.85808, 9.6339 ], [ 79.85941, 9.629406 ], [ 79.864084, 9.627229 ], [ 79.862401, 9.620606 ], [ 79.858287, 9.620947 ], [ 79.854228, 9.62526 ], [ 79.851921, 9.635246 ] ] ], [ [ [ 79.787985, 8.386849 ], [ 79.788994, 8.389013 ], [ 79.794283, 8.390668 ], [ 79.795939, 8.389086 ], [ 79.792254, 8.384843 ], [ 79.795901, 8.382235 ], [ 79.797306, 8.376292 ], [ 79.794758, 8.372433 ], [ 79.791882, 8.375196 ], [ 79.787985, 8.386849 ] ] ], [ [ [ 79.77508, 8.519545 ], [ 79.777822, 8.524885 ], [ 79.779468, 8.524821 ], [ 79.781821, 8.519182 ], [ 79.77997, 8.518169 ], [ 79.779046, 8.512441 ], [ 79.782508, 8.51013 ], [ 79.778983, 8.503305 ], [ 79.777279, 8.503591 ], [ 79.77508, 8.519545 ] ] ], [ [ [ 80.051789, 9.338162 ], [ 80.053238, 9.345078 ], [ 80.055496, 9.348032 ], [ 80.057182, 9.347244 ], [ 80.05693, 9.343323 ], [ 80.058929, 9.341346 ], [ 80.057693, 9.336015 ], [ 80.060234, 9.331792 ], [ 80.057442, 9.330378 ], [ 80.053269, 9.332615 ], [ 80.051789, 9.338162 ] ] ], [ [ [ 80.072729, 9.321298 ], [ 80.082432, 9.321839 ], [ 80.085713, 9.318806 ], [ 80.08503, 9.316652 ], [ 80.087731, 9.314172 ], [ 80.086176, 9.312125 ], [ 80.080539, 9.313117 ], [ 80.076103, 9.316607 ], [ 80.072729, 9.321298 ] ] ], [ [ [ 79.775074, 8.268705 ], [ 79.776227, 8.273962 ], [ 79.779202, 8.274278 ], [ 79.783557, 8.268093 ], [ 79.783557, 8.26548 ], [ 79.781843, 8.262996 ], [ 79.77761, 8.264186 ], [ 79.775074, 8.268705 ] ] ], [ [ [ 79.674872, 9.074303 ], [ 79.678492, 9.076199 ], [ 79.68774, 9.074968 ], [ 79.688556, 9.072847 ], [ 79.677453, 9.072918 ], [ 79.674872, 9.074303 ] ] ], [ [ [ 79.786458, 8.447719 ], [ 79.790281, 8.451377 ], [ 79.794931, 8.450665 ], [ 79.791028, 8.444811 ], [ 79.786458, 8.447719 ] ] ], [ [ [ 79.901082, 8.937882 ], [ 79.902584, 8.93868 ], [ 79.908113, 8.934336 ], [ 79.909014, 8.930146 ], [ 79.907298, 8.929564 ], [ 79.901082, 8.937882 ] ] ], [ [ [ 79.903192, 9.750713 ], [ 79.906429, 9.752507 ], [ 79.91108, 9.746903 ], [ 79.905919, 9.746039 ], [ 79.903192, 9.750713 ] ] ], [ [ [ 79.790357, 8.431247 ], [ 79.794771, 8.429317 ], [ 79.792705, 8.42188 ], [ 79.790883, 8.422462 ], [ 79.790357, 8.431247 ] ] ], [ [ [ 80.285952, 9.46235 ], [ 80.287075, 9.46715 ], [ 80.289984, 9.467259 ], [ 80.291213, 9.462702 ], [ 80.289969, 9.459979 ], [ 80.285952, 9.46235 ] ] ], [ [ [ 79.663227, 9.07421 ], [ 79.669288, 9.076329 ], [ 79.674092, 9.075648 ], [ 79.673781, 9.073747 ], [ 79.665663, 9.07273 ], [ 79.663227, 9.07421 ] ] ], [ [ [ 80.003016, 9.646868 ], [ 80.004967, 9.649247 ], [ 80.01085, 9.6435 ], [ 80.010306, 9.641929 ], [ 80.005617, 9.643909 ], [ 80.003016, 9.646868 ] ] ], [ [ [ 81.461342, 8.110442 ], [ 81.463009, 8.115584 ], [ 81.466228, 8.113219 ], [ 81.465901, 8.108904 ], [ 81.461342, 8.110442 ] ] ], [ [ [ 80.193631, 9.60098 ], [ 80.194562, 9.603954 ], [ 80.198675, 9.603632 ], [ 80.199542, 9.600794 ], [ 80.196559, 9.598948 ], [ 80.193631, 9.60098 ] ] ], [ [ [ 80.287919, 9.470418 ], [ 80.28959, 9.473348 ], [ 80.292879, 9.473684 ], [ 80.293884, 9.46954 ], [ 80.288639, 9.469092 ], [ 80.287919, 9.470418 ] ] ], [ [ [ 79.627343, 9.06611 ], [ 79.628418, 9.069223 ], [ 79.633326, 9.071575 ], [ 79.633882, 9.069881 ], [ 79.628566, 9.064644 ], [ 79.627343, 9.06611 ] ] ], [ [ [ 79.761249, 8.277155 ], [ 79.768506, 8.278428 ], [ 79.769701, 8.276043 ], [ 79.763736, 8.274332 ], [ 79.761249, 8.277155 ] ] ], [ [ [ 79.600955, 9.072797 ], [ 79.602177, 9.074492 ], [ 79.605821, 9.075607 ], [ 79.608124, 9.073206 ], [ 79.607216, 9.071585 ], [ 79.601993, 9.071697 ], [ 79.600955, 9.072797 ] ] ], [ [ [ 79.59133, 9.079729 ], [ 79.595564, 9.081662 ], [ 79.598145, 9.077085 ], [ 79.594894, 9.076076 ], [ 79.59133, 9.079729 ] ] ], [ [ [ 79.582944, 9.083141 ], [ 79.586186, 9.085152 ], [ 79.58994, 9.084867 ], [ 79.58994, 9.082395 ], [ 79.584839, 9.080927 ], [ 79.582944, 9.083141 ] ] ], [ [ [ 79.544428, 9.089084 ], [ 79.546459, 9.093755 ], [ 79.549106, 9.093219 ], [ 79.548734, 9.087249 ], [ 79.544428, 9.089084 ] ] ], [ [ [ 79.522319, 9.10673 ], [ 79.527068, 9.108585 ], [ 79.530118, 9.105795 ], [ 79.526016, 9.103603 ], [ 79.522319, 9.10673 ] ] ], [ [ [ 79.883279, 9.44245 ], [ 79.885846, 9.443487 ], [ 79.890065, 9.438212 ], [ 79.887414, 9.436642 ], [ 79.883279, 9.44245 ] ] ], [ [ [ 80.312555, 9.4653 ], [ 80.315494, 9.468111 ], [ 80.319554, 9.465212 ], [ 80.317893, 9.462395 ], [ 80.312555, 9.4653 ] ] ], [ [ [ 80.266369, 9.468005 ], [ 80.269503, 9.470989 ], [ 80.273436, 9.467565 ], [ 80.269888, 9.465334 ], [ 80.266369, 9.468005 ] ] ], [ [ [ 80.309862, 9.469416 ], [ 80.314129, 9.474175 ], [ 80.316338, 9.472522 ], [ 80.315015, 9.468454 ], [ 80.309862, 9.469416 ] ] ], [ [ [ 80.275166, 9.490209 ], [ 80.277473, 9.491844 ], [ 80.282246, 9.490306 ], [ 80.281531, 9.487433 ], [ 80.278021, 9.487679 ], [ 80.275166, 9.490209 ] ] ], [ [ [ 80.067843, 9.60886 ], [ 80.069776, 9.610057 ], [ 80.076666, 9.604079 ], [ 80.074804, 9.602823 ], [ 80.067843, 9.60886 ] ] ], [ [ [ 79.790162, 9.685207 ], [ 79.791297, 9.691768 ], [ 79.793334, 9.692027 ], [ 79.793485, 9.683934 ], [ 79.790162, 9.685207 ] ] ], [ [ [ 79.532853, 9.095859 ], [ 79.533863, 9.097951 ], [ 79.536376, 9.097993 ], [ 79.535394, 9.095752 ], [ 79.532853, 9.095859 ] ] ] ] } }
]
}
