{
"type": "FeatureCollection",
"name": "Sudan",
"crs": { "type": "name", "properties": { "name": "urn:ogc:def:crs:OGC:1.3:CRS84" } },
"features": [
{ "type": "Feature", "properties": { "id": "SD", "CNTR_ID": "SD", "CNTR_NAME": "السودان-Sudan", "NAME_ENGL": "Sudan", "ISO3_CODE": "SDN", "FID": "SD" }, "geometry": { "type": "MultiPolygon", "coordinates": [ [ [ [ 33.182633, 22.00166 ], [ 33.56398, 21.725482 ], [ 33.679224, 21.737683 ], [ 33.75, 21.745175 ], [ 33.959245, 21.767439 ], [ 33.992039, 21.770929 ], [ 34.00521, 21.77233 ], [ 34.027313, 21.834913 ], [ 34.08562, 22.0 ], [ 34.086529, 22.002508 ], [ 34.231217, 22.002644 ], [ 34.239416, 22.002652 ], [ 34.371867, 22.002776 ], [ 34.6174, 22.003007 ], [ 34.780703, 22.00316 ], [ 35.163072, 22.003519 ], [ 35.744166, 22.004065 ], [ 35.783258, 22.004101 ], [ 36.386829, 22.004668 ], [ 36.414663, 22.004694 ], [ 36.467393, 22.004744 ], [ 36.64575, 22.004911 ], [ 36.879315, 22.00513 ], [ 36.882499, 22.005133 ], [ 36.866009, 21.974579 ], [ 36.883455, 21.93967 ], [ 36.883088, 21.930925 ], [ 36.872591, 21.906605 ], [ 36.878201, 21.894081 ], [ 36.879275, 21.87636 ], [ 36.876753, 21.859966 ], [ 36.886364, 21.823009 ], [ 36.877551, 21.79777 ], [ 36.869302, 21.790869 ], [ 36.876624, 21.789381 ], [ 36.88052, 21.785637 ], [ 36.883993, 21.770009 ], [ 36.879379, 21.762428 ], [ 36.886351, 21.756851 ], [ 36.898218, 21.728393 ], [ 36.899217, 21.693608 ], [ 36.888056, 21.684912 ], [ 36.898827, 21.679237 ], [ 36.904395, 21.667738 ], [ 36.904281, 21.652834 ], [ 36.897166, 21.641668 ], [ 36.900275, 21.639424 ], [ 36.909218, 21.639925 ], [ 36.91308, 21.636095 ], [ 36.915615, 21.6248 ], [ 36.91418, 21.612757 ], [ 36.918099, 21.600545 ], [ 36.93206, 21.58561 ], [ 36.941298, 21.559195 ], [ 36.957946, 21.536121 ], [ 36.959075, 21.533335 ], [ 36.967013, 21.513741 ], [ 36.966478, 21.506339 ], [ 36.951397, 21.489604 ], [ 36.960692, 21.486116 ], [ 36.969441, 21.496068 ], [ 36.9761, 21.494548 ], [ 36.985498, 21.481739 ], [ 37.000815, 21.446648 ], [ 37.011946, 21.430323 ], [ 37.005888, 21.417781 ], [ 36.986807, 21.408895 ], [ 36.982637, 21.402602 ], [ 36.989413, 21.40159 ], [ 37.005748, 21.413503 ], [ 37.017179, 21.414179 ], [ 37.04309, 21.386481 ], [ 37.05423, 21.364661 ], [ 37.043109, 21.355213 ], [ 37.016744, 21.36194 ], [ 37.008359, 21.349081 ], [ 37.017939, 21.346956 ], [ 37.022645, 21.340815 ], [ 37.03116, 21.349884 ], [ 37.044095, 21.349938 ], [ 37.056361, 21.353927 ], [ 37.06281, 21.351908 ], [ 37.091303, 21.324094 ], [ 37.134296, 21.267024 ], [ 37.165027, 21.238854 ], [ 37.192328, 21.220798 ], [ 37.20093, 21.208176 ], [ 37.211547, 21.200131 ], [ 37.229047, 21.180039 ], [ 37.238219, 21.1725 ], [ 37.258165, 21.144659 ], [ 37.274651, 21.128563 ], [ 37.29097, 21.089057 ], [ 37.315401, 21.068756 ], [ 37.31624, 21.063235 ], [ 37.303742, 21.034971 ], [ 37.292079, 21.034893 ], [ 37.296411, 21.026818 ], [ 37.294497, 21.021567 ], [ 37.283943, 21.018523 ], [ 37.262287, 21.01986 ], [ 37.257662, 21.015166 ], [ 37.256845, 21.004299 ], [ 37.253249, 21.001455 ], [ 37.229047, 21.046402 ], [ 37.212038, 21.077982 ], [ 37.20568, 21.095816 ], [ 37.220048, 21.096954 ], [ 37.229047, 21.083228 ], [ 37.239868, 21.066721 ], [ 37.255962, 21.055171 ], [ 37.27366, 21.04892 ], [ 37.270484, 21.061586 ], [ 37.250075, 21.0803 ], [ 37.237916, 21.10268 ], [ 37.235145, 21.113999 ], [ 37.239261, 21.123383 ], [ 37.236684, 21.13287 ], [ 37.229047, 21.135565 ], [ 37.210851, 21.141985 ], [ 37.206963, 21.140611 ], [ 37.204057, 21.135279 ], [ 37.19914, 21.135947 ], [ 37.196592, 21.142736 ], [ 37.199947, 21.151036 ], [ 37.19446, 21.159852 ], [ 37.183419, 21.157794 ], [ 37.179049, 21.144408 ], [ 37.167193, 21.148314 ], [ 37.162882, 21.167579 ], [ 37.172323, 21.194745 ], [ 37.157704, 21.217877 ], [ 37.139113, 21.225392 ], [ 37.128563, 21.224522 ], [ 37.120478, 21.220191 ], [ 37.117621, 21.212231 ], [ 37.112152, 21.2081 ], [ 37.105724, 21.203746 ], [ 37.09824, 21.187998 ], [ 37.098206, 21.175299 ], [ 37.103998, 21.1594 ], [ 37.112152, 21.156965 ], [ 37.1291, 21.151903 ], [ 37.121254, 21.139789 ], [ 37.126019, 21.127236 ], [ 37.120102, 21.111222 ], [ 37.125134, 21.102855 ], [ 37.128932, 21.086934 ], [ 37.125185, 21.076237 ], [ 37.115728, 21.070937 ], [ 37.112152, 21.072404 ], [ 37.101652, 21.076712 ], [ 37.094827, 21.073633 ], [ 37.091948, 21.057441 ], [ 37.094535, 21.040323 ], [ 37.096431, 21.036658 ], [ 37.108905, 21.029535 ], [ 37.110573, 21.01352 ], [ 37.112152, 21.01195 ], [ 37.128467, 20.995043 ], [ 37.13365, 20.97963 ], [ 37.141522, 20.967186 ], [ 37.145273, 20.95086 ], [ 37.152286, 20.939937 ], [ 37.15243, 20.932826 ], [ 37.16063, 20.918064 ], [ 37.160024, 20.89929 ], [ 37.166435, 20.890263 ], [ 37.169861, 20.874997 ], [ 37.171549, 20.843704 ], [ 37.168572, 20.799063 ], [ 37.174156, 20.786573 ], [ 37.177508, 20.779077 ], [ 37.179389, 20.76188 ], [ 37.174575, 20.749745 ], [ 37.183678, 20.727168 ], [ 37.179475, 20.709616 ], [ 37.180471, 20.690653 ], [ 37.187375, 20.682117 ], [ 37.194065, 20.66482 ], [ 37.202581, 20.658171 ], [ 37.207986, 20.649541 ], [ 37.21109, 20.617533 ], [ 37.212865, 20.614501 ], [ 37.223131, 20.59696 ], [ 37.227301, 20.581839 ], [ 37.236081, 20.565943 ], [ 37.240791, 20.542862 ], [ 37.239743, 20.524986 ], [ 37.231156, 20.488319 ], [ 37.236671, 20.464424 ], [ 37.217494, 20.461317 ], [ 37.212865, 20.461917 ], [ 37.197436, 20.463918 ], [ 37.191678, 20.460553 ], [ 37.189271, 20.454454 ], [ 37.191326, 20.439523 ], [ 37.199467, 20.425942 ], [ 37.206645, 20.400554 ], [ 37.201173, 20.384676 ], [ 37.190561, 20.370224 ], [ 37.192624, 20.357061 ], [ 37.188437, 20.335311 ], [ 37.193857, 20.330917 ], [ 37.194653, 20.306135 ], [ 37.203526, 20.28742 ], [ 37.205631, 20.263949 ], [ 37.204228, 20.23661 ], [ 37.196802, 20.239022 ], [ 37.193246, 20.22488 ], [ 37.19562, 20.219501 ], [ 37.202738, 20.223643 ], [ 37.204733, 20.220058 ], [ 37.207977, 20.191029 ], [ 37.212744, 20.180451 ], [ 37.210313, 20.174436 ], [ 37.212865, 20.149749 ], [ 37.217343, 20.106422 ], [ 37.217373, 20.0816 ], [ 37.212865, 20.066441 ], [ 37.212839, 20.066351 ], [ 37.212678, 20.060183 ], [ 37.204138, 20.046164 ], [ 37.200397, 20.045446 ], [ 37.200438, 20.052489 ], [ 37.197272, 20.051184 ], [ 37.192195, 20.044141 ], [ 37.190615, 20.037809 ], [ 37.18622, 20.041495 ], [ 37.182089, 20.035555 ], [ 37.18273, 20.027964 ], [ 37.185017, 20.020862 ], [ 37.189073, 20.01918 ], [ 37.193023, 20.010205 ], [ 37.192231, 20.005537 ], [ 37.195887, 19.999454 ], [ 37.195941, 19.982542 ], [ 37.202236, 19.969621 ], [ 37.208375, 19.964434 ], [ 37.211806, 19.947384 ], [ 37.20557, 19.943087 ], [ 37.210976, 19.937148 ], [ 37.212865, 19.942327 ], [ 37.212984, 19.942653 ], [ 37.217998, 19.938958 ], [ 37.224085, 19.913476 ], [ 37.227802, 19.911339 ], [ 37.230614, 19.905286 ], [ 37.229433, 19.898961 ], [ 37.234293, 19.896275 ], [ 37.235808, 19.892033 ], [ 37.239434, 19.89267 ], [ 37.247451, 19.877191 ], [ 37.254114, 19.871992 ], [ 37.253265, 19.867867 ], [ 37.257836, 19.860371 ], [ 37.253696, 19.850779 ], [ 37.25971, 19.845822 ], [ 37.258713, 19.841711 ], [ 37.254905, 19.83886 ], [ 37.255989, 19.834241 ], [ 37.259215, 19.834097 ], [ 37.260505, 19.838268 ], [ 37.264254, 19.840026 ], [ 37.266251, 19.845126 ], [ 37.268305, 19.844378 ], [ 37.269328, 19.841362 ], [ 37.268761, 19.838154 ], [ 37.26542, 19.835467 ], [ 37.2677, 19.826303 ], [ 37.265736, 19.79529 ], [ 37.263179, 19.788082 ], [ 37.266025, 19.78303 ], [ 37.267379, 19.76508 ], [ 37.26694, 19.755052 ], [ 37.261741, 19.738271 ], [ 37.26333, 19.710845 ], [ 37.26169, 19.702349 ], [ 37.258055, 19.700111 ], [ 37.256678, 19.696502 ], [ 37.257207, 19.684733 ], [ 37.260656, 19.681992 ], [ 37.256244, 19.671746 ], [ 37.245888, 19.659109 ], [ 37.243942, 19.666513 ], [ 37.248098, 19.675758 ], [ 37.247787, 19.681383 ], [ 37.244816, 19.684603 ], [ 37.240519, 19.682857 ], [ 37.237717, 19.674134 ], [ 37.239856, 19.668834 ], [ 37.236833, 19.664144 ], [ 37.236913, 19.659265 ], [ 37.234095, 19.657066 ], [ 37.241069, 19.650669 ], [ 37.238394, 19.633358 ], [ 37.239501, 19.624863 ], [ 37.242283, 19.621729 ], [ 37.240283, 19.60855 ], [ 37.237768, 19.605379 ], [ 37.233517, 19.607024 ], [ 37.228077, 19.618161 ], [ 37.227925, 19.618376 ], [ 37.227713, 19.618538 ], [ 37.227459, 19.618633 ], [ 37.227187, 19.61865 ], [ 37.226921, 19.61859 ], [ 37.226688, 19.618457 ], [ 37.226507, 19.618265 ], [ 37.226396, 19.61803 ], [ 37.226365, 19.617773 ], [ 37.226581, 19.612828 ], [ 37.218565, 19.605542 ], [ 37.220126, 19.603755 ], [ 37.223609, 19.607423 ], [ 37.229093, 19.606645 ], [ 37.239049, 19.597449 ], [ 37.23591, 19.59043 ], [ 37.241632, 19.580761 ], [ 37.241478, 19.571247 ], [ 37.246796, 19.55841 ], [ 37.247585, 19.550727 ], [ 37.25462, 19.544026 ], [ 37.258376, 19.535869 ], [ 37.263573, 19.531011 ], [ 37.273127, 19.515866 ], [ 37.275093, 19.507862 ], [ 37.280305, 19.508681 ], [ 37.283072, 19.495911 ], [ 37.286784, 19.49142 ], [ 37.290964, 19.489767 ], [ 37.292943, 19.485889 ], [ 37.294472, 19.477607 ], [ 37.292708, 19.472602 ], [ 37.289063, 19.472568 ], [ 37.287004, 19.479204 ], [ 37.283282, 19.47975 ], [ 37.281604, 19.478285 ], [ 37.282758, 19.470763 ], [ 37.284808, 19.466961 ], [ 37.289204, 19.463948 ], [ 37.294914, 19.444119 ], [ 37.294789, 19.434303 ], [ 37.299474, 19.431672 ], [ 37.302567, 19.427235 ], [ 37.302176, 19.421389 ], [ 37.30473, 19.410473 ], [ 37.302494, 19.404549 ], [ 37.308887, 19.395797 ], [ 37.310808, 19.381929 ], [ 37.313957, 19.375406 ], [ 37.315698, 19.366302 ], [ 37.320086, 19.358951 ], [ 37.320309, 19.340893 ], [ 37.317424, 19.337561 ], [ 37.31649, 19.332209 ], [ 37.309731, 19.331683 ], [ 37.307319, 19.328302 ], [ 37.310168, 19.325761 ], [ 37.3111, 19.320704 ], [ 37.314872, 19.317576 ], [ 37.318276, 19.306038 ], [ 37.318303, 19.300641 ], [ 37.321585, 19.291149 ], [ 37.323951, 19.291807 ], [ 37.323538, 19.297121 ], [ 37.326922, 19.297783 ], [ 37.3282, 19.296729 ], [ 37.324911, 19.262864 ], [ 37.322237, 19.258081 ], [ 37.326148, 19.249487 ], [ 37.327963, 19.242463 ], [ 37.331014, 19.237104 ], [ 37.331401, 19.223333 ], [ 37.336543, 19.207799 ], [ 37.334047, 19.202282 ], [ 37.334165, 19.198028 ], [ 37.331393, 19.192279 ], [ 37.331033, 19.18824 ], [ 37.333375, 19.174969 ], [ 37.33952, 19.16135 ], [ 37.338697, 19.141484 ], [ 37.340202, 19.139734 ], [ 37.343123, 19.139973 ], [ 37.352469, 19.140254 ], [ 37.358393, 19.135139 ], [ 37.349759, 19.124311 ], [ 37.343123, 19.120873 ], [ 37.333321, 19.123267 ], [ 37.332333, 19.112065 ], [ 37.33777, 19.106107 ], [ 37.340445, 19.107162 ], [ 37.343123, 19.116759 ], [ 37.35633, 19.123109 ], [ 37.356473, 19.110426 ], [ 37.366631, 19.09376 ], [ 37.365034, 19.079802 ], [ 37.372938, 19.073739 ], [ 37.368257, 19.061311 ], [ 37.373576, 19.058774 ], [ 37.373841, 19.058693 ], [ 37.374118, 19.058693 ], [ 37.374382, 19.058772 ], [ 37.374608, 19.058924 ], [ 37.374774, 19.059134 ], [ 37.374864, 19.059381 ], [ 37.37487, 19.059643 ], [ 37.374791, 19.059894 ], [ 37.374635, 19.060112 ], [ 37.372589, 19.062171 ], [ 37.37572, 19.064167 ], [ 37.378841, 19.062339 ], [ 37.37671, 19.058217 ], [ 37.376628, 19.057965 ], [ 37.376632, 19.057702 ], [ 37.376721, 19.057452 ], [ 37.376886, 19.057241 ], [ 37.377112, 19.057086 ], [ 37.378267, 19.056534 ], [ 37.382258, 19.047193 ], [ 37.381272, 19.039956 ], [ 37.384238, 19.03556 ], [ 37.392238, 19.022886 ], [ 37.396033, 18.998909 ], [ 37.405688, 18.992896 ], [ 37.408423, 18.988443 ], [ 37.403621, 18.976956 ], [ 37.396881, 18.973744 ], [ 37.394728, 18.961869 ], [ 37.397345, 18.949494 ], [ 37.409037, 18.934143 ], [ 37.409961, 18.923567 ], [ 37.415381, 18.914711 ], [ 37.411266, 18.894019 ], [ 37.41401, 18.874359 ], [ 37.420159, 18.868618 ], [ 37.433678, 18.838175 ], [ 37.445365, 18.82559 ], [ 37.463284, 18.812035 ], [ 37.472345, 18.794128 ], [ 37.482586, 18.784089 ], [ 37.493533, 18.760466 ], [ 37.504557, 18.747274 ], [ 37.508673, 18.732853 ], [ 37.514651, 18.729761 ], [ 37.525876, 18.732383 ], [ 37.532161, 18.727091 ], [ 37.54203, 18.718781 ], [ 37.566696, 18.718269 ], [ 37.57407, 18.711988 ], [ 37.58246, 18.71462 ], [ 37.638178, 18.720374 ], [ 37.658247, 18.724761 ], [ 37.674462, 18.73663 ], [ 37.681493, 18.722247 ], [ 37.695457, 18.711085 ], [ 37.701153, 18.703899 ], [ 37.718258, 18.706254 ], [ 37.728396, 18.710239 ], [ 37.740857, 18.706419 ], [ 37.748561, 18.694364 ], [ 37.745661, 18.686625 ], [ 37.746135, 18.681814 ], [ 37.755296, 18.677644 ], [ 37.766198, 18.668879 ], [ 37.766663, 18.665646 ], [ 37.766658, 18.665391 ], [ 37.766576, 18.66515 ], [ 37.766422, 18.664943 ], [ 37.76621, 18.664788 ], [ 37.76596, 18.664699 ], [ 37.765693, 18.664684 ], [ 37.765433, 18.664744 ], [ 37.765202, 18.664875 ], [ 37.754865, 18.672944 ], [ 37.749863, 18.668628 ], [ 37.738919, 18.671752 ], [ 37.734952, 18.669502 ], [ 37.732608, 18.66558 ], [ 37.735923, 18.650213 ], [ 37.740585, 18.644647 ], [ 37.738267, 18.636208 ], [ 37.743153, 18.631054 ], [ 37.764482, 18.62592 ], [ 37.770827, 18.631321 ], [ 37.772133, 18.638116 ], [ 37.767753, 18.638395 ], [ 37.764584, 18.633264 ], [ 37.762137, 18.634345 ], [ 37.762853, 18.644402 ], [ 37.759098, 18.646738 ], [ 37.759161, 18.650213 ], [ 37.765335, 18.663237 ], [ 37.765495, 18.663465 ], [ 37.765722, 18.663634 ], [ 37.765994, 18.663725 ], [ 37.766282, 18.66373 ], [ 37.766557, 18.663648 ], [ 37.76679, 18.663488 ], [ 37.766958, 18.663265 ], [ 37.767043, 18.663003 ], [ 37.768865, 18.650359 ], [ 37.782656, 18.640799 ], [ 37.797817, 18.621443 ], [ 37.803459, 18.617928 ], [ 37.906969, 18.583815 ], [ 37.941756, 18.564009 ], [ 37.967238, 18.538146 ], [ 37.997475, 18.493807 ], [ 38.015222, 18.475511 ], [ 38.056336, 18.446294 ], [ 38.073218, 18.436944 ], [ 38.113629, 18.414561 ], [ 38.113259, 18.405036 ], [ 38.098055, 18.397591 ], [ 38.08745, 18.388529 ], [ 38.086563, 18.386536 ], [ 38.08229, 18.376935 ], [ 38.079417, 18.358407 ], [ 38.080666, 18.346209 ], [ 38.086327, 18.33188 ], [ 38.087354, 18.320387 ], [ 38.09621, 18.30862 ], [ 38.094703, 18.298505 ], [ 38.114602, 18.267831 ], [ 38.123065, 18.262095 ], [ 38.139805, 18.255043 ], [ 38.150334, 18.252975 ], [ 38.158868, 18.253633 ], [ 38.159202, 18.244119 ], [ 38.164751, 18.238696 ], [ 38.176746, 18.236833 ], [ 38.196431, 18.229458 ], [ 38.229346, 18.227282 ], [ 38.240197, 18.230689 ], [ 38.255045, 18.242331 ], [ 38.256361, 18.251614 ], [ 38.249818, 18.262682 ], [ 38.255162, 18.27689 ], [ 38.260294, 18.278766 ], [ 38.272187, 18.27672 ], [ 38.283542, 18.279679 ], [ 38.283074, 18.286405 ], [ 38.275479, 18.293682 ], [ 38.279161, 18.294873 ], [ 38.28696, 18.288911 ], [ 38.295434, 18.277498 ], [ 38.308871, 18.26469 ], [ 38.299796, 18.26315 ], [ 38.29394, 18.269169 ], [ 38.285276, 18.270983 ], [ 38.266297, 18.267578 ], [ 38.264568, 18.259574 ], [ 38.274136, 18.245563 ], [ 38.261074, 18.219563 ], [ 38.264021, 18.209692 ], [ 38.275022, 18.203451 ], [ 38.294134, 18.199086 ], [ 38.306543, 18.186067 ], [ 38.342993, 18.172727 ], [ 38.368659, 18.180239 ], [ 38.366899, 18.186993 ], [ 38.357128, 18.195256 ], [ 38.358983, 18.200092 ], [ 38.366977, 18.202686 ], [ 38.383515, 18.200452 ], [ 38.399566, 18.183492 ], [ 38.40401, 18.175749 ], [ 38.403675, 18.166701 ], [ 38.397911, 18.161501 ], [ 38.396048, 18.15509 ], [ 38.398144, 18.14507 ], [ 38.409851, 18.117267 ], [ 38.44217, 18.10309 ], [ 38.450254, 18.107725 ], [ 38.455992, 18.11816 ], [ 38.462983, 18.12007 ], [ 38.477173, 18.098859 ], [ 38.474991, 18.095689 ], [ 38.47139, 18.094805 ], [ 38.459593, 18.100716 ], [ 38.460271, 18.087923 ], [ 38.466326, 18.082323 ], [ 38.478367, 18.078326 ], [ 38.486734, 18.069525 ], [ 38.487935, 18.059361 ], [ 38.49742, 18.055129 ], [ 38.507785, 18.058539 ], [ 38.521755, 18.069718 ], [ 38.5185, 18.077753 ], [ 38.516726, 18.093287 ], [ 38.505426, 18.10724 ], [ 38.505694, 18.110921 ], [ 38.508109, 18.111055 ], [ 38.513494, 18.10399 ], [ 38.524058, 18.097592 ], [ 38.546911, 18.077435 ], [ 38.55966, 18.051859 ], [ 38.558694, 18.030678 ], [ 38.566154, 18.025757 ], [ 38.575457, 18.026316 ], [ 38.58005, 18.020511 ], [ 38.579522, 18.014662 ], [ 38.570382, 18.005549 ], [ 38.569551, 18.005042 ], [ 38.561908, 18.000709 ], [ 38.471362, 17.916048 ], [ 38.457057, 17.902667 ], [ 38.452379, 17.898291 ], [ 38.447358, 17.888642 ], [ 38.446131, 17.881628 ], [ 38.413154, 17.807916 ], [ 38.390029, 17.756206 ], [ 38.387498, 17.731704 ], [ 38.364878, 17.685982 ], [ 38.350824, 17.661829 ], [ 38.348305, 17.654218 ], [ 38.341523, 17.649586 ], [ 38.298981, 17.639291 ], [ 38.288191, 17.633369 ], [ 38.281952, 17.626961 ], [ 38.280657, 17.625632 ], [ 38.275607, 17.592588 ], [ 38.272689, 17.585037 ], [ 38.269829, 17.580959 ], [ 38.26647, 17.576169 ], [ 38.264734, 17.565116 ], [ 38.260047, 17.558596 ], [ 38.24322, 17.554386 ], [ 38.231422, 17.55597 ], [ 38.226315, 17.557877 ], [ 38.212445, 17.563057 ], [ 38.195116, 17.545229 ], [ 38.189329, 17.565243 ], [ 38.180759, 17.579112 ], [ 38.176701, 17.5818 ], [ 38.166097, 17.572979 ], [ 38.130144, 17.573017 ], [ 38.11248, 17.562916 ], [ 38.108881, 17.558758 ], [ 38.106354, 17.533182 ], [ 38.101369, 17.522262 ], [ 38.103152, 17.495532 ], [ 38.107188, 17.484728 ], [ 38.106471, 17.480535 ], [ 38.089818, 17.482649 ], [ 38.073218, 17.48221 ], [ 38.070729, 17.482144 ], [ 38.067618, 17.552177 ], [ 38.061673, 17.563494 ], [ 38.056969, 17.564613 ], [ 38.041023, 17.553776 ], [ 38.025567, 17.549079 ], [ 38.018401, 17.549179 ], [ 38.006847, 17.557492 ], [ 38.003859, 17.557017 ], [ 37.972491, 17.515812 ], [ 37.96878, 17.505521 ], [ 37.976867, 17.491153 ], [ 37.975356, 17.488729 ], [ 37.958902, 17.476174 ], [ 37.942656, 17.471815 ], [ 37.917708, 17.457098 ], [ 37.902223, 17.45647 ], [ 37.890716, 17.452114 ], [ 37.883486, 17.452299 ], [ 37.871873, 17.452727 ], [ 37.867714, 17.455367 ], [ 37.86193, 17.462481 ], [ 37.855584, 17.487825 ], [ 37.839376, 17.498815 ], [ 37.825324, 17.500123 ], [ 37.788554, 17.496016 ], [ 37.775563, 17.480416 ], [ 37.780221, 17.463002 ], [ 37.781728, 17.442581 ], [ 37.772786, 17.431334 ], [ 37.764124, 17.384176 ], [ 37.749485, 17.38621 ], [ 37.736914, 17.380583 ], [ 37.658247, 17.37664 ], [ 37.614424, 17.374443 ], [ 37.516674, 17.33716 ], [ 37.507009, 17.317296 ], [ 37.505505, 17.30821 ], [ 37.494179, 17.306656 ], [ 37.492737, 17.303922 ], [ 37.493, 17.29604 ], [ 37.497735, 17.285693 ], [ 37.515761, 17.277562 ], [ 37.521267, 17.268492 ], [ 37.518572, 17.260101 ], [ 37.500823, 17.253841 ], [ 37.496121, 17.248639 ], [ 37.495934, 17.228032 ], [ 37.492983, 17.21875 ], [ 37.497979, 17.2092 ], [ 37.506942, 17.204087 ], [ 37.508448, 17.199892 ], [ 37.50525, 17.196205 ], [ 37.502626, 17.19318 ], [ 37.485371, 17.188439 ], [ 37.476793, 17.17896 ], [ 37.470232, 17.164353 ], [ 37.466158, 17.158295 ], [ 37.468034, 17.147423 ], [ 37.467022, 17.144938 ], [ 37.459209, 17.139429 ], [ 37.45479, 17.12786 ], [ 37.436984, 17.103333 ], [ 37.421969, 17.102874 ], [ 37.415017, 17.099041 ], [ 37.39424, 17.04821 ], [ 37.35096, 17.068158 ], [ 37.331183, 17.086327 ], [ 37.312713, 17.09389 ], [ 37.253683, 17.076078 ], [ 37.218647, 17.078056 ], [ 37.212865, 17.075811 ], [ 37.209863, 17.074645 ], [ 37.195914, 17.063442 ], [ 37.131048, 17.05755 ], [ 37.124095, 17.060905 ], [ 37.112152, 17.079997 ], [ 37.098667, 17.086605 ], [ 37.081732, 17.084045 ], [ 37.059352, 17.087701 ], [ 37.040612, 17.098708 ], [ 37.03256, 17.100173 ], [ 37.020033, 17.094167 ], [ 37.004725, 17.071771 ], [ 37.004, 17.067309 ], [ 37.014061, 17.051369 ], [ 37.017793, 17.030504 ], [ 37.016994, 17.016274 ], [ 37.012418, 17.007799 ], [ 36.996501, 16.997799 ], [ 36.988203, 16.988081 ], [ 36.983744, 16.972945 ], [ 36.989344, 16.957992 ], [ 37.002246, 16.943032 ], [ 37.004656, 16.936125 ], [ 36.999079, 16.911204 ], [ 37.001539, 16.898869 ], [ 37.010659, 16.879592 ], [ 37.012749, 16.866632 ], [ 37.003244, 16.82848 ], [ 37.007461, 16.820442 ], [ 37.027335, 16.802299 ], [ 37.028681, 16.79731 ], [ 37.010307, 16.777889 ], [ 36.996952, 16.773555 ], [ 36.990224, 16.767265 ], [ 36.983773, 16.749085 ], [ 36.991475, 16.73589 ], [ 36.991324, 16.728731 ], [ 36.958281, 16.6896 ], [ 36.934052, 16.67892 ], [ 36.902228, 16.675048 ], [ 36.89438, 16.660829 ], [ 36.905811, 16.635488 ], [ 36.903426, 16.610383 ], [ 36.890169, 16.567473 ], [ 36.887916, 16.548684 ], [ 36.899059, 16.499398 ], [ 36.907719, 16.485073 ], [ 36.922149, 16.472284 ], [ 36.938169, 16.446132 ], [ 36.960114, 16.436094 ], [ 36.964956, 16.429378 ], [ 36.949566, 16.369353 ], [ 36.937287, 16.358097 ], [ 36.93405, 16.350316 ], [ 36.946897, 16.31356 ], [ 36.947873, 16.294409 ], [ 36.958706, 16.290444 ], [ 36.960839, 16.285386 ], [ 36.955966, 16.279178 ], [ 36.93002, 16.260764 ], [ 36.900494, 16.22752 ], [ 36.892798, 16.213933 ], [ 36.884666, 16.179763 ], [ 36.829031, 16.003573 ], [ 36.816325, 15.974128 ], [ 36.815459, 15.95598 ], [ 36.768444, 15.83155 ], [ 36.746555, 15.80013 ], [ 36.699697, 15.712522 ], [ 36.689243, 15.673458 ], [ 36.673218, 15.636191 ], [ 36.639242, 15.523318 ], [ 36.631538, 15.492542 ], [ 36.629827, 15.467879 ], [ 36.615261, 15.441522 ], [ 36.613366, 15.413529 ], [ 36.589072, 15.359522 ], [ 36.580746, 15.329409 ], [ 36.553016, 15.262349 ], [ 36.547787, 15.238695 ], [ 36.541027, 15.227881 ], [ 36.525001, 15.215903 ], [ 36.513716, 15.21229 ], [ 36.495986, 15.212899 ], [ 36.478202, 15.203691 ], [ 36.439368, 15.156436 ], [ 36.449765, 15.098554 ], [ 36.450597, 15.091673 ], [ 36.468275, 14.945344 ], [ 36.472121, 14.855168 ], [ 36.482136, 14.791061 ], [ 36.489803, 14.711496 ], [ 36.50014, 14.604184 ], [ 36.505563, 14.512393 ], [ 36.510789, 14.489808 ], [ 36.510185, 14.465013 ], [ 36.519567, 14.405395 ], [ 36.526331, 14.333408 ], [ 36.545056, 14.275534 ], [ 36.55444, 14.260851 ], [ 36.56034, 14.257713 ], [ 36.55719, 14.240343 ], [ 36.497951, 14.063823 ], [ 36.475686, 14.009279 ], [ 36.452311, 13.977549 ], [ 36.456374, 13.944795 ], [ 36.474848, 13.909682 ], [ 36.488395, 13.865693 ], [ 36.498279, 13.84519 ], [ 36.500178, 13.832284 ], [ 36.489381, 13.820187 ], [ 36.479989, 13.802173 ], [ 36.471566, 13.796715 ], [ 36.452918, 13.765221 ], [ 36.42214, 13.727569 ], [ 36.394622, 13.635973 ], [ 36.386829, 13.614155 ], [ 36.375383, 13.582104 ], [ 36.373457, 13.528906 ], [ 36.332623, 13.437598 ], [ 36.292082, 13.32392 ], [ 36.280731, 13.304794 ], [ 36.252497, 13.283398 ], [ 36.247049, 13.271916 ], [ 36.191069, 13.058566 ], [ 36.183635, 13.040152 ], [ 36.180337, 13.01357 ], [ 36.1506, 12.941047 ], [ 36.152475, 12.927243 ], [ 36.17627, 12.901105 ], [ 36.182024, 12.887938 ], [ 36.176697, 12.858216 ], [ 36.178043, 12.777748 ], [ 36.176059, 12.753307 ], [ 36.173489, 12.740778 ], [ 36.157276, 12.709562 ], [ 36.155598, 12.683406 ], [ 36.152491, 12.681398 ], [ 36.112753, 12.684016 ], [ 36.10822, 12.704771 ], [ 36.100227, 12.71255 ], [ 36.077288, 12.723426 ], [ 36.06846, 12.724133 ], [ 36.045949, 12.719055 ], [ 36.019391, 12.72491 ], [ 35.986935, 12.720065 ], [ 35.951282, 12.705474 ], [ 35.884693, 12.691687 ], [ 35.841486, 12.676038 ], [ 35.786031, 12.664376 ], [ 35.764911, 12.672508 ], [ 35.757047, 12.670782 ], [ 35.745695, 12.666951 ], [ 35.735766, 12.666749 ], [ 35.724704, 12.672164 ], [ 35.713115, 12.671669 ], [ 35.70752, 12.666773 ], [ 35.699496, 12.662707 ], [ 35.689549, 12.660136 ], [ 35.687661, 12.657477 ], [ 35.690919, 12.62877 ], [ 35.688159, 12.615787 ], [ 35.681949, 12.607564 ], [ 35.670887, 12.604001 ], [ 35.64514, 12.603896 ], [ 35.641772, 12.601876 ], [ 35.614729, 12.55773 ], [ 35.610859, 12.548039 ], [ 35.591435, 12.514369 ], [ 35.561123, 12.470928 ], [ 35.544244, 12.437458 ], [ 35.541493, 12.429056 ], [ 35.511031, 12.381064 ], [ 35.50262, 12.367809 ], [ 35.480763, 12.329545 ], [ 35.465369, 12.308007 ], [ 35.446623, 12.27541 ], [ 35.43099, 12.254036 ], [ 35.428544, 12.247795 ], [ 35.437444, 12.227987 ], [ 35.438464, 12.203954 ], [ 35.436212, 12.199319 ], [ 35.42963, 12.192284 ], [ 35.420131, 12.185867 ], [ 35.405866, 12.186645 ], [ 35.395994, 12.183315 ], [ 35.353976, 12.11321 ], [ 35.333739, 12.073104 ], [ 35.34357, 12.059941 ], [ 35.345423, 12.049563 ], [ 35.342273, 12.033429 ], [ 35.333002, 12.019979 ], [ 35.32603, 12.01612 ], [ 35.305789, 12.016536 ], [ 35.302321, 12.012353 ], [ 35.299946, 11.984373 ], [ 35.293401, 11.965576 ], [ 35.275147, 11.935926 ], [ 35.251387, 11.916416 ], [ 35.245947, 11.914513 ], [ 35.217709, 11.88968 ], [ 35.197649, 11.876132 ], [ 35.19348, 11.87186 ], [ 35.181887, 11.866261 ], [ 35.168978, 11.853459 ], [ 35.163072, 11.85183 ], [ 35.153846, 11.849286 ], [ 35.12567, 11.829508 ], [ 35.109672, 11.815893 ], [ 35.081593, 11.782412 ], [ 35.076202, 11.76944 ], [ 35.062346, 11.749597 ], [ 35.054827, 11.734597 ], [ 35.055316, 11.718337 ], [ 35.05934, 11.701493 ], [ 35.066709, 11.675621 ], [ 35.075194, 11.658669 ], [ 35.085523, 11.650516 ], [ 35.091895, 11.632451 ], [ 35.092402, 11.623378 ], [ 35.087922, 11.59628 ], [ 35.089546, 11.546326 ], [ 35.082028, 11.517443 ], [ 35.060879, 11.472981 ], [ 35.059334, 11.437643 ], [ 35.037249, 11.395575 ], [ 34.999084, 11.345992 ], [ 34.999007, 11.342895 ], [ 34.99522, 11.339689 ], [ 34.99196, 11.324896 ], [ 34.978744, 11.294034 ], [ 34.955717, 11.253908 ], [ 34.953849, 11.247417 ], [ 34.957688, 11.236639 ], [ 34.987084, 11.20248 ], [ 34.999843, 11.182178 ], [ 35.006918, 11.159805 ], [ 35.004956, 11.152858 ], [ 35.003029, 11.150592 ], [ 34.998978, 11.124216 ], [ 34.980192, 11.055841 ], [ 34.974743, 11.044665 ], [ 34.971204, 11.018566 ], [ 34.952533, 10.967682 ], [ 34.951145, 10.959627 ], [ 34.952154, 10.951208 ], [ 34.959969, 10.948107 ], [ 34.958263, 10.936142 ], [ 34.960001, 10.932163 ], [ 34.975007, 10.91438 ], [ 34.975106, 10.908896 ], [ 34.972223, 10.900503 ], [ 34.95327, 10.879047 ], [ 34.944332, 10.872143 ], [ 34.909233, 10.828768 ], [ 34.903878, 10.808883 ], [ 34.899121, 10.800651 ], [ 34.887512, 10.790564 ], [ 34.880775, 10.780426 ], [ 34.872656, 10.77616 ], [ 34.863315, 10.766142 ], [ 34.854727, 10.745592 ], [ 34.848159, 10.742985 ], [ 34.833311, 10.744217 ], [ 34.816676, 10.738933 ], [ 34.806812, 10.731977 ], [ 34.803935, 10.728407 ], [ 34.786531, 10.706557 ], [ 34.781495, 10.708343 ], [ 34.777336, 10.712872 ], [ 34.776784, 10.720662 ], [ 34.777877, 10.728407 ], [ 34.78007, 10.743903 ], [ 34.775335, 10.759419 ], [ 34.762193, 10.758999 ], [ 34.756547, 10.762826 ], [ 34.723939, 10.802816 ], [ 34.699104, 10.828404 ], [ 34.676935, 10.844561 ], [ 34.669162, 10.848066 ], [ 34.662509, 10.85539 ], [ 34.641825, 10.870353 ], [ 34.633721, 10.879785 ], [ 34.6174, 10.893365 ], [ 34.608408, 10.900846 ], [ 34.602041, 10.904055 ], [ 34.541623, 10.858207 ], [ 34.508845, 10.839623 ], [ 34.493419, 10.828163 ], [ 34.472142, 10.816025 ], [ 34.450099, 10.785592 ], [ 34.437405, 10.760783 ], [ 34.417171, 10.729917 ], [ 34.415679, 10.728407 ], [ 34.412735, 10.725493 ], [ 34.384375, 10.672337 ], [ 34.332515, 10.620431 ], [ 34.318726, 10.608658 ], [ 34.301238, 10.590813 ], [ 34.29982, 10.587581 ], [ 34.293208, 10.548499 ], [ 34.282961, 10.527221 ], [ 34.282137, 10.518274 ], [ 34.289775, 10.509011 ], [ 34.303936, 10.507861 ], [ 34.308984, 10.505482 ], [ 34.314378, 10.497487 ], [ 34.325387, 10.475393 ], [ 34.324062, 10.464782 ], [ 34.313073, 10.451571 ], [ 34.302812, 10.428731 ], [ 34.296733, 10.408758 ], [ 34.296439, 10.403542 ], [ 34.295931, 10.394531 ], [ 34.314876, 10.341645 ], [ 34.317466, 10.322732 ], [ 34.349854, 10.209388 ], [ 34.345284, 10.182555 ], [ 34.346481, 10.169654 ], [ 34.344453, 10.160321 ], [ 34.333576, 10.139648 ], [ 34.330654, 10.123582 ], [ 34.324064, 10.11505 ], [ 34.307545, 10.100515 ], [ 34.249777, 10.061268 ], [ 34.238064, 10.049458 ], [ 34.232134, 10.038611 ], [ 34.231217, 10.033866 ], [ 34.221482, 9.983461 ], [ 34.225047, 9.967884 ], [ 34.222413, 9.927859 ], [ 34.224621, 9.909766 ], [ 34.2227, 9.893656 ], [ 34.209164, 9.869766 ], [ 34.20427, 9.855017 ], [ 34.20176, 9.841018 ], [ 34.173565, 9.764968 ], [ 34.160723, 9.723042 ], [ 34.153155, 9.708763 ], [ 34.139921, 9.663743 ], [ 34.124059, 9.622631 ], [ 34.113512, 9.590745 ], [ 34.108599, 9.574504 ], [ 34.106849, 9.557829 ], [ 34.113245, 9.498637 ], [ 33.913924, 9.4999 ], [ 33.890621, 9.541391 ], [ 33.8893, 9.628686 ], [ 33.897903, 9.67394 ], [ 33.916315, 9.74485 ], [ 33.925873, 9.763759 ], [ 33.947401, 9.78048 ], [ 33.963111, 9.8034 ], [ 33.977435, 9.875111 ], [ 33.991279, 9.915266 ], [ 33.989791, 9.96179 ], [ 33.997605, 10.002898 ], [ 33.994032, 10.052286 ], [ 33.971955, 10.097858 ], [ 33.968902, 10.140553 ], [ 33.966169, 10.148138 ], [ 33.945709, 10.161059 ], [ 33.897127, 10.171807 ], [ 33.792341, 10.336579 ], [ 33.662617, 10.448307 ], [ 33.485306, 10.651642 ], [ 33.227245, 10.740151 ], [ 33.261987, 10.846326 ], [ 33.238889, 10.977851 ], [ 33.234147, 11.029362 ], [ 33.138194, 11.623784 ], [ 33.177528, 11.754197 ], [ 33.254555, 12.14958 ], [ 33.28794, 12.1986 ], [ 33.290638, 12.207798 ], [ 33.283951, 12.213148 ], [ 32.983733, 12.228096 ], [ 32.743794, 12.231836 ], [ 32.738276, 12.22192 ], [ 32.743898, 12.193285 ], [ 32.740864, 12.148933 ], [ 32.754191, 12.079331 ], [ 32.752368, 12.044283 ], [ 32.756741, 12.010043 ], [ 32.750339, 11.968403 ], [ 32.737435, 11.951235 ], [ 32.131887, 11.938213 ], [ 32.360928, 11.724938 ], [ 32.384498, 11.691143 ], [ 32.391698, 11.659116 ], [ 32.393377, 11.598141 ], [ 32.395494, 11.211299 ], [ 32.401702, 11.178384 ], [ 32.410351, 11.154601 ], [ 32.461831, 11.043292 ], [ 32.424999, 11.0112 ], [ 32.152732, 10.743792 ], [ 32.021573, 10.669351 ], [ 31.989778, 10.645404 ], [ 31.964647, 10.611013 ], [ 31.857164, 10.408463 ], [ 31.789906, 10.306742 ], [ 31.688398, 10.202517 ], [ 31.512506, 10.003845 ], [ 31.356857, 9.809963 ], [ 31.319712, 9.777531 ], [ 31.274681, 9.759942 ], [ 31.185999, 9.75038 ], [ 30.901568, 9.748022 ], [ 30.860342, 9.730792 ], [ 30.826745, 9.723888 ], [ 30.522969, 9.96437 ], [ 30.004487, 10.28309 ], [ 29.947453, 10.286209 ], [ 29.618291, 10.119541 ], [ 29.542074, 10.080926 ], [ 29.533963, 9.752076 ], [ 29.129646, 9.748801 ], [ 29.100629, 9.752753 ], [ 29.088757, 9.751746 ], [ 29.051647, 9.727815 ], [ 29.03755, 9.711126 ], [ 29.019742, 9.700509 ], [ 29.006374, 9.677579 ], [ 28.977011, 9.641156 ], [ 28.976673, 9.734082 ], [ 28.975286, 10.117693 ], [ 27.81506, 10.143391 ], [ 27.814533, 9.800795 ], [ 27.907221, 9.610159 ], [ 27.822264, 9.602094 ], [ 27.758843, 9.603425 ], [ 27.480268, 9.619686 ], [ 27.239296, 9.62565 ], [ 27.135764, 9.623863 ], [ 27.025342, 9.602513 ], [ 27.004157, 9.594536 ], [ 26.992515, 9.593664 ], [ 26.915852, 9.561794 ], [ 26.851747, 9.531168 ], [ 26.751466, 9.497316 ], [ 26.704437, 9.488681 ], [ 26.559024, 9.516626 ], [ 26.481795, 9.538091 ], [ 26.394334, 9.566657 ], [ 26.347915, 9.594597 ], [ 26.33053, 9.613298 ], [ 26.312849, 9.638499 ], [ 26.266344, 9.748472 ], [ 26.211136, 9.912988 ], [ 26.185878, 9.934812 ], [ 26.117594, 9.993807 ], [ 26.114579, 10.010533 ], [ 26.077065, 10.065242 ], [ 26.060511, 10.101125 ], [ 26.046664, 10.120249 ], [ 26.026828, 10.139051 ], [ 25.999915, 10.156612 ], [ 25.958907, 10.174267 ], [ 25.931441, 10.182301 ], [ 25.932419, 10.373339 ], [ 25.920878, 10.403976 ], [ 25.888582, 10.424529 ], [ 25.873074, 10.427808 ], [ 25.865795, 10.435263 ], [ 25.857697, 10.434112 ], [ 25.850684, 10.438231 ], [ 25.836431, 10.433515 ], [ 25.829437, 10.436661 ], [ 25.820857, 10.43153 ], [ 25.81261, 10.438934 ], [ 25.803168, 10.42752 ], [ 25.801044, 10.427139 ], [ 25.794129, 10.425897 ], [ 25.787045, 10.412785 ], [ 25.773206, 10.415537 ], [ 25.74447, 10.405811 ], [ 25.72723, 10.417053 ], [ 25.709315, 10.416847 ], [ 25.700703, 10.412176 ], [ 25.691651, 10.399708 ], [ 25.676096, 10.399089 ], [ 25.664639, 10.403016 ], [ 25.635458, 10.395358 ], [ 25.624343, 10.395725 ], [ 25.606577, 10.386011 ], [ 25.597994, 10.386149 ], [ 25.572051, 10.371622 ], [ 25.560864, 10.368362 ], [ 25.554242, 10.372937 ], [ 25.549838, 10.365907 ], [ 25.53703, 10.361405 ], [ 25.520659, 10.365833 ], [ 25.514512, 10.361023 ], [ 25.506779, 10.367159 ], [ 25.462876, 10.373484 ], [ 25.453811, 10.367534 ], [ 25.443333, 10.367357 ], [ 25.433827, 10.363205 ], [ 25.425117, 10.367076 ], [ 25.417156, 10.362404 ], [ 25.409523, 10.364401 ], [ 25.395872, 10.360595 ], [ 25.393058, 10.360571 ], [ 25.378194, 10.360449 ], [ 25.363401, 10.354214 ], [ 25.356154, 10.345382 ], [ 25.339197, 10.336458 ], [ 25.315782, 10.343024 ], [ 25.30246, 10.33881 ], [ 25.264498, 10.341672 ], [ 25.250475, 10.351019 ], [ 25.217717, 10.338235 ], [ 25.215056, 10.338701 ], [ 25.213446, 10.34374 ], [ 25.209417, 10.344188 ], [ 25.203199, 10.336987 ], [ 25.190312, 10.33148 ], [ 25.184593, 10.321831 ], [ 25.178686, 10.324582 ], [ 25.159768, 10.333391 ], [ 25.14917, 10.333299 ], [ 25.126848, 10.329716 ], [ 25.132007, 10.319111 ], [ 25.130014, 10.316262 ], [ 25.100081, 10.314281 ], [ 25.100933, 10.305196 ], [ 25.093546, 10.296012 ], [ 25.09194, 10.284687 ], [ 25.074335, 10.267451 ], [ 25.071029, 10.25398 ], [ 25.065642, 10.245967 ], [ 25.067457, 10.238728 ], [ 25.061167, 10.234723 ], [ 25.055551, 10.218574 ], [ 25.043075, 10.209015 ], [ 25.033726, 10.179662 ], [ 25.029224, 10.173089 ], [ 25.030775, 10.169579 ], [ 25.03876, 10.165915 ], [ 25.05903, 10.121078 ], [ 25.05307, 10.097275 ], [ 25.030816, 10.071559 ], [ 25.030564, 10.059951 ], [ 25.034722, 10.045933 ], [ 25.033647, 10.035764 ], [ 25.027678, 10.033713 ], [ 25.014189, 10.040818 ], [ 25.009678, 10.040007 ], [ 25.00243, 10.003223 ], [ 24.995526, 9.996975 ], [ 24.983175, 9.992538 ], [ 24.978693, 9.981854 ], [ 24.969947, 9.973308 ], [ 24.966493, 9.962845 ], [ 24.956706, 9.952729 ], [ 24.948178, 9.934132 ], [ 24.924953, 9.922888 ], [ 24.919525, 9.913678 ], [ 24.897751, 9.902944 ], [ 24.885427, 9.890282 ], [ 24.852523, 9.875032 ], [ 24.842674, 9.860262 ], [ 24.827753, 9.849658 ], [ 24.820812, 9.839436 ], [ 24.823047, 9.820606 ], [ 24.811686, 9.805034 ], [ 24.801927, 9.803892 ], [ 24.798606, 9.796515 ], [ 24.78836, 9.790082 ], [ 24.781637, 9.77798 ], [ 24.768492, 9.773624 ], [ 24.762179, 9.764549 ], [ 24.750667, 9.768967 ], [ 24.739099, 9.768575 ], [ 24.740493, 9.756571 ], [ 24.725597, 9.749841 ], [ 24.720567, 9.744349 ], [ 24.724256, 9.73165 ], [ 24.734468, 9.727123 ], [ 24.739155, 9.71394 ], [ 24.740132, 9.668053 ], [ 24.743602, 9.655814 ], [ 24.735713, 9.641875 ], [ 24.732956, 9.625808 ], [ 24.745869, 9.604542 ], [ 24.753255, 9.581723 ], [ 24.754023, 9.520177 ], [ 24.745983, 9.492976 ], [ 24.737848, 9.481413 ], [ 24.685503, 9.445004 ], [ 24.655526, 9.416172 ], [ 24.613181, 9.390693 ], [ 24.596513, 9.375714 ], [ 24.602504, 9.355199 ], [ 24.62437, 9.329668 ], [ 24.625763, 9.322002 ], [ 24.596248, 9.256835 ], [ 24.589824, 9.247745 ], [ 24.582044, 9.221304 ], [ 24.56612, 9.186297 ], [ 24.558154, 9.138011 ], [ 24.547908, 9.107802 ], [ 24.543479, 9.063101 ], [ 24.547078, 9.04585 ], [ 24.563329, 9.001745 ], [ 24.563346, 8.991441 ], [ 24.576589, 8.956671 ], [ 24.57952, 8.935001 ], [ 24.578278, 8.922846 ], [ 24.525819, 8.844503 ], [ 24.512172, 8.837293 ], [ 24.383563, 8.789464 ], [ 24.244241, 8.648708 ], [ 24.223359, 8.642151 ], [ 24.239323, 8.661794 ], [ 24.263066, 8.681386 ], [ 24.263973, 8.690816 ], [ 24.254814, 8.697829 ], [ 24.230096, 8.699419 ], [ 24.197936, 8.68575 ], [ 24.166207, 8.702025 ], [ 24.142259, 8.682198 ], [ 24.11483, 8.690393 ], [ 24.052805, 8.693543 ], [ 24.013145, 8.669485 ], [ 24.00141, 8.665953 ], [ 23.984492, 8.639783 ], [ 23.972096, 8.637819 ], [ 23.968967, 8.639857 ], [ 23.964549, 8.655117 ], [ 23.96557, 8.697542 ], [ 23.948557, 8.713687 ], [ 23.925816, 8.71721 ], [ 23.906971, 8.72013 ], [ 23.871173, 8.718706 ], [ 23.854507, 8.729311 ], [ 23.776715, 8.707192 ], [ 23.733577, 8.713715 ], [ 23.714707, 8.727648 ], [ 23.677323, 8.725733 ], [ 23.625267, 8.754113 ], [ 23.592548, 8.738736 ], [ 23.545863, 8.700957 ], [ 23.527686, 8.698478 ], [ 23.517929, 8.704602 ], [ 23.514166, 8.714127 ], [ 23.523154, 8.734593 ], [ 23.522933, 8.740875 ], [ 23.519945, 8.755314 ], [ 23.506796, 8.777731 ], [ 23.49849, 8.808974 ], [ 23.525056, 8.845065 ], [ 23.58876, 8.97298 ], [ 23.582831, 9.024984 ], [ 23.57714, 9.033689 ], [ 23.568391, 9.029538 ], [ 23.552403, 9.003546 ], [ 23.549604, 8.985564 ], [ 23.53932, 8.95744 ], [ 23.511343, 8.950224 ], [ 23.504748, 8.9519 ], [ 23.466922, 8.971505 ], [ 23.452342, 8.979062 ], [ 23.459588, 9.001 ], [ 23.4605, 9.025775 ], [ 23.466129, 9.050546 ], [ 23.46221, 9.085023 ], [ 23.466922, 9.105702 ], [ 23.482104, 9.172328 ], [ 23.530585, 9.179284 ], [ 23.552677, 9.205377 ], [ 23.571609, 9.210767 ], [ 23.592928, 9.209329 ], [ 23.596563, 9.219901 ], [ 23.608644, 9.224865 ], [ 23.613932, 9.249048 ], [ 23.640065, 9.253038 ], [ 23.658756, 9.289554 ], [ 23.651939, 9.295461 ], [ 23.638464, 9.322808 ], [ 23.638694, 9.375714 ], [ 23.647113, 9.384921 ], [ 23.649036, 9.400828 ], [ 23.659385, 9.409654 ], [ 23.669473, 9.434288 ], [ 23.671427, 9.448809 ], [ 23.661849, 9.461481 ], [ 23.639795, 9.450236 ], [ 23.631894, 9.480312 ], [ 23.632139, 9.491463 ], [ 23.646542, 9.53799 ], [ 23.639392, 9.543584 ], [ 23.629731, 9.542492 ], [ 23.626133, 9.546775 ], [ 23.63144, 9.561083 ], [ 23.698658, 9.678569 ], [ 23.671331, 9.901 ], [ 23.466922, 10.227175 ], [ 23.318504, 10.463797 ], [ 23.270711, 10.49237 ], [ 23.232646, 10.535416 ], [ 23.195968, 10.558336 ], [ 23.182543, 10.574801 ], [ 23.172168, 10.582738 ], [ 23.151239, 10.593904 ], [ 23.132355, 10.628507 ], [ 23.115601, 10.648385 ], [ 23.087298, 10.661863 ], [ 23.057128, 10.685996 ], [ 23.04068, 10.695632 ], [ 23.007282, 10.709642 ], [ 22.985618, 10.761678 ], [ 22.969529, 10.775744 ], [ 22.936143, 10.825278 ], [ 22.92263, 10.850175 ], [ 22.90955, 10.885847 ], [ 22.878637, 10.911409 ], [ 22.874179, 10.922182 ], [ 22.87551, 10.931367 ], [ 22.906719, 11.01906 ], [ 22.931397, 11.10076 ], [ 22.986434, 11.216206 ], [ 22.981088, 11.296255 ], [ 22.975445, 11.303362 ], [ 22.935168, 11.320926 ], [ 22.93989, 11.423439 ], [ 22.830621, 11.415135 ], [ 22.789103, 11.406979 ], [ 22.783666, 11.441479 ], [ 22.760444, 11.470503 ], [ 22.737422, 11.489107 ], [ 22.655464, 11.518501 ], [ 22.608249, 11.56261 ], [ 22.563278, 11.62908 ], [ 22.556334, 11.710018 ], [ 22.583252, 11.852404 ], [ 22.638957, 12.067926 ], [ 22.63194, 12.071599 ], [ 22.623445, 12.060948 ], [ 22.617301, 12.057942 ], [ 22.604005, 12.060805 ], [ 22.594001, 12.066297 ], [ 22.565516, 12.055545 ], [ 22.543484, 12.057956 ], [ 22.524539, 12.049401 ], [ 22.506338, 12.036279 ], [ 22.488282, 12.032313 ], [ 22.478345, 12.034172 ], [ 22.474421, 12.046728 ], [ 22.47939, 12.064062 ], [ 22.47793, 12.075415 ], [ 22.486243, 12.085525 ], [ 22.495569, 12.158669 ], [ 22.490292, 12.172766 ], [ 22.490812, 12.185983 ], [ 22.485282, 12.202033 ], [ 22.474262, 12.218278 ], [ 22.473127, 12.23679 ], [ 22.460315, 12.237816 ], [ 22.463601, 12.247775 ], [ 22.449636, 12.264524 ], [ 22.45262, 12.276717 ], [ 22.441853, 12.285115 ], [ 22.447329, 12.3003 ], [ 22.433936, 12.322634 ], [ 22.432448, 12.342119 ], [ 22.428893, 12.347638 ], [ 22.430813, 12.354973 ], [ 22.425633, 12.372832 ], [ 22.433414, 12.377009 ], [ 22.43391, 12.381064 ], [ 22.42925, 12.389517 ], [ 22.404666, 12.413878 ], [ 22.398842, 12.425042 ], [ 22.389015, 12.431232 ], [ 22.381855, 12.429082 ], [ 22.373526, 12.431547 ], [ 22.366485, 12.444923 ], [ 22.385421, 12.460876 ], [ 22.403333, 12.4945 ], [ 22.416088, 12.510513 ], [ 22.424649, 12.51559 ], [ 22.426436, 12.542152 ], [ 22.455905, 12.633136 ], [ 22.398987, 12.650535 ], [ 22.312513, 12.688002 ], [ 22.196538, 12.753764 ], [ 22.193986, 12.71085 ], [ 22.150731, 12.674269 ], [ 21.985511, 12.632739 ], [ 21.947615, 12.625693 ], [ 21.939488, 12.635196 ], [ 21.936659, 12.644905 ], [ 21.928577, 12.651329 ], [ 21.923205, 12.663461 ], [ 21.91127, 12.674883 ], [ 21.893693, 12.684557 ], [ 21.88757, 12.693794 ], [ 21.884211, 12.707726 ], [ 21.86138, 12.728988 ], [ 21.856164, 12.742476 ], [ 21.860229, 12.761171 ], [ 21.857674, 12.77107 ], [ 21.851758, 12.776666 ], [ 21.839829, 12.781369 ], [ 21.83122, 12.793146 ], [ 21.817053, 12.803651 ], [ 21.815127, 12.811295 ], [ 21.818347, 12.820279 ], [ 21.840044, 12.831037 ], [ 21.848014, 12.841061 ], [ 21.857289, 12.880818 ], [ 21.878829, 12.922481 ], [ 21.884165, 12.948762 ], [ 21.898747, 12.987049 ], [ 21.905765, 12.997836 ], [ 21.928744, 13.019662 ], [ 21.929476, 13.051402 ], [ 21.945515, 13.067778 ], [ 21.974227, 13.076391 ], [ 21.984379, 13.093436 ], [ 22.004779, 13.114619 ], [ 22.010755, 13.141722 ], [ 22.021057, 13.143871 ], [ 22.043601, 13.141316 ], [ 22.067928, 13.144259 ], [ 22.074979, 13.148197 ], [ 22.079765, 13.157979 ], [ 22.087649, 13.164794 ], [ 22.111494, 13.163502 ], [ 22.135962, 13.172445 ], [ 22.143668, 13.181972 ], [ 22.150274, 13.200552 ], [ 22.164454, 13.210959 ], [ 22.177813, 13.227364 ], [ 22.183305, 13.249629 ], [ 22.200544, 13.259632 ], [ 22.209169, 13.273251 ], [ 22.219739, 13.27759 ], [ 22.234713, 13.300582 ], [ 22.249991, 13.306003 ], [ 22.252066, 13.318126 ], [ 22.279289, 13.341489 ], [ 22.281947, 13.349778 ], [ 22.289312, 13.355011 ], [ 22.287944, 13.377456 ], [ 22.276443, 13.400433 ], [ 22.262273, 13.413654 ], [ 22.252481, 13.428199 ], [ 22.239711, 13.436473 ], [ 22.23421, 13.447913 ], [ 22.223753, 13.456279 ], [ 22.218576, 13.465992 ], [ 22.220321, 13.491345 ], [ 22.214215, 13.512425 ], [ 22.223848, 13.536078 ], [ 22.224376, 13.546746 ], [ 22.204513, 13.557215 ], [ 22.18967, 13.582585 ], [ 22.166666, 13.595675 ], [ 22.144949, 13.626286 ], [ 22.140106, 13.645787 ], [ 22.126575, 13.661965 ], [ 22.116021, 13.683284 ], [ 22.130776, 13.709859 ], [ 22.130542, 13.71847 ], [ 22.125454, 13.731485 ], [ 22.108061, 13.752058 ], [ 22.097029, 13.757485 ], [ 22.087831, 13.767988 ], [ 22.076328, 13.773919 ], [ 22.074055, 13.77997 ], [ 22.136924, 13.853824 ], [ 22.22884, 13.953237 ], [ 22.245769, 13.960189 ], [ 22.293672, 13.965558 ], [ 22.323228, 14.01143 ], [ 22.358191, 14.023047 ], [ 22.39479, 14.052752 ], [ 22.440393, 14.054062 ], [ 22.486148, 14.104241 ], [ 22.533632, 14.111213 ], [ 22.566465, 14.181139 ], [ 22.552015, 14.20531 ], [ 22.550216, 14.228344 ], [ 22.542908, 14.234846 ], [ 22.509667, 14.243337 ], [ 22.479216, 14.245433 ], [ 22.465028, 14.243658 ], [ 22.426686, 14.2915 ], [ 22.428545, 14.311753 ], [ 22.453508, 14.329404 ], [ 22.456463, 14.336006 ], [ 22.455556, 14.345081 ], [ 22.440134, 14.373841 ], [ 22.43353, 14.410965 ], [ 22.441781, 14.482793 ], [ 22.431426, 14.49667 ], [ 22.399946, 14.51675 ], [ 22.393496, 14.518305 ], [ 22.386534, 14.512654 ], [ 22.382869, 14.516046 ], [ 22.411905, 14.59873 ], [ 22.442755, 14.605854 ], [ 22.469214, 14.625676 ], [ 22.493697, 14.636484 ], [ 22.517022, 14.64164 ], [ 22.580778, 14.647314 ], [ 22.713752, 14.696851 ], [ 22.71088, 14.726345 ], [ 22.663999, 14.842213 ], [ 22.673211, 14.86627 ], [ 22.681993, 14.877869 ], [ 22.709777, 14.895937 ], [ 22.725133, 14.900519 ], [ 22.742201, 14.898914 ], [ 22.757236, 14.906435 ], [ 22.747497, 14.94927 ], [ 22.750658, 14.967344 ], [ 22.769629, 14.987235 ], [ 22.781157, 14.992999 ], [ 22.792972, 15.004433 ], [ 22.814115, 15.034811 ], [ 22.84511, 15.047957 ], [ 22.857285, 15.060627 ], [ 22.864052, 15.076459 ], [ 22.881503, 15.088487 ], [ 22.896391, 15.092469 ], [ 22.920835, 15.092664 ], [ 22.933734, 15.100317 ], [ 22.937053, 15.124398 ], [ 22.92931, 15.149112 ], [ 22.933695, 15.165755 ], [ 22.972608, 15.190611 ], [ 22.979414, 15.200025 ], [ 22.985157, 15.218128 ], [ 22.996597, 15.225969 ], [ 23.002717, 15.234904 ], [ 23.000908, 15.243644 ], [ 22.986617, 15.263127 ], [ 22.990776, 15.288065 ], [ 23.000813, 15.301521 ], [ 23.003174, 15.312096 ], [ 22.992273, 15.342407 ], [ 22.989059, 15.370519 ], [ 22.991181, 15.403826 ], [ 22.984982, 15.417343 ], [ 22.954235, 15.446466 ], [ 22.951367, 15.448504 ], [ 22.933542, 15.461169 ], [ 22.925498, 15.471812 ], [ 22.919781, 15.492301 ], [ 22.927129, 15.514685 ], [ 22.924432, 15.534569 ], [ 22.927943, 15.551449 ], [ 22.951248, 15.574266 ], [ 22.979689, 15.584685 ], [ 22.999562, 15.598488 ], [ 23.031848, 15.627713 ], [ 23.057762, 15.660853 ], [ 23.077107, 15.675296 ], [ 23.101021, 15.705424 ], [ 23.120663, 15.717522 ], [ 23.126335, 15.718338 ], [ 23.205264, 15.714226 ], [ 23.236139, 15.705273 ], [ 23.269633, 15.704765 ], [ 23.317198, 15.695715 ], [ 23.351872, 15.694588 ], [ 23.441387, 15.710314 ], [ 23.497513, 15.738772 ], [ 23.528683, 15.750622 ], [ 23.586072, 15.762394 ], [ 23.628494, 15.764978 ], [ 23.68707, 15.761675 ], [ 23.73572, 15.75202 ], [ 23.817724, 15.750252 ], [ 23.83512, 15.746084 ], [ 23.861205, 15.733204 ], [ 23.877215, 15.72847 ], [ 23.925816, 15.719029 ], [ 23.964091, 15.711593 ], [ 23.999254, 15.715719 ], [ 23.99954, 17.175332 ], [ 24.0, 19.5 ], [ 24.000097, 19.997894 ], [ 24.99997, 19.998054 ], [ 24.99999, 21.301333 ], [ 24.999994, 21.588081 ], [ 25.0, 22.0 ], [ 25.241941, 22.0 ], [ 25.393058, 22.0 ], [ 25.801044, 22.0 ], [ 26.185878, 22.0 ], [ 27.480268, 22.000001 ], [ 29.618291, 22.000001 ], [ 30.231524, 22.000002 ], [ 30.806717, 22.000106 ], [ 31.209143, 22.000179 ], [ 31.314411, 22.000198 ], [ 31.345167, 22.07622 ], [ 31.348203, 22.096999 ], [ 31.357823, 22.116054 ], [ 31.372687, 22.134994 ], [ 31.387045, 22.153287 ], [ 31.399646, 22.164256 ], [ 31.411434, 22.182161 ], [ 31.474261, 22.224391 ], [ 31.483834, 22.218501 ], [ 31.497283, 22.19768 ], [ 31.509579, 22.19023 ], [ 31.51234, 22.180074 ], [ 31.506751, 22.1685 ], [ 31.489029, 22.146294 ], [ 31.465118, 22.124761 ], [ 31.434444, 22.079076 ], [ 31.412714, 22.026874 ], [ 31.411034, 22.012607 ], [ 31.416241, 22.000207 ], [ 31.894425, 22.000594 ], [ 32.989939, 22.001482 ], [ 33.182633, 22.00166 ] ] ], [ [ [ 37.258222, 20.756451 ], [ 37.256081, 20.751671 ], [ 37.250986, 20.756051 ], [ 37.24915, 20.761009 ], [ 37.250526, 20.786573 ], [ 37.25175, 20.819613 ], [ 37.256148, 20.837739 ], [ 37.269476, 20.851493 ], [ 37.289846, 20.843962 ], [ 37.282575, 20.826218 ], [ 37.278235, 20.786573 ], [ 37.274744, 20.766654 ], [ 37.268873, 20.759357 ], [ 37.258222, 20.756451 ] ] ], [ [ [ 38.463289, 18.183522 ], [ 38.462408, 18.177144 ], [ 38.457398, 18.176698 ], [ 38.45173, 18.179535 ], [ 38.44826, 18.177443 ], [ 38.447464, 18.173973 ], [ 38.456882, 18.169891 ], [ 38.46226, 18.168622 ], [ 38.462872, 18.16395 ], [ 38.455486, 18.166723 ], [ 38.453508, 18.166097 ], [ 38.449087, 18.170639 ], [ 38.446669, 18.17076 ], [ 38.445248, 18.167308 ], [ 38.44051, 18.163936 ], [ 38.438508, 18.15982 ], [ 38.439064, 18.153915 ], [ 38.435717, 18.150309 ], [ 38.429874, 18.152486 ], [ 38.431941, 18.155178 ], [ 38.432999, 18.160318 ], [ 38.434606, 18.161864 ], [ 38.435391, 18.168288 ], [ 38.433898, 18.172906 ], [ 38.43134, 18.174697 ], [ 38.432536, 18.17881 ], [ 38.431713, 18.183945 ], [ 38.427544, 18.185088 ], [ 38.425137, 18.181614 ], [ 38.422172, 18.18443 ], [ 38.424308, 18.188803 ], [ 38.431838, 18.187027 ], [ 38.433998, 18.183695 ], [ 38.439374, 18.183325 ], [ 38.448231, 18.186561 ], [ 38.453313, 18.194281 ], [ 38.453032, 18.198133 ], [ 38.458674, 18.198791 ], [ 38.463794, 18.194054 ], [ 38.466372, 18.185842 ], [ 38.463289, 18.183522 ] ] ], [ [ [ 38.028139, 18.765816 ], [ 38.024074, 18.765537 ], [ 38.013763, 18.767032 ], [ 38.01186, 18.767926 ], [ 38.002637, 18.768652 ], [ 37.998146, 18.771727 ], [ 37.995265, 18.777393 ], [ 37.993365, 18.7779 ], [ 37.992799, 18.78177 ], [ 37.995359, 18.784367 ], [ 37.995197, 18.789015 ], [ 37.997086, 18.790444 ], [ 38.003321, 18.790736 ], [ 38.013633, 18.789371 ], [ 38.0207, 18.786567 ], [ 38.02848, 18.77731 ], [ 38.030428, 18.76854 ], [ 38.028139, 18.765816 ] ] ], [ [ [ 38.340809, 18.222565 ], [ 38.345799, 18.218471 ], [ 38.345678, 18.214873 ], [ 38.339507, 18.211254 ], [ 38.33574, 18.211755 ], [ 38.332526, 18.20866 ], [ 38.331168, 18.212253 ], [ 38.324086, 18.210247 ], [ 38.318799, 18.21221 ], [ 38.314216, 18.215277 ], [ 38.312587, 18.219254 ], [ 38.308695, 18.217313 ], [ 38.307205, 18.220391 ], [ 38.304103, 18.222693 ], [ 38.30234, 18.226541 ], [ 38.306097, 18.228481 ], [ 38.318469, 18.228011 ], [ 38.331926, 18.224847 ], [ 38.333545, 18.223439 ], [ 38.340809, 18.222565 ] ] ], [ [ [ 38.371518, 18.235555 ], [ 38.37342, 18.230801 ], [ 38.376188, 18.227792 ], [ 38.382852, 18.228645 ], [ 38.38488, 18.226079 ], [ 38.379414, 18.225373 ], [ 38.377811, 18.222957 ], [ 38.370696, 18.223195 ], [ 38.370748, 18.225132 ], [ 38.366442, 18.224475 ], [ 38.361991, 18.226776 ], [ 38.361712, 18.229348 ], [ 38.359154, 18.229596 ], [ 38.358469, 18.232682 ], [ 38.355634, 18.234859 ], [ 38.35337, 18.234249 ], [ 38.34782, 18.236376 ], [ 38.346593, 18.240361 ], [ 38.343753, 18.243824 ], [ 38.339979, 18.24484 ], [ 38.337945, 18.248821 ], [ 38.342514, 18.250827 ], [ 38.344539, 18.249616 ], [ 38.351274, 18.248867 ], [ 38.352087, 18.247583 ], [ 38.358288, 18.245546 ], [ 38.362337, 18.242729 ], [ 38.368822, 18.236318 ], [ 38.371518, 18.235555 ] ] ], [ [ [ 38.177256, 18.830308 ], [ 38.17634, 18.826746 ], [ 38.172087, 18.818643 ], [ 38.167417, 18.822895 ], [ 38.165391, 18.827968 ], [ 38.160311, 18.829724 ], [ 38.155008, 18.827301 ], [ 38.146848, 18.826868 ], [ 38.147764, 18.83043 ], [ 38.151761, 18.831591 ], [ 38.157617, 18.834795 ], [ 38.162132, 18.839263 ], [ 38.169609, 18.838661 ], [ 38.176296, 18.835641 ], [ 38.177256, 18.830308 ] ] ], [ [ [ 38.481115, 18.131882 ], [ 38.478309, 18.129825 ], [ 38.474765, 18.133436 ], [ 38.477348, 18.137507 ], [ 38.477201, 18.142117 ], [ 38.472502, 18.145434 ], [ 38.468905, 18.15574 ], [ 38.470996, 18.156445 ], [ 38.476111, 18.148006 ], [ 38.481377, 18.141197 ], [ 38.481115, 18.131882 ] ] ], [ [ [ 38.400517, 18.148088 ], [ 38.405938, 18.144391 ], [ 38.416789, 18.146831 ], [ 38.418767, 18.143817 ], [ 38.414379, 18.138637 ], [ 38.405938, 18.14184 ], [ 38.399762, 18.144303 ], [ 38.398093, 18.147024 ], [ 38.400517, 18.148088 ] ] ], [ [ [ 38.503332, 18.127406 ], [ 38.498811, 18.125951 ], [ 38.494141, 18.128275 ], [ 38.496728, 18.134733 ], [ 38.495993, 18.139528 ], [ 38.499044, 18.140246 ], [ 38.501264, 18.131335 ], [ 38.503185, 18.131078 ], [ 38.503332, 18.127406 ] ] ], [ [ [ 38.308771, 18.287113 ], [ 38.307538, 18.282994 ], [ 38.303056, 18.283081 ], [ 38.30057, 18.288411 ], [ 38.302781, 18.291338 ], [ 38.305281, 18.291613 ], [ 38.308771, 18.287113 ] ] ], [ [ [ 38.173198, 18.807908 ], [ 38.16696, 18.806664 ], [ 38.164821, 18.808816 ], [ 38.165802, 18.811254 ], [ 38.17261, 18.812095 ], [ 38.175295, 18.814269 ], [ 38.175741, 18.810217 ], [ 38.173198, 18.807908 ] ] ], [ [ [ 38.240744, 18.305789 ], [ 38.23592, 18.302946 ], [ 38.232156, 18.303317 ], [ 38.233121, 18.307328 ], [ 38.236704, 18.307955 ], [ 38.237902, 18.310157 ], [ 38.242341, 18.30984 ], [ 38.240744, 18.305789 ] ] ], [ [ [ 37.401129, 19.012934 ], [ 37.399067, 19.011702 ], [ 37.398298, 19.015755 ], [ 37.395757, 19.017584 ], [ 37.395318, 19.02277 ], [ 37.398171, 19.02329 ], [ 37.400529, 19.021333 ], [ 37.401129, 19.012934 ] ] ], [ [ [ 38.341098, 18.263151 ], [ 38.337102, 18.25848 ], [ 38.335377, 18.261951 ], [ 38.332259, 18.262566 ], [ 38.330875, 18.268428 ], [ 38.333089, 18.269434 ], [ 38.335054, 18.265166 ], [ 38.341098, 18.263151 ] ] ], [ [ [ 37.339696, 19.111545 ], [ 37.337167, 19.108163 ], [ 37.334868, 19.109402 ], [ 37.33669, 19.114647 ], [ 37.334477, 19.117642 ], [ 37.340007, 19.119422 ], [ 37.340874, 19.11561 ], [ 37.338701, 19.113874 ], [ 37.339696, 19.111545 ] ] ], [ [ [ 37.366917, 19.120948 ], [ 37.361754, 19.118229 ], [ 37.359023, 19.12009 ], [ 37.365524, 19.127369 ], [ 37.36699, 19.127329 ], [ 37.366917, 19.120948 ] ] ], [ [ [ 38.189634, 18.249174 ], [ 38.18597, 18.247674 ], [ 38.183398, 18.254005 ], [ 38.185649, 18.255767 ], [ 38.190603, 18.253226 ], [ 38.189634, 18.249174 ] ] ], [ [ [ 38.234573, 18.310747 ], [ 38.226315, 18.309866 ], [ 38.226315, 18.312764 ], [ 38.229637, 18.314043 ], [ 38.237002, 18.313173 ], [ 38.234573, 18.310747 ] ] ], [ [ [ 38.494503, 18.151055 ], [ 38.491774, 18.14912 ], [ 38.488167, 18.157234 ], [ 38.492378, 18.157554 ], [ 38.494503, 18.151055 ] ] ], [ [ [ 37.192481, 21.124911 ], [ 37.190422, 21.122404 ], [ 37.186888, 21.126421 ], [ 37.185947, 21.130411 ], [ 37.187402, 21.131128 ], [ 37.192481, 21.124911 ] ] ], [ [ [ 37.338829, 20.784394 ], [ 37.336162, 20.782543 ], [ 37.335219, 20.784979 ], [ 37.335528, 20.789086 ], [ 37.339642, 20.790512 ], [ 37.338829, 20.784394 ] ] ], [ [ [ 37.404016, 18.970585 ], [ 37.402428, 18.960964 ], [ 37.400468, 18.961294 ], [ 37.400627, 18.969405 ], [ 37.404016, 18.970585 ] ] ], [ [ [ 37.148069, 21.207014 ], [ 37.140184, 21.205929 ], [ 37.139538, 21.208914 ], [ 37.147433, 21.209285 ], [ 37.148069, 21.207014 ] ] ], [ [ [ 38.330041, 18.253605 ], [ 38.324145, 18.250291 ], [ 38.323314, 18.252798 ], [ 38.327731, 18.256734 ], [ 38.330041, 18.253605 ] ] ], [ [ [ 37.318378, 19.319796 ], [ 37.316599, 19.319631 ], [ 37.315149, 19.323632 ], [ 37.316693, 19.327145 ], [ 37.319169, 19.325335 ], [ 37.318378, 19.319796 ] ] ], [ [ [ 38.373626, 18.218953 ], [ 38.374902, 18.212962 ], [ 38.371766, 18.213251 ], [ 38.369554, 18.217172 ], [ 38.373626, 18.218953 ] ] ], [ [ [ 38.196109, 18.241509 ], [ 38.191833, 18.240747 ], [ 38.190261, 18.244458 ], [ 38.193753, 18.246331 ], [ 38.196109, 18.241509 ] ] ], [ [ [ 38.328222, 18.274193 ], [ 38.328725, 18.270948 ], [ 38.322511, 18.271104 ], [ 38.321434, 18.273713 ], [ 38.328222, 18.274193 ] ] ], [ [ [ 38.105383, 18.305024 ], [ 38.101468, 18.302943 ], [ 38.099713, 18.307287 ], [ 38.103079, 18.309056 ], [ 38.105383, 18.305024 ] ] ], [ [ [ 37.745899, 18.639384 ], [ 37.743281, 18.638897 ], [ 37.741621, 18.641854 ], [ 37.744968, 18.644943 ], [ 37.746571, 18.64418 ], [ 37.745899, 18.639384 ] ] ], [ [ [ 37.743853, 18.649674 ], [ 37.737791, 18.649674 ], [ 37.736844, 18.653617 ], [ 37.741148, 18.65324 ], [ 37.743853, 18.649674 ] ] ], [ [ [ 37.739705, 18.661708 ], [ 37.734324, 18.661101 ], [ 37.734893, 18.665098 ], [ 37.739077, 18.665696 ], [ 37.739705, 18.661708 ] ] ], [ [ [ 37.19263, 21.15583 ], [ 37.192951, 21.150318 ], [ 37.189499, 21.150952 ], [ 37.188207, 21.155131 ], [ 37.19263, 21.15583 ] ] ], [ [ [ 37.572307, 18.723434 ], [ 37.572348, 18.71864 ], [ 37.568681, 18.719484 ], [ 37.567858, 18.721796 ], [ 37.569098, 18.724282 ], [ 37.572307, 18.723434 ] ] ], [ [ [ 37.689849, 18.764897 ], [ 37.686144, 18.761974 ], [ 37.682886, 18.765949 ], [ 37.687946, 18.767189 ], [ 37.689849, 18.764897 ] ] ], [ [ [ 37.665605, 18.775501 ], [ 37.661244, 18.773436 ], [ 37.659154, 18.774532 ], [ 37.664088, 18.779786 ], [ 37.665605, 18.775501 ] ] ], [ [ [ 37.763709, 18.890275 ], [ 37.759287, 18.889614 ], [ 37.759053, 18.891297 ], [ 37.762788, 18.895114 ], [ 37.765156, 18.892425 ], [ 37.763709, 18.890275 ] ] ], [ [ [ 37.411081, 18.995245 ], [ 37.407656, 18.993518 ], [ 37.406189, 18.999138 ], [ 37.410698, 18.998895 ], [ 37.411081, 18.995245 ] ] ], [ [ [ 37.332222, 19.247138 ], [ 37.328329, 19.242106 ], [ 37.327427, 19.244596 ], [ 37.328547, 19.250165 ], [ 37.332222, 19.247138 ] ] ], [ [ [ 37.327285, 19.309476 ], [ 37.327602, 19.30244 ], [ 37.324974, 19.302894 ], [ 37.324146, 19.309073 ], [ 37.327285, 19.309476 ] ] ], [ [ [ 37.243706, 19.658857 ], [ 37.241213, 19.657503 ], [ 37.238433, 19.662238 ], [ 37.242295, 19.664015 ], [ 37.243706, 19.658857 ] ] ], [ [ [ 37.150346, 21.144104 ], [ 37.146472, 21.143331 ], [ 37.14464, 21.14539 ], [ 37.144866, 21.147445 ], [ 37.149254, 21.147731 ], [ 37.150346, 21.144104 ] ] ], [ [ [ 37.129881, 21.2187 ], [ 37.127441, 21.215731 ], [ 37.124748, 21.216744 ], [ 37.128025, 21.221777 ], [ 37.130334, 21.222113 ], [ 37.129881, 21.2187 ] ] ], [ [ [ 37.328153, 19.250719 ], [ 37.327296, 19.250065 ], [ 37.325714, 19.250587 ], [ 37.324359, 19.255266 ], [ 37.325777, 19.256114 ], [ 37.326689, 19.254735 ], [ 37.328153, 19.250719 ] ] ], [ [ [ 37.19628, 20.040177 ], [ 37.191334, 20.039635 ], [ 37.191874, 20.042842 ], [ 37.194683, 20.043116 ], [ 37.19628, 20.040177 ] ] ] ] } }
]
}
