{
"type": "FeatureCollection",
"name": "Syria",
"crs": { "type": "name", "properties": { "name": "urn:ogc:def:crs:OGC:1.3:CRS84" } },
"features": [
{ "type": "Feature", "properties": { "id": "SY", "CNTR_ID": "SY", "CNTR_NAME": "سوريا", "NAME_ENGL": "Syria", "ISO3_CODE": "SYR", "FID": "SY" }, "geometry": { "type": "MultiPolygon", "coordinates": [ [ [ [ 42.355686, 37.108039 ], [ 42.353774, 37.097584 ], [ 42.357113, 37.096999 ], [ 42.362085, 37.095007 ], [ 42.366008, 37.089141 ], [ 42.37359, 37.086814 ], [ 42.381052, 37.082031 ], [ 42.385004, 37.074146 ], [ 42.384604, 37.067081 ], [ 42.249322, 36.957755 ], [ 42.176973, 36.890487 ], [ 42.137253, 36.86064 ], [ 42.092445, 36.814272 ], [ 42.034447, 36.76381 ], [ 42.01306, 36.743859 ], [ 41.991019, 36.723291 ], [ 41.938093, 36.670051 ], [ 41.828068, 36.593126 ], [ 41.706741, 36.567472 ], [ 41.411294, 36.522875 ], [ 41.373262, 36.46861 ], [ 41.294606, 36.356259 ], [ 41.293681, 36.32601 ], [ 41.29177, 36.263452 ], [ 41.266915, 36.092144 ], [ 41.258051, 36.054591 ], [ 41.373262, 35.849198 ], [ 41.381053, 35.835289 ], [ 41.394269, 35.630379 ], [ 41.373262, 35.603257 ], [ 41.282636, 35.486147 ], [ 41.274903, 35.384907 ], [ 41.242437, 35.285588 ], [ 41.233268, 35.247692 ], [ 41.22525, 35.204203 ], [ 41.218119, 35.13218 ], [ 41.229643, 34.937932 ], [ 41.229648, 34.860081 ], [ 41.237694, 34.784868 ], [ 41.23433, 34.777039 ], [ 41.166346, 34.696138 ], [ 41.139454, 34.664114 ], [ 41.033128, 34.45231 ], [ 41.027084, 34.446717 ], [ 41.019327, 34.442708 ], [ 41.017298, 34.439586 ], [ 41.012309, 34.419885 ], [ 40.636984, 34.243132 ], [ 40.115532, 33.997768 ], [ 40.019915, 33.952699 ], [ 39.905363, 33.898673 ], [ 39.197269, 33.565321 ], [ 39.164992, 33.550095 ], [ 38.7925, 33.37472 ], [ 38.786937, 33.371738 ], [ 38.653574, 33.300254 ], [ 38.609319, 33.276554 ], [ 38.323147, 33.123144 ], [ 37.728023, 32.804973 ], [ 37.242556, 32.544582 ], [ 37.071856, 32.452843 ], [ 36.869746, 32.344103 ], [ 36.863894, 32.339641 ], [ 36.834074, 32.316905 ], [ 36.72385, 32.332641 ], [ 36.704461, 32.327551 ], [ 36.689516, 32.33938 ], [ 36.504322, 32.36012 ], [ 36.482184, 32.372413 ], [ 36.467975, 32.376266 ], [ 36.408796, 32.38285 ], [ 36.399037, 32.388601 ], [ 36.386829, 32.399103 ], [ 36.334866, 32.443795 ], [ 36.321045, 32.452843 ], [ 36.206828, 32.527578 ], [ 36.199477, 32.527771 ], [ 36.178312, 32.518774 ], [ 36.163545, 32.522228 ], [ 36.13308, 32.523849 ], [ 36.110967, 32.522944 ], [ 36.091457, 32.518777 ], [ 36.085068, 32.547253 ], [ 36.070747, 32.574999 ], [ 36.058905, 32.587639 ], [ 36.035757, 32.605576 ], [ 36.039096, 32.640509 ], [ 36.035365, 32.655116 ], [ 36.018689, 32.661934 ], [ 35.992011, 32.662065 ], [ 35.975467, 32.669854 ], [ 35.973572, 32.673764 ], [ 35.982509, 32.682645 ], [ 35.981514, 32.691816 ], [ 35.975913, 32.696066 ], [ 35.96255, 32.697468 ], [ 35.952155, 32.703262 ], [ 35.944733, 32.717537 ], [ 35.937957, 32.723056 ], [ 35.931914, 32.724373 ], [ 35.921177, 32.722317 ], [ 35.900638, 32.725301 ], [ 35.876614, 32.735621 ], [ 35.861701, 32.735438 ], [ 35.841331, 32.729639 ], [ 35.833091, 32.729541 ], [ 35.823244, 32.732921 ], [ 35.816708, 32.738867 ], [ 35.8068, 32.740011 ], [ 35.805268, 32.743348 ], [ 35.808743, 32.752045 ], [ 35.804551, 32.757974 ], [ 35.799768, 32.758826 ], [ 35.783258, 32.753006 ], [ 35.767506, 32.749593 ], [ 35.758474, 32.738079 ], [ 35.750559, 32.732894 ], [ 35.737792, 32.731785 ], [ 35.708927, 32.722132 ], [ 35.698692, 32.712438 ], [ 35.68755, 32.706762 ], [ 35.671631, 32.691055 ], [ 35.647785, 32.682937 ], [ 35.635678, 32.689369 ], [ 35.63785, 32.704055 ], [ 35.649105, 32.714779 ], [ 35.662158, 32.77714 ], [ 35.655375, 32.792586 ], [ 35.65529, 32.807407 ], [ 35.644903, 32.812064 ], [ 35.642241, 32.833543 ], [ 35.648862, 32.84062 ], [ 35.64951, 32.846425 ], [ 35.643333, 32.865826 ], [ 35.614263, 32.897396 ], [ 35.616143, 32.90346 ], [ 35.623407, 32.906465 ], [ 35.626312, 32.911114 ], [ 35.624706, 32.91866 ], [ 35.632974, 32.987324 ], [ 35.630377, 33.015756 ], [ 35.646299, 33.061227 ], [ 35.645982, 33.077201 ], [ 35.653372, 33.123144 ], [ 35.670127, 33.153498 ], [ 35.663239, 33.18901 ], [ 35.667221, 33.224355 ], [ 35.671619, 33.230672 ], [ 35.682245, 33.236851 ], [ 35.68404, 33.243325 ], [ 35.679684, 33.247218 ], [ 35.652593, 33.249564 ], [ 35.624445, 33.24235 ], [ 35.621542, 33.256549 ], [ 35.624954, 33.272353 ], [ 35.6423, 33.278553 ], [ 35.662464, 33.277423 ], [ 35.686003, 33.293625 ], [ 35.706419, 33.303922 ], [ 35.713778, 33.320564 ], [ 35.720064, 33.326296 ], [ 35.72744, 33.327989 ], [ 35.749868, 33.326904 ], [ 35.779103, 33.337176 ], [ 35.799859, 33.349015 ], [ 35.81543, 33.360475 ], [ 35.819624, 33.385057 ], [ 35.8276, 33.397224 ], [ 35.849241, 33.410554 ], [ 35.897575, 33.433618 ], [ 35.944211, 33.468767 ], [ 35.949378, 33.500356 ], [ 35.939997, 33.51299 ], [ 35.945609, 33.521318 ], [ 35.975485, 33.534809 ], [ 35.993612, 33.533657 ], [ 36.014504, 33.540946 ], [ 36.028539, 33.542083 ], [ 36.05969, 33.57211 ], [ 36.060869, 33.581163 ], [ 36.054629, 33.590098 ], [ 36.024274, 33.61182 ], [ 36.000806, 33.616892 ], [ 35.977822, 33.635512 ], [ 35.952797, 33.633778 ], [ 35.941137, 33.637373 ], [ 35.933581, 33.645282 ], [ 35.947904, 33.665959 ], [ 35.968925, 33.680481 ], [ 35.975232, 33.695414 ], [ 35.973604, 33.708412 ], [ 35.991779, 33.723874 ], [ 36.001015, 33.748519 ], [ 36.013226, 33.765541 ], [ 36.034692, 33.770029 ], [ 36.046404, 33.782587 ], [ 36.057866, 33.804463 ], [ 36.070327, 33.819522 ], [ 36.077998, 33.821146 ], [ 36.089602, 33.816767 ], [ 36.100837, 33.819721 ], [ 36.115389, 33.832426 ], [ 36.140574, 33.838139 ], [ 36.156893, 33.851937 ], [ 36.163331, 33.849488 ], [ 36.173742, 33.834783 ], [ 36.199038, 33.829102 ], [ 36.213852, 33.828977 ], [ 36.222479, 33.834536 ], [ 36.234549, 33.836656 ], [ 36.24339, 33.849707 ], [ 36.249271, 33.852154 ], [ 36.275637, 33.845874 ], [ 36.292112, 33.836133 ], [ 36.309068, 33.833961 ], [ 36.327889, 33.82547 ], [ 36.36424, 33.819357 ], [ 36.377046, 33.822648 ], [ 36.386829, 33.832237 ], [ 36.389206, 33.835475 ], [ 36.38992, 33.843367 ], [ 36.386829, 33.851213 ], [ 36.372143, 33.861147 ], [ 36.362464, 33.872179 ], [ 36.336501, 33.873945 ], [ 36.323477, 33.87743 ], [ 36.310405, 33.89303 ], [ 36.287168, 33.902908 ], [ 36.291062, 33.921324 ], [ 36.306806, 33.944744 ], [ 36.318547, 33.953754 ], [ 36.32867, 33.968881 ], [ 36.352439, 33.991618 ], [ 36.364794, 33.995942 ], [ 36.371925, 34.003684 ], [ 36.382682, 34.009734 ], [ 36.386829, 34.017405 ], [ 36.392165, 34.026197 ], [ 36.403137, 34.029878 ], [ 36.406262, 34.041327 ], [ 36.417234, 34.044198 ], [ 36.429214, 34.05196 ], [ 36.473472, 34.040838 ], [ 36.487848, 34.044125 ], [ 36.495502, 34.037428 ], [ 36.501595, 34.045747 ], [ 36.509827, 34.048207 ], [ 36.507592, 34.058502 ], [ 36.514768, 34.07682 ], [ 36.516017, 34.095851 ], [ 36.531965, 34.109835 ], [ 36.545643, 34.126637 ], [ 36.567424, 34.137551 ], [ 36.571092, 34.153464 ], [ 36.583905, 34.164997 ], [ 36.594899, 34.1831 ], [ 36.62134, 34.202204 ], [ 36.608644, 34.21717 ], [ 36.588661, 34.229386 ], [ 36.584688, 34.251731 ], [ 36.577561, 34.270597 ], [ 36.580212, 34.280391 ], [ 36.598238, 34.295337 ], [ 36.598942, 34.304763 ], [ 36.589535, 34.311963 ], [ 36.564152, 34.31821 ], [ 36.55889, 34.333105 ], [ 36.533627, 34.369425 ], [ 36.553077, 34.398797 ], [ 36.554918, 34.409958 ], [ 36.550611, 34.421087 ], [ 36.523889, 34.432689 ], [ 36.507407, 34.448122 ], [ 36.494971, 34.451237 ], [ 36.465262, 34.46489 ], [ 36.45776, 34.478131 ], [ 36.447703, 34.487733 ], [ 36.442427, 34.506743 ], [ 36.417329, 34.509889 ], [ 36.386829, 34.499935 ], [ 36.37387, 34.4991 ], [ 36.359792, 34.502616 ], [ 36.342265, 34.500082 ], [ 36.331749, 34.509505 ], [ 36.330404, 34.516191 ], [ 36.333843, 34.522596 ], [ 36.366037, 34.534358 ], [ 36.386829, 34.545555 ], [ 36.41391, 34.560135 ], [ 36.413737, 34.568582 ], [ 36.403473, 34.586176 ], [ 36.408367, 34.606488 ], [ 36.413636, 34.608025 ], [ 36.421462, 34.606081 ], [ 36.436535, 34.59231 ], [ 36.45407, 34.593093 ], [ 36.459615, 34.60323 ], [ 36.461325, 34.633114 ], [ 36.453021, 34.632042 ], [ 36.42728, 34.617477 ], [ 36.404766, 34.62893 ], [ 36.386829, 34.631352 ], [ 36.358099, 34.651729 ], [ 36.343613, 34.67746 ], [ 36.334594, 34.682105 ], [ 36.322897, 34.683815 ], [ 36.311957, 34.680577 ], [ 36.305948, 34.672234 ], [ 36.305711, 34.655221 ], [ 36.299853, 34.641373 ], [ 36.290226, 34.632719 ], [ 36.276181, 34.62879 ], [ 36.264286, 34.628483 ], [ 36.24563, 34.633178 ], [ 36.234828, 34.628525 ], [ 36.22485, 34.627703 ], [ 36.194711, 34.63638 ], [ 36.169878, 34.630078 ], [ 36.125733, 34.640001 ], [ 36.090407, 34.631027 ], [ 36.07315, 34.630944 ], [ 36.0632, 34.63367 ], [ 36.049454, 34.629391 ], [ 36.038769, 34.628892 ], [ 36.00769, 34.643268 ], [ 35.994932, 34.644968 ], [ 35.986748, 34.649623 ], [ 35.978497, 34.643365 ], [ 35.975583, 34.63341 ], [ 35.932284, 34.737203 ], [ 35.930715, 34.774005 ], [ 35.924253, 34.791894 ], [ 35.900969, 34.832865 ], [ 35.865607, 34.906695 ], [ 35.879059, 34.919452 ], [ 35.879726, 34.938556 ], [ 35.874991, 34.966611 ], [ 35.878147, 34.986017 ], [ 35.881964, 34.992025 ], [ 35.8987, 35.005939 ], [ 35.893213, 35.039375 ], [ 35.885788, 35.060525 ], [ 35.893334, 35.080751 ], [ 35.88766, 35.10544 ], [ 35.896501, 35.118199 ], [ 35.904586, 35.121909 ], [ 35.917392, 35.148602 ], [ 35.926847, 35.157763 ], [ 35.924614, 35.172012 ], [ 35.926795, 35.176855 ], [ 35.948542, 35.189352 ], [ 35.953782, 35.197271 ], [ 35.941901, 35.241101 ], [ 35.924863, 35.268427 ], [ 35.921214, 35.280745 ], [ 35.922934, 35.291675 ], [ 35.918735, 35.328784 ], [ 35.919463, 35.355629 ], [ 35.910993, 35.412276 ], [ 35.915514, 35.417197 ], [ 35.898669, 35.437025 ], [ 35.84456, 35.480555 ], [ 35.800935, 35.506811 ], [ 35.788331, 35.500826 ], [ 35.783135, 35.501555 ], [ 35.779605, 35.497225 ], [ 35.765463, 35.506145 ], [ 35.771527, 35.535626 ], [ 35.735024, 35.561692 ], [ 35.745256, 35.57448 ], [ 35.744189, 35.580148 ], [ 35.739212, 35.582896 ], [ 35.722082, 35.579978 ], [ 35.718058, 35.584642 ], [ 35.747558, 35.592652 ], [ 35.757246, 35.592815 ], [ 35.763411, 35.607653 ], [ 35.77144, 35.609243 ], [ 35.773192, 35.614344 ], [ 35.769289, 35.617908 ], [ 35.779582, 35.625244 ], [ 35.780824, 35.638154 ], [ 35.777648, 35.650474 ], [ 35.769384, 35.659888 ], [ 35.767542, 35.666069 ], [ 35.779578, 35.681394 ], [ 35.796422, 35.685593 ], [ 35.800935, 35.689882 ], [ 35.805896, 35.699211 ], [ 35.8157, 35.706536 ], [ 35.816107, 35.709474 ], [ 35.82996, 35.716859 ], [ 35.834292, 35.737645 ], [ 35.842215, 35.741208 ], [ 35.845767, 35.749064 ], [ 35.839826, 35.780972 ], [ 35.827295, 35.80758 ], [ 35.821283, 35.811486 ], [ 35.822248, 35.826511 ], [ 35.819255, 35.829857 ], [ 35.807907, 35.834069 ], [ 35.811986, 35.847693 ], [ 35.800935, 35.85241 ], [ 35.798519, 35.853288 ], [ 35.800935, 35.855302 ], [ 35.823065, 35.858437 ], [ 35.832718, 35.853595 ], [ 35.844496, 35.851583 ], [ 35.855076, 35.853733 ], [ 35.864183, 35.864837 ], [ 35.87743, 35.87013 ], [ 35.885782, 35.899328 ], [ 35.896893, 35.919155 ], [ 35.916812, 35.928523 ], [ 36.015959, 35.899602 ], [ 36.109083, 35.861725 ], [ 36.128569, 35.85145 ], [ 36.155392, 35.819459 ], [ 36.167507, 35.819943 ], [ 36.182218, 35.854815 ], [ 36.182586, 35.880013 ], [ 36.187104, 35.910303 ], [ 36.223028, 35.961121 ], [ 36.300052, 35.969924 ], [ 36.375059, 35.999057 ], [ 36.383509, 36.032141 ], [ 36.375102, 36.175639 ], [ 36.386829, 36.200638 ], [ 36.392552, 36.212836 ], [ 36.504435, 36.232936 ], [ 36.531817, 36.235259 ], [ 36.616235, 36.21979 ], [ 36.682779, 36.233494 ], [ 36.689437, 36.286331 ], [ 36.660411, 36.311808 ], [ 36.647591, 36.32601 ], [ 36.582219, 36.398386 ], [ 36.567416, 36.422017 ], [ 36.549893, 36.487425 ], [ 36.586476, 36.619793 ], [ 36.661922, 36.813633 ], [ 36.660011, 36.833231 ], [ 36.678778, 36.832661 ], [ 36.70532, 36.828857 ], [ 36.863894, 36.793555 ], [ 36.931497, 36.7785 ], [ 36.985273, 36.758562 ], [ 37.039023, 36.719095 ], [ 37.127456, 36.659622 ], [ 37.23189, 36.66394 ], [ 37.242556, 36.664065 ], [ 37.269585, 36.664384 ], [ 37.376137, 36.655683 ], [ 37.531832, 36.677632 ], [ 37.585517, 36.703768 ], [ 37.668701, 36.736785 ], [ 37.707733, 36.747619 ], [ 37.728023, 36.747812 ], [ 37.777577, 36.748282 ], [ 37.890243, 36.780788 ], [ 37.917833, 36.791245 ], [ 37.9571, 36.813158 ], [ 37.992716, 36.824466 ], [ 38.023413, 36.830655 ], [ 38.04759, 36.845554 ], [ 38.097478, 36.873724 ], [ 38.17955, 36.905188 ], [ 38.248578, 36.913316 ], [ 38.386799, 36.89813 ], [ 38.433225, 36.885359 ], [ 38.511492, 36.858757 ], [ 38.541882, 36.84354 ], [ 38.609319, 36.784664 ], [ 38.683472, 36.726138 ], [ 38.726419, 36.703578 ], [ 38.775609, 36.698059 ], [ 38.918092, 36.69518 ], [ 38.965337, 36.696984 ], [ 39.003967, 36.705544 ], [ 39.043923, 36.707988 ], [ 39.076036, 36.702292 ], [ 39.171426, 36.669932 ], [ 39.197269, 36.667884 ], [ 39.225545, 36.665643 ], [ 39.258314, 36.668221 ], [ 39.310622, 36.678613 ], [ 39.81825, 36.753765 ], [ 40.007716, 36.81473 ], [ 40.019915, 36.819574 ], [ 40.115532, 36.857531 ], [ 40.226033, 36.901373 ], [ 40.264143, 36.919686 ], [ 40.413942, 37.000652 ], [ 40.445537, 37.0143 ], [ 40.514312, 37.023726 ], [ 40.634654, 37.068803 ], [ 40.689096, 37.09561 ], [ 40.772393, 37.118218 ], [ 40.8085, 37.122601 ], [ 40.930312, 37.129543 ], [ 41.117689, 37.097564 ], [ 41.166346, 37.0853 ], [ 41.216438, 37.072672 ], [ 41.373262, 37.075454 ], [ 41.547068, 37.08521 ], [ 41.663342, 37.102903 ], [ 41.840917, 37.130219 ], [ 41.994289, 37.172511 ], [ 42.01306, 37.178592 ], [ 42.055307, 37.192278 ], [ 42.085154, 37.209759 ], [ 42.14763, 37.258459 ], [ 42.17886, 37.288593 ], [ 42.183702, 37.290425 ], [ 42.216546, 37.289177 ], [ 42.293595, 37.269807 ], [ 42.350628, 37.231477 ], [ 42.356979, 37.13123 ], [ 42.355686, 37.108039 ] ] ] ] } }
]
}
