{
"type": "FeatureCollection",
"name": "Timor-Leste",
"crs": { "type": "name", "properties": { "name": "urn:ogc:def:crs:OGC:1.3:CRS84" } },
"features": [
{ "type": "Feature", "properties": { "id": "TL", "CNTR_ID": "TL", "CNTR_NAME": "Timor-Leste-Timor Lorosae", "NAME_ENGL": "Timor-Leste", "ISO3_CODE": "TLS", "FID": "TL" }, "geometry": { "type": "MultiPolygon", "coordinates": [ [ [ [ 125.081905, -9.446187 ], [ 125.081, -9.412317 ], [ 125.077501, -9.403349 ], [ 125.079369, -9.390277 ], [ 125.051709, -9.360705 ], [ 125.050419, -9.326807 ], [ 125.028244, -9.315476 ], [ 125.006423, -9.294824 ], [ 124.995452, -9.291146 ], [ 124.997516, -9.278623 ], [ 124.989213, -9.266676 ], [ 124.982271, -9.236729 ], [ 124.977873, -9.231501 ], [ 124.979824, -9.220526 ], [ 124.983103, -9.202075 ], [ 124.987916, -9.193496 ], [ 124.989959, -9.18039 ], [ 124.995314, -9.173173 ], [ 125.008442, -9.174177 ], [ 125.015063, -9.170148 ], [ 125.029686, -9.169961 ], [ 125.037528, -9.173846 ], [ 125.053644, -9.170094 ], [ 125.073739, -9.176624 ], [ 125.080171, -9.188977 ], [ 125.098868, -9.203941 ], [ 125.103062, -9.196501 ], [ 125.134893, -9.175207 ], [ 125.147116, -9.171798 ], [ 125.175133, -9.172541 ], [ 125.178645, -9.166781 ], [ 125.178932, -9.148437 ], [ 125.171158, -9.122724 ], [ 125.177965, -9.117338 ], [ 125.174235, -9.106365 ], [ 125.186366, -9.073109 ], [ 125.184855, -9.061439 ], [ 125.18882, -9.048679 ], [ 125.184688, -9.036683 ], [ 125.18565, -9.028649 ], [ 125.148672, -8.996561 ], [ 125.134295, -8.993702 ], [ 125.12037, -8.971788 ], [ 125.111491, -8.967734 ], [ 125.103532, -8.974961 ], [ 125.097161, -9.000136 ], [ 125.088242, -9.011158 ], [ 125.069183, -9.026758 ], [ 125.037734, -9.034254 ], [ 125.029566, -9.043112 ], [ 125.022074, -9.043734 ], [ 125.019625, -9.049577 ], [ 125.010914, -9.050515 ], [ 125.003158, -9.062871 ], [ 124.995733, -9.064518 ], [ 124.988318, -9.061797 ], [ 124.983998, -9.065292 ], [ 124.978344, -9.064313 ], [ 124.969061, -9.056793 ], [ 124.956425, -9.057685 ], [ 124.95217, -9.04951 ], [ 124.948507, -9.05144 ], [ 124.9417, -9.047829 ], [ 124.941037, -9.037338 ], [ 124.932202, -9.027264 ], [ 124.932292, -9.01947 ], [ 124.937481, -9.016042 ], [ 124.93764, -9.003803 ], [ 124.933763, -8.996954 ], [ 124.941753, -8.979236 ], [ 124.950177, -8.968103 ], [ 124.950011, -8.958104 ], [ 124.977549, -8.938663 ], [ 124.999037, -8.895728 ], [ 125.00513, -8.866841 ], [ 125.011137, -8.857447 ], [ 125.036734, -8.831804 ], [ 125.067168, -8.825208 ], [ 125.093993, -8.800189 ], [ 125.096968, -8.784671 ], [ 125.091212, -8.737118 ], [ 125.099786, -8.712692 ], [ 125.098924, -8.69036 ], [ 125.122739, -8.642358 ], [ 125.171627, -8.619833 ], [ 125.207893, -8.607596 ], [ 125.259426, -8.604361 ], [ 125.29441, -8.602165 ], [ 125.309774, -8.590655 ], [ 125.324366, -8.590623 ], [ 125.33301, -8.584798 ], [ 125.367246, -8.576335 ], [ 125.396415, -8.564286 ], [ 125.417846, -8.562751 ], [ 125.446652, -8.570593 ], [ 125.469717, -8.569329 ], [ 125.477143, -8.573862 ], [ 125.484207, -8.566706 ], [ 125.484771, -8.557052 ], [ 125.506308, -8.555902 ], [ 125.533828, -8.538886 ], [ 125.577177, -8.552457 ], [ 125.609594, -8.542997 ], [ 125.613881, -8.53493 ], [ 125.609693, -8.525905 ], [ 125.611316, -8.520201 ], [ 125.618805, -8.520247 ], [ 125.624858, -8.525817 ], [ 125.633554, -8.527378 ], [ 125.665139, -8.525887 ], [ 125.681663, -8.535082 ], [ 125.689737, -8.536172 ], [ 125.705286, -8.530223 ], [ 125.716709, -8.521183 ], [ 125.725068, -8.52546 ], [ 125.73381, -8.521545 ], [ 125.744946, -8.522141 ], [ 125.766442, -8.509739 ], [ 125.789435, -8.503155 ], [ 125.80718, -8.502141 ], [ 125.819879, -8.491679 ], [ 125.831237, -8.488896 ], [ 125.854782, -8.475323 ], [ 125.900857, -8.475851 ], [ 125.923873, -8.479534 ], [ 125.941625, -8.478065 ], [ 125.960012, -8.484963 ], [ 125.981906, -8.486866 ], [ 126.019212, -8.510282 ], [ 126.050856, -8.515211 ], [ 126.062019, -8.514488 ], [ 126.070835, -8.520097 ], [ 126.09046, -8.518823 ], [ 126.11863, -8.50595 ], [ 126.136956, -8.506055 ], [ 126.162014, -8.496665 ], [ 126.184617, -8.501582 ], [ 126.207498, -8.496054 ], [ 126.236478, -8.500059 ], [ 126.255814, -8.487325 ], [ 126.282229, -8.477916 ], [ 126.30898, -8.457082 ], [ 126.338794, -8.448748 ], [ 126.362876, -8.426873 ], [ 126.385036, -8.425871 ], [ 126.41537, -8.417019 ], [ 126.438148, -8.423703 ], [ 126.467874, -8.441374 ], [ 126.506236, -8.452844 ], [ 126.55115, -8.478893 ], [ 126.565673, -8.480861 ], [ 126.581199, -8.472237 ], [ 126.599172, -8.468115 ], [ 126.659792, -8.437864 ], [ 126.698988, -8.423199 ], [ 126.729215, -8.405289 ], [ 126.737198, -8.405948 ], [ 126.759217, -8.419857 ], [ 126.782218, -8.417585 ], [ 126.799234, -8.407803 ], [ 126.827831, -8.39916 ], [ 126.871203, -8.375171 ], [ 126.890856, -8.368099 ], [ 126.939213, -8.336377 ], [ 126.960206, -8.327802 ], [ 126.995232, -8.323391 ], [ 127.02524, -8.338352 ], [ 127.046355, -8.344563 ], [ 127.06614, -8.3631 ], [ 127.101739, -8.367006 ], [ 127.137443, -8.364153 ], [ 127.151828, -8.356979 ], [ 127.176899, -8.336934 ], [ 127.193822, -8.336768 ], [ 127.233284, -8.377549 ], [ 127.256632, -8.384865 ], [ 127.292326, -8.391123 ], [ 127.298244, -8.398223 ], [ 127.301178, -8.418673 ], [ 127.297515, -8.432461 ], [ 127.276733, -8.440876 ], [ 127.261468, -8.461718 ], [ 127.248958, -8.471786 ], [ 127.230006, -8.480303 ], [ 127.19499, -8.519453 ], [ 127.133378, -8.558241 ], [ 127.108456, -8.577653 ], [ 127.086964, -8.598253 ], [ 127.04982, -8.643926 ], [ 127.027136, -8.664102 ], [ 127.014457, -8.682355 ], [ 126.966791, -8.680301 ], [ 126.943748, -8.688415 ], [ 126.916757, -8.708822 ], [ 126.892665, -8.718394 ], [ 126.867077, -8.741546 ], [ 126.846102, -8.752779 ], [ 126.818866, -8.759292 ], [ 126.765248, -8.747382 ], [ 126.737585, -8.757549 ], [ 126.700809, -8.758636 ], [ 126.660329, -8.771297 ], [ 126.638914, -8.783138 ], [ 126.61638, -8.8014 ], [ 126.589353, -8.80142 ], [ 126.563171, -8.825555 ], [ 126.543069, -8.850573 ], [ 126.510689, -8.898922 ], [ 126.496031, -8.92998 ], [ 126.477753, -8.946639 ], [ 126.457326, -8.950792 ], [ 126.446091, -8.947657 ], [ 126.409631, -8.947512 ], [ 126.354305, -8.962909 ], [ 126.301482, -8.98191 ], [ 126.283573, -8.982659 ], [ 126.227816, -8.975087 ], [ 126.207498, -8.97607 ], [ 126.185588, -8.977355 ], [ 126.140672, -8.995251 ], [ 126.12247, -9.005481 ], [ 126.09139, -9.02858 ], [ 126.063414, -9.057679 ], [ 126.031474, -9.072165 ], [ 125.986146, -9.10878 ], [ 125.942386, -9.132738 ], [ 125.927965, -9.13322 ], [ 125.909204, -9.133846 ], [ 125.906339, -9.133242 ], [ 125.865928, -9.124734 ], [ 125.851033, -9.124598 ], [ 125.829479, -9.136529 ], [ 125.82337, -9.146257 ], [ 125.817083, -9.150413 ], [ 125.804638, -9.145552 ], [ 125.794574, -9.146122 ], [ 125.771438, -9.154557 ], [ 125.753339, -9.166121 ], [ 125.737831, -9.164227 ], [ 125.729249, -9.166439 ], [ 125.700693, -9.193815 ], [ 125.682489, -9.200705 ], [ 125.657532, -9.200278 ], [ 125.628794, -9.188587 ], [ 125.612997, -9.1856 ], [ 125.589596, -9.18977 ], [ 125.574324, -9.19833 ], [ 125.544981, -9.21964 ], [ 125.536455, -9.21946 ], [ 125.530886, -9.220526 ], [ 125.504878, -9.225503 ], [ 125.50264, -9.226393 ], [ 125.49057, -9.231192 ], [ 125.447479, -9.255614 ], [ 125.427742, -9.262142 ], [ 125.411765, -9.261348 ], [ 125.394364, -9.263623 ], [ 125.372696, -9.272915 ], [ 125.337926, -9.300495 ], [ 125.330789, -9.302803 ], [ 125.314454, -9.313167 ], [ 125.307438, -9.317617 ], [ 125.294055, -9.329949 ], [ 125.285076, -9.344754 ], [ 125.278936, -9.351609 ], [ 125.276087, -9.352734 ], [ 125.268943, -9.351264 ], [ 125.261857, -9.354375 ], [ 125.259426, -9.357565 ], [ 125.255655, -9.362515 ], [ 125.251588, -9.372552 ], [ 125.234832, -9.385152 ], [ 125.208526, -9.410701 ], [ 125.190628, -9.409077 ], [ 125.157285, -9.414274 ], [ 125.139805, -9.419615 ], [ 125.126616, -9.426065 ], [ 125.114222, -9.434538 ], [ 125.089526, -9.459773 ], [ 125.086096, -9.454759 ], [ 125.087057, -9.450839 ], [ 125.081905, -9.446187 ] ] ], [ [ [ 124.477173, -9.174998 ], [ 124.48068, -9.197395 ], [ 124.468714, -9.209384 ], [ 124.467797, -9.220526 ], [ 124.465491, -9.248567 ], [ 124.464229, -9.250783 ], [ 124.454905, -9.267154 ], [ 124.45557, -9.282769 ], [ 124.461584, -9.293969 ], [ 124.461425, -9.300115 ], [ 124.455163, -9.307522 ], [ 124.446665, -9.307526 ], [ 124.440806, -9.314865 ], [ 124.437277, -9.333618 ], [ 124.426998, -9.332588 ], [ 124.40704, -9.33831 ], [ 124.401048, -9.350958 ], [ 124.395197, -9.356715 ], [ 124.389169, -9.360105 ], [ 124.380374, -9.358205 ], [ 124.375201, -9.376325 ], [ 124.380847, -9.386618 ], [ 124.379358, -9.396918 ], [ 124.373824, -9.401221 ], [ 124.375596, -9.404799 ], [ 124.369046, -9.407983 ], [ 124.362964, -9.418328 ], [ 124.351703, -9.427952 ], [ 124.351268, -9.438246 ], [ 124.361171, -9.446624 ], [ 124.364238, -9.458592 ], [ 124.356262, -9.465591 ], [ 124.355603, -9.477499 ], [ 124.350374, -9.484283 ], [ 124.332108, -9.48623 ], [ 124.315682, -9.495296 ], [ 124.303436, -9.494745 ], [ 124.288693, -9.503746 ], [ 124.279219, -9.502547 ], [ 124.279945, -9.489209 ], [ 124.287483, -9.472678 ], [ 124.283971, -9.459002 ], [ 124.286333, -9.450925 ], [ 124.275261, -9.43438 ], [ 124.275784, -9.427303 ], [ 124.271521, -9.414567 ], [ 124.260462, -9.396245 ], [ 124.252202, -9.392706 ], [ 124.235129, -9.375344 ], [ 124.229795, -9.374841 ], [ 124.216685, -9.366571 ], [ 124.205611, -9.370791 ], [ 124.201844, -9.377731 ], [ 124.192561, -9.378752 ], [ 124.187674, -9.385271 ], [ 124.17098, -9.39366 ], [ 124.16893, -9.39469 ], [ 124.170555, -9.400734 ], [ 124.161735, -9.412752 ], [ 124.161585, -9.418369 ], [ 124.151292, -9.422516 ], [ 124.14913, -9.42608 ], [ 124.133928, -9.425168 ], [ 124.121723, -9.408737 ], [ 124.097315, -9.407486 ], [ 124.088863, -9.395716 ], [ 124.064465, -9.361737 ], [ 124.049153, -9.349484 ], [ 124.044963, -9.342962 ], [ 124.045582, -9.336884 ], [ 124.051858, -9.333498 ], [ 124.060505, -9.333182 ], [ 124.07466, -9.325018 ], [ 124.084692, -9.326841 ], [ 124.088863, -9.325738 ], [ 124.094898, -9.324143 ], [ 124.110593, -9.311178 ], [ 124.121723, -9.309711 ], [ 124.137304, -9.29775 ], [ 124.154245, -9.295806 ], [ 124.162944, -9.290862 ], [ 124.17098, -9.280555 ], [ 124.173382, -9.277473 ], [ 124.186442, -9.250468 ], [ 124.20421, -9.244467 ], [ 124.214143, -9.244118 ], [ 124.224053, -9.237647 ], [ 124.253842, -9.236123 ], [ 124.263147, -9.22606 ], [ 124.277752, -9.220526 ], [ 124.300053, -9.212076 ], [ 124.310153, -9.199295 ], [ 124.341766, -9.19582 ], [ 124.369987, -9.198007 ], [ 124.390958, -9.187963 ], [ 124.398016, -9.187199 ], [ 124.410914, -9.174348 ], [ 124.42677, -9.167882 ], [ 124.448401, -9.167218 ], [ 124.464229, -9.171497 ], [ 124.477173, -9.174998 ] ] ], [ [ [ 125.501733, -8.26472 ], [ 125.504425, -8.258533 ], [ 125.520071, -8.245065 ], [ 125.526399, -8.225815 ], [ 125.53286, -8.221939 ], [ 125.54985, -8.219391 ], [ 125.56237, -8.199662 ], [ 125.565551, -8.196239 ], [ 125.574324, -8.186802 ], [ 125.586385, -8.174488 ], [ 125.591462, -8.16277 ], [ 125.607118, -8.14969 ], [ 125.619042, -8.133487 ], [ 125.631913, -8.127681 ], [ 125.635842, -8.128404 ], [ 125.642676, -8.162894 ], [ 125.639952, -8.173491 ], [ 125.634456, -8.182966 ], [ 125.632277, -8.194364 ], [ 125.630456, -8.196239 ], [ 125.616022, -8.21111 ], [ 125.610174, -8.222055 ], [ 125.607446, -8.233218 ], [ 125.608429, -8.257505 ], [ 125.598975, -8.285267 ], [ 125.582328, -8.306583 ], [ 125.574324, -8.306913 ], [ 125.5621, -8.305976 ], [ 125.552635, -8.297969 ], [ 125.528669, -8.295904 ], [ 125.507309, -8.276145 ], [ 125.501733, -8.26472 ] ] ], [ [ [ 127.307681, -8.421828 ], [ 127.309156, -8.416605 ], [ 127.316233, -8.41187 ], [ 127.323602, -8.41135 ], [ 127.331901, -8.415477 ], [ 127.337072, -8.421081 ], [ 127.341974, -8.432095 ], [ 127.342182, -8.437988 ], [ 127.339438, -8.442242 ], [ 127.331778, -8.444391 ], [ 127.328151, -8.448042 ], [ 127.320697, -8.446036 ], [ 127.315526, -8.440268 ], [ 127.310055, -8.436955 ], [ 127.308173, -8.428715 ], [ 127.307681, -8.421828 ] ] ] ] } }
]
}
