{
"type": "FeatureCollection",
"name": "Togo",
"crs": { "type": "name", "properties": { "name": "urn:ogc:def:crs:OGC:1.3:CRS84" } },
"features": [
{ "type": "Feature", "properties": { "id": "TG", "CNTR_ID": "TG", "CNTR_NAME": "Togo", "NAME_ENGL": "Togo", "ISO3_CODE": "TGO", "FID": "TG" }, "geometry": { "type": "MultiPolygon", "coordinates": [ [ [ [ 1.628739, 6.23453 ], [ 1.604907, 6.2297 ], [ 1.558176, 6.22023 ], [ 1.52841, 6.21126 ], [ 1.511935, 6.208586 ], [ 1.485882, 6.204359 ], [ 1.381183, 6.177178 ], [ 1.296597, 6.149196 ], [ 1.286075, 6.143367 ], [ 1.282181, 6.135513 ], [ 1.262399, 6.133663 ], [ 1.199609, 6.112424 ], [ 1.200201, 6.168512 ], [ 1.180848, 6.168466 ], [ 1.160107, 6.168417 ], [ 1.08535, 6.168241 ], [ 1.083517, 6.171341 ], [ 1.083365, 6.187695 ], [ 1.069068, 6.207304 ], [ 1.065729, 6.219147 ], [ 1.054938, 6.231336 ], [ 1.046965, 6.232515 ], [ 1.038885, 6.235794 ], [ 1.031066, 6.247341 ], [ 1.024381, 6.254143 ], [ 1.024298, 6.25749 ], [ 1.018485, 6.271394 ], [ 1.016578, 6.28458 ], [ 1.008545, 6.292066 ], [ 1.008143, 6.303241 ], [ 1.006443, 6.309424 ], [ 1.008081, 6.312492 ], [ 1.009403, 6.325033 ], [ 1.005281, 6.332635 ], [ 0.893965, 6.333287 ], [ 0.892484, 6.337541 ], [ 0.888779, 6.341478 ], [ 0.88819, 6.347682 ], [ 0.884602, 6.354806 ], [ 0.87863, 6.358387 ], [ 0.873862, 6.367505 ], [ 0.868934, 6.371279 ], [ 0.858683, 6.380333 ], [ 0.856669, 6.383669 ], [ 0.829805, 6.399193 ], [ 0.789351, 6.409078 ], [ 0.780536, 6.432113 ], [ 0.749025, 6.443417 ], [ 0.743998, 6.480321 ], [ 0.727424, 6.488616 ], [ 0.720103, 6.500013 ], [ 0.713294, 6.529404 ], [ 0.726751, 6.546444 ], [ 0.74321, 6.558785 ], [ 0.740126, 6.582735 ], [ 0.727421, 6.590894 ], [ 0.709807, 6.587053 ], [ 0.689601, 6.591937 ], [ 0.686847, 6.594817 ], [ 0.689189, 6.600032 ], [ 0.673562, 6.613432 ], [ 0.66548, 6.607578 ], [ 0.656643, 6.60938 ], [ 0.647781, 6.626954 ], [ 0.638568, 6.636257 ], [ 0.638287, 6.64851 ], [ 0.643083, 6.659874 ], [ 0.643579, 6.695598 ], [ 0.647818, 6.710232 ], [ 0.642759, 6.722715 ], [ 0.649774, 6.737355 ], [ 0.63606, 6.746737 ], [ 0.626592, 6.747479 ], [ 0.621563, 6.753019 ], [ 0.608164, 6.748624 ], [ 0.600568, 6.757066 ], [ 0.580015, 6.764476 ], [ 0.573838, 6.773432 ], [ 0.576143, 6.776815 ], [ 0.567139, 6.785439 ], [ 0.569177, 6.800902 ], [ 0.577652, 6.800511 ], [ 0.579735, 6.807266 ], [ 0.569512, 6.811648 ], [ 0.566875, 6.821995 ], [ 0.549738, 6.83285 ], [ 0.54116, 6.826202 ], [ 0.533996, 6.829087 ], [ 0.532785, 6.854758 ], [ 0.542995, 6.863539 ], [ 0.535258, 6.876404 ], [ 0.552182, 6.881706 ], [ 0.557348, 6.886374 ], [ 0.56485, 6.920197 ], [ 0.561714, 6.926201 ], [ 0.550121, 6.93072 ], [ 0.547345, 6.935877 ], [ 0.523397, 6.941961 ], [ 0.520948, 6.948449 ], [ 0.52347, 6.973858 ], [ 0.533188, 6.977245 ], [ 0.547341, 6.990949 ], [ 0.569078, 6.996745 ], [ 0.579207, 6.99533 ], [ 0.594024, 7.006408 ], [ 0.592328, 7.012209 ], [ 0.601004, 7.026373 ], [ 0.596512, 7.060986 ], [ 0.611547, 7.087118 ], [ 0.61311, 7.101508 ], [ 0.592995, 7.114223 ], [ 0.597615, 7.133191 ], [ 0.605795, 7.142317 ], [ 0.60611, 7.157411 ], [ 0.613558, 7.157561 ], [ 0.616814, 7.161945 ], [ 0.616411, 7.18172 ], [ 0.624774, 7.186136 ], [ 0.629195, 7.196272 ], [ 0.632482, 7.217802 ], [ 0.637309, 7.22555 ], [ 0.644659, 7.286571 ], [ 0.650476, 7.292076 ], [ 0.658416, 7.318712 ], [ 0.647915, 7.3605 ], [ 0.647349, 7.379151 ], [ 0.642678, 7.399819 ], [ 0.630569, 7.403055 ], [ 0.625022, 7.410087 ], [ 0.618536, 7.412076 ], [ 0.606494, 7.405428 ], [ 0.601514, 7.405717 ], [ 0.594813, 7.398419 ], [ 0.575044, 7.393903 ], [ 0.567699, 7.395647 ], [ 0.538369, 7.424845 ], [ 0.53828, 7.433928 ], [ 0.533509, 7.441226 ], [ 0.532344, 7.457838 ], [ 0.521259, 7.458061 ], [ 0.521664, 7.473418 ], [ 0.527748, 7.485148 ], [ 0.521335, 7.513734 ], [ 0.520809, 7.51608 ], [ 0.525808, 7.525976 ], [ 0.530038, 7.583981 ], [ 0.528925, 7.5906 ], [ 0.522269, 7.593906 ], [ 0.540499, 7.608612 ], [ 0.553589, 7.610363 ], [ 0.587193, 7.627179 ], [ 0.594676, 7.701826 ], [ 0.609239, 7.7102 ], [ 0.623518, 7.705414 ], [ 0.631236, 7.707717 ], [ 0.619656, 7.746495 ], [ 0.612178, 7.752188 ], [ 0.621032, 7.76308 ], [ 0.62985, 7.768649 ], [ 0.632369, 7.778043 ], [ 0.62805, 7.795003 ], [ 0.61917, 7.797132 ], [ 0.61745, 7.800827 ], [ 0.618169, 7.840633 ], [ 0.622391, 7.845743 ], [ 0.623915, 7.866319 ], [ 0.623538, 7.868316 ], [ 0.609126, 7.944501 ], [ 0.600455, 7.956253 ], [ 0.596797, 7.973585 ], [ 0.597486, 7.98698 ], [ 0.595005, 7.993705 ], [ 0.598466, 8.024455 ], [ 0.590702, 8.060775 ], [ 0.583614, 8.093925 ], [ 0.58438, 8.101981 ], [ 0.589717, 8.107205 ], [ 0.591396, 8.137779 ], [ 0.605583, 8.145714 ], [ 0.60663, 8.171839 ], [ 0.610975, 8.181758 ], [ 0.60166, 8.181883 ], [ 0.590248, 8.192309 ], [ 0.587365, 8.1979 ], [ 0.5879, 8.206565 ], [ 0.591576, 8.209598 ], [ 0.61822, 8.216138 ], [ 0.624821, 8.228589 ], [ 0.624864, 8.23808 ], [ 0.636181, 8.246951 ], [ 0.638625, 8.258254 ], [ 0.658414, 8.25917 ], [ 0.670641, 8.263799 ], [ 0.67545, 8.268749 ], [ 0.678539, 8.278666 ], [ 0.684286, 8.2824 ], [ 0.718866, 8.282591 ], [ 0.726532, 8.285273 ], [ 0.731045, 8.291825 ], [ 0.733144, 8.322139 ], [ 0.730431, 8.345801 ], [ 0.719691, 8.355334 ], [ 0.710384, 8.359145 ], [ 0.709799, 8.386663 ], [ 0.699384, 8.395771 ], [ 0.704239, 8.400672 ], [ 0.693751, 8.401694 ], [ 0.685154, 8.416478 ], [ 0.678018, 8.416901 ], [ 0.665486, 8.424615 ], [ 0.650574, 8.428711 ], [ 0.650809, 8.454453 ], [ 0.653685, 8.46005 ], [ 0.643391, 8.479074 ], [ 0.6433, 8.494741 ], [ 0.638167, 8.498317 ], [ 0.627161, 8.498954 ], [ 0.624633, 8.503063 ], [ 0.626329, 8.508595 ], [ 0.619138, 8.51299 ], [ 0.601267, 8.517887 ], [ 0.590295, 8.516892 ], [ 0.58243, 8.525398 ], [ 0.569406, 8.525937 ], [ 0.568482, 8.533446 ], [ 0.558601, 8.549498 ], [ 0.537394, 8.55659 ], [ 0.529604, 8.56867 ], [ 0.519438, 8.5627 ], [ 0.510277, 8.564084 ], [ 0.499408, 8.573987 ], [ 0.491088, 8.595949 ], [ 0.483263, 8.596739 ], [ 0.477094, 8.59369 ], [ 0.47152, 8.595883 ], [ 0.39683, 8.71536 ], [ 0.38199, 8.739094 ], [ 0.383819, 8.745823 ], [ 0.379611, 8.753501 ], [ 0.39541, 8.754754 ], [ 0.400563, 8.759668 ], [ 0.398776, 8.763213 ], [ 0.385729, 8.766817 ], [ 0.381226, 8.771234 ], [ 0.381611, 8.790768 ], [ 0.392441, 8.793521 ], [ 0.417107, 8.792517 ], [ 0.427736, 8.781273 ], [ 0.44136, 8.789416 ], [ 0.438881, 8.794606 ], [ 0.431697, 8.794625 ], [ 0.431723, 8.797203 ], [ 0.442486, 8.80244 ], [ 0.450973, 8.812296 ], [ 0.455941, 8.810454 ], [ 0.458599, 8.801993 ], [ 0.466585, 8.79374 ], [ 0.471493, 8.798564 ], [ 0.487926, 8.800544 ], [ 0.497133, 8.814693 ], [ 0.49522, 8.822062 ], [ 0.498875, 8.829933 ], [ 0.496192, 8.840117 ], [ 0.510007, 8.852188 ], [ 0.516696, 8.85266 ], [ 0.519819, 8.857214 ], [ 0.518285, 8.868435 ], [ 0.523328, 8.880871 ], [ 0.509074, 8.904436 ], [ 0.507416, 8.917871 ], [ 0.51072, 8.937206 ], [ 0.504808, 8.948984 ], [ 0.491258, 8.957459 ], [ 0.467118, 9.006592 ], [ 0.467534, 9.018566 ], [ 0.455329, 9.036869 ], [ 0.454685, 9.04964 ], [ 0.456252, 9.054842 ], [ 0.462949, 9.057162 ], [ 0.463086, 9.065046 ], [ 0.459866, 9.069062 ], [ 0.46586, 9.090465 ], [ 0.47232, 9.097112 ], [ 0.481071, 9.099535 ], [ 0.483174, 9.103443 ], [ 0.484146, 9.115109 ], [ 0.47581, 9.144703 ], [ 0.490773, 9.155453 ], [ 0.501334, 9.154602 ], [ 0.50941, 9.164296 ], [ 0.519636, 9.190484 ], [ 0.529921, 9.205261 ], [ 0.503858, 9.254934 ], [ 0.537328, 9.302243 ], [ 0.549909, 9.301799 ], [ 0.553606, 9.305342 ], [ 0.554803, 9.316772 ], [ 0.549097, 9.323594 ], [ 0.544975, 9.343074 ], [ 0.55118, 9.354815 ], [ 0.563819, 9.402644 ], [ 0.55378, 9.412424 ], [ 0.550607, 9.422105 ], [ 0.523987, 9.430778 ], [ 0.51816, 9.438307 ], [ 0.499021, 9.437809 ], [ 0.494086, 9.448598 ], [ 0.503313, 9.463692 ], [ 0.499564, 9.474367 ], [ 0.487203, 9.486185 ], [ 0.48016, 9.484771 ], [ 0.463907, 9.489717 ], [ 0.453444, 9.497406 ], [ 0.438362, 9.495056 ], [ 0.4141, 9.498619 ], [ 0.406503, 9.493107 ], [ 0.387554, 9.490947 ], [ 0.359626, 9.497755 ], [ 0.345686, 9.485439 ], [ 0.34951, 9.472288 ], [ 0.336857, 9.450701 ], [ 0.319134, 9.44572 ], [ 0.284796, 9.429323 ], [ 0.265971, 9.428589 ], [ 0.250324, 9.436528 ], [ 0.246387, 9.445689 ], [ 0.231842, 9.462699 ], [ 0.229964, 9.479531 ], [ 0.232955, 9.485218 ], [ 0.239605, 9.484699 ], [ 0.256792, 9.476581 ], [ 0.269786, 9.477217 ], [ 0.278071, 9.485909 ], [ 0.288857, 9.487007 ], [ 0.309731, 9.499504 ], [ 0.313767, 9.505503 ], [ 0.310078, 9.513606 ], [ 0.294063, 9.522608 ], [ 0.283462, 9.52373 ], [ 0.258369, 9.518838 ], [ 0.245665, 9.523078 ], [ 0.238484, 9.54063 ], [ 0.243641, 9.571112 ], [ 0.251259, 9.571935 ], [ 0.267874, 9.564409 ], [ 0.291152, 9.572688 ], [ 0.321574, 9.571801 ], [ 0.335924, 9.574352 ], [ 0.356824, 9.569272 ], [ 0.374763, 9.577096 ], [ 0.38356, 9.586318 ], [ 0.374464, 9.606211 ], [ 0.381748, 9.640797 ], [ 0.370018, 9.651148 ], [ 0.362269, 9.671244 ], [ 0.352361, 9.675361 ], [ 0.352171, 9.690939 ], [ 0.345274, 9.714412 ], [ 0.338514, 9.718829 ], [ 0.325095, 9.72074 ], [ 0.321208, 9.725178 ], [ 0.329903, 9.754953 ], [ 0.328285, 9.769678 ], [ 0.33565, 9.776878 ], [ 0.33249, 9.793335 ], [ 0.340653, 9.803105 ], [ 0.343115, 9.815028 ], [ 0.351799, 9.826416 ], [ 0.357019, 9.843267 ], [ 0.356145, 9.864352 ], [ 0.351582, 9.897367 ], [ 0.355156, 9.918759 ], [ 0.3608, 9.927506 ], [ 0.381829, 9.933581 ], [ 0.386487, 9.93851 ], [ 0.384796, 9.948123 ], [ 0.367742, 9.965332 ], [ 0.359357, 9.984157 ], [ 0.357491, 9.995675 ], [ 0.362774, 10.010989 ], [ 0.360338, 10.028797 ], [ 0.364566, 10.031306 ], [ 0.374779, 10.025906 ], [ 0.391378, 10.02437 ], [ 0.40193, 10.019339 ], [ 0.408768, 10.020412 ], [ 0.412014, 10.025346 ], [ 0.412855, 10.04517 ], [ 0.416672, 10.05677 ], [ 0.411473, 10.065492 ], [ 0.394569, 10.079484 ], [ 0.360441, 10.0864 ], [ 0.355236, 10.092611 ], [ 0.353324, 10.101772 ], [ 0.353702, 10.109326 ], [ 0.363479, 10.135356 ], [ 0.362533, 10.144002 ], [ 0.351626, 10.16646 ], [ 0.354034, 10.179562 ], [ 0.352471, 10.191586 ], [ 0.36054, 10.221943 ], [ 0.362342, 10.258321 ], [ 0.364847, 10.262623 ], [ 0.38121, 10.272077 ], [ 0.379657, 10.277309 ], [ 0.372554, 10.280281 ], [ 0.370628, 10.284196 ], [ 0.38502, 10.300228 ], [ 0.396411, 10.304383 ], [ 0.396336, 10.310661 ], [ 0.389691, 10.314343 ], [ 0.36455, 10.309228 ], [ 0.353969, 10.311293 ], [ 0.347414, 10.305913 ], [ 0.322602, 10.308287 ], [ 0.325853, 10.316328 ], [ 0.3363, 10.321104 ], [ 0.338029, 10.326524 ], [ 0.332025, 10.336085 ], [ 0.319924, 10.33605 ], [ 0.313453, 10.361942 ], [ 0.307596, 10.368478 ], [ 0.294871, 10.374831 ], [ 0.2945, 10.38015 ], [ 0.301971, 10.390972 ], [ 0.30128, 10.400193 ], [ 0.298388, 10.406866 ], [ 0.291762, 10.408537 ], [ 0.287798, 10.417845 ], [ 0.275359, 10.418167 ], [ 0.264846, 10.407123 ], [ 0.25748, 10.40576 ], [ 0.244582, 10.412271 ], [ 0.236781, 10.410748 ], [ 0.218917, 10.422707 ], [ 0.208254, 10.415103 ], [ 0.209005, 10.404171 ], [ 0.194642, 10.401382 ], [ 0.185871, 10.418642 ], [ 0.173332, 10.426734 ], [ 0.170955, 10.437518 ], [ 0.173815, 10.446401 ], [ 0.158974, 10.460631 ], [ 0.16034, 10.467127 ], [ 0.161412, 10.472231 ], [ 0.153631, 10.484039 ], [ 0.152864, 10.49435 ], [ 0.143253, 10.524711 ], [ 0.130195, 10.529854 ], [ 0.116916, 10.539741 ], [ 0.062864, 10.560246 ], [ 0.056376, 10.581541 ], [ 0.038958, 10.600329 ], [ -0.01101, 10.614961 ], [ -0.017541, 10.621951 ], [ -0.059693, 10.632498 ], [ -0.069919, 10.658672 ], [ -0.071973, 10.672987 ], [ -0.089944, 10.709361 ], [ -0.086466, 10.714242 ], [ -0.073405, 10.719952 ], [ -0.071405, 10.74024 ], [ -0.07484, 10.756062 ], [ -0.069955, 10.767862 ], [ -0.056934, 10.785254 ], [ -0.04624, 10.792545 ], [ -0.040976, 10.801326 ], [ -0.031121, 10.807396 ], [ -0.022597, 10.820245 ], [ -0.02354, 10.834012 ], [ -0.029028, 10.849476 ], [ -0.028716, 10.859406 ], [ -0.024809, 10.879524 ], [ -0.007294, 10.915065 ], [ -0.010976, 10.937453 ], [ -0.006538, 10.945613 ], [ -0.005794, 10.958738 ], [ -0.001223, 10.962831 ], [ 0.00953, 10.964736 ], [ 0.032704, 10.979869 ], [ 0.03413, 10.990143 ], [ 0.027211, 11.008096 ], [ 0.022681, 11.080692 ], [ 0.010922, 11.100034 ], [ -0.004047, 11.105071 ], [ -0.036353, 11.104992 ], [ -0.074144, 11.092558 ], [ -0.094631, 11.08885 ], [ -0.111775, 11.090529 ], [ -0.127301, 11.100285 ], [ -0.14492, 11.104109 ], [ -0.146964, 11.113608 ], [ -0.14201, 11.138979 ], [ 0.500925, 11.009014 ], [ 0.501025, 11.003777 ], [ 0.490924, 10.98683 ], [ 0.493956, 10.982909 ], [ 0.504057, 10.981586 ], [ 0.505919, 10.977758 ], [ 0.497235, 10.932566 ], [ 0.585859, 10.96846 ], [ 0.596206, 10.970365 ], [ 0.657269, 10.997234 ], [ 0.91216, 10.99649 ], [ 0.890724, 10.920094 ], [ 0.900168, 10.886145 ], [ 0.884593, 10.859917 ], [ 0.873592, 10.805188 ], [ 0.867809, 10.795667 ], [ 0.850776, 10.781874 ], [ 0.810083, 10.734017 ], [ 0.801777, 10.717203 ], [ 0.797186, 10.684615 ], [ 0.80594, 10.641403 ], [ 0.807418, 10.5897 ], [ 0.800991, 10.558645 ], [ 0.783132, 10.510127 ], [ 0.78037, 10.467127 ], [ 0.775119, 10.385339 ], [ 1.01622, 10.207763 ], [ 1.088823, 10.158361 ], [ 1.137013, 10.127501 ], [ 1.160107, 10.113993 ], [ 1.353575, 10.000814 ], [ 1.358101, 9.949841 ], [ 1.360871, 9.864352 ], [ 1.364465, 9.787755 ], [ 1.363148, 9.69984 ], [ 1.36898, 9.660794 ], [ 1.365713, 9.610914 ], [ 1.342607, 9.548254 ], [ 1.342782, 9.542682 ], [ 1.358251, 9.509524 ], [ 1.360915, 9.487387 ], [ 1.365914, 9.486158 ], [ 1.388035, 9.496095 ], [ 1.391008, 9.494077 ], [ 1.401035, 9.434749 ], [ 1.40331, 9.354689 ], [ 1.408401, 9.33405 ], [ 1.420027, 9.309425 ], [ 1.447858, 9.281947 ], [ 1.462668, 9.254511 ], [ 1.477869, 9.237173 ], [ 1.511935, 9.204395 ], [ 1.525368, 9.19147 ], [ 1.559167, 9.169642 ], [ 1.579442, 9.131449 ], [ 1.598678, 9.109689 ], [ 1.604907, 9.096961 ], [ 1.616377, 9.073524 ], [ 1.616697, 9.062167 ], [ 1.624947, 9.040687 ], [ 1.629441, 9.001322 ], [ 1.622746, 8.955025 ], [ 1.629725, 8.906731 ], [ 1.629545, 8.82995 ], [ 1.633016, 8.794767 ], [ 1.628779, 8.647545 ], [ 1.631145, 8.521533 ], [ 1.648339, 8.49147 ], [ 1.649909, 8.479855 ], [ 1.645732, 8.46971 ], [ 1.630992, 8.449802 ], [ 1.632479, 8.43854 ], [ 1.626948, 8.427932 ], [ 1.627462, 8.413866 ], [ 1.620135, 8.373905 ], [ 1.624354, 8.353703 ], [ 1.631653, 8.340282 ], [ 1.633461, 8.317287 ], [ 1.636177, 7.987713 ], [ 1.631502, 7.868316 ], [ 1.63034, 7.838629 ], [ 1.636143, 7.80202 ], [ 1.631384, 7.66448 ], [ 1.637354, 7.640974 ], [ 1.650181, 7.613628 ], [ 1.648475, 7.566839 ], [ 1.652595, 7.535741 ], [ 1.659376, 7.521983 ], [ 1.668502, 7.516428 ], [ 1.677011, 7.498726 ], [ 1.673952, 7.494876 ], [ 1.651468, 7.493645 ], [ 1.644763, 7.486712 ], [ 1.63649, 7.417878 ], [ 1.635831, 7.267782 ], [ 1.641773, 6.996529 ], [ 1.604907, 6.994504 ], [ 1.593658, 6.993886 ], [ 1.58158, 6.997792 ], [ 1.560677, 6.997295 ], [ 1.558087, 6.995167 ], [ 1.559558, 6.972237 ], [ 1.573862, 6.94694 ], [ 1.578896, 6.921418 ], [ 1.585799, 6.914285 ], [ 1.604907, 6.903851 ], [ 1.605508, 6.903523 ], [ 1.605841, 6.883577 ], [ 1.604907, 6.882554 ], [ 1.597538, 6.87403 ], [ 1.595393, 6.866811 ], [ 1.601156, 6.850806 ], [ 1.600743, 6.831461 ], [ 1.604907, 6.827742 ], [ 1.612487, 6.828016 ], [ 1.61392, 6.825259 ], [ 1.604907, 6.817322 ], [ 1.599203, 6.8123 ], [ 1.597224, 6.805322 ], [ 1.599557, 6.800484 ], [ 1.604907, 6.799855 ], [ 1.607926, 6.799501 ], [ 1.611507, 6.795384 ], [ 1.608129, 6.780466 ], [ 1.609281, 6.770725 ], [ 1.624968, 6.76081 ], [ 1.617982, 6.751064 ], [ 1.618936, 6.742488 ], [ 1.607041, 6.735227 ], [ 1.604907, 6.73275 ], [ 1.59985, 6.72688 ], [ 1.592805, 6.724396 ], [ 1.591176, 6.705549 ], [ 1.574925, 6.689212 ], [ 1.578838, 6.685417 ], [ 1.589493, 6.683022 ], [ 1.603228, 6.664812 ], [ 1.604907, 6.659784 ], [ 1.610518, 6.642984 ], [ 1.604907, 6.637461 ], [ 1.603448, 6.636025 ], [ 1.602891, 6.626954 ], [ 1.604907, 6.624175 ], [ 1.609558, 6.617764 ], [ 1.610213, 6.605888 ], [ 1.617342, 6.597444 ], [ 1.633206, 6.596892 ], [ 1.641277, 6.582976 ], [ 1.652835, 6.578666 ], [ 1.665492, 6.584182 ], [ 1.674095, 6.582688 ], [ 1.675028, 6.577444 ], [ 1.667072, 6.563842 ], [ 1.667992, 6.559241 ], [ 1.673224, 6.556403 ], [ 1.683445, 6.559481 ], [ 1.688768, 6.552805 ], [ 1.697287, 6.549397 ], [ 1.701764, 6.515953 ], [ 1.69491, 6.509938 ], [ 1.695126, 6.502163 ], [ 1.706132, 6.496728 ], [ 1.712686, 6.498485 ], [ 1.71848, 6.493952 ], [ 1.727743, 6.497394 ], [ 1.729545, 6.48836 ], [ 1.736236, 6.482289 ], [ 1.735383, 6.474816 ], [ 1.749707, 6.464146 ], [ 1.747347, 6.455596 ], [ 1.7528, 6.449628 ], [ 1.755985, 6.435943 ], [ 1.77519, 6.416403 ], [ 1.769475, 6.408839 ], [ 1.769682, 6.399483 ], [ 1.773024, 6.394363 ], [ 1.772269, 6.379316 ], [ 1.781019, 6.370443 ], [ 1.788547, 6.351735 ], [ 1.783787, 6.337448 ], [ 1.797662, 6.311532 ], [ 1.790379, 6.301525 ], [ 1.805544, 6.284742 ], [ 1.798167, 6.280796 ], [ 1.771513, 6.281791 ], [ 1.764469, 6.272406 ], [ 1.749156, 6.270814 ], [ 1.710909, 6.257628 ], [ 1.680079, 6.25391 ], [ 1.667893, 6.248016 ], [ 1.64419, 6.247494 ], [ 1.63091, 6.242519 ], [ 1.628739, 6.23453 ] ] ] ] } }
]
}
