{
"type": "FeatureCollection",
"name": "Tokelau",
"crs": { "type": "name", "properties": { "name": "urn:ogc:def:crs:OGC:1.3:CRS84" } },
"features": [
{ "type": "Feature", "properties": { "id": "TK", "CNTR_ID": "TK", "CNTR_NAME": "Tokelau-Tokelau", "NAME_ENGL": "Tokelau", "ISO3_CODE": "TKL", "FID": "TK" }, "geometry": { "type": "MultiPolygon", "coordinates": [ [ [ [ -172.502832, -8.582737 ], [ -172.497372, -8.577291 ], [ -172.492307, -8.576811 ], [ -172.488218, -8.574992 ], [ -172.486586, -8.575929 ], [ -172.482362, -8.573557 ], [ -172.477377, -8.572368 ], [ -172.475353, -8.570234 ], [ -172.469778, -8.573451 ], [ -172.467078, -8.572422 ], [ -172.469298, -8.567695 ], [ -172.46759, -8.559578 ], [ -172.472029, -8.557694 ], [ -172.481625, -8.5513 ], [ -172.490136, -8.542188 ], [ -172.494929, -8.53487 ], [ -172.493572, -8.533371 ], [ -172.486318, -8.542465 ], [ -172.478182, -8.549574 ], [ -172.467146, -8.555907 ], [ -172.465439, -8.558032 ], [ -172.466628, -8.565968 ], [ -172.464448, -8.57348 ], [ -172.4654, -8.57564 ], [ -172.479024, -8.576045 ], [ -172.492187, -8.579329 ], [ -172.501505, -8.584034 ], [ -172.502832, -8.582737 ] ] ], [ [ [ -171.207323, -9.439545 ], [ -171.20105, -9.433237 ], [ -171.198071, -9.431387 ], [ -171.199021, -9.428742 ], [ -171.195651, -9.426423 ], [ -171.195744, -9.418234 ], [ -171.199591, -9.413347 ], [ -171.197615, -9.405594 ], [ -171.198999, -9.404014 ], [ -171.198996, -9.39898 ], [ -171.196642, -9.398395 ], [ -171.19548, -9.412379 ], [ -171.193075, -9.420002 ], [ -171.193996, -9.43231 ], [ -171.197169, -9.434125 ], [ -171.203704, -9.442651 ], [ -171.206804, -9.442982 ], [ -171.207323, -9.439545 ] ] ], [ [ [ -171.864017, -9.167891 ], [ -171.859602, -9.154707 ], [ -171.859319, -9.144561 ], [ -171.860964, -9.133123 ], [ -171.863159, -9.13208 ], [ -171.861798, -9.127932 ], [ -171.859437, -9.127625 ], [ -171.857963, -9.131022 ], [ -171.858771, -9.13418 ], [ -171.857068, -9.142763 ], [ -171.857714, -9.150977 ], [ -171.856965, -9.156948 ], [ -171.86176, -9.1669 ], [ -171.859093, -9.166691 ], [ -171.859319, -9.170035 ], [ -171.862512, -9.170028 ], [ -171.864017, -9.167891 ] ] ], [ [ [ -171.207906, -9.328794 ], [ -171.20471, -9.32824 ], [ -171.193924, -9.338697 ], [ -171.189611, -9.345398 ], [ -171.186644, -9.348079 ], [ -171.184171, -9.353043 ], [ -171.185735, -9.354023 ], [ -171.198779, -9.337086 ], [ -171.204315, -9.333275 ], [ -171.207906, -9.328794 ] ] ], [ [ [ -171.787764, -9.15674 ], [ -171.787664, -9.152938 ], [ -171.785886, -9.152766 ], [ -171.782332, -9.168371 ], [ -171.778854, -9.177385 ], [ -171.780511, -9.178076 ], [ -171.78338, -9.171983 ], [ -171.787764, -9.15674 ] ] ], [ [ [ -172.521092, -8.535509 ], [ -172.518493, -8.532464 ], [ -172.508394, -8.532783 ], [ -172.508253, -8.536081 ], [ -172.516344, -8.534086 ], [ -172.51709, -8.539167 ], [ -172.514785, -8.542989 ], [ -172.516882, -8.543653 ], [ -172.521092, -8.535509 ] ] ], [ [ [ -171.788596, -9.108425 ], [ -171.786491, -9.103995 ], [ -171.780818, -9.101929 ], [ -171.780617, -9.108353 ], [ -171.783277, -9.11115 ], [ -171.788596, -9.108425 ] ] ], [ [ [ -171.269966, -9.37745 ], [ -171.268703, -9.372755 ], [ -171.257282, -9.37404 ], [ -171.259417, -9.376634 ], [ -171.267948, -9.378254 ], [ -171.269966, -9.37745 ] ] ], [ [ [ -171.199752, -9.380617 ], [ -171.195543, -9.379962 ], [ -171.197853, -9.377856 ], [ -171.197306, -9.375215 ], [ -171.190989, -9.376506 ], [ -171.193778, -9.379572 ], [ -171.193913, -9.385299 ], [ -171.198855, -9.383105 ], [ -171.199752, -9.380617 ] ] ], [ [ [ -172.511752, -8.57155 ], [ -172.511439, -8.566044 ], [ -172.507949, -8.566928 ], [ -172.506807, -8.572729 ], [ -172.505063, -8.573605 ], [ -172.508332, -8.576259 ], [ -172.511752, -8.57155 ] ] ], [ [ [ -172.510708, -8.577491 ], [ -172.506356, -8.578211 ], [ -172.50336, -8.585664 ], [ -172.506043, -8.586786 ], [ -172.509166, -8.583838 ], [ -172.507593, -8.582071 ], [ -172.510213, -8.581042 ], [ -172.510708, -8.577491 ] ] ], [ [ [ -171.791048, -9.131403 ], [ -171.79104, -9.127446 ], [ -171.788984, -9.122539 ], [ -171.787072, -9.122481 ], [ -171.787048, -9.13314 ], [ -171.791048, -9.131403 ] ] ], [ [ [ -171.789974, -9.134906 ], [ -171.786778, -9.136768 ], [ -171.78587, -9.148165 ], [ -171.787838, -9.149155 ], [ -171.789974, -9.134906 ] ] ], [ [ [ -171.190221, -9.363957 ], [ -171.18906, -9.360023 ], [ -171.186068, -9.360965 ], [ -171.182554, -9.356287 ], [ -171.18099, -9.359425 ], [ -171.186543, -9.364828 ], [ -171.190221, -9.363957 ] ] ], [ [ [ -171.772107, -9.216351 ], [ -171.769101, -9.212566 ], [ -171.76841, -9.208234 ], [ -171.76997, -9.204365 ], [ -171.76822, -9.203667 ], [ -171.765417, -9.210407 ], [ -171.768701, -9.216359 ], [ -171.772107, -9.216351 ] ] ], [ [ [ -171.868139, -9.178574 ], [ -171.867838, -9.174246 ], [ -171.864572, -9.174052 ], [ -171.865104, -9.180887 ], [ -171.867854, -9.181824 ], [ -171.868139, -9.178574 ] ] ], [ [ [ -171.214704, -9.325225 ], [ -171.21118, -9.324237 ], [ -171.208153, -9.327382 ], [ -171.214233, -9.329433 ], [ -171.214704, -9.325225 ] ] ], [ [ [ -171.193557, -9.369474 ], [ -171.191408, -9.366009 ], [ -171.188211, -9.366553 ], [ -171.1898, -9.371342 ], [ -171.191558, -9.372304 ], [ -171.193557, -9.369474 ] ] ], [ [ [ -172.502255, -8.537466 ], [ -172.498402, -8.533501 ], [ -172.496413, -8.534294 ], [ -172.496956, -8.53819 ], [ -172.499819, -8.539294 ], [ -172.502255, -8.537466 ] ] ], [ [ [ -171.863432, -9.120553 ], [ -171.862555, -9.116764 ], [ -171.857413, -9.116662 ], [ -171.859792, -9.121596 ], [ -171.863432, -9.120553 ] ] ], [ [ [ -171.780255, -9.180418 ], [ -171.777707, -9.178965 ], [ -171.775552, -9.183664 ], [ -171.777541, -9.185885 ], [ -171.78008, -9.183654 ], [ -171.780255, -9.180418 ] ] ], [ [ [ -171.865079, -9.185156 ], [ -171.862262, -9.184504 ], [ -171.858456, -9.18748 ], [ -171.859286, -9.189977 ], [ -171.864092, -9.187791 ], [ -171.865079, -9.185156 ] ] ], [ [ [ -171.84288, -9.209132 ], [ -171.838886, -9.2078 ], [ -171.837742, -9.211811 ], [ -171.839479, -9.215243 ], [ -171.84288, -9.209132 ] ] ], [ [ [ -171.83744, -9.21698 ], [ -171.836018, -9.214171 ], [ -171.831305, -9.216526 ], [ -171.832234, -9.219264 ], [ -171.835086, -9.21933 ], [ -171.83744, -9.21698 ] ] ], [ [ [ -171.250149, -9.387042 ], [ -171.249701, -9.383831 ], [ -171.246128, -9.382351 ], [ -171.244239, -9.38423 ], [ -171.245186, -9.38681 ], [ -171.250149, -9.387042 ] ] ], [ [ [ -171.201538, -9.390429 ], [ -171.195356, -9.389905 ], [ -171.198148, -9.394807 ], [ -171.201149, -9.394166 ], [ -171.201538, -9.390429 ] ] ], [ [ [ -171.238844, -9.394667 ], [ -171.235592, -9.392891 ], [ -171.233124, -9.394936 ], [ -171.234376, -9.398109 ], [ -171.237242, -9.398203 ], [ -171.238844, -9.394667 ] ] ], [ [ [ -171.229066, -9.405283 ], [ -171.223322, -9.404145 ], [ -171.223899, -9.408709 ], [ -171.226772, -9.409561 ], [ -171.229066, -9.405283 ] ] ], [ [ [ -171.215859, -9.421072 ], [ -171.212685, -9.417924 ], [ -171.209119, -9.420288 ], [ -171.212689, -9.42383 ], [ -171.215859, -9.421072 ] ] ], [ [ [ -171.849976, -9.199574 ], [ -171.849026, -9.198509 ], [ -171.845983, -9.200365 ], [ -171.845162, -9.20383 ], [ -171.846838, -9.203866 ], [ -171.849976, -9.199574 ] ] ], [ [ [ -171.852118, -9.197254 ], [ -171.851323, -9.196391 ], [ -171.849275, -9.196983 ], [ -171.849459, -9.198747 ], [ -171.850539, -9.199177 ], [ -171.852118, -9.197254 ] ] ] ] } }
]
}
