{
"type": "FeatureCollection",
"name": "Tonga",
"crs": { "type": "name", "properties": { "name": "urn:ogc:def:crs:OGC:1.3:CRS84" } },
"features": [
{ "type": "Feature", "properties": { "id": "TO", "CNTR_ID": "TO", "CNTR_NAME": "Tonga-Tonga", "NAME_ENGL": "Tonga", "ISO3_CODE": "TON", "FID": "TO" }, "geometry": { "type": "MultiPolygon", "coordinates": [ [ [ [ -175.356021, -21.094668 ], [ -175.331264, -21.065692 ], [ -175.325833, -21.063009 ], [ -175.324027, -21.067842 ], [ -175.332948, -21.079046 ], [ -175.337888, -21.092082 ], [ -175.335659, -21.107305 ], [ -175.33051, -21.116689 ], [ -175.312902, -21.11896 ], [ -175.288322, -21.126562 ], [ -175.255604, -21.121526 ], [ -175.245895, -21.115769 ], [ -175.234618, -21.115749 ], [ -175.223561, -21.12284 ], [ -175.200442, -21.130287 ], [ -175.189367, -21.136558 ], [ -175.159017, -21.140767 ], [ -175.153317, -21.144772 ], [ -175.15856, -21.153446 ], [ -175.171034, -21.154314 ], [ -175.180942, -21.158581 ], [ -175.206179, -21.146787 ], [ -175.230076, -21.165929 ], [ -175.231126, -21.172121 ], [ -175.226847, -21.176344 ], [ -175.205487, -21.182583 ], [ -175.197796, -21.179517 ], [ -175.203927, -21.171159 ], [ -175.19964, -21.165929 ], [ -175.198337, -21.159129 ], [ -175.195915, -21.157193 ], [ -175.186327, -21.165929 ], [ -175.181518, -21.165929 ], [ -175.173342, -21.160431 ], [ -175.15729, -21.164147 ], [ -175.155948, -21.165929 ], [ -175.141759, -21.167681 ], [ -175.13873, -21.17282 ], [ -175.14214, -21.176955 ], [ -175.138402, -21.180039 ], [ -175.13855, -21.181559 ], [ -175.14269, -21.182906 ], [ -175.1449, -21.179779 ], [ -175.150593, -21.181911 ], [ -175.160372, -21.180304 ], [ -175.169852, -21.182828 ], [ -175.17203, -21.188028 ], [ -175.170495, -21.196045 ], [ -175.161237, -21.1972 ], [ -175.156966, -21.193027 ], [ -175.151277, -21.195865 ], [ -175.147115, -21.187337 ], [ -175.139325, -21.190373 ], [ -175.128238, -21.190429 ], [ -175.126789, -21.182483 ], [ -175.113821, -21.170418 ], [ -175.114373, -21.165929 ], [ -175.120351, -21.1548 ], [ -175.125665, -21.157233 ], [ -175.128544, -21.155655 ], [ -175.122611, -21.141666 ], [ -175.121134, -21.129339 ], [ -175.093577, -21.119923 ], [ -175.06213, -21.127803 ], [ -175.047015, -21.1328 ], [ -175.032246, -21.147386 ], [ -175.033794, -21.154794 ], [ -175.037992, -21.15935 ], [ -175.054232, -21.165929 ], [ -175.06213, -21.16737 ], [ -175.080568, -21.177434 ], [ -175.086265, -21.188839 ], [ -175.10308, -21.209538 ], [ -175.104966, -21.218027 ], [ -175.098441, -21.238192 ], [ -175.100788, -21.250111 ], [ -175.106309, -21.259302 ], [ -175.117147, -21.268888 ], [ -175.127864, -21.27295 ], [ -175.149162, -21.268008 ], [ -175.178452, -21.251902 ], [ -175.194162, -21.222697 ], [ -175.199341, -21.218425 ], [ -175.235109, -21.203175 ], [ -175.256667, -21.198527 ], [ -175.272551, -21.198445 ], [ -175.318837, -21.165929 ], [ -175.331111, -21.160222 ], [ -175.341589, -21.149788 ], [ -175.356021, -21.094668 ] ] ], [ [ [ -174.06632, -18.633637 ], [ -174.063974, -18.626014 ], [ -174.060321, -18.622101 ], [ -174.048855, -18.620797 ], [ -174.037897, -18.621191 ], [ -174.029283, -18.626014 ], [ -174.01454, -18.607621 ], [ -174.005112, -18.600228 ], [ -174.001064, -18.578339 ], [ -173.981829, -18.569851 ], [ -173.973522, -18.567142 ], [ -173.95779, -18.576246 ], [ -173.952737, -18.573404 ], [ -173.933211, -18.573451 ], [ -173.924001, -18.583164 ], [ -173.92806, -18.596069 ], [ -173.920217, -18.600948 ], [ -173.923518, -18.611224 ], [ -173.917701, -18.615256 ], [ -173.907852, -18.616798 ], [ -173.903613, -18.629027 ], [ -173.906538, -18.637877 ], [ -173.920202, -18.640076 ], [ -173.915514, -18.645462 ], [ -173.91579, -18.646741 ], [ -173.924181, -18.646857 ], [ -173.927785, -18.652168 ], [ -173.930842, -18.652046 ], [ -173.936654, -18.646119 ], [ -173.936457, -18.642945 ], [ -173.919666, -18.635917 ], [ -173.924181, -18.631534 ], [ -173.926103, -18.619653 ], [ -173.931524, -18.613244 ], [ -173.93722, -18.611901 ], [ -173.934827, -18.622866 ], [ -173.938917, -18.634532 ], [ -173.956253, -18.62664 ], [ -173.958521, -18.628426 ], [ -173.957071, -18.633781 ], [ -173.951698, -18.633299 ], [ -173.942501, -18.640329 ], [ -173.943058, -18.642801 ], [ -173.948878, -18.642445 ], [ -173.947855, -18.645239 ], [ -173.946679, -18.654637 ], [ -173.953447, -18.657421 ], [ -173.952267, -18.652733 ], [ -173.954864, -18.647536 ], [ -173.960492, -18.647798 ], [ -173.962312, -18.664387 ], [ -173.966491, -18.668254 ], [ -173.96853, -18.666654 ], [ -173.965174, -18.655139 ], [ -173.971693, -18.653906 ], [ -173.974845, -18.658738 ], [ -173.975202, -18.674493 ], [ -173.981829, -18.676374 ], [ -173.986824, -18.685007 ], [ -173.993696, -18.688966 ], [ -173.988531, -18.691623 ], [ -173.983631, -18.704213 ], [ -174.001038, -18.700814 ], [ -174.001748, -18.69701 ], [ -173.99811, -18.692359 ], [ -174.013026, -18.676183 ], [ -174.006113, -18.661722 ], [ -173.993109, -18.654008 ], [ -173.988545, -18.665733 ], [ -173.998336, -18.675877 ], [ -173.996156, -18.678973 ], [ -173.985025, -18.674774 ], [ -173.98052, -18.663991 ], [ -173.981829, -18.661022 ], [ -173.981829, -18.654586 ], [ -173.994293, -18.648329 ], [ -174.001881, -18.650457 ], [ -174.00297, -18.646023 ], [ -173.992714, -18.641549 ], [ -173.999322, -18.637678 ], [ -174.011391, -18.641055 ], [ -174.009554, -18.636002 ], [ -174.014378, -18.634847 ], [ -174.024031, -18.639545 ], [ -174.023017, -18.647462 ], [ -174.017943, -18.649406 ], [ -174.018666, -18.655782 ], [ -174.02538, -18.65845 ], [ -174.036155, -18.669967 ], [ -174.055039, -18.672382 ], [ -174.055719, -18.651392 ], [ -174.064521, -18.647623 ], [ -174.062857, -18.642487 ], [ -174.06632, -18.633637 ] ] ], [ [ [ -174.975352, -21.385537 ], [ -174.974356, -21.378061 ], [ -174.972486, -21.374178 ], [ -174.972839, -21.368519 ], [ -174.969753, -21.363077 ], [ -174.963511, -21.347558 ], [ -174.959841, -21.344682 ], [ -174.958793, -21.341066 ], [ -174.954465, -21.336123 ], [ -174.950114, -21.332981 ], [ -174.944432, -21.326735 ], [ -174.943925, -21.32364 ], [ -174.937998, -21.315331 ], [ -174.934988, -21.304741 ], [ -174.930622, -21.292847 ], [ -174.920862, -21.283847 ], [ -174.914006, -21.283119 ], [ -174.911939, -21.293389 ], [ -174.915912, -21.301855 ], [ -174.913965, -21.305511 ], [ -174.913021, -21.313993 ], [ -174.90856, -21.323618 ], [ -174.906225, -21.338103 ], [ -174.908222, -21.342503 ], [ -174.906241, -21.346596 ], [ -174.906153, -21.352772 ], [ -174.904606, -21.359143 ], [ -174.904123, -21.368475 ], [ -174.90616, -21.381342 ], [ -174.903417, -21.390573 ], [ -174.901873, -21.39287 ], [ -174.902461, -21.399827 ], [ -174.901488, -21.400587 ], [ -174.903049, -21.406783 ], [ -174.902147, -21.412177 ], [ -174.903917, -21.423009 ], [ -174.901927, -21.427617 ], [ -174.900963, -21.437385 ], [ -174.899699, -21.439171 ], [ -174.901297, -21.442795 ], [ -174.901194, -21.45 ], [ -174.904987, -21.453908 ], [ -174.906585, -21.457532 ], [ -174.911274, -21.456431 ], [ -174.914883, -21.454032 ], [ -174.921425, -21.446895 ], [ -174.932428, -21.438163 ], [ -174.939402, -21.430914 ], [ -174.949544, -21.426837 ], [ -174.953574, -21.417754 ], [ -174.958452, -21.413607 ], [ -174.961634, -21.409263 ], [ -174.9677, -21.405827 ], [ -174.975352, -21.385537 ] ] ], [ [ [ -175.106739, -19.754004 ], [ -175.101437, -19.73236 ], [ -175.093999, -19.715844 ], [ -175.081769, -19.708087 ], [ -175.051563, -19.713711 ], [ -175.046862, -19.71748 ], [ -175.033417, -19.73922 ], [ -175.028134, -19.757475 ], [ -175.035562, -19.779591 ], [ -175.042744, -19.785629 ], [ -175.062122, -19.788393 ], [ -175.075978, -19.786377 ], [ -175.081422, -19.779591 ], [ -175.095961, -19.764203 ], [ -175.104501, -19.759461 ], [ -175.106739, -19.754004 ] ] ], [ [ [ -175.679844, -15.603458 ], [ -175.670492, -15.582406 ], [ -175.659282, -15.575243 ], [ -175.639171, -15.567863 ], [ -175.627345, -15.566413 ], [ -175.616695, -15.571282 ], [ -175.608527, -15.577413 ], [ -175.603006, -15.583654 ], [ -175.601067, -15.58911 ], [ -175.600428, -15.59453 ], [ -175.601406, -15.604763 ], [ -175.605792, -15.618274 ], [ -175.609344, -15.624097 ], [ -175.617461, -15.632401 ], [ -175.633709, -15.637964 ], [ -175.638666, -15.640262 ], [ -175.647002, -15.639502 ], [ -175.656601, -15.635474 ], [ -175.663253, -15.627419 ], [ -175.668511, -15.624043 ], [ -175.67821, -15.612085 ], [ -175.679844, -15.603458 ] ] ], [ [ [ -173.808366, -15.952353 ], [ -173.807062, -15.950188 ], [ -173.802829, -15.950179 ], [ -173.800152, -15.948267 ], [ -173.796961, -15.950059 ], [ -173.79047, -15.947827 ], [ -173.786974, -15.947678 ], [ -173.779558, -15.94399 ], [ -173.775344, -15.944853 ], [ -173.7677, -15.94482 ], [ -173.76406, -15.942918 ], [ -173.755717, -15.93195 ], [ -173.755795, -15.929463 ], [ -173.752763, -15.929298 ], [ -173.750655, -15.931261 ], [ -173.747406, -15.937497 ], [ -173.747228, -15.943952 ], [ -173.750376, -15.949849 ], [ -173.757799, -15.956206 ], [ -173.773104, -15.973045 ], [ -173.774755, -15.976637 ], [ -173.781237, -15.98236 ], [ -173.788568, -15.980556 ], [ -173.793709, -15.977424 ], [ -173.799223, -15.971028 ], [ -173.802304, -15.962342 ], [ -173.799676, -15.96306 ], [ -173.798775, -15.96056 ], [ -173.800447, -15.956339 ], [ -173.803251, -15.959367 ], [ -173.807086, -15.955648 ], [ -173.808366, -15.952353 ] ] ], [ [ [ -174.336026, -19.760356 ], [ -174.334678, -19.757566 ], [ -174.324284, -19.749109 ], [ -174.316288, -19.742604 ], [ -174.312375, -19.738656 ], [ -174.307792, -19.738835 ], [ -174.297007, -19.737386 ], [ -174.291169, -19.731216 ], [ -174.292504, -19.729092 ], [ -174.286923, -19.723068 ], [ -174.282277, -19.719464 ], [ -174.275718, -19.7266 ], [ -174.275586, -19.730876 ], [ -174.279592, -19.735823 ], [ -174.28135, -19.74 ], [ -174.283268, -19.751891 ], [ -174.286406, -19.757167 ], [ -174.290507, -19.759965 ], [ -174.2959, -19.760914 ], [ -174.304874, -19.759393 ], [ -174.313402, -19.761016 ], [ -174.324284, -19.762181 ], [ -174.328386, -19.76262 ], [ -174.336026, -19.760356 ] ] ], [ [ [ -174.375454, -19.825692 ], [ -174.363819, -19.817601 ], [ -174.3542, -19.811621 ], [ -174.344921, -19.779579 ], [ -174.347564, -19.77333 ], [ -174.338663, -19.767085 ], [ -174.335481, -19.770742 ], [ -174.335298, -19.784539 ], [ -174.340478, -19.80043 ], [ -174.339474, -19.817158 ], [ -174.334205, -19.825557 ], [ -174.342302, -19.832576 ], [ -174.363819, -19.828715 ], [ -174.375454, -19.825692 ] ] ], [ [ [ -175.031559, -19.683879 ], [ -175.030006, -19.677959 ], [ -175.030988, -19.675147 ], [ -175.030566, -19.665389 ], [ -175.027141, -19.657395 ], [ -175.022784, -19.651045 ], [ -175.020722, -19.650651 ], [ -175.019412, -19.647044 ], [ -175.012914, -19.646715 ], [ -175.008007, -19.649228 ], [ -175.004642, -19.65843 ], [ -175.00237, -19.659586 ], [ -174.999741, -19.665931 ], [ -175.000162, -19.670186 ], [ -175.002269, -19.675135 ], [ -175.005736, -19.679487 ], [ -175.010833, -19.683651 ], [ -175.013534, -19.684321 ], [ -175.021322, -19.690054 ], [ -175.027278, -19.690505 ], [ -175.031559, -19.683879 ] ] ], [ [ [ -174.809877, -20.253554 ], [ -174.808601, -20.247909 ], [ -174.805676, -20.243778 ], [ -174.796736, -20.243282 ], [ -174.789162, -20.242035 ], [ -174.789134, -20.244082 ], [ -174.785881, -20.244041 ], [ -174.784567, -20.241081 ], [ -174.779961, -20.240896 ], [ -174.779173, -20.239095 ], [ -174.773763, -20.238258 ], [ -174.77328, -20.243626 ], [ -174.776895, -20.246742 ], [ -174.778182, -20.25162 ], [ -174.777457, -20.254937 ], [ -174.781179, -20.260102 ], [ -174.779997, -20.266996 ], [ -174.783217, -20.269672 ], [ -174.791262, -20.266115 ], [ -174.792921, -20.263833 ], [ -174.802215, -20.258576 ], [ -174.804423, -20.255789 ], [ -174.807674, -20.255957 ], [ -174.809877, -20.253554 ] ] ], [ [ [ -174.297678, -19.645943 ], [ -174.290578, -19.646095 ], [ -174.286055, -19.655338 ], [ -174.284672, -19.656351 ], [ -174.278476, -19.667637 ], [ -174.272912, -19.67376 ], [ -174.267242, -19.67807 ], [ -174.264923, -19.686544 ], [ -174.265422, -19.695209 ], [ -174.269246, -19.696722 ], [ -174.272799, -19.696518 ], [ -174.275468, -19.692162 ], [ -174.276955, -19.684942 ], [ -174.279882, -19.681366 ], [ -174.288159, -19.676319 ], [ -174.286229, -19.669306 ], [ -174.288612, -19.665592 ], [ -174.297444, -19.659906 ], [ -174.296962, -19.648002 ], [ -174.297678, -19.645943 ] ] ], [ [ [ -174.142948, -18.699752 ], [ -174.138709, -18.696749 ], [ -174.136252, -18.699395 ], [ -174.133023, -18.700112 ], [ -174.131796, -18.704755 ], [ -174.126798, -18.703593 ], [ -174.125099, -18.701012 ], [ -174.126931, -18.695675 ], [ -174.124947, -18.694112 ], [ -174.122903, -18.688205 ], [ -174.126553, -18.686344 ], [ -174.131717, -18.687809 ], [ -174.132187, -18.686048 ], [ -174.125578, -18.680582 ], [ -174.124319, -18.675708 ], [ -174.118212, -18.672293 ], [ -174.112035, -18.672965 ], [ -174.108094, -18.668305 ], [ -174.102151, -18.671024 ], [ -174.095985, -18.671056 ], [ -174.093342, -18.668844 ], [ -174.089822, -18.67096 ], [ -174.084983, -18.67178 ], [ -174.085212, -18.674083 ], [ -174.09268, -18.676242 ], [ -174.09646, -18.67464 ], [ -174.101948, -18.675108 ], [ -174.112321, -18.679867 ], [ -174.116734, -18.688365 ], [ -174.120287, -18.692252 ], [ -174.121606, -18.70147 ], [ -174.123521, -18.707119 ], [ -174.130217, -18.707478 ], [ -174.131843, -18.706481 ], [ -174.138526, -18.707605 ], [ -174.139101, -18.705314 ], [ -174.142495, -18.702811 ], [ -174.142948, -18.699752 ] ] ], [ [ [ -174.04732, -18.683898 ], [ -174.045275, -18.681268 ], [ -174.037568, -18.68426 ], [ -174.030965, -18.690348 ], [ -174.030099, -18.69343 ], [ -174.021816, -18.696753 ], [ -174.017179, -18.704577 ], [ -174.020874, -18.717793 ], [ -174.01999, -18.721907 ], [ -174.021174, -18.726889 ], [ -174.022718, -18.727656 ], [ -174.030804, -18.722853 ], [ -174.037882, -18.712903 ], [ -174.035752, -18.710805 ], [ -174.036654, -18.70566 ], [ -174.034768, -18.705114 ], [ -174.033755, -18.701098 ], [ -174.028326, -18.701916 ], [ -174.027461, -18.699252 ], [ -174.030564, -18.697823 ], [ -174.033074, -18.693606 ], [ -174.045638, -18.687226 ], [ -174.04732, -18.683898 ] ] ], [ [ [ -174.419897, -19.918527 ], [ -174.411091, -19.904974 ], [ -174.408456, -19.886014 ], [ -174.399577, -19.889427 ], [ -174.397118, -19.890777 ], [ -174.394658, -19.890065 ], [ -174.391918, -19.892828 ], [ -174.391757, -19.897921 ], [ -174.393841, -19.901144 ], [ -174.399577, -19.906256 ], [ -174.410244, -19.92147 ], [ -174.419897, -19.918527 ] ] ], [ [ [ -174.327764, -18.026751 ], [ -174.324284, -18.015276 ], [ -174.320419, -18.012363 ], [ -174.311454, -18.011978 ], [ -174.309472, -18.017153 ], [ -174.305096, -18.018912 ], [ -174.307288, -18.026746 ], [ -174.312772, -18.032544 ], [ -174.321018, -18.03283 ], [ -174.324284, -18.030626 ], [ -174.327764, -18.026751 ] ] ], [ [ [ -173.754888, -15.844409 ], [ -173.753559, -15.838696 ], [ -173.749453, -15.838773 ], [ -173.743624, -15.843331 ], [ -173.737323, -15.850289 ], [ -173.736622, -15.854837 ], [ -173.73796, -15.859176 ], [ -173.743346, -15.862488 ], [ -173.74656, -15.86293 ], [ -173.751551, -15.859901 ], [ -173.753696, -15.852161 ], [ -173.754888, -15.844409 ] ] ], [ [ [ -174.421234, -19.855315 ], [ -174.417043, -19.853825 ], [ -174.411381, -19.84815 ], [ -174.409356, -19.843591 ], [ -174.403416, -19.843529 ], [ -174.40142, -19.841308 ], [ -174.392064, -19.838182 ], [ -174.390925, -19.839303 ], [ -174.394128, -19.846511 ], [ -174.399575, -19.851487 ], [ -174.411293, -19.858305 ], [ -174.414717, -19.859097 ], [ -174.421234, -19.855315 ] ] ], [ [ [ -174.101853, -18.708761 ], [ -174.101206, -18.701887 ], [ -174.070019, -18.688936 ], [ -174.070019, -18.700775 ], [ -174.066459, -18.704166 ], [ -174.067261, -18.705522 ], [ -174.078863, -18.699167 ], [ -174.08748, -18.699577 ], [ -174.101853, -18.708761 ] ] ], [ [ [ -174.719356, -19.94972 ], [ -174.718995, -19.94637 ], [ -174.713598, -19.943212 ], [ -174.710672, -19.938543 ], [ -174.707411, -19.938243 ], [ -174.704358, -19.942321 ], [ -174.703899, -19.945918 ], [ -174.712848, -19.957484 ], [ -174.716274, -19.955856 ], [ -174.719356, -19.94972 ] ] ], [ [ [ -176.214981, -22.336434 ], [ -176.214157, -22.334094 ], [ -176.210275, -22.33431 ], [ -176.2044, -22.332749 ], [ -176.20271, -22.335595 ], [ -176.197953, -22.338167 ], [ -176.198624, -22.342842 ], [ -176.20292, -22.347794 ], [ -176.206822, -22.348462 ], [ -176.212021, -22.34187 ], [ -176.212183, -22.337718 ], [ -176.214981, -22.336434 ] ] ], [ [ [ -174.773177, -20.014474 ], [ -174.76742, -20.008752 ], [ -174.759881, -20.011153 ], [ -174.758604, -20.012976 ], [ -174.760853, -20.021018 ], [ -174.765845, -20.02187 ], [ -174.772855, -20.017623 ], [ -174.773177, -20.014474 ] ] ], [ [ [ -174.492877, -19.640941 ], [ -174.492784, -19.638096 ], [ -174.490341, -19.637287 ], [ -174.490429, -19.631624 ], [ -174.486182, -19.632301 ], [ -174.482274, -19.629677 ], [ -174.477161, -19.632961 ], [ -174.481076, -19.639328 ], [ -174.485392, -19.642724 ], [ -174.488551, -19.643412 ], [ -174.492877, -19.640941 ] ] ], [ [ [ -174.11678, -18.745775 ], [ -174.11292, -18.744128 ], [ -174.110679, -18.745284 ], [ -174.10906, -18.742481 ], [ -174.103507, -18.742395 ], [ -174.100229, -18.739169 ], [ -174.096291, -18.742151 ], [ -174.092137, -18.741425 ], [ -174.090945, -18.746169 ], [ -174.0998, -18.748026 ], [ -174.102886, -18.746221 ], [ -174.109545, -18.746589 ], [ -174.111986, -18.750066 ], [ -174.115329, -18.749457 ], [ -174.11678, -18.745775 ] ] ], [ [ [ -174.559216, -19.825495 ], [ -174.553937, -19.820792 ], [ -174.546385, -19.821641 ], [ -174.543268, -19.824605 ], [ -174.544153, -19.828998 ], [ -174.546385, -19.829079 ], [ -174.556095, -19.830685 ], [ -174.558061, -19.829298 ], [ -174.559216, -19.825495 ] ] ], [ [ [ -173.96336, -18.700249 ], [ -173.960971, -18.695628 ], [ -173.95657, -18.692462 ], [ -173.952475, -18.691233 ], [ -173.950083, -18.694247 ], [ -173.955552, -18.69636 ], [ -173.957173, -18.699602 ], [ -173.956061, -18.702176 ], [ -173.95662, -18.710967 ], [ -173.959589, -18.709885 ], [ -173.963047, -18.705689 ], [ -173.96336, -18.700249 ] ] ], [ [ [ -174.985891, -21.114575 ], [ -174.979493, -21.111741 ], [ -174.976133, -21.111833 ], [ -174.974559, -21.11444 ], [ -174.976274, -21.122075 ], [ -174.980161, -21.124353 ], [ -174.984137, -21.120068 ], [ -174.985891, -21.114575 ] ] ], [ [ [ -174.728255, -19.810573 ], [ -174.725416, -19.806355 ], [ -174.71682, -19.808859 ], [ -174.71375, -19.811172 ], [ -174.714524, -19.81497 ], [ -174.721148, -19.815186 ], [ -174.727807, -19.812919 ], [ -174.728255, -19.810573 ] ] ], [ [ [ -174.688126, -20.03525 ], [ -174.686775, -20.033142 ], [ -174.677924, -20.033549 ], [ -174.676074, -20.037182 ], [ -174.67697, -20.042026 ], [ -174.682215, -20.042487 ], [ -174.688126, -20.03525 ] ] ], [ [ [ -174.02624, -18.677593 ], [ -174.023565, -18.672679 ], [ -174.02036, -18.6775 ], [ -174.015389, -18.682605 ], [ -174.017184, -18.687093 ], [ -174.020418, -18.686793 ], [ -174.023464, -18.684222 ], [ -174.024094, -18.680228 ], [ -174.02624, -18.677593 ] ] ], [ [ [ -174.458381, -19.602151 ], [ -174.45524, -19.596641 ], [ -174.455284, -19.593261 ], [ -174.45299, -19.592017 ], [ -174.449083, -19.597121 ], [ -174.449347, -19.602271 ], [ -174.451679, -19.605469 ], [ -174.458381, -19.602151 ] ] ], [ [ [ -174.108666, -18.728008 ], [ -174.104338, -18.722112 ], [ -174.104298, -18.716322 ], [ -174.102089, -18.716287 ], [ -174.102524, -18.723136 ], [ -174.098627, -18.724918 ], [ -174.095087, -18.721968 ], [ -174.092625, -18.726056 ], [ -174.095819, -18.727637 ], [ -174.103564, -18.726967 ], [ -174.106844, -18.728992 ], [ -174.108666, -18.728008 ] ] ], [ [ [ -174.04056, -18.755761 ], [ -174.034111, -18.754049 ], [ -174.0309, -18.760438 ], [ -174.032813, -18.763822 ], [ -174.037626, -18.762423 ], [ -174.04056, -18.755761 ] ] ], [ [ [ -174.715911, -20.325199 ], [ -174.7111, -20.324894 ], [ -174.703215, -20.332927 ], [ -174.703215, -20.335156 ], [ -174.714741, -20.329393 ], [ -174.715911, -20.325199 ] ] ], [ [ [ -174.808634, -20.279481 ], [ -174.807392, -20.278689 ], [ -174.801057, -20.281086 ], [ -174.801668, -20.28934 ], [ -174.804867, -20.289792 ], [ -174.808634, -20.279481 ] ] ], [ [ [ -173.925284, -18.680546 ], [ -173.923077, -18.676258 ], [ -173.921206, -18.676034 ], [ -173.919599, -18.683431 ], [ -173.921656, -18.686703 ], [ -173.921166, -18.689253 ], [ -173.924118, -18.688887 ], [ -173.923844, -18.682094 ], [ -173.925284, -18.680546 ] ] ], [ [ [ -174.537471, -20.398969 ], [ -174.525858, -20.391085 ], [ -174.524382, -20.393348 ], [ -174.527071, -20.39688 ], [ -174.535252, -20.400361 ], [ -174.537471, -20.398969 ] ] ], [ [ [ -174.050232, -18.705909 ], [ -174.049843, -18.703735 ], [ -174.045045, -18.701626 ], [ -174.041329, -18.702788 ], [ -174.042385, -18.707411 ], [ -174.047773, -18.708309 ], [ -174.050232, -18.705909 ] ] ], [ [ [ -174.145453, -18.715446 ], [ -174.139693, -18.713589 ], [ -174.135477, -18.714137 ], [ -174.134648, -18.717493 ], [ -174.139253, -18.718956 ], [ -174.144446, -18.717716 ], [ -174.145453, -18.715446 ] ] ], [ [ [ -173.959746, -18.683054 ], [ -173.957799, -18.681387 ], [ -173.949591, -18.68217 ], [ -173.947883, -18.686376 ], [ -173.950775, -18.687244 ], [ -173.959746, -18.683054 ] ] ], [ [ [ -174.010567, -18.795359 ], [ -174.010187, -18.792641 ], [ -174.004817, -18.790386 ], [ -174.001624, -18.79386 ], [ -174.004705, -18.796756 ], [ -174.009542, -18.79697 ], [ -174.010567, -18.795359 ] ] ], [ [ [ -174.184156, -18.162379 ], [ -174.180682, -18.159808 ], [ -174.175722, -18.158615 ], [ -174.175632, -18.164214 ], [ -174.182937, -18.165301 ], [ -174.184156, -18.162379 ] ] ], [ [ [ -174.015451, -18.739876 ], [ -174.012308, -18.739389 ], [ -174.010596, -18.742263 ], [ -174.006712, -18.742728 ], [ -174.007745, -18.746965 ], [ -174.011573, -18.747438 ], [ -174.012354, -18.744665 ], [ -174.015287, -18.743129 ], [ -174.015451, -18.739876 ] ] ], [ [ [ -174.627262, -19.767173 ], [ -174.622749, -19.764242 ], [ -174.618159, -19.766528 ], [ -174.620467, -19.770674 ], [ -174.624591, -19.771148 ], [ -174.627262, -19.767173 ] ] ], [ [ [ -175.257674, -21.044915 ], [ -175.252918, -21.042621 ], [ -175.250036, -21.04624 ], [ -175.251047, -21.049197 ], [ -175.254149, -21.05065 ], [ -175.257674, -21.044915 ] ] ], [ [ [ -174.636278, -20.278845 ], [ -174.62338, -20.276115 ], [ -174.622425, -20.279509 ], [ -174.630246, -20.279757 ], [ -174.635339, -20.281246 ], [ -174.636278, -20.278845 ] ] ], [ [ [ -173.961278, -18.675892 ], [ -173.958144, -18.671439 ], [ -173.953676, -18.670815 ], [ -173.952934, -18.675494 ], [ -173.956015, -18.676901 ], [ -173.961278, -18.675892 ] ] ], [ [ [ -174.801666, -19.950378 ], [ -174.799103, -19.941806 ], [ -174.795134, -19.943091 ], [ -174.798686, -19.951542 ], [ -174.801666, -19.950378 ] ] ], [ [ [ -174.957137, -21.469683 ], [ -174.954636, -21.466713 ], [ -174.95024, -21.469003 ], [ -174.951133, -21.472366 ], [ -174.955433, -21.47386 ], [ -174.957137, -21.469683 ] ] ], [ [ [ -175.148459, -21.138856 ], [ -175.144206, -21.134683 ], [ -175.143284, -21.139162 ], [ -175.145376, -21.14013 ], [ -175.144474, -21.145354 ], [ -175.146979, -21.145773 ], [ -175.148459, -21.138856 ] ] ], [ [ [ -173.927025, -18.664425 ], [ -173.922314, -18.661565 ], [ -173.920804, -18.670606 ], [ -173.923262, -18.670421 ], [ -173.927025, -18.664425 ] ] ], [ [ [ -174.086114, -18.718175 ], [ -174.081952, -18.715891 ], [ -174.07912, -18.718621 ], [ -174.078927, -18.721392 ], [ -174.083419, -18.722572 ], [ -174.086114, -18.718175 ] ] ], [ [ [ -173.995943, -18.713962 ], [ -173.994739, -18.711559 ], [ -173.989661, -18.7129 ], [ -173.988079, -18.714548 ], [ -173.988872, -18.718477 ], [ -173.995943, -18.713962 ] ] ], [ [ [ -174.278879, -19.716431 ], [ -174.277011, -19.711198 ], [ -174.274096, -19.710182 ], [ -174.272967, -19.713556 ], [ -174.275398, -19.718058 ], [ -174.278879, -19.716431 ] ] ], [ [ [ -174.749621, -19.960803 ], [ -174.748488, -19.956853 ], [ -174.741046, -19.957602 ], [ -174.743667, -19.961429 ], [ -174.749621, -19.960803 ] ] ], [ [ [ -173.927097, -18.698655 ], [ -173.926952, -18.694626 ], [ -173.924715, -18.692306 ], [ -173.922254, -18.692868 ], [ -173.922627, -18.698619 ], [ -173.927097, -18.698655 ] ] ], [ [ [ -174.424853, -19.871565 ], [ -174.4223, -19.869493 ], [ -174.416801, -19.876376 ], [ -174.418556, -19.87792 ], [ -174.424853, -19.871565 ] ] ], [ [ [ -174.05901, -18.700398 ], [ -174.053719, -18.698524 ], [ -174.054393, -18.704802 ], [ -174.057362, -18.705147 ], [ -174.05901, -18.700398 ] ] ], [ [ [ -174.487641, -19.966674 ], [ -174.484181, -19.964233 ], [ -174.478948, -19.964158 ], [ -174.478615, -19.966011 ], [ -174.48504, -19.96801 ], [ -174.487641, -19.966674 ] ] ], [ [ [ -174.763857, -20.459107 ], [ -174.762068, -20.456991 ], [ -174.758078, -20.458214 ], [ -174.758598, -20.462315 ], [ -174.76033, -20.462746 ], [ -174.763857, -20.459107 ] ] ], [ [ [ -174.021229, -18.765143 ], [ -174.018301, -18.763016 ], [ -174.015867, -18.768328 ], [ -174.019109, -18.770311 ], [ -174.021229, -18.765143 ] ] ], [ [ [ -174.523548, -20.35144 ], [ -174.520554, -20.342786 ], [ -174.518383, -20.343378 ], [ -174.520432, -20.350452 ], [ -174.523548, -20.35144 ] ] ], [ [ [ -174.020174, -18.667146 ], [ -174.020037, -18.664604 ], [ -174.016132, -18.663322 ], [ -174.014267, -18.66501 ], [ -174.016179, -18.66816 ], [ -174.020174, -18.667146 ] ] ], [ [ [ -174.106692, -18.682217 ], [ -174.104425, -18.680408 ], [ -174.100856, -18.685048 ], [ -174.105814, -18.686283 ], [ -174.106692, -18.682217 ] ] ], [ [ [ -174.069263, -18.713256 ], [ -174.068947, -18.7116 ], [ -174.062237, -18.712458 ], [ -174.063612, -18.716434 ], [ -174.069263, -18.713256 ] ] ], [ [ [ -174.090174, -18.726364 ], [ -174.089933, -18.724255 ], [ -174.084413, -18.724169 ], [ -174.085238, -18.7291 ], [ -174.090174, -18.726364 ] ] ], [ [ [ -174.054236, -18.728503 ], [ -174.04995, -18.726941 ], [ -174.051019, -18.733121 ], [ -174.05376, -18.733352 ], [ -174.054236, -18.728503 ] ] ], [ [ [ -174.080869, -18.751804 ], [ -174.080108, -18.749505 ], [ -174.076133, -18.747917 ], [ -174.074881, -18.750948 ], [ -174.076845, -18.753075 ], [ -174.080869, -18.751804 ] ] ], [ [ [ -174.013496, -18.749511 ], [ -174.007606, -18.749753 ], [ -174.008926, -18.754112 ], [ -174.012994, -18.752689 ], [ -174.013496, -18.749511 ] ] ], [ [ [ -174.126724, -18.757768 ], [ -174.123357, -18.755007 ], [ -174.1219, -18.757152 ], [ -174.122683, -18.761227 ], [ -174.125826, -18.760463 ], [ -174.126724, -18.757768 ] ] ], [ [ [ -174.174435, -18.789313 ], [ -174.173514, -18.787486 ], [ -174.169155, -18.787276 ], [ -174.169471, -18.791858 ], [ -174.171054, -18.792433 ], [ -174.174435, -18.789313 ] ] ], [ [ [ -174.112899, -18.790766 ], [ -174.108156, -18.791336 ], [ -174.108752, -18.796014 ], [ -174.112833, -18.794628 ], [ -174.112899, -18.790766 ] ] ], [ [ [ -174.065216, -18.817716 ], [ -174.060795, -18.815133 ], [ -174.058946, -18.820136 ], [ -174.064825, -18.819669 ], [ -174.065216, -18.817716 ] ] ], [ [ [ -174.083744, -18.818643 ], [ -174.07869, -18.816803 ], [ -174.07749, -18.819425 ], [ -174.079997, -18.821445 ], [ -174.083706, -18.820844 ], [ -174.083744, -18.818643 ] ] ], [ [ [ -174.523993, -19.844935 ], [ -174.519519, -19.84278 ], [ -174.517072, -19.847305 ], [ -174.52285, -19.847122 ], [ -174.523993, -19.844935 ] ] ], [ [ [ -174.479587, -19.87119 ], [ -174.475924, -19.868496 ], [ -174.472077, -19.870847 ], [ -174.475243, -19.873517 ], [ -174.479587, -19.87119 ] ] ], [ [ [ -174.727643, -19.965045 ], [ -174.726257, -19.962334 ], [ -174.723418, -19.961699 ], [ -174.723345, -19.966785 ], [ -174.727133, -19.967432 ], [ -174.727643, -19.965045 ] ] ], [ [ [ -174.740368, -19.973534 ], [ -174.736874, -19.971346 ], [ -174.734455, -19.97362 ], [ -174.737716, -19.977747 ], [ -174.740368, -19.973534 ] ] ], [ [ [ -174.610149, -20.066976 ], [ -174.604744, -20.065016 ], [ -174.603454, -20.068598 ], [ -174.608419, -20.069786 ], [ -174.610149, -20.066976 ] ] ], [ [ [ -174.5237, -20.311513 ], [ -174.519493, -20.31267 ], [ -174.518596, -20.318432 ], [ -174.520689, -20.318461 ], [ -174.5237, -20.311513 ] ] ], [ [ [ -174.737854, -20.503989 ], [ -174.737211, -20.499432 ], [ -174.733428, -20.50269 ], [ -174.733496, -20.505452 ], [ -174.736674, -20.505835 ], [ -174.737854, -20.503989 ] ] ], [ [ [ -175.384535, -20.535766 ], [ -175.383763, -20.534485 ], [ -175.377993, -20.535659 ], [ -175.376825, -20.538854 ], [ -175.381664, -20.538013 ], [ -175.384535, -20.535766 ] ] ], [ [ [ -175.00531, -21.055891 ], [ -175.000122, -21.053234 ], [ -174.999009, -21.056106 ], [ -175.001579, -21.059164 ], [ -175.00531, -21.055891 ] ] ], [ [ [ -175.296484, -21.046788 ], [ -175.295801, -21.043635 ], [ -175.29246, -21.042703 ], [ -175.290962, -21.048081 ], [ -175.296484, -21.046788 ] ] ], [ [ [ -175.117104, -21.085405 ], [ -175.112138, -21.084783 ], [ -175.11078, -21.087182 ], [ -175.116659, -21.089466 ], [ -175.117104, -21.085405 ] ] ], [ [ [ -175.025207, -21.089846 ], [ -175.024156, -21.085678 ], [ -175.020282, -21.085633 ], [ -175.019405, -21.089259 ], [ -175.025207, -21.089846 ] ] ], [ [ [ -175.161778, -21.085841 ], [ -175.155314, -21.085788 ], [ -175.155633, -21.088253 ], [ -175.160364, -21.089931 ], [ -175.161778, -21.085841 ] ] ], [ [ [ -175.060482, -21.091814 ], [ -175.059941, -21.089843 ], [ -175.052646, -21.090188 ], [ -175.053971, -21.093409 ], [ -175.060482, -21.091814 ] ] ], [ [ [ -175.03364, -21.092247 ], [ -175.028178, -21.090183 ], [ -175.028456, -21.094793 ], [ -175.032511, -21.095317 ], [ -175.03364, -21.092247 ] ] ], [ [ [ -175.161212, -21.123771 ], [ -175.157091, -21.120672 ], [ -175.156309, -21.125414 ], [ -175.159174, -21.12765 ], [ -175.161212, -21.123771 ] ] ] ] } }
]
}
