{
"type": "FeatureCollection",
"name": "Trinidad and Tobago",
"crs": { "type": "name", "properties": { "name": "urn:ogc:def:crs:OGC:1.3:CRS84" } },
"features": [
{ "type": "Feature", "properties": { "id": "TT", "CNTR_ID": "TT", "CNTR_NAME": "Trinidad and Tobago", "NAME_ENGL": "Trinidad and Tobago", "ISO3_CODE": "TTO", "FID": "TT" }, "geometry": { "type": "MultiPolygon", "coordinates": [ [ [ [ -61.930058, 10.053176 ], [ -61.927443, 10.061993 ], [ -61.91221, 10.076033 ], [ -61.906668, 10.087071 ], [ -61.856657, 10.09496 ], [ -61.839684, 10.103483 ], [ -61.826161, 10.119835 ], [ -61.823547, 10.134272 ], [ -61.804355, 10.137286 ], [ -61.785161, 10.147862 ], [ -61.728156, 10.154858 ], [ -61.701996, 10.164813 ], [ -61.697062, 10.169402 ], [ -61.695751, 10.185336 ], [ -61.66255, 10.193998 ], [ -61.648442, 10.201655 ], [ -61.635883, 10.215846 ], [ -61.633197, 10.221109 ], [ -61.637479, 10.238571 ], [ -61.631266, 10.247058 ], [ -61.616874, 10.249781 ], [ -61.560648, 10.230555 ], [ -61.532021, 10.232125 ], [ -61.519863, 10.23882 ], [ -61.486622, 10.257126 ], [ -61.478816, 10.261425 ], [ -61.471802, 10.272354 ], [ -61.468489, 10.284109 ], [ -61.457814, 10.298751 ], [ -61.458559, 10.304793 ], [ -61.466929, 10.31342 ], [ -61.463967, 10.324024 ], [ -61.461502, 10.335542 ], [ -61.468128, 10.359964 ], [ -61.489039, 10.380404 ], [ -61.491493, 10.401733 ], [ -61.496005, 10.41233 ], [ -61.491867, 10.417732 ], [ -61.496579, 10.422007 ], [ -61.489172, 10.436378 ], [ -61.472713, 10.48663 ], [ -61.473889, 10.51228 ], [ -61.466357, 10.526809 ], [ -61.463998, 10.543008 ], [ -61.480129, 10.595333 ], [ -61.490048, 10.616081 ], [ -61.500247, 10.626309 ], [ -61.498308, 10.638758 ], [ -61.533706, 10.657426 ], [ -61.53922, 10.668144 ], [ -61.545358, 10.673453 ], [ -61.563562, 10.676015 ], [ -61.60272, 10.688117 ], [ -61.618978, 10.682268 ], [ -61.618897, 10.673355 ], [ -61.631018, 10.669206 ], [ -61.636327, 10.678954 ], [ -61.653235, 10.680284 ], [ -61.661929, 10.684768 ], [ -61.668343, 10.706897 ], [ -61.665801, 10.71213 ], [ -61.645566, 10.720382 ], [ -61.610859, 10.745738 ], [ -61.547485, 10.748475 ], [ -61.528579, 10.752161 ], [ -61.520204, 10.753795 ], [ -61.50981, 10.758937 ], [ -61.48376, 10.7562 ], [ -61.475961, 10.761863 ], [ -61.473564, 10.771661 ], [ -61.469577, 10.774192 ], [ -61.457176, 10.765646 ], [ -61.443764, 10.771968 ], [ -61.439734, 10.762893 ], [ -61.429899, 10.760397 ], [ -61.426242, 10.763617 ], [ -61.423715, 10.773623 ], [ -61.416865, 10.780772 ], [ -61.395512, 10.781508 ], [ -61.389557, 10.787597 ], [ -61.372832, 10.79519 ], [ -61.364318, 10.8084 ], [ -61.359906, 10.810785 ], [ -61.30442, 10.79738 ], [ -61.267651, 10.793932 ], [ -61.213174, 10.794978 ], [ -61.189105, 10.799463 ], [ -61.175791, 10.807189 ], [ -61.156723, 10.812105 ], [ -61.140107, 10.820048 ], [ -61.112671, 10.821011 ], [ -61.071186, 10.83006 ], [ -61.051514, 10.830743 ], [ -61.03524, 10.840911 ], [ -61.010184, 10.841838 ], [ -60.989061, 10.835598 ], [ -60.956779, 10.834135 ], [ -60.935411, 10.840693 ], [ -60.91361, 10.832357 ], [ -60.915376, 10.816888 ], [ -60.937723, 10.800721 ], [ -60.950028, 10.76595 ], [ -60.963661, 10.752161 ], [ -60.977095, 10.738573 ], [ -60.996861, 10.708459 ], [ -61.00686, 10.703863 ], [ -61.022566, 10.702801 ], [ -61.03655, 10.682211 ], [ -61.035609, 10.655211 ], [ -61.013556, 10.527595 ], [ -61.015323, 10.523835 ], [ -61.040664, 10.509596 ], [ -61.04286, 10.500053 ], [ -61.041327, 10.479518 ], [ -61.029097, 10.425495 ], [ -61.00462, 10.35781 ], [ -60.989783, 10.338795 ], [ -60.974838, 10.337974 ], [ -60.971521, 10.335548 ], [ -60.973351, 10.329702 ], [ -60.986765, 10.324024 ], [ -60.997686, 10.29454 ], [ -61.003038, 10.212226 ], [ -60.993143, 10.138819 ], [ -60.99883, 10.139119 ], [ -61.005506, 10.151443 ], [ -61.020667, 10.151561 ], [ -61.048436, 10.133248 ], [ -61.063044, 10.114881 ], [ -61.094663, 10.106305 ], [ -61.128413, 10.088476 ], [ -61.16182, 10.075697 ], [ -61.190961, 10.078128 ], [ -61.215468, 10.073326 ], [ -61.248248, 10.082444 ], [ -61.280991, 10.085688 ], [ -61.299997, 10.083507 ], [ -61.334654, 10.074228 ], [ -61.362055, 10.071537 ], [ -61.384772, 10.070635 ], [ -61.4154, 10.075827 ], [ -61.492855, 10.068343 ], [ -61.506569, 10.071753 ], [ -61.519863, 10.071116 ], [ -61.530267, 10.073975 ], [ -61.573118, 10.073463 ], [ -61.627684, 10.056832 ], [ -61.648777, 10.060345 ], [ -61.668799, 10.078629 ], [ -61.692746, 10.08581 ], [ -61.758496, 10.083173 ], [ -61.779263, 10.076312 ], [ -61.80148, 10.08626 ], [ -61.820306, 10.083699 ], [ -61.868144, 10.061943 ], [ -61.898761, 10.043713 ], [ -61.921202, 10.044547 ], [ -61.927443, 10.04768 ], [ -61.930058, 10.053176 ] ] ], [ [ [ -60.844835, 11.147994 ], [ -60.844528, 11.152177 ], [ -60.840704, 11.15613 ], [ -60.839225, 11.157659 ], [ -60.840821, 11.167084 ], [ -60.838617, 11.171793 ], [ -60.831908, 11.166658 ], [ -60.825176, 11.167125 ], [ -60.817613, 11.167648 ], [ -60.819648, 11.172392 ], [ -60.809024, 11.175907 ], [ -60.808567, 11.183394 ], [ -60.797412, 11.18778 ], [ -60.795865, 11.198154 ], [ -60.786665, 11.203582 ], [ -60.778863, 11.213529 ], [ -60.779408, 11.222633 ], [ -60.767007, 11.227056 ], [ -60.747453, 11.247306 ], [ -60.727744, 11.254597 ], [ -60.717754, 11.261556 ], [ -60.714737, 11.26685 ], [ -60.710339, 11.267904 ], [ -60.6979, 11.276451 ], [ -60.697571, 11.285403 ], [ -60.69435, 11.28805 ], [ -60.683498, 11.291446 ], [ -60.672764, 11.290236 ], [ -60.669843, 11.295976 ], [ -60.652525, 11.298912 ], [ -60.645624, 11.305188 ], [ -60.632187, 11.302832 ], [ -60.629038, 11.310669 ], [ -60.615681, 11.317086 ], [ -60.611396, 11.321985 ], [ -60.600246, 11.321291 ], [ -60.589232, 11.327622 ], [ -60.580117, 11.327926 ], [ -60.569169, 11.316154 ], [ -60.56074, 11.317687 ], [ -60.549253, 11.324005 ], [ -60.549911, 11.329445 ], [ -60.556276, 11.336204 ], [ -60.535567, 11.34059 ], [ -60.531579, 11.344686 ], [ -60.528467, 11.338356 ], [ -60.522243, 11.336242 ], [ -60.518484, 11.321355 ], [ -60.533556, 11.300303 ], [ -60.53234, 11.294478 ], [ -60.524537, 11.291689 ], [ -60.523306, 11.28867 ], [ -60.527401, 11.282814 ], [ -60.526028, 11.271342 ], [ -60.531754, 11.26587 ], [ -60.535567, 11.255074 ], [ -60.542915, 11.258356 ], [ -60.546127, 11.265488 ], [ -60.551281, 11.265851 ], [ -60.554563, 11.261677 ], [ -60.553604, 11.245411 ], [ -60.559114, 11.242892 ], [ -60.573307, 11.248667 ], [ -60.581162, 11.247263 ], [ -60.595506, 11.235237 ], [ -60.595527, 11.223612 ], [ -60.617412, 11.217043 ], [ -60.642269, 11.192202 ], [ -60.65959, 11.18773 ], [ -60.666313, 11.192705 ], [ -60.679694, 11.191234 ], [ -60.690247, 11.193438 ], [ -60.697153, 11.187487 ], [ -60.702371, 11.175224 ], [ -60.710339, 11.176359 ], [ -60.716917, 11.169593 ], [ -60.727291, 11.172629 ], [ -60.736326, 11.180828 ], [ -60.740285, 11.181183 ], [ -60.754832, 11.166698 ], [ -60.765251, 11.163788 ], [ -60.769984, 11.15613 ], [ -60.772933, 11.151357 ], [ -60.77298, 11.142728 ], [ -60.777074, 11.141735 ], [ -60.781883, 11.145939 ], [ -60.783085, 11.137287 ], [ -60.78657, 11.134978 ], [ -60.798146, 11.135176 ], [ -60.801121, 11.143036 ], [ -60.814977, 11.147626 ], [ -60.825176, 11.147953 ], [ -60.827436, 11.148026 ], [ -60.840554, 11.144618 ], [ -60.844835, 11.147994 ] ] ], [ [ [ -61.700074, 10.685329 ], [ -61.69575, 10.689753 ], [ -61.696604, 10.69754 ], [ -61.688078, 10.703817 ], [ -61.68116, 10.702241 ], [ -61.679891, 10.705009 ], [ -61.677493, 10.705066 ], [ -61.674952, 10.700489 ], [ -61.675261, 10.697854 ], [ -61.679316, 10.698449 ], [ -61.678846, 10.693194 ], [ -61.675592, 10.687149 ], [ -61.679448, 10.685882 ], [ -61.682011, 10.687664 ], [ -61.683709, 10.685639 ], [ -61.687938, 10.686765 ], [ -61.687128, 10.681119 ], [ -61.69248, 10.680481 ], [ -61.692991, 10.683186 ], [ -61.696127, 10.681914 ], [ -61.697419, 10.684889 ], [ -61.700074, 10.685329 ] ] ], [ [ [ -61.75866, 10.686774 ], [ -61.756761, 10.697935 ], [ -61.750926, 10.699863 ], [ -61.735837, 10.689792 ], [ -61.733108, 10.684373 ], [ -61.73434, 10.683203 ], [ -61.747254, 10.690028 ], [ -61.755438, 10.685728 ], [ -61.75866, 10.686774 ] ] ], [ [ [ -61.666413, 10.666089 ], [ -61.660494, 10.670134 ], [ -61.65537, 10.668319 ], [ -61.647707, 10.67032 ], [ -61.645316, 10.668118 ], [ -61.646452, 10.665048 ], [ -61.648391, 10.666074 ], [ -61.650745, 10.660432 ], [ -61.652649, 10.662302 ], [ -61.655498, 10.661485 ], [ -61.660219, 10.664543 ], [ -61.666041, 10.664284 ], [ -61.666413, 10.666089 ] ] ], [ [ [ -60.507679, 11.3059 ], [ -60.496248, 11.302974 ], [ -60.498831, 11.298094 ], [ -60.494115, 11.296887 ], [ -60.496248, 11.293659 ], [ -60.506771, 11.295992 ], [ -60.507679, 11.3059 ] ] ], [ [ [ -61.762348, 10.673041 ], [ -61.757141, 10.680543 ], [ -61.747254, 10.677657 ], [ -61.744032, 10.674278 ], [ -61.747254, 10.673078 ], [ -61.762348, 10.673041 ] ] ], [ [ [ -61.720808, 10.702571 ], [ -61.712749, 10.698729 ], [ -61.71146, 10.696418 ], [ -61.713036, 10.689784 ], [ -61.717466, 10.690256 ], [ -61.718709, 10.692878 ], [ -61.716765, 10.695169 ], [ -61.717003, 10.698233 ], [ -61.720494, 10.699275 ], [ -61.720808, 10.702571 ] ] ], [ [ [ -60.528992, 11.356159 ], [ -60.5206, 11.357174 ], [ -60.519471, 11.354816 ], [ -60.526166, 11.353189 ], [ -60.528992, 11.356159 ] ] ], [ [ [ -61.626855, 10.661143 ], [ -61.625619, 10.663874 ], [ -61.621201, 10.663613 ], [ -61.620823, 10.6612 ], [ -61.625974, 10.659047 ], [ -61.626855, 10.661143 ] ] ], [ [ [ -61.731003, 10.706003 ], [ -61.726355, 10.707889 ], [ -61.723939, 10.704926 ], [ -61.730632, 10.702929 ], [ -61.731003, 10.706003 ] ] ], [ [ [ -61.516129, 10.770353 ], [ -61.512828, 10.772852 ], [ -61.509135, 10.772085 ], [ -61.510951, 10.767649 ], [ -61.516129, 10.770353 ] ] ] ] } }
]
}
