{
"type": "FeatureCollection",
"name": "Tunisia",
"crs": { "type": "name", "properties": { "name": "urn:ogc:def:crs:OGC:1.3:CRS84" } },
"features": [
{ "type": "Feature", "properties": { "id": "TN", "CNTR_ID": "TN", "CNTR_NAME": "تونس", "NAME_ENGL": "Tunisia", "ISO3_CODE": "TUN", "FID": "TN" }, "geometry": { "type": "MultiPolygon", "coordinates": [ [ [ [ 9.551556, 30.246386 ], [ 9.47009, 30.561219 ], [ 9.313764, 31.168309 ], [ 9.075222, 32.085782 ], [ 8.906114, 32.183868 ], [ 8.856726, 32.212494 ], [ 8.552001, 32.388919 ], [ 8.50015, 32.418904 ], [ 8.441443, 32.452843 ], [ 8.358389, 32.501844 ], [ 8.322296, 32.822391 ], [ 8.107023, 33.047088 ], [ 8.109456, 33.065796 ], [ 8.140642, 33.083903 ], [ 7.888989, 33.177929 ], [ 7.854257, 33.177153 ], [ 7.839924, 33.193976 ], [ 7.810228, 33.207176 ], [ 7.808716, 33.217177 ], [ 7.788901, 33.261764 ], [ 7.743126, 33.423883 ], [ 7.7343, 33.435363 ], [ 7.629322, 33.571803 ], [ 7.594465, 33.644505 ], [ 7.596584, 33.689026 ], [ 7.566371, 33.726717 ], [ 7.576051, 33.74409 ], [ 7.586556, 33.751551 ], [ 7.560149, 33.777621 ], [ 7.526537, 33.797297 ], [ 7.545486, 33.837039 ], [ 7.523528, 33.904993 ], [ 7.540591, 33.937683 ], [ 7.540823, 33.975363 ], [ 7.553043, 34.01625 ], [ 7.530477, 34.058721 ], [ 7.531354, 34.065079 ], [ 7.538579, 34.071581 ], [ 7.560907, 34.079919 ], [ 7.57555, 34.088405 ], [ 7.576945, 34.092821 ], [ 7.571246, 34.093278 ], [ 7.571961, 34.096236 ], [ 7.604736, 34.111119 ], [ 7.614145, 34.137558 ], [ 7.653817, 34.194947 ], [ 7.724321, 34.167193 ], [ 7.775985, 34.198806 ], [ 7.796098, 34.208373 ], [ 7.803493, 34.219001 ], [ 7.813223, 34.252515 ], [ 7.843529, 34.32448 ], [ 7.851514, 34.349842 ], [ 7.851817, 34.366433 ], [ 7.854257, 34.372185 ], [ 7.857087, 34.378855 ], [ 7.854257, 34.386635 ], [ 7.853059, 34.389929 ], [ 7.854257, 34.394817 ], [ 7.856297, 34.403142 ], [ 7.87614, 34.406735 ], [ 7.891008, 34.414687 ], [ 7.903838, 34.413736 ], [ 7.927185, 34.417087 ], [ 7.933802, 34.420777 ], [ 7.938128, 34.434383 ], [ 7.950086, 34.439762 ], [ 7.954975, 34.445917 ], [ 7.97371, 34.447244 ], [ 7.989362, 34.453253 ], [ 8.00845, 34.456904 ], [ 8.019489, 34.472331 ], [ 8.040279, 34.490006 ], [ 8.069954, 34.496332 ], [ 8.073001, 34.503698 ], [ 8.083162, 34.513671 ], [ 8.098569, 34.511421 ], [ 8.113276, 34.512399 ], [ 8.124455, 34.525778 ], [ 8.146618, 34.533374 ], [ 8.153058, 34.546147 ], [ 8.164519, 34.552489 ], [ 8.161124, 34.565671 ], [ 8.170403, 34.565512 ], [ 8.171819, 34.573492 ], [ 8.187872, 34.571135 ], [ 8.220632, 34.577486 ], [ 8.220327, 34.580289 ], [ 8.206704, 34.588196 ], [ 8.211605, 34.601338 ], [ 8.230205, 34.613333 ], [ 8.24767, 34.614096 ], [ 8.243776, 34.621596 ], [ 8.243366, 34.631534 ], [ 8.262762, 34.642677 ], [ 8.273366, 34.644633 ], [ 8.27955, 34.653167 ], [ 8.275884, 34.65845 ], [ 8.258308, 34.659891 ], [ 8.243159, 34.667643 ], [ 8.237453, 34.676053 ], [ 8.239291, 34.685037 ], [ 8.244868, 34.689084 ], [ 8.265958, 34.693398 ], [ 8.296276, 34.729375 ], [ 8.312238, 34.728321 ], [ 8.318365, 34.730999 ], [ 8.295373, 34.744488 ], [ 8.283052, 34.767605 ], [ 8.284962, 34.801337 ], [ 8.280692, 34.822858 ], [ 8.273896, 34.839606 ], [ 8.270019, 34.861951 ], [ 8.261803, 34.875474 ], [ 8.257212, 34.904031 ], [ 8.248074, 34.919949 ], [ 8.27811, 34.939135 ], [ 8.284033, 34.942917 ], [ 8.313725, 34.947963 ], [ 8.311699, 34.956217 ], [ 8.317403, 34.996656 ], [ 8.316649, 35.009775 ], [ 8.356925, 35.096322 ], [ 8.40217, 35.129428 ], [ 8.416021, 35.150534 ], [ 8.423408, 35.178165 ], [ 8.45405, 35.218478 ], [ 8.472705, 35.236912 ], [ 8.440138, 35.237512 ], [ 8.422124, 35.244798 ], [ 8.407432, 35.246047 ], [ 8.381259, 35.263712 ], [ 8.358964, 35.274598 ], [ 8.334352, 35.280089 ], [ 8.3259, 35.28869 ], [ 8.32242, 35.299463 ], [ 8.312385, 35.314342 ], [ 8.317253, 35.338618 ], [ 8.313745, 35.372586 ], [ 8.328921, 35.403709 ], [ 8.325893, 35.41032 ], [ 8.320111, 35.414719 ], [ 8.329945, 35.422571 ], [ 8.338923, 35.44267 ], [ 8.353232, 35.460269 ], [ 8.37059, 35.466077 ], [ 8.382538, 35.467443 ], [ 8.38455, 35.480849 ], [ 8.383819, 35.485859 ], [ 8.373509, 35.495794 ], [ 8.360901, 35.523647 ], [ 8.362325, 35.537585 ], [ 8.353423, 35.582301 ], [ 8.35133, 35.607554 ], [ 8.356934, 35.621754 ], [ 8.359655, 35.642989 ], [ 8.355524, 35.667987 ], [ 8.341688, 35.678517 ], [ 8.334588, 35.682757 ], [ 8.318874, 35.685193 ], [ 8.309193, 35.690842 ], [ 8.282254, 35.719327 ], [ 8.266156, 35.730228 ], [ 8.259206, 35.762723 ], [ 8.264745, 35.780536 ], [ 8.265201, 35.796014 ], [ 8.272348, 35.818047 ], [ 8.267396, 35.866873 ], [ 8.269288, 35.876269 ], [ 8.255571, 35.885587 ], [ 8.267573, 35.897551 ], [ 8.270048, 35.904713 ], [ 8.258031, 35.907882 ], [ 8.256698, 35.910416 ], [ 8.262505, 35.91899 ], [ 8.26488, 35.938026 ], [ 8.276718, 35.947493 ], [ 8.287623, 35.952105 ], [ 8.290639, 35.957721 ], [ 8.299935, 36.009001 ], [ 8.296437, 36.031527 ], [ 8.297968, 36.039582 ], [ 8.31192, 36.05927 ], [ 8.312973, 36.068677 ], [ 8.323459, 36.086238 ], [ 8.337763, 36.094608 ], [ 8.344144, 36.102563 ], [ 8.339246, 36.116697 ], [ 8.338131, 36.135861 ], [ 8.311518, 36.15852 ], [ 8.307624, 36.171842 ], [ 8.329782, 36.190923 ], [ 8.339811, 36.212593 ], [ 8.353411, 36.230104 ], [ 8.353751, 36.252156 ], [ 8.34948, 36.260007 ], [ 8.34049, 36.263748 ], [ 8.340431, 36.266871 ], [ 8.358331, 36.288477 ], [ 8.370023, 36.295885 ], [ 8.380134, 36.297462 ], [ 8.389137, 36.304317 ], [ 8.380264, 36.311663 ], [ 8.377495, 36.317426 ], [ 8.377475, 36.322587 ], [ 8.379539, 36.32601 ], [ 8.384375, 36.334028 ], [ 8.37748, 36.348943 ], [ 8.394129, 36.364921 ], [ 8.400235, 36.374808 ], [ 8.400254, 36.38378 ], [ 8.395414, 36.394231 ], [ 8.408469, 36.414053 ], [ 8.404214, 36.421835 ], [ 8.373613, 36.427634 ], [ 8.36473, 36.438733 ], [ 8.355619, 36.443615 ], [ 8.342766, 36.434619 ], [ 8.330817, 36.43238 ], [ 8.319009, 36.436502 ], [ 8.307786, 36.434831 ], [ 8.301245, 36.441407 ], [ 8.28685, 36.444079 ], [ 8.26505, 36.440107 ], [ 8.246764, 36.445695 ], [ 8.209881, 36.447132 ], [ 8.202113, 36.451442 ], [ 8.196972, 36.458048 ], [ 8.178248, 36.459048 ], [ 8.170249, 36.462904 ], [ 8.159837, 36.477964 ], [ 8.159473, 36.489795 ], [ 8.155626, 36.496067 ], [ 8.171127, 36.502809 ], [ 8.178953, 36.511843 ], [ 8.196895, 36.507861 ], [ 8.223516, 36.51573 ], [ 8.25549, 36.535006 ], [ 8.290433, 36.538894 ], [ 8.317566, 36.554575 ], [ 8.328876, 36.573769 ], [ 8.349282, 36.581705 ], [ 8.364099, 36.590546 ], [ 8.391764, 36.595929 ], [ 8.398715, 36.609898 ], [ 8.405321, 36.615943 ], [ 8.418255, 36.620604 ], [ 8.433303, 36.618157 ], [ 8.446355, 36.6196 ], [ 8.458776, 36.654419 ], [ 8.455899, 36.661808 ], [ 8.466424, 36.666799 ], [ 8.48208, 36.680645 ], [ 8.48635, 36.694342 ], [ 8.466036, 36.724262 ], [ 8.464678, 36.733214 ], [ 8.467513, 36.742934 ], [ 8.458645, 36.749497 ], [ 8.44371, 36.745698 ], [ 8.433466, 36.747672 ], [ 8.430247, 36.751201 ], [ 8.432112, 36.758577 ], [ 8.48653, 36.778097 ], [ 8.50015, 36.777903 ], [ 8.514617, 36.777697 ], [ 8.525606, 36.780584 ], [ 8.536406, 36.773469 ], [ 8.571446, 36.773146 ], [ 8.598082, 36.796014 ], [ 8.614102, 36.792086 ], [ 8.623927, 36.800001 ], [ 8.637725, 36.804026 ], [ 8.655941, 36.809341 ], [ 8.669168, 36.81743 ], [ 8.6781, 36.829812 ], [ 8.678469, 36.83871 ], [ 8.662634, 36.84941 ], [ 8.654528, 36.848395 ], [ 8.637725, 36.85251 ], [ 8.626746, 36.856772 ], [ 8.631459, 36.895472 ], [ 8.637725, 36.907957 ], [ 8.651915, 36.915836 ], [ 8.643497, 36.929063 ], [ 8.642092, 36.941151 ], [ 8.679728, 36.957988 ], [ 8.7049, 36.964106 ], [ 8.741568, 36.966536 ], [ 8.759471, 36.960923 ], [ 8.767377, 36.955448 ], [ 8.777222, 36.954164 ], [ 8.806967, 36.962799 ], [ 8.831268, 36.974119 ], [ 8.885838, 37.009202 ], [ 8.906114, 37.025054 ], [ 8.947734, 37.057792 ], [ 8.977763, 37.091751 ], [ 8.986725, 37.106206 ], [ 9.02612, 37.13534 ], [ 9.063806, 37.152686 ], [ 9.123762, 37.165701 ], [ 9.156729, 37.187045 ], [ 9.17318, 37.202186 ], [ 9.188059, 37.220599 ], [ 9.21121, 37.234743 ], [ 9.21927, 37.233527 ], [ 9.229701, 37.221168 ], [ 9.250108, 37.218202 ], [ 9.27405, 37.222235 ], [ 9.300098, 37.230635 ], [ 9.334473, 37.23431 ], [ 9.367972, 37.246956 ], [ 9.39043, 37.261177 ], [ 9.404892, 37.266811 ], [ 9.431081, 37.268612 ], [ 9.465014, 37.266946 ], [ 9.500628, 37.279336 ], [ 9.531588, 37.295614 ], [ 9.548135, 37.301103 ], [ 9.562907, 37.301907 ], [ 9.578318, 37.297184 ], [ 9.59294, 37.299242 ], [ 9.621684, 37.311965 ], [ 9.652087, 37.330503 ], [ 9.666562, 37.336031 ], [ 9.708998, 37.33645 ], [ 9.747, 37.344703 ], [ 9.755485, 37.342861 ], [ 9.769453, 37.33404 ], [ 9.786844, 37.329035 ], [ 9.804129, 37.3294 ], [ 9.830064, 37.334966 ], [ 9.838752, 37.334045 ], [ 9.853721, 37.332458 ], [ 9.866953, 37.31913 ], [ 9.878564, 37.284336 ], [ 9.875391, 37.273423 ], [ 9.845233, 37.252592 ], [ 9.838752, 37.249632 ], [ 9.823604, 37.242912 ], [ 9.8046, 37.238297 ], [ 9.806383, 37.230465 ], [ 9.797639, 37.21973 ], [ 9.788682, 37.216579 ], [ 9.784812, 37.218892 ], [ 9.785673, 37.223852 ], [ 9.795217, 37.235111 ], [ 9.787735, 37.234516 ], [ 9.774573, 37.216943 ], [ 9.78445, 37.19678 ], [ 9.787944, 37.179945 ], [ 9.803349, 37.164873 ], [ 9.810903, 37.149396 ], [ 9.822806, 37.141643 ], [ 9.838752, 37.138622 ], [ 9.869944, 37.139299 ], [ 9.910348, 37.158773 ], [ 9.926202, 37.178884 ], [ 9.935952, 37.208843 ], [ 9.934608, 37.216781 ], [ 9.930436, 37.221144 ], [ 9.866931, 37.229897 ], [ 9.838752, 37.226569 ], [ 9.831443, 37.228587 ], [ 9.838752, 37.236968 ], [ 9.859733, 37.250159 ], [ 9.872304, 37.2616 ], [ 9.881041, 37.265351 ], [ 9.918621, 37.256298 ], [ 9.981395, 37.248934 ], [ 10.018728, 37.253012 ], [ 10.064591, 37.263219 ], [ 10.089819, 37.242898 ], [ 10.123392, 37.236205 ], [ 10.143755, 37.229296 ], [ 10.191127, 37.205988 ], [ 10.217228, 37.188569 ], [ 10.267844, 37.178929 ], [ 10.233139, 37.156699 ], [ 10.226523, 37.157959 ], [ 10.219106, 37.164622 ], [ 10.211294, 37.167811 ], [ 10.160185, 37.164603 ], [ 10.147835, 37.155906 ], [ 10.142799, 37.140462 ], [ 10.151658, 37.129546 ], [ 10.172465, 37.123778 ], [ 10.20276, 37.108482 ], [ 10.200134, 37.100031 ], [ 10.189564, 37.089243 ], [ 10.179249, 37.057935 ], [ 10.183269, 37.032851 ], [ 10.209191, 36.980401 ], [ 10.251059, 36.944958 ], [ 10.280639, 36.92867 ], [ 10.31292, 36.915218 ], [ 10.323192, 36.896579 ], [ 10.343737, 36.879262 ], [ 10.3481, 36.869186 ], [ 10.303565, 36.813397 ], [ 10.216309, 36.801877 ], [ 10.211162, 36.79954 ], [ 10.255542, 36.80507 ], [ 10.29172, 36.805717 ], [ 10.293592, 36.802892 ], [ 10.290216, 36.792847 ], [ 10.290557, 36.780002 ], [ 10.297385, 36.768317 ], [ 10.313204, 36.751446 ], [ 10.33137, 36.738256 ], [ 10.345136, 36.73149 ], [ 10.379835, 36.71977 ], [ 10.409537, 36.717846 ], [ 10.45362, 36.726819 ], [ 10.534675, 36.759895 ], [ 10.552603, 36.78062 ], [ 10.562546, 36.803233 ], [ 10.575311, 36.844603 ], [ 10.588261, 36.861249 ], [ 10.606508, 36.87361 ], [ 10.617109, 36.877811 ], [ 10.653287, 36.881767 ], [ 10.681265, 36.879858 ], [ 10.70029, 36.881486 ], [ 10.732987, 36.893227 ], [ 10.761351, 36.908397 ], [ 10.801947, 36.938156 ], [ 10.871791, 36.9785 ], [ 10.90986, 37.012608 ], [ 10.911305, 37.019058 ], [ 10.908067, 37.035023 ], [ 10.913314, 37.045778 ], [ 10.948079, 37.052062 ], [ 10.979634, 37.053822 ], [ 11.022707, 37.071539 ], [ 11.038639, 37.082667 ], [ 11.045075, 37.081247 ], [ 11.055387, 37.072666 ], [ 11.069759, 37.051796 ], [ 11.069608, 37.045792 ], [ 11.060108, 37.027526 ], [ 11.064488, 37.004438 ], [ 11.096608, 36.955871 ], [ 11.110277, 36.901482 ], [ 11.131011, 36.875338 ], [ 11.118226, 36.839912 ], [ 11.11141, 36.835431 ], [ 11.090737, 36.831038 ], [ 11.047318, 36.80635 ], [ 11.021311, 36.783829 ], [ 10.977968, 36.732598 ], [ 10.935442, 36.675227 ], [ 10.876912, 36.585899 ], [ 10.84524, 36.528774 ], [ 10.828163, 36.491262 ], [ 10.806311, 36.459265 ], [ 10.79283, 36.453287 ], [ 10.766419, 36.449106 ], [ 10.708884, 36.434133 ], [ 10.678975, 36.421957 ], [ 10.651998, 36.405965 ], [ 10.630618, 36.398483 ], [ 10.597411, 36.400589 ], [ 10.582768, 36.398596 ], [ 10.57035, 36.392904 ], [ 10.547483, 36.373252 ], [ 10.522121, 36.33885 ], [ 10.501327, 36.296702 ], [ 10.485832, 36.255088 ], [ 10.473041, 36.205932 ], [ 10.468542, 36.151433 ], [ 10.47566, 36.087867 ], [ 10.484016, 36.059136 ], [ 10.495792, 36.04126 ], [ 10.515451, 36.025147 ], [ 10.523426, 35.996629 ], [ 10.511207, 36.001255 ], [ 10.492266, 36.000626 ], [ 10.469602, 36.007871 ], [ 10.463883, 36.004772 ], [ 10.469491, 35.999358 ], [ 10.484069, 35.997336 ], [ 10.497595, 35.99126 ], [ 10.512079, 35.972718 ], [ 10.541303, 35.962352 ], [ 10.593314, 35.900709 ], [ 10.608873, 35.871307 ], [ 10.640957, 35.832069 ], [ 10.652397, 35.812859 ], [ 10.680263, 35.791626 ], [ 10.717673, 35.772396 ], [ 10.736326, 35.767325 ], [ 10.755326, 35.768553 ], [ 10.779898, 35.777438 ], [ 10.799019, 35.781339 ], [ 10.832384, 35.776504 ], [ 10.838001, 35.771752 ], [ 10.83927, 35.76574 ], [ 10.826489, 35.741203 ], [ 10.822345, 35.72117 ], [ 10.839777, 35.695449 ], [ 10.856727, 35.686361 ], [ 10.879851, 35.678343 ], [ 10.974154, 35.654428 ], [ 11.000721, 35.640405 ], [ 11.029154, 35.632948 ], [ 11.042111, 35.625383 ], [ 11.043137, 35.603889 ], [ 11.032916, 35.570876 ], [ 11.034494, 35.543664 ], [ 11.046295, 35.520863 ], [ 11.068984, 35.502523 ], [ 11.058555, 35.486368 ], [ 11.044946, 35.445929 ], [ 11.04227, 35.421647 ], [ 11.0456, 35.397475 ], [ 11.035065, 35.375854 ], [ 11.036588, 35.34519 ], [ 11.04272, 35.327342 ], [ 11.05803, 35.307537 ], [ 11.097982, 35.270477 ], [ 11.151689, 35.230068 ], [ 11.14745, 35.22664 ], [ 11.132247, 35.2245 ], [ 11.12024, 35.219229 ], [ 11.084155, 35.16582 ], [ 11.063501, 35.157443 ], [ 11.048997, 35.145217 ], [ 11.031808, 35.116173 ], [ 11.0185, 35.040119 ], [ 11.005423, 35.019316 ], [ 10.987463, 35.005634 ], [ 10.956344, 34.990033 ], [ 10.931061, 34.9679 ], [ 10.923318, 34.939735 ], [ 10.923543, 34.905879 ], [ 10.919668, 34.886535 ], [ 10.870537, 34.826719 ], [ 10.865988, 34.802688 ], [ 10.826522, 34.78196 ], [ 10.7894, 34.748695 ], [ 10.781435, 34.73133 ], [ 10.764915, 34.719553 ], [ 10.763723, 34.712217 ], [ 10.756732, 34.71606 ], [ 10.747645, 34.685208 ], [ 10.726533, 34.651034 ], [ 10.714031, 34.641922 ], [ 10.694501, 34.634487 ], [ 10.672885, 34.630667 ], [ 10.655274, 34.63233 ], [ 10.644555, 34.627288 ], [ 10.606284, 34.583836 ], [ 10.597606, 34.549692 ], [ 10.58474, 34.535722 ], [ 10.557608, 34.524346 ], [ 10.543136, 34.52597 ], [ 10.509322, 34.522321 ], [ 10.460054, 34.505696 ], [ 10.430685, 34.484732 ], [ 10.375605, 34.426281 ], [ 10.365885, 34.422959 ], [ 10.351178, 34.423539 ], [ 10.33654, 34.417239 ], [ 10.334693, 34.411518 ], [ 10.344151, 34.408032 ], [ 10.339714, 34.401298 ], [ 10.321366, 34.398525 ], [ 10.287307, 34.406067 ], [ 10.264191, 34.375008 ], [ 10.242706, 34.367674 ], [ 10.218341, 34.353553 ], [ 10.191793, 34.355938 ], [ 10.17404, 34.336422 ], [ 10.122186, 34.313012 ], [ 10.097014, 34.287922 ], [ 10.05571, 34.220918 ], [ 10.05088, 34.217593 ], [ 10.044334, 34.219546 ], [ 10.03982, 34.21639 ], [ 10.037301, 34.208414 ], [ 10.040482, 34.194447 ], [ 10.037011, 34.181576 ], [ 10.031753, 34.179007 ], [ 10.022303, 34.179972 ], [ 10.018345, 34.174071 ], [ 10.024275, 34.147866 ], [ 10.023223, 34.116668 ], [ 10.027287, 34.082122 ], [ 10.039457, 34.031026 ], [ 10.064809, 33.968445 ], [ 10.080248, 33.942096 ], [ 10.10279, 33.917663 ], [ 10.115351, 33.895146 ], [ 10.140154, 33.865873 ], [ 10.185067, 33.82384 ], [ 10.260001, 33.77266 ], [ 10.282466, 33.74754 ], [ 10.301041, 33.73672 ], [ 10.335847, 33.708637 ], [ 10.400362, 33.67334 ], [ 10.468326, 33.653281 ], [ 10.467262, 33.647123 ], [ 10.447725, 33.637054 ], [ 10.448297, 33.630555 ], [ 10.486799, 33.633157 ], [ 10.524756, 33.646648 ], [ 10.592369, 33.659849 ], [ 10.615445, 33.669292 ], [ 10.646638, 33.677986 ], [ 10.6772, 33.695484 ], [ 10.694386, 33.702449 ], [ 10.716925, 33.704461 ], [ 10.726155, 33.70141 ], [ 10.741105, 33.674804 ], [ 10.733132, 33.642672 ], [ 10.732987, 33.603852 ], [ 10.71859, 33.578186 ], [ 10.690951, 33.556205 ], [ 10.685016, 33.540768 ], [ 10.698292, 33.520971 ], [ 10.699914, 33.504164 ], [ 10.704562, 33.496827 ], [ 10.75557, 33.47702 ], [ 10.782921, 33.478743 ], [ 10.813858, 33.494777 ], [ 10.89873, 33.521475 ], [ 10.919351, 33.530521 ], [ 10.93583, 33.545579 ], [ 10.944229, 33.56568 ], [ 10.930984, 33.591665 ], [ 10.918047, 33.606507 ], [ 10.919426, 33.613828 ], [ 10.929164, 33.62024 ], [ 10.948142, 33.626234 ], [ 10.982462, 33.62558 ], [ 10.989713, 33.630418 ], [ 10.995848, 33.639609 ], [ 11.008315, 33.638165 ], [ 11.053218, 33.617704 ], [ 11.101493, 33.564507 ], [ 11.11431, 33.532835 ], [ 11.118101, 33.503585 ], [ 11.116492, 33.487226 ], [ 11.100236, 33.458897 ], [ 11.096594, 33.435363 ], [ 11.107174, 33.410405 ], [ 11.121477, 33.397754 ], [ 11.129989, 33.385973 ], [ 11.117759, 33.371244 ], [ 11.104611, 33.361555 ], [ 11.112321, 33.359965 ], [ 11.130135, 33.365418 ], [ 11.142986, 33.363978 ], [ 11.165096, 33.348017 ], [ 11.183208, 33.32704 ], [ 11.234205, 33.308482 ], [ 11.244251, 33.302157 ], [ 11.160726, 33.316238 ], [ 11.148269, 33.316264 ], [ 11.129897, 33.308608 ], [ 11.123296, 33.284314 ], [ 11.160618, 33.248706 ], [ 11.171781, 33.219841 ], [ 11.180985, 33.208959 ], [ 11.194837, 33.204653 ], [ 11.221536, 33.207122 ], [ 11.266316, 33.204407 ], [ 11.363596, 33.183061 ], [ 11.392119, 33.185159 ], [ 11.418853, 33.180039 ], [ 11.435028, 33.184583 ], [ 11.438937, 33.190311 ], [ 11.436272, 33.196661 ], [ 11.400746, 33.21947 ], [ 11.399581, 33.224961 ], [ 11.485411, 33.182484 ], [ 11.524687, 33.170261 ], [ 11.56432, 33.165109 ], [ 11.560186, 33.155697 ], [ 11.561633, 33.147739 ], [ 11.553693, 33.123144 ], [ 11.550186, 33.113589 ], [ 11.532404, 33.08631 ], [ 11.528849, 33.073642 ], [ 11.521914, 33.007822 ], [ 11.528124, 33.000895 ], [ 11.529307, 32.990113 ], [ 11.516507, 32.975382 ], [ 11.489792, 32.893581 ], [ 11.507205, 32.843179 ], [ 11.496308, 32.807221 ], [ 11.489186, 32.767405 ], [ 11.498477, 32.719391 ], [ 11.489052, 32.66569 ], [ 11.494242, 32.644568 ], [ 11.508692, 32.613638 ], [ 11.519381, 32.604197 ], [ 11.541375, 32.591537 ], [ 11.564169, 32.56561 ], [ 11.577481, 32.555538 ], [ 11.589735, 32.540005 ], [ 11.597576, 32.523328 ], [ 11.556361, 32.452843 ], [ 11.52801, 32.404324 ], [ 11.461021, 32.35998 ], [ 11.449338, 32.356154 ], [ 11.424546, 32.353437 ], [ 11.39236, 32.334149 ], [ 11.364264, 32.321722 ], [ 11.335793, 32.315368 ], [ 11.201822, 32.275756 ], [ 11.158891, 32.260198 ], [ 11.13688, 32.248139 ], [ 11.102564, 32.237613 ], [ 11.088602, 32.229957 ], [ 11.072383, 32.226979 ], [ 11.041609, 32.207385 ], [ 11.03274, 32.201737 ], [ 10.978976, 32.18476 ], [ 10.8597, 32.110836 ], [ 10.848044, 32.079587 ], [ 10.792346, 31.999923 ], [ 10.765704, 31.994585 ], [ 10.725556, 31.978978 ], [ 10.669369, 31.986547 ], [ 10.643697, 31.972842 ], [ 10.63953, 31.96586 ], [ 10.639519, 31.944673 ], [ 10.628405, 31.931632 ], [ 10.625523, 31.923504 ], [ 10.627404, 31.916696 ], [ 10.642981, 31.893894 ], [ 10.642045, 31.880026 ], [ 10.632245, 31.86271 ], [ 10.58134, 31.822632 ], [ 10.573292, 31.809619 ], [ 10.561175, 31.772958 ], [ 10.55239, 31.762709 ], [ 10.530133, 31.748098 ], [ 10.456644, 31.728413 ], [ 10.439366, 31.728049 ], [ 10.394258, 31.74002 ], [ 10.376541, 31.738377 ], [ 10.313223, 31.705525 ], [ 10.291572, 31.689562 ], [ 10.278274, 31.666214 ], [ 10.221423, 31.586005 ], [ 10.141146, 31.492893 ], [ 10.137843, 31.465706 ], [ 10.144782, 31.446343 ], [ 10.145469, 31.420328 ], [ 10.153137, 31.391441 ], [ 10.193857, 31.306207 ], [ 10.217117, 31.247556 ], [ 10.242086, 31.198211 ], [ 10.262131, 31.133861 ], [ 10.285144, 31.093953 ], [ 10.286849, 31.081295 ], [ 10.276087, 31.046633 ], [ 10.275489, 31.027181 ], [ 10.286176, 30.989296 ], [ 10.288457, 30.964235 ], [ 10.296002, 30.934111 ], [ 10.306807, 30.908194 ], [ 10.295943, 30.892835 ], [ 10.295504, 30.876599 ], [ 10.276971, 30.823428 ], [ 10.21493, 30.716068 ], [ 10.176248, 30.687842 ], [ 10.152448, 30.650943 ], [ 10.115685, 30.610281 ], [ 10.099097, 30.585224 ], [ 10.021698, 30.507211 ], [ 10.005212, 30.472964 ], [ 9.978043, 30.435265 ], [ 9.961676, 30.421798 ], [ 9.94569, 30.393111 ], [ 9.918164, 30.374881 ], [ 9.887179, 30.349286 ], [ 9.838752, 30.344624 ], [ 9.824366, 30.34324 ], [ 9.776085, 30.323841 ], [ 9.745695, 30.31605 ], [ 9.706924, 30.292751 ], [ 9.67478, 30.281473 ], [ 9.653729, 30.270336 ], [ 9.617597, 30.251215 ], [ 9.595981, 30.243637 ], [ 9.575947, 30.241082 ], [ 9.551556, 30.246386 ] ] ], [ [ [ 10.728103, 33.763792 ], [ 10.731646, 33.770748 ], [ 10.740732, 33.780023 ], [ 10.749053, 33.798077 ], [ 10.748829, 33.841029 ], [ 10.743435, 33.855529 ], [ 10.751008, 33.861592 ], [ 10.745491, 33.870427 ], [ 10.746497, 33.879837 ], [ 10.743344, 33.880688 ], [ 10.745765, 33.888718 ], [ 10.754916, 33.891281 ], [ 10.769975, 33.8955 ], [ 10.792048, 33.898595 ], [ 10.795025, 33.901665 ], [ 10.826627, 33.89654 ], [ 10.857696, 33.887011 ], [ 10.873179, 33.878617 ], [ 10.883454, 33.878741 ], [ 10.898856, 33.874191 ], [ 10.932918, 33.877067 ], [ 10.935565, 33.882498 ], [ 10.930398, 33.89368 ], [ 10.933644, 33.894899 ], [ 10.965076, 33.869497 ], [ 10.98372, 33.859725 ], [ 10.997453, 33.845368 ], [ 11.013581, 33.834349 ], [ 11.023259, 33.830755 ], [ 11.040138, 33.831549 ], [ 11.055029, 33.825612 ], [ 11.056605, 33.805499 ], [ 11.061079, 33.791374 ], [ 11.05947, 33.781436 ], [ 11.056506, 33.778266 ], [ 11.047607, 33.778979 ], [ 11.032919, 33.770748 ], [ 11.018937, 33.758221 ], [ 11.007074, 33.756131 ], [ 10.995356, 33.748862 ], [ 10.988111, 33.730491 ], [ 10.986041, 33.697868 ], [ 10.972609, 33.682337 ], [ 10.968996, 33.682653 ], [ 10.970666, 33.685313 ], [ 10.965696, 33.69396 ], [ 10.969451, 33.709689 ], [ 10.96563, 33.726787 ], [ 10.955421, 33.724785 ], [ 10.951079, 33.720919 ], [ 10.943692, 33.701729 ], [ 10.937796, 33.693659 ], [ 10.929114, 33.690565 ], [ 10.916538, 33.680207 ], [ 10.898856, 33.675122 ], [ 10.890611, 33.664378 ], [ 10.885527, 33.633951 ], [ 10.873942, 33.639102 ], [ 10.869654, 33.654396 ], [ 10.87283, 33.667057 ], [ 10.879327, 33.67743 ], [ 10.877068, 33.690008 ], [ 10.839969, 33.727925 ], [ 10.826992, 33.737742 ], [ 10.813761, 33.735736 ], [ 10.791567, 33.722588 ], [ 10.787323, 33.713528 ], [ 10.787697, 33.701264 ], [ 10.780031, 33.703007 ], [ 10.761779, 33.700471 ], [ 10.754916, 33.70863 ], [ 10.737463, 33.729375 ], [ 10.728103, 33.763792 ] ] ], [ [ [ 11.12325, 34.679129 ], [ 11.133459, 34.684339 ], [ 11.136281, 34.691957 ], [ 11.135075, 34.698981 ], [ 11.150311, 34.705441 ], [ 11.158669, 34.721561 ], [ 11.172778, 34.726677 ], [ 11.174317, 34.729882 ], [ 11.170947, 34.734847 ], [ 11.18094, 34.741151 ], [ 11.172137, 34.759672 ], [ 11.181592, 34.760269 ], [ 11.180815, 34.754746 ], [ 11.185051, 34.748402 ], [ 11.198855, 34.741446 ], [ 11.220086, 34.740913 ], [ 11.228304, 34.751119 ], [ 11.227736, 34.758628 ], [ 11.230859, 34.765855 ], [ 11.221046, 34.774668 ], [ 11.217833, 34.78259 ], [ 11.227259, 34.783432 ], [ 11.234189, 34.789111 ], [ 11.245975, 34.792423 ], [ 11.24273, 34.806002 ], [ 11.249407, 34.808535 ], [ 11.245739, 34.821197 ], [ 11.251759, 34.828374 ], [ 11.263667, 34.822586 ], [ 11.270798, 34.809754 ], [ 11.276602, 34.805048 ], [ 11.281262, 34.806537 ], [ 11.275466, 34.814987 ], [ 11.278602, 34.817902 ], [ 11.297605, 34.812364 ], [ 11.315207, 34.801846 ], [ 11.313673, 34.799542 ], [ 11.299272, 34.805778 ], [ 11.287464, 34.802875 ], [ 11.290853, 34.796278 ], [ 11.287709, 34.788429 ], [ 11.29875, 34.770082 ], [ 11.297423, 34.769153 ], [ 11.278362, 34.780308 ], [ 11.273654, 34.778338 ], [ 11.278521, 34.764935 ], [ 11.294994, 34.753702 ], [ 11.303719, 34.742473 ], [ 11.303099, 34.734743 ], [ 11.295973, 34.731686 ], [ 11.283443, 34.73218 ], [ 11.264008, 34.721224 ], [ 11.258335, 34.722612 ], [ 11.251597, 34.720523 ], [ 11.249324, 34.712448 ], [ 11.239624, 34.709893 ], [ 11.20192, 34.701718 ], [ 11.130806, 34.663657 ], [ 11.126889, 34.664136 ], [ 11.12325, 34.679129 ] ] ], [ [ [ 10.969655, 34.655683 ], [ 10.974464, 34.657067 ], [ 10.978723, 34.659661 ], [ 10.981761, 34.664155 ], [ 10.986595, 34.669523 ], [ 10.992566, 34.672449 ], [ 10.99688, 34.672464 ], [ 11.011315, 34.670136 ], [ 11.020337, 34.670631 ], [ 11.023303, 34.672286 ], [ 11.024664, 34.6712 ], [ 11.03993, 34.672304 ], [ 11.045174, 34.671591 ], [ 11.046253, 34.669286 ], [ 11.050248, 34.668324 ], [ 11.054778, 34.668887 ], [ 11.057623, 34.672391 ], [ 11.070301, 34.670702 ], [ 11.077177, 34.670361 ], [ 11.084876, 34.671599 ], [ 11.088813, 34.673633 ], [ 11.091965, 34.672816 ], [ 11.094901, 34.668801 ], [ 11.102809, 34.667414 ], [ 11.11399, 34.667417 ], [ 11.116239, 34.665497 ], [ 11.123987, 34.661454 ], [ 11.122346, 34.657941 ], [ 11.105332, 34.654374 ], [ 11.099156, 34.649577 ], [ 11.089289, 34.64286 ], [ 11.08604, 34.643485 ], [ 11.083223, 34.642023 ], [ 11.081833, 34.638942 ], [ 11.077962, 34.636203 ], [ 11.073231, 34.631315 ], [ 11.061341, 34.623286 ], [ 11.055, 34.623127 ], [ 11.049147, 34.620296 ], [ 11.047893, 34.618116 ], [ 11.050149, 34.614593 ], [ 11.048852, 34.612592 ], [ 11.044562, 34.616661 ], [ 11.037756, 34.621428 ], [ 11.035484, 34.62396 ], [ 11.029518, 34.627629 ], [ 11.023212, 34.629695 ], [ 11.011731, 34.632336 ], [ 11.009108, 34.634626 ], [ 10.999347, 34.638414 ], [ 10.991755, 34.643024 ], [ 10.983393, 34.649507 ], [ 10.97863, 34.652141 ], [ 10.971612, 34.654018 ], [ 10.969655, 34.655683 ] ] ], [ [ [ 8.898671, 37.519071 ], [ 8.901954, 37.522743 ], [ 8.906114, 37.52422 ], [ 8.908393, 37.525029 ], [ 8.910958, 37.529559 ], [ 8.923838, 37.531168 ], [ 8.929189, 37.532668 ], [ 8.9365, 37.532833 ], [ 8.93844, 37.535855 ], [ 8.940824, 37.536897 ], [ 8.9406, 37.541653 ], [ 8.944707, 37.542175 ], [ 8.947625, 37.54069 ], [ 8.94799, 37.536227 ], [ 8.95214, 37.532949 ], [ 8.952605, 37.531159 ], [ 8.956677, 37.529612 ], [ 8.9583, 37.527404 ], [ 8.95574, 37.524094 ], [ 8.953335, 37.517743 ], [ 8.95117, 37.516463 ], [ 8.948421, 37.51727 ], [ 8.94293, 37.52298 ], [ 8.937902, 37.524246 ], [ 8.927588, 37.518112 ], [ 8.921337, 37.518181 ], [ 8.918625, 37.516211 ], [ 8.912119, 37.513764 ], [ 8.906114, 37.514281 ], [ 8.903571, 37.5145 ], [ 8.898671, 37.519071 ] ] ], [ [ [ 10.789201, 37.126706 ], [ 10.794641, 37.131281 ], [ 10.799535, 37.133277 ], [ 10.803329, 37.136582 ], [ 10.803279, 37.14124 ], [ 10.805767, 37.142275 ], [ 10.808273, 37.140646 ], [ 10.807876, 37.137548 ], [ 10.810219, 37.134149 ], [ 10.814189, 37.131242 ], [ 10.814264, 37.127619 ], [ 10.819675, 37.124173 ], [ 10.820016, 37.118217 ], [ 10.816921, 37.1171 ], [ 10.810496, 37.118622 ], [ 10.803016, 37.116536 ], [ 10.800134, 37.117615 ], [ 10.79524, 37.115619 ], [ 10.792109, 37.117581 ], [ 10.793105, 37.120956 ], [ 10.790241, 37.12281 ], [ 10.789201, 37.126706 ] ] ], [ [ [ 11.02035, 35.79182 ], [ 11.02283, 35.796644 ], [ 11.026194, 35.799148 ], [ 11.027699, 35.802707 ], [ 11.033741, 35.805422 ], [ 11.040647, 35.805049 ], [ 11.041511, 35.801961 ], [ 11.045543, 35.799844 ], [ 11.046413, 35.797013 ], [ 11.03619, 35.790529 ], [ 11.025774, 35.788784 ], [ 11.02035, 35.79182 ] ] ], [ [ [ 10.303126, 34.370669 ], [ 10.30789, 34.373747 ], [ 10.310457, 34.377108 ], [ 10.31051, 34.380497 ], [ 10.313034, 34.380991 ], [ 10.316063, 34.373659 ], [ 10.318566, 34.37285 ], [ 10.320845, 34.367872 ], [ 10.321186, 34.359526 ], [ 10.3149, 34.359594 ], [ 10.313665, 34.361041 ], [ 10.306454, 34.362291 ], [ 10.303126, 34.370669 ] ] ], [ [ [ 11.30688, 34.74775 ], [ 11.307764, 34.752776 ], [ 11.312276, 34.75554 ], [ 11.320899, 34.758629 ], [ 11.334873, 34.75952 ], [ 11.337006, 34.758629 ], [ 11.338782, 34.757099 ], [ 11.322545, 34.753555 ], [ 11.309545, 34.746051 ], [ 11.30688, 34.74775 ] ] ], [ [ [ 11.30394, 34.82594 ], [ 11.305308, 34.829596 ], [ 11.313483, 34.827832 ], [ 11.315501, 34.824572 ], [ 11.318791, 34.823239 ], [ 11.32287, 34.819557 ], [ 11.331995, 34.817685 ], [ 11.330419, 34.814997 ], [ 11.321102, 34.817176 ], [ 11.315159, 34.816499 ], [ 11.310059, 34.818906 ], [ 11.30394, 34.82594 ] ] ], [ [ [ 10.86054, 33.600044 ], [ 10.861589, 33.602549 ], [ 10.865657, 33.604174 ], [ 10.873356, 33.601592 ], [ 10.873664, 33.594319 ], [ 10.872884, 33.594072 ], [ 10.871233, 33.586057 ], [ 10.869155, 33.5866 ], [ 10.867987, 33.589992 ], [ 10.861925, 33.596573 ], [ 10.86054, 33.600044 ] ] ], [ [ [ 10.707567, 33.732603 ], [ 10.709162, 33.735606 ], [ 10.712637, 33.737846 ], [ 10.716465, 33.738578 ], [ 10.719264, 33.740675 ], [ 10.721551, 33.738591 ], [ 10.719929, 33.73323 ], [ 10.720555, 33.723341 ], [ 10.716882, 33.723463 ], [ 10.713224, 33.727012 ], [ 10.711039, 33.730824 ], [ 10.707567, 33.732603 ] ] ], [ [ [ 10.206346, 37.140996 ], [ 10.206801, 37.143434 ], [ 10.210458, 37.143983 ], [ 10.209607, 37.148231 ], [ 10.214098, 37.150607 ], [ 10.216129, 37.149636 ], [ 10.212665, 37.145754 ], [ 10.210687, 37.140732 ], [ 10.21078, 37.1348 ], [ 10.212905, 37.124498 ], [ 10.211191, 37.124079 ], [ 10.206931, 37.132793 ], [ 10.206346, 37.140996 ] ] ], [ [ [ 10.986922, 33.680776 ], [ 10.98862, 33.681406 ], [ 10.992333, 33.676824 ], [ 10.997867, 33.661569 ], [ 10.996684, 33.658387 ], [ 10.996716, 33.653074 ], [ 10.994319, 33.65258 ], [ 10.994528, 33.661623 ], [ 10.993108, 33.662178 ], [ 10.993536, 33.66696 ], [ 10.991065, 33.670193 ], [ 10.986922, 33.680776 ] ] ], [ [ [ 10.889678, 33.913135 ], [ 10.893293, 33.91495 ], [ 10.898896, 33.913524 ], [ 10.918495, 33.902758 ], [ 10.917473, 33.901348 ], [ 10.889678, 33.913135 ] ] ], [ [ [ 10.766845, 33.69393 ], [ 10.767516, 33.696019 ], [ 10.770322, 33.69506 ], [ 10.778479, 33.694812 ], [ 10.779517, 33.691911 ], [ 10.778547, 33.686289 ], [ 10.771789, 33.690054 ], [ 10.76789, 33.691291 ], [ 10.766845, 33.69393 ] ] ], [ [ [ 11.001813, 35.768284 ], [ 11.002031, 35.770924 ], [ 11.009302, 35.771379 ], [ 11.013299, 35.764934 ], [ 11.010729, 35.762304 ], [ 11.008328, 35.765862 ], [ 11.001813, 35.768284 ] ] ], [ [ [ 11.217089, 34.799759 ], [ 11.218882, 34.801923 ], [ 11.222075, 34.800492 ], [ 11.225278, 34.801049 ], [ 11.224349, 34.798469 ], [ 11.226041, 34.795748 ], [ 11.230596, 34.794039 ], [ 11.230286, 34.791615 ], [ 11.225059, 34.793469 ], [ 11.217089, 34.799759 ] ] ], [ [ [ 8.868787, 37.49655 ], [ 8.871637, 37.500106 ], [ 8.878255, 37.499085 ], [ 8.878773, 37.496372 ], [ 8.883062, 37.493874 ], [ 8.878355, 37.492663 ], [ 8.873275, 37.49668 ], [ 8.868787, 37.49655 ] ] ], [ [ [ 10.978456, 33.658425 ], [ 10.98043, 33.660277 ], [ 10.98469, 33.657022 ], [ 10.98508, 33.65234 ], [ 10.981893, 33.649976 ], [ 10.979119, 33.653529 ], [ 10.97971, 33.656956 ], [ 10.978456, 33.658425 ] ] ], [ [ [ 10.990618, 33.649783 ], [ 10.993709, 33.651015 ], [ 11.001385, 33.648372 ], [ 11.001739, 33.644996 ], [ 10.99378, 33.647133 ], [ 10.990618, 33.649783 ] ] ], [ [ [ 10.971121, 33.673169 ], [ 10.977316, 33.672844 ], [ 10.977562, 33.668444 ], [ 10.973556, 33.666692 ], [ 10.971121, 33.673169 ] ] ], [ [ [ 10.980472, 33.682947 ], [ 10.98183, 33.684976 ], [ 10.987004, 33.683337 ], [ 10.983003, 33.679906 ], [ 10.980472, 33.682947 ] ] ], [ [ [ 10.496474, 34.516558 ], [ 10.500308, 34.517643 ], [ 10.502052, 34.513432 ], [ 10.497468, 34.513231 ], [ 10.496474, 34.516558 ] ] ], [ [ [ 11.295876, 34.727207 ], [ 11.298149, 34.729989 ], [ 11.301795, 34.726521 ], [ 11.297661, 34.724443 ], [ 11.295876, 34.727207 ] ] ], [ [ [ 11.303706, 34.762308 ], [ 11.304509, 34.763661 ], [ 11.310085, 34.762177 ], [ 11.310137, 34.760388 ], [ 11.306372, 34.75949 ], [ 11.303706, 34.762308 ] ] ], [ [ [ 11.279399, 34.823666 ], [ 11.281108, 34.82783 ], [ 11.283272, 34.827212 ], [ 11.284085, 34.824142 ], [ 11.282326, 34.822195 ], [ 11.279399, 34.823666 ] ] ], [ [ [ 11.03155, 35.042596 ], [ 11.03216, 35.045268 ], [ 11.035974, 35.045651 ], [ 11.036395, 35.040727 ], [ 11.03155, 35.042596 ] ] ], [ [ [ 11.09392, 35.157001 ], [ 11.095096, 35.158609 ], [ 11.099588, 35.156902 ], [ 11.10065, 35.15409 ], [ 11.095573, 35.15511 ], [ 11.09392, 35.157001 ] ] ], [ [ [ 11.156456, 35.223265 ], [ 11.158464, 35.228847 ], [ 11.160939, 35.227869 ], [ 11.161016, 35.224115 ], [ 11.156456, 35.223265 ] ] ], [ [ [ 11.039009, 35.637091 ], [ 11.043526, 35.637297 ], [ 11.045216, 35.633485 ], [ 11.042934, 35.632358 ], [ 11.039009, 35.637091 ] ] ], [ [ [ 10.827021, 35.735538 ], [ 10.829613, 35.735624 ], [ 10.831768, 35.729667 ], [ 10.82885, 35.729667 ], [ 10.827021, 35.735538 ] ] ], [ [ [ 10.830614, 35.784231 ], [ 10.832226, 35.78679 ], [ 10.835243, 35.786678 ], [ 10.834849, 35.782605 ], [ 10.832983, 35.781681 ], [ 10.830614, 35.784231 ] ] ], [ [ [ 10.870275, 37.105605 ], [ 10.870999, 37.107745 ], [ 10.875726, 37.108747 ], [ 10.876601, 37.106622 ], [ 10.874357, 37.104924 ], [ 10.870275, 37.105605 ] ] ], [ [ [ 10.325035, 37.181146 ], [ 10.327369, 37.183718 ], [ 10.331447, 37.182442 ], [ 10.330293, 37.180334 ], [ 10.326578, 37.179641 ], [ 10.325035, 37.181146 ] ] ], [ [ [ 8.952919, 37.558694 ], [ 8.956748, 37.56006 ], [ 8.959509, 37.558653 ], [ 8.957908, 37.555199 ], [ 8.952919, 37.558694 ] ] ] ] } }
]
}
