{
"type": "FeatureCollection",
"name": "Tuvalu",
"crs": { "type": "name", "properties": { "name": "urn:ogc:def:crs:OGC:1.3:CRS84" } },
"features": [
{ "type": "Feature", "properties": { "id": "TV", "CNTR_ID": "TV", "CNTR_NAME": "Tuvalu-Tuvalu", "NAME_ENGL": "Tuvalu", "ISO3_CODE": "TUV", "FID": "TV" }, "geometry": { "type": "MultiPolygon", "coordinates": [ [ [ [ 177.137805, -7.192888 ], [ 177.139614, -7.186063 ], [ 177.144961, -7.185044 ], [ 177.149562, -7.186522 ], [ 177.156715, -7.191603 ], [ 177.161024, -7.196466 ], [ 177.163625, -7.203111 ], [ 177.164075, -7.210436 ], [ 177.165711, -7.218352 ], [ 177.166035, -7.225607 ], [ 177.167598, -7.234568 ], [ 177.167923, -7.243888 ], [ 177.164966, -7.253905 ], [ 177.15879, -7.256533 ], [ 177.148346, -7.25383 ], [ 177.143745, -7.251117 ], [ 177.141237, -7.247809 ], [ 177.139519, -7.239863 ], [ 177.141718, -7.231419 ], [ 177.142245, -7.216938 ], [ 177.141061, -7.208439 ], [ 177.138293, -7.197329 ], [ 177.137805, -7.192888 ] ] ], [ [ [ 178.664037, -7.464552 ], [ 178.668729, -7.464686 ], [ 178.667389, -7.45924 ], [ 178.670233, -7.460148 ], [ 178.671732, -7.463518 ], [ 178.681447, -7.472433 ], [ 178.679812, -7.475286 ], [ 178.685697, -7.479638 ], [ 178.688414, -7.477668 ], [ 178.695106, -7.483695 ], [ 178.696945, -7.487747 ], [ 178.690458, -7.49585 ], [ 178.687699, -7.497471 ], [ 178.681978, -7.497674 ], [ 178.678069, -7.487753 ], [ 178.672373, -7.478978 ], [ 178.664037, -7.464552 ] ] ], [ [ [ 176.312736, -6.290108 ], [ 176.315346, -6.281895 ], [ 176.320554, -6.273961 ], [ 176.324189, -6.276131 ], [ 176.326824, -6.281433 ], [ 176.326771, -6.292609 ], [ 176.321869, -6.301924 ], [ 176.319695, -6.301779 ], [ 176.314361, -6.294511 ], [ 176.312736, -6.290108 ] ] ], [ [ [ 177.33096, -6.105429 ], [ 177.332624, -6.10361 ], [ 177.334981, -6.102865 ], [ 177.337753, -6.102865 ], [ 177.34072, -6.10361 ], [ 177.344269, -6.104299 ], [ 177.347818, -6.104023 ], [ 177.350674, -6.104106 ], [ 177.35231, -6.104961 ], [ 177.353586, -6.108241 ], [ 177.353724, -6.111577 ], [ 177.350841, -6.113149 ], [ 177.347486, -6.113783 ], [ 177.338142, -6.114141 ], [ 177.335618, -6.112432 ], [ 177.332818, -6.109317 ], [ 177.331598, -6.107276 ], [ 177.33096, -6.105429 ] ] ], [ [ [ 176.119213, -5.663845 ], [ 176.120961, -5.66304 ], [ 176.125387, -5.670342 ], [ 176.129548, -5.679388 ], [ 176.133263, -5.694511 ], [ 176.135165, -5.698152 ], [ 176.133613, -5.699077 ], [ 176.128137, -5.691106 ], [ 176.122039, -5.683743 ], [ 176.126085, -5.680193 ], [ 176.125037, -5.676832 ], [ 176.120961, -5.672428 ], [ 176.119213, -5.663845 ] ] ], [ [ [ 176.058983, -5.645145 ], [ 176.059676, -5.642501 ], [ 176.068801, -5.64457 ], [ 176.077463, -5.650317 ], [ 176.077925, -5.65342 ], [ 176.075499, -5.653305 ], [ 176.062679, -5.648823 ], [ 176.058983, -5.645145 ] ] ], [ [ [ 178.372493, -8.064558 ], [ 178.378686, -8.059545 ], [ 178.380199, -8.060191 ], [ 178.381149, -8.068462 ], [ 178.380061, -8.072983 ], [ 178.375386, -8.073349 ], [ 178.373817, -8.070114 ], [ 178.374271, -8.065979 ], [ 178.372493, -8.064558 ] ] ], [ [ [ 179.191673, -8.528677 ], [ 179.199471, -8.513412 ], [ 179.200933, -8.51369 ], [ 179.203008, -8.520362 ], [ 179.201764, -8.522707 ], [ 179.193125, -8.529243 ], [ 179.191673, -8.528677 ] ] ], [ [ [ 178.428375, -7.980215 ], [ 178.431571, -7.973867 ], [ 178.432134, -7.965763 ], [ 178.433817, -7.965372 ], [ 178.43705, -7.970843 ], [ 178.437217, -7.974142 ], [ 178.429954, -7.98095 ], [ 178.428375, -7.980215 ] ] ], [ [ [ 179.812025, -9.353158 ], [ 179.816839, -9.349303 ], [ 179.821841, -9.347399 ], [ 179.829247, -9.347554 ], [ 179.829804, -9.349083 ], [ 179.824066, -9.350008 ], [ 179.816802, -9.353852 ], [ 179.814339, -9.356117 ], [ 179.812025, -9.353158 ] ] ], [ [ [ 178.305249, -8.03103 ], [ 178.308305, -8.02564 ], [ 178.311228, -8.026681 ], [ 178.314431, -8.024716 ], [ 178.316439, -8.028403 ], [ 178.310177, -8.029113 ], [ 178.309906, -8.031785 ], [ 178.313406, -8.033799 ], [ 178.311222, -8.035237 ], [ 178.305249, -8.03103 ] ] ], [ [ [ 179.849484, -9.42887 ], [ 179.851422, -9.425911 ], [ 179.855032, -9.427953 ], [ 179.854138, -9.430033 ], [ 179.859964, -9.430657 ], [ 179.860189, -9.435682 ], [ 179.852006, -9.432562 ], [ 179.849484, -9.42887 ] ] ], [ [ [ 179.805208, -9.375614 ], [ 179.807117, -9.374477 ], [ 179.807754, -9.368918 ], [ 179.810959, -9.368722 ], [ 179.809427, -9.374716 ], [ 179.812284, -9.378139 ], [ 179.810267, -9.381983 ], [ 179.805208, -9.375614 ] ] ], [ [ [ 179.113224, -8.42694 ], [ 179.114904, -8.425386 ], [ 179.124277, -8.424107 ], [ 179.12529, -8.429271 ], [ 179.120512, -8.428312 ], [ 179.117108, -8.429228 ], [ 179.113224, -8.42694 ] ] ], [ [ [ 179.839806, -9.421588 ], [ 179.846992, -9.422036 ], [ 179.847605, -9.424674 ], [ 179.843254, -9.427765 ], [ 179.840024, -9.423934 ], [ 179.839806, -9.421588 ] ] ], [ [ [ 179.8609, -9.430332 ], [ 179.868627, -9.42618 ], [ 179.867731, -9.431823 ], [ 179.864733, -9.434411 ], [ 179.8609, -9.430332 ] ] ], [ [ [ 176.111147, -5.672027 ], [ 176.114712, -5.670835 ], [ 176.119456, -5.677398 ], [ 176.118074, -5.678595 ], [ 176.111147, -5.672027 ] ] ], [ [ [ 179.098, -8.63399 ], [ 179.100713, -8.627221 ], [ 179.102784, -8.627491 ], [ 179.103027, -8.633616 ], [ 179.098, -8.63399 ] ] ], [ [ [ 176.109079, -5.659639 ], [ 176.110471, -5.657146 ], [ 176.117397, -5.660948 ], [ 176.116625, -5.662941 ], [ 176.109079, -5.659639 ] ] ], [ [ [ 178.376386, -7.929262 ], [ 178.381836, -7.929407 ], [ 178.382764, -7.93358 ], [ 178.3787, -7.933549 ], [ 178.376386, -7.929262 ] ] ], [ [ [ 178.345205, -7.988723 ], [ 178.348931, -7.987398 ], [ 178.351103, -7.992993 ], [ 178.347301, -7.992993 ], [ 178.345205, -7.988723 ] ] ], [ [ [ 178.316678, -8.034614 ], [ 178.320821, -8.03285 ], [ 178.32338, -8.036752 ], [ 178.317632, -8.037794 ], [ 178.316678, -8.034614 ] ] ], [ [ [ 178.325026, -8.0417 ], [ 178.325152, -8.036655 ], [ 178.330162, -8.038561 ], [ 178.330864, -8.040943 ], [ 178.325026, -8.0417 ] ] ], [ [ [ 179.164334, -8.431709 ], [ 179.164563, -8.429958 ], [ 179.170534, -8.434245 ], [ 179.1687, -8.43628 ], [ 179.164418, -8.434365 ], [ 179.164334, -8.431709 ] ] ], [ [ [ 179.077319, -8.461812 ], [ 179.078919, -8.458489 ], [ 179.082807, -8.464028 ], [ 179.080178, -8.466268 ], [ 179.077319, -8.461812 ] ] ], [ [ [ 179.072259, -8.636977 ], [ 179.074928, -8.635442 ], [ 179.077282, -8.640153 ], [ 179.073754, -8.642641 ], [ 179.072259, -8.636977 ] ] ], [ [ [ 179.864599, -9.398216 ], [ 179.867879, -9.396067 ], [ 179.870054, -9.400317 ], [ 179.867432, -9.403192 ], [ 179.864599, -9.398216 ] ] ], [ [ [ 179.830003, -9.348622 ], [ 179.836274, -9.348985 ], [ 179.836338, -9.351022 ], [ 179.831649, -9.351255 ], [ 179.830003, -9.348622 ] ] ] ] } }
]
}
