{
"type": "FeatureCollection",
"name": "Uganda",
"crs": { "type": "name", "properties": { "name": "urn:ogc:def:crs:OGC:1.3:CRS84" } },
"features": [
{ "type": "Feature", "properties": { "id": "UG", "CNTR_ID": "UG", "CNTR_NAME": "Uganda-Uganda", "NAME_ENGL": "Uganda", "ISO3_CODE": "UGA", "FID": "UG" }, "geometry": { "type": "MultiPolygon", "coordinates": [ [ [ [ 29.589509, -1.386621 ], [ 29.605112, -1.332858 ], [ 29.624844, -1.295291 ], [ 29.643086, -1.260559 ], [ 29.624844, -1.240655 ], [ 29.574603, -1.185838 ], [ 29.578083, -1.156989 ], [ 29.595868, -1.137856 ], [ 29.599521, -1.118827 ], [ 29.613597, -1.101904 ], [ 29.602687, -1.067255 ], [ 29.589661, -1.040489 ], [ 29.586942, -1.017309 ], [ 29.588156, -0.997007 ], [ 29.596758, -0.972412 ], [ 29.589548, -0.941596 ], [ 29.586276, -0.912048 ], [ 29.617383, -0.90597 ], [ 29.624844, -0.892888 ], [ 29.627969, -0.887408 ], [ 29.627046, -0.858306 ], [ 29.639795, -0.826478 ], [ 29.627975, -0.793008 ], [ 29.632816, -0.768577 ], [ 29.63014, -0.757684 ], [ 29.631013, -0.73466 ], [ 29.62628, -0.720412 ], [ 29.637672, -0.678178 ], [ 29.649228, -0.659397 ], [ 29.652117, -0.643065 ], [ 29.661794, -0.626936 ], [ 29.651323, -0.596921 ], [ 29.665841, -0.576967 ], [ 29.655516, -0.564637 ], [ 29.655168, -0.551098 ], [ 29.660293, -0.539485 ], [ 29.668494, -0.540889 ], [ 29.672818, -0.53798 ], [ 29.67264, -0.510753 ], [ 29.680867, -0.496702 ], [ 29.67961, -0.490867 ], [ 29.682956, -0.48306 ], [ 29.682292, -0.468816 ], [ 29.685837, -0.455644 ], [ 29.704829, -0.273444 ], [ 29.728243, -0.048822 ], [ 29.730614, -0.04032 ], [ 29.738656, -0.03487 ], [ 29.741612, -0.028132 ], [ 29.733416, -0.01852 ], [ 29.725429, 0.009369 ], [ 29.726709, 0.016997 ], [ 29.719788, 0.032958 ], [ 29.719806, 0.069336 ], [ 29.732447, 0.083717 ], [ 29.73315, 0.099029 ], [ 29.741037, 0.124081 ], [ 29.761817, 0.142752 ], [ 29.772034, 0.163469 ], [ 29.780451, 0.167409 ], [ 29.813205, 0.164911 ], [ 29.820157, 0.168054 ], [ 29.870724, 0.378059 ], [ 29.948404, 0.447566 ], [ 29.944061, 0.520015 ], [ 29.970234, 0.552915 ], [ 29.97108, 0.581889 ], [ 29.980853, 0.594528 ], [ 29.96817, 0.611757 ], [ 29.960866, 0.632878 ], [ 29.958442, 0.652427 ], [ 29.964944, 0.677881 ], [ 29.972624, 0.695342 ], [ 29.969539, 0.717566 ], [ 29.976659, 0.739631 ], [ 29.975584, 0.750823 ], [ 29.96809, 0.761978 ], [ 29.965635, 0.778414 ], [ 29.972169, 0.794999 ], [ 29.973651, 0.811557 ], [ 29.985792, 0.832104 ], [ 29.988453, 0.842363 ], [ 29.993789, 0.84637 ], [ 30.003292, 0.846443 ], [ 30.013299, 0.855311 ], [ 30.027798, 0.856189 ], [ 30.046037, 0.868794 ], [ 30.060482, 0.869513 ], [ 30.068156, 0.878054 ], [ 30.085053, 0.880153 ], [ 30.107518, 0.893628 ], [ 30.117447, 0.894079 ], [ 30.127494, 0.887557 ], [ 30.133695, 0.889695 ], [ 30.137578, 0.884036 ], [ 30.143984, 0.887454 ], [ 30.153518, 0.886913 ], [ 30.156231, 0.899491 ], [ 30.165723, 0.901514 ], [ 30.173162, 0.910406 ], [ 30.17027, 0.922844 ], [ 30.17667, 0.940906 ], [ 30.18349, 0.945203 ], [ 30.182429, 0.952316 ], [ 30.189664, 0.949936 ], [ 30.18839, 0.954531 ], [ 30.192138, 0.95762 ], [ 30.188834, 0.962806 ], [ 30.193218, 0.965134 ], [ 30.19458, 0.969645 ], [ 30.201768, 0.967106 ], [ 30.203054, 0.976139 ], [ 30.215187, 0.975173 ], [ 30.212136, 0.981251 ], [ 30.226342, 0.986233 ], [ 30.225743, 0.996372 ], [ 30.232449, 1.001175 ], [ 30.22524, 1.004124 ], [ 30.227626, 1.010879 ], [ 30.224033, 1.021827 ], [ 30.228921, 1.040721 ], [ 30.221603, 1.049433 ], [ 30.228173, 1.056213 ], [ 30.225693, 1.062525 ], [ 30.22801, 1.077176 ], [ 30.238889, 1.093977 ], [ 30.239774, 1.113032 ], [ 30.235576, 1.125895 ], [ 30.238329, 1.133358 ], [ 30.248274, 1.141851 ], [ 30.26297, 1.146236 ], [ 30.273858, 1.160897 ], [ 30.291083, 1.171302 ], [ 30.300413, 1.163751 ], [ 30.309787, 1.166049 ], [ 30.314406, 1.153265 ], [ 30.322567, 1.155834 ], [ 30.330355, 1.151444 ], [ 30.336825, 1.152141 ], [ 30.342604, 1.177207 ], [ 30.365525, 1.207035 ], [ 30.395434, 1.214241 ], [ 30.412199, 1.227526 ], [ 30.426599, 1.230678 ], [ 30.443121, 1.241698 ], [ 30.450804, 1.255401 ], [ 30.463424, 1.261033 ], [ 30.626603, 1.418241 ], [ 30.712238, 1.500738 ], [ 30.806717, 1.575108 ], [ 31.030296, 1.751089 ], [ 31.232288, 1.998077 ], [ 31.247767, 2.021507 ], [ 31.310403, 2.116313 ], [ 31.296848, 2.163999 ], [ 31.247767, 2.198486 ], [ 31.203982, 2.22925 ], [ 31.195434, 2.304005 ], [ 31.180499, 2.300026 ], [ 31.163738, 2.289825 ], [ 31.137035, 2.288178 ], [ 31.120857, 2.278762 ], [ 31.108474, 2.282559 ], [ 31.087264, 2.295933 ], [ 31.052932, 2.30346 ], [ 31.051768, 2.310794 ], [ 31.069046, 2.326846 ], [ 31.068646, 2.33552 ], [ 31.041161, 2.354276 ], [ 31.000315, 2.398779 ], [ 30.986974, 2.407799 ], [ 30.970717, 2.4116 ], [ 30.955252, 2.41103 ], [ 30.941637, 2.404052 ], [ 30.933322, 2.388268 ], [ 30.924194, 2.354828 ], [ 30.91474, 2.341171 ], [ 30.896715, 2.335593 ], [ 30.881388, 2.337597 ], [ 30.86795, 2.346209 ], [ 30.847146, 2.37831 ], [ 30.826235, 2.399465 ], [ 30.824499, 2.441366 ], [ 30.806717, 2.443069 ], [ 30.730694, 2.450349 ], [ 30.732822, 2.479656 ], [ 30.751375, 2.505241 ], [ 30.755227, 2.515837 ], [ 30.751528, 2.557438 ], [ 30.755358, 2.597877 ], [ 30.760704, 2.607766 ], [ 30.774963, 2.621167 ], [ 30.787016, 2.673497 ], [ 30.804234, 2.696889 ], [ 30.806717, 2.711187 ], [ 30.808315, 2.720393 ], [ 30.816619, 2.738804 ], [ 30.816648, 2.766075 ], [ 30.853204, 2.787291 ], [ 30.857429, 2.797007 ], [ 30.860047, 2.817608 ], [ 30.873788, 2.833171 ], [ 30.877489, 2.843767 ], [ 30.874744, 2.870411 ], [ 30.879233, 2.881165 ], [ 30.878807, 2.891189 ], [ 30.863683, 2.924981 ], [ 30.85351, 2.960559 ], [ 30.846443, 2.970867 ], [ 30.825694, 2.987935 ], [ 30.811726, 3.009386 ], [ 30.806717, 3.011894 ], [ 30.772807, 3.028867 ], [ 30.767451, 3.034324 ], [ 30.763533, 3.04609 ], [ 30.76411, 3.06694 ], [ 30.778888, 3.09955 ], [ 30.782788, 3.129692 ], [ 30.793783, 3.148066 ], [ 30.803071, 3.178966 ], [ 30.806717, 3.187234 ], [ 30.824774, 3.228185 ], [ 30.829326, 3.273643 ], [ 30.837171, 3.282331 ], [ 30.857001, 3.288813 ], [ 30.862503, 3.29315 ], [ 30.866886, 3.300859 ], [ 30.869967, 3.31703 ], [ 30.88314, 3.326325 ], [ 30.893553, 3.357061 ], [ 30.911246, 3.366002 ], [ 30.915048, 3.383451 ], [ 30.928728, 3.397451 ], [ 30.934717, 3.411673 ], [ 30.934552, 3.428223 ], [ 30.922219, 3.457598 ], [ 30.928544, 3.492077 ], [ 30.927756, 3.504537 ], [ 30.917778, 3.520997 ], [ 30.908892, 3.52545 ], [ 30.900329, 3.523898 ], [ 30.880424, 3.498137 ], [ 30.85453, 3.487471 ], [ 30.861218, 3.515138 ], [ 30.878708, 3.530448 ], [ 30.896182, 3.553191 ], [ 30.91271, 3.568579 ], [ 30.917383, 3.588811 ], [ 30.949484, 3.635509 ], [ 30.947744, 3.650966 ], [ 30.954436, 3.66619 ], [ 30.968422, 3.675858 ], [ 30.972348, 3.689153 ], [ 30.978731, 3.696916 ], [ 30.988471, 3.699159 ], [ 31.00109, 3.688536 ], [ 31.031751, 3.698312 ], [ 31.060658, 3.720142 ], [ 31.063434, 3.727761 ], [ 31.060741, 3.734789 ], [ 31.066298, 3.741245 ], [ 31.081095, 3.743766 ], [ 31.088223, 3.741503 ], [ 31.092182, 3.73524 ], [ 31.099363, 3.736285 ], [ 31.101874, 3.745817 ], [ 31.108575, 3.751472 ], [ 31.118334, 3.754777 ], [ 31.153069, 3.77801 ], [ 31.162067, 3.789324 ], [ 31.174881, 3.792949 ], [ 31.247767, 3.791888 ], [ 31.28599, 3.791331 ], [ 31.309225, 3.78177 ], [ 31.372687, 3.745423 ], [ 31.473728, 3.687552 ], [ 31.538732, 3.654905 ], [ 31.580946, 3.682238 ], [ 31.612272, 3.692095 ], [ 31.627752, 3.699834 ], [ 31.663925, 3.710178 ], [ 31.685841, 3.711028 ], [ 31.709965, 3.717552 ], [ 31.725731, 3.735614 ], [ 31.731035, 3.749076 ], [ 31.738476, 3.749021 ], [ 31.801902, 3.79999 ], [ 31.803677, 3.808113 ], [ 31.794481, 3.827382 ], [ 31.807857, 3.827881 ], [ 31.854231, 3.789499 ], [ 31.873371, 3.76455 ], [ 31.892055, 3.746931 ], [ 31.894425, 3.743681 ], [ 31.919523, 3.709256 ], [ 31.937393, 3.67143 ], [ 31.941621, 3.656496 ], [ 31.94933, 3.612349 ], [ 31.950263, 3.587535 ], [ 32.039296, 3.586504 ], [ 32.053989, 3.591264 ], [ 32.060397, 3.585862 ], [ 32.059297, 3.580012 ], [ 32.084144, 3.561529 ], [ 32.082848, 3.548996 ], [ 32.088235, 3.538129 ], [ 32.085982, 3.533511 ], [ 32.201419, 3.505579 ], [ 32.205159, 3.510816 ], [ 32.203026, 3.524824 ], [ 32.210228, 3.538098 ], [ 32.208534, 3.546154 ], [ 32.215167, 3.56451 ], [ 32.215893, 3.575672 ], [ 32.208572, 3.590969 ], [ 32.198505, 3.593271 ], [ 32.194303, 3.602125 ], [ 32.176726, 3.612257 ], [ 32.406201, 3.746945 ], [ 32.720478, 3.765418 ], [ 32.901098, 3.815369 ], [ 32.989939, 3.857018 ], [ 33.027548, 3.872955 ], [ 33.177822, 3.774091 ], [ 33.508447, 3.749412 ], [ 33.679224, 3.912832 ], [ 33.799759, 4.028154 ], [ 33.99449, 4.21443 ], [ 34.042775, 4.181481 ], [ 34.061009, 4.150821 ], [ 34.052908, 4.108716 ], [ 34.073918, 4.0875 ], [ 34.087121, 4.064775 ], [ 34.091263, 4.049356 ], [ 34.085986, 4.037192 ], [ 34.067797, 4.028154 ], [ 34.060153, 4.024356 ], [ 34.057476, 4.019337 ], [ 34.059043, 4.00901 ], [ 34.078285, 3.996444 ], [ 34.095484, 3.977407 ], [ 34.129054, 3.952279 ], [ 34.128994, 3.939327 ], [ 34.119226, 3.901259 ], [ 34.092987, 3.885612 ], [ 34.091456, 3.874393 ], [ 34.157751, 3.870029 ], [ 34.181054, 3.880358 ], [ 34.199466, 3.881356 ], [ 34.211605, 3.879116 ], [ 34.218659, 3.86838 ], [ 34.223386, 3.849932 ], [ 34.219795, 3.834833 ], [ 34.20823, 3.829125 ], [ 34.173985, 3.825449 ], [ 34.165101, 3.818532 ], [ 34.156697, 3.806255 ], [ 34.158648, 3.800764 ], [ 34.183521, 3.798059 ], [ 34.188119, 3.79417 ], [ 34.185885, 3.785765 ], [ 34.170126, 3.775684 ], [ 34.172072, 3.767843 ], [ 34.176277, 3.766172 ], [ 34.217228, 3.780562 ], [ 34.227568, 3.776439 ], [ 34.231217, 3.777756 ], [ 34.243153, 3.782062 ], [ 34.250062, 3.781581 ], [ 34.266666, 3.747529 ], [ 34.298827, 3.716513 ], [ 34.303456, 3.692148 ], [ 34.307596, 3.694829 ], [ 34.316431, 3.719522 ], [ 34.324072, 3.729364 ], [ 34.332272, 3.733959 ], [ 34.353373, 3.736963 ], [ 34.373261, 3.73277 ], [ 34.381163, 3.727607 ], [ 34.397719, 3.699526 ], [ 34.407558, 3.689583 ], [ 34.447392, 3.677856 ], [ 34.455475, 3.67415 ], [ 34.459212, 3.668989 ], [ 34.45242, 3.547002 ], [ 34.447817, 3.517527 ], [ 34.440706, 3.505169 ], [ 34.428695, 3.495372 ], [ 34.416747, 3.488635 ], [ 34.404456, 3.487451 ], [ 34.396187, 3.482383 ], [ 34.413366, 3.449289 ], [ 34.415825, 3.438295 ], [ 34.400601, 3.405904 ], [ 34.401386, 3.38219 ], [ 34.426661, 3.329493 ], [ 34.439506, 3.291559 ], [ 34.450189, 3.243107 ], [ 34.453003, 3.191284 ], [ 34.464298, 3.168315 ], [ 34.485588, 3.154239 ], [ 34.493413, 3.143619 ], [ 34.502576, 3.146755 ], [ 34.51262, 3.146252 ], [ 34.548696, 3.1315 ], [ 34.555215, 3.105623 ], [ 34.561255, 3.099821 ], [ 34.566977, 3.0874 ], [ 34.57518, 3.027693 ], [ 34.597467, 2.918987 ], [ 34.6174, 2.908521 ], [ 34.635168, 2.899192 ], [ 34.643334, 2.878999 ], [ 34.657027, 2.864516 ], [ 34.680734, 2.864442 ], [ 34.698851, 2.873399 ], [ 34.706152, 2.873156 ], [ 34.719213, 2.857132 ], [ 34.741719, 2.845466 ], [ 34.752745, 2.824029 ], [ 34.77101, 2.812043 ], [ 34.776762, 2.775139 ], [ 34.779625, 2.689966 ], [ 34.84455, 2.593025 ], [ 34.862439, 2.570607 ], [ 34.875245, 2.569448 ], [ 34.882886, 2.586826 ], [ 34.892123, 2.586453 ], [ 34.902417, 2.527608 ], [ 34.909949, 2.520328 ], [ 34.928612, 2.516492 ], [ 34.934744, 2.483826 ], [ 34.953697, 2.455622 ], [ 34.919786, 2.417691 ], [ 34.915751, 2.398792 ], [ 34.971079, 2.072532 ], [ 34.977867, 2.050259 ], [ 34.986789, 1.991288 ], [ 35.032519, 1.926192 ], [ 35.035674, 1.918097 ], [ 34.998843, 1.682162 ], [ 34.968679, 1.618712 ], [ 34.947299, 1.58218 ], [ 34.911137, 1.56738 ], [ 34.898992, 1.556283 ], [ 34.888255, 1.555575 ], [ 34.866625, 1.532599 ], [ 34.860883, 1.521485 ], [ 34.843222, 1.460541 ], [ 34.844899, 1.4395 ], [ 34.826774, 1.443707 ], [ 34.79084, 1.433536 ], [ 34.78564, 1.425084 ], [ 34.774928, 1.426117 ], [ 34.770497, 1.423481 ], [ 34.771728, 1.418241 ], [ 34.772154, 1.416426 ], [ 34.796732, 1.376853 ], [ 34.793879, 1.361053 ], [ 34.829109, 1.303419 ], [ 34.830319, 1.266002 ], [ 34.820978, 1.259434 ], [ 34.818234, 1.24844 ], [ 34.812526, 1.243057 ], [ 34.806423, 1.229479 ], [ 34.795343, 1.219859 ], [ 34.726326, 1.215895 ], [ 34.671453, 1.206112 ], [ 34.665325, 1.189446 ], [ 34.65102, 1.17683 ], [ 34.637187, 1.16856 ], [ 34.624178, 1.165008 ], [ 34.6174, 1.16019 ], [ 34.606901, 1.152725 ], [ 34.594664, 1.137685 ], [ 34.57218, 1.097948 ], [ 34.524166, 1.104408 ], [ 34.505725, 1.071619 ], [ 34.493315, 1.035382 ], [ 34.489196, 1.013639 ], [ 34.489785, 0.979668 ], [ 34.479889, 0.935669 ], [ 34.465101, 0.908981 ], [ 34.453035, 0.896918 ], [ 34.44937, 0.877946 ], [ 34.421279, 0.857541 ], [ 34.411628, 0.824101 ], [ 34.401309, 0.812706 ], [ 34.369026, 0.789017 ], [ 34.328701, 0.778295 ], [ 34.312601, 0.767373 ], [ 34.309899, 0.759111 ], [ 34.311774, 0.726861 ], [ 34.308986, 0.71037 ], [ 34.301129, 0.694475 ], [ 34.284201, 0.67992 ], [ 34.277223, 0.641742 ], [ 34.269519, 0.64106 ], [ 34.25136, 0.630302 ], [ 34.242197, 0.631386 ], [ 34.231217, 0.627731 ], [ 34.229401, 0.627126 ], [ 34.221499, 0.627573 ], [ 34.213377, 0.62296 ], [ 34.202381, 0.624463 ], [ 34.191652, 0.617194 ], [ 34.185705, 0.604209 ], [ 34.177488, 0.602473 ], [ 34.15777, 0.591025 ], [ 34.123148, 0.462342 ], [ 34.116903, 0.448175 ], [ 34.100406, 0.433499 ], [ 34.099193, 0.41395 ], [ 34.108133, 0.376475 ], [ 34.104964, 0.363257 ], [ 34.097184, 0.348226 ], [ 34.080575, 0.32944 ], [ 34.071194, 0.323261 ], [ 34.057567, 0.320509 ], [ 34.059411, 0.310425 ], [ 34.050016, 0.301106 ], [ 34.048802, 0.292724 ], [ 34.041409, 0.288525 ], [ 34.04049, 0.273346 ], [ 34.024705, 0.263787 ], [ 34.011044, 0.239606 ], [ 33.912443, 0.106586 ], [ 33.911036, 0.099359 ], [ 33.984376, -0.137673 ], [ 33.952249, -0.325961 ], [ 33.929389, -0.459935 ], [ 33.925532, -0.561663 ], [ 33.93393, -0.901692 ], [ 33.933979, -0.999894 ], [ 33.75, -0.999894 ], [ 33.679224, -0.999894 ], [ 32.989939, -0.999895 ], [ 31.894425, -0.999895 ], [ 31.372687, -0.999895 ], [ 31.247767, -0.999895 ], [ 30.806717, -0.999895 ], [ 30.804638, -0.999895 ], [ 30.767077, -0.984888 ], [ 30.754384, -0.991131 ], [ 30.736621, -1.006731 ], [ 30.717982, -1.014014 ], [ 30.698197, -1.016035 ], [ 30.673868, -1.035931 ], [ 30.663461, -1.057873 ], [ 30.650314, -1.065481 ], [ 30.62612, -1.068144 ], [ 30.596835, -1.064957 ], [ 30.584777, -1.060935 ], [ 30.559406, -1.064755 ], [ 30.539401, -1.074855 ], [ 30.526855, -1.075459 ], [ 30.50887, -1.072051 ], [ 30.490327, -1.058581 ], [ 30.473515, -1.057411 ], [ 30.470544, -1.054455 ], [ 30.467504, -1.052349 ], [ 30.450951, -1.048447 ], [ 30.443667, -1.047929 ], [ 30.439688, -1.048379 ], [ 30.438036, -1.049821 ], [ 30.434765, -1.05332 ], [ 30.431184, -1.057962 ], [ 30.431149, -1.062434 ], [ 30.427486, -1.064619 ], [ 30.405246, -1.063457 ], [ 30.398847, -1.063739 ], [ 30.391024, -1.068704 ], [ 30.386002, -1.066976 ], [ 30.377295, -1.061353 ], [ 30.373459, -1.065734 ], [ 30.375198, -1.067619 ], [ 30.373917, -1.069618 ], [ 30.366147, -1.067273 ], [ 30.359373, -1.063366 ], [ 30.355212, -1.064529 ], [ 30.352756, -1.068815 ], [ 30.351149, -1.075263 ], [ 30.348945, -1.086711 ], [ 30.344862, -1.08874 ], [ 30.339286, -1.094775 ], [ 30.338994, -1.104762 ], [ 30.341149, -1.118606 ], [ 30.343234, -1.126527 ], [ 30.338039, -1.131001 ], [ 30.319666, -1.140183 ], [ 30.309903, -1.143753 ], [ 30.298329, -1.158442 ], [ 30.290721, -1.190452 ], [ 30.279284, -1.198185 ], [ 30.275511, -1.210039 ], [ 30.256939, -1.218423 ], [ 30.2427, -1.241295 ], [ 30.212382, -1.273248 ], [ 30.203502, -1.273 ], [ 30.196311, -1.277635 ], [ 30.18776, -1.268909 ], [ 30.173393, -1.270363 ], [ 30.17102, -1.275962 ], [ 30.175576, -1.28598 ], [ 30.176968, -1.305662 ], [ 30.167584, -1.307176 ], [ 30.162027, -1.320019 ], [ 30.169236, -1.339737 ], [ 30.148956, -1.348422 ], [ 30.139995, -1.35533 ], [ 30.135693, -1.36268 ], [ 30.127458, -1.366994 ], [ 30.122952, -1.383156 ], [ 30.118567, -1.383832 ], [ 30.111454, -1.374685 ], [ 30.105744, -1.371986 ], [ 30.098536, -1.375702 ], [ 30.081558, -1.374388 ], [ 30.06862, -1.381254 ], [ 30.069641, -1.389982 ], [ 30.052168, -1.399132 ], [ 30.052701, -1.428165 ], [ 30.043462, -1.427163 ], [ 30.037258, -1.418597 ], [ 30.015825, -1.412861 ], [ 29.997196, -1.429384 ], [ 29.978445, -1.456749 ], [ 29.942724, -1.466182 ], [ 29.923726, -1.479483 ], [ 29.900336, -1.462454 ], [ 29.887831, -1.43016 ], [ 29.883497, -1.408801 ], [ 29.881754, -1.356704 ], [ 29.87264, -1.355272 ], [ 29.863142, -1.358335 ], [ 29.850315, -1.339184 ], [ 29.842765, -1.332883 ], [ 29.841326, -1.322856 ], [ 29.828938, -1.309535 ], [ 29.822081, -1.31205 ], [ 29.819389, -1.325469 ], [ 29.809911, -1.330495 ], [ 29.799117, -1.346098 ], [ 29.799017, -1.357792 ], [ 29.794609, -1.362566 ], [ 29.772234, -1.346253 ], [ 29.732129, -1.342398 ], [ 29.70837, -1.351461 ], [ 29.677782, -1.383744 ], [ 29.624844, -1.388088 ], [ 29.619962, -1.388489 ], [ 29.589509, -1.386621 ] ] ] ] } }
]
}
