{
"type": "FeatureCollection",
"name": "United Arab Emirates",
"crs": { "type": "name", "properties": { "name": "urn:ogc:def:crs:OGC:1.3:CRS84" } },
"features": [
{ "type": "Feature", "properties": { "id": "AE", "CNTR_ID": "AE", "CNTR_NAME": "الإمارات العربية المتحدة", "NAME_ENGL": "United Arab Emirates", "ISO3_CODE": "ARE", "FID": "AE" }, "geometry": { "type": "MultiPolygon", "coordinates": [ [ [ [ 51.590556, 24.242975 ], [ 51.59787, 24.27945 ], [ 51.591036, 24.342404 ], [ 51.592942, 24.361908 ], [ 51.597781, 24.366766 ], [ 51.613764, 24.357214 ], [ 51.622661, 24.342397 ], [ 51.630993, 24.320224 ], [ 51.63122, 24.220378 ], [ 51.636135, 24.208845 ], [ 51.652057, 24.212771 ], [ 51.666179, 24.231432 ], [ 51.670961, 24.246561 ], [ 51.667955, 24.266491 ], [ 51.670392, 24.275074 ], [ 51.676646, 24.272774 ], [ 51.683427, 24.260107 ], [ 51.692412, 24.217903 ], [ 51.701779, 24.21333 ], [ 51.718586, 24.2183 ], [ 51.716246, 24.234019 ], [ 51.718024, 24.245288 ], [ 51.726434, 24.260942 ], [ 51.742992, 24.280217 ], [ 51.758394, 24.282117 ], [ 51.773307, 24.271794 ], [ 51.775427, 24.267407 ], [ 51.779535, 24.258905 ], [ 51.779097, 24.236018 ], [ 51.775427, 24.199555 ], [ 51.775212, 24.197414 ], [ 51.767807, 24.176157 ], [ 51.768492, 24.146754 ], [ 51.775427, 24.123324 ], [ 51.78425, 24.09351 ], [ 51.783249, 24.053658 ], [ 51.789118, 24.028548 ], [ 51.809794, 24.003384 ], [ 51.833322, 23.988581 ], [ 51.858584, 23.981776 ], [ 51.906967, 23.974834 ], [ 51.924184, 23.958364 ], [ 51.932195, 23.95508 ], [ 51.942971, 23.958568 ], [ 51.947865, 23.967019 ], [ 51.945572, 23.973257 ], [ 51.933717, 23.977258 ], [ 51.932637, 23.982631 ], [ 51.939308, 23.993092 ], [ 51.948817, 23.997864 ], [ 51.979781, 23.982989 ], [ 52.027278, 23.978541 ], [ 52.04655, 23.964882 ], [ 52.06633, 23.957392 ], [ 52.090398, 23.948779 ], [ 52.100706, 23.957868 ], [ 52.110665, 23.962527 ], [ 52.159081, 23.961132 ], [ 52.21733, 23.967601 ], [ 52.263448, 23.982239 ], [ 52.310049, 23.997027 ], [ 52.336186, 24.016111 ], [ 52.366951, 24.03409 ], [ 52.442986, 24.066223 ], [ 52.455173, 24.080221 ], [ 52.457801, 24.092737 ], [ 52.499775, 24.103633 ], [ 52.524868, 24.117465 ], [ 52.563349, 24.13379 ], [ 52.569084, 24.141533 ], [ 52.562995, 24.150361 ], [ 52.565661, 24.177855 ], [ 52.573762, 24.185652 ], [ 52.594533, 24.194663 ], [ 52.597939, 24.196141 ], [ 52.60915, 24.195556 ], [ 52.610908, 24.194663 ], [ 52.626273, 24.186856 ], [ 52.637307, 24.171379 ], [ 52.660942, 24.152436 ], [ 52.671325, 24.131122 ], [ 52.694144, 24.144104 ], [ 52.723221, 24.142325 ], [ 52.734876, 24.145733 ], [ 52.758362, 24.13142 ], [ 52.770065, 24.127587 ], [ 52.799345, 24.132819 ], [ 52.831569, 24.142722 ], [ 52.862768, 24.131305 ], [ 52.879387, 24.132638 ], [ 52.9129, 24.140701 ], [ 52.937533, 24.13346 ], [ 52.956302, 24.138814 ], [ 52.981462, 24.151777 ], [ 52.998934, 24.143938 ], [ 53.028098, 24.135953 ], [ 53.043346, 24.121016 ], [ 53.054457, 24.120555 ], [ 53.099019, 24.133139 ], [ 53.126639, 24.136544 ], [ 53.136973, 24.162047 ], [ 53.148084, 24.167175 ], [ 53.166902, 24.162089 ], [ 53.199617, 24.145073 ], [ 53.236323, 24.098098 ], [ 53.287795, 24.086114 ], [ 53.299963, 24.087906 ], [ 53.311933, 24.095082 ], [ 53.323702, 24.109007 ], [ 53.34885, 24.102227 ], [ 53.374413, 24.109614 ], [ 53.410222, 24.111448 ], [ 53.4438, 24.122843 ], [ 53.460157, 24.117025 ], [ 53.474505, 24.103732 ], [ 53.494359, 24.100222 ], [ 53.539941, 24.084105 ], [ 53.564331, 24.065627 ], [ 53.577925, 24.050456 ], [ 53.591008, 24.045453 ], [ 53.607795, 24.043728 ], [ 53.666628, 24.05 ], [ 53.709615, 24.063293 ], [ 53.733816, 24.05764 ], [ 53.774498, 24.057075 ], [ 53.805423, 24.050839 ], [ 53.8349, 24.059182 ], [ 53.875388, 24.05636 ], [ 53.895859, 24.061596 ], [ 53.910358, 24.077329 ], [ 53.903581, 24.125067 ], [ 53.890471, 24.137563 ], [ 53.850362, 24.152778 ], [ 53.848748, 24.159143 ], [ 53.853973, 24.167035 ], [ 53.851807, 24.169958 ], [ 53.844459, 24.170039 ], [ 53.839012, 24.16607 ], [ 53.820725, 24.133375 ], [ 53.810829, 24.129702 ], [ 53.774054, 24.123996 ], [ 53.729802, 24.133487 ], [ 53.682484, 24.157825 ], [ 53.643781, 24.152576 ], [ 53.630457, 24.171634 ], [ 53.642973, 24.183098 ], [ 53.669937, 24.194663 ], [ 53.676452, 24.19742 ], [ 53.731939, 24.234351 ], [ 53.752057, 24.236126 ], [ 53.775672, 24.233505 ], [ 53.809764, 24.24725 ], [ 53.814027, 24.239459 ], [ 53.800795, 24.212263 ], [ 53.803781, 24.200709 ], [ 53.807937, 24.197368 ], [ 53.809933, 24.209341 ], [ 53.824333, 24.22658 ], [ 53.829372, 24.248722 ], [ 53.851, 24.268177 ], [ 53.864893, 24.268482 ], [ 53.870819, 24.262649 ], [ 53.86057, 24.259266 ], [ 53.858505, 24.251342 ], [ 53.875209, 24.227627 ], [ 53.907628, 24.212561 ], [ 53.942768, 24.206596 ], [ 53.956142, 24.196617 ], [ 53.957549, 24.194663 ], [ 53.967576, 24.180742 ], [ 53.967614, 24.174941 ], [ 53.956423, 24.148154 ], [ 53.949002, 24.139789 ], [ 53.929538, 24.133488 ], [ 53.912618, 24.139766 ], [ 53.907656, 24.138509 ], [ 53.921818, 24.079073 ], [ 53.9275, 24.07406 ], [ 53.93312, 24.073272 ], [ 53.975248, 24.093251 ], [ 54.015573, 24.103625 ], [ 54.044776, 24.114721 ], [ 54.051878, 24.133781 ], [ 54.040911, 24.152414 ], [ 54.053878, 24.151156 ], [ 54.067921, 24.14052 ], [ 54.075804, 24.141128 ], [ 54.07993, 24.145976 ], [ 54.081117, 24.156238 ], [ 54.097394, 24.163639 ], [ 54.12104, 24.187257 ], [ 54.121072, 24.191962 ], [ 54.112432, 24.194663 ], [ 54.104446, 24.197159 ], [ 54.081368, 24.215352 ], [ 54.076023, 24.221751 ], [ 54.076719, 24.225589 ], [ 54.096357, 24.224736 ], [ 54.135463, 24.197875 ], [ 54.144731, 24.199648 ], [ 54.144864, 24.206146 ], [ 54.136251, 24.216443 ], [ 54.133101, 24.225031 ], [ 54.118718, 24.234415 ], [ 54.112084, 24.244769 ], [ 54.126001, 24.24721 ], [ 54.142848, 24.240881 ], [ 54.145568, 24.243661 ], [ 54.136297, 24.251835 ], [ 54.109566, 24.267305 ], [ 54.09507, 24.29 ], [ 54.125104, 24.315692 ], [ 54.1379, 24.322648 ], [ 54.147602, 24.321724 ], [ 54.157321, 24.300289 ], [ 54.205414, 24.247388 ], [ 54.230246, 24.234647 ], [ 54.251269, 24.239944 ], [ 54.237573, 24.254481 ], [ 54.21549, 24.268458 ], [ 54.194281, 24.294813 ], [ 54.175427, 24.305057 ], [ 54.167879, 24.31515 ], [ 54.16938, 24.321863 ], [ 54.175862, 24.329572 ], [ 54.216152, 24.349549 ], [ 54.234634, 24.341653 ], [ 54.251451, 24.322534 ], [ 54.276704, 24.301775 ], [ 54.278104, 24.310421 ], [ 54.270846, 24.326146 ], [ 54.275076, 24.332791 ], [ 54.281911, 24.332494 ], [ 54.305672, 24.295513 ], [ 54.30282, 24.277007 ], [ 54.295542, 24.269547 ], [ 54.277253, 24.269344 ], [ 54.256744, 24.275 ], [ 54.247917, 24.271648 ], [ 54.243889, 24.258061 ], [ 54.26057, 24.24367 ], [ 54.312168, 24.244709 ], [ 54.320423, 24.250656 ], [ 54.32509, 24.260483 ], [ 54.329663, 24.263156 ], [ 54.352102, 24.255045 ], [ 54.364664, 24.257629 ], [ 54.38426, 24.255751 ], [ 54.419292, 24.275678 ], [ 54.449618, 24.300343 ], [ 54.468098, 24.309205 ], [ 54.482541, 24.307376 ], [ 54.490086, 24.31061 ], [ 54.487955, 24.313684 ], [ 54.462572, 24.315945 ], [ 54.455107, 24.32475 ], [ 54.470028, 24.377218 ], [ 54.485076, 24.383379 ], [ 54.512842, 24.387736 ], [ 54.507962, 24.392305 ], [ 54.485605, 24.397127 ], [ 54.491301, 24.420222 ], [ 54.527288, 24.426184 ], [ 54.602382, 24.448656 ], [ 54.608854, 24.452771 ], [ 54.606527, 24.456937 ], [ 54.583656, 24.451449 ], [ 54.57482, 24.455374 ], [ 54.579032, 24.463209 ], [ 54.592572, 24.467956 ], [ 54.59894, 24.478587 ], [ 54.596001, 24.483452 ], [ 54.579396, 24.492805 ], [ 54.576831, 24.501285 ], [ 54.617496, 24.533007 ], [ 54.621124, 24.546045 ], [ 54.633567, 24.559057 ], [ 54.64385, 24.583404 ], [ 54.644965, 24.595823 ], [ 54.639087, 24.612276 ], [ 54.640355, 24.622343 ], [ 54.660585, 24.64655 ], [ 54.680003, 24.661119 ], [ 54.677473, 24.668811 ], [ 54.664327, 24.678606 ], [ 54.658918, 24.696357 ], [ 54.665155, 24.707362 ], [ 54.665526, 24.726858 ], [ 54.670163, 24.739548 ], [ 54.652616, 24.737888 ], [ 54.647426, 24.74105 ], [ 54.687116, 24.777495 ], [ 54.710146, 24.809859 ], [ 54.744516, 24.798425 ], [ 54.750191, 24.777495 ], [ 54.752651, 24.772633 ], [ 54.764048, 24.777495 ], [ 54.78502, 24.803646 ], [ 54.776934, 24.813247 ], [ 54.78302, 24.825222 ], [ 54.774043, 24.826036 ], [ 54.776691, 24.834297 ], [ 54.76691, 24.835642 ], [ 54.765951, 24.844515 ], [ 54.780127, 24.846561 ], [ 54.802441, 24.854992 ], [ 54.81159, 24.858449 ], [ 54.839198, 24.877516 ], [ 54.845023, 24.885827 ], [ 54.852057, 24.887097 ], [ 54.863566, 24.896372 ], [ 54.904947, 24.915971 ], [ 54.913698, 24.923194 ], [ 54.959833, 24.961271 ], [ 54.981191, 24.970137 ], [ 54.979035, 24.976126 ], [ 54.962188, 24.985023 ], [ 54.954339, 25.000591 ], [ 54.957076, 25.018707 ], [ 54.974465, 25.039209 ], [ 54.983444, 25.041589 ], [ 54.998305, 25.040481 ], [ 55.016544, 25.03056 ], [ 55.022904, 25.015558 ], [ 55.018132, 24.994574 ], [ 55.022699, 24.988616 ], [ 55.038217, 24.993782 ], [ 55.046919, 25.001065 ], [ 55.050457, 25.019327 ], [ 55.072226, 25.021979 ], [ 55.104455, 25.050981 ], [ 55.181832, 25.132341 ], [ 55.235356, 25.19898 ], [ 55.262962, 25.237013 ], [ 55.266848, 25.24921 ], [ 55.282024, 25.265001 ], [ 55.282216, 25.267751 ], [ 55.278482, 25.268896 ], [ 55.279746, 25.271146 ], [ 55.288685, 25.277307 ], [ 55.302987, 25.280129 ], [ 55.335073, 25.302731 ], [ 55.346847, 25.322065 ], [ 55.359541, 25.335639 ], [ 55.369834, 25.359491 ], [ 55.37957, 25.365417 ], [ 55.383068, 25.371081 ], [ 55.392183, 25.374338 ], [ 55.417537, 25.392432 ], [ 55.441943, 25.420969 ], [ 55.453587, 25.419408 ], [ 55.454962, 25.403184 ], [ 55.458594, 25.400681 ], [ 55.462424, 25.420331 ], [ 55.475363, 25.426266 ], [ 55.471199, 25.430914 ], [ 55.457637, 25.426636 ], [ 55.455314, 25.430414 ], [ 55.477285, 25.457334 ], [ 55.485112, 25.474274 ], [ 55.495117, 25.476829 ], [ 55.559451, 25.58587 ], [ 55.579695, 25.59609 ], [ 55.578534, 25.585128 ], [ 55.566282, 25.576549 ], [ 55.561036, 25.543432 ], [ 55.565906, 25.528152 ], [ 55.587339, 25.529442 ], [ 55.637672, 25.538805 ], [ 55.647028, 25.546355 ], [ 55.642084, 25.554072 ], [ 55.640994, 25.563067 ], [ 55.647796, 25.573466 ], [ 55.65112, 25.585763 ], [ 55.6656, 25.595943 ], [ 55.680917, 25.616981 ], [ 55.69337, 25.622885 ], [ 55.698224, 25.629764 ], [ 55.736354, 25.647421 ], [ 55.77569, 25.689516 ], [ 55.781459, 25.701798 ], [ 55.795609, 25.71774 ], [ 55.798558, 25.71832 ], [ 55.802198, 25.713362 ], [ 55.821246, 25.712691 ], [ 55.850482, 25.718208 ], [ 55.869359, 25.726301 ], [ 55.894994, 25.744891 ], [ 55.953939, 25.80944 ], [ 55.981745, 25.829806 ], [ 55.983681, 25.833179 ], [ 55.980681, 25.837871 ], [ 55.98785, 25.838481 ], [ 55.992666, 25.850466 ], [ 56.010446, 25.862237 ], [ 56.010529, 25.868593 ], [ 56.006147, 25.872734 ], [ 56.010258, 25.882893 ], [ 56.03505, 25.884419 ], [ 56.044466, 25.888968 ], [ 56.052349, 25.89766 ], [ 56.050706, 25.90378 ], [ 56.05374, 25.907396 ], [ 56.053578, 25.92449 ], [ 56.063123, 25.943941 ], [ 56.053888, 25.972423 ], [ 56.057255, 25.98086 ], [ 56.064645, 25.984661 ], [ 56.071433, 25.99336 ], [ 56.079567, 26.016998 ], [ 56.085999, 26.050652 ], [ 56.107218, 26.054932 ], [ 56.121193, 26.051184 ], [ 56.135009, 26.057652 ], [ 56.142768, 26.066789 ], [ 56.153447, 26.068636 ], [ 56.162709, 26.055714 ], [ 56.162164, 26.047891 ], [ 56.172413, 26.02337 ], [ 56.181394, 26.017441 ], [ 56.180713, 25.996115 ], [ 56.187687, 25.985752 ], [ 56.190741, 25.971695 ], [ 56.180602, 25.953556 ], [ 56.166608, 25.946881 ], [ 56.165663, 25.942245 ], [ 56.17237, 25.928827 ], [ 56.173436, 25.920004 ], [ 56.179363, 25.915848 ], [ 56.178167, 25.894563 ], [ 56.161192, 25.876823 ], [ 56.16297, 25.859076 ], [ 56.153056, 25.847908 ], [ 56.141651, 25.823765 ], [ 56.142267, 25.812115 ], [ 56.154625, 25.797232 ], [ 56.156554, 25.762331 ], [ 56.167129, 25.727272 ], [ 56.156281, 25.685611 ], [ 56.178845, 25.623596 ], [ 56.181733, 25.620961 ], [ 56.216639, 25.615128 ], [ 56.253387, 25.602764 ], [ 56.265901, 25.607203 ], [ 56.259843, 25.616171 ], [ 56.265841, 25.624721 ], [ 56.272195, 25.625009 ], [ 56.280558, 25.612297 ], [ 56.287976, 25.608022 ], [ 56.311081, 25.609118 ], [ 56.354025, 25.594802 ], [ 56.355901, 25.553593 ], [ 56.361173, 25.539838 ], [ 56.371026, 25.525989 ], [ 56.362251, 25.494321 ], [ 56.363577, 25.472852 ], [ 56.35921, 25.436992 ], [ 56.364453, 25.42392 ], [ 56.366395, 25.40299 ], [ 56.357828, 25.376713 ], [ 56.351288, 25.372218 ], [ 56.350422, 25.364932 ], [ 56.354634, 25.353073 ], [ 56.362922, 25.349201 ], [ 56.369535, 25.351426 ], [ 56.373911, 25.348234 ], [ 56.380763, 25.326408 ], [ 56.376333, 25.31771 ], [ 56.372076, 25.275677 ], [ 56.360653, 25.214283 ], [ 56.356325, 25.136911 ], [ 56.364431, 25.045561 ], [ 56.374242, 24.980353 ], [ 56.343463, 24.972393 ], [ 56.325944, 24.97128 ], [ 56.348625, 24.932786 ], [ 56.341485, 24.914627 ], [ 56.327053, 24.896682 ], [ 56.305609, 24.885015 ], [ 56.282749, 24.883432 ], [ 56.277714, 24.873308 ], [ 56.258035, 24.860187 ], [ 56.207712, 24.84958 ], [ 56.203185, 24.813247 ], [ 56.199611, 24.78456 ], [ 56.185859, 24.777495 ], [ 56.110951, 24.739006 ], [ 56.084646, 24.744343 ], [ 56.080091, 24.747507 ], [ 56.066556, 24.777495 ], [ 56.050826, 24.812334 ], [ 56.049333, 24.813247 ], [ 56.036701, 24.820978 ], [ 55.981334, 24.876122 ], [ 55.997735, 24.889056 ], [ 56.047516, 24.877991 ], [ 56.042458, 24.890404 ], [ 56.041533, 24.907135 ], [ 56.0605, 24.944734 ], [ 56.043741, 24.949097 ], [ 56.04261, 24.968201 ], [ 56.028213, 24.975449 ], [ 56.005055, 24.994163 ], [ 55.963629, 25.004139 ], [ 55.910767, 24.966663 ], [ 55.851775, 24.963577 ], [ 55.813353, 24.90584 ], [ 55.815149, 24.813247 ], [ 55.815292, 24.805896 ], [ 55.830878, 24.777495 ], [ 55.831949, 24.775543 ], [ 55.828232, 24.723512 ], [ 55.835719, 24.6741 ], [ 55.79678, 24.63808 ], [ 55.814642, 24.614575 ], [ 55.769623, 24.572994 ], [ 55.765747, 24.534171 ], [ 55.772439, 24.518244 ], [ 55.785338, 24.487538 ], [ 55.819317, 24.442039 ], [ 55.827484, 24.413139 ], [ 55.834144, 24.407387 ], [ 55.834324, 24.32956 ], [ 55.808167, 24.310063 ], [ 55.790465, 24.278677 ], [ 55.769442, 24.263371 ], [ 55.759431, 24.259959 ], [ 55.753353, 24.2366 ], [ 55.764295, 24.232684 ], [ 55.777969, 24.233801 ], [ 55.808721, 24.212026 ], [ 55.83305, 24.202062 ], [ 55.852614, 24.210689 ], [ 55.872269, 24.215453 ], [ 55.952881, 24.222248 ], [ 55.953336, 24.21551 ], [ 55.96348, 24.214379 ], [ 55.971079, 24.188089 ], [ 55.96329, 24.167436 ], [ 55.974955, 24.147177 ], [ 55.992993, 24.128218 ], [ 56.001857, 24.114613 ], [ 56.013749, 24.091355 ], [ 56.017035, 24.068902 ], [ 55.960474, 24.060383 ], [ 55.905491, 24.04707 ], [ 55.85282, 24.022294 ], [ 55.832222, 24.015282 ], [ 55.801896, 24.026224 ], [ 55.779946, 24.053728 ], [ 55.758966, 24.052005 ], [ 55.743136, 24.056731 ], [ 55.731321, 24.056959 ], [ 55.630771, 24.0188 ], [ 55.588624, 23.998001 ], [ 55.572015, 23.986432 ], [ 55.497329, 23.954139 ], [ 55.486653, 23.944796 ], [ 55.486565, 23.938791 ], [ 55.497903, 23.92352 ], [ 55.501353, 23.90533 ], [ 55.520747, 23.883239 ], [ 55.533162, 23.851283 ], [ 55.534803, 23.840477 ], [ 55.532078, 23.80662 ], [ 55.535451, 23.773358 ], [ 55.533111, 23.759037 ], [ 55.561176, 23.732471 ], [ 55.569691, 23.716886 ], [ 55.571923, 23.702254 ], [ 55.571842, 23.629373 ], [ 55.564246, 23.613947 ], [ 55.53792, 23.583392 ], [ 55.52372, 23.556192 ], [ 55.496573, 23.530753 ], [ 55.450515, 23.461318 ], [ 55.437194, 23.413506 ], [ 55.429712, 23.398565 ], [ 55.416774, 23.384025 ], [ 55.403764, 23.390196 ], [ 55.399466, 23.388021 ], [ 55.298595, 23.206218 ], [ 55.234309, 23.113547 ], [ 55.230972, 23.085786 ], [ 55.226464, 23.07218 ], [ 55.229515, 23.049417 ], [ 55.219465, 23.034008 ], [ 55.21693, 23.025022 ], [ 55.219654, 22.976607 ], [ 55.218316, 22.95294 ], [ 55.214042, 22.934651 ], [ 55.215787, 22.910462 ], [ 55.216073, 22.906891 ], [ 55.225472, 22.884637 ], [ 55.224374, 22.866616 ], [ 55.223265, 22.859437 ], [ 55.218242, 22.850821 ], [ 55.219214, 22.841485 ], [ 55.221855, 22.83294 ], [ 55.226512, 22.825127 ], [ 55.223688, 22.816965 ], [ 55.22427, 22.807432 ], [ 55.228055, 22.791531 ], [ 55.220714, 22.76483 ], [ 55.213348, 22.705929 ], [ 55.208333, 22.708333 ], [ 55.202778, 22.700556 ], [ 55.137222, 22.628056 ], [ 54.913698, 22.654998 ], [ 54.802441, 22.668406 ], [ 54.506318, 22.704087 ], [ 54.068082, 22.756874 ], [ 53.843556, 22.783911 ], [ 53.607795, 22.812295 ], [ 53.4375, 22.832794 ], [ 53.303358, 22.848939 ], [ 53.271734, 22.852745 ], [ 53.156467, 22.866616 ], [ 53.130283, 22.869767 ], [ 53.060126, 22.878209 ], [ 52.956965, 22.890621 ], [ 52.854589, 22.902937 ], [ 52.581111, 22.935833 ], [ 52.398811, 23.154465 ], [ 52.310872, 23.259802 ], [ 52.263448, 23.316774 ], [ 52.231827, 23.354747 ], [ 52.209581, 23.381457 ], [ 52.06633, 23.553317 ], [ 51.899286, 23.753439 ], [ 51.876669, 23.780511 ], [ 51.802474, 23.869281 ], [ 51.775427, 23.901733 ], [ 51.590556, 24.123333 ], [ 51.590556, 24.242975 ] ], [ [ 56.223381, 25.262005 ], [ 56.224497, 25.248771 ], [ 56.228197, 25.247443 ], [ 56.234432, 25.247756 ], [ 56.247412, 25.240579 ], [ 56.250504, 25.236723 ], [ 56.258272, 25.237866 ], [ 56.258354, 25.241443 ], [ 56.260949, 25.243033 ], [ 56.272004, 25.242549 ], [ 56.274063, 25.239465 ], [ 56.28226, 25.236775 ], [ 56.29007, 25.242669 ], [ 56.294789, 25.248405 ], [ 56.304911, 25.257786 ], [ 56.32141, 25.261224 ], [ 56.33527, 25.268828 ], [ 56.337877, 25.272909 ], [ 56.344823, 25.274416 ], [ 56.350564, 25.304189 ], [ 56.348736, 25.306532 ], [ 56.32283, 25.309844 ], [ 56.319655, 25.302574 ], [ 56.314394, 25.307029 ], [ 56.309381, 25.315163 ], [ 56.309669, 25.321842 ], [ 56.30686, 25.329407 ], [ 56.303266, 25.329787 ], [ 56.299142, 25.325712 ], [ 56.291154, 25.325231 ], [ 56.280614, 25.33477 ], [ 56.275959, 25.337301 ], [ 56.267727, 25.337409 ], [ 56.26558, 25.334347 ], [ 56.247982, 25.324782 ], [ 56.244081, 25.317132 ], [ 56.251418, 25.308659 ], [ 56.252405, 25.303008 ], [ 56.258571, 25.29618 ], [ 56.257832, 25.28662 ], [ 56.255084, 25.282433 ], [ 56.249985, 25.283157 ], [ 56.246785, 25.281796 ], [ 56.237871, 25.272731 ], [ 56.226433, 25.26569 ], [ 56.223381, 25.262005 ] ] ], [ [ [ 54.30458, 24.456198 ], [ 54.305588, 24.463333 ], [ 54.32826, 24.466892 ], [ 54.344428, 24.476971 ], [ 54.355343, 24.4919 ], [ 54.37315, 24.509025 ], [ 54.362765, 24.51824 ], [ 54.363311, 24.522828 ], [ 54.383459, 24.536721 ], [ 54.384799, 24.533894 ], [ 54.38122, 24.526191 ], [ 54.391335, 24.51824 ], [ 54.392577, 24.515623 ], [ 54.385518, 24.507249 ], [ 54.382967, 24.498027 ], [ 54.389538, 24.486573 ], [ 54.409621, 24.466635 ], [ 54.408759, 24.461815 ], [ 54.404261, 24.458017 ], [ 54.407834, 24.451831 ], [ 54.418659, 24.445697 ], [ 54.436481, 24.445157 ], [ 54.466611, 24.436736 ], [ 54.480863, 24.425172 ], [ 54.48551, 24.413512 ], [ 54.485402, 24.409139 ], [ 54.478151, 24.401359 ], [ 54.464862, 24.398387 ], [ 54.459098, 24.401764 ], [ 54.456667, 24.408542 ], [ 54.446721, 24.411829 ], [ 54.445764, 24.410495 ], [ 54.450268, 24.406199 ], [ 54.448819, 24.403776 ], [ 54.443836, 24.404069 ], [ 54.424893, 24.41073 ], [ 54.408499, 24.42318 ], [ 54.391365, 24.422645 ], [ 54.37003, 24.429626 ], [ 54.342914, 24.451616 ], [ 54.311492, 24.452511 ], [ 54.30458, 24.456198 ] ] ], [ [ [ 52.562543, 24.311629 ], [ 52.563109, 24.331078 ], [ 52.566027, 24.339333 ], [ 52.570012, 24.348568 ], [ 52.578984, 24.357535 ], [ 52.59371, 24.359287 ], [ 52.601256, 24.364393 ], [ 52.631969, 24.357556 ], [ 52.642488, 24.348097 ], [ 52.645218, 24.339333 ], [ 52.647246, 24.335866 ], [ 52.640541, 24.301273 ], [ 52.630128, 24.29253 ], [ 52.622274, 24.274197 ], [ 52.617877, 24.274176 ], [ 52.621871, 24.279338 ], [ 52.620776, 24.282915 ], [ 52.609541, 24.278789 ], [ 52.602652, 24.267264 ], [ 52.606093, 24.263934 ], [ 52.606656, 24.256779 ], [ 52.592052, 24.250782 ], [ 52.585484, 24.256962 ], [ 52.588051, 24.269497 ], [ 52.569167, 24.294586 ], [ 52.562543, 24.311629 ] ] ], [ [ [ 52.278896, 24.50613 ], [ 52.279419, 24.508621 ], [ 52.287845, 24.521453 ], [ 52.290933, 24.526912 ], [ 52.29156, 24.529976 ], [ 52.298364, 24.532991 ], [ 52.300929, 24.537157 ], [ 52.305324, 24.539837 ], [ 52.310767, 24.540603 ], [ 52.322595, 24.531077 ], [ 52.326991, 24.524039 ], [ 52.330654, 24.523177 ], [ 52.330812, 24.514415 ], [ 52.332748, 24.511829 ], [ 52.33369, 24.500624 ], [ 52.332172, 24.494207 ], [ 52.328832, 24.488219 ], [ 52.330062, 24.486345 ], [ 52.320606, 24.473564 ], [ 52.320501, 24.471457 ], [ 52.317047, 24.47045 ], [ 52.313698, 24.418132 ], [ 52.313122, 24.41636 ], [ 52.306424, 24.416073 ], [ 52.303388, 24.417271 ], [ 52.303388, 24.421439 ], [ 52.30815, 24.421439 ], [ 52.308988, 24.439888 ], [ 52.309878, 24.445156 ], [ 52.310767, 24.466762 ], [ 52.309982, 24.469733 ], [ 52.305691, 24.474906 ], [ 52.30718, 24.477251 ], [ 52.303441, 24.479646 ], [ 52.301923, 24.478976 ], [ 52.298102, 24.482856 ], [ 52.293654, 24.485778 ], [ 52.287845, 24.487406 ], [ 52.283867, 24.493154 ], [ 52.283291, 24.499714 ], [ 52.278896, 24.50613 ] ] ], [ [ [ 54.288309, 24.34645 ], [ 54.294785, 24.36576 ], [ 54.29188, 24.379996 ], [ 54.289547, 24.385505 ], [ 54.294703, 24.397928 ], [ 54.309488, 24.394668 ], [ 54.314147, 24.387128 ], [ 54.323771, 24.379996 ], [ 54.329361, 24.372585 ], [ 54.348681, 24.353724 ], [ 54.333218, 24.343556 ], [ 54.329361, 24.338269 ], [ 54.32553, 24.323266 ], [ 54.316467, 24.318478 ], [ 54.312937, 24.311012 ], [ 54.288309, 24.34645 ] ] ], [ [ [ 53.223899, 24.291547 ], [ 53.226132, 24.293901 ], [ 53.242323, 24.294094 ], [ 53.271734, 24.304935 ], [ 53.300472, 24.310491 ], [ 53.303358, 24.310327 ], [ 53.308016, 24.310064 ], [ 53.315123, 24.304334 ], [ 53.321035, 24.303501 ], [ 53.322972, 24.309135 ], [ 53.328043, 24.312582 ], [ 53.338077, 24.312824 ], [ 53.34022, 24.309325 ], [ 53.334683, 24.304899 ], [ 53.3308, 24.294015 ], [ 53.327163, 24.282028 ], [ 53.330497, 24.26274 ], [ 53.322208, 24.265751 ], [ 53.318155, 24.271197 ], [ 53.313456, 24.281665 ], [ 53.314714, 24.294015 ], [ 53.310802, 24.2978 ], [ 53.305814, 24.295257 ], [ 53.305154, 24.287519 ], [ 53.303358, 24.285184 ], [ 53.300124, 24.280981 ], [ 53.28155, 24.289361 ], [ 53.273878, 24.287754 ], [ 53.271734, 24.285734 ], [ 53.264513, 24.270401 ], [ 53.255577, 24.266704 ], [ 53.245218, 24.268679 ], [ 53.239268, 24.276245 ], [ 53.227109, 24.28114 ], [ 53.228913, 24.285211 ], [ 53.223899, 24.291547 ] ] ], [ [ [ 54.396768, 24.536192 ], [ 54.424769, 24.54298 ], [ 54.464756, 24.576744 ], [ 54.466196, 24.575828 ], [ 54.458851, 24.559969 ], [ 54.45212, 24.5318 ], [ 54.445155, 24.529193 ], [ 54.448272, 24.524731 ], [ 54.457826, 24.525306 ], [ 54.456696, 24.518239 ], [ 54.461067, 24.50765 ], [ 54.45443, 24.507125 ], [ 54.426261, 24.518239 ], [ 54.407844, 24.524496 ], [ 54.396768, 24.536192 ] ] ], [ [ [ 54.913698, 24.931461 ], [ 54.906665, 24.926798 ], [ 54.903554, 24.927993 ], [ 54.890714, 24.938066 ], [ 54.886088, 24.943127 ], [ 54.877574, 24.955537 ], [ 54.879831, 24.958811 ], [ 54.884796, 24.961021 ], [ 54.884056, 24.962504 ], [ 54.880471, 24.961154 ], [ 54.874608, 24.961839 ], [ 54.870879, 24.972531 ], [ 54.869622, 24.986689 ], [ 54.869667, 24.99237 ], [ 54.87135, 25.006397 ], [ 54.874605, 25.008566 ], [ 54.880706, 25.008502 ], [ 54.889032, 25.006444 ], [ 54.890142, 25.003026 ], [ 54.888178, 24.9968 ], [ 54.888985, 24.986661 ], [ 54.890802, 24.980264 ], [ 54.89277, 24.977229 ], [ 54.890738, 24.974163 ], [ 54.892211, 24.969466 ], [ 54.886467, 24.963411 ], [ 54.887387, 24.962079 ], [ 54.894635, 24.964265 ], [ 54.897564, 24.963711 ], [ 54.909134, 24.948843 ], [ 54.913698, 24.945589 ], [ 54.919082, 24.941662 ], [ 54.919597, 24.939486 ], [ 54.919009, 24.937496 ], [ 54.913698, 24.931461 ] ] ], [ [ [ 54.190632, 24.369548 ], [ 54.198512, 24.380597 ], [ 54.22, 24.389653 ], [ 54.234681, 24.401628 ], [ 54.245515, 24.411654 ], [ 54.257417, 24.408406 ], [ 54.25501, 24.403177 ], [ 54.247655, 24.400574 ], [ 54.244312, 24.396378 ], [ 54.245561, 24.379995 ], [ 54.26418, 24.359987 ], [ 54.264902, 24.352153 ], [ 54.258874, 24.352166 ], [ 54.234681, 24.366477 ], [ 54.221494, 24.367698 ], [ 54.218367, 24.369221 ], [ 54.217882, 24.367082 ], [ 54.212211, 24.365389 ], [ 54.210446, 24.366625 ], [ 54.214535, 24.369823 ], [ 54.214373, 24.371166 ], [ 54.204968, 24.375747 ], [ 54.200408, 24.373141 ], [ 54.200836, 24.371631 ], [ 54.206937, 24.371331 ], [ 54.207503, 24.369917 ], [ 54.203115, 24.366163 ], [ 54.194312, 24.365079 ], [ 54.190632, 24.369548 ] ] ], [ [ [ 54.471765, 24.540922 ], [ 54.484783, 24.545837 ], [ 54.498279, 24.535941 ], [ 54.50145, 24.528262 ], [ 54.506318, 24.526552 ], [ 54.513944, 24.523874 ], [ 54.515142, 24.522485 ], [ 54.514593, 24.518244 ], [ 54.512155, 24.507779 ], [ 54.514175, 24.502444 ], [ 54.517305, 24.504077 ], [ 54.533758, 24.498779 ], [ 54.542556, 24.488855 ], [ 54.528802, 24.482091 ], [ 54.509966, 24.484875 ], [ 54.506318, 24.488709 ], [ 54.501107, 24.494183 ], [ 54.493014, 24.515431 ], [ 54.487969, 24.518244 ], [ 54.482351, 24.526907 ], [ 54.473304, 24.530988 ], [ 54.471765, 24.540922 ] ] ], [ [ [ 54.069283, 24.194663 ], [ 54.072766, 24.183499 ], [ 54.078581, 24.175356 ], [ 54.068082, 24.164992 ], [ 54.064355, 24.163971 ], [ 54.054731, 24.162832 ], [ 54.052309, 24.1638 ], [ 54.053214, 24.166704 ], [ 54.047603, 24.172059 ], [ 54.034656, 24.175259 ], [ 54.029175, 24.174874 ], [ 54.020412, 24.179929 ], [ 54.015578, 24.189018 ], [ 54.020538, 24.192097 ], [ 54.023553, 24.194663 ], [ 54.02821, 24.198627 ], [ 54.034548, 24.199283 ], [ 54.037533, 24.197247 ], [ 54.043806, 24.1975 ], [ 54.041904, 24.201947 ], [ 54.046557, 24.202018 ], [ 54.053007, 24.197999 ], [ 54.060984, 24.196624 ], [ 54.068082, 24.198511 ], [ 54.069283, 24.194663 ] ] ], [ [ [ 54.576101, 24.623101 ], [ 54.590571, 24.630178 ], [ 54.586689, 24.645052 ], [ 54.588888, 24.653985 ], [ 54.597342, 24.657511 ], [ 54.60714, 24.656978 ], [ 54.61072, 24.653321 ], [ 54.615213, 24.630893 ], [ 54.613739, 24.627274 ], [ 54.600877, 24.623993 ], [ 54.599125, 24.616361 ], [ 54.599992, 24.609418 ], [ 54.606752, 24.598843 ], [ 54.60714, 24.594962 ], [ 54.602927, 24.593048 ], [ 54.594237, 24.594338 ], [ 54.590511, 24.589215 ], [ 54.584398, 24.598843 ], [ 54.580248, 24.603315 ], [ 54.582717, 24.608492 ], [ 54.577266, 24.614877 ], [ 54.576101, 24.623101 ] ] ], [ [ [ 54.323852, 24.442233 ], [ 54.32587, 24.44483 ], [ 54.329361, 24.442223 ], [ 54.340319, 24.440357 ], [ 54.364638, 24.421987 ], [ 54.411255, 24.404434 ], [ 54.408808, 24.401653 ], [ 54.392514, 24.397225 ], [ 54.377051, 24.400979 ], [ 54.343873, 24.414613 ], [ 54.329361, 24.41543 ], [ 54.323852, 24.442233 ] ] ], [ [ [ 54.197097, 25.232595 ], [ 54.197777, 25.239596 ], [ 54.201181, 25.245358 ], [ 54.207621, 25.249833 ], [ 54.215369, 25.253167 ], [ 54.221757, 25.252548 ], [ 54.22736, 25.250595 ], [ 54.233223, 25.244834 ], [ 54.237307, 25.238596 ], [ 54.238092, 25.230738 ], [ 54.237255, 25.225405 ], [ 54.237569, 25.218974 ], [ 54.239614, 25.213242 ], [ 54.238641, 25.212893 ], [ 54.229035, 25.21707 ], [ 54.225108, 25.217974 ], [ 54.217674, 25.217402 ], [ 54.205945, 25.21888 ], [ 54.200918, 25.224594 ], [ 54.197097, 25.232595 ] ] ], [ [ [ 53.259332, 24.120554 ], [ 53.259563, 24.127045 ], [ 53.261418, 24.129827 ], [ 53.259795, 24.13655 ], [ 53.265127, 24.143273 ], [ 53.268837, 24.146287 ], [ 53.269764, 24.142578 ], [ 53.271734, 24.142391 ], [ 53.279176, 24.14086 ], [ 53.297494, 24.103767 ], [ 53.279677, 24.09914 ], [ 53.271734, 24.109506 ], [ 53.269996, 24.11244 ], [ 53.262577, 24.113368 ], [ 53.259332, 24.120554 ] ] ], [ [ [ 54.491369, 24.475455 ], [ 54.495425, 24.478179 ], [ 54.506318, 24.475847 ], [ 54.513967, 24.47421 ], [ 54.556152, 24.462493 ], [ 54.564212, 24.456247 ], [ 54.56672, 24.447829 ], [ 54.559948, 24.445201 ], [ 54.551036, 24.45338 ], [ 54.549236, 24.449954 ], [ 54.544517, 24.448356 ], [ 54.538275, 24.452704 ], [ 54.520919, 24.456413 ], [ 54.513967, 24.46037 ], [ 54.506318, 24.463971 ], [ 54.494423, 24.469569 ], [ 54.491369, 24.475455 ] ] ], [ [ [ 51.995741, 24.21504 ], [ 51.997204, 24.220408 ], [ 51.999868, 24.225392 ], [ 52.000548, 24.233825 ], [ 52.000235, 24.241253 ], [ 52.001489, 24.246572 ], [ 52.012253, 24.255195 ], [ 52.020771, 24.252081 ], [ 52.021398, 24.246715 ], [ 52.024586, 24.244703 ], [ 52.022391, 24.240246 ], [ 52.023226, 24.237419 ], [ 52.022287, 24.233251 ], [ 52.024115, 24.229609 ], [ 52.0226, 24.225105 ], [ 52.01795, 24.216814 ], [ 52.013246, 24.214129 ], [ 52.008334, 24.207564 ], [ 52.00452, 24.209625 ], [ 52.003997, 24.211829 ], [ 51.995741, 24.21504 ] ] ], [ [ [ 54.913698, 25.044065 ], [ 54.909969, 25.045748 ], [ 54.90721, 25.033082 ], [ 54.905403, 25.030225 ], [ 54.899989, 25.026482 ], [ 54.898613, 25.0192 ], [ 54.895749, 25.016181 ], [ 54.889335, 25.013532 ], [ 54.882653, 25.014253 ], [ 54.876533, 25.013479 ], [ 54.874696, 25.01461 ], [ 54.875303, 25.01878 ], [ 54.879849, 25.026548 ], [ 54.888733, 25.037479 ], [ 54.892102, 25.040558 ], [ 54.903303, 25.04882 ], [ 54.913698, 25.05289 ], [ 54.920104, 25.055307 ], [ 54.932926, 25.058039 ], [ 54.944386, 25.058747 ], [ 54.955038, 25.057521 ], [ 54.958287, 25.054807 ], [ 54.957593, 25.052522 ], [ 54.954553, 25.051621 ], [ 54.942047, 25.055725 ], [ 54.925947, 25.053776 ], [ 54.919508, 25.049148 ], [ 54.915173, 25.049003 ], [ 54.915914, 25.044563 ], [ 54.913698, 25.044065 ] ] ], [ [ [ 54.502547, 24.610127 ], [ 54.506301, 24.61528 ], [ 54.513932, 24.612291 ], [ 54.528431, 24.621842 ], [ 54.534349, 24.633148 ], [ 54.551023, 24.636627 ], [ 54.555555, 24.63456 ], [ 54.553474, 24.6195 ], [ 54.559873, 24.614196 ], [ 54.561253, 24.611127 ], [ 54.559873, 24.607536 ], [ 54.555656, 24.606843 ], [ 54.539706, 24.612559 ], [ 54.533377, 24.611357 ], [ 54.525208, 24.605214 ], [ 54.513932, 24.610006 ], [ 54.504642, 24.608079 ], [ 54.502547, 24.610127 ] ] ], [ [ [ 53.408776, 24.194663 ], [ 53.402951, 24.192231 ], [ 53.399822, 24.192374 ], [ 53.396441, 24.194663 ], [ 53.383741, 24.20326 ], [ 53.383501, 24.208254 ], [ 53.383501, 24.211649 ], [ 53.389497, 24.216862 ], [ 53.39685, 24.216767 ], [ 53.407801, 24.218966 ], [ 53.412129, 24.21868 ], [ 53.418021, 24.216192 ], [ 53.421359, 24.213371 ], [ 53.423079, 24.207871 ], [ 53.423132, 24.203376 ], [ 53.420055, 24.203709 ], [ 53.422453, 24.197014 ], [ 53.428243, 24.194663 ], [ 53.429976, 24.19396 ], [ 53.429493, 24.192231 ], [ 53.420211, 24.19448 ], [ 53.415578, 24.194663 ], [ 53.408776, 24.194663 ] ] ], [ [ [ 55.161398, 25.237504 ], [ 55.166524, 25.244172 ], [ 55.167479, 25.250251 ], [ 55.166845, 25.254297 ], [ 55.174448, 25.256996 ], [ 55.173417, 25.259328 ], [ 55.175659, 25.26164 ], [ 55.177741, 25.260009 ], [ 55.183526, 25.263739 ], [ 55.185784, 25.263967 ], [ 55.185581, 25.257183 ], [ 55.186459, 25.251369 ], [ 55.184736, 25.248256 ], [ 55.187627, 25.24148 ], [ 55.190167, 25.243024 ], [ 55.191863, 25.239946 ], [ 55.190001, 25.235773 ], [ 55.183612, 25.238183 ], [ 55.183769, 25.234621 ], [ 55.180931, 25.235166 ], [ 55.180431, 25.23059 ], [ 55.182101, 25.229448 ], [ 55.182975, 25.224828 ], [ 55.185545, 25.223397 ], [ 55.187162, 25.218971 ], [ 55.185456, 25.215672 ], [ 55.177606, 25.21908 ], [ 55.173045, 25.216861 ], [ 55.169857, 25.217276 ], [ 55.168549, 25.223511 ], [ 55.16595, 25.228552 ], [ 55.163902, 25.22724 ], [ 55.162292, 25.229239 ], [ 55.16505, 25.230704 ], [ 55.162459, 25.233253 ], [ 55.161398, 25.237504 ] ] ], [ [ [ 56.015235, 25.889295 ], [ 56.019582, 25.892714 ], [ 56.02334, 25.897351 ], [ 56.027563, 25.904606 ], [ 56.036462, 25.924994 ], [ 56.043497, 25.940439 ], [ 56.045942, 25.947011 ], [ 56.049974, 25.962375 ], [ 56.051237, 25.962417 ], [ 56.055823, 25.955752 ], [ 56.05212, 25.95423 ], [ 56.051953, 25.950504 ], [ 56.056308, 25.943312 ], [ 56.052904, 25.933986 ], [ 56.051274, 25.931822 ], [ 56.049372, 25.924495 ], [ 56.045942, 25.915979 ], [ 56.050789, 25.912214 ], [ 56.046989, 25.910565 ], [ 56.044288, 25.913252 ], [ 56.040089, 25.911142 ], [ 56.038062, 25.90707 ], [ 56.039441, 25.903998 ], [ 56.031781, 25.895665 ], [ 56.033871, 25.894423 ], [ 56.032765, 25.890477 ], [ 56.0303, 25.892748 ], [ 56.028798, 25.888634 ], [ 56.029124, 25.885623 ], [ 56.023484, 25.888325 ], [ 56.017085, 25.887508 ], [ 56.015235, 25.889295 ] ] ], [ [ [ 53.0583, 24.885497 ], [ 53.0583, 24.886971 ], [ 53.060126, 24.891037 ], [ 53.062313, 24.895907 ], [ 53.067212, 24.89895 ], [ 53.077062, 24.895812 ], [ 53.082117, 24.890583 ], [ 53.084697, 24.883499 ], [ 53.085515, 24.878963 ], [ 53.081857, 24.876179 ], [ 53.080606, 24.869997 ], [ 53.081387, 24.865196 ], [ 53.08097, 24.858587 ], [ 53.078729, 24.858064 ], [ 53.074872, 24.860964 ], [ 53.069401, 24.86938 ], [ 53.065698, 24.872254 ], [ 53.060126, 24.879807 ], [ 53.058769, 24.881646 ], [ 53.0583, 24.885497 ] ] ], [ [ [ 55.136543, 25.206118 ], [ 55.139799, 25.21227 ], [ 55.138037, 25.228939 ], [ 55.143581, 25.237756 ], [ 55.147975, 25.239728 ], [ 55.156435, 25.230457 ], [ 55.158561, 25.232636 ], [ 55.160774, 25.229385 ], [ 55.15661, 25.225768 ], [ 55.147975, 25.227088 ], [ 55.143282, 25.226678 ], [ 55.143226, 25.224761 ], [ 55.158145, 25.219279 ], [ 55.160138, 25.212067 ], [ 55.171595, 25.2125 ], [ 55.173723, 25.203555 ], [ 55.177415, 25.202723 ], [ 55.176215, 25.199263 ], [ 55.173204, 25.200088 ], [ 55.17003, 25.203555 ], [ 55.162186, 25.206593 ], [ 55.155077, 25.205195 ], [ 55.147975, 25.206732 ], [ 55.140398, 25.203134 ], [ 55.136543, 25.206118 ] ] ], [ [ [ 54.922477, 24.986456 ], [ 54.923738, 24.9864 ], [ 54.93151, 24.976572 ], [ 54.939895, 24.970382 ], [ 54.941268, 24.971247 ], [ 54.934876, 24.990533 ], [ 54.936633, 24.992138 ], [ 54.94467, 24.988196 ], [ 54.951552, 24.98199 ], [ 54.955673, 24.975275 ], [ 54.958382, 24.965254 ], [ 54.955345, 24.963285 ], [ 54.952038, 24.964697 ], [ 54.945933, 24.964761 ], [ 54.943197, 24.966547 ], [ 54.942218, 24.961769 ], [ 54.935943, 24.958049 ], [ 54.93103, 24.961219 ], [ 54.92711, 24.967714 ], [ 54.922996, 24.979272 ], [ 54.922477, 24.986456 ] ] ], [ [ [ 54.098012, 24.194663 ], [ 54.099721, 24.191184 ], [ 54.098218, 24.183879 ], [ 54.081622, 24.17908 ], [ 54.075768, 24.194663 ], [ 54.062986, 24.205826 ], [ 54.061443, 24.209515 ], [ 54.066101, 24.210784 ], [ 54.070995, 24.209276 ], [ 54.094543, 24.199583 ], [ 54.098012, 24.194663 ] ] ], [ [ [ 55.117568, 25.111405 ], [ 55.119061, 25.122482 ], [ 55.123994, 25.130122 ], [ 55.134066, 25.135506 ], [ 55.140401, 25.135444 ], [ 55.138661, 25.132119 ], [ 55.141984, 25.130004 ], [ 55.139314, 25.127676 ], [ 55.140384, 25.125013 ], [ 55.148016, 25.124918 ], [ 55.148016, 25.12378 ], [ 55.13819, 25.117636 ], [ 55.148016, 25.108569 ], [ 55.151188, 25.10437 ], [ 55.148016, 25.102795 ], [ 55.135478, 25.114649 ], [ 55.132666, 25.106104 ], [ 55.129077, 25.106317 ], [ 55.12802, 25.109584 ], [ 55.121595, 25.109077 ], [ 55.122157, 25.113751 ], [ 55.117568, 25.111405 ] ] ], [ [ [ 54.73988, 24.818775 ], [ 54.746254, 24.835673 ], [ 54.749122, 24.83693 ], [ 54.76118, 24.834803 ], [ 54.759565, 24.830514 ], [ 54.752962, 24.832404 ], [ 54.752117, 24.831 ], [ 54.757704, 24.826778 ], [ 54.75851, 24.820583 ], [ 54.753678, 24.817975 ], [ 54.756125, 24.813251 ], [ 54.755351, 24.810014 ], [ 54.766637, 24.806093 ], [ 54.766328, 24.801812 ], [ 54.746262, 24.802959 ], [ 54.741785, 24.806926 ], [ 54.73988, 24.818775 ] ] ], [ [ [ 55.587209, 25.5883 ], [ 55.593267, 25.596709 ], [ 55.601581, 25.605832 ], [ 55.615237, 25.611937 ], [ 55.611106, 25.615022 ], [ 55.614907, 25.618027 ], [ 55.618227, 25.617674 ], [ 55.616333, 25.614203 ], [ 55.619461, 25.613826 ], [ 55.631222, 25.615051 ], [ 55.64491, 25.621408 ], [ 55.649194, 25.620281 ], [ 55.649427, 25.618813 ], [ 55.641858, 25.614461 ], [ 55.642456, 25.60855 ], [ 55.637618, 25.610149 ], [ 55.634593, 25.607737 ], [ 55.638177, 25.605557 ], [ 55.623519, 25.59998 ], [ 55.622404, 25.601588 ], [ 55.628746, 25.608084 ], [ 55.627927, 25.609427 ], [ 55.618287, 25.60805 ], [ 55.615634, 25.603936 ], [ 55.608888, 25.602585 ], [ 55.600966, 25.592564 ], [ 55.588812, 25.587242 ], [ 55.587209, 25.5883 ] ] ], [ [ [ 54.518318, 24.577713 ], [ 54.551868, 24.573213 ], [ 54.559859, 24.569042 ], [ 54.568053, 24.566696 ], [ 54.571343, 24.562641 ], [ 54.571133, 24.558012 ], [ 54.568134, 24.55756 ], [ 54.559859, 24.561676 ], [ 54.547619, 24.563896 ], [ 54.539564, 24.562066 ], [ 54.524417, 24.567282 ], [ 54.518318, 24.577713 ] ] ], [ [ [ 54.913698, 24.955181 ], [ 54.910205, 24.961563 ], [ 54.908168, 24.977557 ], [ 54.909479, 24.982861 ], [ 54.911148, 24.983098 ], [ 54.913698, 24.978294 ], [ 54.917231, 24.971637 ], [ 54.924361, 24.965167 ], [ 54.929615, 24.959418 ], [ 54.932311, 24.953361 ], [ 54.931716, 24.949571 ], [ 54.928651, 24.942712 ], [ 54.923573, 24.94294 ], [ 54.916866, 24.949391 ], [ 54.913698, 24.955181 ] ] ], [ [ [ 53.185883, 24.305285 ], [ 53.193256, 24.311047 ], [ 53.199616, 24.307056 ], [ 53.202678, 24.3001 ], [ 53.212713, 24.294016 ], [ 53.211499, 24.286521 ], [ 53.201133, 24.284144 ], [ 53.186449, 24.294016 ], [ 53.185883, 24.305285 ] ] ], [ [ [ 54.330382, 24.481948 ], [ 54.336145, 24.49879 ], [ 54.339328, 24.504093 ], [ 54.353372, 24.516226 ], [ 54.356257, 24.517473 ], [ 54.35593, 24.514172 ], [ 54.358228, 24.510064 ], [ 54.358749, 24.505144 ], [ 54.360943, 24.501991 ], [ 54.352067, 24.498647 ], [ 54.340582, 24.488472 ], [ 54.34032, 24.485126 ], [ 54.336075, 24.481948 ], [ 54.330382, 24.481948 ] ] ], [ [ [ 51.986148, 24.169908 ], [ 51.989374, 24.185614 ], [ 51.98953, 24.192822 ], [ 51.991716, 24.20089 ], [ 51.993532, 24.204183 ], [ 51.998532, 24.205088 ], [ 52.000093, 24.195972 ], [ 52.000146, 24.189146 ], [ 51.998272, 24.187524 ], [ 51.998428, 24.181031 ], [ 52.001967, 24.179409 ], [ 51.999313, 24.176592 ], [ 52.000874, 24.16905 ], [ 51.999339, 24.166975 ], [ 52.002443, 24.166735 ], [ 52.0025, 24.162885 ], [ 51.998173, 24.165081 ], [ 51.994682, 24.164608 ], [ 51.989998, 24.169479 ], [ 51.986876, 24.16776 ], [ 51.986148, 24.169908 ] ] ], [ [ [ 53.073627, 24.326119 ], [ 53.076491, 24.330936 ], [ 53.075449, 24.334848 ], [ 53.082114, 24.338235 ], [ 53.085967, 24.338902 ], [ 53.090861, 24.341336 ], [ 53.093413, 24.336185 ], [ 53.095546, 24.327119 ], [ 53.096113, 24.317955 ], [ 53.090288, 24.316433 ], [ 53.083832, 24.317864 ], [ 53.079719, 24.319725 ], [ 53.075085, 24.323398 ], [ 53.073627, 24.326119 ] ] ], [ [ [ 54.387277, 24.500149 ], [ 54.387556, 24.502814 ], [ 54.391022, 24.504826 ], [ 54.392262, 24.501231 ], [ 54.393935, 24.501475 ], [ 54.395529, 24.509681 ], [ 54.398742, 24.509777 ], [ 54.40048, 24.505873 ], [ 54.3989, 24.504909 ], [ 54.398321, 24.497437 ], [ 54.402008, 24.498065 ], [ 54.407487, 24.496811 ], [ 54.408331, 24.498691 ], [ 54.404115, 24.506066 ], [ 54.403167, 24.511368 ], [ 54.404537, 24.512622 ], [ 54.410385, 24.510212 ], [ 54.415548, 24.506934 ], [ 54.413862, 24.505826 ], [ 54.411438, 24.496376 ], [ 54.413568, 24.496549 ], [ 54.415577, 24.493829 ], [ 54.413757, 24.492376 ], [ 54.411243, 24.493769 ], [ 54.405117, 24.490205 ], [ 54.407434, 24.488565 ], [ 54.404115, 24.485868 ], [ 54.40152, 24.488145 ], [ 54.397847, 24.486012 ], [ 54.393316, 24.48823 ], [ 54.391095, 24.494392 ], [ 54.388733, 24.493285 ], [ 54.389124, 24.49646 ], [ 54.387277, 24.500149 ] ] ], [ [ [ 56.267647, 25.279468 ], [ 56.272678, 25.286687 ], [ 56.277785, 25.290432 ], [ 56.279532, 25.290341 ], [ 56.281256, 25.284744 ], [ 56.287246, 25.277531 ], [ 56.290109, 25.276985 ], [ 56.284723, 25.270573 ], [ 56.284659, 25.262734 ], [ 56.276966, 25.262746 ], [ 56.273652, 25.260647 ], [ 56.270199, 25.263214 ], [ 56.271114, 25.274426 ], [ 56.267647, 25.279468 ] ] ], [ [ [ 52.547608, 24.792448 ], [ 52.548454, 24.796645 ], [ 52.552575, 24.800889 ], [ 52.56272, 24.800118 ], [ 52.569694, 24.790518 ], [ 52.569958, 24.786612 ], [ 52.561932, 24.774167 ], [ 52.557013, 24.77682 ], [ 52.554529, 24.783187 ], [ 52.548824, 24.788735 ], [ 52.547608, 24.792448 ] ] ], [ [ [ 54.527319, 24.519415 ], [ 54.532206, 24.519967 ], [ 54.559859, 24.510337 ], [ 54.572849, 24.507971 ], [ 54.569143, 24.498866 ], [ 54.544891, 24.507971 ], [ 54.53061, 24.515244 ], [ 54.527319, 24.519415 ] ] ], [ [ [ 51.710471, 24.593139 ], [ 51.713259, 24.596065 ], [ 51.719364, 24.597444 ], [ 51.723273, 24.596914 ], [ 51.72415, 24.59177 ], [ 51.729622, 24.58875 ], [ 51.729105, 24.582897 ], [ 51.727144, 24.57794 ], [ 51.724563, 24.576855 ], [ 51.721569, 24.571474 ], [ 51.716252, 24.567129 ], [ 51.714188, 24.575391 ], [ 51.719349, 24.579309 ], [ 51.719459, 24.58371 ], [ 51.717853, 24.584406 ], [ 51.717749, 24.589126 ], [ 51.712535, 24.590873 ], [ 51.710471, 24.593139 ] ] ], [ [ [ 55.109185, 25.114513 ], [ 55.111046, 25.124595 ], [ 55.116225, 25.133125 ], [ 55.133257, 25.143444 ], [ 55.148051, 25.140744 ], [ 55.154371, 25.131553 ], [ 55.153741, 25.125473 ], [ 55.151976, 25.125326 ], [ 55.148051, 25.137804 ], [ 55.132533, 25.140381 ], [ 55.119035, 25.131846 ], [ 55.112805, 25.12022 ], [ 55.113176, 25.108461 ], [ 55.120478, 25.100888 ], [ 55.128556, 25.099323 ], [ 55.128564, 25.097728 ], [ 55.123958, 25.096798 ], [ 55.116437, 25.099684 ], [ 55.111013, 25.106637 ], [ 55.109185, 25.114513 ] ] ], [ [ [ 51.647298, 24.307669 ], [ 51.652387, 24.308811 ], [ 51.649583, 24.320376 ], [ 51.651971, 24.324088 ], [ 51.655035, 24.320138 ], [ 51.658359, 24.313951 ], [ 51.659865, 24.308241 ], [ 51.659034, 24.303006 ], [ 51.662669, 24.296533 ], [ 51.668381, 24.29144 ], [ 51.670355, 24.283492 ], [ 51.665733, 24.282205 ], [ 51.664331, 24.286727 ], [ 51.65784, 24.291629 ], [ 51.65706, 24.293154 ], [ 51.657113, 24.300625 ], [ 51.653426, 24.304814 ], [ 51.64896, 24.305195 ], [ 51.647298, 24.307669 ] ] ], [ [ [ 52.43125, 24.115293 ], [ 52.43312, 24.119502 ], [ 52.440136, 24.122542 ], [ 52.447619, 24.118801 ], [ 52.447385, 24.115527 ], [ 52.444345, 24.106173 ], [ 52.447319, 24.099461 ], [ 52.439201, 24.101496 ], [ 52.434991, 24.105003 ], [ 52.43125, 24.115293 ] ] ], [ [ [ 52.866466, 25.161888 ], [ 52.86787, 25.163638 ], [ 52.874889, 25.164348 ], [ 52.87931, 25.162929 ], [ 52.879986, 25.155498 ], [ 52.87905, 25.149157 ], [ 52.880089, 25.141962 ], [ 52.872706, 25.142341 ], [ 52.870262, 25.144661 ], [ 52.869431, 25.149536 ], [ 52.866623, 25.154127 ], [ 52.866466, 25.161888 ] ] ], [ [ [ 54.515327, 24.533705 ], [ 54.516471, 24.541308 ], [ 54.520419, 24.540262 ], [ 54.523664, 24.544789 ], [ 54.528627, 24.544206 ], [ 54.528905, 24.542064 ], [ 54.533699, 24.543052 ], [ 54.534099, 24.546257 ], [ 54.53946, 24.545944 ], [ 54.539373, 24.542482 ], [ 54.534585, 24.541437 ], [ 54.536575, 24.537459 ], [ 54.530393, 24.533515 ], [ 54.528003, 24.53456 ], [ 54.520938, 24.527336 ], [ 54.516159, 24.529427 ], [ 54.515327, 24.533705 ] ] ], [ [ [ 51.52977, 24.404294 ], [ 51.531338, 24.407885 ], [ 51.535259, 24.407502 ], [ 51.533168, 24.41229 ], [ 51.538658, 24.4143 ], [ 51.539599, 24.417701 ], [ 51.544619, 24.422391 ], [ 51.548644, 24.418704 ], [ 51.553164, 24.41806 ], [ 51.550422, 24.415307 ], [ 51.551258, 24.412865 ], [ 51.549691, 24.410087 ], [ 51.554065, 24.401834 ], [ 51.550631, 24.40257 ], [ 51.548174, 24.407072 ], [ 51.544722, 24.407789 ], [ 51.535625, 24.404773 ], [ 51.533273, 24.40056 ], [ 51.52977, 24.404294 ] ] ], [ [ [ 54.566138, 24.64754 ], [ 54.580015, 24.664018 ], [ 54.593291, 24.67011 ], [ 54.60723, 24.681346 ], [ 54.611217, 24.67672 ], [ 54.60723, 24.676162 ], [ 54.579987, 24.658608 ], [ 54.574621, 24.64672 ], [ 54.566138, 24.64754 ] ] ], [ [ [ 54.435512, 24.493729 ], [ 54.441258, 24.494338 ], [ 54.467358, 24.486016 ], [ 54.46939, 24.481948 ], [ 54.470781, 24.479162 ], [ 54.469694, 24.478192 ], [ 54.461623, 24.481948 ], [ 54.456247, 24.484449 ], [ 54.443551, 24.484851 ], [ 54.435512, 24.493729 ] ] ], [ [ [ 54.72952, 24.835785 ], [ 54.738232, 24.843903 ], [ 54.742048, 24.845541 ], [ 54.753239, 24.847761 ], [ 54.756672, 24.849534 ], [ 54.757535, 24.851908 ], [ 54.753163, 24.871281 ], [ 54.754331, 24.873267 ], [ 54.75705, 24.871609 ], [ 54.757616, 24.865704 ], [ 54.76016, 24.850624 ], [ 54.76162, 24.848512 ], [ 54.758642, 24.843305 ], [ 54.750284, 24.842008 ], [ 54.745466, 24.843078 ], [ 54.739299, 24.84149 ], [ 54.731717, 24.835378 ], [ 54.72952, 24.835785 ] ] ], [ [ [ 54.437284, 24.335014 ], [ 54.439809, 24.343953 ], [ 54.446032, 24.348506 ], [ 54.451841, 24.346177 ], [ 54.449532, 24.333585 ], [ 54.447089, 24.330018 ], [ 54.443362, 24.330018 ], [ 54.438742, 24.331276 ], [ 54.437284, 24.335014 ] ] ], [ [ [ 55.575605, 25.545466 ], [ 55.578428, 25.550468 ], [ 55.583392, 25.553595 ], [ 55.585535, 25.553595 ], [ 55.590849, 25.548927 ], [ 55.588868, 25.542908 ], [ 55.582638, 25.536098 ], [ 55.576922, 25.540599 ], [ 55.575605, 25.545466 ] ] ], [ [ [ 54.447573, 24.390089 ], [ 54.45223, 24.392272 ], [ 54.459809, 24.390041 ], [ 54.465116, 24.384733 ], [ 54.464682, 24.380369 ], [ 54.457806, 24.376798 ], [ 54.457264, 24.380122 ], [ 54.451903, 24.384931 ], [ 54.448331, 24.38647 ], [ 54.447573, 24.390089 ] ] ], [ [ [ 54.39834, 24.361 ], [ 54.398962, 24.362902 ], [ 54.403895, 24.362379 ], [ 54.410488, 24.359241 ], [ 54.413699, 24.355724 ], [ 54.419002, 24.356244 ], [ 54.421495, 24.353533 ], [ 54.418171, 24.3532 ], [ 54.413914, 24.348017 ], [ 54.401195, 24.356101 ], [ 54.39834, 24.361 ] ] ], [ [ [ 53.007618, 24.157425 ], [ 53.00945, 24.160587 ], [ 53.014684, 24.15554 ], [ 53.024813, 24.147767 ], [ 53.027403, 24.142044 ], [ 53.026373, 24.1408 ], [ 53.020573, 24.142585 ], [ 53.013507, 24.148002 ], [ 53.009267, 24.153185 ], [ 53.007618, 24.157425 ] ] ], [ [ [ 54.286077, 24.456013 ], [ 54.287619, 24.45952 ], [ 54.291344, 24.461961 ], [ 54.293684, 24.460493 ], [ 54.297249, 24.452751 ], [ 54.300543, 24.449267 ], [ 54.297568, 24.446858 ], [ 54.294961, 24.448562 ], [ 54.292469, 24.453516 ], [ 54.291077, 24.451825 ], [ 54.293738, 24.446517 ], [ 54.28898, 24.44545 ], [ 54.287619, 24.448125 ], [ 54.286077, 24.456013 ] ] ], [ [ [ 53.539831, 24.194663 ], [ 53.542378, 24.186969 ], [ 53.540961, 24.184226 ], [ 53.537449, 24.18561 ], [ 53.53273, 24.19081 ], [ 53.532038, 24.194663 ], [ 53.530967, 24.197717 ], [ 53.532927, 24.199271 ], [ 53.532866, 24.202698 ], [ 53.538132, 24.201039 ], [ 53.540014, 24.199443 ], [ 53.539831, 24.194663 ] ] ], [ [ [ 52.843118, 24.938252 ], [ 52.846343, 24.943504 ], [ 52.84888, 24.944951 ], [ 52.851734, 24.941241 ], [ 52.851681, 24.937771 ], [ 52.85612, 24.934012 ], [ 52.858922, 24.929481 ], [ 52.85508, 24.925164 ], [ 52.852685, 24.927361 ], [ 52.849303, 24.9343 ], [ 52.844757, 24.935987 ], [ 52.843118, 24.938252 ] ] ], [ [ [ 54.167907, 24.334072 ], [ 54.214159, 24.358032 ], [ 54.214999, 24.356096 ], [ 54.168935, 24.332254 ], [ 54.167907, 24.334072 ] ] ], [ [ [ 52.392557, 24.963807 ], [ 52.394988, 24.965832 ], [ 52.397736, 24.963519 ], [ 52.399903, 24.957497 ], [ 52.403496, 24.952919 ], [ 52.401993, 24.946581 ], [ 52.396943, 24.949547 ], [ 52.394037, 24.955328 ], [ 52.392557, 24.963807 ] ] ], [ [ [ 55.188858, 25.211978 ], [ 55.191461, 25.219166 ], [ 55.19467, 25.221462 ], [ 55.197467, 25.227066 ], [ 55.201294, 25.226036 ], [ 55.195795, 25.213567 ], [ 55.193122, 25.209251 ], [ 55.190211, 25.207085 ], [ 55.188858, 25.211978 ] ] ], [ [ [ 55.600543, 25.55938 ], [ 55.601653, 25.560772 ], [ 55.605674, 25.561938 ], [ 55.613544, 25.558666 ], [ 55.614253, 25.556969 ], [ 55.61342, 25.553595 ], [ 55.61179, 25.551517 ], [ 55.609688, 25.550893 ], [ 55.60718, 25.551474 ], [ 55.604774, 25.553595 ], [ 55.600543, 25.55938 ] ] ], [ [ [ 54.409853, 24.478304 ], [ 54.410561, 24.479683 ], [ 54.422868, 24.485905 ], [ 54.425162, 24.481927 ], [ 54.420233, 24.481927 ], [ 54.42184, 24.477447 ], [ 54.418167, 24.47412 ], [ 54.412389, 24.473271 ], [ 54.409853, 24.478304 ] ] ], [ [ [ 51.726113, 24.490035 ], [ 51.726318, 24.493221 ], [ 51.728931, 24.494081 ], [ 51.733387, 24.492332 ], [ 51.735181, 24.487361 ], [ 51.730622, 24.481783 ], [ 51.728521, 24.480658 ], [ 51.727189, 24.483189 ], [ 51.726113, 24.490035 ] ] ], [ [ [ 54.473947, 24.481952 ], [ 54.475373, 24.484121 ], [ 54.479819, 24.483461 ], [ 54.484063, 24.480706 ], [ 54.486229, 24.47436 ], [ 54.484874, 24.473863 ], [ 54.475286, 24.477582 ], [ 54.473947, 24.481952 ] ] ], [ [ [ 54.462769, 24.512551 ], [ 54.465179, 24.513562 ], [ 54.469426, 24.508041 ], [ 54.472229, 24.508041 ], [ 54.473969, 24.499958 ], [ 54.470761, 24.497104 ], [ 54.465959, 24.508041 ], [ 54.462769, 24.512551 ] ] ], [ [ [ 55.573602, 25.568013 ], [ 55.575653, 25.570912 ], [ 55.575723, 25.578533 ], [ 55.578649, 25.578593 ], [ 55.579552, 25.574346 ], [ 55.582599, 25.571501 ], [ 55.581385, 25.56725 ], [ 55.576416, 25.567034 ], [ 55.574373, 25.565475 ], [ 55.573602, 25.568013 ] ] ], [ [ [ 53.367796, 24.454876 ], [ 53.369421, 24.459463 ], [ 53.369744, 24.465725 ], [ 53.37575, 24.464937 ], [ 53.374313, 24.457505 ], [ 53.371386, 24.453106 ], [ 53.367796, 24.454876 ] ] ], [ [ [ 53.312683, 24.594429 ], [ 53.323192, 24.600697 ], [ 53.323013, 24.592602 ], [ 53.315006, 24.59037 ], [ 53.312683, 24.594429 ] ] ], [ [ [ 54.564088, 24.611343 ], [ 54.566703, 24.614158 ], [ 54.5756, 24.609572 ], [ 54.576698, 24.60364 ], [ 54.571309, 24.604836 ], [ 54.569634, 24.608041 ], [ 54.564088, 24.611343 ] ] ], [ [ [ 54.527495, 24.507971 ], [ 54.528631, 24.50967 ], [ 54.533214, 24.510978 ], [ 54.540685, 24.507971 ], [ 54.541663, 24.5051 ], [ 54.537602, 24.503619 ], [ 54.527495, 24.507971 ] ] ], [ [ [ 55.807626, 25.717616 ], [ 55.808476, 25.718543 ], [ 55.819165, 25.719023 ], [ 55.828703, 25.721138 ], [ 55.828942, 25.718322 ], [ 55.822237, 25.715178 ], [ 55.819319, 25.717061 ], [ 55.810012, 25.716215 ], [ 55.807626, 25.717616 ] ] ], [ [ [ 54.389607, 24.526071 ], [ 54.390723, 24.531762 ], [ 54.399123, 24.523202 ], [ 54.39907, 24.52038 ], [ 54.396252, 24.518775 ], [ 54.389607, 24.526071 ] ] ], [ [ [ 55.152852, 25.25987 ], [ 55.161184, 25.268161 ], [ 55.168326, 25.269835 ], [ 55.17011, 25.268454 ], [ 55.164436, 25.265213 ], [ 55.160733, 25.264105 ], [ 55.155627, 25.259239 ], [ 55.152852, 25.25987 ] ] ], [ [ [ 54.477716, 24.510459 ], [ 54.479902, 24.511844 ], [ 54.486246, 24.507971 ], [ 54.487874, 24.503855 ], [ 54.485792, 24.50184 ], [ 54.47801, 24.507971 ], [ 54.477716, 24.510459 ] ] ], [ [ [ 55.652067, 25.62248 ], [ 55.657701, 25.626012 ], [ 55.669154, 25.628456 ], [ 55.670327, 25.62726 ], [ 55.662512, 25.623627 ], [ 55.654667, 25.621176 ], [ 55.652067, 25.62248 ] ] ], [ [ [ 54.018944, 24.140186 ], [ 54.020444, 24.140823 ], [ 54.032793, 24.131573 ], [ 54.030711, 24.129124 ], [ 54.022778, 24.134389 ], [ 54.018944, 24.140186 ] ] ], [ [ [ 54.71094, 24.816605 ], [ 54.713123, 24.818583 ], [ 54.720509, 24.828617 ], [ 54.722141, 24.827669 ], [ 54.717815, 24.821067 ], [ 54.716732, 24.817195 ], [ 54.719372, 24.814957 ], [ 54.718022, 24.813615 ], [ 54.71094, 24.816605 ] ] ], [ [ [ 55.19363, 25.235513 ], [ 55.194783, 25.243589 ], [ 55.19973, 25.243241 ], [ 55.202839, 25.238949 ], [ 55.198592, 25.238214 ], [ 55.196801, 25.23455 ], [ 55.19363, 25.235513 ] ] ], [ [ [ 52.948642, 24.194663 ], [ 52.952921, 24.189016 ], [ 52.949629, 24.187836 ], [ 52.947726, 24.191375 ], [ 52.945564, 24.190999 ], [ 52.944395, 24.194663 ], [ 52.943712, 24.196804 ], [ 52.941501, 24.196946 ], [ 52.940674, 24.199814 ], [ 52.941782, 24.200706 ], [ 52.948343, 24.195058 ], [ 52.948642, 24.194663 ] ] ], [ [ [ 54.461603, 24.464226 ], [ 54.46715, 24.468024 ], [ 54.470121, 24.468526 ], [ 54.472963, 24.466401 ], [ 54.46715, 24.462054 ], [ 54.464429, 24.460161 ], [ 54.461603, 24.464226 ] ] ], [ [ [ 54.311784, 24.436302 ], [ 54.313367, 24.445296 ], [ 54.315278, 24.446297 ], [ 54.317079, 24.443548 ], [ 54.317516, 24.435352 ], [ 54.311784, 24.436302 ] ] ], [ [ [ 54.618468, 24.63627 ], [ 54.622444, 24.634795 ], [ 54.629129, 24.635637 ], [ 54.630588, 24.631086 ], [ 54.623539, 24.6319 ], [ 54.619274, 24.631161 ], [ 54.618468, 24.63627 ] ] ], [ [ [ 54.576742, 24.566504 ], [ 54.577908, 24.568148 ], [ 54.584753, 24.569259 ], [ 54.58869, 24.566448 ], [ 54.583041, 24.563251 ], [ 54.576742, 24.566504 ] ] ], [ [ [ 55.628828, 25.599257 ], [ 55.631784, 25.600764 ], [ 55.635517, 25.59805 ], [ 55.635374, 25.595233 ], [ 55.638278, 25.591198 ], [ 55.635912, 25.590578 ], [ 55.631664, 25.594557 ], [ 55.628828, 25.599257 ] ] ], [ [ [ 55.621449, 25.592525 ], [ 55.623806, 25.595245 ], [ 55.627872, 25.59196 ], [ 55.626851, 25.590563 ], [ 55.631811, 25.587202 ], [ 55.629754, 25.585346 ], [ 55.623769, 25.588037 ], [ 55.625113, 25.589925 ], [ 55.621449, 25.592525 ] ] ], [ [ [ 52.64325, 24.417469 ], [ 52.648316, 24.419787 ], [ 52.651405, 24.418883 ], [ 52.650725, 24.414526 ], [ 52.65261, 24.410094 ], [ 52.64949, 24.40983 ], [ 52.648131, 24.415149 ], [ 52.64325, 24.417469 ] ] ], [ [ [ 55.178618, 25.201439 ], [ 55.179654, 25.202544 ], [ 55.184526, 25.200295 ], [ 55.183285, 25.197558 ], [ 55.185799, 25.195038 ], [ 55.182165, 25.192951 ], [ 55.178847, 25.194953 ], [ 55.181621, 25.197892 ], [ 55.179253, 25.198111 ], [ 55.178618, 25.201439 ] ] ], [ [ [ 54.259042, 24.344308 ], [ 54.260625, 24.345242 ], [ 54.263901, 24.342307 ], [ 54.264222, 24.337436 ], [ 54.267411, 24.334555 ], [ 54.263421, 24.332182 ], [ 54.262027, 24.332979 ], [ 54.262669, 24.337515 ], [ 54.259042, 24.344308 ] ] ], [ [ [ 54.096949, 24.240569 ], [ 54.098461, 24.244581 ], [ 54.101323, 24.243292 ], [ 54.102566, 24.239182 ], [ 54.105899, 24.237212 ], [ 54.102458, 24.23527 ], [ 54.096949, 24.240569 ] ] ], [ [ [ 53.338238, 24.587401 ], [ 53.339481, 24.588232 ], [ 53.34957, 24.587777 ], [ 53.348136, 24.584451 ], [ 53.341576, 24.584098 ], [ 53.338238, 24.587401 ] ] ], [ [ [ 53.031401, 24.158011 ], [ 53.032114, 24.159439 ], [ 53.038063, 24.158011 ], [ 53.042912, 24.158944 ], [ 53.043756, 24.157519 ], [ 53.039808, 24.152976 ], [ 53.037825, 24.15587 ], [ 53.031401, 24.158011 ] ] ], [ [ [ 53.045731, 24.158938 ], [ 53.046934, 24.159979 ], [ 53.060126, 24.163615 ], [ 53.060126, 24.160687 ], [ 53.047346, 24.158274 ], [ 53.045731, 24.158938 ] ] ], [ [ [ 51.537629, 24.435077 ], [ 51.540297, 24.435384 ], [ 51.540409, 24.437929 ], [ 51.545069, 24.437528 ], [ 51.54419, 24.431514 ], [ 51.540241, 24.431667 ], [ 51.537629, 24.435077 ] ] ], [ [ [ 51.859416, 24.209996 ], [ 51.860648, 24.215499 ], [ 51.864719, 24.218104 ], [ 51.866702, 24.217319 ], [ 51.861774, 24.209112 ], [ 51.859416, 24.209996 ] ] ], [ [ [ 54.635222, 24.725863 ], [ 54.636357, 24.728332 ], [ 54.641507, 24.732283 ], [ 54.643679, 24.73001 ], [ 54.636807, 24.723494 ], [ 54.635222, 24.725863 ] ] ], [ [ [ 54.42158, 24.305062 ], [ 54.42158, 24.308665 ], [ 54.425342, 24.309027 ], [ 54.42863, 24.302362 ], [ 54.427146, 24.30152 ], [ 54.42158, 24.305062 ] ] ], [ [ [ 53.316725, 24.58495 ], [ 53.319302, 24.587642 ], [ 53.324583, 24.589604 ], [ 53.325713, 24.584626 ], [ 53.317669, 24.584122 ], [ 53.316725, 24.58495 ] ] ], [ [ [ 54.303109, 24.444611 ], [ 54.309282, 24.445832 ], [ 54.308727, 24.437685 ], [ 54.307281, 24.437634 ], [ 54.303109, 24.444611 ] ] ], [ [ [ 55.609798, 25.581251 ], [ 55.613054, 25.586774 ], [ 55.616516, 25.587084 ], [ 55.617344, 25.581834 ], [ 55.609798, 25.581251 ] ] ], [ [ [ 54.463305, 24.534163 ], [ 54.466261, 24.534209 ], [ 54.470756, 24.530842 ], [ 54.469118, 24.528478 ], [ 54.465488, 24.527816 ], [ 54.463305, 24.534163 ] ] ], [ [ [ 54.723159, 24.819088 ], [ 54.724791, 24.825024 ], [ 54.727147, 24.82472 ], [ 54.72872, 24.816524 ], [ 54.723159, 24.819088 ] ] ], [ [ [ 54.76169, 24.812419 ], [ 54.765468, 24.815765 ], [ 54.769646, 24.810765 ], [ 54.766689, 24.808756 ], [ 54.76169, 24.812419 ] ] ], [ [ [ 54.474489, 24.49334 ], [ 54.476916, 24.496538 ], [ 54.481951, 24.49217 ], [ 54.481098, 24.490199 ], [ 54.475502, 24.491878 ], [ 54.474489, 24.49334 ] ] ], [ [ [ 54.426133, 24.507161 ], [ 54.433394, 24.507934 ], [ 54.434878, 24.505844 ], [ 54.434878, 24.504018 ], [ 54.426866, 24.505153 ], [ 54.426133, 24.507161 ] ] ], [ [ [ 52.812918, 24.174457 ], [ 52.813732, 24.178537 ], [ 52.817882, 24.178409 ], [ 52.817974, 24.17234 ], [ 52.812918, 24.174457 ] ] ], [ [ [ 53.301484, 24.577235 ], [ 53.303358, 24.579786 ], [ 53.307381, 24.58029 ], [ 53.307819, 24.576554 ], [ 53.305297, 24.574744 ], [ 53.303358, 24.575596 ], [ 53.301484, 24.577235 ] ] ], [ [ [ 55.135924, 25.096495 ], [ 55.141671, 25.101624 ], [ 55.143128, 25.100056 ], [ 55.14072, 25.096244 ], [ 55.137352, 25.09405 ], [ 55.135924, 25.096495 ] ] ], [ [ [ 54.733323, 24.827265 ], [ 54.741273, 24.832696 ], [ 54.742083, 24.829996 ], [ 54.736774, 24.826107 ], [ 54.733323, 24.827265 ] ] ], [ [ [ 55.141876, 25.192545 ], [ 55.143202, 25.193279 ], [ 55.153574, 25.189735 ], [ 55.152148, 25.187898 ], [ 55.142341, 25.191648 ], [ 55.141876, 25.192545 ] ] ], [ [ [ 52.76249, 24.39295 ], [ 52.762946, 24.39639 ], [ 52.766491, 24.395802 ], [ 52.767724, 24.390664 ], [ 52.766218, 24.389871 ], [ 52.76249, 24.39295 ] ] ], [ [ [ 52.872572, 24.304453 ], [ 52.877536, 24.308707 ], [ 52.879728, 24.306107 ], [ 52.87831, 24.302763 ], [ 52.872572, 24.304453 ] ] ], [ [ [ 53.287105, 24.131608 ], [ 53.288952, 24.131904 ], [ 53.292821, 24.121909 ], [ 53.290829, 24.121268 ], [ 53.287105, 24.131608 ] ] ], [ [ [ 55.151595, 25.112393 ], [ 55.155345, 25.118443 ], [ 55.158576, 25.116026 ], [ 55.154234, 25.111854 ], [ 55.151595, 25.112393 ] ] ], [ [ [ 52.78592, 24.198839 ], [ 52.79131, 24.203194 ], [ 52.793605, 24.200781 ], [ 52.790582, 24.197596 ], [ 52.78592, 24.198839 ] ] ], [ [ [ 54.412728, 24.320396 ], [ 54.41364, 24.321901 ], [ 54.419717, 24.319004 ], [ 54.418987, 24.315051 ], [ 54.412728, 24.320396 ] ] ], [ [ [ 55.695197, 25.646759 ], [ 55.695515, 25.647507 ], [ 55.700515, 25.651123 ], [ 55.70368, 25.651554 ], [ 55.702143, 25.64869 ], [ 55.700463, 25.647561 ], [ 55.69599, 25.646016 ], [ 55.695197, 25.646759 ] ] ], [ [ [ 55.195506, 25.26165 ], [ 55.196685, 25.264667 ], [ 55.200577, 25.263111 ], [ 55.200825, 25.258311 ], [ 55.195506, 25.26165 ] ] ], [ [ [ 54.319525, 24.471023 ], [ 54.320568, 24.473428 ], [ 54.325278, 24.474724 ], [ 54.326494, 24.472681 ], [ 54.321176, 24.469894 ], [ 54.319525, 24.471023 ] ] ], [ [ [ 51.995861, 24.156851 ], [ 52.00297, 24.159482 ], [ 52.003936, 24.157154 ], [ 51.998921, 24.154771 ], [ 51.995861, 24.156851 ] ] ], [ [ [ 52.820743, 24.169453 ], [ 52.823435, 24.171572 ], [ 52.826961, 24.170125 ], [ 52.825062, 24.165828 ], [ 52.820743, 24.169453 ] ] ], [ [ [ 52.889361, 24.180267 ], [ 52.891048, 24.186066 ], [ 52.894248, 24.184823 ], [ 52.892859, 24.182826 ], [ 52.895029, 24.180777 ], [ 52.889361, 24.180267 ] ] ], [ [ [ 54.123366, 24.210638 ], [ 54.129769, 24.211745 ], [ 54.13045, 24.209018 ], [ 54.127326, 24.207108 ], [ 54.123366, 24.210638 ] ] ], [ [ [ 54.109416, 24.229795 ], [ 54.111045, 24.233945 ], [ 54.116356, 24.231545 ], [ 54.110684, 24.228553 ], [ 54.109416, 24.229795 ] ] ], [ [ [ 53.391005, 24.242351 ], [ 53.393141, 24.24375 ], [ 53.395827, 24.236474 ], [ 53.392713, 24.236642 ], [ 53.391005, 24.242351 ] ] ], [ [ [ 51.683828, 24.269917 ], [ 51.684883, 24.273785 ], [ 51.688803, 24.273164 ], [ 51.688803, 24.26895 ], [ 51.683828, 24.269917 ] ] ], [ [ [ 54.427239, 24.294417 ], [ 54.43034, 24.296375 ], [ 54.434266, 24.295043 ], [ 54.432582, 24.291341 ], [ 54.427239, 24.294417 ] ] ], [ [ [ 52.878569, 24.300542 ], [ 52.884604, 24.300436 ], [ 52.882211, 24.296117 ], [ 52.87966, 24.296345 ], [ 52.878569, 24.300542 ] ] ], [ [ [ 53.098083, 24.314957 ], [ 53.101302, 24.316212 ], [ 53.104209, 24.31293 ], [ 53.102527, 24.309804 ], [ 53.098083, 24.314957 ] ] ], [ [ [ 54.398588, 24.328208 ], [ 54.403595, 24.331035 ], [ 54.405909, 24.329093 ], [ 54.402589, 24.325892 ], [ 54.398588, 24.328208 ] ] ], [ [ [ 54.341393, 24.379907 ], [ 54.343144, 24.381408 ], [ 54.347632, 24.380308 ], [ 54.344349, 24.375596 ], [ 54.341393, 24.379907 ] ] ], [ [ [ 53.374502, 24.380467 ], [ 53.376603, 24.382688 ], [ 53.382302, 24.380418 ], [ 53.379486, 24.377958 ], [ 53.374502, 24.380467 ] ] ], [ [ [ 53.384545, 24.381247 ], [ 53.38547, 24.383128 ], [ 53.391223, 24.383409 ], [ 53.391428, 24.379553 ], [ 53.384545, 24.381247 ] ] ], [ [ [ 51.570731, 24.382295 ], [ 51.572537, 24.384025 ], [ 51.576805, 24.383648 ], [ 51.578037, 24.38207 ], [ 51.57385, 24.379813 ], [ 51.570731, 24.382295 ] ] ], [ [ [ 54.477321, 24.388387 ], [ 54.477724, 24.39068 ], [ 54.48112, 24.39268 ], [ 54.483059, 24.390979 ], [ 54.479826, 24.386907 ], [ 54.477321, 24.388387 ] ] ], [ [ [ 52.773338, 24.391595 ], [ 52.778025, 24.394056 ], [ 52.780093, 24.39008 ], [ 52.777405, 24.388755 ], [ 52.773338, 24.391595 ] ] ], [ [ [ 52.75647, 24.395307 ], [ 52.758621, 24.397999 ], [ 52.760671, 24.398832 ], [ 52.761974, 24.398068 ], [ 52.762843, 24.396151 ], [ 52.761404, 24.395977 ], [ 52.759964, 24.394306 ], [ 52.758429, 24.393691 ], [ 52.756737, 24.394368 ], [ 52.75647, 24.395307 ] ] ], [ [ [ 51.553943, 24.400782 ], [ 51.554841, 24.402216 ], [ 51.560566, 24.401554 ], [ 51.56041, 24.397318 ], [ 51.553943, 24.400782 ] ] ], [ [ [ 51.563177, 24.407807 ], [ 51.565143, 24.413339 ], [ 51.567795, 24.41161 ], [ 51.56757, 24.407383 ], [ 51.563177, 24.407807 ] ] ], [ [ [ 51.561971, 24.416574 ], [ 51.563862, 24.418042 ], [ 51.568042, 24.417404 ], [ 51.568564, 24.415066 ], [ 51.564756, 24.413696 ], [ 51.561971, 24.416574 ] ] ], [ [ [ 54.269634, 24.439018 ], [ 54.269847, 24.441221 ], [ 54.276882, 24.445908 ], [ 54.27807, 24.44397 ], [ 54.269634, 24.439018 ] ] ], [ [ [ 53.361963, 24.470396 ], [ 53.364894, 24.472619 ], [ 53.367591, 24.467897 ], [ 53.362877, 24.46699 ], [ 53.361963, 24.470396 ] ] ], [ [ [ 54.465927, 24.472916 ], [ 54.466895, 24.47452 ], [ 54.471087, 24.473807 ], [ 54.473062, 24.471283 ], [ 54.471135, 24.469689 ], [ 54.465927, 24.472916 ] ] ], [ [ [ 54.415835, 24.487272 ], [ 54.416932, 24.491285 ], [ 54.420099, 24.491396 ], [ 54.419989, 24.485632 ], [ 54.415835, 24.487272 ] ] ], [ [ [ 51.71478, 24.508518 ], [ 51.71826, 24.510565 ], [ 51.72056, 24.508405 ], [ 51.720502, 24.505436 ], [ 51.717576, 24.505732 ], [ 51.71478, 24.508518 ] ] ], [ [ [ 53.338517, 24.536247 ], [ 53.339646, 24.538711 ], [ 53.342793, 24.537584 ], [ 53.343518, 24.533927 ], [ 53.341516, 24.532643 ], [ 53.338517, 24.536247 ] ] ], [ [ [ 54.506746, 24.547216 ], [ 54.511105, 24.549147 ], [ 54.513706, 24.547216 ], [ 54.513329, 24.543873 ], [ 54.506746, 24.547216 ] ] ], [ [ [ 54.460586, 24.550787 ], [ 54.464528, 24.555368 ], [ 54.467671, 24.553659 ], [ 54.46244, 24.549342 ], [ 54.460586, 24.550787 ] ] ], [ [ [ 53.329084, 24.564442 ], [ 53.332817, 24.566958 ], [ 53.333728, 24.5605 ], [ 53.330208, 24.56127 ], [ 53.329084, 24.564442 ] ] ], [ [ [ 53.326214, 24.574991 ], [ 53.328989, 24.57656 ], [ 53.331278, 24.568811 ], [ 53.329762, 24.568371 ], [ 53.326214, 24.574991 ] ] ], [ [ [ 51.705275, 24.579276 ], [ 51.706189, 24.580655 ], [ 51.712916, 24.578047 ], [ 51.710173, 24.575212 ], [ 51.705275, 24.579276 ] ] ], [ [ [ 53.328711, 24.587103 ], [ 53.328935, 24.589052 ], [ 53.334579, 24.58867 ], [ 53.335174, 24.586729 ], [ 53.333359, 24.585565 ], [ 53.330056, 24.585565 ], [ 53.328711, 24.587103 ] ] ], [ [ [ 53.352044, 24.596257 ], [ 53.355289, 24.598718 ], [ 53.356904, 24.594277 ], [ 53.3531, 24.592062 ], [ 53.352044, 24.596257 ] ] ], [ [ [ 54.612162, 24.601803 ], [ 54.615372, 24.602587 ], [ 54.617857, 24.598097 ], [ 54.614194, 24.596912 ], [ 54.612162, 24.601803 ] ] ], [ [ [ 53.319725, 24.607614 ], [ 53.31984, 24.612939 ], [ 53.323473, 24.611305 ], [ 53.323184, 24.606445 ], [ 53.319725, 24.607614 ] ] ], [ [ [ 54.568828, 24.629647 ], [ 54.575358, 24.63062 ], [ 54.575578, 24.627047 ], [ 54.570556, 24.627037 ], [ 54.568828, 24.629647 ] ] ], [ [ [ 51.815491, 24.662765 ], [ 51.821515, 24.664476 ], [ 51.821262, 24.660466 ], [ 51.818338, 24.659388 ], [ 51.815491, 24.662765 ] ] ], [ [ [ 55.122498, 25.10412 ], [ 55.12412, 25.107822 ], [ 55.127323, 25.105821 ], [ 55.126966, 25.102849 ], [ 55.123886, 25.102001 ], [ 55.122498, 25.10412 ] ] ], [ [ [ 55.161341, 25.18718 ], [ 55.16854, 25.190542 ], [ 55.169571, 25.187984 ], [ 55.164348, 25.185696 ], [ 55.161341, 25.18718 ] ] ], [ [ [ 55.133076, 25.198519 ], [ 55.138291, 25.200496 ], [ 55.139533, 25.196342 ], [ 55.135668, 25.195726 ], [ 55.133076, 25.198519 ] ] ], [ [ [ 55.129333, 25.204895 ], [ 55.133893, 25.205975 ], [ 55.134951, 25.201851 ], [ 55.131959, 25.200524 ], [ 55.129333, 25.204895 ] ] ], [ [ [ 55.130761, 25.228042 ], [ 55.133623, 25.236738 ], [ 55.135455, 25.235583 ], [ 55.132434, 25.227052 ], [ 55.130761, 25.228042 ] ] ], [ [ [ 55.204393, 25.235063 ], [ 55.205741, 25.238445 ], [ 55.210052, 25.237481 ], [ 55.208528, 25.233186 ], [ 55.204393, 25.235063 ] ] ], [ [ [ 55.152836, 25.240819 ], [ 55.153907, 25.244283 ], [ 55.15616, 25.243806 ], [ 55.158324, 25.24009 ], [ 55.1539, 25.238971 ], [ 55.152836, 25.240819 ] ] ], [ [ [ 55.203448, 25.252669 ], [ 55.206948, 25.253722 ], [ 55.2085, 25.249335 ], [ 55.205355, 25.24755 ], [ 55.203448, 25.252669 ] ] ], [ [ [ 55.184039, 25.269483 ], [ 55.185894, 25.270652 ], [ 55.193727, 25.268177 ], [ 55.192825, 25.265951 ], [ 55.184039, 25.269483 ] ] ], [ [ [ 55.170704, 25.270045 ], [ 55.176907, 25.272843 ], [ 55.179049, 25.269909 ], [ 55.172894, 25.268536 ], [ 55.170704, 25.270045 ] ] ], [ [ [ 55.640893, 25.601752 ], [ 55.645567, 25.60407 ], [ 55.647634, 25.601905 ], [ 55.642144, 25.598594 ], [ 55.640893, 25.601752 ] ] ], [ [ [ 55.651621, 25.613918 ], [ 55.658008, 25.616784 ], [ 55.658386, 25.612696 ], [ 55.654175, 25.612098 ], [ 55.651621, 25.613918 ] ] ], [ [ [ 55.659153, 25.614961 ], [ 55.66377, 25.617364 ], [ 55.666294, 25.615903 ], [ 55.66519, 25.612456 ], [ 55.659153, 25.614961 ] ] ], [ [ [ 55.832081, 25.721825 ], [ 55.836874, 25.723463 ], [ 55.837434, 25.717256 ], [ 55.833626, 25.71763 ], [ 55.835014, 25.72015 ], [ 55.832081, 25.721825 ] ] ], [ [ [ 55.854554, 25.724057 ], [ 55.859417, 25.727853 ], [ 55.862502, 25.72602 ], [ 55.861056, 25.724459 ], [ 55.855706, 25.723182 ], [ 55.854554, 25.724057 ] ] ], [ [ [ 55.87415, 25.738328 ], [ 55.8749, 25.739239 ], [ 55.882721, 25.740595 ], [ 55.882533, 25.737896 ], [ 55.875135, 25.737379 ], [ 55.87415, 25.738328 ] ] ], [ [ [ 55.703396, 25.651968 ], [ 55.703756, 25.652832 ], [ 55.708572, 25.654162 ], [ 55.710187, 25.652926 ], [ 55.709253, 25.652191 ], [ 55.704254, 25.651052 ], [ 55.703396, 25.651968 ] ] ], [ [ [ 54.5481, 24.547024 ], [ 54.548475, 24.549185 ], [ 54.550785, 24.547937 ], [ 54.549849, 24.545937 ], [ 54.5481, 24.547024 ] ] ], [ [ [ 54.54511, 24.549717 ], [ 54.546545, 24.55141 ], [ 54.548474, 24.549601 ], [ 54.546664, 24.548679 ], [ 54.54511, 24.549717 ] ] ], [ [ [ 55.163462, 25.256666 ], [ 55.16619, 25.255626 ], [ 55.1661, 25.254558 ], [ 55.163883, 25.254011 ], [ 55.163462, 25.256666 ] ] ] ] } }
]
}
