{
"type": "FeatureCollection",
"name": "United Republic of Tanzania",
"crs": { "type": "name", "properties": { "name": "urn:ogc:def:crs:OGC:1.3:CRS84" } },
"features": [
{ "type": "Feature", "properties": { "id": "TZ", "CNTR_ID": "TZ", "CNTR_NAME": "Tanzania", "NAME_ENGL": "United Republic of Tanzania", "ISO3_CODE": "TZA", "FID": "TZ" }, "geometry": { "type": "MultiPolygon", "coordinates": [ [ [ [ 34.95957, -11.573331 ], [ 34.948093, -11.535928 ], [ 34.948201, -11.514523 ], [ 34.936212, -11.482003 ], [ 34.925259, -11.413597 ], [ 34.910626, -11.379049 ], [ 34.890538, -11.36498 ], [ 34.881163, -11.354587 ], [ 34.833864, -11.331854 ], [ 34.810108, -11.323421 ], [ 34.804638, -11.32148 ], [ 34.783788, -11.325163 ], [ 34.775806, -11.301099 ], [ 34.779365, -11.293454 ], [ 34.786493, -11.291245 ], [ 34.788976, -11.287599 ], [ 34.789838, -11.282043 ], [ 34.786294, -11.274708 ], [ 34.776619, -11.264448 ], [ 34.763802, -11.259698 ], [ 34.759894, -11.243465 ], [ 34.737779, -11.21242 ], [ 34.729872, -11.18973 ], [ 34.723769, -11.181856 ], [ 34.710868, -11.173632 ], [ 34.697731, -11.150805 ], [ 34.685143, -11.140959 ], [ 34.646206, -11.126006 ], [ 34.633835, -11.116853 ], [ 34.628788, -11.103206 ], [ 34.636474, -11.080492 ], [ 34.629657, -11.067101 ], [ 34.637473, -11.067304 ], [ 34.635037, -11.055114 ], [ 34.621065, -11.048334 ], [ 34.6174, -11.048501 ], [ 34.611163, -11.048787 ], [ 34.603619, -11.033258 ], [ 34.601305, -11.00818 ], [ 34.6046, -10.989117 ], [ 34.6174, -10.967942 ], [ 34.621786, -10.960687 ], [ 34.638526, -10.943281 ], [ 34.649157, -10.911156 ], [ 34.641393, -10.895416 ], [ 34.645229, -10.878373 ], [ 34.64227, -10.852795 ], [ 34.647687, -10.827455 ], [ 34.649829, -10.814961 ], [ 34.645633, -10.785293 ], [ 34.651214, -10.75888 ], [ 34.649166, -10.748642 ], [ 34.638591, -10.730972 ], [ 34.622936, -10.716499 ], [ 34.618139, -10.707833 ], [ 34.624187, -10.678395 ], [ 34.608154, -10.6339 ], [ 34.596912, -10.622856 ], [ 34.588458, -10.606737 ], [ 34.590801, -10.594324 ], [ 34.595644, -10.585774 ], [ 34.559114, -10.555871 ], [ 34.550578, -10.524391 ], [ 34.558487, -10.518866 ], [ 34.549414, -10.510615 ], [ 34.549131, -10.50597 ], [ 34.570693, -10.479558 ], [ 34.574722, -10.468141 ], [ 34.569116, -10.456088 ], [ 34.567935, -10.443788 ], [ 34.563309, -10.440639 ], [ 34.553214, -10.442357 ], [ 34.550947, -10.440162 ], [ 34.541992, -10.413367 ], [ 34.542242, -10.390465 ], [ 34.548055, -10.378561 ], [ 34.55986, -10.325042 ], [ 34.568691, -10.308427 ], [ 34.570375, -10.292684 ], [ 34.566774, -10.269439 ], [ 34.557776, -10.253581 ], [ 34.553417, -10.234657 ], [ 34.555605, -10.208321 ], [ 34.553458, -10.184306 ], [ 34.533144, -10.131772 ], [ 34.522019, -10.113668 ], [ 34.518636, -10.099996 ], [ 34.536765, -10.067454 ], [ 34.536422, -10.04847 ], [ 34.524162, -10.01711 ], [ 34.503337, -9.979311 ], [ 34.458609, -9.941089 ], [ 34.429647, -9.902052 ], [ 34.393013, -9.863941 ], [ 34.362959, -9.820602 ], [ 34.338627, -9.799042 ], [ 34.325707, -9.768137 ], [ 34.30642, -9.741136 ], [ 34.269828, -9.709811 ], [ 34.231217, -9.668753 ], [ 34.195551, -9.636835 ], [ 34.175164, -9.612903 ], [ 34.139575, -9.586316 ], [ 34.110713, -9.556671 ], [ 34.076934, -9.527966 ], [ 34.071677, -9.525562 ], [ 34.063718, -9.521922 ], [ 34.055829, -9.509631 ], [ 34.037066, -9.492691 ], [ 34.014748, -9.494994 ], [ 33.986799, -9.510945 ], [ 33.965061, -9.528485 ], [ 33.954785, -9.546428 ], [ 33.945945, -9.570874 ], [ 33.946066, -9.579015 ], [ 33.958524, -9.600699 ], [ 33.966763, -9.62634 ], [ 33.957523, -9.643948 ], [ 33.954303, -9.668484 ], [ 33.943528, -9.704595 ], [ 33.938009, -9.710606 ], [ 33.930955, -9.707168 ], [ 33.919317, -9.707534 ], [ 33.914744, -9.702903 ], [ 33.918237, -9.695568 ], [ 33.916409, -9.691364 ], [ 33.898308, -9.684054 ], [ 33.858028, -9.655703 ], [ 33.846281, -9.644081 ], [ 33.818689, -9.630787 ], [ 33.804261, -9.608707 ], [ 33.791177, -9.603899 ], [ 33.776088, -9.588088 ], [ 33.764119, -9.583015 ], [ 33.738559, -9.585037 ], [ 33.725619, -9.589282 ], [ 33.714131, -9.59949 ], [ 33.701581, -9.617287 ], [ 33.684478, -9.608239 ], [ 33.679224, -9.608348 ], [ 33.664437, -9.608656 ], [ 33.648643, -9.602404 ], [ 33.628911, -9.605065 ], [ 33.622206, -9.598872 ], [ 33.613874, -9.596674 ], [ 33.589145, -9.581216 ], [ 33.571529, -9.590259 ], [ 33.552941, -9.59216 ], [ 33.541869, -9.613222 ], [ 33.518784, -9.626642 ], [ 33.497941, -9.621131 ], [ 33.48598, -9.624597 ], [ 33.443902, -9.613929 ], [ 33.420219, -9.594492 ], [ 33.422959, -9.582455 ], [ 33.419721, -9.570706 ], [ 33.398009, -9.549137 ], [ 33.391477, -9.538024 ], [ 33.382012, -9.534504 ], [ 33.370493, -9.524439 ], [ 33.356956, -9.520916 ], [ 33.347144, -9.507826 ], [ 33.328736, -9.491414 ], [ 33.308297, -9.488908 ], [ 33.292744, -9.492744 ], [ 33.281402, -9.500775 ], [ 33.26825, -9.4975 ], [ 33.260726, -9.488677 ], [ 33.255537, -9.486999 ], [ 33.226986, -9.495121 ], [ 33.22036, -9.503586 ], [ 33.209153, -9.508508 ], [ 33.198797, -9.506282 ], [ 33.186321, -9.497511 ], [ 33.152007, -9.493839 ], [ 33.12564, -9.481316 ], [ 33.111478, -9.465056 ], [ 33.103906, -9.462232 ], [ 33.095573, -9.454093 ], [ 33.079688, -9.449162 ], [ 33.069128, -9.441478 ], [ 33.047217, -9.419739 ], [ 33.027071, -9.407394 ], [ 33.010003, -9.37756 ], [ 33.003693, -9.371352 ], [ 32.997026, -9.368035 ], [ 32.989939, -9.36968 ], [ 32.967881, -9.389476 ], [ 32.967345, -9.395357 ], [ 32.95351, -9.40145 ], [ 32.926813, -9.397664 ], [ 32.911358, -9.380109 ], [ 32.90383, -9.389697 ], [ 32.896825, -9.389026 ], [ 32.893199, -9.383463 ], [ 32.891272, -9.366417 ], [ 32.865704, -9.373177 ], [ 32.826963, -9.353767 ], [ 32.810415, -9.343165 ], [ 32.799871, -9.328964 ], [ 32.790714, -9.322403 ], [ 32.783888, -9.318953 ], [ 32.769187, -9.317431 ], [ 32.760538, -9.296232 ], [ 32.745695, -9.281487 ], [ 32.710082, -9.27275 ], [ 32.662842, -9.274724 ], [ 32.648658, -9.27268 ], [ 32.617133, -9.25715 ], [ 32.585491, -9.246617 ], [ 32.57358, -9.246739 ], [ 32.541571, -9.25393 ], [ 32.534439, -9.238347 ], [ 32.487855, -9.173958 ], [ 32.492017, -9.152344 ], [ 32.464834, -9.13559 ], [ 32.447075, -9.131382 ], [ 32.431421, -9.118927 ], [ 32.358898, -9.12971 ], [ 32.266003, -9.133124 ], [ 32.242316, -9.124121 ], [ 32.226327, -9.111787 ], [ 32.207001, -9.102463 ], [ 32.171173, -9.075014 ], [ 32.166064, -9.068881 ], [ 32.160526, -9.062232 ], [ 32.143513, -9.063395 ], [ 32.122744, -9.060726 ], [ 32.091864, -9.051708 ], [ 32.061951, -9.051449 ], [ 32.018934, -9.061409 ], [ 32.012901, -9.068881 ], [ 31.998371, -9.075099 ], [ 31.984886, -9.071126 ], [ 31.981567, -9.068881 ], [ 31.962559, -9.053317 ], [ 31.953651, -9.037338 ], [ 31.938022, -9.018168 ], [ 31.938234, -9.005981 ], [ 31.93221, -8.980834 ], [ 31.946144, -8.942707 ], [ 31.944348, -8.936091 ], [ 31.894425, -8.913272 ], [ 31.817295, -8.890461 ], [ 31.784966, -8.890679 ], [ 31.771642, -8.893882 ], [ 31.758682, -8.902223 ], [ 31.74798, -8.914828 ], [ 31.73645, -8.920613 ], [ 31.724741, -8.915878 ], [ 31.705121, -8.916485 ], [ 31.680438, -8.90986 ], [ 31.657491, -8.880588 ], [ 31.611036, -8.857476 ], [ 31.586715, -8.839259 ], [ 31.579949, -8.829597 ], [ 31.571522, -8.808324 ], [ 31.57898, -8.784128 ], [ 31.581475, -8.747596 ], [ 31.562805, -8.701749 ], [ 31.551181, -8.690738 ], [ 31.534737, -8.683754 ], [ 31.489698, -8.681982 ], [ 31.471224, -8.65351 ], [ 31.457093, -8.640978 ], [ 31.416664, -8.638116 ], [ 31.401765, -8.6322 ], [ 31.372432, -8.589088 ], [ 31.364668, -8.590876 ], [ 31.362375, -8.605406 ], [ 31.350334, -8.614592 ], [ 31.336396, -8.613466 ], [ 31.32827, -8.615798 ], [ 31.316605, -8.610481 ], [ 31.291238, -8.629529 ], [ 31.277736, -8.630388 ], [ 31.267059, -8.624145 ], [ 31.252108, -8.601667 ], [ 31.237254, -8.597744 ], [ 31.225596, -8.589789 ], [ 31.212102, -8.588267 ], [ 31.190375, -8.596282 ], [ 31.178851, -8.611163 ], [ 31.150683, -8.630157 ], [ 31.135518, -8.632511 ], [ 31.102724, -8.629765 ], [ 31.080035, -8.622264 ], [ 31.031544, -8.594092 ], [ 31.003788, -8.568073 ], [ 30.878432, -8.408624 ], [ 30.811514, -8.316122 ], [ 30.776671, -8.229758 ], [ 30.771242, -8.192248 ], [ 30.75944, -8.145 ], [ 30.717972, -8.025879 ], [ 30.707223, -7.995 ], [ 30.696941, -7.970278 ], [ 30.668888, -7.915001 ], [ 30.650552, -7.880417 ], [ 30.617849, -7.834595 ], [ 30.592153, -7.798587 ], [ 30.577501, -7.778057 ], [ 30.50972, -7.679446 ], [ 30.494639, -7.65349 ], [ 30.471389, -7.613473 ], [ 30.455829, -7.580279 ], [ 30.439722, -7.530001 ], [ 30.43194, -7.485 ], [ 30.426111, -7.427778 ], [ 30.424361, -7.421116 ], [ 30.409443, -7.364306 ], [ 30.379166, -7.279723 ], [ 30.354443, -7.220278 ], [ 30.314998, -7.14375 ], [ 30.299861, -7.121568 ], [ 30.279472, -7.091688 ], [ 30.246667, -7.043612 ], [ 30.240272, -7.034721 ], [ 30.22134, -7.008397 ], [ 30.188332, -6.962501 ], [ 30.17208, -6.944168 ], [ 30.141666, -6.919168 ], [ 30.064854, -6.845767 ], [ 30.037153, -6.822639 ], [ 30.002499, -6.802222 ], [ 29.988535, -6.795029 ], [ 29.984166, -6.792778 ], [ 29.914721, -6.766111 ], [ 29.885417, -6.750834 ], [ 29.761386, -6.653889 ], [ 29.739164, -6.634585 ], [ 29.720416, -6.611807 ], [ 29.703888, -6.58639 ], [ 29.639959, -6.455017 ], [ 29.624844, -6.423956 ], [ 29.613052, -6.399723 ], [ 29.567222, -6.33125 ], [ 29.550279, -6.295279 ], [ 29.540833, -6.263056 ], [ 29.498332, -6.056389 ], [ 29.494999, -6.00889 ], [ 29.497776, -5.979723 ], [ 29.50472, -5.945834 ], [ 29.516388, -5.923056 ], [ 29.53833, -5.89 ], [ 29.57, -5.851945 ], [ 29.592082, -5.828472 ], [ 29.604772, -5.812294 ], [ 29.608751, -5.807222 ], [ 29.624844, -5.767566 ], [ 29.629999, -5.754862 ], [ 29.631666, -5.721944 ], [ 29.626112, -5.685557 ], [ 29.624844, -5.680841 ], [ 29.5975, -5.579167 ], [ 29.577576, -5.532418 ], [ 29.562222, -5.496389 ], [ 29.55099, -5.478012 ], [ 29.543887, -5.466389 ], [ 29.534442, -5.448056 ], [ 29.51361, -5.385556 ], [ 29.503801, -5.351382 ], [ 29.48722, -5.293611 ], [ 29.47611, -5.236666 ], [ 29.454305, -5.176668 ], [ 29.440331, -5.1599 ], [ 29.429998, -5.1475 ], [ 29.414165, -5.125279 ], [ 29.404867, -5.104775 ], [ 29.403333, -5.10139 ], [ 29.367285, -5.00643 ], [ 29.363052, -4.995278 ], [ 29.360977, -4.987474 ], [ 29.351385, -4.951389 ], [ 29.347914, -4.930417 ], [ 29.344245, -4.90183 ], [ 29.341942, -4.883889 ], [ 29.341901, -4.877463 ], [ 29.341575, -4.826715 ], [ 29.34139, -4.797779 ], [ 29.347774, -4.763334 ], [ 29.358747, -4.729723 ], [ 29.371804, -4.701667 ], [ 29.397778, -4.638055 ], [ 29.420277, -4.578334 ], [ 29.429722, -4.54507 ], [ 29.430275, -4.501112 ], [ 29.426941, -4.455833 ], [ 29.423334, -4.447501 ], [ 29.624844, -4.447949 ], [ 29.673716, -4.448057 ], [ 29.691403, -4.452373 ], [ 29.705974, -4.462783 ], [ 29.716973, -4.457348 ], [ 29.727719, -4.462522 ], [ 29.736239, -4.45704 ], [ 29.742011, -4.459251 ], [ 29.748645, -4.469148 ], [ 29.759261, -4.46738 ], [ 29.768294, -4.456093 ], [ 29.764589, -4.448138 ], [ 29.765579, -4.426502 ], [ 29.794231, -4.402438 ], [ 29.812801, -4.365545 ], [ 29.826935, -4.361277 ], [ 29.835334, -4.368131 ], [ 29.845386, -4.369645 ], [ 29.852015, -4.380661 ], [ 29.87052, -4.382165 ], [ 29.874249, -4.379295 ], [ 29.872097, -4.374748 ], [ 29.874036, -4.370888 ], [ 29.89277, -4.355238 ], [ 29.909161, -4.348814 ], [ 29.92822, -4.345942 ], [ 29.942107, -4.339048 ], [ 29.95054, -4.330127 ], [ 29.959366, -4.32712 ], [ 29.965586, -4.318507 ], [ 29.971444, -4.301793 ], [ 29.996452, -4.299007 ], [ 30.003647, -4.295158 ], [ 30.006324, -4.290558 ], [ 30.002717, -4.285878 ], [ 30.004202, -4.280515 ], [ 30.013295, -4.283183 ], [ 30.019326, -4.274551 ], [ 30.041837, -4.274968 ], [ 30.045969, -4.261668 ], [ 30.044612, -4.255674 ], [ 30.051443, -4.25792 ], [ 30.053172, -4.255297 ], [ 30.051469, -4.243271 ], [ 30.055785, -4.231591 ], [ 30.053264, -4.221882 ], [ 30.07124, -4.189253 ], [ 30.076995, -4.169286 ], [ 30.086173, -4.160859 ], [ 30.108418, -4.149824 ], [ 30.118083, -4.137969 ], [ 30.126823, -4.132959 ], [ 30.133801, -4.132766 ], [ 30.159797, -4.112513 ], [ 30.181678, -4.080558 ], [ 30.190189, -4.051813 ], [ 30.195709, -4.046754 ], [ 30.203994, -4.046779 ], [ 30.214538, -4.035758 ], [ 30.217298, -4.027674 ], [ 30.225558, -4.020858 ], [ 30.228959, -4.012075 ], [ 30.219285, -4.006237 ], [ 30.214806, -3.99063 ], [ 30.226737, -3.974104 ], [ 30.22922, -3.955469 ], [ 30.233487, -3.948835 ], [ 30.232389, -3.940367 ], [ 30.240272, -3.92924 ], [ 30.240272, -3.92733 ], [ 30.240272, -3.922141 ], [ 30.247511, -3.919477 ], [ 30.250311, -3.915244 ], [ 30.25852, -3.881541 ], [ 30.267938, -3.87544 ], [ 30.280197, -3.872247 ], [ 30.288435, -3.861651 ], [ 30.296054, -3.859063 ], [ 30.307719, -3.845504 ], [ 30.315171, -3.820358 ], [ 30.32337, -3.811389 ], [ 30.322448, -3.797904 ], [ 30.333704, -3.783631 ], [ 30.347247, -3.774205 ], [ 30.376422, -3.775204 ], [ 30.384995, -3.778624 ], [ 30.386219, -3.786391 ], [ 30.395976, -3.790116 ], [ 30.398226, -3.796196 ], [ 30.408879, -3.783864 ], [ 30.409413, -3.766385 ], [ 30.403467, -3.759337 ], [ 30.398105, -3.73266 ], [ 30.389445, -3.725134 ], [ 30.389135, -3.713985 ], [ 30.399696, -3.700843 ], [ 30.404603, -3.686766 ], [ 30.408528, -3.68614 ], [ 30.409165, -3.668537 ], [ 30.415369, -3.663537 ], [ 30.416593, -3.654099 ], [ 30.420532, -3.651236 ], [ 30.423293, -3.641146 ], [ 30.432298, -3.632891 ], [ 30.429864, -3.623292 ], [ 30.435091, -3.618909 ], [ 30.44262, -3.617507 ], [ 30.456383, -3.605553 ], [ 30.457097, -3.595063 ], [ 30.454206, -3.588585 ], [ 30.45624, -3.577613 ], [ 30.448092, -3.574455 ], [ 30.447629, -3.565519 ], [ 30.461278, -3.555449 ], [ 30.470477, -3.540938 ], [ 30.479425, -3.535551 ], [ 30.492592, -3.519996 ], [ 30.502572, -3.518644 ], [ 30.509557, -3.52276 ], [ 30.511405, -3.529208 ], [ 30.513996, -3.528986 ], [ 30.524823, -3.512456 ], [ 30.534617, -3.503746 ], [ 30.562776, -3.49441 ], [ 30.582692, -3.484475 ], [ 30.600026, -3.471534 ], [ 30.61965, -3.465319 ], [ 30.63531, -3.454377 ], [ 30.640219, -3.446614 ], [ 30.660382, -3.431831 ], [ 30.67178, -3.41854 ], [ 30.67622, -3.396547 ], [ 30.664569, -3.387773 ], [ 30.647633, -3.385085 ], [ 30.645966, -3.377524 ], [ 30.634965, -3.360923 ], [ 30.638745, -3.353343 ], [ 30.658555, -3.333813 ], [ 30.666317, -3.320634 ], [ 30.684871, -3.316789 ], [ 30.71848, -3.30287 ], [ 30.729523, -3.286855 ], [ 30.731065, -3.274361 ], [ 30.740265, -3.268224 ], [ 30.74485, -3.269415 ], [ 30.748752, -3.286312 ], [ 30.760117, -3.291359 ], [ 30.797442, -3.278145 ], [ 30.803272, -3.272722 ], [ 30.806717, -3.271412 ], [ 30.827945, -3.263341 ], [ 30.83475, -3.257764 ], [ 30.835991, -3.253426 ], [ 30.824831, -3.245356 ], [ 30.813646, -3.223986 ], [ 30.820386, -3.213592 ], [ 30.828261, -3.21317 ], [ 30.846005, -3.205877 ], [ 30.838212, -3.191668 ], [ 30.845018, -3.167732 ], [ 30.844416, -3.161484 ], [ 30.834048, -3.144581 ], [ 30.822067, -3.149895 ], [ 30.818715, -3.146982 ], [ 30.8283, -3.132009 ], [ 30.832963, -3.116861 ], [ 30.832036, -3.104601 ], [ 30.835674, -3.095602 ], [ 30.833513, -3.088979 ], [ 30.828967, -3.084634 ], [ 30.812072, -3.079877 ], [ 30.806717, -3.073864 ], [ 30.802972, -3.06966 ], [ 30.795516, -3.054203 ], [ 30.806717, -3.04677 ], [ 30.814083, -3.041881 ], [ 30.817006, -3.027999 ], [ 30.826194, -3.010405 ], [ 30.83587, -3.000133 ], [ 30.838231, -2.991216 ], [ 30.845063, -2.981676 ], [ 30.843981, -2.97886 ], [ 30.836356, -2.976614 ], [ 30.806717, -2.986757 ], [ 30.800802, -2.988781 ], [ 30.746768, -2.997288 ], [ 30.737204, -2.99124 ], [ 30.725282, -2.989714 ], [ 30.710104, -2.973775 ], [ 30.704231, -2.971824 ], [ 30.690955, -2.97686 ], [ 30.682289, -2.985782 ], [ 30.669685, -2.993107 ], [ 30.648874, -2.974981 ], [ 30.64576, -2.967421 ], [ 30.646243, -2.954262 ], [ 30.631732, -2.939056 ], [ 30.618547, -2.927511 ], [ 30.606464, -2.922054 ], [ 30.599026, -2.921752 ], [ 30.595421, -2.915495 ], [ 30.588945, -2.912773 ], [ 30.578914, -2.897272 ], [ 30.572713, -2.894712 ], [ 30.566954, -2.896386 ], [ 30.539911, -2.933016 ], [ 30.531708, -2.933015 ], [ 30.523665, -2.942172 ], [ 30.503418, -2.953244 ], [ 30.484705, -2.947271 ], [ 30.478775, -2.93483 ], [ 30.471415, -2.927038 ], [ 30.459428, -2.922214 ], [ 30.462909, -2.918196 ], [ 30.46005, -2.912371 ], [ 30.445753, -2.909218 ], [ 30.439558, -2.904772 ], [ 30.434152, -2.874968 ], [ 30.426611, -2.870157 ], [ 30.418404, -2.873657 ], [ 30.406918, -2.860594 ], [ 30.418909, -2.842384 ], [ 30.426561, -2.822687 ], [ 30.426695, -2.815315 ], [ 30.438925, -2.800406 ], [ 30.446481, -2.768966 ], [ 30.437493, -2.75719 ], [ 30.441381, -2.751817 ], [ 30.441343, -2.745753 ], [ 30.460764, -2.736061 ], [ 30.463239, -2.724846 ], [ 30.468226, -2.718533 ], [ 30.475885, -2.715752 ], [ 30.483575, -2.721009 ], [ 30.486114, -2.720031 ], [ 30.502353, -2.704231 ], [ 30.506159, -2.69609 ], [ 30.520198, -2.687703 ], [ 30.52858, -2.666855 ], [ 30.526279, -2.654882 ], [ 30.514001, -2.656456 ], [ 30.504421, -2.665016 ], [ 30.458643, -2.691205 ], [ 30.442759, -2.678947 ], [ 30.430748, -2.678553 ], [ 30.420457, -2.661444 ], [ 30.422981, -2.653657 ], [ 30.437912, -2.635034 ], [ 30.447109, -2.613004 ], [ 30.484011, -2.556377 ], [ 30.484402, -2.526661 ], [ 30.495215, -2.52291 ], [ 30.506931, -2.504734 ], [ 30.513918, -2.482528 ], [ 30.51978, -2.47326 ], [ 30.524838, -2.447702 ], [ 30.53612, -2.433436 ], [ 30.543254, -2.413237 ], [ 30.552717, -2.411869 ], [ 30.57295, -2.418487 ], [ 30.583806, -2.413738 ], [ 30.5927, -2.40452 ], [ 30.608522, -2.399659 ], [ 30.639676, -2.404125 ], [ 30.648583, -2.411299 ], [ 30.657675, -2.412644 ], [ 30.684804, -2.38864 ], [ 30.6952, -2.364835 ], [ 30.714636, -2.356167 ], [ 30.732632, -2.363693 ], [ 30.747016, -2.37888 ], [ 30.764112, -2.383217 ], [ 30.769093, -2.390696 ], [ 30.77667, -2.388035 ], [ 30.785145, -2.378239 ], [ 30.792469, -2.375121 ], [ 30.798363, -2.366252 ], [ 30.806717, -2.365536 ], [ 30.815748, -2.364761 ], [ 30.825979, -2.356763 ], [ 30.83578, -2.344088 ], [ 30.838626, -2.329535 ], [ 30.852723, -2.320384 ], [ 30.856685, -2.314173 ], [ 30.851018, -2.309661 ], [ 30.853362, -2.274497 ], [ 30.842796, -2.24072 ], [ 30.846351, -2.223333 ], [ 30.844757, -2.205806 ], [ 30.85291, -2.186642 ], [ 30.859943, -2.178223 ], [ 30.859722, -2.167848 ], [ 30.865181, -2.145652 ], [ 30.875839, -2.133694 ], [ 30.875439, -2.118501 ], [ 30.885537, -2.103815 ], [ 30.887228, -2.094312 ], [ 30.894634, -2.089642 ], [ 30.899301, -2.076346 ], [ 30.885873, -2.054472 ], [ 30.875922, -2.047185 ], [ 30.808039, -1.937447 ], [ 30.831397, -1.812913 ], [ 30.82189, -1.697895 ], [ 30.844761, -1.656449 ], [ 30.806717, -1.603765 ], [ 30.747086, -1.521188 ], [ 30.738045, -1.446973 ], [ 30.685259, -1.398373 ], [ 30.632346, -1.390789 ], [ 30.608403, -1.351989 ], [ 30.569695, -1.3367 ], [ 30.555842, -1.30731 ], [ 30.559791, -1.287728 ], [ 30.556761, -1.275013 ], [ 30.552304, -1.26945 ], [ 30.551083, -1.251172 ], [ 30.52382, -1.210935 ], [ 30.50905, -1.171425 ], [ 30.498221, -1.162579 ], [ 30.489201, -1.15959 ], [ 30.476956, -1.160346 ], [ 30.470658, -1.15492 ], [ 30.468579, -1.136524 ], [ 30.475907, -1.122037 ], [ 30.458962, -1.115788 ], [ 30.451817, -1.088989 ], [ 30.453446, -1.081651 ], [ 30.473515, -1.057411 ], [ 30.490327, -1.058581 ], [ 30.50887, -1.072051 ], [ 30.526855, -1.075459 ], [ 30.539401, -1.074855 ], [ 30.559406, -1.064755 ], [ 30.584777, -1.060935 ], [ 30.596835, -1.064957 ], [ 30.62612, -1.068144 ], [ 30.650314, -1.065481 ], [ 30.663461, -1.057873 ], [ 30.673868, -1.035931 ], [ 30.698197, -1.016035 ], [ 30.717982, -1.014014 ], [ 30.736621, -1.006731 ], [ 30.754384, -0.991131 ], [ 30.767077, -0.984888 ], [ 30.804638, -0.999895 ], [ 30.806717, -0.999895 ], [ 31.247767, -0.999895 ], [ 31.372687, -0.999895 ], [ 31.894425, -0.999895 ], [ 32.989939, -0.999895 ], [ 33.679224, -0.999894 ], [ 33.75, -0.999894 ], [ 33.933979, -0.999894 ], [ 34.024489, -1.000415 ], [ 34.034746, -1.015608 ], [ 34.037413, -1.029423 ], [ 34.045732, -1.038388 ], [ 34.056702, -1.038858 ], [ 34.079501, -1.025186 ], [ 34.098837, -1.033835 ], [ 35.163072, -1.633384 ], [ 37.509967, -2.954811 ], [ 37.638625, -3.039155 ], [ 37.671414, -3.065216 ], [ 37.709588, -3.308415 ], [ 37.685525, -3.324024 ], [ 37.680578, -3.354337 ], [ 37.661298, -3.36107 ], [ 37.647014, -3.378611 ], [ 37.637809, -3.383882 ], [ 37.619215, -3.401641 ], [ 37.586621, -3.438298 ], [ 37.584745, -3.456396 ], [ 37.604255, -3.463955 ], [ 37.618467, -3.479733 ], [ 37.615242, -3.497564 ], [ 37.608723, -3.508578 ], [ 37.613225, -3.52229 ], [ 37.627252, -3.524297 ], [ 37.638274, -3.521789 ], [ 37.657545, -3.507924 ], [ 37.665388, -3.505822 ], [ 37.686338, -3.514295 ], [ 37.705489, -3.528339 ], [ 37.725892, -3.52572 ], [ 37.738757, -3.531421 ], [ 37.746087, -3.544873 ], [ 37.760196, -3.613899 ], [ 37.776003, -3.642788 ], [ 37.78617, -3.678378 ], [ 38.037395, -3.853938 ], [ 38.288609, -4.029454 ], [ 38.512149, -4.185965 ], [ 38.723334, -4.333797 ], [ 38.829605, -4.408177 ], [ 38.834799, -4.411812 ], [ 39.189964, -4.660339 ], [ 39.20421, -4.670306 ], [ 39.193839, -4.674471 ], [ 39.185277, -4.686436 ], [ 39.186786, -4.718917 ], [ 39.182946, -4.727556 ], [ 39.170807, -4.741227 ], [ 39.172901, -4.766928 ], [ 39.161072, -4.782132 ], [ 39.157872, -4.810461 ], [ 39.160161, -4.815051 ], [ 39.1634, -4.813589 ], [ 39.163635, -4.799712 ], [ 39.167093, -4.792512 ], [ 39.173747, -4.796095 ], [ 39.181377, -4.807117 ], [ 39.193903, -4.810497 ], [ 39.204012, -4.80648 ], [ 39.209102, -4.797767 ], [ 39.212914, -4.797964 ], [ 39.217888, -4.807696 ], [ 39.217024, -4.816973 ], [ 39.202326, -4.82791 ], [ 39.197609, -4.839129 ], [ 39.201855, -4.8469 ], [ 39.210142, -4.848101 ], [ 39.210896, -4.855787 ], [ 39.203998, -4.871584 ], [ 39.193579, -4.8861 ], [ 39.188376, -4.90064 ], [ 39.179692, -4.911195 ], [ 39.176399, -4.899712 ], [ 39.181949, -4.873045 ], [ 39.176381, -4.865604 ], [ 39.174261, -4.851593 ], [ 39.166685, -4.837087 ], [ 39.157651, -4.833013 ], [ 39.151557, -4.835714 ], [ 39.155884, -4.855528 ], [ 39.148569, -4.879428 ], [ 39.145966, -4.899492 ], [ 39.137953, -4.914753 ], [ 39.126589, -4.927666 ], [ 39.139455, -4.957263 ], [ 39.13918, -4.969668 ], [ 39.133635, -4.987643 ], [ 39.142989, -5.006133 ], [ 39.128642, -5.021412 ], [ 39.105092, -5.029213 ], [ 39.092194, -5.056291 ], [ 39.102866, -5.064696 ], [ 39.123135, -5.063884 ], [ 39.129469, -5.104021 ], [ 39.096844, -5.150809 ], [ 39.095822, -5.167296 ], [ 39.088101, -5.184711 ], [ 39.075265, -5.197062 ], [ 39.061927, -5.222337 ], [ 39.049687, -5.235654 ], [ 39.05444, -5.23966 ], [ 39.079199, -5.22913 ], [ 39.083818, -5.23246 ], [ 39.071563, -5.264405 ], [ 39.059125, -5.309846 ], [ 39.027279, -5.392196 ], [ 39.017952, -5.405148 ], [ 38.996355, -5.415087 ], [ 38.982536, -5.429548 ], [ 38.99726, -5.465369 ], [ 38.994258, -5.481137 ], [ 38.974129, -5.527013 ], [ 38.967769, -5.548718 ], [ 38.953953, -5.556875 ], [ 38.92763, -5.621184 ], [ 38.915002, -5.634648 ], [ 38.897702, -5.640481 ], [ 38.873953, -5.6608 ], [ 38.874921, -5.666995 ], [ 38.881899, -5.667705 ], [ 38.898923, -5.650938 ], [ 38.901713, -5.651182 ], [ 38.895004, -5.678411 ], [ 38.893345, -5.712847 ], [ 38.844825, -5.798394 ], [ 38.826746, -5.839284 ], [ 38.820262, -5.873784 ], [ 38.821857, -5.908864 ], [ 38.819822, -5.927772 ], [ 38.801296, -5.965096 ], [ 38.782434, -6.022854 ], [ 38.785079, -6.080142 ], [ 38.79885, -6.091211 ], [ 38.821983, -6.120076 ], [ 38.840229, -6.150061 ], [ 38.856548, -6.160619 ], [ 38.861354, -6.171977 ], [ 38.863528, -6.221278 ], [ 38.853008, -6.250948 ], [ 38.843525, -6.306096 ], [ 38.845394, -6.338656 ], [ 38.86034, -6.367737 ], [ 38.864263, -6.381886 ], [ 38.897695, -6.408281 ], [ 38.906993, -6.43259 ], [ 38.921433, -6.449143 ], [ 38.955327, -6.466799 ], [ 39.001035, -6.48094 ], [ 39.02064, -6.494373 ], [ 39.048735, -6.499498 ], [ 39.060888, -6.513321 ], [ 39.080681, -6.514228 ], [ 39.082201, -6.518131 ], [ 39.077371, -6.52432 ], [ 39.078919, -6.534261 ], [ 39.09441, -6.538789 ], [ 39.120007, -6.563514 ], [ 39.153053, -6.583613 ], [ 39.17783, -6.621985 ], [ 39.199819, -6.63825 ], [ 39.21644, -6.662205 ], [ 39.239206, -6.733592 ], [ 39.247861, -6.749118 ], [ 39.262699, -6.756659 ], [ 39.27236, -6.75026 ], [ 39.277781, -6.739764 ], [ 39.284677, -6.743826 ], [ 39.287051, -6.753477 ], [ 39.284266, -6.791735 ], [ 39.29681, -6.814877 ], [ 39.290779, -6.826264 ], [ 39.297381, -6.848861 ], [ 39.295896, -6.862481 ], [ 39.299803, -6.860284 ], [ 39.303617, -6.851124 ], [ 39.300474, -6.826786 ], [ 39.314787, -6.81886 ], [ 39.343525, -6.830168 ], [ 39.358062, -6.844955 ], [ 39.371035, -6.852122 ], [ 39.391792, -6.851671 ], [ 39.412946, -6.861172 ], [ 39.430979, -6.865487 ], [ 39.476005, -6.870381 ], [ 39.494771, -6.89681 ], [ 39.505889, -6.938717 ], [ 39.520888, -6.968311 ], [ 39.532736, -6.983453 ], [ 39.545281, -6.991489 ], [ 39.549233, -7.013024 ], [ 39.540389, -7.1145 ], [ 39.524673, -7.13416 ], [ 39.520888, -7.147254 ], [ 39.513508, -7.172786 ], [ 39.501266, -7.180664 ], [ 39.481353, -7.166865 ], [ 39.453708, -7.176539 ], [ 39.444601, -7.166536 ], [ 39.438277, -7.166381 ], [ 39.42751, -7.15633 ], [ 39.421358, -7.157494 ], [ 39.409601, -7.166809 ], [ 39.403389, -7.162112 ], [ 39.402212, -7.168906 ], [ 39.406976, -7.17547 ], [ 39.424113, -7.168347 ], [ 39.427409, -7.186047 ], [ 39.41183, -7.207677 ], [ 39.410227, -7.217451 ], [ 39.409323, -7.222958 ], [ 39.395096, -7.234495 ], [ 39.388265, -7.247865 ], [ 39.373041, -7.252483 ], [ 39.374852, -7.265363 ], [ 39.358482, -7.281971 ], [ 39.353398, -7.303045 ], [ 39.338949, -7.319769 ], [ 39.328204, -7.349477 ], [ 39.334669, -7.354729 ], [ 39.334324, -7.373891 ], [ 39.340345, -7.390586 ], [ 39.348436, -7.396454 ], [ 39.347602, -7.402096 ], [ 39.33182, -7.407997 ], [ 39.318127, -7.409023 ], [ 39.296984, -7.403609 ], [ 39.291097, -7.404822 ], [ 39.308707, -7.423595 ], [ 39.31591, -7.440859 ], [ 39.300554, -7.497543 ], [ 39.29395, -7.506832 ], [ 39.295227, -7.523629 ], [ 39.280916, -7.567063 ], [ 39.273052, -7.599426 ], [ 39.2704, -7.610338 ], [ 39.270304, -7.634604 ], [ 39.273052, -7.644101 ], [ 39.276404, -7.655686 ], [ 39.281992, -7.674871 ], [ 39.28103, -7.687729 ], [ 39.285889, -7.713857 ], [ 39.273937, -7.73118 ], [ 39.284006, -7.759574 ], [ 39.28423, -7.77358 ], [ 39.275085, -7.781484 ], [ 39.273052, -7.779586 ], [ 39.262713, -7.769935 ], [ 39.253478, -7.772744 ], [ 39.259975, -7.782055 ], [ 39.259988, -7.792374 ], [ 39.256421, -7.796505 ], [ 39.24257, -7.799681 ], [ 39.24109, -7.813396 ], [ 39.234913, -7.823143 ], [ 39.234218, -7.839175 ], [ 39.2198, -7.852958 ], [ 39.21816, -7.861072 ], [ 39.220355, -7.863843 ], [ 39.230554, -7.865904 ], [ 39.24311, -7.875349 ], [ 39.264495, -7.875376 ], [ 39.273052, -7.867027 ], [ 39.283527, -7.864839 ], [ 39.308098, -7.879263 ], [ 39.324565, -7.881178 ], [ 39.34566, -7.870534 ], [ 39.35245, -7.854541 ], [ 39.358756, -7.856432 ], [ 39.36645, -7.854632 ], [ 39.367655, -7.861684 ], [ 39.362741, -7.878976 ], [ 39.37527, -7.89275 ], [ 39.379869, -7.907316 ], [ 39.374582, -7.928381 ], [ 39.392011, -7.938251 ], [ 39.405635, -7.960282 ], [ 39.399175, -7.987868 ], [ 39.389588, -8.006906 ], [ 39.387754, -8.020317 ], [ 39.381746, -8.034465 ], [ 39.389373, -8.041196 ], [ 39.402475, -8.043793 ], [ 39.406204, -8.05244 ], [ 39.397199, -8.062229 ], [ 39.375023, -8.05725 ], [ 39.365735, -8.063214 ], [ 39.372724, -8.073295 ], [ 39.369887, -8.085619 ], [ 39.381324, -8.090475 ], [ 39.389925, -8.09806 ], [ 39.392041, -8.122135 ], [ 39.38564, -8.133849 ], [ 39.37938, -8.133787 ], [ 39.37356, -8.124537 ], [ 39.36492, -8.127547 ], [ 39.35257, -8.114663 ], [ 39.326354, -8.112344 ], [ 39.319229, -8.118757 ], [ 39.321046, -8.129565 ], [ 39.339365, -8.151141 ], [ 39.339526, -8.154729 ], [ 39.329709, -8.165632 ], [ 39.321908, -8.157262 ], [ 39.317596, -8.156452 ], [ 39.319826, -8.17076 ], [ 39.309747, -8.195859 ], [ 39.306541, -8.192791 ], [ 39.3046, -8.181854 ], [ 39.29496, -8.184227 ], [ 39.286621, -8.175231 ], [ 39.279919, -8.191749 ], [ 39.273052, -8.198167 ], [ 39.258785, -8.20323 ], [ 39.235895, -8.199848 ], [ 39.232204, -8.20389 ], [ 39.250268, -8.211572 ], [ 39.25332, -8.227735 ], [ 39.261633, -8.23421 ], [ 39.251841, -8.244443 ], [ 39.24342, -8.248803 ], [ 39.244587, -8.257154 ], [ 39.237463, -8.276194 ], [ 39.247139, -8.298084 ], [ 39.250099, -8.316638 ], [ 39.261489, -8.328368 ], [ 39.264783, -8.341332 ], [ 39.272083, -8.347344 ], [ 39.273052, -8.355756 ], [ 39.276601, -8.353515 ], [ 39.278439, -8.35508 ], [ 39.276684, -8.360219 ], [ 39.283177, -8.367006 ], [ 39.28783, -8.379701 ], [ 39.27801, -8.449375 ], [ 39.280398, -8.456415 ], [ 39.293371, -8.494648 ], [ 39.290126, -8.516242 ], [ 39.285195, -8.528774 ], [ 39.288864, -8.547038 ], [ 39.279805, -8.565672 ], [ 39.293627, -8.576594 ], [ 39.303484, -8.565833 ], [ 39.312309, -8.565331 ], [ 39.324634, -8.58589 ], [ 39.345497, -8.60838 ], [ 39.349404, -8.607079 ], [ 39.35052, -8.59662 ], [ 39.353282, -8.596776 ], [ 39.362896, -8.623254 ], [ 39.358397, -8.672092 ], [ 39.367477, -8.705154 ], [ 39.368005, -8.717719 ], [ 39.405048, -8.741139 ], [ 39.432252, -8.748973 ], [ 39.443034, -8.769901 ], [ 39.446975, -8.793704 ], [ 39.455729, -8.803939 ], [ 39.46064, -8.815258 ], [ 39.478019, -8.8326 ], [ 39.493703, -8.824354 ], [ 39.499416, -8.825073 ], [ 39.502698, -8.846758 ], [ 39.51385, -8.881215 ], [ 39.518551, -8.895739 ], [ 39.520888, -8.898736 ], [ 39.551592, -8.922066 ], [ 39.544572, -8.928608 ], [ 39.520888, -8.93165 ], [ 39.510397, -8.936886 ], [ 39.498825, -8.913348 ], [ 39.476082, -8.88617 ], [ 39.463333, -8.87884 ], [ 39.457236, -8.869875 ], [ 39.435116, -8.866007 ], [ 39.422987, -8.858914 ], [ 39.412852, -8.859559 ], [ 39.399514, -8.841189 ], [ 39.389398, -8.837176 ], [ 39.38592, -8.840619 ], [ 39.386892, -8.852912 ], [ 39.377302, -8.859242 ], [ 39.373734, -8.865699 ], [ 39.376528, -8.87759 ], [ 39.382167, -8.885514 ], [ 39.380858, -8.893688 ], [ 39.384522, -8.904688 ], [ 39.377338, -8.915502 ], [ 39.375303, -8.925707 ], [ 39.367892, -8.928314 ], [ 39.354048, -8.92119 ], [ 39.35424, -8.938531 ], [ 39.335269, -8.953786 ], [ 39.338635, -8.957776 ], [ 39.347874, -8.959801 ], [ 39.352738, -8.978057 ], [ 39.358875, -8.98204 ], [ 39.364372, -8.980581 ], [ 39.366206, -8.985847 ], [ 39.372305, -8.977199 ], [ 39.377649, -8.954903 ], [ 39.394926, -8.936881 ], [ 39.408701, -8.932712 ], [ 39.411849, -8.923435 ], [ 39.424877, -8.924822 ], [ 39.430037, -8.912913 ], [ 39.443815, -8.909638 ], [ 39.45049, -8.911859 ], [ 39.432804, -8.934569 ], [ 39.40654, -8.948009 ], [ 39.398314, -8.979392 ], [ 39.408653, -8.980732 ], [ 39.426011, -8.968717 ], [ 39.444647, -8.972393 ], [ 39.457026, -8.956988 ], [ 39.463071, -8.953527 ], [ 39.469905, -8.954195 ], [ 39.477233, -8.960858 ], [ 39.485308, -9.000072 ], [ 39.492426, -9.015584 ], [ 39.491729, -9.027186 ], [ 39.48516, -9.035287 ], [ 39.474372, -9.040203 ], [ 39.456635, -9.040378 ], [ 39.454393, -9.055569 ], [ 39.442963, -9.063681 ], [ 39.44059, -9.068316 ], [ 39.445917, -9.072098 ], [ 39.461922, -9.067594 ], [ 39.478695, -9.054596 ], [ 39.501581, -9.065874 ], [ 39.499668, -9.070983 ], [ 39.482311, -9.084444 ], [ 39.477744, -9.09245 ], [ 39.479696, -9.101366 ], [ 39.491721, -9.113379 ], [ 39.491582, -9.119693 ], [ 39.484288, -9.121715 ], [ 39.469083, -9.115606 ], [ 39.461378, -9.119714 ], [ 39.471058, -9.13697 ], [ 39.469167, -9.154944 ], [ 39.473395, -9.166564 ], [ 39.492811, -9.154125 ], [ 39.500768, -9.155917 ], [ 39.498372, -9.163613 ], [ 39.484103, -9.174176 ], [ 39.479026, -9.181804 ], [ 39.481278, -9.187991 ], [ 39.488727, -9.192912 ], [ 39.488802, -9.204786 ], [ 39.493362, -9.212122 ], [ 39.49678, -9.212969 ], [ 39.500919, -9.209421 ], [ 39.505942, -9.184621 ], [ 39.51107, -9.176079 ], [ 39.516406, -9.174539 ], [ 39.520888, -9.178821 ], [ 39.525427, -9.184558 ], [ 39.529752, -9.183682 ], [ 39.530808, -9.161009 ], [ 39.521588, -9.147529 ], [ 39.520888, -9.144133 ], [ 39.520888, -9.138512 ], [ 39.5308, -9.123843 ], [ 39.531, -9.108524 ], [ 39.552534, -9.097402 ], [ 39.566162, -9.100506 ], [ 39.576157, -9.108812 ], [ 39.601113, -9.154402 ], [ 39.614035, -9.163805 ], [ 39.627525, -9.168033 ], [ 39.633752, -9.176312 ], [ 39.639788, -9.232049 ], [ 39.629036, -9.253 ], [ 39.645857, -9.278178 ], [ 39.647945, -9.316498 ], [ 39.65398, -9.351408 ], [ 39.649494, -9.368387 ], [ 39.625338, -9.385198 ], [ 39.606994, -9.402945 ], [ 39.596986, -9.405647 ], [ 39.582205, -9.39961 ], [ 39.565164, -9.382444 ], [ 39.548064, -9.378526 ], [ 39.542117, -9.369241 ], [ 39.540263, -9.356526 ], [ 39.534979, -9.34808 ], [ 39.530399, -9.344722 ], [ 39.52225, -9.344924 ], [ 39.520888, -9.346301 ], [ 39.514124, -9.353147 ], [ 39.520888, -9.362615 ], [ 39.531365, -9.377278 ], [ 39.523246, -9.385557 ], [ 39.520888, -9.392871 ], [ 39.517026, -9.404849 ], [ 39.520888, -9.406077 ], [ 39.538634, -9.400436 ], [ 39.562031, -9.402167 ], [ 39.560294, -9.422382 ], [ 39.554034, -9.436263 ], [ 39.555123, -9.439886 ], [ 39.570054, -9.435802 ], [ 39.591493, -9.443197 ], [ 39.600586, -9.429154 ], [ 39.61483, -9.425009 ], [ 39.625719, -9.427154 ], [ 39.650537, -9.456398 ], [ 39.650606, -9.481139 ], [ 39.679917, -9.494892 ], [ 39.689455, -9.505314 ], [ 39.699906, -9.524528 ], [ 39.705261, -9.551092 ], [ 39.728331, -9.600358 ], [ 39.725775, -9.632361 ], [ 39.74557, -9.657661 ], [ 39.741031, -9.68758 ], [ 39.751715, -9.70902 ], [ 39.746334, -9.715624 ], [ 39.725834, -9.726203 ], [ 39.723531, -9.73574 ], [ 39.72935, -9.741118 ], [ 39.744009, -9.742455 ], [ 39.756481, -9.748972 ], [ 39.763545, -9.78027 ], [ 39.790401, -9.79832 ], [ 39.803191, -9.820154 ], [ 39.807136, -9.837984 ], [ 39.80638, -9.857401 ], [ 39.798024, -9.883176 ], [ 39.78421, -9.897095 ], [ 39.787373, -9.912974 ], [ 39.785835, -9.923221 ], [ 39.770881, -9.933462 ], [ 39.749753, -9.935751 ], [ 39.719273, -9.953195 ], [ 39.709446, -9.968338 ], [ 39.714314, -9.987935 ], [ 39.719027, -9.992193 ], [ 39.725774, -9.993331 ], [ 39.74447, -9.981237 ], [ 39.756989, -9.977621 ], [ 39.809898, -9.983273 ], [ 39.836534, -10.008122 ], [ 39.872254, -10.017378 ], [ 39.903598, -10.03997 ], [ 39.918396, -10.056955 ], [ 39.943969, -10.099579 ], [ 39.969763, -10.127951 ], [ 39.962505, -10.150821 ], [ 39.974502, -10.166616 ], [ 39.977615, -10.177139 ], [ 39.966261, -10.201568 ], [ 39.964417, -10.224911 ], [ 39.9724, -10.222071 ], [ 39.976905, -10.210851 ], [ 39.981338, -10.208053 ], [ 39.99679, -10.216337 ], [ 40.004379, -10.229986 ], [ 40.007572, -10.23043 ], [ 40.003937, -10.214986 ], [ 39.991412, -10.200411 ], [ 39.991812, -10.170659 ], [ 39.976742, -10.147131 ], [ 39.982757, -10.134955 ], [ 39.996885, -10.131539 ], [ 40.07539, -10.1603 ], [ 40.112228, -10.17062 ], [ 40.129482, -10.183047 ], [ 40.133012, -10.19577 ], [ 40.124973, -10.217075 ], [ 40.12677, -10.249232 ], [ 40.117738, -10.256644 ], [ 40.113891, -10.266954 ], [ 40.118883, -10.276598 ], [ 40.12606, -10.276427 ], [ 40.131376, -10.269171 ], [ 40.13529, -10.268187 ], [ 40.155075, -10.289709 ], [ 40.158354, -10.284675 ], [ 40.156482, -10.273288 ], [ 40.158754, -10.266414 ], [ 40.184659, -10.257596 ], [ 40.209001, -10.277168 ], [ 40.21741, -10.297144 ], [ 40.232462, -10.313593 ], [ 40.234597, -10.304968 ], [ 40.226039, -10.289613 ], [ 40.233803, -10.285765 ], [ 40.235289, -10.279044 ], [ 40.253105, -10.27976 ], [ 40.265443, -10.284889 ], [ 40.267407, -10.283001 ], [ 40.255273, -10.264922 ], [ 40.225003, -10.251441 ], [ 40.202389, -10.249809 ], [ 40.207477, -10.238833 ], [ 40.232672, -10.21548 ], [ 40.249805, -10.247087 ], [ 40.265447, -10.259847 ], [ 40.291442, -10.273828 ], [ 40.307727, -10.303965 ], [ 40.321249, -10.339846 ], [ 40.332322, -10.353338 ], [ 40.386902, -10.362176 ], [ 40.403139, -10.356797 ], [ 40.411442, -10.346395 ], [ 40.410789, -10.33612 ], [ 40.391197, -10.317292 ], [ 40.399647, -10.303814 ], [ 40.410519, -10.305763 ], [ 40.424433, -10.321065 ], [ 40.441285, -10.355183 ], [ 40.437275, -10.364722 ], [ 40.423326, -10.373494 ], [ 40.417772, -10.381402 ], [ 40.425705, -10.46743 ], [ 40.418303, -10.482786 ], [ 40.394424, -10.510723 ], [ 40.385587, -10.516265 ], [ 40.372816, -10.531758 ], [ 40.369594, -10.549506 ], [ 40.358262, -10.572439 ], [ 40.338349, -10.572475 ], [ 40.324658, -10.568611 ], [ 40.308154, -10.570581 ], [ 40.296454, -10.567593 ], [ 40.281576, -10.580611 ], [ 40.259292, -10.587096 ], [ 40.246251, -10.596106 ], [ 40.235979, -10.596477 ], [ 40.230488, -10.604707 ], [ 40.214844, -10.612571 ], [ 40.208462, -10.623643 ], [ 40.211213, -10.63239 ], [ 40.201411, -10.644807 ], [ 40.180765, -10.649897 ], [ 40.177288, -10.654412 ], [ 40.175082, -10.66671 ], [ 40.16504, -10.675171 ], [ 40.136309, -10.689588 ], [ 40.097586, -10.725383 ], [ 40.069842, -10.742848 ], [ 40.054625, -10.757675 ], [ 40.042517, -10.76509 ], [ 40.041035, -10.769106 ], [ 40.038954, -10.774746 ], [ 40.018786, -10.794416 ], [ 40.007994, -10.800359 ], [ 40.000739, -10.8091 ], [ 39.990612, -10.811321 ], [ 39.967118, -10.813794 ], [ 39.944658, -10.823924 ], [ 39.931813, -10.823658 ], [ 39.927751, -10.823574 ], [ 39.923664, -10.827455 ], [ 39.921287, -10.829712 ], [ 39.909748, -10.830307 ], [ 39.882956, -10.844592 ], [ 39.881056, -10.845604 ], [ 39.867088, -10.849249 ], [ 39.857294, -10.857278 ], [ 39.848605, -10.864399 ], [ 39.83796, -10.875582 ], [ 39.828624, -10.876485 ], [ 39.820777, -10.881695 ], [ 39.808773, -10.899709 ], [ 39.793671, -10.897154 ], [ 39.772496, -10.909452 ], [ 39.760956, -10.910977 ], [ 39.750185, -10.91896 ], [ 39.728489, -10.919459 ], [ 39.704674, -10.931756 ], [ 39.689691, -10.933627 ], [ 39.677945, -10.935094 ], [ 39.665555, -10.939877 ], [ 39.620627, -10.944973 ], [ 39.595478, -10.954045 ], [ 39.577728, -10.969406 ], [ 39.546887, -10.973356 ], [ 39.523267, -10.98108 ], [ 39.520888, -10.983405 ], [ 39.515776, -10.988401 ], [ 39.514505, -10.991161 ], [ 39.508875, -11.003383 ], [ 39.492852, -11.008884 ], [ 39.469645, -11.021849 ], [ 39.469184, -11.030788 ], [ 39.464589, -11.035042 ], [ 39.447006, -11.039897 ], [ 39.42846, -11.052645 ], [ 39.418358, -11.055177 ], [ 39.409622, -11.061904 ], [ 39.404077, -11.071942 ], [ 39.378794, -11.073153 ], [ 39.354211, -11.084323 ], [ 39.33025, -11.102424 ], [ 39.317038, -11.125368 ], [ 39.308121, -11.125021 ], [ 39.299067, -11.132245 ], [ 39.291625, -11.14158 ], [ 39.273052, -11.156256 ], [ 39.240401, -11.17331 ], [ 39.195478, -11.166687 ], [ 39.183106, -11.1568 ], [ 39.164119, -11.146997 ], [ 39.154014, -11.148683 ], [ 39.123309, -11.144097 ], [ 39.078269, -11.157895 ], [ 39.056908, -11.158357 ], [ 39.033348, -11.169049 ], [ 39.019975, -11.166916 ], [ 39.007667, -11.1685 ], [ 38.99614, -11.163407 ], [ 38.971402, -11.17147 ], [ 38.949929, -11.171879 ], [ 38.934467, -11.165097 ], [ 38.884112, -11.171759 ], [ 38.86451, -11.183886 ], [ 38.85892, -11.198285 ], [ 38.837906, -11.216574 ], [ 38.818035, -11.225997 ], [ 38.801443, -11.238402 ], [ 38.77562, -11.245027 ], [ 38.764846, -11.260305 ], [ 38.751833, -11.27128 ], [ 38.71212, -11.26611 ], [ 38.683154, -11.275347 ], [ 38.6607, -11.274009 ], [ 38.63454, -11.288103 ], [ 38.59444, -11.321565 ], [ 38.585263, -11.337018 ], [ 38.569846, -11.342802 ], [ 38.526134, -11.373243 ], [ 38.490419, -11.416597 ], [ 38.4855, -11.4189 ], [ 38.462921, -11.419379 ], [ 38.448618, -11.409007 ], [ 38.437276, -11.395825 ], [ 38.368919, -11.376459 ], [ 38.361519, -11.369064 ], [ 38.355367, -11.351278 ], [ 38.344525, -11.34678 ], [ 38.322201, -11.328625 ], [ 38.313624, -11.326474 ], [ 38.291211, -11.329758 ], [ 38.283345, -11.32753 ], [ 38.277489, -11.304092 ], [ 38.268451, -11.291159 ], [ 38.254261, -11.288828 ], [ 38.232929, -11.278389 ], [ 38.22175, -11.278326 ], [ 38.207063, -11.273739 ], [ 38.185048, -11.278203 ], [ 38.16085, -11.270694 ], [ 38.145255, -11.273313 ], [ 38.112488, -11.256991 ], [ 38.093414, -11.261409 ], [ 38.078242, -11.27169 ], [ 38.062805, -11.275957 ], [ 38.042038, -11.270878 ], [ 38.037395, -11.270956 ], [ 38.017039, -11.271297 ], [ 38.007509, -11.264759 ], [ 37.9959, -11.262335 ], [ 37.967171, -11.270885 ], [ 37.960894, -11.269534 ], [ 37.955045, -11.263339 ], [ 37.946363, -11.259607 ], [ 37.930414, -11.260212 ], [ 37.911748, -11.266799 ], [ 37.897422, -11.27812 ], [ 37.886399, -11.279103 ], [ 37.874018, -11.284818 ], [ 37.856397, -11.305367 ], [ 37.831669, -11.31122 ], [ 37.82703, -11.369922 ], [ 37.816876, -11.37994 ], [ 37.813944, -11.392991 ], [ 37.80572, -11.409851 ], [ 37.788033, -11.423699 ], [ 37.77867, -11.453966 ], [ 37.780343, -11.467702 ], [ 37.787833, -11.481359 ], [ 37.784282, -11.507974 ], [ 37.760196, -11.535985 ], [ 37.754323, -11.542814 ], [ 37.733617, -11.554472 ], [ 37.690243, -11.565266 ], [ 37.657593, -11.577599 ], [ 37.620217, -11.611062 ], [ 37.583089, -11.625721 ], [ 37.528639, -11.614719 ], [ 37.51727, -11.617426 ], [ 37.499778, -11.615533 ], [ 37.482404, -11.626702 ], [ 37.442771, -11.639245 ], [ 37.42599, -11.65924 ], [ 37.417475, -11.682727 ], [ 37.384166, -11.690257 ], [ 37.362757, -11.680817 ], [ 37.332367, -11.675024 ], [ 37.318576, -11.663856 ], [ 37.30109, -11.64241 ], [ 37.280147, -11.63582 ], [ 37.261976, -11.636276 ], [ 37.221415, -11.654263 ], [ 37.156641, -11.631764 ], [ 37.130505, -11.632808 ], [ 37.109197, -11.624036 ], [ 37.096831, -11.627436 ], [ 37.085087, -11.625922 ], [ 37.05071, -11.597154 ], [ 37.025106, -11.585906 ], [ 37.010861, -11.585937 ], [ 36.985954, -11.580628 ], [ 36.955239, -11.597304 ], [ 36.938099, -11.597388 ], [ 36.926441, -11.603955 ], [ 36.91644, -11.60411 ], [ 36.900996, -11.598112 ], [ 36.890006, -11.58948 ], [ 36.878897, -11.595027 ], [ 36.872028, -11.594664 ], [ 36.859616, -11.58514 ], [ 36.839044, -11.583366 ], [ 36.824941, -11.571972 ], [ 36.81456, -11.570082 ], [ 36.801232, -11.576525 ], [ 36.792384, -11.611055 ], [ 36.778543, -11.62749 ], [ 36.769045, -11.644298 ], [ 36.713291, -11.676632 ], [ 36.697625, -11.695754 ], [ 36.68441, -11.706733 ], [ 36.633943, -11.734358 ], [ 36.623138, -11.734593 ], [ 36.591375, -11.705284 ], [ 36.575197, -11.700493 ], [ 36.564879, -11.710399 ], [ 36.554624, -11.728142 ], [ 36.538876, -11.739716 ], [ 36.53582, -11.743403 ], [ 36.523841, -11.757857 ], [ 36.51696, -11.759593 ], [ 36.507858, -11.7526 ], [ 36.506016, -11.743403 ], [ 36.504896, -11.737814 ], [ 36.515651, -11.699719 ], [ 36.502294, -11.686686 ], [ 36.487376, -11.681311 ], [ 36.472609, -11.680319 ], [ 36.43091, -11.684343 ], [ 36.416943, -11.68198 ], [ 36.401384, -11.688325 ], [ 36.386522, -11.67959 ], [ 36.372044, -11.692232 ], [ 36.364066, -11.705221 ], [ 36.356152, -11.712072 ], [ 36.328276, -11.708251 ], [ 36.316255, -11.71712 ], [ 36.29572, -11.720842 ], [ 36.282994, -11.715749 ], [ 36.276676, -11.697688 ], [ 36.269909, -11.691867 ], [ 36.248504, -11.698343 ], [ 36.238604, -11.697979 ], [ 36.226661, -11.705275 ], [ 36.215911, -11.706301 ], [ 36.192344, -11.682373 ], [ 36.183746, -11.661889 ], [ 36.182966, -11.63665 ], [ 36.187706, -11.617932 ], [ 36.187447, -11.602824 ], [ 36.198786, -11.582707 ], [ 36.193496, -11.574914 ], [ 36.177995, -11.56678 ], [ 36.185177, -11.559827 ], [ 36.18194, -11.547514 ], [ 36.177202, -11.549382 ], [ 36.164986, -11.569212 ], [ 36.154358, -11.569731 ], [ 36.147023, -11.560994 ], [ 36.135954, -11.557561 ], [ 36.130377, -11.55167 ], [ 36.126308, -11.542758 ], [ 36.129278, -11.532967 ], [ 36.127684, -11.519695 ], [ 36.117272, -11.51228 ], [ 36.111628, -11.514327 ], [ 36.10766, -11.524936 ], [ 36.100105, -11.531341 ], [ 36.076449, -11.539941 ], [ 36.064807, -11.540099 ], [ 36.052226, -11.515767 ], [ 36.043077, -11.505958 ], [ 36.03904, -11.493573 ], [ 36.00563, -11.484086 ], [ 35.99193, -11.473805 ], [ 35.984686, -11.459226 ], [ 35.975333, -11.461348 ], [ 35.967027, -11.45402 ], [ 35.964985, -11.457251 ], [ 35.966205, -11.466562 ], [ 35.959932, -11.465832 ], [ 35.951821, -11.436148 ], [ 35.944852, -11.425085 ], [ 35.930992, -11.437821 ], [ 35.913269, -11.437277 ], [ 35.883785, -11.426257 ], [ 35.866061, -11.430717 ], [ 35.857982, -11.429337 ], [ 35.852486, -11.425469 ], [ 35.850432, -11.416541 ], [ 35.844452, -11.412593 ], [ 35.829603, -11.412152 ], [ 35.812582, -11.4203 ], [ 35.812705, -11.428408 ], [ 35.805107, -11.431347 ], [ 35.799659, -11.440596 ], [ 35.794184, -11.442587 ], [ 35.793137, -11.449566 ], [ 35.78752, -11.45077 ], [ 35.776254, -11.467423 ], [ 35.769195, -11.461801 ], [ 35.767717, -11.470843 ], [ 35.755718, -11.469426 ], [ 35.746126, -11.47306 ], [ 35.738258, -11.470663 ], [ 35.732864, -11.476898 ], [ 35.720751, -11.475686 ], [ 35.7142, -11.477772 ], [ 35.713643, -11.487399 ], [ 35.706278, -11.495531 ], [ 35.712018, -11.500206 ], [ 35.710633, -11.50556 ], [ 35.699424, -11.509041 ], [ 35.692991, -11.524064 ], [ 35.681965, -11.533007 ], [ 35.669615, -11.536953 ], [ 35.655736, -11.547127 ], [ 35.64493, -11.560903 ], [ 35.632273, -11.554044 ], [ 35.595179, -11.559446 ], [ 35.576151, -11.550472 ], [ 35.566456, -11.562467 ], [ 35.551436, -11.566936 ], [ 35.543038, -11.560602 ], [ 35.537512, -11.563471 ], [ 35.52826, -11.559885 ], [ 35.522551, -11.567332 ], [ 35.52542, -11.576213 ], [ 35.51415, -11.581259 ], [ 35.505772, -11.578611 ], [ 35.500672, -11.561948 ], [ 35.480235, -11.560284 ], [ 35.475497, -11.56327 ], [ 35.479809, -11.572347 ], [ 35.476347, -11.576975 ], [ 35.463784, -11.580105 ], [ 35.447093, -11.575114 ], [ 35.439939, -11.582671 ], [ 35.422127, -11.580084 ], [ 35.42422, -11.570725 ], [ 35.416994, -11.564129 ], [ 35.413413, -11.569466 ], [ 35.408433, -11.570485 ], [ 35.163072, -11.57204 ], [ 34.95957, -11.573331 ] ] ], [ [ [ 39.520888, -6.470884 ], [ 39.508483, -6.474907 ], [ 39.490537, -6.470901 ], [ 39.46706, -6.446631 ], [ 39.439226, -6.384827 ], [ 39.428891, -6.343272 ], [ 39.417212, -6.320567 ], [ 39.421407, -6.300815 ], [ 39.400206, -6.303832 ], [ 39.393897, -6.30983 ], [ 39.408138, -6.344776 ], [ 39.416172, -6.38625 ], [ 39.413973, -6.392543 ], [ 39.389962, -6.36205 ], [ 39.380018, -6.327965 ], [ 39.350644, -6.300987 ], [ 39.333714, -6.266253 ], [ 39.313994, -6.243994 ], [ 39.301917, -6.242991 ], [ 39.296777, -6.254892 ], [ 39.28441, -6.26219 ], [ 39.286661, -6.278993 ], [ 39.296337, -6.306934 ], [ 39.295284, -6.315087 ], [ 39.285548, -6.318085 ], [ 39.272123, -6.312113 ], [ 39.242319, -6.270459 ], [ 39.215792, -6.247357 ], [ 39.203314, -6.219799 ], [ 39.203679, -6.188514 ], [ 39.190305, -6.163696 ], [ 39.202554, -6.151673 ], [ 39.21153, -6.134258 ], [ 39.214185, -6.094565 ], [ 39.203902, -6.039576 ], [ 39.18656, -6.007341 ], [ 39.182888, -5.953877 ], [ 39.186469, -5.933427 ], [ 39.185295, -5.911564 ], [ 39.191841, -5.902028 ], [ 39.197105, -5.903034 ], [ 39.202257, -5.922986 ], [ 39.206944, -5.927895 ], [ 39.21058, -5.918668 ], [ 39.221622, -5.90545 ], [ 39.229987, -5.886569 ], [ 39.273642, -5.861434 ], [ 39.28907, -5.822814 ], [ 39.293627, -5.790994 ], [ 39.28856, -5.755118 ], [ 39.290275, -5.73737 ], [ 39.295393, -5.72782 ], [ 39.306619, -5.727156 ], [ 39.324605, -5.746114 ], [ 39.355037, -5.796567 ], [ 39.359583, -5.827164 ], [ 39.355016, -5.878761 ], [ 39.360514, -5.928458 ], [ 39.383711, -5.997963 ], [ 39.402639, -6.024688 ], [ 39.411674, -6.049776 ], [ 39.424741, -6.059912 ], [ 39.429527, -6.067849 ], [ 39.427288, -6.129055 ], [ 39.435736, -6.161694 ], [ 39.423583, -6.179634 ], [ 39.422164, -6.186025 ], [ 39.427417, -6.187621 ], [ 39.441804, -6.184399 ], [ 39.456621, -6.18992 ], [ 39.471782, -6.1856 ], [ 39.48854, -6.191192 ], [ 39.503678, -6.186758 ], [ 39.506298, -6.174685 ], [ 39.492011, -6.139517 ], [ 39.49377, -6.131072 ], [ 39.498849, -6.127491 ], [ 39.50555, -6.128465 ], [ 39.510736, -6.133166 ], [ 39.520888, -6.156022 ], [ 39.531182, -6.180448 ], [ 39.54017, -6.290089 ], [ 39.555158, -6.335927 ], [ 39.577205, -6.385977 ], [ 39.563881, -6.433164 ], [ 39.528257, -6.468211 ], [ 39.520888, -6.470884 ] ] ], [ [ [ 39.856793, -5.167296 ], [ 39.852577, -5.176362 ], [ 39.855483, -5.191162 ], [ 39.845336, -5.237727 ], [ 39.836268, -5.258787 ], [ 39.832166, -5.259518 ], [ 39.825403, -5.255406 ], [ 39.831367, -5.266119 ], [ 39.829987, -5.27199 ], [ 39.813841, -5.276522 ], [ 39.833322, -5.277263 ], [ 39.818988, -5.319353 ], [ 39.815177, -5.323661 ], [ 39.801397, -5.318229 ], [ 39.797769, -5.321131 ], [ 39.801082, -5.328935 ], [ 39.795678, -5.339589 ], [ 39.807181, -5.351142 ], [ 39.808606, -5.360531 ], [ 39.802737, -5.368314 ], [ 39.796603, -5.367776 ], [ 39.791413, -5.371296 ], [ 39.768005, -5.39997 ], [ 39.764454, -5.40871 ], [ 39.768324, -5.411394 ], [ 39.771552, -5.402185 ], [ 39.780807, -5.394396 ], [ 39.788975, -5.394988 ], [ 39.79004, -5.399337 ], [ 39.756104, -5.439401 ], [ 39.750931, -5.441679 ], [ 39.743318, -5.440381 ], [ 39.741906, -5.450391 ], [ 39.725526, -5.464479 ], [ 39.721283, -5.45543 ], [ 39.72878, -5.443785 ], [ 39.718556, -5.434138 ], [ 39.704402, -5.436491 ], [ 39.712704, -5.447515 ], [ 39.70631, -5.453158 ], [ 39.6967, -5.442909 ], [ 39.676769, -5.429954 ], [ 39.668698, -5.429697 ], [ 39.657743, -5.437429 ], [ 39.645838, -5.437406 ], [ 39.637878, -5.425969 ], [ 39.640927, -5.418426 ], [ 39.633546, -5.39998 ], [ 39.635945, -5.394295 ], [ 39.644903, -5.389608 ], [ 39.642389, -5.375242 ], [ 39.638291, -5.368178 ], [ 39.64342, -5.357773 ], [ 39.646784, -5.340343 ], [ 39.65386, -5.330439 ], [ 39.66645, -5.332265 ], [ 39.67208, -5.323941 ], [ 39.666858, -5.302846 ], [ 39.658213, -5.288621 ], [ 39.666382, -5.285346 ], [ 39.678466, -5.289591 ], [ 39.685127, -5.288234 ], [ 39.692121, -5.273752 ], [ 39.684215, -5.257447 ], [ 39.711028, -5.249148 ], [ 39.717046, -5.241042 ], [ 39.715637, -5.227818 ], [ 39.701604, -5.216924 ], [ 39.675116, -5.216834 ], [ 39.656139, -5.206996 ], [ 39.652767, -5.202394 ], [ 39.651055, -5.19006 ], [ 39.655287, -5.189188 ], [ 39.660491, -5.19281 ], [ 39.663304, -5.204171 ], [ 39.673875, -5.212363 ], [ 39.684223, -5.210865 ], [ 39.692404, -5.206002 ], [ 39.718998, -5.21105 ], [ 39.73588, -5.195053 ], [ 39.742589, -5.17931 ], [ 39.738466, -5.174328 ], [ 39.738934, -5.167296 ], [ 39.738976, -5.161377 ], [ 39.72902, -5.158837 ], [ 39.700708, -5.141115 ], [ 39.699628, -5.138098 ], [ 39.703824, -5.133241 ], [ 39.691086, -5.132854 ], [ 39.686791, -5.126498 ], [ 39.690524, -5.120771 ], [ 39.706749, -5.114391 ], [ 39.705343, -5.111598 ], [ 39.697561, -5.111084 ], [ 39.693055, -5.107289 ], [ 39.699182, -5.082974 ], [ 39.708757, -5.073486 ], [ 39.724523, -5.074311 ], [ 39.727653, -5.071988 ], [ 39.720282, -5.068128 ], [ 39.706579, -5.053449 ], [ 39.689032, -5.05079 ], [ 39.67359, -5.044046 ], [ 39.68481, -5.032615 ], [ 39.691782, -5.030472 ], [ 39.693466, -5.022714 ], [ 39.689638, -5.011035 ], [ 39.68203, -5.003321 ], [ 39.676827, -4.979355 ], [ 39.68118, -4.973878 ], [ 39.689572, -4.977571 ], [ 39.698942, -4.974079 ], [ 39.674366, -4.953886 ], [ 39.67063, -4.941556 ], [ 39.678229, -4.894624 ], [ 39.677972, -4.883947 ], [ 39.672893, -4.867547 ], [ 39.67719, -4.854817 ], [ 39.686675, -4.855363 ], [ 39.685345, -4.877966 ], [ 39.692938, -4.89802 ], [ 39.699006, -4.906 ], [ 39.715347, -4.910929 ], [ 39.722958, -4.91036 ], [ 39.730539, -4.905464 ], [ 39.738318, -4.907682 ], [ 39.772205, -4.932041 ], [ 39.771358, -4.944356 ], [ 39.785114, -4.943337 ], [ 39.804033, -4.962189 ], [ 39.812266, -4.965109 ], [ 39.814968, -4.96389 ], [ 39.816369, -4.956903 ], [ 39.807169, -4.950199 ], [ 39.811697, -4.945087 ], [ 39.815181, -4.931094 ], [ 39.842861, -4.934996 ], [ 39.846015, -4.926038 ], [ 39.858187, -4.911814 ], [ 39.862043, -4.8922 ], [ 39.868292, -4.89196 ], [ 39.874255, -4.907353 ], [ 39.872815, -4.931127 ], [ 39.868776, -4.942003 ], [ 39.873723, -4.955712 ], [ 39.874036, -4.994401 ], [ 39.865443, -5.022993 ], [ 39.861063, -5.022716 ], [ 39.85588, -5.015076 ], [ 39.848071, -5.010002 ], [ 39.842179, -5.014779 ], [ 39.841206, -5.026956 ], [ 39.834153, -5.041939 ], [ 39.833838, -5.054249 ], [ 39.82842, -5.063745 ], [ 39.831032, -5.070308 ], [ 39.824058, -5.076826 ], [ 39.828823, -5.082682 ], [ 39.824465, -5.110024 ], [ 39.81917, -5.117753 ], [ 39.82426, -5.128045 ], [ 39.822643, -5.148103 ], [ 39.838164, -5.152332 ], [ 39.84943, -5.135373 ], [ 39.84459, -5.128919 ], [ 39.847703, -5.110641 ], [ 39.861411, -5.11488 ], [ 39.863344, -5.1238 ], [ 39.856793, -5.167296 ] ] ], [ [ [ 39.590134, -7.945579 ], [ 39.592532, -7.942224 ], [ 39.594531, -7.942812 ], [ 39.61116, -7.947703 ], [ 39.612056, -7.951199 ], [ 39.60847, -7.955509 ], [ 39.611448, -7.959753 ], [ 39.613996, -7.959341 ], [ 39.616918, -7.955396 ], [ 39.620325, -7.932489 ], [ 39.64051, -7.935739 ], [ 39.640271, -7.930691 ], [ 39.634206, -7.924934 ], [ 39.651358, -7.917529 ], [ 39.666914, -7.905502 ], [ 39.696844, -7.867796 ], [ 39.712892, -7.86333 ], [ 39.712567, -7.853547 ], [ 39.728122, -7.851268 ], [ 39.733105, -7.834545 ], [ 39.709737, -7.818387 ], [ 39.71898, -7.815203 ], [ 39.735623, -7.816413 ], [ 39.737885, -7.81611 ], [ 39.753976, -7.81396 ], [ 39.792987, -7.801226 ], [ 39.799386, -7.795677 ], [ 39.814915, -7.790596 ], [ 39.813599, -7.788025 ], [ 39.78585, -7.785119 ], [ 39.777774, -7.781519 ], [ 39.798004, -7.768375 ], [ 39.806465, -7.755186 ], [ 39.824475, -7.748965 ], [ 39.835421, -7.741282 ], [ 39.839113, -7.747215 ], [ 39.846898, -7.733985 ], [ 39.848914, -7.720193 ], [ 39.865493, -7.702501 ], [ 39.872426, -7.679929 ], [ 39.896187, -7.655686 ], [ 39.89822, -7.653612 ], [ 39.898855, -7.650163 ], [ 39.900122, -7.643278 ], [ 39.904233, -7.640628 ], [ 39.909125, -7.647987 ], [ 39.908777, -7.655686 ], [ 39.906666, -7.702501 ], [ 39.906007, -7.712377 ], [ 39.901601, -7.73449 ], [ 39.898855, -7.747979 ], [ 39.895919, -7.762398 ], [ 39.882956, -7.804092 ], [ 39.868359, -7.833519 ], [ 39.851687, -7.850171 ], [ 39.854492, -7.875776 ], [ 39.847235, -7.893294 ], [ 39.833224, -7.913086 ], [ 39.82727, -7.914167 ], [ 39.822111, -7.911731 ], [ 39.816416, -7.914758 ], [ 39.814439, -7.9096 ], [ 39.807685, -7.910789 ], [ 39.806642, -7.906279 ], [ 39.810213, -7.898174 ], [ 39.805637, -7.886428 ], [ 39.800787, -7.889435 ], [ 39.801859, -7.900068 ], [ 39.783878, -7.900675 ], [ 39.768561, -7.907238 ], [ 39.737885, -7.935819 ], [ 39.735926, -7.937644 ], [ 39.731794, -7.947276 ], [ 39.732626, -7.959624 ], [ 39.735119, -7.963775 ], [ 39.737885, -7.964607 ], [ 39.74719, -7.967408 ], [ 39.748412, -7.972671 ], [ 39.743448, -7.977967 ], [ 39.737885, -7.979125 ], [ 39.706742, -7.98561 ], [ 39.687189, -7.994239 ], [ 39.644841, -7.991866 ], [ 39.618589, -7.979294 ], [ 39.609615, -7.964787 ], [ 39.59595, -7.954382 ], [ 39.594531, -7.952235 ], [ 39.590134, -7.945579 ] ] ], [ [ [ 39.5501, -9.040978 ], [ 39.55233, -9.038198 ], [ 39.565286, -9.036398 ], [ 39.592467, -9.045046 ], [ 39.594531, -9.046091 ], [ 39.626229, -9.062143 ], [ 39.628765, -9.067054 ], [ 39.628469, -9.068881 ], [ 39.62749, -9.074931 ], [ 39.618666, -9.093705 ], [ 39.614513, -9.112703 ], [ 39.61083, -9.116875 ], [ 39.603239, -9.106683 ], [ 39.599512, -9.094472 ], [ 39.590748, -9.085241 ], [ 39.581669, -9.080726 ], [ 39.579926, -9.074931 ], [ 39.576244, -9.071656 ], [ 39.578573, -9.068881 ], [ 39.580531, -9.066548 ], [ 39.579868, -9.059666 ], [ 39.584111, -9.059193 ], [ 39.589349, -9.062534 ], [ 39.589949, -9.058094 ], [ 39.578348, -9.051804 ], [ 39.558474, -9.04957 ], [ 39.5501, -9.040978 ] ] ], [ [ [ 39.57113, -5.413521 ], [ 39.583203, -5.410803 ], [ 39.592731, -5.417741 ], [ 39.600059, -5.415184 ], [ 39.605387, -5.426007 ], [ 39.605074, -5.434054 ], [ 39.617329, -5.432756 ], [ 39.618407, -5.438156 ], [ 39.614132, -5.447238 ], [ 39.619286, -5.450731 ], [ 39.626103, -5.444262 ], [ 39.630615, -5.452146 ], [ 39.635362, -5.447421 ], [ 39.657965, -5.451104 ], [ 39.667364, -5.463851 ], [ 39.66564, -5.465395 ], [ 39.658037, -5.461253 ], [ 39.650713, -5.465619 ], [ 39.64781, -5.485389 ], [ 39.641539, -5.478955 ], [ 39.633212, -5.480076 ], [ 39.632864, -5.467039 ], [ 39.630615, -5.464613 ], [ 39.620135, -5.463805 ], [ 39.615933, -5.467226 ], [ 39.614224, -5.457896 ], [ 39.609424, -5.455533 ], [ 39.60351, -5.459789 ], [ 39.598864, -5.440604 ], [ 39.590342, -5.438036 ], [ 39.582578, -5.426007 ], [ 39.57113, -5.413521 ] ] ], [ [ [ 39.757441, -8.023342 ], [ 39.762918, -7.992987 ], [ 39.772451, -7.983286 ], [ 39.780769, -7.988915 ], [ 39.791557, -7.986491 ], [ 39.80735, -7.967864 ], [ 39.810879, -7.965575 ], [ 39.813522, -7.971588 ], [ 39.80735, -7.984473 ], [ 39.785707, -8.014118 ], [ 39.782913, -8.02322 ], [ 39.778457, -8.026631 ], [ 39.771028, -8.026898 ], [ 39.763897, -8.03536 ], [ 39.757441, -8.023342 ] ] ], [ [ [ 39.211757, -5.845123 ], [ 39.214077, -5.836594 ], [ 39.214074, -5.828324 ], [ 39.215362, -5.823155 ], [ 39.214177, -5.819611 ], [ 39.214335, -5.809832 ], [ 39.216289, -5.808182 ], [ 39.216385, -5.798861 ], [ 39.217668, -5.779219 ], [ 39.216763, -5.777928 ], [ 39.220501, -5.76578 ], [ 39.223082, -5.767071 ], [ 39.226566, -5.771463 ], [ 39.226057, -5.788003 ], [ 39.226317, -5.794205 ], [ 39.230837, -5.802732 ], [ 39.237032, -5.807898 ], [ 39.2414, -5.809157 ], [ 39.239227, -5.812549 ], [ 39.23807, -5.820561 ], [ 39.235826, -5.820551 ], [ 39.235485, -5.811258 ], [ 39.233678, -5.808933 ], [ 39.227229, -5.814363 ], [ 39.226972, -5.817464 ], [ 39.229811, -5.819272 ], [ 39.229039, -5.823149 ], [ 39.233429, -5.830642 ], [ 39.235625, -5.837619 ], [ 39.233949, -5.840721 ], [ 39.237305, -5.84227 ], [ 39.236661, -5.846147 ], [ 39.238342, -5.853382 ], [ 39.23602, -5.856613 ], [ 39.230091, -5.858283 ], [ 39.220795, -5.85817 ], [ 39.216149, -5.85701 ], [ 39.211758, -5.846674 ], [ 39.211757, -5.845123 ] ] ], [ [ [ 39.186926, -4.743154 ], [ 39.189964, -4.738602 ], [ 39.196244, -4.729194 ], [ 39.196214, -4.711565 ], [ 39.191857, -4.693497 ], [ 39.197998, -4.691181 ], [ 39.20421, -4.698028 ], [ 39.207742, -4.695887 ], [ 39.20943, -4.698027 ], [ 39.209553, -4.717522 ], [ 39.213472, -4.727478 ], [ 39.214378, -4.747123 ], [ 39.214046, -4.759919 ], [ 39.20912, -4.771921 ], [ 39.20421, -4.771355 ], [ 39.199625, -4.770243 ], [ 39.201239, -4.761959 ], [ 39.193982, -4.760456 ], [ 39.189964, -4.750604 ], [ 39.186926, -4.743154 ] ] ], [ [ [ 39.520888, -8.995852 ], [ 39.496476, -8.969648 ], [ 39.49544, -8.960546 ], [ 39.500117, -8.95786 ], [ 39.515838, -8.958852 ], [ 39.520888, -8.955832 ], [ 39.528266, -8.952089 ], [ 39.532678, -8.954377 ], [ 39.534033, -8.960385 ], [ 39.528159, -8.978563 ], [ 39.540531, -8.991429 ], [ 39.534778, -8.998405 ], [ 39.520888, -8.995852 ] ] ], [ [ [ 39.835444, -5.103117 ], [ 39.848391, -5.08789 ], [ 39.85491, -5.082575 ], [ 39.857062, -5.0755 ], [ 39.851335, -5.068772 ], [ 39.852967, -5.063197 ], [ 39.848391, -5.063547 ], [ 39.848391, -5.058067 ], [ 39.852904, -5.04241 ], [ 39.860469, -5.040034 ], [ 39.858596, -5.056675 ], [ 39.862731, -5.066289 ], [ 39.870517, -5.067251 ], [ 39.871251, -5.074361 ], [ 39.863191, -5.106395 ], [ 39.848391, -5.106089 ], [ 39.835444, -5.103117 ] ] ], [ [ [ 39.633974, -5.081454 ], [ 39.649838, -5.025683 ], [ 39.658631, -5.009391 ], [ 39.662852, -5.008019 ], [ 39.66429, -5.010797 ], [ 39.659467, -5.025683 ], [ 39.653793, -5.039558 ], [ 39.652354, -5.055511 ], [ 39.644782, -5.072455 ], [ 39.643173, -5.087548 ], [ 39.635844, -5.089444 ], [ 39.633974, -5.081454 ] ] ], [ [ [ 39.413111, -7.251541 ], [ 39.420334, -7.245605 ], [ 39.421232, -7.239675 ], [ 39.418389, -7.235037 ], [ 39.422517, -7.233229 ], [ 39.421609, -7.228589 ], [ 39.419156, -7.22756 ], [ 39.419151, -7.221889 ], [ 39.42173, -7.219566 ], [ 39.421622, -7.217451 ], [ 39.421467, -7.21441 ], [ 39.424822, -7.212861 ], [ 39.423526, -7.207448 ], [ 39.425976, -7.205383 ], [ 39.42507, -7.202806 ], [ 39.428677, -7.195585 ], [ 39.438277, -7.19042 ], [ 39.439918, -7.192339 ], [ 39.438277, -7.195991 ], [ 39.434621, -7.202797 ], [ 39.431146, -7.21337 ], [ 39.430713, -7.217451 ], [ 39.428331, -7.239926 ], [ 39.427432, -7.243536 ], [ 39.42176, -7.251403 ], [ 39.417116, -7.254501 ], [ 39.413371, -7.253603 ], [ 39.413111, -7.251541 ] ] ], [ [ [ 39.14574, -4.965252 ], [ 39.148489, -4.962406 ], [ 39.153701, -4.960605 ], [ 39.157252, -4.960982 ], [ 39.162674, -4.965065 ], [ 39.170496, -4.957474 ], [ 39.174144, -4.956077 ], [ 39.175288, -4.960577 ], [ 39.177785, -4.962591 ], [ 39.175288, -4.965418 ], [ 39.175793, -4.968053 ], [ 39.174813, -4.975736 ], [ 39.172955, -4.976861 ], [ 39.172603, -4.981764 ], [ 39.17025, -4.990641 ], [ 39.162905, -4.991008 ], [ 39.162173, -4.987276 ], [ 39.164653, -4.984806 ], [ 39.167301, -4.978986 ], [ 39.167049, -4.973962 ], [ 39.164065, -4.972894 ], [ 39.163371, -4.977563 ], [ 39.154671, -4.976453 ], [ 39.148262, -4.96967 ], [ 39.14574, -4.965252 ] ] ], [ [ [ 39.350208, -8.204595 ], [ 39.355244, -8.192962 ], [ 39.352897, -8.1862 ], [ 39.358325, -8.170871 ], [ 39.366002, -8.171681 ], [ 39.371384, -8.159536 ], [ 39.373071, -8.161678 ], [ 39.366002, -8.194544 ], [ 39.36083, -8.205328 ], [ 39.356179, -8.207268 ], [ 39.350208, -8.204595 ] ] ], [ [ [ 39.4872, -8.51364 ], [ 39.489093, -8.510484 ], [ 39.493199, -8.508689 ], [ 39.497243, -8.509446 ], [ 39.506737, -8.517762 ], [ 39.517202, -8.529784 ], [ 39.518143, -8.532188 ], [ 39.51866, -8.53542 ], [ 39.517382, -8.542083 ], [ 39.514554, -8.544137 ], [ 39.514551, -8.541831 ], [ 39.506436, -8.536461 ], [ 39.504631, -8.533645 ], [ 39.499534, -8.532188 ], [ 39.497653, -8.531042 ], [ 39.494653, -8.524867 ], [ 39.492818, -8.517401 ], [ 39.4872, -8.51364 ] ] ], [ [ [ 39.656876, -4.99163 ], [ 39.658029, -4.985433 ], [ 39.6597, -4.984141 ], [ 39.660853, -4.978202 ], [ 39.665479, -4.970969 ], [ 39.667023, -4.970193 ], [ 39.669463, -4.963163 ], [ 39.674997, -4.964506 ], [ 39.675774, -4.969668 ], [ 39.671926, -4.978332 ], [ 39.671931, -4.987613 ], [ 39.671164, -4.992648 ], [ 39.667647, -4.991186 ], [ 39.665632, -4.994977 ], [ 39.66834, -5.000137 ], [ 39.664999, -5.005304 ], [ 39.659974, -5.000404 ], [ 39.656876, -4.99163 ] ] ], [ [ [ 39.414471, -8.003866 ], [ 39.418468, -7.985968 ], [ 39.425819, -7.974075 ], [ 39.427501, -7.974467 ], [ 39.428359, -7.985271 ], [ 39.425352, -7.991921 ], [ 39.429251, -7.995679 ], [ 39.425745, -7.999686 ], [ 39.428908, -8.00516 ], [ 39.427253, -8.015687 ], [ 39.423715, -8.013479 ], [ 39.419875, -8.015117 ], [ 39.419833, -8.010828 ], [ 39.414471, -8.003866 ] ] ], [ [ [ 39.264661, -8.216584 ], [ 39.269212, -8.206691 ], [ 39.273052, -8.205656 ], [ 39.280205, -8.205032 ], [ 39.277904, -8.222224 ], [ 39.280967, -8.22703 ], [ 39.277307, -8.235353 ], [ 39.273052, -8.234346 ], [ 39.267246, -8.226006 ], [ 39.264661, -8.216584 ] ] ], [ [ [ 39.717756, -8.052277 ], [ 39.719277, -8.050194 ], [ 39.737885, -8.05011 ], [ 39.745051, -8.051192 ], [ 39.739818, -8.059571 ], [ 39.737885, -8.059628 ], [ 39.722587, -8.068665 ], [ 39.717756, -8.052277 ] ] ], [ [ [ 39.381221, -7.273699 ], [ 39.383106, -7.267796 ], [ 39.386447, -7.267793 ], [ 39.392348, -7.258808 ], [ 39.39286, -7.256499 ], [ 39.397097, -7.254186 ], [ 39.40159, -7.24982 ], [ 39.401589, -7.248281 ], [ 39.406727, -7.247378 ], [ 39.411481, -7.249555 ], [ 39.410713, -7.252891 ], [ 39.401859, -7.263162 ], [ 39.400321, -7.266883 ], [ 39.39746, -7.268929 ], [ 39.396466, -7.266758 ], [ 39.393769, -7.269113 ], [ 39.396703, -7.270207 ], [ 39.392776, -7.275966 ], [ 39.389822, -7.275483 ], [ 39.392892, -7.269098 ], [ 39.384907, -7.27036 ], [ 39.382839, -7.27428 ], [ 39.381221, -7.273699 ] ] ], [ [ [ 40.321351, -10.242511 ], [ 40.32764, -10.238735 ], [ 40.3389, -10.244031 ], [ 40.343339, -10.247012 ], [ 40.345214, -10.25279 ], [ 40.349024, -10.256029 ], [ 40.34943, -10.26279 ], [ 40.344243, -10.262029 ], [ 40.3389, -10.253691 ], [ 40.331495, -10.257535 ], [ 40.331016, -10.249074 ], [ 40.321351, -10.242511 ] ] ], [ [ [ 39.347038, -7.349096 ], [ 39.358152, -7.329132 ], [ 39.359845, -7.32947 ], [ 39.360619, -7.336616 ], [ 39.35319, -7.35604 ], [ 39.350321, -7.365866 ], [ 39.347335, -7.364062 ], [ 39.347719, -7.35604 ], [ 39.347038, -7.349096 ] ] ], [ [ [ 39.354745, -8.967767 ], [ 39.358157, -8.963584 ], [ 39.359991, -8.958095 ], [ 39.358934, -8.952086 ], [ 39.363769, -8.951076 ], [ 39.363143, -8.956524 ], [ 39.368035, -8.957932 ], [ 39.366014, -8.966538 ], [ 39.369198, -8.968276 ], [ 39.367757, -8.972719 ], [ 39.358431, -8.975602 ], [ 39.354745, -8.967767 ] ] ], [ [ [ 39.375343, -7.412356 ], [ 39.376379, -7.411384 ], [ 39.38243, -7.412049 ], [ 39.390105, -7.41042 ], [ 39.393108, -7.407005 ], [ 39.402645, -7.404678 ], [ 39.406361, -7.40237 ], [ 39.410021, -7.405233 ], [ 39.409999, -7.410517 ], [ 39.400764, -7.410772 ], [ 39.393868, -7.414774 ], [ 39.385772, -7.416456 ], [ 39.377047, -7.41424 ], [ 39.375343, -7.412356 ] ] ], [ [ [ 39.605345, -5.37501 ], [ 39.614367, -5.370547 ], [ 39.630615, -5.381017 ], [ 39.631828, -5.38461 ], [ 39.630615, -5.387387 ], [ 39.624517, -5.387707 ], [ 39.618001, -5.37931 ], [ 39.607255, -5.378455 ], [ 39.605345, -5.37501 ] ] ], [ [ [ 39.552229, -9.061817 ], [ 39.552229, -9.05964 ], [ 39.561046, -9.062235 ], [ 39.566355, -9.068881 ], [ 39.567308, -9.070439 ], [ 39.566851, -9.076236 ], [ 39.560409, -9.077482 ], [ 39.556125, -9.074898 ], [ 39.554291, -9.068881 ], [ 39.552229, -9.061817 ] ] ], [ [ [ 39.152921, -5.102176 ], [ 39.158022, -5.095878 ], [ 39.162019, -5.094347 ], [ 39.162863, -5.097713 ], [ 39.161686, -5.101125 ], [ 39.162867, -5.113456 ], [ 39.161518, -5.115727 ], [ 39.162868, -5.119753 ], [ 39.161953, -5.122376 ], [ 39.159205, -5.122377 ], [ 39.156849, -5.115818 ], [ 39.156848, -5.110834 ], [ 39.152921, -5.102176 ] ] ], [ [ [ 39.361064, -7.315098 ], [ 39.362757, -7.313534 ], [ 39.364443, -7.302076 ], [ 39.369658, -7.301031 ], [ 39.371339, -7.295558 ], [ 39.372563, -7.294176 ], [ 39.376972, -7.293776 ], [ 39.371339, -7.307825 ], [ 39.368729, -7.315887 ], [ 39.364866, -7.318822 ], [ 39.36211, -7.318482 ], [ 39.361064, -7.315098 ] ] ], [ [ [ 39.288565, -8.451445 ], [ 39.291246, -8.435397 ], [ 39.299503, -8.425508 ], [ 39.30091, -8.422711 ], [ 39.306244, -8.424479 ], [ 39.304926, -8.428649 ], [ 39.299503, -8.432992 ], [ 39.291748, -8.450629 ], [ 39.288565, -8.451445 ] ] ], [ [ [ 39.313264, -8.21754 ], [ 39.318305, -8.217982 ], [ 39.321684, -8.215173 ], [ 39.325182, -8.213189 ], [ 39.323177, -8.207472 ], [ 39.326138, -8.204849 ], [ 39.331387, -8.20912 ], [ 39.332422, -8.215173 ], [ 39.330139, -8.219691 ], [ 39.324628, -8.218023 ], [ 39.32154, -8.221883 ], [ 39.313786, -8.222833 ], [ 39.313264, -8.21754 ] ] ], [ [ [ 39.329178, -6.801512 ], [ 39.330749, -6.79561 ], [ 39.333568, -6.796257 ], [ 39.333944, -6.791332 ], [ 39.330833, -6.79134 ], [ 39.32988, -6.787262 ], [ 39.331474, -6.781264 ], [ 39.333285, -6.781436 ], [ 39.341024, -6.789361 ], [ 39.342489, -6.795437 ], [ 39.334012, -6.797476 ], [ 39.334399, -6.79988 ], [ 39.329981, -6.803028 ], [ 39.329178, -6.801512 ] ] ], [ [ [ 39.466941, -8.942017 ], [ 39.470285, -8.938018 ], [ 39.478321, -8.938274 ], [ 39.480468, -8.941999 ], [ 39.483415, -8.942262 ], [ 39.483552, -8.944659 ], [ 39.480571, -8.948094 ], [ 39.479671, -8.946795 ], [ 39.474585, -8.948798 ], [ 39.468617, -8.948213 ], [ 39.466941, -8.942017 ] ] ], [ [ [ 39.331367, -6.421134 ], [ 39.333737, -6.418235 ], [ 39.338435, -6.418992 ], [ 39.34117, -6.421915 ], [ 39.341696, -6.427912 ], [ 39.344569, -6.436514 ], [ 39.341277, -6.436841 ], [ 39.339353, -6.432346 ], [ 39.336485, -6.432478 ], [ 39.334659, -6.429741 ], [ 39.331367, -6.421134 ] ] ], [ [ [ 40.368469, -10.292035 ], [ 40.372536, -10.288079 ], [ 40.370984, -10.280325 ], [ 40.37436, -10.275136 ], [ 40.379102, -10.277042 ], [ 40.381461, -10.28354 ], [ 40.380195, -10.28569 ], [ 40.373638, -10.28908 ], [ 40.375643, -10.29278 ], [ 40.370021, -10.294245 ], [ 40.368469, -10.292035 ] ] ], [ [ [ 39.328413, -8.238676 ], [ 39.335865, -8.23169 ], [ 39.34091, -8.233833 ], [ 39.34091, -8.237698 ], [ 39.335024, -8.247233 ], [ 39.328413, -8.238676 ] ] ], [ [ [ 39.398775, -8.108208 ], [ 39.401468, -8.102775 ], [ 39.403502, -8.102266 ], [ 39.407307, -8.094155 ], [ 39.41098, -8.092729 ], [ 39.412266, -8.095923 ], [ 39.410239, -8.102513 ], [ 39.407066, -8.106823 ], [ 39.400458, -8.109743 ], [ 39.398775, -8.108208 ] ] ], [ [ [ 39.387999, -7.542587 ], [ 39.389759, -7.539025 ], [ 39.398024, -7.536836 ], [ 39.397423, -7.540751 ], [ 39.400442, -7.543381 ], [ 39.398773, -7.547106 ], [ 39.393114, -7.55045 ], [ 39.391698, -7.549809 ], [ 39.391051, -7.54493 ], [ 39.387999, -7.542587 ] ] ], [ [ [ 39.155917, -5.003141 ], [ 39.158774, -5.00178 ], [ 39.16628, -5.004098 ], [ 39.164537, -5.015649 ], [ 39.163039, -5.01626 ], [ 39.159135, -5.012587 ], [ 39.155917, -5.003141 ] ] ], [ [ [ 39.757662, -7.985693 ], [ 39.759111, -7.979605 ], [ 39.757769, -7.971405 ], [ 39.761483, -7.970604 ], [ 39.766029, -7.974618 ], [ 39.763721, -7.984398 ], [ 39.758596, -7.987808 ], [ 39.757662, -7.985693 ] ] ], [ [ [ 39.630553, -5.107377 ], [ 39.631334, -5.102387 ], [ 39.633796, -5.096793 ], [ 39.635913, -5.098444 ], [ 39.634744, -5.107899 ], [ 39.636318, -5.111311 ], [ 39.64401, -5.114441 ], [ 39.640254, -5.118527 ], [ 39.636456, -5.118138 ], [ 39.633174, -5.10895 ], [ 39.630553, -5.107377 ] ] ], [ [ [ 39.358692, -7.815235 ], [ 39.366, -7.813286 ], [ 39.373948, -7.821845 ], [ 39.373274, -7.823344 ], [ 39.366, -7.823269 ], [ 39.358692, -7.815235 ] ] ], [ [ [ 39.636949, -5.153226 ], [ 39.637775, -5.150458 ], [ 39.637902, -5.138832 ], [ 39.644181, -5.135013 ], [ 39.644526, -5.137441 ], [ 39.640676, -5.152669 ], [ 39.636949, -5.153226 ] ] ], [ [ [ 39.379737, -7.92349 ], [ 39.381932, -7.920806 ], [ 39.385756, -7.92349 ], [ 39.389438, -7.923928 ], [ 39.390726, -7.927136 ], [ 39.395888, -7.93042 ], [ 39.395487, -7.932063 ], [ 39.390576, -7.932537 ], [ 39.381932, -7.926233 ], [ 39.379737, -7.92349 ] ] ], [ [ [ 39.597231, -5.245181 ], [ 39.598896, -5.241281 ], [ 39.601184, -5.240204 ], [ 39.604806, -5.234875 ], [ 39.608692, -5.234742 ], [ 39.611806, -5.240713 ], [ 39.605073, -5.243186 ], [ 39.602223, -5.243189 ], [ 39.599894, -5.246048 ], [ 39.597231, -5.245181 ] ] ], [ [ [ 39.228269, -6.594317 ], [ 39.228617, -6.592589 ], [ 39.234708, -6.591379 ], [ 39.23794, -6.594393 ], [ 39.237985, -6.602981 ], [ 39.236387, -6.60358 ], [ 39.228269, -6.594317 ] ] ], [ [ [ 39.442636, -8.010549 ], [ 39.44495, -8.00412 ], [ 39.446459, -8.002886 ], [ 39.446512, -7.992149 ], [ 39.448264, -7.991763 ], [ 39.450089, -7.996751 ], [ 39.449264, -8.005251 ], [ 39.44495, -8.013227 ], [ 39.442636, -8.010549 ] ] ], [ [ [ 39.704503, -7.834734 ], [ 39.704691, -7.831863 ], [ 39.708749, -7.825226 ], [ 39.713265, -7.826968 ], [ 39.712771, -7.83147 ], [ 39.708765, -7.834727 ], [ 39.711526, -7.836222 ], [ 39.712056, -7.838731 ], [ 39.708772, -7.838477 ], [ 39.70676, -7.83473 ], [ 39.704503, -7.834734 ] ] ], [ [ [ 39.333355, -8.193505 ], [ 39.34091, -8.187143 ], [ 39.344677, -8.186641 ], [ 39.34612, -8.190027 ], [ 39.344202, -8.193203 ], [ 39.34091, -8.193414 ], [ 39.336558, -8.196712 ], [ 39.333355, -8.193505 ] ] ], [ [ [ 39.2925, -8.402397 ], [ 39.294985, -8.402973 ], [ 39.29956, -8.41379 ], [ 39.296179, -8.417578 ], [ 39.293439, -8.416668 ], [ 39.2925, -8.402397 ] ] ], [ [ [ 39.520888, -7.945882 ], [ 39.508697, -7.944027 ], [ 39.507334, -7.943003 ], [ 39.510144, -7.941135 ], [ 39.513838, -7.941414 ], [ 39.520888, -7.943065 ], [ 39.530849, -7.945437 ], [ 39.53041, -7.947319 ], [ 39.520888, -7.945882 ] ] ], [ [ [ 39.5257, -9.059145 ], [ 39.526069, -9.0553 ], [ 39.529704, -9.049913 ], [ 39.534443, -9.052521 ], [ 39.534972, -9.054351 ], [ 39.531823, -9.059716 ], [ 39.5257, -9.059145 ] ] ], [ [ [ 39.562869, -5.402092 ], [ 39.565258, -5.39876 ], [ 39.569113, -5.399689 ], [ 39.571774, -5.402351 ], [ 39.572024, -5.408068 ], [ 39.56899, -5.409413 ], [ 39.562869, -5.402092 ] ] ], [ [ [ 39.373235, -7.774732 ], [ 39.376643, -7.774167 ], [ 39.381967, -7.78053 ], [ 39.385764, -7.783151 ], [ 39.389556, -7.789249 ], [ 39.386888, -7.789034 ], [ 39.381967, -7.783425 ], [ 39.376333, -7.779814 ], [ 39.373235, -7.774732 ] ] ], [ [ [ 39.323384, -8.182398 ], [ 39.323584, -8.177935 ], [ 39.328502, -8.174445 ], [ 39.33057, -8.17977 ], [ 39.33045, -8.185807 ], [ 39.326942, -8.183593 ], [ 39.324939, -8.185276 ], [ 39.323384, -8.182398 ] ] ], [ [ [ 39.244537, -6.657243 ], [ 39.246117, -6.653693 ], [ 39.251358, -6.651821 ], [ 39.254834, -6.660328 ], [ 39.25442, -6.66232 ], [ 39.250061, -6.659203 ], [ 39.244537, -6.657243 ] ] ], [ [ [ 39.320577, -8.247227 ], [ 39.324923, -8.244038 ], [ 39.327143, -8.244537 ], [ 39.329309, -8.25368 ], [ 39.327893, -8.254606 ], [ 39.322114, -8.250411 ], [ 39.320577, -8.247227 ] ] ], [ [ [ 39.281623, -6.375811 ], [ 39.282157, -6.373401 ], [ 39.288045, -6.37313 ], [ 39.292867, -6.380892 ], [ 39.291127, -6.3825 ], [ 39.281623, -6.375811 ] ] ], [ [ [ 39.379168, -8.866592 ], [ 39.379299, -8.865021 ], [ 39.385354, -8.865277 ], [ 39.386148, -8.868942 ], [ 39.389178, -8.872342 ], [ 39.385101, -8.874964 ], [ 39.382598, -8.87392 ], [ 39.381672, -8.868291 ], [ 39.379168, -8.866592 ] ] ], [ [ [ 39.2579, -6.694412 ], [ 39.260405, -6.691076 ], [ 39.264702, -6.693863 ], [ 39.271008, -6.702206 ], [ 39.269478, -6.702822 ], [ 39.2579, -6.694412 ] ] ], [ [ [ 39.348263, -6.822907 ], [ 39.353784, -6.816398 ], [ 39.357378, -6.82095 ], [ 39.357048, -6.825794 ], [ 39.350671, -6.824634 ], [ 39.348263, -6.822907 ] ] ], [ [ [ 39.290409, -8.205762 ], [ 39.295479, -8.201525 ], [ 39.298345, -8.213759 ], [ 39.296448, -8.214137 ], [ 39.294513, -8.211301 ], [ 39.290524, -8.209561 ], [ 39.292427, -8.207259 ], [ 39.290409, -8.205762 ] ] ], [ [ [ 39.657891, -5.143284 ], [ 39.65916, -5.136747 ], [ 39.661495, -5.13535 ], [ 39.668514, -5.137589 ], [ 39.66795, -5.140858 ], [ 39.664266, -5.14072 ], [ 39.657891, -5.143284 ] ] ], [ [ [ 39.348454, -6.355362 ], [ 39.349697, -6.351944 ], [ 39.355944, -6.354812 ], [ 39.356495, -6.362577 ], [ 39.350636, -6.359175 ], [ 39.348454, -6.355362 ] ] ], [ [ [ 39.371947, -7.841483 ], [ 39.376421, -7.834571 ], [ 39.381959, -7.83524 ], [ 39.381959, -7.839237 ], [ 39.373662, -7.842378 ], [ 39.371947, -7.841483 ] ] ], [ [ [ 39.3446, -8.156264 ], [ 39.349664, -8.151209 ], [ 39.356601, -8.152267 ], [ 39.35287, -8.156789 ], [ 39.348845, -8.157829 ], [ 39.3446, -8.156264 ] ] ], [ [ [ 39.786843, -5.389866 ], [ 39.792264, -5.380762 ], [ 39.793807, -5.380624 ], [ 39.794999, -5.386162 ], [ 39.790416, -5.391263 ], [ 39.786843, -5.389866 ] ] ], [ [ [ 39.130019, -5.116388 ], [ 39.133862, -5.112932 ], [ 39.135221, -5.119096 ], [ 39.140226, -5.119841 ], [ 39.13784, -5.122631 ], [ 39.130949, -5.123298 ], [ 39.13279, -5.118291 ], [ 39.130019, -5.116388 ] ] ], [ [ [ 39.342455, -8.16998 ], [ 39.345153, -8.164324 ], [ 39.348296, -8.160922 ], [ 39.354051, -8.163977 ], [ 39.350475, -8.165953 ], [ 39.348483, -8.165115 ], [ 39.347858, -8.168899 ], [ 39.342455, -8.16998 ] ] ], [ [ [ 39.351505, -7.79612 ], [ 39.353885, -7.791892 ], [ 39.353487, -7.789516 ], [ 39.356928, -7.788192 ], [ 39.357731, -7.797436 ], [ 39.35217, -7.798761 ], [ 39.351505, -7.79612 ] ] ], [ [ [ 39.293914, -8.224139 ], [ 39.295724, -8.221376 ], [ 39.301084, -8.221927 ], [ 39.303865, -8.226317 ], [ 39.30213, -8.231739 ], [ 39.300127, -8.230075 ], [ 39.299504, -8.223042 ], [ 39.296712, -8.225636 ], [ 39.293914, -8.224139 ] ] ], [ [ [ 38.99705, -6.459476 ], [ 38.998193, -6.458116 ], [ 39.007542, -6.460055 ], [ 39.011326, -6.462923 ], [ 39.006226, -6.464398 ], [ 39.004197, -6.461977 ], [ 38.998765, -6.461834 ], [ 38.99705, -6.459476 ] ] ], [ [ [ 39.315534, -8.194689 ], [ 39.318072, -8.19229 ], [ 39.324241, -8.189306 ], [ 39.325023, -8.194148 ], [ 39.320748, -8.196681 ], [ 39.315534, -8.194689 ] ] ], [ [ [ 39.127084, -6.153588 ], [ 39.127218, -6.151701 ], [ 39.131794, -6.146849 ], [ 39.135564, -6.146309 ], [ 39.136642, -6.150082 ], [ 39.127084, -6.153588 ] ] ], [ [ [ 39.273052, -8.243694 ], [ 39.273052, -8.238679 ], [ 39.274696, -8.237692 ], [ 39.277915, -8.239929 ], [ 39.276564, -8.246379 ], [ 39.273519, -8.24755 ], [ 39.273052, -8.243694 ] ] ], [ [ [ 39.054095, -6.493169 ], [ 39.056617, -6.489545 ], [ 39.064404, -6.495406 ], [ 39.060174, -6.496674 ], [ 39.054095, -6.493169 ] ] ], [ [ [ 39.679553, -7.615323 ], [ 39.68255, -7.613822 ], [ 39.686311, -7.621298 ], [ 39.680311, -7.621308 ], [ 39.679553, -7.615323 ] ] ], [ [ [ 39.394086, -7.795946 ], [ 39.400093, -7.7964 ], [ 39.402256, -7.798984 ], [ 39.399873, -7.802229 ], [ 39.396064, -7.800714 ], [ 39.394086, -7.795946 ] ] ], [ [ [ 39.797845, -4.932161 ], [ 39.800669, -4.929422 ], [ 39.804997, -4.930245 ], [ 39.801481, -4.936775 ], [ 39.797955, -4.934854 ], [ 39.797845, -4.932161 ] ] ], [ [ [ 39.331527, -6.339957 ], [ 39.337947, -6.342745 ], [ 39.339067, -6.347351 ], [ 39.33488, -6.346935 ], [ 39.331948, -6.343308 ], [ 39.331527, -6.339957 ] ] ], [ [ [ 39.398319, -6.309503 ], [ 39.400014, -6.307755 ], [ 39.404138, -6.308378 ], [ 39.404493, -6.312671 ], [ 39.400072, -6.314782 ], [ 39.398319, -6.309503 ] ] ], [ [ [ 39.419816, -8.8901 ], [ 39.424981, -8.886591 ], [ 39.427859, -8.888968 ], [ 39.424981, -8.893932 ], [ 39.419816, -8.8901 ] ] ], [ [ [ 39.371598, -8.151546 ], [ 39.372392, -8.149431 ], [ 39.377433, -8.149955 ], [ 39.377437, -8.154184 ], [ 39.373857, -8.156302 ], [ 39.371598, -8.151546 ] ] ], [ [ [ 39.27848, -8.258736 ], [ 39.279304, -8.256841 ], [ 39.288404, -8.258379 ], [ 39.28662, -8.262048 ], [ 39.27848, -8.258736 ] ] ], [ [ [ 39.162447, -4.911707 ], [ 39.1712, -4.910145 ], [ 39.171712, -4.913067 ], [ 39.16802, -4.914375 ], [ 39.163655, -4.914128 ], [ 39.162447, -4.911707 ] ] ], [ [ [ 39.56485, -8.575561 ], [ 39.566431, -8.568649 ], [ 39.571116, -8.567373 ], [ 39.569185, -8.573539 ], [ 39.56485, -8.575561 ] ] ], [ [ [ 39.722385, -5.167296 ], [ 39.717609, -5.170627 ], [ 39.714663, -5.167296 ], [ 39.714096, -5.16634 ], [ 39.717131, -5.164268 ], [ 39.722385, -5.167296 ] ] ], [ [ [ 39.024708, -6.466982 ], [ 39.029269, -6.46649 ], [ 39.034075, -6.468227 ], [ 39.034579, -6.470963 ], [ 39.026065, -6.469162 ], [ 39.024708, -6.466982 ] ] ], [ [ [ 39.410995, -8.081399 ], [ 39.415323, -8.07911 ], [ 39.417743, -8.079938 ], [ 39.416603, -8.084947 ], [ 39.413681, -8.084879 ], [ 39.410995, -8.081399 ] ] ], [ [ [ 39.218161, -5.760823 ], [ 39.220756, -5.755074 ], [ 39.223217, -5.758632 ], [ 39.223081, -5.761916 ], [ 39.220759, -5.763286 ], [ 39.218161, -5.760823 ] ] ], [ [ [ 39.351759, -7.761933 ], [ 39.352182, -7.755951 ], [ 39.354467, -7.755949 ], [ 39.355613, -7.759936 ], [ 39.35495, -7.764323 ], [ 39.351759, -7.761933 ] ] ], [ [ [ 39.614038, -5.149826 ], [ 39.616473, -5.147803 ], [ 39.62333, -5.147179 ], [ 39.62427, -5.14877 ], [ 39.618322, -5.150887 ], [ 39.614038, -5.149826 ] ] ], [ [ [ 39.280796, -8.238909 ], [ 39.285918, -8.237866 ], [ 39.287864, -8.242598 ], [ 39.284678, -8.243059 ], [ 39.280796, -8.238909 ] ] ], [ [ [ 39.205775, -4.693092 ], [ 39.207532, -4.686288 ], [ 39.210059, -4.686354 ], [ 39.209274, -4.692933 ], [ 39.205775, -4.693092 ] ] ], [ [ [ 39.211029, -4.839806 ], [ 39.213045, -4.836277 ], [ 39.216641, -4.835767 ], [ 39.215042, -4.842004 ], [ 39.211029, -4.839806 ] ] ], [ [ [ 39.701573, -4.877898 ], [ 39.70282, -4.87579 ], [ 39.70384, -4.874058 ], [ 39.705314, -4.872514 ], [ 39.706259, -4.874773 ], [ 39.706183, -4.878275 ], [ 39.70384, -4.879894 ], [ 39.701573, -4.877898 ] ] ], [ [ [ 39.221192, -5.017283 ], [ 39.223181, -5.015999 ], [ 39.227159, -5.017281 ], [ 39.226059, -5.022735 ], [ 39.221192, -5.017283 ] ] ], [ [ [ 39.103616, -5.056381 ], [ 39.108789, -5.05278 ], [ 39.111701, -5.0537 ], [ 39.107608, -5.058142 ], [ 39.103616, -5.056381 ] ] ], [ [ [ 39.699975, -5.072484 ], [ 39.701393, -5.068931 ], [ 39.704866, -5.070299 ], [ 39.70441, -5.073755 ], [ 39.701609, -5.075208 ], [ 39.699975, -5.072484 ] ] ], [ [ [ 39.672774, -5.136392 ], [ 39.67441, -5.135074 ], [ 39.678132, -5.13474 ], [ 39.679605, -5.136361 ], [ 39.677783, -5.139144 ], [ 39.67441, -5.13844 ], [ 39.672774, -5.136392 ] ] ], [ [ [ 39.807031, -5.327067 ], [ 39.812327, -5.325238 ], [ 39.813164, -5.329132 ], [ 39.809255, -5.330754 ], [ 39.807031, -5.327067 ] ] ], [ [ [ 39.58024, -5.366844 ], [ 39.583235, -5.365527 ], [ 39.585296, -5.367215 ], [ 39.583428, -5.372097 ], [ 39.581179, -5.370597 ], [ 39.58024, -5.366844 ] ] ], [ [ [ 39.665491, -5.472219 ], [ 39.667864, -5.46982 ], [ 39.671276, -5.470292 ], [ 39.670591, -5.475855 ], [ 39.665491, -5.472219 ] ] ], [ [ [ 39.250058, -5.82136 ], [ 39.252455, -5.81703 ], [ 39.256031, -5.818366 ], [ 39.253644, -5.823154 ], [ 39.250058, -5.82136 ] ] ], [ [ [ 39.379727, -5.821105 ], [ 39.385066, -5.817168 ], [ 39.386293, -5.821688 ], [ 39.383589, -5.82315 ], [ 39.379727, -5.821105 ] ] ], [ [ [ 39.246326, -5.824436 ], [ 39.250792, -5.823699 ], [ 39.251377, -5.829827 ], [ 39.248812, -5.829533 ], [ 39.246326, -5.824436 ] ] ], [ [ [ 39.162513, -6.11793 ], [ 39.163425, -6.11654 ], [ 39.169071, -6.11838 ], [ 39.168801, -6.120914 ], [ 39.164083, -6.120878 ], [ 39.162513, -6.11793 ] ] ], [ [ [ 39.174683, -6.280657 ], [ 39.175556, -6.27619 ], [ 39.178683, -6.276439 ], [ 39.179037, -6.282545 ], [ 39.174683, -6.280657 ] ] ], [ [ [ 38.986437, -6.457556 ], [ 38.986642, -6.45451 ], [ 38.990683, -6.455375 ], [ 38.99191, -6.458895 ], [ 38.988951, -6.459994 ], [ 38.986437, -6.457556 ] ] ], [ [ [ 39.011481, -6.46418 ], [ 39.0143, -6.461786 ], [ 39.017977, -6.465094 ], [ 39.012714, -6.467735 ], [ 39.011481, -6.46418 ] ] ], [ [ [ 39.043531, -6.480331 ], [ 39.046586, -6.476893 ], [ 39.049629, -6.480836 ], [ 39.045034, -6.483338 ], [ 39.043531, -6.480331 ] ] ], [ [ [ 39.067488, -6.504575 ], [ 39.070943, -6.502409 ], [ 39.074932, -6.505672 ], [ 39.071307, -6.507848 ], [ 39.067488, -6.504575 ] ] ], [ [ [ 39.440297, -7.186954 ], [ 39.442777, -7.186861 ], [ 39.443737, -7.183857 ], [ 39.446101, -7.184555 ], [ 39.444603, -7.189357 ], [ 39.441692, -7.190843 ], [ 39.440297, -7.186954 ] ] ], [ [ [ 39.409034, -7.243491 ], [ 39.411041, -7.239475 ], [ 39.414199, -7.238325 ], [ 39.413917, -7.244347 ], [ 39.409034, -7.243491 ] ] ], [ [ [ 39.375625, -7.290958 ], [ 39.377977, -7.286057 ], [ 39.381041, -7.286857 ], [ 39.380149, -7.291802 ], [ 39.375625, -7.290958 ] ] ], [ [ [ 39.472994, -7.334207 ], [ 39.476715, -7.332344 ], [ 39.479763, -7.3342 ], [ 39.478582, -7.338255 ], [ 39.472994, -7.334207 ] ] ], [ [ [ 39.344929, -7.370864 ], [ 39.345734, -7.368179 ], [ 39.349772, -7.368579 ], [ 39.349503, -7.372739 ], [ 39.3452, -7.373012 ], [ 39.344929, -7.370864 ] ] ], [ [ [ 39.677953, -7.703049 ], [ 39.680363, -7.700636 ], [ 39.684592, -7.703039 ], [ 39.678763, -7.706661 ], [ 39.677953, -7.703049 ] ] ], [ [ [ 39.272987, -7.794513 ], [ 39.275251, -7.789623 ], [ 39.278858, -7.794422 ], [ 39.276471, -7.796412 ], [ 39.272987, -7.794513 ] ] ], [ [ [ 39.388516, -7.7919 ], [ 39.394662, -7.791034 ], [ 39.39525, -7.795706 ], [ 39.39268, -7.79585 ], [ 39.388516, -7.7919 ] ] ], [ [ [ 39.690443, -7.831548 ], [ 39.693319, -7.826366 ], [ 39.696532, -7.828791 ], [ 39.694482, -7.832403 ], [ 39.690443, -7.831548 ] ] ], [ [ [ 39.368678, -7.832598 ], [ 39.372586, -7.830658 ], [ 39.373504, -7.835377 ], [ 39.368862, -7.836797 ], [ 39.368678, -7.832598 ] ] ], [ [ [ 39.247343, -7.855938 ], [ 39.252208, -7.853606 ], [ 39.252211, -7.858652 ], [ 39.247929, -7.859431 ], [ 39.247343, -7.855938 ] ] ], [ [ [ 39.811045, -7.940409 ], [ 39.811436, -7.93779 ], [ 39.817754, -7.937178 ], [ 39.816465, -7.941325 ], [ 39.811045, -7.940409 ] ] ], [ [ [ 39.42303, -8.056588 ], [ 39.427505, -8.056584 ], [ 39.427511, -8.061046 ], [ 39.423033, -8.06105 ], [ 39.42303, -8.056588 ] ] ], [ [ [ 39.327093, -8.1219 ], [ 39.331277, -8.117898 ], [ 39.33472, -8.119851 ], [ 39.329577, -8.123592 ], [ 39.327093, -8.1219 ] ] ], [ [ [ 39.331815, -8.132171 ], [ 39.335605, -8.1305 ], [ 39.338819, -8.133298 ], [ 39.33499, -8.136104 ], [ 39.331815, -8.132171 ] ] ], [ [ [ 39.281011, -8.247959 ], [ 39.283444, -8.244072 ], [ 39.286842, -8.245842 ], [ 39.285912, -8.250026 ], [ 39.281011, -8.247959 ] ] ], [ [ [ 39.355602, -8.148945 ], [ 39.35941, -8.144595 ], [ 39.362764, -8.147839 ], [ 39.356656, -8.150597 ], [ 39.355602, -8.148945 ] ] ], [ [ [ 39.336074, -8.181488 ], [ 39.33614, -8.178542 ], [ 39.341241, -8.175064 ], [ 39.341241, -8.17824 ], [ 39.338837, -8.181441 ], [ 39.336074, -8.181488 ] ] ], [ [ [ 39.28741, -8.194896 ], [ 39.288536, -8.190338 ], [ 39.293026, -8.190865 ], [ 39.291805, -8.195103 ], [ 39.28741, -8.194896 ] ] ], [ [ [ 39.353944, -8.210422 ], [ 39.359417, -8.210377 ], [ 39.360986, -8.21237 ], [ 39.356346, -8.215199 ], [ 39.353944, -8.210422 ] ] ], [ [ [ 39.290754, -8.216019 ], [ 39.296655, -8.214887 ], [ 39.297037, -8.219915 ], [ 39.292304, -8.218546 ], [ 39.290754, -8.216019 ] ] ], [ [ [ 39.283498, -8.21919 ], [ 39.287016, -8.217684 ], [ 39.288677, -8.223283 ], [ 39.286113, -8.22468 ], [ 39.283498, -8.21919 ] ] ], [ [ [ 39.332578, -8.225849 ], [ 39.332605, -8.224144 ], [ 39.338914, -8.222777 ], [ 39.338225, -8.227721 ], [ 39.332578, -8.225849 ] ] ], [ [ [ 39.323499, -8.231131 ], [ 39.323784, -8.22802 ], [ 39.327702, -8.228574 ], [ 39.328825, -8.232477 ], [ 39.325635, -8.23323 ], [ 39.323499, -8.231131 ] ] ], [ [ [ 39.292756, -8.234152 ], [ 39.294973, -8.233519 ], [ 39.297101, -8.235103 ], [ 39.300015, -8.235064 ], [ 39.300015, -8.236917 ], [ 39.298569, -8.238237 ], [ 39.295047, -8.237652 ], [ 39.292756, -8.234152 ] ] ], [ [ [ 39.261163, -8.244399 ], [ 39.261685, -8.240761 ], [ 39.266374, -8.239338 ], [ 39.26502, -8.245186 ], [ 39.261163, -8.244399 ] ] ], [ [ [ 39.295397, -8.24451 ], [ 39.297151, -8.241169 ], [ 39.300764, -8.242366 ], [ 39.299262, -8.247764 ], [ 39.295397, -8.24451 ] ] ], [ [ [ 39.33971, -8.253062 ], [ 39.34086, -8.247312 ], [ 39.343266, -8.246874 ], [ 39.344612, -8.249609 ], [ 39.342596, -8.252772 ], [ 39.33971, -8.253062 ] ] ], [ [ [ 39.259441, -8.253039 ], [ 39.264829, -8.249455 ], [ 39.267376, -8.25184 ], [ 39.261571, -8.25498 ], [ 39.259441, -8.253039 ] ] ], [ [ [ 39.246398, -8.268602 ], [ 39.250201, -8.26786 ], [ 39.253184, -8.269838 ], [ 39.252156, -8.272425 ], [ 39.24725, -8.271142 ], [ 39.246398, -8.268602 ] ] ], [ [ [ 39.336695, -8.275703 ], [ 39.337035, -8.271602 ], [ 39.340638, -8.271599 ], [ 39.341236, -8.275863 ], [ 39.339563, -8.2771 ], [ 39.336695, -8.275703 ] ] ], [ [ [ 39.570259, -8.382442 ], [ 39.570439, -8.379898 ], [ 39.578101, -8.38134 ], [ 39.577011, -8.384066 ], [ 39.570259, -8.382442 ] ] ], [ [ [ 39.43504, -8.41504 ], [ 39.441372, -8.415034 ], [ 39.441374, -8.418186 ], [ 39.435044, -8.418192 ], [ 39.43504, -8.41504 ] ] ], [ [ [ 39.283221, -8.433246 ], [ 39.288036, -8.432557 ], [ 39.288474, -8.437136 ], [ 39.284256, -8.437356 ], [ 39.283221, -8.433246 ] ] ], [ [ [ 39.289017, -8.465153 ], [ 39.291167, -8.463772 ], [ 39.294126, -8.467803 ], [ 39.290344, -8.471156 ], [ 39.289017, -8.465153 ] ] ], [ [ [ 39.478847, -8.509096 ], [ 39.483693, -8.505287 ], [ 39.484479, -8.510914 ], [ 39.482066, -8.511847 ], [ 39.478847, -8.509096 ] ] ], [ [ [ 39.290505, -8.536028 ], [ 39.292501, -8.534118 ], [ 39.29781, -8.535022 ], [ 39.29667, -8.539006 ], [ 39.290505, -8.536028 ] ] ], [ [ [ 39.523662, -8.541764 ], [ 39.529383, -8.543654 ], [ 39.529765, -8.546535 ], [ 39.525576, -8.547216 ], [ 39.523662, -8.541764 ] ] ], [ [ [ 39.401697, -8.858604 ], [ 39.402531, -8.85694 ], [ 39.407549, -8.857212 ], [ 39.406717, -8.860955 ], [ 39.402536, -8.861098 ], [ 39.401697, -8.858604 ] ] ], [ [ [ 39.413578, -8.892363 ], [ 39.41804, -8.890531 ], [ 39.418829, -8.892096 ], [ 39.416996, -8.896667 ], [ 39.415158, -8.896669 ], [ 39.413578, -8.892363 ] ] ], [ [ [ 39.411428, -8.911123 ], [ 39.415945, -8.90962 ], [ 39.417959, -8.914112 ], [ 39.412436, -8.914118 ], [ 39.411428, -8.911123 ] ] ], [ [ [ 39.433026, -8.954243 ], [ 39.434444, -8.952358 ], [ 39.437593, -8.953757 ], [ 39.437291, -8.958003 ], [ 39.434451, -8.958477 ], [ 39.433026, -8.954243 ] ] ], [ [ [ 39.424094, -8.957761 ], [ 39.425579, -8.954922 ], [ 39.428209, -8.954119 ], [ 39.429384, -8.956925 ], [ 39.428202, -8.959284 ], [ 39.42521, -8.959699 ], [ 39.424094, -8.957761 ] ] ], [ [ [ 39.491838, -9.042046 ], [ 39.492082, -9.038066 ], [ 39.496552, -9.03806 ], [ 39.497303, -9.039624 ], [ 39.494492, -9.04301 ], [ 39.491838, -9.042046 ] ] ], [ [ [ 39.570889, -9.064921 ], [ 39.574927, -9.060837 ], [ 39.576958, -9.06606 ], [ 39.572105, -9.066872 ], [ 39.570889, -9.064921 ] ] ], [ [ [ 39.552737, -9.392086 ], [ 39.556699, -9.391518 ], [ 39.558405, -9.396574 ], [ 39.555399, -9.397513 ], [ 39.552737, -9.392086 ] ] ] ] } }
]
}
