{
"type": "FeatureCollection",
"name": "United States Minor Outlying Islands",
"crs": { "type": "name", "properties": { "name": "urn:ogc:def:crs:OGC:1.3:CRS84" } },
"features": [
{ "type": "Feature", "properties": { "id": "UM", "CNTR_ID": "UM", "CNTR_NAME": "United States Minor Outlying Islands", "NAME_ENGL": "United States Minor Outlying Islands", "ISO3_CODE": "UMI", "FID": "UM" }, "geometry": { "type": "MultiPolygon", "coordinates": [ [ [ [ -162.787801, 6.600798 ], [ -162.765223, 6.589049 ], [ -162.749654, 6.586959 ], [ -162.743514, 6.582679 ], [ -162.739155, 6.583289 ], [ -162.737965, 6.580879 ], [ -162.724826, 6.57813 ], [ -162.694828, 6.564571 ], [ -162.691408, 6.559661 ], [ -162.687218, 6.560051 ], [ -162.683598, 6.558821 ], [ -162.683708, 6.556941 ], [ -162.66721, 6.552961 ], [ -162.66085, 6.547192 ], [ -162.647131, 6.541442 ], [ -162.643241, 6.537572 ], [ -162.634342, 6.535302 ], [ -162.629552, 6.530523 ], [ -162.613963, 6.524022 ], [ -162.613303, 6.521663 ], [ -162.609323, 6.521303 ], [ -162.605904, 6.517434 ], [ -162.598744, 6.516244 ], [ -162.598304, 6.511994 ], [ -162.591215, 6.510074 ], [ -162.589605, 6.511774 ], [ -162.585995, 6.508054 ], [ -162.582875, 6.508494 ], [ -162.579355, 6.505135 ], [ -162.576505, 6.505134 ], [ -162.575864, 6.502664 ], [ -162.570466, 6.501245 ], [ -162.569196, 6.498135 ], [ -162.563377, 6.496855 ], [ -162.563687, 6.494275 ], [ -162.55824, 6.493436 ], [ -162.558576, 6.490415 ], [ -162.550387, 6.488806 ], [ -162.544118, 6.485636 ], [ -162.544688, 6.482936 ], [ -162.541538, 6.483276 ], [ -162.538798, 6.479916 ], [ -162.534129, 6.479386 ], [ -162.534418, 6.474387 ], [ -162.528609, 6.474937 ], [ -162.525499, 6.473027 ], [ -162.525149, 6.468777 ], [ -162.51558, 6.465157 ], [ -162.50836, 6.461108 ], [ -162.496371, 6.449748 ], [ -162.488422, 6.446338 ], [ -162.489112, 6.443699 ], [ -162.485232, 6.443719 ], [ -162.479722, 6.440389 ], [ -162.480092, 6.438029 ], [ -162.477622, 6.436059 ], [ -162.466814, 6.43286 ], [ -162.463613, 6.42831 ], [ -162.452564, 6.42342 ], [ -162.446394, 6.416591 ], [ -162.442555, 6.416141 ], [ -162.442005, 6.412941 ], [ -162.431815, 6.408361 ], [ -162.422566, 6.399692 ], [ -162.420206, 6.400722 ], [ -162.418886, 6.398142 ], [ -162.394568, 6.389222 ], [ -162.391669, 6.382336 ], [ -162.383569, 6.377113 ], [ -162.37867, 6.377083 ], [ -162.378339, 6.374343 ], [ -162.36782, 6.370084 ], [ -162.347931, 6.356615 ], [ -162.313663, 6.330506 ], [ -162.306994, 6.321977 ], [ -162.299854, 6.319426 ], [ -162.299314, 6.316617 ], [ -162.294185, 6.312868 ], [ -162.288915, 6.303198 ], [ -162.289045, 6.299758 ], [ -162.286295, 6.297039 ], [ -162.289295, 6.293839 ], [ -162.287155, 6.28798 ], [ -162.290165, 6.285399 ], [ -162.286135, 6.2789 ], [ -162.289184, 6.276121 ], [ -162.286486, 6.273281 ], [ -162.289265, 6.26973 ], [ -162.288515, 6.265431 ], [ -162.295244, 6.255483 ], [ -162.303034, 6.253511 ], [ -162.301784, 6.251262 ], [ -162.318603, 6.241202 ], [ -162.327543, 6.239462 ], [ -162.337372, 6.234233 ], [ -162.350182, 6.229653 ], [ -162.376399, 6.225593 ], [ -162.376509, 6.228013 ], [ -162.35846, 6.237793 ], [ -162.345091, 6.239792 ], [ -162.341092, 6.243042 ], [ -162.330702, 6.246372 ], [ -162.325403, 6.252322 ], [ -162.313063, 6.255511 ], [ -162.307234, 6.262321 ], [ -162.305744, 6.266621 ], [ -162.308484, 6.27512 ], [ -162.305674, 6.28309 ], [ -162.306714, 6.289179 ], [ -162.310014, 6.291979 ], [ -162.309634, 6.299398 ], [ -162.339182, 6.331836 ], [ -162.350901, 6.337636 ], [ -162.354761, 6.337257 ], [ -162.355341, 6.339676 ], [ -162.36251, 6.345445 ], [ -162.373999, 6.346035 ], [ -162.376538, 6.348334 ], [ -162.377349, 6.345755 ], [ -162.380499, 6.346065 ], [ -162.386089, 6.341786 ], [ -162.389198, 6.335896 ], [ -162.380929, 6.297449 ], [ -162.384999, 6.294199 ], [ -162.387768, 6.295949 ], [ -162.389458, 6.301928 ], [ -162.396278, 6.311368 ], [ -162.402167, 6.315118 ], [ -162.399998, 6.320677 ], [ -162.402597, 6.323227 ], [ -162.401378, 6.326257 ], [ -162.404797, 6.328866 ], [ -162.408807, 6.328806 ], [ -162.409367, 6.334456 ], [ -162.414347, 6.338196 ], [ -162.414257, 6.341696 ], [ -162.420206, 6.344085 ], [ -162.425256, 6.350475 ], [ -162.428806, 6.351925 ], [ -162.428476, 6.353924 ], [ -162.431615, 6.355395 ], [ -162.430666, 6.357555 ], [ -162.437425, 6.362165 ], [ -162.436455, 6.363724 ], [ -162.438785, 6.367754 ], [ -162.436698, 6.369002 ], [ -162.444785, 6.372364 ], [ -162.444755, 6.375253 ], [ -162.447864, 6.375953 ], [ -162.457754, 6.391552 ], [ -162.469773, 6.398282 ], [ -162.470163, 6.400782 ], [ -162.474853, 6.400642 ], [ -162.474923, 6.403641 ], [ -162.480863, 6.406471 ], [ -162.485751, 6.406201 ], [ -162.486592, 6.40989 ], [ -162.490082, 6.409391 ], [ -162.496511, 6.414641 ], [ -162.500341, 6.415391 ], [ -162.503051, 6.42022 ], [ -162.5125, 6.42217 ], [ -162.5112, 6.42522 ], [ -162.51961, 6.435529 ], [ -162.51865, 6.438049 ], [ -162.525059, 6.438889 ], [ -162.525599, 6.441219 ], [ -162.528949, 6.442389 ], [ -162.528369, 6.444109 ], [ -162.532199, 6.444719 ], [ -162.545628, 6.454468 ], [ -162.546528, 6.457218 ], [ -162.560907, 6.462527 ], [ -162.563687, 6.466167 ], [ -162.571946, 6.469967 ], [ -162.573256, 6.473246 ], [ -162.589375, 6.479356 ], [ -162.589855, 6.481356 ], [ -162.595984, 6.482666 ], [ -162.597104, 6.485076 ], [ -162.611853, 6.487916 ], [ -162.614293, 6.491465 ], [ -162.621042, 6.494775 ], [ -162.641741, 6.501305 ], [ -162.645851, 6.504245 ], [ -162.651161, 6.502715 ], [ -162.66714, 6.508654 ], [ -162.678139, 6.514494 ], [ -162.686938, 6.521244 ], [ -162.687048, 6.523713 ], [ -162.693688, 6.524163 ], [ -162.697038, 6.528773 ], [ -162.710317, 6.536322 ], [ -162.710607, 6.538692 ], [ -162.713927, 6.538713 ], [ -162.721646, 6.553771 ], [ -162.744184, 6.560991 ], [ -162.745314, 6.563571 ], [ -162.750964, 6.564521 ], [ -162.751924, 6.56638 ], [ -162.773422, 6.56952 ], [ -162.780852, 6.57671 ], [ -162.794841, 6.579879 ], [ -162.795931, 6.581659 ], [ -162.800061, 6.581159 ], [ -162.80348, 6.583349 ], [ -162.80818, 6.591069 ], [ -162.81448, 6.590349 ], [ -162.834338, 6.602798 ], [ -162.836648, 6.606988 ], [ -162.833868, 6.608128 ], [ -162.80662, 6.605878 ], [ -162.799621, 6.602098 ], [ -162.787801, 6.600798 ] ] ], [ [ [ -162.837334, 6.227002 ], [ -162.833502, 6.225252 ], [ -162.824671, 6.226312 ], [ -162.816539, 6.224312 ], [ -162.809398, 6.225892 ], [ -162.801778, 6.223862 ], [ -162.782974, 6.225722 ], [ -162.737137, 6.220301 ], [ -162.725996, 6.223412 ], [ -162.721995, 6.221922 ], [ -162.720635, 6.223442 ], [ -162.713224, 6.223312 ], [ -162.698291, 6.221281 ], [ -162.696231, 6.219501 ], [ -162.671327, 6.217551 ], [ -162.669547, 6.216001 ], [ -162.653874, 6.215751 ], [ -162.651974, 6.21408 ], [ -162.646713, 6.215661 ], [ -162.617639, 6.21089 ], [ -162.613508, 6.21242 ], [ -162.610039, 6.21097 ], [ -162.610898, 6.20597 ], [ -162.621699, 6.200278 ], [ -162.62935, 6.200828 ], [ -162.632731, 6.198278 ], [ -162.647814, 6.197078 ], [ -162.666456, 6.196688 ], [ -162.673508, 6.198388 ], [ -162.681629, 6.197108 ], [ -162.69141, 6.199558 ], [ -162.695141, 6.197748 ], [ -162.705802, 6.200308 ], [ -162.722715, 6.199468 ], [ -162.725626, 6.201498 ], [ -162.731106, 6.199918 ], [ -162.747219, 6.201248 ], [ -162.748839, 6.199798 ], [ -162.75786, 6.202139 ], [ -162.768552, 6.200248 ], [ -162.801307, 6.203359 ], [ -162.809018, 6.202419 ], [ -162.811399, 6.203859 ], [ -162.828961, 6.201518 ], [ -162.830042, 6.203889 ], [ -162.846204, 6.201418 ], [ -162.848464, 6.203499 ], [ -162.854875, 6.201808 ], [ -162.857746, 6.204279 ], [ -162.859297, 6.202389 ], [ -162.866117, 6.202829 ], [ -162.878639, 6.205969 ], [ -162.87929, 6.20797 ], [ -162.890351, 6.21206 ], [ -162.890351, 6.21417 ], [ -162.893551, 6.21447 ], [ -162.896922, 6.223332 ], [ -162.890131, 6.226812 ], [ -162.858526, 6.226172 ], [ -162.855846, 6.224642 ], [ -162.850545, 6.226362 ], [ -162.839492, 6.225113 ], [ -162.837334, 6.227002 ] ] ], [ [ [ -162.4699, 6.23539 ], [ -162.45355, 6.23281 ], [ -162.4393, 6.23314 ], [ -162.4198, 6.22597 ], [ -162.41901, 6.22425 ], [ -162.42308, 6.21967 ], [ -162.44406, 6.21417 ], [ -162.47055, 6.21358 ], [ -162.48026, 6.21117 ], [ -162.49422, 6.21439 ], [ -162.49728, 6.21245 ], [ -162.49976, 6.21431 ], [ -162.50281, 6.21203 ], [ -162.5109, 6.21258 ], [ -162.51198, 6.21419 ], [ -162.51489, 6.21242 ], [ -162.53714, 6.21214 ], [ -162.54397, 6.21314 ], [ -162.54587, 6.21508 ], [ -162.53406, 6.2245 ], [ -162.50673, 6.22978 ], [ -162.50203, 6.22889 ], [ -162.49864, 6.23153 ], [ -162.49316, 6.23044 ], [ -162.49019, 6.23372 ], [ -162.48244, 6.235 ], [ -162.473491, 6.23375 ], [ -162.4699, 6.23539 ] ] ], [ [ [ 166.630035, 19.310342 ], [ 166.63345, 19.305489 ], [ 166.634733, 19.307189 ], [ 166.64297, 19.309703 ], [ 166.646869, 19.309525 ], [ 166.648381, 19.306661 ], [ 166.64799, 19.302513 ], [ 166.653566, 19.288056 ], [ 166.653984, 19.278317 ], [ 166.656767, 19.270861 ], [ 166.656036, 19.269945 ], [ 166.646038, 19.274134 ], [ 166.633144, 19.28053 ], [ 166.619198, 19.285233 ], [ 166.615119, 19.28871 ], [ 166.599617, 19.298543 ], [ 166.598849, 19.300131 ], [ 166.600894, 19.303497 ], [ 166.604151, 19.299856 ], [ 166.60794, 19.298186 ], [ 166.615693, 19.291618 ], [ 166.618672, 19.292212 ], [ 166.620672, 19.288845 ], [ 166.627035, 19.288565 ], [ 166.628076, 19.286728 ], [ 166.634169, 19.284724 ], [ 166.64488, 19.283081 ], [ 166.64831, 19.285157 ], [ 166.643848, 19.292351 ], [ 166.644342, 19.294713 ], [ 166.641517, 19.298285 ], [ 166.644023, 19.302222 ], [ 166.641558, 19.305368 ], [ 166.635557, 19.30194 ], [ 166.630162, 19.304362 ], [ 166.630184, 19.30571 ], [ 166.624783, 19.304571 ], [ 166.625513, 19.305903 ], [ 166.621747, 19.310486 ], [ 166.619717, 19.314802 ], [ 166.621296, 19.315966 ], [ 166.630035, 19.310342 ] ] ], [ [ [ -177.370987, 28.218571 ], [ -177.366747, 28.215104 ], [ -177.368953, 28.210493 ], [ -177.362531, 28.209778 ], [ -177.359736, 28.208156 ], [ -177.376197, 28.201993 ], [ -177.381607, 28.198978 ], [ -177.394989, 28.194936 ], [ -177.396742, 28.196839 ], [ -177.389699, 28.204625 ], [ -177.387136, 28.209457 ], [ -177.38706, 28.215565 ], [ -177.381341, 28.217788 ], [ -177.375201, 28.217664 ], [ -177.370987, 28.218571 ] ] ], [ [ [ -159.985565, -0.380301 ], [ -160.003575, -0.380817 ], [ -160.01271, -0.379651 ], [ -160.01361, -0.378096 ], [ -160.011808, -0.374729 ], [ -160.007434, -0.371104 ], [ -160.003059, -0.364499 ], [ -159.997399, -0.363981 ], [ -159.986592, -0.365926 ], [ -159.984278, -0.374992 ], [ -159.985565, -0.380301 ] ] ], [ [ [ -169.522921, 16.738575 ], [ -169.518961, 16.7338 ], [ -169.520102, 16.729205 ], [ -169.523002, 16.730596 ], [ -169.533931, 16.724598 ], [ -169.546047, 16.719588 ], [ -169.548241, 16.725025 ], [ -169.539976, 16.729593 ], [ -169.530882, 16.735986 ], [ -169.529887, 16.735029 ], [ -169.522921, 16.738575 ] ] ], [ [ [ -176.613523, 0.796476 ], [ -176.616633, 0.796085 ], [ -176.619354, 0.799346 ], [ -176.620908, 0.809259 ], [ -176.623369, 0.815258 ], [ -176.622591, 0.818389 ], [ -176.619999, 0.818779 ], [ -176.615984, 0.815779 ], [ -176.612616, 0.807693 ], [ -176.612617, 0.799085 ], [ -176.613523, 0.796476 ] ] ], [ [ [ -176.471033, 0.191819 ], [ -176.475375, 0.189751 ], [ -176.484037, 0.18993 ], [ -176.487207, 0.192757 ], [ -176.481312, 0.200921 ], [ -176.47298, 0.199081 ], [ -176.470137, 0.195267 ], [ -176.471033, 0.191819 ] ] ], [ [ [ -177.327303, 28.205754 ], [ -177.337848, 28.204744 ], [ -177.342481, 28.206753 ], [ -177.335565, 28.210065 ], [ -177.326726, 28.217842 ], [ -177.324676, 28.214246 ], [ -177.323085, 28.20707 ], [ -177.327303, 28.205754 ] ] ], [ [ [ -162.069914, 5.891825 ], [ -162.069982, 5.888999 ], [ -162.075118, 5.886778 ], [ -162.077046, 5.888155 ], [ -162.084666, 5.884988 ], [ -162.091599, 5.890357 ], [ -162.088697, 5.891389 ], [ -162.08497, 5.889201 ], [ -162.081661, 5.889419 ], [ -162.07686, 5.892453 ], [ -162.072379, 5.893092 ], [ -162.069914, 5.891825 ] ] ], [ [ [ -178.291383, 28.390442 ], [ -178.30164, 28.386748 ], [ -178.302905, 28.387835 ], [ -178.295193, 28.393866 ], [ -178.291503, 28.399026 ], [ -178.288544, 28.40066 ], [ -178.287811, 28.395219 ], [ -178.291383, 28.390442 ] ] ], [ [ [ -162.068002, 5.875596 ], [ -162.067235, 5.871922 ], [ -162.07497, 5.874218 ], [ -162.07268, 5.876606 ], [ -162.068002, 5.875596 ] ] ], [ [ [ -162.089298, 5.873422 ], [ -162.091714, 5.87196 ], [ -162.095858, 5.873819 ], [ -162.09495, 5.8764 ], [ -162.090629, 5.876299 ], [ -162.089298, 5.873422 ] ] ], [ [ [ -162.080733, 5.87941 ], [ -162.07853, 5.874371 ], [ -162.084766, 5.87444 ], [ -162.083445, 5.878266 ], [ -162.080733, 5.87941 ] ] ], [ [ [ -169.484234, 16.754534 ], [ -169.487552, 16.752701 ], [ -169.490954, 16.756509 ], [ -169.487257, 16.758364 ], [ -169.484234, 16.754534 ] ] ], [ [ [ -169.513639, 16.76365 ], [ -169.513763, 16.758637 ], [ -169.518946, 16.761337 ], [ -169.5178, 16.764158 ], [ -169.513639, 16.76365 ] ] ], [ [ [ 166.618273, 19.317945 ], [ 166.619503, 19.315004 ], [ 166.616663, 19.315764 ], [ 166.615587, 19.317258 ], [ 166.618273, 19.317945 ] ] ] ] } }
]
}
