{
"type": "FeatureCollection",
"name": "Uruguay",
"crs": { "type": "name", "properties": { "name": "urn:ogc:def:crs:OGC:1.3:CRS84" } },
"features": [
{ "type": "Feature", "properties": { "id": "UY", "CNTR_ID": "UY", "CNTR_NAME": "Uruguay", "NAME_ENGL": "Uruguay", "ISO3_CODE": "URY", "FID": "UY" }, "geometry": { "type": "MultiPolygon", "coordinates": [ [ [ [ -53.377953, -33.7504 ], [ -53.4231, -33.790599 ], [ -53.463382, -33.833266 ], [ -53.502876, -33.887145 ], [ -53.51155, -33.915445 ], [ -53.507487, -33.931369 ], [ -53.51043, -33.941117 ], [ -53.50699, -33.945957 ], [ -53.529557, -33.971132 ], [ -53.534422, -33.997144 ], [ -53.529857, -34.002999 ], [ -53.538397, -34.013803 ], [ -53.542278, -34.024161 ], [ -53.541451, -34.029379 ], [ -53.537068, -34.03332 ], [ -53.537225, -34.04583 ], [ -53.551312, -34.060082 ], [ -53.551726, -34.067724 ], [ -53.578413, -34.083257 ], [ -53.611659, -34.110296 ], [ -53.677473, -34.163796 ], [ -53.739048, -34.227027 ], [ -53.778032, -34.276841 ], [ -53.789274, -34.303414 ], [ -53.791666, -34.323547 ], [ -53.786794, -34.342177 ], [ -53.78069, -34.346243 ], [ -53.770859, -34.344659 ], [ -53.764254, -34.357285 ], [ -53.776406, -34.37357 ], [ -53.781706, -34.386641 ], [ -53.781765, -34.395923 ], [ -53.777219, -34.405243 ], [ -53.784203, -34.406655 ], [ -53.792211, -34.403185 ], [ -53.802658, -34.405042 ], [ -53.838825, -34.419266 ], [ -53.912399, -34.455357 ], [ -53.979341, -34.491823 ], [ -54.048869, -34.532988 ], [ -54.113034, -34.578772 ], [ -54.119993, -34.587343 ], [ -54.121552, -34.594273 ], [ -54.140548, -34.611043 ], [ -54.15223, -34.629849 ], [ -54.153472, -34.64528 ], [ -54.142278, -34.65555 ], [ -54.150583, -34.657539 ], [ -54.152762, -34.668735 ], [ -54.188424, -34.660734 ], [ -54.214258, -34.664234 ], [ -54.291294, -34.688501 ], [ -54.29818, -34.691028 ], [ -54.350162, -34.710101 ], [ -54.455116, -34.750538 ], [ -54.610336, -34.82171 ], [ -54.627781, -34.834197 ], [ -54.632245, -34.840932 ], [ -54.629775, -34.845333 ], [ -54.63481, -34.847684 ], [ -54.6403, -34.846438 ], [ -54.646199, -34.840012 ], [ -54.655511, -34.839022 ], [ -54.663822, -34.841009 ], [ -54.688066, -34.846806 ], [ -54.742955, -34.869824 ], [ -54.80622, -34.904225 ], [ -54.833737, -34.908736 ], [ -54.850953, -34.918064 ], [ -54.861957, -34.917504 ], [ -54.88474, -34.927014 ], [ -54.923016, -34.948884 ], [ -54.952402, -34.973857 ], [ -54.954415, -34.965836 ], [ -54.947156, -34.962556 ], [ -54.942139, -34.955041 ], [ -54.956897, -34.939307 ], [ -55.004654, -34.914842 ], [ -55.040529, -34.920919 ], [ -55.043482, -34.910121 ], [ -55.038468, -34.897675 ], [ -55.045649, -34.891402 ], [ -55.053901, -34.888684 ], [ -55.102561, -34.88356 ], [ -55.179833, -34.889023 ], [ -55.205828, -34.896158 ], [ -55.23228, -34.908251 ], [ -55.257507, -34.908582 ], [ -55.261368, -34.898134 ], [ -55.276677, -34.892776 ], [ -55.278995, -34.883087 ], [ -55.276147, -34.870493 ], [ -55.300319, -34.858653 ], [ -55.300636, -34.847873 ], [ -55.323305, -34.822501 ], [ -55.329508, -34.817965 ], [ -55.340699, -34.8146 ], [ -55.380546, -34.808291 ], [ -55.389347, -34.795665 ], [ -55.390024, -34.780647 ], [ -55.414303, -34.758434 ], [ -55.450511, -34.749914 ], [ -55.460566, -34.737775 ], [ -55.463918, -34.742556 ], [ -55.461854, -34.747792 ], [ -55.451547, -34.753231 ], [ -55.425912, -34.758707 ], [ -55.399383, -34.785084 ], [ -55.395188, -34.792561 ], [ -55.396912, -34.796149 ], [ -55.405582, -34.799 ], [ -55.42708, -34.799295 ], [ -55.460452, -34.804998 ], [ -55.488723, -34.804522 ], [ -55.50837, -34.798502 ], [ -55.533983, -34.801922 ], [ -55.548229, -34.794955 ], [ -55.602936, -34.780446 ], [ -55.621458, -34.779956 ], [ -55.652024, -34.783859 ], [ -55.67627, -34.772399 ], [ -55.687258, -34.770284 ], [ -55.752096, -34.785531 ], [ -55.773984, -34.781115 ], [ -55.785856, -34.781501 ], [ -55.811183, -34.787433 ], [ -55.858482, -34.805336 ], [ -55.894274, -34.814446 ], [ -56.017851, -34.882911 ], [ -56.059921, -34.900634 ], [ -56.117345, -34.905318 ], [ -56.133217, -34.915641 ], [ -56.14446, -34.919687 ], [ -56.150166, -34.929196 ], [ -56.159393, -34.937052 ], [ -56.170916, -34.930708 ], [ -56.175207, -34.921885 ], [ -56.212095, -34.915747 ], [ -56.211739, -34.91034 ], [ -56.200047, -34.903853 ], [ -56.197209, -34.899438 ], [ -56.202147, -34.889114 ], [ -56.211451, -34.882461 ], [ -56.22712, -34.880252 ], [ -56.239325, -34.886144 ], [ -56.245491, -34.901022 ], [ -56.257648, -34.911387 ], [ -56.294992, -34.900957 ], [ -56.302801, -34.902753 ], [ -56.313383, -34.910883 ], [ -56.330104, -34.900449 ], [ -56.338544, -34.87951 ], [ -56.369695, -34.869763 ], [ -56.388149, -34.854635 ], [ -56.424361, -34.844101 ], [ -56.423694, -34.836576 ], [ -56.40795, -34.825421 ], [ -56.399646, -34.813652 ], [ -56.358469, -34.800821 ], [ -56.34659, -34.791296 ], [ -56.347046, -34.787821 ], [ -56.361591, -34.790449 ], [ -56.377587, -34.788982 ], [ -56.446986, -34.763501 ], [ -56.472093, -34.758963 ], [ -56.491802, -34.759246 ], [ -56.551243, -34.769709 ], [ -56.567405, -34.759912 ], [ -56.642351, -34.729068 ], [ -56.68382, -34.719394 ], [ -56.812252, -34.697619 ], [ -56.847539, -34.677501 ], [ -56.885559, -34.667333 ], [ -56.892282, -34.660014 ], [ -56.900464, -34.64212 ], [ -56.929336, -34.617158 ], [ -56.993037, -34.573056 ], [ -57.047434, -34.54436 ], [ -57.07315, -34.501643 ], [ -57.093106, -34.481968 ], [ -57.125221, -34.462387 ], [ -57.147014, -34.460827 ], [ -57.150154, -34.460602 ], [ -57.175467, -34.450714 ], [ -57.212414, -34.44782 ], [ -57.220153, -34.447213 ], [ -57.278216, -34.446233 ], [ -57.324059, -34.453105 ], [ -57.337325, -34.450347 ], [ -57.349794, -34.442986 ], [ -57.379964, -34.439512 ], [ -57.398846, -34.441902 ], [ -57.432704, -34.452716 ], [ -57.436967, -34.450813 ], [ -57.442886, -34.441695 ], [ -57.466441, -34.44071 ], [ -57.478547, -34.44436 ], [ -57.502402, -34.451552 ], [ -57.533335, -34.464886 ], [ -57.544067, -34.461048 ], [ -57.557567, -34.447284 ], [ -57.56746, -34.441846 ], [ -57.600362, -34.437941 ], [ -57.614711, -34.441115 ], [ -57.635277, -34.451139 ], [ -57.650426, -34.453587 ], [ -57.664608, -34.461535 ], [ -57.681614, -34.461014 ], [ -57.718337, -34.472744 ], [ -57.732999, -34.469358 ], [ -57.747678, -34.471323 ], [ -57.76793, -34.482949 ], [ -57.788902, -34.478474 ], [ -57.821006, -34.48543 ], [ -57.8551, -34.483974 ], [ -57.850959, -34.473647 ], [ -57.853617, -34.467456 ], [ -57.888681, -34.449738 ], [ -57.895446, -34.44301 ], [ -57.903275, -34.388743 ], [ -57.953873, -34.325755 ], [ -57.962751, -34.307461 ], [ -57.985589, -34.281569 ], [ -57.995009, -34.270887 ], [ -58.014817, -34.257331 ], [ -58.031262, -34.251772 ], [ -58.040496, -34.239851 ], [ -58.063705, -34.231385 ], [ -58.064082, -34.220181 ], [ -58.067436, -34.213332 ], [ -58.077574, -34.192621 ], [ -58.088817, -34.183095 ], [ -58.110228, -34.174313 ], [ -58.153692, -34.167293 ], [ -58.187112, -34.165056 ], [ -58.206599, -34.166414 ], [ -58.219355, -34.154179 ], [ -58.213273, -34.116342 ], [ -58.214573, -34.110296 ], [ -58.217571, -34.096353 ], [ -58.229495, -34.073701 ], [ -58.267525, -34.034828 ], [ -58.285193, -34.025997 ], [ -58.306433, -33.997683 ], [ -58.353052, -33.956333 ], [ -58.363166, -33.949524 ], [ -58.382286, -33.946277 ], [ -58.406555, -33.92707 ], [ -58.414893, -33.910177 ], [ -58.418876, -33.85469 ], [ -58.430856, -33.832688 ], [ -58.433093, -33.817968 ], [ -58.422664, -33.767209 ], [ -58.428814, -33.735325 ], [ -58.419879, -33.728565 ], [ -58.431015, -33.707989 ], [ -58.441252, -33.678901 ], [ -58.427596, -33.658658 ], [ -58.422953, -33.628039 ], [ -58.426428, -33.590263 ], [ -58.436381, -33.551745 ], [ -58.436396, -33.530809 ], [ -58.428912, -33.514097 ], [ -58.402873, -33.487366 ], [ -58.397399, -33.483822 ], [ -58.389049, -33.483511 ], [ -58.390457, -33.471882 ], [ -58.377757, -33.439654 ], [ -58.37734, -33.405631 ], [ -58.399846, -33.41745 ], [ -58.414648, -33.417954 ], [ -58.418647, -33.415998 ], [ -58.415757, -33.392766 ], [ -58.40542, -33.370742 ], [ -58.405963, -33.36553 ], [ -58.396468, -33.358446 ], [ -58.385966, -33.355523 ], [ -58.364005, -33.342299 ], [ -58.347194, -33.32255 ], [ -58.346127, -33.292579 ], [ -58.340615, -33.274855 ], [ -58.347136, -33.267021 ], [ -58.350542, -33.253352 ], [ -58.354421, -33.196339 ], [ -58.360332, -33.171302 ], [ -58.357725, -33.147044 ], [ -58.349127, -33.132407 ], [ -58.330789, -33.120335 ], [ -58.310578, -33.112938 ], [ -58.293644, -33.115771 ], [ -58.279561, -33.124352 ], [ -58.274291, -33.119576 ], [ -58.251074, -33.11364 ], [ -58.234582, -33.115779 ], [ -58.214217, -33.123064 ], [ -58.205332, -33.118717 ], [ -58.194874, -33.119272 ], [ -58.184476, -33.11595 ], [ -58.173078, -33.118115 ], [ -58.160456, -33.112202 ], [ -58.156436, -33.105896 ], [ -58.132189, -33.095565 ], [ -58.107763, -33.075624 ], [ -58.092194, -33.053097 ], [ -58.072218, -33.036771 ], [ -58.077916, -33.025609 ], [ -58.07713, -33.018288 ], [ -58.051687, -32.970694 ], [ -58.036365, -32.926828 ], [ -58.039842, -32.913442 ], [ -58.05013, -32.916725 ], [ -58.053202, -32.922969 ], [ -58.05944, -32.925702 ], [ -58.058837, -32.936994 ], [ -58.065926, -32.937151 ], [ -58.069854, -32.940427 ], [ -58.069335, -32.968118 ], [ -58.077419, -32.981366 ], [ -58.085458, -32.98368 ], [ -58.095898, -33.014862 ], [ -58.102747, -33.020963 ], [ -58.109978, -33.021539 ], [ -58.11841, -33.02959 ], [ -58.123231, -33.030128 ], [ -58.130271, -33.026453 ], [ -58.12595, -33.017525 ], [ -58.126971, -33.010966 ], [ -58.125087, -33.001 ], [ -58.117828, -32.989862 ], [ -58.119629, -32.981897 ], [ -58.114778, -32.966771 ], [ -58.113975, -32.937783 ], [ -58.114868, -32.920206 ], [ -58.119997, -32.907356 ], [ -58.113746, -32.886032 ], [ -58.114902, -32.874608 ], [ -58.125166, -32.835763 ], [ -58.121783, -32.823106 ], [ -58.12177, -32.816819 ], [ -58.126349, -32.804159 ], [ -58.132101, -32.795448 ], [ -58.136066, -32.783573 ], [ -58.13941, -32.765703 ], [ -58.142414, -32.749647 ], [ -58.148699, -32.727865 ], [ -58.147019, -32.704937 ], [ -58.148704, -32.692677 ], [ -58.147548, -32.685284 ], [ -58.143026, -32.67391 ], [ -58.14354, -32.666721 ], [ -58.147596, -32.657733 ], [ -58.148496, -32.654731 ], [ -58.15271, -32.640671 ], [ -58.151626, -32.626236 ], [ -58.158462, -32.608487 ], [ -58.16132, -32.594261 ], [ -58.163079, -32.562103 ], [ -58.174549, -32.549323 ], [ -58.182051, -32.5349 ], [ -58.186025, -32.525214 ], [ -58.188922, -32.51088 ], [ -58.197517, -32.493604 ], [ -58.203789, -32.467777 ], [ -58.199275, -32.440663 ], [ -58.181041, -32.372592 ], [ -58.169303, -32.359317 ], [ -58.148583, -32.353162 ], [ -58.12089, -32.336474 ], [ -58.111888, -32.325228 ], [ -58.098526, -32.286154 ], [ -58.101937, -32.273453 ], [ -58.09924, -32.254474 ], [ -58.103829, -32.245229 ], [ -58.18052, -32.160172 ], [ -58.166743, -32.088806 ], [ -58.146827, -32.064778 ], [ -58.1387, -32.02074 ], [ -58.166935, -31.934948 ], [ -58.192258, -31.912242 ], [ -58.196471, -31.905603 ], [ -58.199069, -31.871252 ], [ -58.190244, -31.857903 ], [ -58.153801, -31.835676 ], [ -58.113252, -31.825813 ], [ -58.090609, -31.824504 ], [ -58.079046, -31.82077 ], [ -58.071401, -31.811841 ], [ -58.058993, -31.783741 ], [ -58.045107, -31.761222 ], [ -58.037442, -31.730373 ], [ -58.004691, -31.658704 ], [ -57.985589, -31.604586 ], [ -57.981107, -31.583048 ], [ -57.985589, -31.569164 ], [ -58.002221, -31.545344 ], [ -58.006263, -31.528856 ], [ -58.033352, -31.50959 ], [ -58.060959, -31.499869 ], [ -58.076444, -31.489602 ], [ -58.082463, -31.478635 ], [ -58.081029, -31.458884 ], [ -58.073017, -31.447702 ], [ -58.050654, -31.431515 ], [ -58.005247, -31.408771 ], [ -57.985589, -31.392847 ], [ -57.983608, -31.391242 ], [ -57.980774, -31.381745 ], [ -57.985589, -31.37175 ], [ -57.990915, -31.360695 ], [ -57.985589, -31.339469 ], [ -57.980814, -31.320431 ], [ -57.940999, -31.278503 ], [ -57.920203, -31.231078 ], [ -57.910904, -31.216265 ], [ -57.909251, -31.206206 ], [ -57.912734, -31.183136 ], [ -57.915143, -31.167181 ], [ -57.912053, -31.125812 ], [ -57.90648, -31.110781 ], [ -57.880114, -31.085683 ], [ -57.87473, -31.077169 ], [ -57.866441, -31.045671 ], [ -57.864946, -31.021599 ], [ -57.867705, -31.005126 ], [ -57.897753, -30.969449 ], [ -57.90826, -30.942295 ], [ -57.907438, -30.937577 ], [ -57.903152, -30.930357 ], [ -57.891267, -30.922639 ], [ -57.874066, -30.918739 ], [ -57.817224, -30.927501 ], [ -57.81339, -30.924781 ], [ -57.806525, -30.86909 ], [ -57.805271, -30.822833 ], [ -57.800659, -30.781892 ], [ -57.809475, -30.75641 ], [ -57.807376, -30.697929 ], [ -57.814565, -30.685061 ], [ -57.833005, -30.669668 ], [ -57.842512, -30.657906 ], [ -57.845205, -30.628287 ], [ -57.848714, -30.618575 ], [ -57.856257, -30.610659 ], [ -57.889456, -30.587794 ], [ -57.892805, -30.520555 ], [ -57.893346, -30.509679 ], [ -57.865577, -30.479333 ], [ -57.858459, -30.47571 ], [ -57.812598, -30.452365 ], [ -57.793838, -30.445885 ], [ -57.763578, -30.417524 ], [ -57.725984, -30.400513 ], [ -57.694652, -30.381483 ], [ -57.661584, -30.359269 ], [ -57.645842, -30.343052 ], [ -57.6401, -30.331753 ], [ -57.636025, -30.310929 ], [ -57.616159, -30.253576 ], [ -57.624055, -30.236496 ], [ -57.650572, -30.200702 ], [ -57.642516, -30.179126 ], [ -57.633623, -30.175356 ], [ -57.618976, -30.175898 ], [ -57.612714, -30.184681 ], [ -57.570189, -30.203225 ], [ -57.557312, -30.213848 ], [ -57.55507, -30.224252 ], [ -57.559042, -30.247766 ], [ -57.557651, -30.255868 ], [ -57.550828, -30.266053 ], [ -57.53917, -30.274064 ], [ -57.521406, -30.280118 ], [ -57.50317, -30.282324 ], [ -57.478547, -30.266809 ], [ -57.464828, -30.265865 ], [ -57.445819, -30.275284 ], [ -57.426545, -30.276002 ], [ -57.417758, -30.29537 ], [ -57.398573, -30.301657 ], [ -57.388402, -30.295503 ], [ -57.37363, -30.272814 ], [ -57.364573, -30.272358 ], [ -57.348585, -30.280841 ], [ -57.313441, -30.260865 ], [ -57.30619, -30.263517 ], [ -57.297106, -30.277324 ], [ -57.282585, -30.288377 ], [ -57.273506, -30.286261 ], [ -57.261385, -30.267962 ], [ -57.251246, -30.279487 ], [ -57.241107, -30.283596 ], [ -57.226315, -30.285091 ], [ -57.212414, -30.282112 ], [ -57.209522, -30.281492 ], [ -57.191071, -30.259391 ], [ -57.159594, -30.233405 ], [ -57.159051, -30.22333 ], [ -57.164856, -30.205993 ], [ -57.164282, -30.198406 ], [ -57.149602, -30.18116 ], [ -57.147014, -30.176892 ], [ -57.127409, -30.144557 ], [ -57.109565, -30.137674 ], [ -57.110228, -30.116862 ], [ -57.09948, -30.113158 ], [ -57.092068, -30.119709 ], [ -57.087509, -30.11967 ], [ -57.08461, -30.114457 ], [ -57.085899, -30.102007 ], [ -57.069789, -30.089282 ], [ -57.06428, -30.089915 ], [ -57.059359, -30.097454 ], [ -57.040265, -30.100945 ], [ -57.030099, -30.098255 ], [ -57.015418, -30.088592 ], [ -56.99381, -30.083189 ], [ -56.975189, -30.096606 ], [ -56.959725, -30.097745 ], [ -56.918824, -30.094915 ], [ -56.914126, -30.099173 ], [ -56.911817, -30.106622 ], [ -56.902575, -30.108931 ], [ -56.890955, -30.096212 ], [ -56.878429, -30.08934 ], [ -56.871652, -30.089644 ], [ -56.864266, -30.094736 ], [ -56.851638, -30.09091 ], [ -56.835162, -30.092071 ], [ -56.816338, -30.108189 ], [ -56.804501, -30.108433 ], [ -56.800625, -30.123412 ], [ -56.781978, -30.131718 ], [ -56.779467, -30.141019 ], [ -56.781428, -30.156886 ], [ -56.776996, -30.164896 ], [ -56.770418, -30.16647 ], [ -56.756894, -30.16338 ], [ -56.72338, -30.179029 ], [ -56.706701, -30.178767 ], [ -56.704539, -30.191118 ], [ -56.69546, -30.204993 ], [ -56.679581, -30.199991 ], [ -56.670045, -30.202434 ], [ -56.659662, -30.201408 ], [ -56.644582, -30.206765 ], [ -56.646117, -30.212514 ], [ -56.658848, -30.217643 ], [ -56.661292, -30.22124 ], [ -56.647439, -30.224726 ], [ -56.62776, -30.244351 ], [ -56.626246, -30.255729 ], [ -56.635338, -30.261244 ], [ -56.635138, -30.266036 ], [ -56.622883, -30.268804 ], [ -56.612448, -30.268138 ], [ -56.607996, -30.271676 ], [ -56.60649, -30.283737 ], [ -56.617167, -30.295156 ], [ -56.616837, -30.301082 ], [ -56.609931, -30.302409 ], [ -56.578259, -30.294093 ], [ -56.575165, -30.297083 ], [ -56.574385, -30.306347 ], [ -56.559504, -30.31651 ], [ -56.553352, -30.317322 ], [ -56.541096, -30.313678 ], [ -56.537384, -30.331826 ], [ -56.549463, -30.34457 ], [ -56.544598, -30.35168 ], [ -56.544055, -30.362328 ], [ -56.530316, -30.35915 ], [ -56.519429, -30.36108 ], [ -56.513278, -30.366525 ], [ -56.506581, -30.379084 ], [ -56.486854, -30.393813 ], [ -56.473994, -30.3883 ], [ -56.459749, -30.388423 ], [ -56.447038, -30.406857 ], [ -56.450263, -30.417329 ], [ -56.448123, -30.422868 ], [ -56.433302, -30.4338 ], [ -56.417278, -30.430995 ], [ -56.410843, -30.444203 ], [ -56.40048, -30.451639 ], [ -56.404477, -30.464652 ], [ -56.395191, -30.472752 ], [ -56.394941, -30.478815 ], [ -56.383763, -30.494265 ], [ -56.364574, -30.500166 ], [ -56.359752, -30.492108 ], [ -56.352508, -30.491495 ], [ -56.34617, -30.502646 ], [ -56.334357, -30.510952 ], [ -56.333419, -30.520555 ], [ -56.333002, -30.524825 ], [ -56.324248, -30.529568 ], [ -56.310141, -30.529321 ], [ -56.299048, -30.523578 ], [ -56.293639, -30.523531 ], [ -56.28217, -30.547042 ], [ -56.261204, -30.561924 ], [ -56.262411, -30.577333 ], [ -56.259508, -30.582609 ], [ -56.25606, -30.582472 ], [ -56.248359, -30.574057 ], [ -56.230791, -30.575436 ], [ -56.226509, -30.579488 ], [ -56.230211, -30.587675 ], [ -56.220483, -30.599127 ], [ -56.191569, -30.604297 ], [ -56.18074, -30.611395 ], [ -56.176945, -30.616912 ], [ -56.179052, -30.631123 ], [ -56.168715, -30.643129 ], [ -56.168072, -30.661676 ], [ -56.143345, -30.681019 ], [ -56.147474, -30.696458 ], [ -56.132363, -30.711871 ], [ -56.129083, -30.73602 ], [ -56.123652, -30.738132 ], [ -56.10571, -30.735008 ], [ -56.08896, -30.75087 ], [ -56.075594, -30.743451 ], [ -56.068529, -30.74287 ], [ -56.06532, -30.748975 ], [ -56.066151, -30.762171 ], [ -56.060692, -30.769914 ], [ -56.048695, -30.775223 ], [ -56.038571, -30.77351 ], [ -56.032428, -30.781152 ], [ -56.02225, -30.785578 ], [ -56.022531, -30.794538 ], [ -56.012603, -30.802712 ], [ -56.013891, -30.812693 ], [ -56.005335, -30.821604 ], [ -56.003087, -30.833587 ], [ -55.991812, -30.846026 ], [ -55.987925, -30.858316 ], [ -56.007612, -30.899412 ], [ -56.008098, -30.909081 ], [ -56.003744, -30.923222 ], [ -56.014106, -30.940109 ], [ -56.00892, -30.948245 ], [ -56.004639, -30.967486 ], [ -56.009793, -30.977191 ], [ -56.0073, -30.983377 ], [ -56.011222, -30.995589 ], [ -56.009921, -31.021715 ], [ -56.012447, -31.044168 ], [ -56.005828, -31.062896 ], [ -55.94528, -31.088264 ], [ -55.932168, -31.088505 ], [ -55.906748, -31.082688 ], [ -55.869529, -31.078727 ], [ -55.845977, -31.060625 ], [ -55.81393, -31.043635 ], [ -55.789387, -31.021898 ], [ -55.757373, -31.00389 ], [ -55.701171, -30.960798 ], [ -55.687858, -30.958827 ], [ -55.668999, -30.96093 ], [ -55.654724, -30.954103 ], [ -55.639901, -30.930751 ], [ -55.635735, -30.914742 ], [ -55.640685, -30.87969 ], [ -55.635502, -30.859218 ], [ -55.623325, -30.850607 ], [ -55.597558, -30.847618 ], [ -55.583851, -30.854958 ], [ -55.573533, -30.878452 ], [ -55.568083, -30.884463 ], [ -55.544972, -30.895106 ], [ -55.517561, -30.913332 ], [ -55.49381, -30.948259 ], [ -55.447588, -30.97163 ], [ -55.430278, -31.008976 ], [ -55.385464, -31.029411 ], [ -55.367997, -31.045519 ], [ -55.347184, -31.085216 ], [ -55.337994, -31.128993 ], [ -55.329122, -31.139228 ], [ -55.292176, -31.165006 ], [ -55.286851, -31.183136 ], [ -55.286152, -31.186275 ], [ -55.263938, -31.219532 ], [ -55.251334, -31.248233 ], [ -55.24153, -31.258971 ], [ -55.227308, -31.265423 ], [ -55.187444, -31.276052 ], [ -55.151685, -31.300567 ], [ -55.129777, -31.315583 ], [ -55.115368, -31.321762 ], [ -55.092435, -31.325426 ], [ -55.073951, -31.325551 ], [ -55.050835, -31.319039 ], [ -55.030947, -31.304474 ], [ -55.020709, -31.28622 ], [ -55.01509, -31.285212 ], [ -54.976046, -31.327403 ], [ -54.964033, -31.349051 ], [ -54.95265, -31.361444 ], [ -54.949003, -31.383949 ], [ -54.9449, -31.391109 ], [ -54.901703, -31.397295 ], [ -54.89064, -31.401045 ], [ -54.871104, -31.414496 ], [ -54.852448, -31.437605 ], [ -54.844982, -31.442576 ], [ -54.828262, -31.447676 ], [ -54.754177, -31.439722 ], [ -54.719041, -31.441803 ], [ -54.674289, -31.457366 ], [ -54.663822, -31.458288 ], [ -54.638641, -31.460507 ], [ -54.621491, -31.464988 ], [ -54.542671, -31.497099 ], [ -54.526281, -31.501061 ], [ -54.505161, -31.516771 ], [ -54.491534, -31.539463 ], [ -54.481519, -31.563957 ], [ -54.465499, -31.575467 ], [ -54.452439, -31.591082 ], [ -54.439637, -31.618847 ], [ -54.422345, -31.630922 ], [ -54.426713, -31.639021 ], [ -54.459786, -31.66223 ], [ -54.460484, -31.666261 ], [ -54.456602, -31.670599 ], [ -54.370754, -31.7233 ], [ -54.29818, -31.771217 ], [ -54.173086, -31.853752 ], [ -54.148922, -31.874681 ], [ -54.112366, -31.889448 ], [ -54.095056, -31.905371 ], [ -54.087081, -31.906934 ], [ -54.071176, -31.905203 ], [ -54.055908, -31.890125 ], [ -54.036822, -31.887293 ], [ -54.022594, -31.893079 ], [ -54.007776, -31.914046 ], [ -53.979341, -31.917084 ], [ -53.966996, -31.918852 ], [ -53.960004, -31.92318 ], [ -53.964675, -31.942202 ], [ -53.96074, -31.950593 ], [ -53.954605, -31.956009 ], [ -53.948641, -31.956922 ], [ -53.939607, -31.952131 ], [ -53.932822, -31.959046 ], [ -53.9158, -31.962936 ], [ -53.897749, -31.973753 ], [ -53.880117, -31.996242 ], [ -53.874042, -31.997828 ], [ -53.860311, -31.995366 ], [ -53.853695, -31.999141 ], [ -53.849033, -32.010341 ], [ -53.849512, -32.028844 ], [ -53.839012, -32.031407 ], [ -53.826335, -32.057701 ], [ -53.813736, -32.061306 ], [ -53.800134, -32.069848 ], [ -53.781257, -32.070352 ], [ -53.760823, -32.078645 ], [ -53.742857, -32.082183 ], [ -53.728547, -32.099206 ], [ -53.715573, -32.10406 ], [ -53.721133, -32.110155 ], [ -53.730631, -32.109164 ], [ -53.734739, -32.123916 ], [ -53.733512, -32.130679 ], [ -53.721275, -32.146674 ], [ -53.728409, -32.156533 ], [ -53.719099, -32.158595 ], [ -53.712567, -32.163496 ], [ -53.713964, -32.174487 ], [ -53.7057, -32.182192 ], [ -53.702401, -32.191125 ], [ -53.692234, -32.194686 ], [ -53.698915, -32.201986 ], [ -53.697754, -32.207542 ], [ -53.693302, -32.210395 ], [ -53.684862, -32.211062 ], [ -53.681681, -32.220935 ], [ -53.668809, -32.2354 ], [ -53.668663, -32.263782 ], [ -53.656044, -32.274796 ], [ -53.648475, -32.278109 ], [ -53.644093, -32.290854 ], [ -53.635116, -32.296143 ], [ -53.635321, -32.309878 ], [ -53.643684, -32.31467 ], [ -53.644424, -32.318192 ], [ -53.624073, -32.351091 ], [ -53.627471, -32.364581 ], [ -53.632409, -32.371703 ], [ -53.6316, -32.385651 ], [ -53.625471, -32.39148 ], [ -53.609834, -32.39673 ], [ -53.606098, -32.403448 ], [ -53.605676, -32.417739 ], [ -53.594361, -32.431294 ], [ -53.581668, -32.43727 ], [ -53.572054, -32.452721 ], [ -53.557923, -32.46198 ], [ -53.549193, -32.471453 ], [ -53.526429, -32.482489 ], [ -53.517615, -32.487045 ], [ -53.506776, -32.483703 ], [ -53.498914, -32.48566 ], [ -53.487718, -32.482489 ], [ -53.484929, -32.481289 ], [ -53.472542, -32.481528 ], [ -53.459573, -32.480027 ], [ -53.457084, -32.482489 ], [ -53.453401, -32.488373 ], [ -53.455163, -32.497029 ], [ -53.450441, -32.511572 ], [ -53.418929, -32.563388 ], [ -53.408269, -32.566749 ], [ -53.386594, -32.583712 ], [ -53.377365, -32.582867 ], [ -53.367743, -32.576456 ], [ -53.360835, -32.576125 ], [ -53.34072, -32.587313 ], [ -53.325044, -32.589417 ], [ -53.306007, -32.598883 ], [ -53.281959, -32.616752 ], [ -53.274036, -32.615914 ], [ -53.258077, -32.605897 ], [ -53.243607, -32.606058 ], [ -53.226292, -32.631435 ], [ -53.210096, -32.63884 ], [ -53.185693, -32.644499 ], [ -53.168196, -32.664738 ], [ -53.08669, -32.727118 ], [ -53.076156, -32.738668 ], [ -53.074059, -32.746931 ], [ -53.075254, -32.764868 ], [ -53.080979, -32.774203 ], [ -53.092423, -32.782237 ], [ -53.104702, -32.785706 ], [ -53.135656, -32.78739 ], [ -53.146248, -32.790673 ], [ -53.156444, -32.7991 ], [ -53.166444, -32.832423 ], [ -53.171035, -32.840533 ], [ -53.182345, -32.850673 ], [ -53.214811, -32.869495 ], [ -53.279591, -32.898916 ], [ -53.292398, -32.909399 ], [ -53.294355, -32.914335 ], [ -53.292459, -32.919986 ], [ -53.280967, -32.927753 ], [ -53.248631, -32.934339 ], [ -53.244871, -32.937294 ], [ -53.254616, -32.945941 ], [ -53.35244, -33.002821 ], [ -53.435451, -33.055276 ], [ -53.453432, -33.072013 ], [ -53.506929, -33.147496 ], [ -53.514857, -33.163691 ], [ -53.51756, -33.182071 ], [ -53.518598, -33.273205 ], [ -53.505251, -33.356475 ], [ -53.512887, -33.493646 ], [ -53.521411, -33.561162 ], [ -53.519321, -33.637384 ], [ -53.523502, -33.65793 ], [ -53.521208, -33.670619 ], [ -53.523929, -33.687674 ], [ -53.495975, -33.691809 ], [ -53.472464, -33.691891 ], [ -53.436475, -33.700669 ], [ -53.430988, -33.704323 ], [ -53.428394, -33.709793 ], [ -53.425354, -33.734985 ], [ -53.421631, -33.740433 ], [ -53.390432, -33.749809 ], [ -53.377953, -33.7504 ] ] ], [ [ [ -58.364113, -33.993881 ], [ -58.365704, -33.995525 ], [ -58.381111, -33.982605 ], [ -58.390308, -33.966709 ], [ -58.387886, -33.963406 ], [ -58.375679, -33.968204 ], [ -58.368923, -33.976006 ], [ -58.365849, -33.981163 ], [ -58.364113, -33.993881 ] ] ], [ [ [ -58.180637, -33.092667 ], [ -58.179478, -33.09502 ], [ -58.18433, -33.103531 ], [ -58.196499, -33.106979 ], [ -58.211796, -33.10717 ], [ -58.213989, -33.105629 ], [ -58.211349, -33.102329 ], [ -58.21249, -33.099556 ], [ -58.210629, -33.096867 ], [ -58.20401, -33.094315 ], [ -58.194756, -33.094791 ], [ -58.180637, -33.092667 ] ] ], [ [ [ -58.13941, -33.065342 ], [ -58.132114, -33.063244 ], [ -58.117638, -33.051838 ], [ -58.115108, -33.051277 ], [ -58.113934, -33.053207 ], [ -58.121719, -33.06649 ], [ -58.128944, -33.071774 ], [ -58.135368, -33.07187 ], [ -58.13941, -33.069396 ], [ -58.13941, -33.065342 ] ] ], [ [ [ -57.557507, -34.482918 ], [ -57.551529, -34.487064 ], [ -57.539509, -34.485859 ], [ -57.537807, -34.48843 ], [ -57.538898, -34.490517 ], [ -57.548702, -34.494095 ], [ -57.554302, -34.493965 ], [ -57.561352, -34.491272 ], [ -57.564819, -34.488235 ], [ -57.564968, -34.485065 ], [ -57.562588, -34.48238 ], [ -57.557507, -34.482918 ] ] ], [ [ [ -58.10561, -33.058083 ], [ -58.109135, -33.058617 ], [ -58.110523, -33.055626 ], [ -58.107609, -33.045158 ], [ -58.104683, -33.04081 ], [ -58.099274, -33.036953 ], [ -58.096375, -33.046104 ], [ -58.097073, -33.051147 ], [ -58.10561, -33.058083 ] ] ], [ [ [ -55.919159, -34.953587 ], [ -55.924862, -34.958389 ], [ -55.928925, -34.955608 ], [ -55.931171, -34.950947 ], [ -55.928787, -34.944847 ], [ -55.924103, -34.939404 ], [ -55.921021, -34.938797 ], [ -55.918736, -34.940292 ], [ -55.917015, -34.946007 ], [ -55.919159, -34.953587 ] ] ], [ [ [ -56.382809, -34.80336 ], [ -56.392288, -34.804085 ], [ -56.39909, -34.798508 ], [ -56.398293, -34.796829 ], [ -56.393417, -34.796051 ], [ -56.387981, -34.79253 ], [ -56.381603, -34.793457 ], [ -56.37455, -34.799458 ], [ -56.376637, -34.80154 ], [ -56.382809, -34.80336 ] ] ], [ [ [ -58.151073, -33.073887 ], [ -58.155796, -33.091896 ], [ -58.160259, -33.090717 ], [ -58.163437, -33.082397 ], [ -58.161736, -33.077381 ], [ -58.155968, -33.071007 ], [ -58.152431, -33.070263 ], [ -58.151073, -33.073887 ] ] ], [ [ [ -58.087948, -33.041912 ], [ -58.091232, -33.042664 ], [ -58.093758, -33.030357 ], [ -58.087322, -33.025898 ], [ -58.08305, -33.031921 ], [ -58.083965, -33.036114 ], [ -58.087948, -33.041912 ] ] ], [ [ [ -58.13941, -33.053443 ], [ -58.133526, -33.048225 ], [ -58.130245, -33.047688 ], [ -58.129128, -33.051094 ], [ -58.131081, -33.056103 ], [ -58.136909, -33.057835 ], [ -58.139137, -33.05714 ], [ -58.13941, -33.055632 ], [ -58.13941, -33.053443 ] ] ], [ [ [ -54.97195, -34.948471 ], [ -54.969615, -34.949779 ], [ -54.969008, -34.955919 ], [ -54.970152, -34.960215 ], [ -54.974098, -34.961009 ], [ -54.974495, -34.958861 ], [ -54.972277, -34.956947 ], [ -54.976293, -34.952814 ], [ -54.977507, -34.948565 ], [ -54.97195, -34.948471 ] ] ], [ [ [ -58.04734, -32.94326 ], [ -58.050888, -32.944427 ], [ -58.050129, -32.93116 ], [ -58.048599, -32.930359 ], [ -58.046413, -32.932106 ], [ -58.045834, -32.93655 ], [ -58.04734, -32.94326 ] ] ], [ [ [ -58.138883, -33.045603 ], [ -58.142587, -33.048519 ], [ -58.143619, -33.041395 ], [ -58.139377, -33.037415 ], [ -58.137945, -33.041507 ], [ -58.138883, -33.045603 ] ] ], [ [ [ -54.887549, -35.026401 ], [ -54.88572, -35.02388 ], [ -54.882702, -35.022941 ], [ -54.880048, -35.029529 ], [ -54.884278, -35.031527 ], [ -54.887549, -35.026401 ] ] ], [ [ [ -53.49225, -33.937459 ], [ -53.487952, -33.934859 ], [ -53.485308, -33.937932 ], [ -53.487193, -33.939733 ], [ -53.49225, -33.937459 ] ] ] ] } }
]
}
