{
"type": "FeatureCollection",
"name": "Us Virgin Islands",
"crs": { "type": "name", "properties": { "name": "urn:ogc:def:crs:OGC:1.3:CRS84" } },
"features": [
{ "type": "Feature", "properties": { "id": "VI", "CNTR_ID": "VI", "CNTR_NAME": "Us Virgin Islands", "NAME_ENGL": "Us Virgin Islands", "ISO3_CODE": "VIR", "FID": "VI" }, "geometry": { "type": "MultiPolygon", "coordinates": [ [ [ [ -64.903446, 17.679087 ], [ -64.884817, 17.704586 ], [ -64.883996, 17.716948 ], [ -64.893606, 17.74534 ], [ -64.888268, 17.759786 ], [ -64.876077, 17.769474 ], [ -64.835762, 17.762252 ], [ -64.818978, 17.768126 ], [ -64.804803, 17.778397 ], [ -64.778459, 17.783222 ], [ -64.762213, 17.780302 ], [ -64.757506, 17.773589 ], [ -64.748641, 17.781715 ], [ -64.732519, 17.763716 ], [ -64.706839, 17.747492 ], [ -64.699334, 17.747898 ], [ -64.679704, 17.759952 ], [ -64.670888, 17.760728 ], [ -64.617014, 17.760886 ], [ -64.602996, 17.755375 ], [ -64.582531, 17.760688 ], [ -64.56774, 17.755161 ], [ -64.577604, 17.746626 ], [ -64.596778, 17.74534 ], [ -64.601422, 17.745111 ], [ -64.610213, 17.734815 ], [ -64.626742, 17.730634 ], [ -64.638382, 17.722645 ], [ -64.656655, 17.721642 ], [ -64.667297, 17.713283 ], [ -64.675285, 17.713022 ], [ -64.690045, 17.706024 ], [ -64.707836, 17.704397 ], [ -64.717304, 17.69911 ], [ -64.73241, 17.704293 ], [ -64.738348, 17.702523 ], [ -64.742262, 17.696689 ], [ -64.746111, 17.700932 ], [ -64.749731, 17.700934 ], [ -64.760689, 17.696967 ], [ -64.765792, 17.690127 ], [ -64.778319, 17.695352 ], [ -64.787193, 17.695787 ], [ -64.807171, 17.692172 ], [ -64.837685, 17.680559 ], [ -64.841828, 17.68608 ], [ -64.846834, 17.687021 ], [ -64.884713, 17.68506 ], [ -64.900411, 17.675023 ], [ -64.903446, 17.679087 ] ] ], [ [ [ -65.045406, 18.352698 ], [ -65.044513, 18.353604 ], [ -65.035757, 18.353638 ], [ -65.031952, 18.359849 ], [ -65.019346, 18.360462 ], [ -65.003921, 18.36651 ], [ -64.995649, 18.362302 ], [ -64.989546, 18.371239 ], [ -64.954329, 18.36936 ], [ -64.950023, 18.374447 ], [ -64.938505, 18.363805 ], [ -64.927384, 18.359592 ], [ -64.922878, 18.36675 ], [ -64.93455, 18.376602 ], [ -64.933532, 18.378378 ], [ -64.913366, 18.366675 ], [ -64.892262, 18.361921 ], [ -64.889373, 18.356191 ], [ -64.869527, 18.350388 ], [ -64.856996, 18.33961 ], [ -64.852006, 18.338597 ], [ -64.845795, 18.330961 ], [ -64.84805, 18.325652 ], [ -64.840122, 18.318819 ], [ -64.845777, 18.312781 ], [ -64.855111, 18.319015 ], [ -64.865157, 18.316639 ], [ -64.868251, 18.318439 ], [ -64.872305, 18.314523 ], [ -64.877575, 18.315461 ], [ -64.878329, 18.313976 ], [ -64.870771, 18.30777 ], [ -64.877553, 18.303966 ], [ -64.890265, 18.31263 ], [ -64.905501, 18.311732 ], [ -64.921899, 18.320206 ], [ -64.924184, 18.33015 ], [ -64.920593, 18.334838 ], [ -64.927095, 18.33942 ], [ -64.934686, 18.339728 ], [ -64.942116, 18.334747 ], [ -64.949281, 18.334752 ], [ -64.963503, 18.32519 ], [ -64.964939, 18.334514 ], [ -64.968119, 18.33521 ], [ -64.972069, 18.331354 ], [ -64.975764, 18.334993 ], [ -64.980524, 18.335601 ], [ -64.977672, 18.339485 ], [ -64.977676, 18.342871 ], [ -64.989474, 18.350169 ], [ -64.995633, 18.350745 ], [ -65.011102, 18.343252 ], [ -65.019346, 18.343899 ], [ -65.026343, 18.34161 ], [ -65.044966, 18.352015 ], [ -65.045406, 18.352698 ] ] ], [ [ [ -64.798014, 18.329924 ], [ -64.796004, 18.332654 ], [ -64.797542, 18.336999 ], [ -64.787697, 18.342644 ], [ -64.786092, 18.352177 ], [ -64.779465, 18.346811 ], [ -64.777044, 18.352497 ], [ -64.753757, 18.355042 ], [ -64.746075, 18.357315 ], [ -64.744221, 18.362568 ], [ -64.751271, 18.371026 ], [ -64.742274, 18.37237 ], [ -64.734739, 18.369883 ], [ -64.738278, 18.365357 ], [ -64.734525, 18.363867 ], [ -64.722091, 18.363208 ], [ -64.719483, 18.366881 ], [ -64.712603, 18.366729 ], [ -64.705011, 18.361828 ], [ -64.692941, 18.361468 ], [ -64.678438, 18.348315 ], [ -64.671962, 18.349529 ], [ -64.667296, 18.345293 ], [ -64.663124, 18.344561 ], [ -64.661451, 18.341234 ], [ -64.667296, 18.336486 ], [ -64.669303, 18.331392 ], [ -64.673273, 18.330561 ], [ -64.676065, 18.333234 ], [ -64.674744, 18.341104 ], [ -64.680241, 18.345407 ], [ -64.685395, 18.346259 ], [ -64.691719, 18.342893 ], [ -64.692017, 18.355338 ], [ -64.703399, 18.353771 ], [ -64.702858, 18.344401 ], [ -64.70524, 18.341274 ], [ -64.712804, 18.34502 ], [ -64.71408, 18.344017 ], [ -64.711894, 18.337125 ], [ -64.700421, 18.328897 ], [ -64.698488, 18.320981 ], [ -64.701534, 18.317003 ], [ -64.701735, 18.30458 ], [ -64.703353, 18.304082 ], [ -64.706827, 18.308489 ], [ -64.712205, 18.307444 ], [ -64.717282, 18.310777 ], [ -64.721123, 18.308646 ], [ -64.721061, 18.317205 ], [ -64.723862, 18.319094 ], [ -64.733477, 18.31514 ], [ -64.747974, 18.323486 ], [ -64.753757, 18.319184 ], [ -64.758591, 18.316963 ], [ -64.764316, 18.321609 ], [ -64.767482, 18.319047 ], [ -64.772761, 18.32001 ], [ -64.78197, 18.311557 ], [ -64.784832, 18.316683 ], [ -64.7908, 18.315464 ], [ -64.787758, 18.32198 ], [ -64.794441, 18.322577 ], [ -64.798014, 18.329924 ] ] ], [ [ [ -64.960466, 18.309428 ], [ -64.957638, 18.312311 ], [ -64.959794, 18.314195 ], [ -64.956679, 18.316394 ], [ -64.958279, 18.318796 ], [ -64.952041, 18.32311 ], [ -64.946423, 18.329828 ], [ -64.944003, 18.330261 ], [ -64.941328, 18.326728 ], [ -64.941447, 18.319169 ], [ -64.947682, 18.321102 ], [ -64.951575, 18.319113 ], [ -64.951902, 18.312473 ], [ -64.953642, 18.307135 ], [ -64.957515, 18.305807 ], [ -64.960466, 18.309428 ] ] ], [ [ [ -64.917076, 18.404458 ], [ -64.912581, 18.406047 ], [ -64.905564, 18.403239 ], [ -64.901009, 18.397151 ], [ -64.899259, 18.39273 ], [ -64.902973, 18.391973 ], [ -64.905066, 18.388082 ], [ -64.907502, 18.387407 ], [ -64.910848, 18.39133 ], [ -64.91349, 18.397672 ], [ -64.912804, 18.40074 ], [ -64.915772, 18.401758 ], [ -64.917076, 18.404458 ] ] ], [ [ [ -64.829884, 18.44995 ], [ -64.826734, 18.452688 ], [ -64.824173, 18.450811 ], [ -64.823304, 18.447652 ], [ -64.820282, 18.444551 ], [ -64.819654, 18.441133 ], [ -64.823371, 18.439357 ], [ -64.828954, 18.440105 ], [ -64.828125, 18.444805 ], [ -64.829884, 18.44995 ] ] ], [ [ [ -64.87188, 18.360168 ], [ -64.870013, 18.362174 ], [ -64.85721, 18.359724 ], [ -64.851205, 18.361173 ], [ -64.847182, 18.357307 ], [ -64.85108, 18.355037 ], [ -64.853653, 18.356946 ], [ -64.863846, 18.357535 ], [ -64.867244, 18.359596 ], [ -64.87188, 18.360168 ] ] ], [ [ [ -65.085111, 18.336335 ], [ -65.084567, 18.338733 ], [ -65.074946, 18.346797 ], [ -65.073641, 18.342176 ], [ -65.07808, 18.335821 ], [ -65.085111, 18.336335 ] ] ], [ [ [ -64.628977, 17.787901 ], [ -64.624878, 17.790411 ], [ -64.614324, 17.78755 ], [ -64.614318, 17.785894 ], [ -64.622906, 17.783502 ], [ -64.628977, 17.787901 ] ] ], [ [ [ -64.939618, 18.334352 ], [ -64.936216, 18.336232 ], [ -64.934551, 18.331238 ], [ -64.931701, 18.329787 ], [ -64.929803, 18.325811 ], [ -64.933255, 18.323083 ], [ -64.936252, 18.326508 ], [ -64.936986, 18.3323 ], [ -64.939618, 18.334352 ] ] ], [ [ [ -64.833303, 18.305894 ], [ -64.830954, 18.308409 ], [ -64.832124, 18.315023 ], [ -64.828289, 18.31528 ], [ -64.827656, 18.313024 ], [ -64.82433, 18.311826 ], [ -64.828471, 18.30771 ], [ -64.82935, 18.304563 ], [ -64.833303, 18.305894 ] ] ], [ [ [ -64.976329, 18.386181 ], [ -64.97378, 18.387465 ], [ -64.969775, 18.384805 ], [ -64.966673, 18.384594 ], [ -64.968548, 18.378791 ], [ -64.973439, 18.380914 ], [ -64.976329, 18.386181 ] ] ], [ [ [ -64.812656, 18.36117 ], [ -64.79888, 18.365291 ], [ -64.797475, 18.363623 ], [ -64.801603, 18.36017 ], [ -64.806613, 18.360773 ], [ -64.810004, 18.358351 ], [ -64.812656, 18.36117 ] ] ], [ [ [ -64.910716, 18.411651 ], [ -64.908621, 18.413565 ], [ -64.90485, 18.412392 ], [ -64.902638, 18.40832 ], [ -64.905658, 18.405934 ], [ -64.909251, 18.407934 ], [ -64.910716, 18.411651 ] ] ], [ [ [ -64.975351, 18.394892 ], [ -64.973724, 18.401145 ], [ -64.967034, 18.39345 ], [ -64.972785, 18.392002 ], [ -64.975351, 18.394892 ] ] ], [ [ [ -64.850705, 18.428831 ], [ -64.848323, 18.431477 ], [ -64.843009, 18.433193 ], [ -64.845135, 18.427651 ], [ -64.850705, 18.428831 ] ] ], [ [ [ -64.829294, 18.298497 ], [ -64.829127, 18.301317 ], [ -64.824247, 18.301855 ], [ -64.822587, 18.299234 ], [ -64.827987, 18.29747 ], [ -64.829294, 18.298497 ] ] ], [ [ [ -64.840421, 18.325261 ], [ -64.838987, 18.327139 ], [ -64.833292, 18.327088 ], [ -64.831457, 18.323463 ], [ -64.840421, 18.325261 ] ] ], [ [ [ -64.897013, 18.276493 ], [ -64.894032, 18.280628 ], [ -64.890853, 18.279303 ], [ -64.891411, 18.276722 ], [ -64.895589, 18.275248 ], [ -64.897013, 18.276493 ] ] ], [ [ [ -64.764906, 17.683233 ], [ -64.76414, 17.685414 ], [ -64.759674, 17.685809 ], [ -64.757924, 17.684208 ], [ -64.76095, 17.681476 ], [ -64.764906, 17.683233 ] ] ], [ [ [ -64.890803, 18.275833 ], [ -64.885743, 18.277956 ], [ -64.883492, 18.276904 ], [ -64.886078, 18.272666 ], [ -64.890803, 18.275833 ] ] ], [ [ [ -65.003374, 18.30438 ], [ -65.000049, 18.30839 ], [ -64.996221, 18.304494 ], [ -64.998176, 18.303065 ], [ -65.003374, 18.30438 ] ] ], [ [ [ -64.769, 18.311332 ], [ -64.768721, 18.315513 ], [ -64.764765, 18.315214 ], [ -64.764124, 18.310682 ], [ -64.769, 18.311332 ] ] ], [ [ [ -64.653129, 18.326313 ], [ -64.651754, 18.329465 ], [ -64.648078, 18.327876 ], [ -64.650388, 18.322303 ], [ -64.653129, 18.326313 ] ] ], [ [ [ -64.79647, 18.35324 ], [ -64.792793, 18.356349 ], [ -64.789626, 18.350749 ], [ -64.79459, 18.351407 ], [ -64.79647, 18.35324 ] ] ], [ [ [ -64.837623, 18.358589 ], [ -64.832121, 18.361001 ], [ -64.829934, 18.358812 ], [ -64.833614, 18.355977 ], [ -64.837623, 18.358589 ] ] ], [ [ [ -64.822401, 18.360537 ], [ -64.821261, 18.361436 ], [ -64.814445, 18.361017 ], [ -64.813497, 18.358082 ], [ -64.821516, 18.359408 ], [ -64.822401, 18.360537 ] ] ], [ [ [ -65.056481, 18.363338 ], [ -65.051625, 18.362542 ], [ -65.050126, 18.363677 ], [ -65.048626, 18.361441 ], [ -65.050965, 18.358831 ], [ -65.055553, 18.36161 ], [ -65.056481, 18.363338 ] ] ], [ [ [ -64.759887, 18.370079 ], [ -64.759044, 18.372904 ], [ -64.753227, 18.371298 ], [ -64.753572, 18.368156 ], [ -64.759887, 18.370079 ] ] ], [ [ [ -65.066007, 18.378932 ], [ -65.061114, 18.382372 ], [ -65.059342, 18.380985 ], [ -65.061289, 18.376573 ], [ -65.066007, 18.378932 ] ] ], [ [ [ -65.063684, 18.403567 ], [ -65.058666, 18.407127 ], [ -65.056154, 18.405075 ], [ -65.058726, 18.40203 ], [ -65.063684, 18.403567 ] ] ] ] } }
]
}
