{
"type": "FeatureCollection",
"name": "Uzbekistan",
"crs": { "type": "name", "properties": { "name": "urn:ogc:def:crs:OGC:1.3:CRS84" } },
"features": [
{ "type": "Feature", "properties": { "id": "UZ", "CNTR_ID": "UZ", "CNTR_NAME": "Узбекистан", "NAME_ENGL": "Uzbekistan", "ISO3_CODE": "UZB", "FID": "UZ" }, "geometry": { "type": "MultiPolygon", "coordinates": [ [ [ [ 67.778658, 37.179633 ], [ 67.775685, 37.182376 ], [ 67.758779, 37.19341 ], [ 67.753612, 37.203089 ], [ 67.741017, 37.209513 ], [ 67.736871, 37.214558 ], [ 67.723235, 37.218855 ], [ 67.713469, 37.224107 ], [ 67.704094, 37.223936 ], [ 67.68695, 37.228042 ], [ 67.680689, 37.232563 ], [ 67.663771, 37.230274 ], [ 67.657874, 37.228171 ], [ 67.652017, 37.223617 ], [ 67.645152, 37.222902 ], [ 67.635352, 37.227994 ], [ 67.627188, 37.236924 ], [ 67.622279, 37.238897 ], [ 67.612772, 37.239191 ], [ 67.610612, 37.2385 ], [ 67.604455, 37.236529 ], [ 67.595913, 37.229124 ], [ 67.589753, 37.226007 ], [ 67.575807, 37.223069 ], [ 67.571088, 37.224238 ], [ 67.558165, 37.237107 ], [ 67.556439, 37.241554 ], [ 67.550611, 37.246339 ], [ 67.546467, 37.252299 ], [ 67.541231, 37.257194 ], [ 67.535556, 37.259272 ], [ 67.535142, 37.266849 ], [ 67.532353, 37.270099 ], [ 67.520601, 37.272966 ], [ 67.515297, 37.27821 ], [ 67.499147, 37.281367 ], [ 67.493281, 37.275272 ], [ 67.480894, 37.269219 ], [ 67.471795, 37.257957 ], [ 67.466471, 37.247185 ], [ 67.459009, 37.240287 ], [ 67.448982, 37.234654 ], [ 67.415836, 37.225631 ], [ 67.403109, 37.21928 ], [ 67.379995, 37.218087 ], [ 67.350809, 37.208206 ], [ 67.348528, 37.207434 ], [ 67.343078, 37.206366 ], [ 67.325795, 37.20298 ], [ 67.310867, 37.191488 ], [ 67.304558, 37.188472 ], [ 67.283128, 37.185895 ], [ 67.273477, 37.182204 ], [ 67.26673, 37.182323 ], [ 67.260216, 37.184361 ], [ 67.255259, 37.189001 ], [ 67.249385, 37.199081 ], [ 67.24812, 37.20971 ], [ 67.240755, 37.223687 ], [ 67.23037, 37.23404 ], [ 67.222144, 37.238812 ], [ 67.212275, 37.24196 ], [ 67.208541, 37.248991 ], [ 67.1979, 37.253019 ], [ 67.19356, 37.257688 ], [ 67.183243, 37.260302 ], [ 67.177329, 37.258809 ], [ 67.165927, 37.258699 ], [ 67.162491, 37.258666 ], [ 67.143183, 37.264631 ], [ 67.140503, 37.269027 ], [ 67.130286, 37.270819 ], [ 67.125291, 37.273241 ], [ 67.122093, 37.281945 ], [ 67.110021, 37.29005 ], [ 67.11051, 37.304139 ], [ 67.113611, 37.314906 ], [ 67.112358, 37.327085 ], [ 67.104676, 37.333145 ], [ 67.096487, 37.334907 ], [ 67.087406, 37.340879 ], [ 67.087544, 37.349404 ], [ 67.069197, 37.360156 ], [ 67.059043, 37.372606 ], [ 67.048096, 37.379389 ], [ 67.038959, 37.379732 ], [ 67.022767, 37.37467 ], [ 67.011093, 37.373447 ], [ 67.007161, 37.375746 ], [ 66.998934, 37.377583 ], [ 66.991227, 37.3844 ], [ 66.979373, 37.385964 ], [ 66.96258, 37.394052 ], [ 66.946586, 37.398338 ], [ 66.935293, 37.393926 ], [ 66.923293, 37.386275 ], [ 66.914321, 37.383361 ], [ 66.903949, 37.374866 ], [ 66.897053, 37.372 ], [ 66.872677, 37.366364 ], [ 66.851148, 37.353517 ], [ 66.846084, 37.353721 ], [ 66.840946, 37.356289 ], [ 66.823893, 37.355998 ], [ 66.800728, 37.363236 ], [ 66.769075, 37.360847 ], [ 66.751148, 37.353846 ], [ 66.742778, 37.355393 ], [ 66.736944, 37.361536 ], [ 66.732825, 37.36368 ], [ 66.710595, 37.356397 ], [ 66.692668, 37.356985 ], [ 66.671761, 37.341691 ], [ 66.671792, 37.336361 ], [ 66.667115, 37.328707 ], [ 66.655344, 37.323068 ], [ 66.65217, 37.323632 ], [ 66.646783, 37.327937 ], [ 66.630714, 37.328598 ], [ 66.622986, 37.332011 ], [ 66.619644, 37.340325 ], [ 66.610292, 37.349045 ], [ 66.610323, 37.355165 ], [ 66.608607, 37.358965 ], [ 66.604058, 37.363622 ], [ 66.598148, 37.365551 ], [ 66.593615, 37.368709 ], [ 66.583729, 37.369858 ], [ 66.574991, 37.369112 ], [ 66.560371, 37.362403 ], [ 66.553732, 37.354753 ], [ 66.521024, 37.370825 ], [ 66.518586, 37.38325 ], [ 66.521828, 37.392365 ], [ 66.52947, 37.401432 ], [ 66.5493, 37.413561 ], [ 66.573134, 37.423517 ], [ 66.637741, 37.439096 ], [ 66.646021, 37.453245 ], [ 66.645802, 37.465536 ], [ 66.636349, 37.484463 ], [ 66.539582, 37.578086 ], [ 66.53291, 37.605408 ], [ 66.54453, 37.700705 ], [ 66.538633, 37.728201 ], [ 66.539215, 37.747595 ], [ 66.54874, 37.792359 ], [ 66.564725, 37.822919 ], [ 66.580124, 37.841506 ], [ 66.596673, 37.855097 ], [ 66.611399, 37.881384 ], [ 66.625199, 37.892466 ], [ 66.671936, 37.913505 ], [ 66.679264, 37.919555 ], [ 66.683919, 37.932208 ], [ 66.683448, 37.948183 ], [ 66.676528, 37.961697 ], [ 66.620279, 38.01374 ], [ 66.595058, 38.026333 ], [ 66.565704, 38.035731 ], [ 66.549898, 38.0383 ], [ 66.496217, 38.041609 ], [ 66.428925, 38.026926 ], [ 66.400638, 38.032564 ], [ 66.372795, 38.051038 ], [ 66.31191, 38.079819 ], [ 66.274053, 38.113833 ], [ 66.246576, 38.152446 ], [ 66.238341, 38.157662 ], [ 66.19288, 38.161297 ], [ 66.11893, 38.178689 ], [ 66.105463, 38.185554 ], [ 66.103765, 38.18788 ], [ 66.093744, 38.201602 ], [ 66.049447, 38.211667 ], [ 66.031657, 38.225187 ], [ 66.022018, 38.227473 ], [ 65.993375, 38.226735 ], [ 65.974196, 38.231842 ], [ 65.95638, 38.241336 ], [ 65.936099, 38.259239 ], [ 65.912787, 38.275149 ], [ 65.895391, 38.278556 ], [ 65.87565, 38.278664 ], [ 65.853121, 38.274305 ], [ 65.842968, 38.26361 ], [ 65.835616, 38.251087 ], [ 65.821957, 38.25019 ], [ 65.816798, 38.239569 ], [ 65.81327, 38.237454 ], [ 65.795764, 38.236112 ], [ 65.694953, 38.252525 ], [ 65.481825, 38.318922 ], [ 65.35942, 38.377947 ], [ 65.301025, 38.408295 ], [ 65.262306, 38.432711 ], [ 65.201917, 38.476887 ], [ 65.089279, 38.566995 ], [ 65.033877, 38.607671 ], [ 64.966739, 38.633243 ], [ 64.889624, 38.656409 ], [ 64.827334, 38.679274 ], [ 64.802803, 38.693126 ], [ 64.79047, 38.700088 ], [ 64.773993, 38.712905 ], [ 64.67592, 38.758807 ], [ 64.652101, 38.772932 ], [ 64.58182, 38.805922 ], [ 64.524512, 38.837328 ], [ 64.403313, 38.924768 ], [ 64.331405, 38.985204 ], [ 64.32163, 38.986075 ], [ 64.297825, 38.981516 ], [ 64.253107, 38.961754 ], [ 64.22945, 38.95682 ], [ 64.206721, 38.956421 ], [ 64.179414, 38.959156 ], [ 64.156887, 38.967599 ], [ 64.092135, 39.008985 ], [ 64.029364, 39.043163 ], [ 63.888017, 39.127732 ], [ 63.844063, 39.150276 ], [ 63.744971, 39.207232 ], [ 63.71759, 39.228001 ], [ 63.696155, 39.247973 ], [ 63.657952, 39.290844 ], [ 63.537431, 39.384284 ], [ 63.455029, 39.429685 ], [ 63.357222, 39.475475 ], [ 63.170446, 39.574125 ], [ 62.949164, 39.695791 ], [ 62.798188, 39.775666 ], [ 62.722114, 39.8188 ], [ 62.490273, 39.950084 ], [ 62.463378, 39.969009 ], [ 62.443548, 39.990257 ], [ 62.439796, 39.998429 ], [ 62.435242, 40.014082 ], [ 62.435798, 40.024491 ], [ 62.429792, 40.036866 ], [ 62.426478, 40.065073 ], [ 62.396794, 40.099683 ], [ 62.397696, 40.110513 ], [ 62.411937, 40.13102 ], [ 62.413699, 40.172558 ], [ 62.405692, 40.190219 ], [ 62.402232, 40.211067 ], [ 62.390163, 40.243613 ], [ 62.388264, 40.263175 ], [ 62.383756, 40.27593 ], [ 62.38462, 40.286348 ], [ 62.392151, 40.302656 ], [ 62.391419, 40.317545 ], [ 62.37511, 40.339773 ], [ 62.349944, 40.357867 ], [ 62.334385, 40.376601 ], [ 62.333736, 40.384248 ], [ 62.344164, 40.409931 ], [ 62.349428, 40.437127 ], [ 62.330086, 40.44526 ], [ 62.311275, 40.449251 ], [ 62.296695, 40.45719 ], [ 62.263437, 40.484607 ], [ 62.236352, 40.494203 ], [ 62.208901, 40.508009 ], [ 62.188022, 40.531152 ], [ 62.14526, 40.556016 ], [ 62.134752, 40.565901 ], [ 62.128234, 40.574254 ], [ 62.126233, 40.579062 ], [ 62.113151, 40.596011 ], [ 62.110435, 40.601549 ], [ 62.107306, 40.612104 ], [ 62.105457, 40.629316 ], [ 62.097773, 40.643081 ], [ 62.09097, 40.657013 ], [ 62.078211, 40.676298 ], [ 62.067011, 40.688589 ], [ 62.062374, 40.691215 ], [ 62.053455, 40.697919 ], [ 62.05189, 40.699095 ], [ 62.045462, 40.712196 ], [ 62.042041, 40.757721 ], [ 62.032188, 40.769948 ], [ 62.026341, 40.786877 ], [ 62.006904, 40.810664 ], [ 62.000149, 40.820307 ], [ 62.000639, 40.823216 ], [ 62.000895, 40.824741 ], [ 61.998133, 40.840505 ], [ 61.999983, 40.847844 ], [ 62.001482, 40.859885 ], [ 62.000127, 40.8922 ], [ 61.996905, 40.900344 ], [ 61.996228, 40.912269 ], [ 61.995624, 40.922904 ], [ 61.992733, 40.931355 ], [ 61.991414, 40.946793 ], [ 61.996299, 40.973607 ], [ 61.991522, 40.980064 ], [ 61.980541, 40.98374 ], [ 61.97665, 40.995393 ], [ 61.977092, 41.006042 ], [ 61.970887, 41.019099 ], [ 61.963583, 41.027474 ], [ 61.954622, 41.034501 ], [ 61.946886, 41.037047 ], [ 61.923149, 41.047229 ], [ 61.910753, 41.049031 ], [ 61.900815, 41.053599 ], [ 61.897377, 41.058046 ], [ 61.894503, 41.062546 ], [ 61.897495, 41.069536 ], [ 61.898462, 41.078114 ], [ 61.890573, 41.09516 ], [ 61.880346, 41.109397 ], [ 61.854012, 41.121389 ], [ 61.81325, 41.153558 ], [ 61.788931, 41.159323 ], [ 61.780601, 41.163238 ], [ 61.756773, 41.17574 ], [ 61.746261, 41.184013 ], [ 61.736634, 41.193956 ], [ 61.712706, 41.215192 ], [ 61.70236, 41.219975 ], [ 61.674621, 41.222183 ], [ 61.660618, 41.225899 ], [ 61.649921, 41.231446 ], [ 61.64112, 41.237669 ], [ 61.635137, 41.253096 ], [ 61.626873, 41.264984 ], [ 61.620426, 41.270184 ], [ 61.60884, 41.275171 ], [ 61.598125, 41.275523 ], [ 61.589117, 41.272527 ], [ 61.569303, 41.266408 ], [ 61.548763, 41.267606 ], [ 61.532934, 41.268529 ], [ 61.51576, 41.272352 ], [ 61.480572, 41.286663 ], [ 61.443998, 41.291342 ], [ 61.430033, 41.289964 ], [ 61.420238, 41.284277 ], [ 61.404322, 41.262208 ], [ 61.404923, 41.219203 ], [ 61.395797, 41.205627 ], [ 61.389631, 41.180914 ], [ 61.38016, 41.165401 ], [ 61.360763, 41.153076 ], [ 61.333582, 41.148138 ], [ 61.301476, 41.145423 ], [ 61.241273, 41.148655 ], [ 61.185519, 41.167066 ], [ 61.169359, 41.174703 ], [ 61.125203, 41.209545 ], [ 61.114602, 41.212085 ], [ 61.074611, 41.209618 ], [ 61.044149, 41.234539 ], [ 60.941735, 41.238178 ], [ 60.930094, 41.235168 ], [ 60.907446, 41.235883 ], [ 60.861236, 41.230871 ], [ 60.80561, 41.23261 ], [ 60.766027, 41.227696 ], [ 60.684616, 41.227527 ], [ 60.591414, 41.224274 ], [ 60.561492, 41.22323 ], [ 60.503527, 41.216606 ], [ 60.485038, 41.217628 ], [ 60.46915, 41.221572 ], [ 60.402347, 41.251573 ], [ 60.336795, 41.295013 ], [ 60.307129, 41.311021 ], [ 60.205013, 41.362985 ], [ 60.130926, 41.395113 ], [ 60.106893, 41.411272 ], [ 60.094253, 41.431553 ], [ 60.097603, 41.503836 ], [ 60.103901, 41.53484 ], [ 60.113394, 41.549211 ], [ 60.15806, 41.58087 ], [ 60.163413, 41.590766 ], [ 60.16373, 41.6073 ], [ 60.157706, 41.624064 ], [ 60.133474, 41.656443 ], [ 60.106621, 41.683763 ], [ 60.068566, 41.729187 ], [ 60.060786, 41.753303 ], [ 60.071911, 41.773908 ], [ 60.083646, 41.808451 ], [ 60.09382, 41.811259 ], [ 60.115139, 41.803524 ], [ 60.13883, 41.80296 ], [ 60.203044, 41.783386 ], [ 60.231601, 41.766582 ], [ 60.256891, 41.766469 ], [ 60.273881, 41.756845 ], [ 60.289062, 41.752949 ], [ 60.297845, 41.758465 ], [ 60.315105, 41.759799 ], [ 60.318296, 41.762126 ], [ 60.319041, 41.767286 ], [ 60.307848, 41.779631 ], [ 60.283618, 41.794169 ], [ 60.259591, 41.814593 ], [ 60.231527, 41.824527 ], [ 60.19655, 41.830577 ], [ 60.182576, 41.835576 ], [ 60.156288, 41.85166 ], [ 60.148886, 41.859194 ], [ 60.137367, 41.878771 ], [ 60.125347, 41.889224 ], [ 60.113488, 41.895205 ], [ 60.063709, 41.90801 ], [ 60.047836, 41.915122 ], [ 60.007463, 41.950738 ], [ 59.994335, 41.956427 ], [ 59.97558, 41.954455 ], [ 59.949519, 41.973841 ], [ 59.946114, 41.987504 ], [ 59.960306, 41.998456 ], [ 60.020805, 42.002529 ], [ 60.029318, 42.0098 ], [ 60.025576, 42.022165 ], [ 60.014428, 42.034752 ], [ 60.00514, 42.051599 ], [ 60.000932, 42.065468 ], [ 59.996899, 42.102145 ], [ 59.971387, 42.127005 ], [ 59.969646, 42.137398 ], [ 59.974044, 42.146794 ], [ 59.988094, 42.153383 ], [ 59.997006, 42.15559 ], [ 60.026522, 42.15187 ], [ 60.034925, 42.15384 ], [ 60.044936, 42.161383 ], [ 60.049128, 42.167152 ], [ 60.049215, 42.178137 ], [ 60.040439, 42.194082 ], [ 60.030104, 42.20381 ], [ 60.008727, 42.214155 ], [ 59.970875, 42.218361 ], [ 59.956572, 42.222717 ], [ 59.937966, 42.235164 ], [ 59.921782, 42.251657 ], [ 59.90712, 42.272958 ], [ 59.895857, 42.28083 ], [ 59.851089, 42.292858 ], [ 59.828646, 42.305463 ], [ 59.821449, 42.297324 ], [ 59.811484, 42.275077 ], [ 59.801465, 42.268824 ], [ 59.791389, 42.26903 ], [ 59.758156, 42.276476 ], [ 59.737508, 42.283336 ], [ 59.71414, 42.286019 ], [ 59.676432, 42.28646 ], [ 59.641568, 42.280791 ], [ 59.577092, 42.278176 ], [ 59.541803, 42.27895 ], [ 59.48846, 42.277166 ], [ 59.442032, 42.275612 ], [ 59.418415, 42.277236 ], [ 59.406987, 42.2842 ], [ 59.391484, 42.30554 ], [ 59.376622, 42.311764 ], [ 59.357367, 42.328649 ], [ 59.271728, 42.392263 ], [ 59.270237, 42.399816 ], [ 59.279653, 42.420227 ], [ 59.277005, 42.438952 ], [ 59.204159, 42.509489 ], [ 59.1922, 42.518108 ], [ 59.171177, 42.527345 ], [ 59.15952, 42.528789 ], [ 59.137776, 42.524195 ], [ 59.116985, 42.512345 ], [ 59.103833, 42.508239 ], [ 59.080377, 42.509308 ], [ 59.049044, 42.510737 ], [ 59.03079, 42.514884 ], [ 58.996749, 42.528196 ], [ 58.949317, 42.538697 ], [ 58.934246, 42.544028 ], [ 58.902536, 42.564308 ], [ 58.898114, 42.567135 ], [ 58.80825, 42.63984 ], [ 58.702866, 42.726286 ], [ 58.677688, 42.749739 ], [ 58.637237, 42.787401 ], [ 58.626683, 42.794502 ], [ 58.618856, 42.761043 ], [ 58.622299, 42.7528 ], [ 58.626583, 42.749739 ], [ 58.638842, 42.740979 ], [ 58.640196, 42.735136 ], [ 58.636597, 42.727831 ], [ 58.629804, 42.724551 ], [ 58.620469, 42.724666 ], [ 58.609931, 42.728833 ], [ 58.594236, 42.728676 ], [ 58.584589, 42.719636 ], [ 58.585081, 42.716103 ], [ 58.598851, 42.707136 ], [ 58.604047, 42.69956 ], [ 58.595044, 42.665947 ], [ 58.588254, 42.658269 ], [ 58.578205, 42.653726 ], [ 58.551572, 42.658997 ], [ 58.496325, 42.65142 ], [ 58.472479, 42.650565 ], [ 58.443894, 42.660346 ], [ 58.418189, 42.664417 ], [ 58.39213, 42.673283 ], [ 58.363297, 42.679193 ], [ 58.29884, 42.689142 ], [ 58.279738, 42.688921 ], [ 58.247392, 42.679861 ], [ 58.224033, 42.670006 ], [ 58.174703, 42.640087 ], [ 58.157067, 42.636128 ], [ 58.151741, 42.63214 ], [ 58.14843, 42.623287 ], [ 58.155852, 42.60935 ], [ 58.196915, 42.587361 ], [ 58.24708, 42.566769 ], [ 58.267793, 42.561013 ], [ 58.294799, 42.557507 ], [ 58.304563, 42.549931 ], [ 58.364309, 42.449026 ], [ 58.404532, 42.404722 ], [ 58.408635, 42.390054 ], [ 58.408902, 42.370416 ], [ 58.417614, 42.364802 ], [ 58.432182, 42.364868 ], [ 58.497246, 42.334276 ], [ 58.516515, 42.322404 ], [ 58.520007, 42.309368 ], [ 58.513651, 42.297477 ], [ 58.506247, 42.291828 ], [ 58.492315, 42.289384 ], [ 58.447631, 42.297123 ], [ 58.406333, 42.292276 ], [ 58.402532, 42.302727 ], [ 58.404772, 42.334105 ], [ 58.40254, 42.351278 ], [ 58.385195, 42.396759 ], [ 58.36818, 42.41997 ], [ 58.349681, 42.435016 ], [ 58.326532, 42.446731 ], [ 58.244937, 42.464113 ], [ 58.216154, 42.468036 ], [ 58.200173, 42.466887 ], [ 58.137682, 42.443562 ], [ 58.125733, 42.441559 ], [ 58.12187, 42.443741 ], [ 58.116494, 42.45523 ], [ 58.093216, 42.469305 ], [ 58.08561, 42.48952 ], [ 58.068996, 42.500802 ], [ 58.049632, 42.504529 ], [ 58.018625, 42.500256 ], [ 57.995133, 42.489407 ], [ 57.983635, 42.488551 ], [ 57.978505, 42.485168 ], [ 57.968675, 42.4553 ], [ 57.96219, 42.443817 ], [ 57.9557, 42.445186 ], [ 57.940235, 42.457968 ], [ 57.932568, 42.460008 ], [ 57.917588, 42.457425 ], [ 57.910579, 42.450211 ], [ 57.905473, 42.425365 ], [ 57.911214, 42.41484 ], [ 57.917588, 42.409738 ], [ 57.930265, 42.40081 ], [ 57.938819, 42.390712 ], [ 57.947129, 42.37096 ], [ 57.946481, 42.362612 ], [ 57.938893, 42.34543 ], [ 57.939226, 42.323766 ], [ 57.934221, 42.304684 ], [ 57.936408, 42.279971 ], [ 57.932595, 42.256216 ], [ 57.926859, 42.243779 ], [ 57.920745, 42.239026 ], [ 57.917588, 42.238198 ], [ 57.91126, 42.236539 ], [ 57.892229, 42.237123 ], [ 57.856774, 42.247734 ], [ 57.846874, 42.245599 ], [ 57.840862, 42.236969 ], [ 57.834331, 42.218657 ], [ 57.857385, 42.183397 ], [ 57.853659, 42.175238 ], [ 57.835868, 42.173008 ], [ 57.76738, 42.180872 ], [ 57.716465, 42.167946 ], [ 57.675667, 42.152183 ], [ 57.658867, 42.149167 ], [ 57.645899, 42.149928 ], [ 57.609207, 42.165593 ], [ 57.571024, 42.171167 ], [ 57.522074, 42.174015 ], [ 57.465221, 42.173073 ], [ 57.410966, 42.169474 ], [ 57.367148, 42.157617 ], [ 57.311418, 42.137041 ], [ 57.263935, 42.110908 ], [ 57.237931, 42.093869 ], [ 57.21475, 42.069034 ], [ 57.204982, 42.053789 ], [ 57.190988, 42.029215 ], [ 57.167355, 41.975111 ], [ 57.154204, 41.961332 ], [ 57.132449, 41.945401 ], [ 57.111632, 41.935897 ], [ 57.037231, 41.917573 ], [ 57.021521, 41.91026 ], [ 57.00798, 41.900533 ], [ 57.002171, 41.896359 ], [ 56.984473, 41.868213 ], [ 56.967822, 41.805324 ], [ 56.968696, 41.760697 ], [ 56.975035, 41.716757 ], [ 56.972371, 41.67255 ], [ 56.984847, 41.633017 ], [ 57.001506, 41.606094 ], [ 57.00798, 41.602688 ], [ 57.018689, 41.587792 ], [ 57.02452, 41.56905 ], [ 57.026522, 41.554806 ], [ 57.022738, 41.533507 ], [ 57.022832, 41.496302 ], [ 57.03174, 41.446499 ], [ 57.045438, 41.419697 ], [ 57.084571, 41.376933 ], [ 57.106289, 41.374943 ], [ 57.147039, 41.3834 ], [ 57.156217, 41.378295 ], [ 57.158065, 41.372377 ], [ 57.151917, 41.358914 ], [ 57.142164, 41.351103 ], [ 57.129362, 41.345341 ], [ 57.090011, 41.334606 ], [ 57.071111, 41.321592 ], [ 57.061401, 41.307249 ], [ 57.058511, 41.280908 ], [ 57.043389, 41.264429 ], [ 57.029279, 41.258825 ], [ 57.00798, 41.258522 ], [ 57.002917, 41.258511 ], [ 56.961516, 41.265643 ], [ 56.877409, 41.271181 ], [ 56.786083, 41.28079 ], [ 56.691992, 41.285162 ], [ 56.642035, 41.287483 ], [ 56.55943, 41.288928 ], [ 56.430341, 41.300016 ], [ 56.358083, 41.3041 ], [ 56.313778, 41.30411 ], [ 56.296798, 41.305271 ], [ 56.204644, 41.311573 ], [ 56.000599, 41.31805 ], [ 56.000388, 42.192303 ], [ 56.000239, 42.819604 ], [ 56.000039, 43.649838 ], [ 56.000716, 45.000061 ], [ 56.296798, 45.067729 ], [ 56.691992, 45.157924 ], [ 57.00798, 45.229939 ], [ 57.917588, 45.436734 ], [ 58.595813, 45.590434 ], [ 58.902536, 45.430852 ], [ 59.080377, 45.338117 ], [ 59.48846, 45.124748 ], [ 60.591414, 44.544054 ], [ 60.724534, 44.473571 ], [ 61.129911, 44.260629 ], [ 61.411351, 44.018376 ], [ 61.421126, 44.005737 ], [ 61.471677, 43.964408 ], [ 61.548763, 43.895116 ], [ 61.589117, 43.858809 ], [ 61.6116, 43.840478 ], [ 61.620478, 43.831463 ], [ 61.676179, 43.781874 ], [ 61.705311, 43.754954 ], [ 61.790028, 43.679721 ], [ 61.823192, 43.649838 ], [ 61.9755, 43.512409 ], [ 61.999452, 43.494044 ], [ 62.010818, 43.487745 ], [ 62.028985, 43.486563 ], [ 62.134752, 43.501931 ], [ 62.183715, 43.509044 ], [ 62.224356, 43.515144 ], [ 62.321582, 43.528651 ], [ 62.339091, 43.53137 ], [ 62.414019, 43.542251 ], [ 62.430476, 43.544074 ], [ 62.477182, 43.550543 ], [ 62.489684, 43.552947 ], [ 62.584948, 43.566255 ], [ 62.604615, 43.569538 ], [ 62.644445, 43.575255 ], [ 62.722114, 43.585819 ], [ 62.736147, 43.587728 ], [ 62.801823, 43.597379 ], [ 62.900285, 43.61057 ], [ 62.938998, 43.616756 ], [ 62.983208, 43.622247 ], [ 63.091143, 43.63673 ], [ 63.113348, 43.640336 ], [ 63.187399, 43.649838 ], [ 63.207756, 43.65245 ], [ 63.367943, 43.671579 ], [ 63.372125, 43.671717 ], [ 63.381363, 43.673373 ], [ 63.389106, 43.672827 ], [ 63.456678, 43.66276 ], [ 63.521669, 43.657117 ], [ 63.58302, 43.652483 ], [ 63.616213, 43.649838 ], [ 63.73172, 43.640634 ], [ 63.859963, 43.63454 ], [ 63.912021, 43.628075 ], [ 63.993668, 43.624376 ], [ 64.039951, 43.621338 ], [ 64.054121, 43.620227 ], [ 64.147884, 43.615163 ], [ 64.159141, 43.615081 ], [ 64.172332, 43.613103 ], [ 64.203103, 43.612545 ], [ 64.218867, 43.610889 ], [ 64.252794, 43.609863 ], [ 64.510997, 43.600529 ], [ 64.536225, 43.603462 ], [ 64.761831, 43.683739 ], [ 64.802803, 43.696749 ], [ 64.914815, 43.732302 ], [ 64.919565, 43.734016 ], [ 65.008568, 43.76612 ], [ 65.053141, 43.774583 ], [ 65.078134, 43.7765 ], [ 65.112213, 43.775503 ], [ 65.130194, 43.77088 ], [ 65.149445, 43.760682 ], [ 65.169977, 43.74273 ], [ 65.296187, 43.544007 ], [ 65.416629, 43.455745 ], [ 65.650399, 43.303081 ], [ 65.684307, 43.205932 ], [ 65.827132, 42.870142 ], [ 66.098627, 42.959824 ], [ 66.102051, 42.749739 ], [ 66.103765, 42.644316 ], [ 66.106675, 42.464921 ], [ 66.105963, 42.352616 ], [ 66.103765, 42.34876 ], [ 66.016788, 42.374716 ], [ 66.014197, 42.353424 ], [ 66.007093, 41.978833 ], [ 66.010297, 41.945834 ], [ 66.103765, 41.936387 ], [ 66.530334, 41.894469 ], [ 66.557239, 41.68534 ], [ 66.601482, 41.279315 ], [ 66.608027, 41.252021 ], [ 66.929008, 41.23418 ], [ 67.002762, 41.227689 ], [ 67.15038, 41.220562 ], [ 67.250963, 41.212124 ], [ 67.30723, 41.211692 ], [ 67.328826, 41.203326 ], [ 67.34228, 41.201397 ], [ 67.406908, 41.210451 ], [ 67.610612, 41.205838 ], [ 67.775636, 41.2021 ], [ 67.804397, 41.192405 ], [ 67.849078, 41.161037 ], [ 67.872773, 41.164983 ], [ 67.897891, 41.185336 ], [ 67.922536, 41.194517 ], [ 67.932759, 41.195426 ], [ 67.936261, 41.183033 ], [ 67.94374, 41.171769 ], [ 67.988093, 41.131535 ], [ 67.998525, 41.118389 ], [ 68.01056, 41.094825 ], [ 68.020685, 41.054944 ], [ 68.029165, 41.044166 ], [ 68.035715, 41.042286 ], [ 68.05289, 41.050265 ], [ 68.062162, 41.051626 ], [ 68.07521, 41.046015 ], [ 68.080259, 41.046186 ], [ 68.086078, 41.048993 ], [ 68.093175, 41.061107 ], [ 68.098747, 41.064362 ], [ 68.10569, 41.065102 ], [ 68.141373, 41.051818 ], [ 68.143008, 41.041448 ], [ 68.152382, 41.035473 ], [ 68.148851, 41.030505 ], [ 68.134583, 41.026045 ], [ 68.124925, 41.020221 ], [ 68.139757, 41.009689 ], [ 68.144881, 40.985314 ], [ 68.141089, 40.977533 ], [ 68.134794, 40.964618 ], [ 68.134269, 40.936696 ], [ 68.121388, 40.925918 ], [ 68.102898, 40.879595 ], [ 68.073921, 40.852026 ], [ 68.053481, 40.840963 ], [ 68.031977, 40.834172 ], [ 68.022644, 40.828574 ], [ 68.015417, 40.819836 ], [ 68.015965, 40.815372 ], [ 68.059067, 40.80754 ], [ 68.074196, 40.801213 ], [ 68.083559, 40.793795 ], [ 68.108507, 40.774024 ], [ 68.133647, 40.759372 ], [ 68.222546, 40.69892 ], [ 68.233018, 40.691796 ], [ 68.318759, 40.652859 ], [ 68.378726, 40.629273 ], [ 68.423365, 40.621125 ], [ 68.44022, 40.605378 ], [ 68.453166, 40.598922 ], [ 68.484741, 40.592882 ], [ 68.49814, 40.604493 ], [ 68.522504, 40.606799 ], [ 68.530913, 40.619092 ], [ 68.539024, 40.624453 ], [ 68.586186, 40.609799 ], [ 68.597922, 40.602936 ], [ 68.60928, 40.600814 ], [ 68.6328, 40.608481 ], [ 68.647559, 40.620818 ], [ 68.647805, 40.625541 ], [ 68.644458, 40.629687 ], [ 68.625629, 40.638387 ], [ 68.650532, 40.671847 ], [ 68.631832, 40.703617 ], [ 68.629737, 40.722737 ], [ 68.596913, 40.727701 ], [ 68.588661, 40.735367 ], [ 68.579273, 40.793795 ], [ 68.568919, 40.858177 ], [ 68.588448, 40.870218 ], [ 68.594195, 40.876415 ], [ 68.595905, 40.885754 ], [ 68.591781, 40.906299 ], [ 68.593919, 40.917626 ], [ 68.611499, 40.914874 ], [ 68.618932, 40.931692 ], [ 68.627892, 40.935136 ], [ 68.646071, 40.937331 ], [ 68.676511, 40.955507 ], [ 68.697425, 40.962254 ], [ 68.716116, 40.968284 ], [ 68.729609, 40.977533 ], [ 68.743974, 40.987379 ], [ 68.748535, 40.995132 ], [ 68.752332, 41.018415 ], [ 68.766437, 41.043321 ], [ 68.802894, 41.079657 ], [ 68.815358, 41.099652 ], [ 68.832192, 41.118844 ], [ 68.863652, 41.15012 ], [ 68.907152, 41.185369 ], [ 68.921595, 41.192387 ], [ 68.938629, 41.191517 ], [ 68.945271, 41.194746 ], [ 68.952106, 41.22237 ], [ 68.980041, 41.241247 ], [ 68.986221, 41.248849 ], [ 68.991538, 41.29261 ], [ 69.033169, 41.341333 ], [ 69.045898, 41.343755 ], [ 69.062054, 41.334743 ], [ 69.069983, 41.333167 ], [ 69.085728, 41.33893 ], [ 69.113156, 41.385081 ], [ 69.162835, 41.4082 ], [ 69.171528, 41.416673 ], [ 69.185362, 41.44527 ], [ 69.20998, 41.456927 ], [ 69.232469, 41.461515 ], [ 69.274163, 41.462152 ], [ 69.286825, 41.459642 ], [ 69.306836, 41.451601 ], [ 69.315052, 41.450783 ], [ 69.375771, 41.460235 ], [ 69.419553, 41.45554 ], [ 69.429004, 41.457647 ], [ 69.437226, 41.468309 ], [ 69.437986, 41.47424 ], [ 69.414511, 41.487609 ], [ 69.406243, 41.500293 ], [ 69.421072, 41.521929 ], [ 69.457965, 41.545393 ], [ 69.496382, 41.551941 ], [ 69.515361, 41.55938 ], [ 69.520747, 41.565199 ], [ 69.530892, 41.587671 ], [ 69.538353, 41.595746 ], [ 69.620412, 41.657186 ], [ 69.633879, 41.661905 ], [ 69.695852, 41.673933 ], [ 69.708205, 41.67927 ], [ 69.722573, 41.693115 ], [ 69.728802, 41.696298 ], [ 69.745239, 41.698354 ], [ 69.755396, 41.69699 ], [ 69.795526, 41.70196 ], [ 69.833193, 41.718856 ], [ 69.843829, 41.718815 ], [ 69.859108, 41.713769 ], [ 69.884835, 41.697141 ], [ 69.897257, 41.6977 ], [ 69.921388, 41.704437 ], [ 69.925844, 41.705681 ], [ 69.944245, 41.713137 ], [ 69.952063, 41.719173 ], [ 69.983637, 41.779009 ], [ 69.990037, 41.785313 ], [ 70.004033, 41.788754 ], [ 70.012578, 41.787669 ], [ 70.020873, 41.777658 ], [ 70.023284, 41.764558 ], [ 70.030987, 41.761888 ], [ 70.037699, 41.763193 ], [ 70.046065, 41.769237 ], [ 70.053806, 41.788914 ], [ 70.063542, 41.804084 ], [ 70.092347, 41.818995 ], [ 70.137829, 41.834998 ], [ 70.146909, 41.838183 ], [ 70.15974, 41.844337 ], [ 70.172576, 41.860805 ], [ 70.181148, 41.875293 ], [ 70.188588, 41.893226 ], [ 70.197935, 41.905472 ], [ 70.206443, 41.912175 ], [ 70.221114, 41.920188 ], [ 70.240305, 41.941126 ], [ 70.26365, 41.949433 ], [ 70.265304, 41.950021 ], [ 70.277051, 41.949707 ], [ 70.287737, 41.95858 ], [ 70.308602, 41.963684 ], [ 70.314872, 41.966436 ], [ 70.321803, 41.969478 ], [ 70.330827, 41.975592 ], [ 70.332682, 41.980135 ], [ 70.332582, 41.993176 ], [ 70.330457, 42.004683 ], [ 70.325344, 42.015465 ], [ 70.325008, 42.027115 ], [ 70.32271, 42.034445 ], [ 70.329499, 42.042495 ], [ 70.363423, 42.057887 ], [ 70.370137, 42.069028 ], [ 70.38158, 42.078124 ], [ 70.391181, 42.083031 ], [ 70.395858, 42.088919 ], [ 70.399627, 42.115474 ], [ 70.402375, 42.122836 ], [ 70.410591, 42.130495 ], [ 70.417128, 42.132581 ], [ 70.425205, 42.132713 ], [ 70.433241, 42.130088 ], [ 70.491633, 42.091961 ], [ 70.509694, 42.083391 ], [ 70.519996, 42.081248 ], [ 70.522689, 42.077847 ], [ 70.546443, 42.069499 ], [ 70.553064, 42.063363 ], [ 70.558287, 42.054878 ], [ 70.55596, 42.028835 ], [ 70.556435, 42.022755 ], [ 70.559107, 42.018834 ], [ 70.57546, 42.015218 ], [ 70.601919, 41.997106 ], [ 70.610983, 41.996702 ], [ 70.623186, 41.999131 ], [ 70.626975, 42.000884 ], [ 70.631671, 42.008481 ], [ 70.630711, 42.011986 ], [ 70.65444, 42.05991 ], [ 70.674102, 42.088841 ], [ 70.674082, 42.099046 ], [ 70.677389, 42.109279 ], [ 70.693529, 42.126758 ], [ 70.704029, 42.131626 ], [ 70.71463, 42.139211 ], [ 70.726746, 42.153796 ], [ 70.744443, 42.164391 ], [ 70.762803, 42.186807 ], [ 70.76959, 42.192303 ], [ 70.777073, 42.198362 ], [ 70.785155, 42.202405 ], [ 70.789727, 42.207335 ], [ 70.795859, 42.20989 ], [ 70.800992, 42.209833 ], [ 70.807842, 42.206749 ], [ 70.815295, 42.198769 ], [ 70.823929, 42.193641 ], [ 70.839138, 42.194008 ], [ 70.86477, 42.208316 ], [ 70.875272, 42.21319 ], [ 70.885588, 42.21531 ], [ 70.899314, 42.221208 ], [ 70.907019, 42.226134 ], [ 70.94022, 42.2592 ], [ 70.953916, 42.262126 ], [ 70.974666, 42.258184 ], [ 70.988246, 42.258773 ], [ 71.018982, 42.276926 ], [ 71.041982, 42.284414 ], [ 71.059386, 42.28758 ], [ 71.072926, 42.286424 ], [ 71.099623, 42.276539 ], [ 71.136706, 42.271866 ], [ 71.157192, 42.262748 ], [ 71.223597, 42.218629 ], [ 71.256909, 42.201518 ], [ 71.259356, 42.195406 ], [ 71.253414, 42.183435 ], [ 71.24998, 42.160614 ], [ 71.213664, 42.136451 ], [ 71.173516, 42.139146 ], [ 71.146311, 42.132593 ], [ 71.090284, 42.093864 ], [ 71.066452, 42.083781 ], [ 71.032665, 42.058601 ], [ 71.014036, 42.050614 ], [ 70.989056, 42.035391 ], [ 70.969915, 42.028083 ], [ 70.950976, 42.026743 ], [ 70.934073, 42.029529 ], [ 70.890382, 42.04588 ], [ 70.874915, 42.045749 ], [ 70.863648, 42.041845 ], [ 70.858317, 42.036109 ], [ 70.853904, 42.024649 ], [ 70.841739, 42.013743 ], [ 70.836125, 42.003025 ], [ 70.85284, 41.970416 ], [ 70.849502, 41.946137 ], [ 70.839989, 41.93433 ], [ 70.828579, 41.925833 ], [ 70.812619, 41.920435 ], [ 70.794746, 41.921079 ], [ 70.758857, 41.931354 ], [ 70.745789, 41.914982 ], [ 70.708728, 41.917931 ], [ 70.677905, 41.907324 ], [ 70.656883, 41.890909 ], [ 70.638314, 41.865507 ], [ 70.609859, 41.847192 ], [ 70.598484, 41.826784 ], [ 70.557228, 41.804653 ], [ 70.52941, 41.794311 ], [ 70.515088, 41.784242 ], [ 70.508936, 41.773218 ], [ 70.506293, 41.741177 ], [ 70.488492, 41.717031 ], [ 70.458946, 41.701827 ], [ 70.399961, 41.679003 ], [ 70.378926, 41.660169 ], [ 70.344968, 41.636911 ], [ 70.328492, 41.63175 ], [ 70.301827, 41.630955 ], [ 70.26365, 41.607564 ], [ 70.227102, 41.607213 ], [ 70.194052, 41.596016 ], [ 70.186437, 41.587518 ], [ 70.180978, 41.574275 ], [ 70.179503, 41.543853 ], [ 70.18408, 41.523652 ], [ 70.18833, 41.518397 ], [ 70.198642, 41.513949 ], [ 70.226438, 41.513528 ], [ 70.24821, 41.510657 ], [ 70.26365, 41.511954 ], [ 70.27785, 41.516237 ], [ 70.299334, 41.516926 ], [ 70.314872, 41.514815 ], [ 70.345571, 41.506153 ], [ 70.35656, 41.500034 ], [ 70.376275, 41.47325 ], [ 70.41111, 41.463336 ], [ 70.431725, 41.44473 ], [ 70.454409, 41.430865 ], [ 70.476397, 41.404706 ], [ 70.488141, 41.399715 ], [ 70.516816, 41.39889 ], [ 70.530634, 41.401409 ], [ 70.562091, 41.420734 ], [ 70.583553, 41.4417 ], [ 70.599876, 41.449082 ], [ 70.626824, 41.455088 ], [ 70.653631, 41.455606 ], [ 70.681198, 41.467866 ], [ 70.712032, 41.462071 ], [ 70.727189, 41.439346 ], [ 70.777636, 41.378257 ], [ 70.788439, 41.348377 ], [ 70.785545, 41.325224 ], [ 70.776965, 41.306586 ], [ 70.777646, 41.283227 ], [ 70.782924, 41.268043 ], [ 70.794967, 41.253054 ], [ 70.797552, 41.245318 ], [ 70.793562, 41.235513 ], [ 70.780345, 41.220592 ], [ 70.778882, 41.205416 ], [ 70.78425, 41.18843 ], [ 70.79961, 41.17665 ], [ 70.811345, 41.173723 ], [ 70.819727, 41.176488 ], [ 70.847167, 41.218926 ], [ 70.856205, 41.227217 ], [ 70.869357, 41.231114 ], [ 70.878056, 41.22883 ], [ 70.899807, 41.2097 ], [ 70.932912, 41.18966 ], [ 70.948498, 41.168996 ], [ 70.958554, 41.164752 ], [ 71.01504, 41.190362 ], [ 71.029482, 41.19241 ], [ 71.074505, 41.176297 ], [ 71.088363, 41.161773 ], [ 71.099007, 41.154605 ], [ 71.119655, 41.148647 ], [ 71.129075, 41.148014 ], [ 71.144114, 41.153293 ], [ 71.162454, 41.166288 ], [ 71.178341, 41.171252 ], [ 71.196277, 41.183819 ], [ 71.202652, 41.182498 ], [ 71.211539, 41.171026 ], [ 71.218335, 41.16962 ], [ 71.223763, 41.173394 ], [ 71.229446, 41.186406 ], [ 71.244891, 41.189562 ], [ 71.260176, 41.183623 ], [ 71.272749, 41.170076 ], [ 71.277436, 41.149685 ], [ 71.27431, 41.115069 ], [ 71.279283, 41.106866 ], [ 71.293659, 41.106808 ], [ 71.308919, 41.116077 ], [ 71.321071, 41.131541 ], [ 71.329443, 41.154943 ], [ 71.341329, 41.162988 ], [ 71.351612, 41.16493 ], [ 71.366025, 41.161066 ], [ 71.38188, 41.148272 ], [ 71.387526, 41.138368 ], [ 71.39344, 41.113066 ], [ 71.396847, 41.108467 ], [ 71.405827, 41.105792 ], [ 71.416714, 41.108932 ], [ 71.436126, 41.127102 ], [ 71.450509, 41.156262 ], [ 71.459001, 41.189441 ], [ 71.46026, 41.191794 ], [ 71.474851, 41.219044 ], [ 71.470014, 41.23126 ], [ 71.46026, 41.236157 ], [ 71.454805, 41.238896 ], [ 71.44969, 41.24529 ], [ 71.452473, 41.266682 ], [ 71.449773, 41.2804 ], [ 71.452102, 41.288209 ], [ 71.46026, 41.295682 ], [ 71.476357, 41.310423 ], [ 71.484786, 41.314215 ], [ 71.507952, 41.309039 ], [ 71.530918, 41.31514 ], [ 71.545166, 41.315117 ], [ 71.556966, 41.310943 ], [ 71.571216, 41.301467 ], [ 71.584415, 41.300442 ], [ 71.591987, 41.30647 ], [ 71.6036, 41.327146 ], [ 71.624753, 41.348149 ], [ 71.641949, 41.351783 ], [ 71.654124, 41.373177 ], [ 71.673016, 41.395367 ], [ 71.660904, 41.421215 ], [ 71.669828, 41.440638 ], [ 71.675249, 41.461713 ], [ 71.671901, 41.471655 ], [ 71.664188, 41.480099 ], [ 71.649856, 41.485474 ], [ 71.624847, 41.489543 ], [ 71.620711, 41.493053 ], [ 71.620414, 41.498625 ], [ 71.627695, 41.504888 ], [ 71.652895, 41.513924 ], [ 71.676332, 41.539875 ], [ 71.691383, 41.55073 ], [ 71.704245, 41.554045 ], [ 71.722093, 41.553347 ], [ 71.728899, 41.550103 ], [ 71.731572, 41.544854 ], [ 71.724145, 41.5219 ], [ 71.726591, 41.488008 ], [ 71.717314, 41.469626 ], [ 71.699165, 41.447542 ], [ 71.699295, 41.437347 ], [ 71.704806, 41.428472 ], [ 71.71411, 41.422516 ], [ 71.720428, 41.424323 ], [ 71.722226, 41.432486 ], [ 71.717896, 41.446214 ], [ 71.721931, 41.451505 ], [ 71.730554, 41.455263 ], [ 71.741688, 41.453354 ], [ 71.751631, 41.438412 ], [ 71.759352, 41.437801 ], [ 71.763301, 41.443507 ], [ 71.76663, 41.464372 ], [ 71.769917, 41.467032 ], [ 71.774087, 41.466537 ], [ 71.798678, 41.433405 ], [ 71.826821, 41.411386 ], [ 71.838586, 41.397343 ], [ 71.841561, 41.368284 ], [ 71.846508, 41.366403 ], [ 71.8541, 41.367077 ], [ 71.871691, 41.376809 ], [ 71.873615, 41.377874 ], [ 71.882321, 41.377035 ], [ 71.887603, 41.369747 ], [ 71.887111, 41.350971 ], [ 71.892562, 41.339625 ], [ 71.910565, 41.322862 ], [ 71.932752, 41.309841 ], [ 71.932062, 41.303307 ], [ 71.920575, 41.283533 ], [ 71.895057, 41.258003 ], [ 71.876699, 41.23375 ], [ 71.871691, 41.222585 ], [ 71.864842, 41.207313 ], [ 71.866016, 41.198663 ], [ 71.871691, 41.196097 ], [ 71.881911, 41.191474 ], [ 71.884789, 41.179811 ], [ 71.890508, 41.173713 ], [ 71.921466, 41.162994 ], [ 71.9435, 41.158825 ], [ 71.972996, 41.168726 ], [ 71.999754, 41.167302 ], [ 72.024409, 41.16182 ], [ 72.059047, 41.145743 ], [ 72.076286, 41.140953 ], [ 72.085914, 41.142961 ], [ 72.105036, 41.153768 ], [ 72.126705, 41.162211 ], [ 72.140996, 41.161959 ], [ 72.162441, 41.157941 ], [ 72.181485, 41.158424 ], [ 72.19128, 41.154373 ], [ 72.203237, 41.139485 ], [ 72.217338, 41.0722 ], [ 72.226397, 41.051285 ], [ 72.222838, 41.042342 ], [ 72.212803, 41.032864 ], [ 72.180266, 41.021362 ], [ 72.180046, 41.015567 ], [ 72.188442, 41.008686 ], [ 72.202927, 41.003596 ], [ 72.226358, 41.006622 ], [ 72.294699, 41.029421 ], [ 72.318107, 41.04273 ], [ 72.341046, 41.06046 ], [ 72.359441, 41.063152 ], [ 72.388327, 41.055771 ], [ 72.411447, 41.045484 ], [ 72.428542, 41.04342 ], [ 72.44819, 41.038029 ], [ 72.476183, 41.036487 ], [ 72.495667, 41.029879 ], [ 72.500776, 41.021939 ], [ 72.501649, 41.006643 ], [ 72.485391, 40.978201 ], [ 72.485682, 40.972227 ], [ 72.491796, 40.971202 ], [ 72.506946, 40.98087 ], [ 72.514455, 40.980032 ], [ 72.52872, 40.971913 ], [ 72.569659, 40.924112 ], [ 72.578778, 40.889207 ], [ 72.595979, 40.880657 ], [ 72.678111, 40.856936 ], [ 72.697706, 40.858331 ], [ 72.727719, 40.85531 ], [ 72.734035, 40.85531 ], [ 72.768215, 40.862728 ], [ 72.789502, 40.861109 ], [ 72.832, 40.868737 ], [ 72.850448, 40.868403 ], [ 72.868194, 40.861082 ], [ 72.87523, 40.85531 ], [ 72.89544, 40.838574 ], [ 72.911017, 40.817775 ], [ 72.929975, 40.813075 ], [ 72.951579, 40.818009 ], [ 72.976672, 40.832643 ], [ 72.994605, 40.839454 ], [ 72.994344, 40.846439 ], [ 72.983361, 40.85531 ], [ 72.978044, 40.863891 ], [ 72.986801, 40.884418 ], [ 72.996468, 40.887359 ], [ 73.021951, 40.866312 ], [ 73.029672, 40.864109 ], [ 73.041438, 40.860751 ], [ 73.053477, 40.85531 ], [ 73.060885, 40.851962 ], [ 73.078611, 40.85531 ], [ 73.09067, 40.857201 ], [ 73.117489, 40.85531 ], [ 73.125343, 40.84981 ], [ 73.130939, 40.83465 ], [ 73.124656, 40.812121 ], [ 73.106509, 40.793272 ], [ 73.045441, 40.772326 ], [ 73.029672, 40.769818 ], [ 73.006898, 40.766197 ], [ 72.990599, 40.752515 ], [ 72.967707, 40.740133 ], [ 72.937898, 40.727548 ], [ 72.900335, 40.716886 ], [ 72.878209, 40.707837 ], [ 72.844743, 40.688098 ], [ 72.816832, 40.681395 ], [ 72.79002, 40.682564 ], [ 72.772407, 40.679026 ], [ 72.767474, 40.669787 ], [ 72.776423, 40.65181 ], [ 72.763757, 40.640258 ], [ 72.7606, 40.633491 ], [ 72.763189, 40.588114 ], [ 72.760293, 40.570771 ], [ 72.756417, 40.568478 ], [ 72.744089, 40.568945 ], [ 72.715638, 40.586736 ], [ 72.683221, 40.591231 ], [ 72.677531, 40.586316 ], [ 72.673428, 40.574171 ], [ 72.654884, 40.560214 ], [ 72.648331, 40.537189 ], [ 72.63418, 40.520747 ], [ 72.616285, 40.518266 ], [ 72.583032, 40.535016 ], [ 72.548801, 40.538565 ], [ 72.51107, 40.55844 ], [ 72.486139, 40.557452 ], [ 72.458799, 40.582038 ], [ 72.443939, 40.600672 ], [ 72.41096, 40.620889 ], [ 72.403627, 40.622006 ], [ 72.383567, 40.616195 ], [ 72.359512, 40.614181 ], [ 72.353959, 40.608103 ], [ 72.35586, 40.603293 ], [ 72.381619, 40.594349 ], [ 72.395633, 40.575722 ], [ 72.419015, 40.56814 ], [ 72.428019, 40.557754 ], [ 72.427193, 40.551144 ], [ 72.421076, 40.545097 ], [ 72.413721, 40.542316 ], [ 72.395595, 40.540513 ], [ 72.389098, 40.530965 ], [ 72.39332, 40.523729 ], [ 72.410836, 40.524597 ], [ 72.417197, 40.52107 ], [ 72.424828, 40.495942 ], [ 72.435369, 40.485044 ], [ 72.439629, 40.475631 ], [ 72.417487, 40.431232 ], [ 72.421575, 40.414889 ], [ 72.417878, 40.40382 ], [ 72.408507, 40.401941 ], [ 72.37952, 40.407415 ], [ 72.36889, 40.412451 ], [ 72.337809, 40.436482 ], [ 72.322427, 40.44513 ], [ 72.313397, 40.446941 ], [ 72.296931, 40.443961 ], [ 72.274915, 40.460208 ], [ 72.249372, 40.463518 ], [ 72.245097, 40.469964 ], [ 72.250542, 40.488867 ], [ 72.242936, 40.495321 ], [ 72.186035, 40.49814 ], [ 72.167512, 40.469462 ], [ 72.149372, 40.456399 ], [ 72.13284, 40.453112 ], [ 72.101625, 40.462871 ], [ 72.093462, 40.44758 ], [ 72.100904, 40.418801 ], [ 72.086407, 40.402782 ], [ 72.07931, 40.388869 ], [ 72.070352, 40.383742 ], [ 72.046531, 40.378119 ], [ 71.997667, 40.333636 ], [ 71.970083, 40.322882 ], [ 71.951959, 40.309696 ], [ 71.949523, 40.303827 ], [ 71.953005, 40.298339 ], [ 71.976815, 40.291536 ], [ 71.989418, 40.283868 ], [ 71.994743, 40.276504 ], [ 71.992796, 40.270028 ], [ 71.97043, 40.252975 ], [ 71.95526, 40.231812 ], [ 71.940285, 40.225395 ], [ 71.927293, 40.225278 ], [ 71.895741, 40.240665 ], [ 71.871691, 40.245542 ], [ 71.863353, 40.247233 ], [ 71.853497, 40.246736 ], [ 71.845266, 40.241016 ], [ 71.842644, 40.233206 ], [ 71.85893, 40.209046 ], [ 71.859501, 40.20418 ], [ 71.856504, 40.199914 ], [ 71.844513, 40.194057 ], [ 71.829363, 40.19234 ], [ 71.825014, 40.190242 ], [ 71.782139, 40.169616 ], [ 71.750811, 40.160556 ], [ 71.726765, 40.150018 ], [ 71.716265, 40.15212 ], [ 71.704206, 40.166236 ], [ 71.684634, 40.181624 ], [ 71.681087, 40.190242 ], [ 71.683806, 40.217593 ], [ 71.680679, 40.229654 ], [ 71.66624, 40.245798 ], [ 71.654808, 40.252248 ], [ 71.635913, 40.254058 ], [ 71.610942, 40.250148 ], [ 71.608837, 40.238608 ], [ 71.613118, 40.213733 ], [ 71.610023, 40.190242 ], [ 71.604968, 40.187719 ], [ 71.60036, 40.190242 ], [ 71.583683, 40.202083 ], [ 71.547762, 40.200862 ], [ 71.495056, 40.221998 ], [ 71.488819, 40.232008 ], [ 71.491486, 40.253747 ], [ 71.486714, 40.261232 ], [ 71.46026, 40.26302 ], [ 71.427075, 40.26967 ], [ 71.378674, 40.302209 ], [ 71.368325, 40.30408 ], [ 71.345674, 40.302134 ], [ 71.340727, 40.312104 ], [ 71.336242, 40.314684 ], [ 71.303326, 40.306296 ], [ 71.286124, 40.305384 ], [ 71.27928, 40.309779 ], [ 71.276791, 40.323594 ], [ 71.272801, 40.326465 ], [ 71.245616, 40.325305 ], [ 71.221951, 40.330117 ], [ 71.199315, 40.331493 ], [ 71.153442, 40.322915 ], [ 71.132555, 40.322526 ], [ 71.121119, 40.319938 ], [ 71.064641, 40.290831 ], [ 71.021914, 40.284197 ], [ 70.969801, 40.265744 ], [ 70.964281, 40.259261 ], [ 70.969553, 40.243478 ], [ 70.96761, 40.22851 ], [ 70.914939, 40.227265 ], [ 70.869277, 40.2225 ], [ 70.830509, 40.202074 ], [ 70.795721, 40.190242 ], [ 70.779109, 40.18459 ], [ 70.650295, 40.165835 ], [ 70.636801, 40.166861 ], [ 70.624108, 40.175357 ], [ 70.614413, 40.190242 ], [ 70.595579, 40.219149 ], [ 70.579873, 40.227951 ], [ 70.56998, 40.240886 ], [ 70.572739, 40.265296 ], [ 70.579673, 40.283105 ], [ 70.569578, 40.309797 ], [ 70.57082, 40.326045 ], [ 70.564766, 40.335838 ], [ 70.547898, 40.346665 ], [ 70.48607, 40.367561 ], [ 70.42968, 40.379315 ], [ 70.404422, 40.37317 ], [ 70.39161, 40.374583 ], [ 70.379082, 40.382133 ], [ 70.368009, 40.400258 ], [ 70.355748, 40.409315 ], [ 70.351414, 40.421083 ], [ 70.333387, 40.448841 ], [ 70.332077, 40.457361 ], [ 70.334556, 40.461656 ], [ 70.352735, 40.467074 ], [ 70.374824, 40.479429 ], [ 70.399896, 40.483664 ], [ 70.424553, 40.492953 ], [ 70.464673, 40.503648 ], [ 70.487308, 40.50662 ], [ 70.494472, 40.512513 ], [ 70.497588, 40.523537 ], [ 70.506319, 40.532608 ], [ 70.509994, 40.545888 ], [ 70.515037, 40.552978 ], [ 70.527361, 40.557165 ], [ 70.551193, 40.557647 ], [ 70.562565, 40.562397 ], [ 70.587162, 40.566681 ], [ 70.606236, 40.584704 ], [ 70.629019, 40.618742 ], [ 70.636662, 40.625645 ], [ 70.652391, 40.63088 ], [ 70.666382, 40.641371 ], [ 70.689266, 40.651223 ], [ 70.700691, 40.65903 ], [ 70.71808, 40.66196 ], [ 70.734103, 40.658839 ], [ 70.734617, 40.685181 ], [ 70.738582, 40.687252 ], [ 70.748271, 40.684921 ], [ 70.761255, 40.687145 ], [ 70.768903, 40.695172 ], [ 70.776186, 40.710967 ], [ 70.788228, 40.72301 ], [ 70.779537, 40.73595 ], [ 70.75463, 40.749167 ], [ 70.684276, 40.752806 ], [ 70.655496, 40.762135 ], [ 70.651933, 40.774665 ], [ 70.659797, 40.793795 ], [ 70.666085, 40.809086 ], [ 70.674535, 40.80684 ], [ 70.682701, 40.793795 ], [ 70.69079, 40.780869 ], [ 70.702331, 40.778264 ], [ 70.708185, 40.780066 ], [ 70.71132, 40.784192 ], [ 70.70895, 40.792382 ], [ 70.707687, 40.793795 ], [ 70.691205, 40.81223 ], [ 70.674132, 40.847042 ], [ 70.662209, 40.85531 ], [ 70.645644, 40.866795 ], [ 70.630976, 40.89148 ], [ 70.590951, 40.936584 ], [ 70.549275, 40.977533 ], [ 70.537668, 40.988932 ], [ 70.515503, 41.003321 ], [ 70.48212, 41.033347 ], [ 70.465429, 41.039397 ], [ 70.44664, 41.041631 ], [ 70.422361, 41.034157 ], [ 70.411402, 41.026635 ], [ 70.405336, 41.01308 ], [ 70.410428, 40.990653 ], [ 70.398638, 40.977533 ], [ 70.391703, 40.969814 ], [ 70.387297, 40.953568 ], [ 70.373605, 40.938882 ], [ 70.371162, 40.928279 ], [ 70.375745, 40.907475 ], [ 70.366411, 40.892872 ], [ 70.359215, 40.886917 ], [ 70.343257, 40.881962 ], [ 70.314872, 40.879495 ], [ 70.282349, 40.864456 ], [ 70.272146, 40.85531 ], [ 70.26365, 40.847693 ], [ 70.217233, 40.828315 ], [ 70.192834, 40.829462 ], [ 70.170689, 40.834847 ], [ 70.155589, 40.832897 ], [ 70.145792, 40.825145 ], [ 70.134636, 40.807686 ], [ 70.080745, 40.766466 ], [ 70.051512, 40.756124 ], [ 70.028694, 40.74292 ], [ 70.013659, 40.737352 ], [ 69.961856, 40.728303 ], [ 69.923406, 40.706156 ], [ 69.887992, 40.718123 ], [ 69.876898, 40.7194 ], [ 69.855852, 40.712067 ], [ 69.828331, 40.694114 ], [ 69.794937, 40.69791 ], [ 69.779901, 40.695461 ], [ 69.766577, 40.685874 ], [ 69.737303, 40.640746 ], [ 69.711821, 40.629534 ], [ 69.68377, 40.628284 ], [ 69.668013, 40.632237 ], [ 69.648292, 40.657334 ], [ 69.625604, 40.665145 ], [ 69.6088, 40.678649 ], [ 69.5836, 40.69398 ], [ 69.572771, 40.705883 ], [ 69.565137, 40.726379 ], [ 69.551012, 40.748406 ], [ 69.533211, 40.763542 ], [ 69.437797, 40.784103 ], [ 69.403596, 40.781264 ], [ 69.363651, 40.74126 ], [ 69.349288, 40.712928 ], [ 69.344467, 40.657224 ], [ 69.351222, 40.636544 ], [ 69.361405, 40.616712 ], [ 69.356592, 40.596337 ], [ 69.331697, 40.571898 ], [ 69.302819, 40.571908 ], [ 69.269758, 40.567955 ], [ 69.239637, 40.553212 ], [ 69.231394, 40.541912 ], [ 69.236513, 40.529579 ], [ 69.271873, 40.494672 ], [ 69.271979, 40.483932 ], [ 69.266307, 40.473031 ], [ 69.266813, 40.463124 ], [ 69.275597, 40.450243 ], [ 69.285337, 40.425377 ], [ 69.295032, 40.415772 ], [ 69.294732, 40.403723 ], [ 69.305206, 40.387422 ], [ 69.309075, 40.370453 ], [ 69.338319, 40.343714 ], [ 69.338226, 40.328769 ], [ 69.330805, 40.305491 ], [ 69.324299, 40.298539 ], [ 69.304698, 40.286741 ], [ 69.2869, 40.285552 ], [ 69.256667, 40.288136 ], [ 69.250251, 40.28265 ], [ 69.254362, 40.253678 ], [ 69.261171, 40.248839 ], [ 69.28531, 40.243781 ], [ 69.294685, 40.238285 ], [ 69.312425, 40.207394 ], [ 69.310555, 40.199383 ], [ 69.303313, 40.197083 ], [ 69.279074, 40.204573 ], [ 69.240241, 40.20608 ], [ 69.214989, 40.209816 ], [ 69.172241, 40.206174 ], [ 69.144943, 40.211184 ], [ 69.086343, 40.213259 ], [ 69.05213, 40.219839 ], [ 68.986286, 40.21946 ], [ 68.929128, 40.214759 ], [ 68.894085, 40.208729 ], [ 68.855657, 40.192974 ], [ 68.842474, 40.190242 ], [ 68.830867, 40.187836 ], [ 68.812507, 40.190242 ], [ 68.770388, 40.195761 ], [ 68.74917, 40.190242 ], [ 68.697425, 40.17678 ], [ 68.661004, 40.167304 ], [ 68.599545, 40.155547 ], [ 68.540134, 40.139109 ], [ 68.537294, 40.129103 ], [ 68.554957, 40.116292 ], [ 68.604505, 40.094049 ], [ 68.628204, 40.092487 ], [ 68.681143, 40.100048 ], [ 68.697425, 40.104367 ], [ 68.802055, 40.132112 ], [ 68.870453, 40.145673 ], [ 68.911407, 40.149799 ], [ 68.97239, 40.150984 ], [ 68.995395, 40.137768 ], [ 69.005006, 40.116603 ], [ 69.012813, 40.083301 ], [ 69.008687, 40.073392 ], [ 69.000602, 40.069307 ], [ 68.939052, 40.074089 ], [ 68.919353, 40.073082 ], [ 68.893205, 40.068233 ], [ 68.867793, 40.054644 ], [ 68.860449, 40.04032 ], [ 68.855128, 40.036765 ], [ 68.846652, 40.040922 ], [ 68.838647, 40.060014 ], [ 68.8245, 40.075764 ], [ 68.807947, 40.078418 ], [ 68.795778, 40.073164 ], [ 68.795173, 40.059984 ], [ 68.819076, 40.033919 ], [ 68.819231, 40.025741 ], [ 68.813172, 40.007556 ], [ 68.814107, 40.00086 ], [ 68.846961, 39.974345 ], [ 68.900547, 39.922567 ], [ 68.912489, 39.901589 ], [ 68.909933, 39.883135 ], [ 68.889402, 39.868314 ], [ 68.876427, 39.867843 ], [ 68.862438, 39.873725 ], [ 68.851373, 39.887254 ], [ 68.847167, 39.91961 ], [ 68.820542, 39.968277 ], [ 68.802406, 39.984539 ], [ 68.794431, 39.985379 ], [ 68.787169, 39.982619 ], [ 68.783053, 39.97428 ], [ 68.785096, 39.957892 ], [ 68.823073, 39.893556 ], [ 68.824057, 39.882193 ], [ 68.8206, 39.874927 ], [ 68.80954, 39.864826 ], [ 68.7872, 39.856428 ], [ 68.776798, 39.832185 ], [ 68.766784, 39.826416 ], [ 68.751677, 39.831978 ], [ 68.741478, 39.85238 ], [ 68.721895, 39.866805 ], [ 68.711529, 39.86603 ], [ 68.697425, 39.858208 ], [ 68.685025, 39.851331 ], [ 68.663205, 39.855057 ], [ 68.648753, 39.853172 ], [ 68.646163, 39.836087 ], [ 68.650704, 39.808761 ], [ 68.643641, 39.785984 ], [ 68.62267, 39.750932 ], [ 68.611102, 39.74544 ], [ 68.596396, 39.742021 ], [ 68.588877, 39.733635 ], [ 68.595127, 39.720944 ], [ 68.629643, 39.681156 ], [ 68.626368, 39.653854 ], [ 68.5775, 39.607979 ], [ 68.546267, 39.588741 ], [ 68.533236, 39.550065 ], [ 68.517284, 39.537221 ], [ 68.491066, 39.539368 ], [ 68.461974, 39.536821 ], [ 68.40449, 39.542857 ], [ 68.359712, 39.531921 ], [ 68.350955, 39.534618 ], [ 68.329012, 39.54735 ], [ 68.293692, 39.554373 ], [ 68.255004, 39.557428 ], [ 68.20585, 39.552154 ], [ 68.192458, 39.55443 ], [ 68.169693, 39.562493 ], [ 68.108742, 39.564866 ], [ 68.07315, 39.574369 ], [ 68.036843, 39.576458 ], [ 68.01048, 39.589905 ], [ 67.992255, 39.595714 ], [ 67.934483, 39.599048 ], [ 67.901821, 39.610532 ], [ 67.878504, 39.624137 ], [ 67.845263, 39.629386 ], [ 67.799542, 39.651936 ], [ 67.757031, 39.643575 ], [ 67.70931, 39.655137 ], [ 67.698566, 39.651573 ], [ 67.683684, 39.639696 ], [ 67.652014, 39.627035 ], [ 67.624721, 39.600417 ], [ 67.580534, 39.595242 ], [ 67.503047, 39.572149 ], [ 67.496989, 39.559016 ], [ 67.49902, 39.536084 ], [ 67.491371, 39.527145 ], [ 67.480394, 39.526343 ], [ 67.444914, 39.532735 ], [ 67.431761, 39.527544 ], [ 67.426924, 39.517702 ], [ 67.427798, 39.495188 ], [ 67.479079, 39.412663 ], [ 67.498468, 39.372318 ], [ 67.517754, 39.33994 ], [ 67.521673, 39.326043 ], [ 67.515864, 39.319211 ], [ 67.477984, 39.321104 ], [ 67.394621, 39.299484 ], [ 67.389579, 39.295134 ], [ 67.388197, 39.288389 ], [ 67.395786, 39.266041 ], [ 67.427212, 39.224438 ], [ 67.448759, 39.209143 ], [ 67.463791, 39.20346 ], [ 67.500374, 39.196381 ], [ 67.531142, 39.186146 ], [ 67.549022, 39.18538 ], [ 67.572741, 39.187661 ], [ 67.597915, 39.183757 ], [ 67.616886, 39.175162 ], [ 67.635512, 39.148987 ], [ 67.680115, 39.139836 ], [ 67.682607, 39.131677 ], [ 67.676127, 39.116814 ], [ 67.672775, 39.078371 ], [ 67.680447, 39.056904 ], [ 67.685055, 39.02414 ], [ 67.701684, 39.006088 ], [ 67.715545, 39.001127 ], [ 67.734217, 39.003866 ], [ 67.74778, 39.002734 ], [ 67.773782, 39.012846 ], [ 67.810053, 39.015672 ], [ 67.844754, 39.003522 ], [ 67.870789, 39.00126 ], [ 67.90105, 39.021687 ], [ 67.940277, 39.02443 ], [ 67.968204, 39.032405 ], [ 67.978861, 39.030036 ], [ 67.99995, 39.014991 ], [ 68.016472, 39.011232 ], [ 68.059492, 39.024684 ], [ 68.082678, 39.023933 ], [ 68.114592, 39.008699 ], [ 68.142732, 38.962061 ], [ 68.197887, 38.925116 ], [ 68.200618, 38.91238 ], [ 68.199058, 38.89894 ], [ 68.191629, 38.883952 ], [ 68.194049, 38.851389 ], [ 68.170877, 38.840198 ], [ 68.1532, 38.824644 ], [ 68.130934, 38.81929 ], [ 68.084956, 38.813084 ], [ 68.07553, 38.804763 ], [ 68.082114, 38.791653 ], [ 68.125405, 38.740991 ], [ 68.118402, 38.730732 ], [ 68.084771, 38.725182 ], [ 68.068911, 38.715322 ], [ 68.060104, 38.705606 ], [ 68.067602, 38.680762 ], [ 68.08531, 38.645117 ], [ 68.075662, 38.625946 ], [ 68.069446, 38.542388 ], [ 68.118031, 38.489145 ], [ 68.140273, 38.471264 ], [ 68.133395, 38.452122 ], [ 68.114721, 38.427591 ], [ 68.111688, 38.413052 ], [ 68.121019, 38.412361 ], [ 68.147599, 38.420814 ], [ 68.156404, 38.421629 ], [ 68.195922, 38.405425 ], [ 68.226556, 38.36521 ], [ 68.236266, 38.327726 ], [ 68.295932, 38.305301 ], [ 68.321618, 38.290767 ], [ 68.360218, 38.251826 ], [ 68.376908, 38.223709 ], [ 68.401984, 38.191874 ], [ 68.400827, 38.177854 ], [ 68.374182, 38.102532 ], [ 68.369282, 38.07983 ], [ 68.320701, 38.037065 ], [ 68.287936, 37.988828 ], [ 68.28552, 37.957922 ], [ 68.27749, 37.940171 ], [ 68.276916, 37.924228 ], [ 68.27085, 37.912016 ], [ 68.215826, 37.889553 ], [ 68.127405, 37.874346 ], [ 68.109275, 37.84939 ], [ 68.040828, 37.734685 ], [ 68.018831, 37.709878 ], [ 67.986772, 37.689362 ], [ 67.942472, 37.643984 ], [ 67.889651, 37.558862 ], [ 67.853985, 37.528277 ], [ 67.8285, 37.46002 ], [ 67.827587, 37.417715 ], [ 67.832655, 37.348364 ], [ 67.820703, 37.236341 ], [ 67.805554, 37.19523 ], [ 67.778658, 37.179633 ] ], [ [ 70.57361, 41.02167 ], [ 70.57466, 41.01883 ], [ 70.57723, 41.01195 ], [ 70.582221, 41.002779 ], [ 70.58722, 40.99861 ], [ 70.59194, 40.995 ], [ 70.5975, 40.99194 ], [ 70.60639, 40.985 ], [ 70.612819, 40.977533 ], [ 70.640307, 40.950282 ], [ 70.652482, 40.943018 ], [ 70.6632, 40.940764 ], [ 70.669623, 40.943948 ], [ 70.672386, 40.951627 ], [ 70.671422, 40.961944 ], [ 70.662552, 40.977533 ], [ 70.66139, 40.97889 ], [ 70.65778, 40.98305 ], [ 70.65333, 40.98639 ], [ 70.65, 40.99055 ], [ 70.64194, 40.99806 ], [ 70.6375, 41.00167 ], [ 70.63416, 41.00583 ], [ 70.63055, 41.00973 ], [ 70.62167, 41.01694 ], [ 70.61694, 41.02028 ], [ 70.61249, 41.02389 ], [ 70.60694, 41.02695 ], [ 70.60139, 41.03 ], [ 70.59472, 41.0325 ], [ 70.58798, 41.03297 ], [ 70.58, 41.03194 ], [ 70.57528, 41.02861 ], [ 70.57361, 41.02167 ] ] ], [ [ [ 70.996027, 40.168937 ], [ 71.003928, 40.174811 ], [ 71.012529, 40.175591 ], [ 71.02043, 40.17338 ], [ 71.030161, 40.175121 ], [ 71.036272, 40.181991 ], [ 71.041182, 40.184472 ], [ 71.052054, 40.182362 ], [ 71.063925, 40.16931 ], [ 71.068316, 40.161239 ], [ 71.081438, 40.150707 ], [ 71.083678, 40.131116 ], [ 71.086507, 40.122717 ], [ 71.095829, 40.105922 ], [ 71.090169, 40.09266 ], [ 71.091539, 40.085099 ], [ 71.090029, 40.077418 ], [ 71.092549, 40.065467 ], [ 71.095519, 40.064316 ], [ 71.113082, 40.038493 ], [ 71.119762, 40.017471 ], [ 71.126223, 40.01405 ], [ 71.135145, 40.01415 ], [ 71.162454, 40.024668 ], [ 71.169969, 40.027562 ], [ 71.17857, 40.028342 ], [ 71.181931, 40.026871 ], [ 71.186021, 40.01856 ], [ 71.185071, 40.01463 ], [ 71.174839, 40.007169 ], [ 71.170509, 40.004949 ], [ 71.167509, 40.005519 ], [ 71.168449, 39.999998 ], [ 71.169439, 39.981186 ], [ 71.167019, 39.964354 ], [ 71.170529, 39.960343 ], [ 71.184851, 39.958313 ], [ 71.220625, 39.957343 ], [ 71.221616, 39.953432 ], [ 71.216145, 39.946881 ], [ 71.216995, 39.94105 ], [ 71.226856, 39.929039 ], [ 71.229357, 39.919738 ], [ 71.226446, 39.914057 ], [ 71.217165, 39.907176 ], [ 71.210214, 39.897305 ], [ 71.194842, 39.883893 ], [ 71.190406, 39.881392 ], [ 71.18046, 39.875782 ], [ 71.162454, 39.875124 ], [ 71.155277, 39.874862 ], [ 71.141125, 39.879293 ], [ 71.139844, 39.881392 ], [ 71.132644, 39.893185 ], [ 71.112772, 39.915257 ], [ 71.107791, 39.915947 ], [ 71.10146, 39.915237 ], [ 71.088749, 39.894455 ], [ 71.074577, 39.889214 ], [ 71.062045, 39.889714 ], [ 71.056104, 39.894785 ], [ 71.056844, 39.905876 ], [ 71.067636, 39.917058 ], [ 71.073927, 39.926489 ], [ 71.079747, 39.93834 ], [ 71.087248, 39.956433 ], [ 71.091599, 39.964964 ], [ 71.095119, 39.970624 ], [ 71.09785, 39.983086 ], [ 71.09724, 39.992787 ], [ 71.087258, 39.999998 ], [ 71.085458, 40.009779 ], [ 71.065496, 40.01497 ], [ 71.034402, 40.01745 ], [ 71.02442, 40.020041 ], [ 71.014089, 40.027882 ], [ 71.007678, 40.039533 ], [ 71.004478, 40.051285 ], [ 71.005888, 40.057986 ], [ 71.002428, 40.074558 ], [ 71.002368, 40.086399 ], [ 71.005828, 40.0955 ], [ 71.005336, 40.112175 ], [ 71.000637, 40.120234 ], [ 70.999997, 40.134625 ], [ 70.996887, 40.141136 ], [ 71.000367, 40.142646 ], [ 71.000777, 40.163699 ], [ 70.999887, 40.16824 ], [ 70.996027, 40.168937 ] ] ], [ [ [ 71.68945, 39.94 ], [ 71.68945, 39.94583 ], [ 71.69083, 39.95111 ], [ 71.69472, 39.95528 ], [ 71.70472, 39.96139 ], [ 71.71917, 39.96167 ], [ 71.72694, 39.96083 ], [ 71.73556, 39.95944 ], [ 71.742229, 39.96028 ], [ 71.75195, 39.96639 ], [ 71.76056, 39.97389 ], [ 71.76889, 39.98167 ], [ 71.77361, 39.985 ], [ 71.78722, 39.99166 ], [ 71.79083, 39.99444 ], [ 71.79666, 39.99639 ], [ 71.80334, 39.99722 ], [ 71.81111, 39.99667 ], [ 71.81556, 39.99306 ], [ 71.817779, 39.98833 ], [ 71.81222, 39.96972 ], [ 71.80889, 39.96472 ], [ 71.79916, 39.94889 ], [ 71.7975, 39.94333 ], [ 71.7975, 39.93722 ], [ 71.79278, 39.92472 ], [ 71.79144, 39.9198 ], [ 71.78944, 39.9125 ], [ 71.78611, 39.9075 ], [ 71.775, 39.90306 ], [ 71.76695, 39.90389 ], [ 71.75972, 39.90584 ], [ 71.75077, 39.90945 ], [ 71.74667, 39.91111 ], [ 71.74052, 39.91276 ], [ 71.71667, 39.91917 ], [ 71.695, 39.93139 ], [ 71.68945, 39.94 ] ] ] ] } }
]
}
