{
"type": "FeatureCollection",
"name": "Vanuatu",
"crs": { "type": "name", "properties": { "name": "urn:ogc:def:crs:OGC:1.3:CRS84" } },
"features": [
{ "type": "Feature", "properties": { "id": "VU", "CNTR_ID": "VU", "CNTR_NAME": "Vanuatu-Vanuatu-Vanuatu", "NAME_ENGL": "Vanuatu", "ISO3_CODE": "VUT", "FID": "VU" }, "geometry": { "type": "MultiPolygon", "coordinates": [ [ [ [ 166.543685, -14.846472 ], [ 166.550422, -14.815462 ], [ 166.557256, -14.720897 ], [ 166.561563, -14.712059 ], [ 166.573212, -14.699919 ], [ 166.572311, -14.682792 ], [ 166.574666, -14.676481 ], [ 166.613523, -14.64587 ], [ 166.620164, -14.645862 ], [ 166.624995, -14.665637 ], [ 166.634294, -14.671063 ], [ 166.650272, -14.695022 ], [ 166.655089, -14.715847 ], [ 166.677725, -14.732378 ], [ 166.694713, -14.771343 ], [ 166.705297, -14.782991 ], [ 166.71589, -14.801717 ], [ 166.732094, -14.80984 ], [ 166.740793, -14.818296 ], [ 166.753209, -14.819471 ], [ 166.758315, -14.825536 ], [ 166.757986, -14.843651 ], [ 166.781253, -14.908124 ], [ 166.784983, -14.925089 ], [ 166.784629, -14.950453 ], [ 166.794021, -14.986268 ], [ 166.789957, -15.016839 ], [ 166.810903, -15.050903 ], [ 166.808365, -15.076038 ], [ 166.814241, -15.100196 ], [ 166.81561, -15.126138 ], [ 166.823526, -15.153307 ], [ 166.834591, -15.162548 ], [ 166.876157, -15.171037 ], [ 166.901376, -15.168603 ], [ 166.919977, -15.170543 ], [ 166.950108, -15.159819 ], [ 166.957229, -15.141393 ], [ 166.978731, -15.121169 ], [ 166.982573, -15.103244 ], [ 166.987613, -15.094414 ], [ 166.987014, -15.078679 ], [ 166.986147, -15.06196 ], [ 166.980348, -15.043227 ], [ 166.990333, -15.002303 ], [ 166.981167, -14.970724 ], [ 166.98368, -14.957208 ], [ 166.986425, -14.952474 ], [ 166.997543, -14.94471 ], [ 167.010188, -14.93588 ], [ 167.023603, -14.93156 ], [ 167.032182, -14.933555 ], [ 167.051561, -14.944758 ], [ 167.087353, -14.946699 ], [ 167.085049, -14.951882 ], [ 167.069469, -14.955347 ], [ 167.059371, -14.961419 ], [ 167.054709, -14.970259 ], [ 167.058749, -14.991999 ], [ 167.06749, -15.00021 ], [ 167.075714, -15.018096 ], [ 167.074453, -15.028745 ], [ 167.067798, -15.036523 ], [ 167.07439, -15.042293 ], [ 167.07851, -15.061863 ], [ 167.086105, -15.069134 ], [ 167.079123, -15.072462 ], [ 167.078561, -15.078679 ], [ 167.080358, -15.095457 ], [ 167.09942, -15.120409 ], [ 167.111361, -15.147586 ], [ 167.118358, -15.146066 ], [ 167.135998, -15.126606 ], [ 167.14515, -15.131068 ], [ 167.152865, -15.139607 ], [ 167.151452, -15.157634 ], [ 167.162731, -15.1798 ], [ 167.161767, -15.190798 ], [ 167.17075, -15.209556 ], [ 167.169785, -15.229599 ], [ 167.172828, -15.241139 ], [ 167.168249, -15.253697 ], [ 167.152222, -15.253665 ], [ 167.148962, -15.258215 ], [ 167.15883, -15.269256 ], [ 167.176029, -15.275688 ], [ 167.177526, -15.276713 ], [ 167.189679, -15.285027 ], [ 167.200889, -15.299068 ], [ 167.20708, -15.317709 ], [ 167.206025, -15.340291 ], [ 167.196923, -15.338999 ], [ 167.186223, -15.327856 ], [ 167.180589, -15.330834 ], [ 167.182981, -15.345392 ], [ 167.191298, -15.355364 ], [ 167.187818, -15.368409 ], [ 167.188847, -15.382153 ], [ 167.203634, -15.404983 ], [ 167.206329, -15.426038 ], [ 167.217959, -15.44804 ], [ 167.218114, -15.459635 ], [ 167.229403, -15.458992 ], [ 167.233658, -15.461874 ], [ 167.232372, -15.481755 ], [ 167.245797, -15.497325 ], [ 167.25092, -15.496251 ], [ 167.253898, -15.486907 ], [ 167.256419, -15.486899 ], [ 167.259671, -15.511798 ], [ 167.256434, -15.521139 ], [ 167.244699, -15.524326 ], [ 167.214471, -15.517373 ], [ 167.186444, -15.515058 ], [ 167.177526, -15.517142 ], [ 167.172083, -15.518414 ], [ 167.157497, -15.527243 ], [ 167.144823, -15.558083 ], [ 167.122874, -15.578637 ], [ 167.10958, -15.597726 ], [ 167.099973, -15.603151 ], [ 167.088747, -15.600594 ], [ 167.062038, -15.600646 ], [ 167.046995, -15.589627 ], [ 167.041317, -15.591728 ], [ 167.04279, -15.585287 ], [ 167.037028, -15.580063 ], [ 167.027186, -15.583169 ], [ 167.024966, -15.587223 ], [ 167.003313, -15.581941 ], [ 166.997543, -15.584021 ], [ 166.990831, -15.586441 ], [ 166.971121, -15.581289 ], [ 166.949727, -15.583436 ], [ 166.922635, -15.588017 ], [ 166.905192, -15.597931 ], [ 166.901376, -15.604437 ], [ 166.901376, -15.607942 ], [ 166.906395, -15.618731 ], [ 166.903439, -15.624849 ], [ 166.901376, -15.626101 ], [ 166.892094, -15.629213 ], [ 166.877158, -15.62437 ], [ 166.853829, -15.631178 ], [ 166.846926, -15.640154 ], [ 166.847535, -15.656975 ], [ 166.835166, -15.66667 ], [ 166.823988, -15.668004 ], [ 166.804288, -15.663169 ], [ 166.775668, -15.649036 ], [ 166.770099, -15.632498 ], [ 166.777707, -15.620956 ], [ 166.778097, -15.586108 ], [ 166.760341, -15.565201 ], [ 166.755817, -15.555417 ], [ 166.737904, -15.544196 ], [ 166.721065, -15.524729 ], [ 166.712876, -15.510002 ], [ 166.708352, -15.491528 ], [ 166.700179, -15.474208 ], [ 166.67497, -15.439114 ], [ 166.664559, -15.413984 ], [ 166.648884, -15.39534 ], [ 166.648844, -15.379422 ], [ 166.660351, -15.357922 ], [ 166.666763, -15.338731 ], [ 166.663848, -15.297921 ], [ 166.672436, -15.267318 ], [ 166.67296, -15.243147 ], [ 166.639067, -15.15932 ], [ 166.637112, -15.122453 ], [ 166.613858, -15.055007 ], [ 166.612148, -15.020397 ], [ 166.606791, -14.99257 ], [ 166.580695, -14.953223 ], [ 166.55604, -14.881363 ], [ 166.552638, -14.863188 ], [ 166.543685, -14.846472 ] ] ], [ [ [ 167.782664, -16.382335 ], [ 167.786407, -16.391637 ], [ 167.78456, -16.407398 ], [ 167.788968, -16.417363 ], [ 167.782664, -16.424557 ], [ 167.778644, -16.429145 ], [ 167.769455, -16.451101 ], [ 167.771749, -16.465355 ], [ 167.78005, -16.470906 ], [ 167.779961, -16.455524 ], [ 167.782664, -16.44678 ], [ 167.785212, -16.438538 ], [ 167.807278, -16.422909 ], [ 167.821667, -16.433864 ], [ 167.829824, -16.449184 ], [ 167.833816, -16.464108 ], [ 167.828521, -16.471905 ], [ 167.816434, -16.471842 ], [ 167.809035, -16.48353 ], [ 167.798137, -16.483379 ], [ 167.792605, -16.486216 ], [ 167.786781, -16.502728 ], [ 167.782664, -16.507099 ], [ 167.769423, -16.521157 ], [ 167.765384, -16.544534 ], [ 167.74906, -16.545726 ], [ 167.739411, -16.540647 ], [ 167.716761, -16.514616 ], [ 167.664141, -16.499872 ], [ 167.626094, -16.502048 ], [ 167.602926, -16.489956 ], [ 167.596577, -16.494284 ], [ 167.59062, -16.507811 ], [ 167.58361, -16.513833 ], [ 167.576351, -16.520068 ], [ 167.576778, -16.527088 ], [ 167.58361, -16.534055 ], [ 167.58659, -16.537094 ], [ 167.58361, -16.546406 ], [ 167.566867, -16.554056 ], [ 167.559479, -16.546503 ], [ 167.545042, -16.546686 ], [ 167.541488, -16.551499 ], [ 167.53907, -16.565488 ], [ 167.530941, -16.579823 ], [ 167.522136, -16.581146 ], [ 167.513885, -16.57202 ], [ 167.507384, -16.570578 ], [ 167.502992, -16.573827 ], [ 167.49982, -16.584462 ], [ 167.495525, -16.586344 ], [ 167.486901, -16.570757 ], [ 167.463088, -16.565886 ], [ 167.457004, -16.556339 ], [ 167.432361, -16.537237 ], [ 167.422034, -16.523932 ], [ 167.420426, -16.499278 ], [ 167.437795, -16.491489 ], [ 167.441484, -16.485108 ], [ 167.442631, -16.473756 ], [ 167.434655, -16.454141 ], [ 167.405693, -16.424519 ], [ 167.403244, -16.384658 ], [ 167.390598, -16.369722 ], [ 167.380006, -16.346717 ], [ 167.384143, -16.295154 ], [ 167.393875, -16.272563 ], [ 167.383025, -16.227871 ], [ 167.388334, -16.187715 ], [ 167.374139, -16.180932 ], [ 167.356242, -16.164032 ], [ 167.327598, -16.114993 ], [ 167.298377, -16.124972 ], [ 167.281144, -16.14462 ], [ 167.251284, -16.162281 ], [ 167.240296, -16.160506 ], [ 167.224215, -16.146208 ], [ 167.186651, -16.131007 ], [ 167.175518, -16.107779 ], [ 167.157122, -16.083273 ], [ 167.155283, -16.072077 ], [ 167.15903, -16.04942 ], [ 167.171185, -16.02962 ], [ 167.172367, -16.027694 ], [ 167.187396, -15.981213 ], [ 167.175732, -15.926271 ], [ 167.182685, -15.901564 ], [ 167.191105, -15.894312 ], [ 167.216368, -15.882414 ], [ 167.229701, -15.880171 ], [ 167.259535, -15.886273 ], [ 167.280624, -15.898195 ], [ 167.328446, -15.916313 ], [ 167.333134, -15.924428 ], [ 167.330565, -15.938769 ], [ 167.345428, -15.965624 ], [ 167.371696, -15.985324 ], [ 167.391084, -16.009462 ], [ 167.403533, -16.015132 ], [ 167.403179, -16.02962 ], [ 167.403036, -16.035463 ], [ 167.392139, -16.058763 ], [ 167.396094, -16.064571 ], [ 167.411707, -16.073058 ], [ 167.407795, -16.082867 ], [ 167.410556, -16.0901 ], [ 167.434942, -16.107779 ], [ 167.450143, -16.118799 ], [ 167.467176, -16.135708 ], [ 167.478926, -16.139787 ], [ 167.473978, -16.11098 ], [ 167.477053, -16.108008 ], [ 167.490057, -16.125577 ], [ 167.500223, -16.130642 ], [ 167.499777, -16.138929 ], [ 167.49423, -16.150089 ], [ 167.49788, -16.158718 ], [ 167.51446, -16.161314 ], [ 167.523349, -16.171113 ], [ 167.533404, -16.177028 ], [ 167.54542, -16.172999 ], [ 167.552625, -16.191695 ], [ 167.564287, -16.199366 ], [ 167.574603, -16.21331 ], [ 167.58361, -16.21634 ], [ 167.595159, -16.219334 ], [ 167.608885, -16.227394 ], [ 167.625557, -16.253726 ], [ 167.647949, -16.267937 ], [ 167.67039, -16.266022 ], [ 167.68635, -16.269666 ], [ 167.687337, -16.27389 ], [ 167.678413, -16.290589 ], [ 167.695118, -16.308024 ], [ 167.70863, -16.311556 ], [ 167.719271, -16.324362 ], [ 167.74906, -16.340609 ], [ 167.755559, -16.340881 ], [ 167.76297, -16.335982 ], [ 167.767971, -16.338791 ], [ 167.772927, -16.347229 ], [ 167.777816, -16.370283 ], [ 167.782664, -16.382335 ] ] ], [ [ [ 168.16068, -17.709647 ], [ 168.181342, -17.677373 ], [ 168.19291, -17.645104 ], [ 168.204598, -17.633767 ], [ 168.222674, -17.626387 ], [ 168.235561, -17.616281 ], [ 168.243558, -17.60304 ], [ 168.248365, -17.575919 ], [ 168.273204, -17.564343 ], [ 168.282994, -17.551506 ], [ 168.284894, -17.5419 ], [ 168.299075, -17.530956 ], [ 168.292881, -17.528922 ], [ 168.281281, -17.533264 ], [ 168.27193, -17.538279 ], [ 168.263075, -17.547728 ], [ 168.240165, -17.550702 ], [ 168.223336, -17.567368 ], [ 168.215851, -17.568787 ], [ 168.215771, -17.562019 ], [ 168.229704, -17.549986 ], [ 168.228947, -17.53217 ], [ 168.23538, -17.525165 ], [ 168.245968, -17.520279 ], [ 168.266014, -17.518435 ], [ 168.272938, -17.511148 ], [ 168.286197, -17.505756 ], [ 168.294179, -17.509016 ], [ 168.306602, -17.525248 ], [ 168.315962, -17.523781 ], [ 168.325471, -17.526233 ], [ 168.332528, -17.538498 ], [ 168.341584, -17.545797 ], [ 168.354528, -17.544244 ], [ 168.388049, -17.536032 ], [ 168.404187, -17.527737 ], [ 168.446487, -17.533539 ], [ 168.452635, -17.539766 ], [ 168.467625, -17.568281 ], [ 168.498121, -17.597918 ], [ 168.507046, -17.636814 ], [ 168.522952, -17.647628 ], [ 168.540903, -17.665191 ], [ 168.546579, -17.680769 ], [ 168.588105, -17.686561 ], [ 168.59323, -17.692214 ], [ 168.589295, -17.702758 ], [ 168.564178, -17.738811 ], [ 168.564382, -17.752788 ], [ 168.557375, -17.783933 ], [ 168.543802, -17.797375 ], [ 168.520229, -17.805056 ], [ 168.505497, -17.806725 ], [ 168.492488, -17.816724 ], [ 168.471793, -17.81121 ], [ 168.466624, -17.815171 ], [ 168.462928, -17.811327 ], [ 168.452635, -17.810732 ], [ 168.432964, -17.822028 ], [ 168.390647, -17.824946 ], [ 168.381797, -17.821988 ], [ 168.377628, -17.816816 ], [ 168.381084, -17.796375 ], [ 168.377492, -17.791452 ], [ 168.372783, -17.792224 ], [ 168.36318, -17.801385 ], [ 168.354528, -17.804177 ], [ 168.348938, -17.789073 ], [ 168.339445, -17.782568 ], [ 168.328382, -17.78214 ], [ 168.314901, -17.790725 ], [ 168.313251, -17.775574 ], [ 168.309603, -17.77048 ], [ 168.288614, -17.779622 ], [ 168.279247, -17.77443 ], [ 168.260881, -17.778542 ], [ 168.262061, -17.773508 ], [ 168.27218, -17.765622 ], [ 168.291528, -17.755443 ], [ 168.307907, -17.754433 ], [ 168.311293, -17.750013 ], [ 168.30947, -17.729245 ], [ 168.295964, -17.731459 ], [ 168.291537, -17.711099 ], [ 168.281498, -17.700582 ], [ 168.262515, -17.688698 ], [ 168.251029, -17.68717 ], [ 168.235771, -17.696976 ], [ 168.209942, -17.719057 ], [ 168.19938, -17.734801 ], [ 168.18882, -17.740904 ], [ 168.18454, -17.74051 ], [ 168.173362, -17.730041 ], [ 168.177185, -17.710624 ], [ 168.1639, -17.711834 ], [ 168.16068, -17.709647 ] ] ], [ [ [ 169.197428, -18.739059 ], [ 169.208521, -18.74616 ], [ 169.220272, -18.745124 ], [ 169.243953, -18.731989 ], [ 169.256811, -18.731705 ], [ 169.265413, -18.749519 ], [ 169.280961, -18.767214 ], [ 169.281919, -18.77123 ], [ 169.27926, -18.773308 ], [ 169.268471, -18.772399 ], [ 169.204689, -18.783555 ], [ 169.204615, -18.793857 ], [ 169.218203, -18.813248 ], [ 169.25436, -18.837486 ], [ 169.264249, -18.840321 ], [ 169.314023, -18.870364 ], [ 169.332763, -18.8944 ], [ 169.340245, -18.911359 ], [ 169.344473, -18.929067 ], [ 169.344461, -18.947695 ], [ 169.341854, -18.952508 ], [ 169.333732, -18.957014 ], [ 169.331129, -18.96515 ], [ 169.327937, -18.975127 ], [ 169.299826, -18.984102 ], [ 169.287293, -18.995175 ], [ 169.246746, -18.983236 ], [ 169.226872, -18.968985 ], [ 169.213345, -18.969853 ], [ 169.206544, -18.96515 ], [ 169.197428, -18.958846 ], [ 169.178329, -18.945638 ], [ 169.159442, -18.943134 ], [ 169.146111, -18.945584 ], [ 169.120636, -18.93768 ], [ 169.095178, -18.937875 ], [ 169.093126, -18.93537 ], [ 169.094871, -18.929157 ], [ 169.089944, -18.922311 ], [ 169.065258, -18.914525 ], [ 169.058643, -18.899463 ], [ 169.028171, -18.894215 ], [ 169.004384, -18.884843 ], [ 168.992153, -18.873818 ], [ 168.989445, -18.847607 ], [ 169.004039, -18.832885 ], [ 169.014359, -18.822474 ], [ 169.014603, -18.816805 ], [ 169.011167, -18.813248 ], [ 169.006852, -18.792097 ], [ 168.986786, -18.764211 ], [ 168.992496, -18.727295 ], [ 168.998187, -18.722699 ], [ 169.002359, -18.710547 ], [ 169.002964, -18.702732 ], [ 168.996845, -18.686852 ], [ 169.001151, -18.672015 ], [ 169.008784, -18.660307 ], [ 169.038388, -18.631041 ], [ 169.046285, -18.629897 ], [ 169.052639, -18.625521 ], [ 169.083414, -18.627541 ], [ 169.108148, -18.621803 ], [ 169.146142, -18.63434 ], [ 169.160054, -18.649007 ], [ 169.1742, -18.671236 ], [ 169.176908, -18.680213 ], [ 169.190257, -18.684523 ], [ 169.176155, -18.699278 ], [ 169.175632, -18.705459 ], [ 169.1824, -18.710546 ], [ 169.177952, -18.726698 ], [ 169.185606, -18.726755 ], [ 169.187913, -18.732968 ], [ 169.197428, -18.739059 ] ] ], [ [ [ 167.912945, -16.240878 ], [ 167.913565, -16.227405 ], [ 167.919459, -16.219105 ], [ 167.930582, -16.21538 ], [ 167.941101, -16.217834 ], [ 167.963451, -16.212302 ], [ 167.973965, -16.208611 ], [ 167.987654, -16.197543 ], [ 168.003619, -16.198861 ], [ 168.010084, -16.196028 ], [ 168.027137, -16.194736 ], [ 168.048423, -16.19659 ], [ 168.061191, -16.191943 ], [ 168.0681, -16.182499 ], [ 168.079692, -16.17894 ], [ 168.082805, -16.17035 ], [ 168.089384, -16.166529 ], [ 168.093134, -16.159721 ], [ 168.108762, -16.153096 ], [ 168.119277, -16.141442 ], [ 168.131584, -16.107779 ], [ 168.137356, -16.102527 ], [ 168.154231, -16.099059 ], [ 168.172544, -16.101522 ], [ 168.181659, -16.107779 ], [ 168.183704, -16.109381 ], [ 168.191099, -16.124392 ], [ 168.196017, -16.160382 ], [ 168.203494, -16.168584 ], [ 168.204344, -16.181538 ], [ 168.219699, -16.222247 ], [ 168.218584, -16.233397 ], [ 168.221616, -16.240726 ], [ 168.228978, -16.246198 ], [ 168.244549, -16.249351 ], [ 168.286423, -16.274116 ], [ 168.304855, -16.289996 ], [ 168.31251, -16.310914 ], [ 168.30883, -16.328224 ], [ 168.299812, -16.339356 ], [ 168.286036, -16.349367 ], [ 168.274975, -16.353675 ], [ 168.244387, -16.358781 ], [ 168.210428, -16.352629 ], [ 168.188072, -16.361493 ], [ 168.161507, -16.3593 ], [ 168.144997, -16.368285 ], [ 168.129125, -16.370738 ], [ 168.091983, -16.353141 ], [ 168.066228, -16.348157 ], [ 168.04161, -16.337051 ], [ 168.035378, -16.327944 ], [ 168.027137, -16.32233 ], [ 168.019699, -16.321717 ], [ 168.011492, -16.325815 ], [ 168.006434, -16.318289 ], [ 167.985773, -16.311739 ], [ 167.975306, -16.299003 ], [ 167.964395, -16.293991 ], [ 167.955736, -16.278625 ], [ 167.950493, -16.274192 ], [ 167.93895, -16.273985 ], [ 167.919783, -16.264522 ], [ 167.921508, -16.252885 ], [ 167.912945, -16.240878 ] ] ], [ [ [ 169.220671, -19.454703 ], [ 169.221012, -19.448271 ], [ 169.223214, -19.44546 ], [ 169.222193, -19.43953 ], [ 169.22485, -19.432348 ], [ 169.227306, -19.431084 ], [ 169.229269, -19.425182 ], [ 169.231168, -19.425201 ], [ 169.234771, -19.418285 ], [ 169.237785, -19.415483 ], [ 169.240872, -19.405988 ], [ 169.243607, -19.403955 ], [ 169.244474, -19.399072 ], [ 169.247208, -19.397039 ], [ 169.245888, -19.393679 ], [ 169.249596, -19.389339 ], [ 169.248678, -19.386498 ], [ 169.250856, -19.385747 ], [ 169.24941, -19.381356 ], [ 169.249, -19.368995 ], [ 169.246487, -19.36305 ], [ 169.248432, -19.358692 ], [ 169.247592, -19.348387 ], [ 169.248719, -19.344536 ], [ 169.25214, -19.341608 ], [ 169.264391, -19.337221 ], [ 169.265497, -19.335172 ], [ 169.275871, -19.328705 ], [ 169.300082, -19.321466 ], [ 169.304422, -19.321378 ], [ 169.307729, -19.31626 ], [ 169.314239, -19.316063 ], [ 169.316658, -19.318145 ], [ 169.326951, -19.31927 ], [ 169.33051, -19.315955 ], [ 169.336456, -19.31794 ], [ 169.338865, -19.317664 ], [ 169.342981, -19.321609 ], [ 169.345091, -19.320529 ], [ 169.359965, -19.321256 ], [ 169.363468, -19.328612 ], [ 169.361318, -19.340178 ], [ 169.355463, -19.34257 ], [ 169.349718, -19.347539 ], [ 169.351175, -19.350899 ], [ 169.349909, -19.355521 ], [ 169.34758, -19.357817 ], [ 169.34914, -19.364525 ], [ 169.349356, -19.369933 ], [ 169.346488, -19.371967 ], [ 169.348728, -19.378423 ], [ 169.345661, -19.386634 ], [ 169.347905, -19.392833 ], [ 169.347318, -19.397204 ], [ 169.350569, -19.397749 ], [ 169.349685, -19.404692 ], [ 169.353188, -19.40704 ], [ 169.352062, -19.41115 ], [ 169.351981, -19.41913 ], [ 169.353077, -19.431497 ], [ 169.356376, -19.440795 ], [ 169.359625, -19.441597 ], [ 169.362908, -19.452439 ], [ 169.371597, -19.465647 ], [ 169.376741, -19.46698 ], [ 169.379418, -19.470737 ], [ 169.385651, -19.471694 ], [ 169.387795, -19.474545 ], [ 169.392144, -19.47394 ], [ 169.397826, -19.475792 ], [ 169.400689, -19.474402 ], [ 169.400853, -19.471571 ], [ 169.407086, -19.472656 ], [ 169.410853, -19.476036 ], [ 169.418444, -19.477003 ], [ 169.425514, -19.475777 ], [ 169.430941, -19.475954 ], [ 169.442764, -19.488671 ], [ 169.446823, -19.489993 ], [ 169.455436, -19.49779 ], [ 169.456483, -19.501919 ], [ 169.461195, -19.506078 ], [ 169.459379, -19.511469 ], [ 169.461796, -19.514322 ], [ 169.469122, -19.51477 ], [ 169.478648, -19.512405 ], [ 169.488686, -19.513261 ], [ 169.489724, -19.518419 ], [ 169.495261, -19.521555 ], [ 169.49126, -19.528473 ], [ 169.491513, -19.530534 ], [ 169.496662, -19.531607 ], [ 169.500487, -19.529064 ], [ 169.498976, -19.524366 ], [ 169.503047, -19.521001 ], [ 169.505998, -19.520356 ], [ 169.506807, -19.522882 ], [ 169.504105, -19.534243 ], [ 169.505296, -19.5376 ], [ 169.500905, -19.542584 ], [ 169.495198, -19.543051 ], [ 169.483202, -19.5481 ], [ 169.479026, -19.559007 ], [ 169.475738, -19.562069 ], [ 169.474112, -19.561668 ], [ 169.469722, -19.566395 ], [ 169.467758, -19.573072 ], [ 169.465407, -19.577428 ], [ 169.467539, -19.581823 ], [ 169.466125, -19.587733 ], [ 169.467578, -19.592122 ], [ 169.467933, -19.597531 ], [ 169.469539, -19.600119 ], [ 169.467865, -19.604739 ], [ 169.468886, -19.611699 ], [ 169.467323, -19.619023 ], [ 169.463908, -19.620925 ], [ 169.461751, -19.633522 ], [ 169.457369, -19.637089 ], [ 169.450547, -19.640119 ], [ 169.451054, -19.643985 ], [ 169.446256, -19.648321 ], [ 169.448126, -19.651684 ], [ 169.440072, -19.655604 ], [ 169.430289, -19.655519 ], [ 169.425676, -19.654836 ], [ 169.420018, -19.649894 ], [ 169.408316, -19.651593 ], [ 169.404543, -19.64847 ], [ 169.399379, -19.648553 ], [ 169.391289, -19.642302 ], [ 169.383672, -19.643135 ], [ 169.382337, -19.640806 ], [ 169.377993, -19.64051 ], [ 169.374076, -19.638157 ], [ 169.365543, -19.635634 ], [ 169.363666, -19.633171 ], [ 169.358529, -19.630678 ], [ 169.353356, -19.631661 ], [ 169.352736, -19.627011 ], [ 169.348291, -19.622218 ], [ 169.343672, -19.622176 ], [ 169.33843, -19.616721 ], [ 169.335094, -19.610898 ], [ 169.330219, -19.609437 ], [ 169.329458, -19.604281 ], [ 169.325458, -19.597036 ], [ 169.315747, -19.59051 ], [ 169.310936, -19.582999 ], [ 169.304715, -19.580494 ], [ 169.29983, -19.580063 ], [ 169.291984, -19.577157 ], [ 169.288704, -19.577429 ], [ 169.284453, -19.570135 ], [ 169.281822, -19.562129 ], [ 169.280033, -19.551557 ], [ 169.277047, -19.551529 ], [ 169.276276, -19.547402 ], [ 169.271657, -19.547616 ], [ 169.26903, -19.539353 ], [ 169.266726, -19.537806 ], [ 169.26703, -19.532596 ], [ 169.262603, -19.530924 ], [ 169.260461, -19.528071 ], [ 169.255026, -19.528534 ], [ 169.25247, -19.526321 ], [ 169.247403, -19.517777 ], [ 169.244551, -19.509969 ], [ 169.238511, -19.497686 ], [ 169.235932, -19.486516 ], [ 169.234844, -19.486763 ], [ 169.231814, -19.478238 ], [ 169.228054, -19.474598 ], [ 169.225144, -19.467619 ], [ 169.220671, -19.454703 ] ] ], [ [ [ 168.111028, -15.643632 ], [ 168.117708, -15.638888 ], [ 168.123141, -15.628751 ], [ 168.120975, -15.620922 ], [ 168.126783, -15.611071 ], [ 168.125255, -15.598131 ], [ 168.126394, -15.58556 ], [ 168.133994, -15.566414 ], [ 168.13242, -15.557837 ], [ 168.137547, -15.554242 ], [ 168.14336, -15.552379 ], [ 168.149414, -15.545481 ], [ 168.139003, -15.535839 ], [ 168.143296, -15.52179 ], [ 168.140913, -15.501828 ], [ 168.137547, -15.494302 ], [ 168.141248, -15.482957 ], [ 168.142433, -15.455764 ], [ 168.150727, -15.449545 ], [ 168.161733, -15.448856 ], [ 168.167753, -15.451565 ], [ 168.170104, -15.456633 ], [ 168.168443, -15.465581 ], [ 168.160447, -15.482947 ], [ 168.162091, -15.5011 ], [ 168.172977, -15.51172 ], [ 168.192053, -15.513722 ], [ 168.193407, -15.53714 ], [ 168.198161, -15.552334 ], [ 168.199828, -15.578643 ], [ 168.185183, -15.598131 ], [ 168.189151, -15.608858 ], [ 168.191628, -15.610337 ], [ 168.191628, -15.613994 ], [ 168.204951, -15.660581 ], [ 168.216337, -15.665481 ], [ 168.219397, -15.669944 ], [ 168.218473, -15.678255 ], [ 168.212821, -15.684596 ], [ 168.223402, -15.703094 ], [ 168.226351, -15.733841 ], [ 168.231788, -15.751246 ], [ 168.239218, -15.760898 ], [ 168.244229, -15.773626 ], [ 168.248874, -15.79079 ], [ 168.248987, -15.815938 ], [ 168.257547, -15.839681 ], [ 168.263948, -15.841828 ], [ 168.26733, -15.846742 ], [ 168.270357, -15.884949 ], [ 168.274655, -15.895563 ], [ 168.271548, -15.899998 ], [ 168.270165, -15.915783 ], [ 168.282541, -15.923127 ], [ 168.276053, -15.930329 ], [ 168.263643, -15.932454 ], [ 168.268659, -15.942649 ], [ 168.274818, -15.971307 ], [ 168.267166, -15.974516 ], [ 168.257099, -15.983896 ], [ 168.254502, -15.994469 ], [ 168.249575, -15.996707 ], [ 168.245059, -16.005385 ], [ 168.230278, -16.009292 ], [ 168.225415, -16.002776 ], [ 168.218372, -16.001035 ], [ 168.211815, -16.013558 ], [ 168.199797, -15.997529 ], [ 168.191628, -15.991877 ], [ 168.184134, -15.979672 ], [ 168.191628, -15.96268 ], [ 168.193689, -15.955144 ], [ 168.193358, -15.949649 ], [ 168.184836, -15.937665 ], [ 168.188645, -15.910727 ], [ 168.173592, -15.88086 ], [ 168.166544, -15.851904 ], [ 168.167796, -15.799952 ], [ 168.161341, -15.781093 ], [ 168.141781, -15.764416 ], [ 168.143098, -15.746457 ], [ 168.130871, -15.733915 ], [ 168.134603, -15.720035 ], [ 168.12563, -15.705231 ], [ 168.124153, -15.694564 ], [ 168.11292, -15.679502 ], [ 168.120586, -15.662435 ], [ 168.111028, -15.643632 ] ] ], [ [ [ 168.11952, -16.68982 ], [ 168.12792, -16.680816 ], [ 168.134871, -16.639614 ], [ 168.157766, -16.617257 ], [ 168.160347, -16.602409 ], [ 168.165925, -16.596428 ], [ 168.155179, -16.573267 ], [ 168.174964, -16.571776 ], [ 168.183685, -16.565813 ], [ 168.191932, -16.567849 ], [ 168.209316, -16.588844 ], [ 168.208735, -16.601465 ], [ 168.221275, -16.612452 ], [ 168.225689, -16.635235 ], [ 168.236366, -16.643542 ], [ 168.236547, -16.66388 ], [ 168.247358, -16.683495 ], [ 168.257304, -16.687755 ], [ 168.284452, -16.67885 ], [ 168.307925, -16.681552 ], [ 168.319827, -16.692417 ], [ 168.335346, -16.732498 ], [ 168.342668, -16.736856 ], [ 168.354528, -16.736334 ], [ 168.356259, -16.752477 ], [ 168.376071, -16.771098 ], [ 168.411114, -16.777875 ], [ 168.421091, -16.774374 ], [ 168.432953, -16.763239 ], [ 168.440833, -16.761224 ], [ 168.461736, -16.770398 ], [ 168.487297, -16.795127 ], [ 168.477066, -16.79741 ], [ 168.474018, -16.801675 ], [ 168.473663, -16.814126 ], [ 168.48001, -16.826191 ], [ 168.479325, -16.839624 ], [ 168.476133, -16.840965 ], [ 168.469701, -16.835478 ], [ 168.454519, -16.835854 ], [ 168.422051, -16.81874 ], [ 168.398382, -16.812842 ], [ 168.390216, -16.806319 ], [ 168.385378, -16.798202 ], [ 168.368265, -16.794837 ], [ 168.354528, -16.782993 ], [ 168.310756, -16.785264 ], [ 168.268166, -16.806855 ], [ 168.260912, -16.820377 ], [ 168.253065, -16.817759 ], [ 168.238173, -16.821522 ], [ 168.2289, -16.814294 ], [ 168.17826, -16.802441 ], [ 168.172297, -16.787807 ], [ 168.156879, -16.777751 ], [ 168.14686, -16.726221 ], [ 168.134205, -16.715651 ], [ 168.11952, -16.68982 ] ] ], [ [ [ 167.782664, -15.344137 ], [ 167.794095, -15.333531 ], [ 167.816606, -15.318282 ], [ 167.843929, -15.31239 ], [ 167.897575, -15.287537 ], [ 167.92251, -15.285185 ], [ 167.95838, -15.275156 ], [ 167.978343, -15.281611 ], [ 167.987185, -15.276929 ], [ 167.99167, -15.28415 ], [ 167.992009, -15.293162 ], [ 167.98799, -15.300798 ], [ 167.975827, -15.312627 ], [ 167.965983, -15.329094 ], [ 167.949894, -15.344545 ], [ 167.942881, -15.355258 ], [ 167.93028, -15.394214 ], [ 167.903954, -15.422593 ], [ 167.85191, -15.467792 ], [ 167.831495, -15.474828 ], [ 167.814877, -15.467832 ], [ 167.794648, -15.468662 ], [ 167.782664, -15.466691 ], [ 167.777008, -15.46576 ], [ 167.74906, -15.471878 ], [ 167.739285, -15.46883 ], [ 167.708405, -15.468701 ], [ 167.679453, -15.451605 ], [ 167.673892, -15.442173 ], [ 167.674856, -15.428531 ], [ 167.678395, -15.420424 ], [ 167.701339, -15.399033 ], [ 167.744466, -15.364827 ], [ 167.74906, -15.363685 ], [ 167.766954, -15.358713 ], [ 167.782664, -15.344137 ] ] ], [ [ [ 167.380748, -13.833459 ], [ 167.387892, -13.822958 ], [ 167.384785, -13.817485 ], [ 167.385964, -13.77808 ], [ 167.391084, -13.769021 ], [ 167.403301, -13.749034 ], [ 167.434115, -13.725982 ], [ 167.44832, -13.722221 ], [ 167.454091, -13.717131 ], [ 167.476455, -13.714981 ], [ 167.487047, -13.7244 ], [ 167.501277, -13.728548 ], [ 167.520506, -13.749834 ], [ 167.527641, -13.773985 ], [ 167.534576, -13.782101 ], [ 167.535034, -13.790838 ], [ 167.546127, -13.804217 ], [ 167.547974, -13.815655 ], [ 167.558496, -13.823921 ], [ 167.5571, -13.826716 ], [ 167.552479, -13.823966 ], [ 167.547035, -13.825042 ], [ 167.54, -13.835436 ], [ 167.539488, -13.850995 ], [ 167.544779, -13.86756 ], [ 167.555568, -13.873643 ], [ 167.570656, -13.867543 ], [ 167.578542, -13.879954 ], [ 167.575311, -13.883133 ], [ 167.561037, -13.886568 ], [ 167.545228, -13.901196 ], [ 167.531107, -13.904798 ], [ 167.511512, -13.904059 ], [ 167.488585, -13.912123 ], [ 167.479828, -13.93147 ], [ 167.473353, -13.963136 ], [ 167.457315, -13.967037 ], [ 167.450448, -13.963066 ], [ 167.446844, -13.955873 ], [ 167.445295, -13.931987 ], [ 167.43446, -13.904393 ], [ 167.399016, -13.874378 ], [ 167.391084, -13.857761 ], [ 167.384047, -13.852586 ], [ 167.380748, -13.833459 ] ] ], [ [ [ 167.416251, -14.350804 ], [ 167.427038, -14.332653 ], [ 167.426206, -14.326803 ], [ 167.434494, -14.316138 ], [ 167.430962, -14.302544 ], [ 167.424146, -14.29044 ], [ 167.428064, -14.279375 ], [ 167.424449, -14.270748 ], [ 167.427322, -14.242494 ], [ 167.435086, -14.227077 ], [ 167.447252, -14.226528 ], [ 167.449997, -14.221474 ], [ 167.456668, -14.217935 ], [ 167.46319, -14.216337 ], [ 167.466428, -14.208557 ], [ 167.481407, -14.213261 ], [ 167.488357, -14.209106 ], [ 167.520641, -14.200713 ], [ 167.556046, -14.20404 ], [ 167.565496, -14.210299 ], [ 167.573673, -14.209934 ], [ 167.580568, -14.215705 ], [ 167.58361, -14.216027 ], [ 167.592843, -14.217005 ], [ 167.596666, -14.228902 ], [ 167.602635, -14.236953 ], [ 167.595943, -14.246541 ], [ 167.601924, -14.251207 ], [ 167.608637, -14.269099 ], [ 167.599888, -14.284598 ], [ 167.601602, -14.2926 ], [ 167.599117, -14.300192 ], [ 167.588007, -14.312009 ], [ 167.58361, -14.332295 ], [ 167.582269, -14.33848 ], [ 167.57495, -14.354016 ], [ 167.559677, -14.366183 ], [ 167.539965, -14.371837 ], [ 167.504374, -14.368358 ], [ 167.482299, -14.359286 ], [ 167.456668, -14.364647 ], [ 167.436036, -14.365456 ], [ 167.431727, -14.359391 ], [ 167.418182, -14.35479 ], [ 167.416251, -14.350804 ] ] ], [ [ [ 168.039197, -14.904136 ], [ 168.045823, -14.892995 ], [ 168.056308, -14.898423 ], [ 168.071806, -14.897363 ], [ 168.081454, -14.904326 ], [ 168.084371, -14.917684 ], [ 168.096753, -14.942786 ], [ 168.096108, -14.95317 ], [ 168.109328, -14.994866 ], [ 168.109937, -15.012055 ], [ 168.12082, -15.023684 ], [ 168.126262, -15.03935 ], [ 168.128563, -15.049779 ], [ 168.123728, -15.058493 ], [ 168.127762, -15.064201 ], [ 168.12658, -15.071732 ], [ 168.129028, -15.078679 ], [ 168.146179, -15.118499 ], [ 168.143236, -15.129623 ], [ 168.150642, -15.166758 ], [ 168.166871, -15.177797 ], [ 168.170364, -15.183566 ], [ 168.166735, -15.197507 ], [ 168.174075, -15.211121 ], [ 168.176401, -15.229382 ], [ 168.174028, -15.244748 ], [ 168.168586, -15.257378 ], [ 168.173365, -15.271637 ], [ 168.167334, -15.279656 ], [ 168.172994, -15.291413 ], [ 168.166415, -15.299459 ], [ 168.169418, -15.305816 ], [ 168.179697, -15.308801 ], [ 168.18318, -15.315688 ], [ 168.174051, -15.335802 ], [ 168.180855, -15.345298 ], [ 168.18161, -15.357781 ], [ 168.17281, -15.368774 ], [ 168.169963, -15.385646 ], [ 168.150879, -15.390936 ], [ 168.127678, -15.380144 ], [ 168.133345, -15.376073 ], [ 168.133777, -15.367167 ], [ 168.126538, -15.341565 ], [ 168.119167, -15.329956 ], [ 168.118818, -15.314494 ], [ 168.11136, -15.283603 ], [ 168.116225, -15.266548 ], [ 168.117508, -15.245807 ], [ 168.114501, -15.223492 ], [ 168.109299, -15.212062 ], [ 168.111423, -15.202831 ], [ 168.108123, -15.186472 ], [ 168.109214, -15.176974 ], [ 168.098265, -15.139495 ], [ 168.080036, -15.104415 ], [ 168.07829, -15.078679 ], [ 168.06888, -15.051705 ], [ 168.065263, -15.011465 ], [ 168.058368, -14.99968 ], [ 168.059398, -14.978986 ], [ 168.057219, -14.970442 ], [ 168.059843, -14.960497 ], [ 168.054802, -14.942749 ], [ 168.046581, -14.929852 ], [ 168.039197, -14.904136 ] ] ], [ [ [ 167.085951, -15.674628 ], [ 167.08777, -15.657444 ], [ 167.093338, -15.6399 ], [ 167.099017, -15.635048 ], [ 167.117583, -15.628618 ], [ 167.177526, -15.62652 ], [ 167.189572, -15.626099 ], [ 167.192799, -15.630404 ], [ 167.207531, -15.634483 ], [ 167.242874, -15.637613 ], [ 167.249927, -15.642396 ], [ 167.251724, -15.655897 ], [ 167.248496, -15.669199 ], [ 167.237872, -15.678125 ], [ 167.231228, -15.689743 ], [ 167.236947, -15.702128 ], [ 167.248217, -15.715872 ], [ 167.245737, -15.732546 ], [ 167.236603, -15.745081 ], [ 167.218817, -15.752797 ], [ 167.210458, -15.753364 ], [ 167.189754, -15.746786 ], [ 167.177526, -15.739338 ], [ 167.155486, -15.725912 ], [ 167.117583, -15.707069 ], [ 167.096223, -15.69179 ], [ 167.087063, -15.681204 ], [ 167.085951, -15.674628 ] ] ], [ [ [ 169.742343, -20.185439 ], [ 169.74512, -20.15819 ], [ 169.757194, -20.145106 ], [ 169.765908, -20.142231 ], [ 169.768776, -20.14141 ], [ 169.772072, -20.138088 ], [ 169.774661, -20.142231 ], [ 169.777387, -20.143269 ], [ 169.779226, -20.142231 ], [ 169.779411, -20.140455 ], [ 169.784603, -20.138689 ], [ 169.785432, -20.137151 ], [ 169.793074, -20.13553 ], [ 169.815687, -20.13607 ], [ 169.822782, -20.134702 ], [ 169.82712, -20.137562 ], [ 169.83041, -20.134882 ], [ 169.839391, -20.136356 ], [ 169.846721, -20.140136 ], [ 169.84871, -20.142231 ], [ 169.86377, -20.153795 ], [ 169.874432, -20.155035 ], [ 169.878435, -20.160122 ], [ 169.886983, -20.162014 ], [ 169.902514, -20.192505 ], [ 169.897763, -20.212329 ], [ 169.890572, -20.21911 ], [ 169.887118, -20.229318 ], [ 169.878481, -20.236383 ], [ 169.876277, -20.242651 ], [ 169.870146, -20.247207 ], [ 169.863535, -20.24593 ], [ 169.853728, -20.251103 ], [ 169.84519, -20.244326 ], [ 169.837025, -20.250453 ], [ 169.831488, -20.250181 ], [ 169.82629, -20.242588 ], [ 169.818826, -20.241838 ], [ 169.813818, -20.236431 ], [ 169.805525, -20.240437 ], [ 169.789895, -20.235421 ], [ 169.781701, -20.242889 ], [ 169.780819, -20.233694 ], [ 169.769537, -20.232384 ], [ 169.765057, -20.22529 ], [ 169.765006, -20.218585 ], [ 169.756187, -20.21212 ], [ 169.742343, -20.185439 ] ] ], [ [ [ 167.125631, -15.598129 ], [ 167.132686, -15.583617 ], [ 167.157308, -15.561318 ], [ 167.161616, -15.550958 ], [ 167.177526, -15.538945 ], [ 167.198034, -15.530613 ], [ 167.215067, -15.53583 ], [ 167.21288, -15.538832 ], [ 167.198282, -15.540228 ], [ 167.193777, -15.546281 ], [ 167.206245, -15.558332 ], [ 167.207127, -15.563735 ], [ 167.202633, -15.570072 ], [ 167.203224, -15.573773 ], [ 167.22205, -15.57477 ], [ 167.227814, -15.57847 ], [ 167.228689, -15.583766 ], [ 167.225473, -15.596963 ], [ 167.215478, -15.607373 ], [ 167.201185, -15.61137 ], [ 167.190113, -15.611016 ], [ 167.181667, -15.61593 ], [ 167.178521, -15.614595 ], [ 167.177526, -15.608601 ], [ 167.152966, -15.609157 ], [ 167.133279, -15.604334 ], [ 167.125631, -15.598129 ] ] ], [ [ [ 166.542905, -13.141689 ], [ 166.5446, -13.13884 ], [ 166.543501, -13.13162 ], [ 166.54822, -13.128236 ], [ 166.552436, -13.128727 ], [ 166.553853, -13.123815 ], [ 166.552123, -13.120728 ], [ 166.554494, -13.120972 ], [ 166.553577, -13.117929 ], [ 166.55763, -13.117082 ], [ 166.556552, -13.113217 ], [ 166.559445, -13.112683 ], [ 166.560336, -13.107774 ], [ 166.557693, -13.106241 ], [ 166.556725, -13.098762 ], [ 166.554881, -13.098644 ], [ 166.553014, -13.094914 ], [ 166.548782, -13.091842 ], [ 166.545979, -13.085664 ], [ 166.545129, -13.07612 ], [ 166.547082, -13.072495 ], [ 166.552623, -13.074397 ], [ 166.561315, -13.075119 ], [ 166.568705, -13.077913 ], [ 166.572143, -13.080473 ], [ 166.576097, -13.081095 ], [ 166.58195, -13.090608 ], [ 166.584859, -13.092655 ], [ 166.5859, -13.111489 ], [ 166.584204, -13.113822 ], [ 166.586454, -13.115615 ], [ 166.587546, -13.121803 ], [ 166.585728, -13.125685 ], [ 166.586666, -13.128266 ], [ 166.585153, -13.138593 ], [ 166.583476, -13.144023 ], [ 166.588792, -13.151733 ], [ 166.589876, -13.156372 ], [ 166.585067, -13.166209 ], [ 166.585505, -13.172916 ], [ 166.581557, -13.193716 ], [ 166.576542, -13.192199 ], [ 166.575215, -13.19053 ], [ 166.566516, -13.18955 ], [ 166.566236, -13.186971 ], [ 166.563071, -13.186216 ], [ 166.558039, -13.18186 ], [ 166.550641, -13.178162 ], [ 166.547591, -13.174954 ], [ 166.543722, -13.166977 ], [ 166.547671, -13.166695 ], [ 166.545137, -13.161548 ], [ 166.544183, -13.156392 ], [ 166.546015, -13.154575 ], [ 166.544907, -13.145806 ], [ 166.542905, -13.141689 ] ] ], [ [ [ 168.527934, -16.89968 ], [ 168.532941, -16.880096 ], [ 168.549643, -16.8764 ], [ 168.55947, -16.863557 ], [ 168.573162, -16.868049 ], [ 168.590408, -16.873706 ], [ 168.596322, -16.884345 ], [ 168.593431, -16.8984 ], [ 168.575362, -16.915584 ], [ 168.573162, -16.919276 ], [ 168.568706, -16.926752 ], [ 168.55947, -16.929696 ], [ 168.544328, -16.936201 ], [ 168.530472, -16.933294 ], [ 168.527934, -16.89968 ] ] ], [ [ [ 167.289773, -13.536301 ], [ 167.293163, -13.532661 ], [ 167.293899, -13.526983 ], [ 167.301166, -13.515574 ], [ 167.307173, -13.510106 ], [ 167.315562, -13.505904 ], [ 167.316591, -13.503317 ], [ 167.321851, -13.502495 ], [ 167.335028, -13.503146 ], [ 167.34665, -13.506388 ], [ 167.356986, -13.512736 ], [ 167.361208, -13.513469 ], [ 167.360187, -13.516829 ], [ 167.358081, -13.516978 ], [ 167.342823, -13.524746 ], [ 167.33743, -13.529814 ], [ 167.331943, -13.537973 ], [ 167.332766, -13.541317 ], [ 167.33648, -13.543988 ], [ 167.341742, -13.543295 ], [ 167.345124, -13.538881 ], [ 167.351672, -13.534953 ], [ 167.3527, -13.532366 ], [ 167.359785, -13.529464 ], [ 167.362659, -13.527117 ], [ 167.362953, -13.530207 ], [ 167.36535, -13.532762 ], [ 167.363951, -13.53793 ], [ 167.366252, -13.544095 ], [ 167.364682, -13.545141 ], [ 167.358445, -13.553964 ], [ 167.353232, -13.559683 ], [ 167.346409, -13.562454 ], [ 167.341435, -13.565723 ], [ 167.336184, -13.567577 ], [ 167.321682, -13.566552 ], [ 167.31772, -13.565557 ], [ 167.311627, -13.562134 ], [ 167.306606, -13.560634 ], [ 167.300364, -13.555536 ], [ 167.293945, -13.545542 ], [ 167.291763, -13.537829 ], [ 167.289773, -13.536301 ] ] ], [ [ [ 167.617546, -13.706919 ], [ 167.619044, -13.704228 ], [ 167.629979, -13.698017 ], [ 167.629162, -13.695704 ], [ 167.632314, -13.694509 ], [ 167.637486, -13.690272 ], [ 167.640108, -13.683722 ], [ 167.643235, -13.680336 ], [ 167.646395, -13.679786 ], [ 167.649256, -13.676144 ], [ 167.652931, -13.674557 ], [ 167.656138, -13.666527 ], [ 167.656367, -13.66343 ], [ 167.651955, -13.65806 ], [ 167.652938, -13.651601 ], [ 167.659512, -13.649854 ], [ 167.670333, -13.650511 ], [ 167.678501, -13.649779 ], [ 167.685649, -13.652151 ], [ 167.693297, -13.652068 ], [ 167.699855, -13.648902 ], [ 167.704861, -13.648461 ], [ 167.709057, -13.646352 ], [ 167.713827, -13.648363 ], [ 167.713666, -13.657392 ], [ 167.716204, -13.660202 ], [ 167.717072, -13.666898 ], [ 167.716393, -13.676707 ], [ 167.714177, -13.678923 ], [ 167.711273, -13.678697 ], [ 167.706827, -13.682098 ], [ 167.702326, -13.6806 ], [ 167.696005, -13.681443 ], [ 167.693391, -13.683535 ], [ 167.68416, -13.683635 ], [ 167.678921, -13.686916 ], [ 167.67791, -13.690796 ], [ 167.672425, -13.695627 ], [ 167.660054, -13.698081 ], [ 167.657932, -13.697073 ], [ 167.645026, -13.698888 ], [ 167.639638, -13.700751 ], [ 167.634484, -13.703755 ], [ 167.631205, -13.706968 ], [ 167.631072, -13.712926 ], [ 167.63374, -13.716033 ], [ 167.633652, -13.719903 ], [ 167.631294, -13.721346 ], [ 167.628904, -13.719953 ], [ 167.625941, -13.714568 ], [ 167.629288, -13.712415 ], [ 167.629084, -13.709922 ], [ 167.622226, -13.710879 ], [ 167.617546, -13.706919 ] ] ], [ [ [ 168.333162, -17.078961 ], [ 168.33551, -17.07452 ], [ 168.354528, -17.065173 ], [ 168.368918, -17.057728 ], [ 168.381626, -17.039409 ], [ 168.391705, -17.03377 ], [ 168.413507, -17.038902 ], [ 168.431397, -17.053156 ], [ 168.419682, -17.063701 ], [ 168.393929, -17.066445 ], [ 168.365779, -17.094174 ], [ 168.354528, -17.097343 ], [ 168.35046, -17.098148 ], [ 168.334512, -17.091067 ], [ 168.333162, -17.078961 ] ] ], [ [ [ 168.211228, -16.498909 ], [ 168.212952, -16.490433 ], [ 168.218394, -16.473767 ], [ 168.218982, -16.460641 ], [ 168.224129, -16.455301 ], [ 168.225566, -16.448109 ], [ 168.227448, -16.447104 ], [ 168.228954, -16.43502 ], [ 168.235698, -16.42983 ], [ 168.250346, -16.431825 ], [ 168.257811, -16.432309 ], [ 168.261106, -16.435185 ], [ 168.261823, -16.441118 ], [ 168.259743, -16.446756 ], [ 168.256083, -16.450829 ], [ 168.255026, -16.459571 ], [ 168.253796, -16.461615 ], [ 168.252445, -16.481685 ], [ 168.253291, -16.488005 ], [ 168.251615, -16.493263 ], [ 168.247503, -16.500935 ], [ 168.241262, -16.508063 ], [ 168.239615, -16.51126 ], [ 168.234021, -16.510414 ], [ 168.226529, -16.511602 ], [ 168.220148, -16.509844 ], [ 168.213039, -16.502924 ], [ 168.211228, -16.498909 ] ] ], [ [ [ 166.589944, -13.235417 ], [ 166.592279, -13.230377 ], [ 166.596225, -13.23061 ], [ 166.600547, -13.227878 ], [ 166.600128, -13.224016 ], [ 166.605344, -13.217413 ], [ 166.608767, -13.218036 ], [ 166.612473, -13.221619 ], [ 166.620907, -13.2244 ], [ 166.632993, -13.222648 ], [ 166.639077, -13.227892 ], [ 166.641395, -13.220662 ], [ 166.643492, -13.219489 ], [ 166.651915, -13.220595 ], [ 166.656142, -13.223402 ], [ 166.654484, -13.231142 ], [ 166.659921, -13.237806 ], [ 166.662276, -13.255568 ], [ 166.65912, -13.255589 ], [ 166.651029, -13.245335 ], [ 166.646036, -13.245883 ], [ 166.647904, -13.249993 ], [ 166.649134, -13.256942 ], [ 166.64838, -13.2621 ], [ 166.644855, -13.265858 ], [ 166.626728, -13.269324 ], [ 166.62201, -13.271802 ], [ 166.61966, -13.274522 ], [ 166.61572, -13.27532 ], [ 166.606959, -13.263137 ], [ 166.604852, -13.262764 ], [ 166.594819, -13.25703 ], [ 166.593087, -13.253691 ], [ 166.593459, -13.250081 ], [ 166.596598, -13.247485 ], [ 166.601061, -13.246169 ], [ 166.600909, -13.243078 ], [ 166.598386, -13.239229 ], [ 166.592074, -13.239397 ], [ 166.589944, -13.235417 ] ] ], [ [ [ 168.307018, -16.503101 ], [ 168.311057, -16.489811 ], [ 168.333665, -16.483635 ], [ 168.350237, -16.484773 ], [ 168.354528, -16.48714 ], [ 168.362336, -16.497729 ], [ 168.369131, -16.515969 ], [ 168.367272, -16.528511 ], [ 168.354528, -16.532476 ], [ 168.345394, -16.534918 ], [ 168.323374, -16.528101 ], [ 168.314074, -16.514767 ], [ 168.307018, -16.503101 ] ] ], [ [ [ 168.324402, -17.432273 ], [ 168.327586, -17.42733 ], [ 168.327454, -17.420759 ], [ 168.341403, -17.412616 ], [ 168.350548, -17.414599 ], [ 168.354528, -17.424983 ], [ 168.356619, -17.430437 ], [ 168.37564, -17.457886 ], [ 168.387872, -17.478907 ], [ 168.384391, -17.483792 ], [ 168.37564, -17.483402 ], [ 168.362695, -17.481907 ], [ 168.354528, -17.476815 ], [ 168.345634, -17.471269 ], [ 168.324402, -17.432273 ] ] ], [ [ [ 166.671133, -13.405149 ], [ 166.674925, -13.400346 ], [ 166.682823, -13.398099 ], [ 166.692538, -13.391706 ], [ 166.694647, -13.391434 ], [ 166.708667, -13.39715 ], [ 166.712013, -13.4041 ], [ 166.714455, -13.413638 ], [ 166.712805, -13.422688 ], [ 166.705464, -13.429193 ], [ 166.706176, -13.436677 ], [ 166.705421, -13.441847 ], [ 166.702679, -13.445739 ], [ 166.697413, -13.447324 ], [ 166.692138, -13.447488 ], [ 166.684309, -13.440956 ], [ 166.681887, -13.434258 ], [ 166.681844, -13.428061 ], [ 166.678654, -13.424467 ], [ 166.676776, -13.420089 ], [ 166.672925, -13.416241 ], [ 166.671133, -13.405149 ] ] ], [ [ [ 168.018878, -14.458695 ], [ 168.020495, -14.45665 ], [ 168.022034, -14.450474 ], [ 168.027137, -14.444346 ], [ 168.02863, -14.442554 ], [ 168.039014, -14.438683 ], [ 168.046401, -14.44097 ], [ 168.052218, -14.441818 ], [ 168.059327, -14.445133 ], [ 168.065428, -14.444564 ], [ 168.06806, -14.445888 ], [ 168.066359, -14.454386 ], [ 168.06229, -14.461565 ], [ 168.055195, -14.477224 ], [ 168.053048, -14.479263 ], [ 168.048794, -14.480371 ], [ 168.034742, -14.481098 ], [ 168.027137, -14.474578 ], [ 168.023739, -14.471665 ], [ 168.021778, -14.459764 ], [ 168.018878, -14.458695 ] ] ], [ [ [ 167.255435, -15.579968 ], [ 167.259628, -15.573991 ], [ 167.26571, -15.570316 ], [ 167.272336, -15.567668 ], [ 167.275764, -15.564795 ], [ 167.278641, -15.560121 ], [ 167.281958, -15.547186 ], [ 167.285601, -15.539666 ], [ 167.291218, -15.542188 ], [ 167.296137, -15.553747 ], [ 167.298157, -15.567916 ], [ 167.295819, -15.573101 ], [ 167.282925, -15.586522 ], [ 167.272608, -15.592434 ], [ 167.265688, -15.592506 ], [ 167.26044, -15.587399 ], [ 167.255435, -15.579968 ] ] ], [ [ [ 166.617286, -13.330753 ], [ 166.621099, -13.328233 ], [ 166.622259, -13.32347 ], [ 166.627275, -13.322143 ], [ 166.631748, -13.318747 ], [ 166.636624, -13.323007 ], [ 166.642354, -13.322462 ], [ 166.646813, -13.325835 ], [ 166.646761, -13.331066 ], [ 166.642791, -13.32962 ], [ 166.635345, -13.332363 ], [ 166.637692, -13.337613 ], [ 166.641145, -13.339921 ], [ 166.646432, -13.339756 ], [ 166.657046, -13.345255 ], [ 166.661475, -13.355064 ], [ 166.662162, -13.358685 ], [ 166.659058, -13.368803 ], [ 166.651704, -13.37623 ], [ 166.648509, -13.373144 ], [ 166.644134, -13.37149 ], [ 166.643682, -13.363207 ], [ 166.645395, -13.362419 ], [ 166.6455, -13.358276 ], [ 166.643122, -13.35855 ], [ 166.642999, -13.354782 ], [ 166.640835, -13.352869 ], [ 166.64028, -13.348989 ], [ 166.630357, -13.347887 ], [ 166.622142, -13.345221 ], [ 166.619201, -13.340321 ], [ 166.620909, -13.338756 ], [ 166.617435, -13.333341 ], [ 166.617286, -13.330753 ] ] ], [ [ [ 170.198776, -19.526909 ], [ 170.202267, -19.525021 ], [ 170.203798, -19.519068 ], [ 170.199224, -19.514249 ], [ 170.202329, -19.512325 ], [ 170.205876, -19.513377 ], [ 170.210503, -19.517284 ], [ 170.220347, -19.515901 ], [ 170.223349, -19.516691 ], [ 170.229916, -19.514777 ], [ 170.229937, -19.510372 ], [ 170.237872, -19.508074 ], [ 170.237849, -19.512997 ], [ 170.234147, -19.515572 ], [ 170.23496, -19.518388 ], [ 170.232076, -19.520227 ], [ 170.231088, -19.52696 ], [ 170.232573, -19.530852 ], [ 170.231195, -19.536785 ], [ 170.235217, -19.538588 ], [ 170.232522, -19.541605 ], [ 170.227873, -19.542233 ], [ 170.224285, -19.549602 ], [ 170.222189, -19.545618 ], [ 170.218556, -19.547245 ], [ 170.215286, -19.545288 ], [ 170.208587, -19.545777 ], [ 170.206578, -19.537477 ], [ 170.201425, -19.529422 ], [ 170.198776, -19.526909 ] ] ], [ [ [ 167.105049, -14.944351 ], [ 167.108489, -14.942335 ], [ 167.121317, -14.945524 ], [ 167.145151, -14.965793 ], [ 167.152564, -14.966829 ], [ 167.159619, -14.964154 ], [ 167.160932, -14.976521 ], [ 167.156244, -14.982494 ], [ 167.147078, -14.981435 ], [ 167.121317, -14.967351 ], [ 167.107496, -14.951047 ], [ 167.105049, -14.944351 ] ] ], [ [ [ 167.675833, -13.847073 ], [ 167.678264, -13.840606 ], [ 167.687137, -13.832651 ], [ 167.689772, -13.832494 ], [ 167.693958, -13.829742 ], [ 167.701349, -13.830563 ], [ 167.702697, -13.833124 ], [ 167.706951, -13.836169 ], [ 167.709265, -13.842583 ], [ 167.712603, -13.846153 ], [ 167.71343, -13.849235 ], [ 167.708795, -13.858818 ], [ 167.704601, -13.860926 ], [ 167.699072, -13.86163 ], [ 167.693784, -13.860401 ], [ 167.685613, -13.86062 ], [ 167.682438, -13.859624 ], [ 167.680934, -13.855003 ], [ 167.675833, -13.847073 ] ] ], [ [ [ 169.589629, -19.263076 ], [ 169.600418, -19.226602 ], [ 169.602024, -19.226353 ], [ 169.607305, -19.233657 ], [ 169.610739, -19.230822 ], [ 169.611352, -19.223202 ], [ 169.610755, -19.220017 ], [ 169.605416, -19.217711 ], [ 169.604365, -19.214512 ], [ 169.605537, -19.211482 ], [ 169.608582, -19.210951 ], [ 169.615397, -19.222794 ], [ 169.608582, -19.261844 ], [ 169.605067, -19.272326 ], [ 169.593152, -19.276288 ], [ 169.589629, -19.263076 ] ] ], [ [ [ 168.473263, -17.481748 ], [ 168.47596, -17.474126 ], [ 168.48058, -17.469154 ], [ 168.482825, -17.468202 ], [ 168.492052, -17.467422 ], [ 168.500885, -17.469628 ], [ 168.504383, -17.472823 ], [ 168.502957, -17.475187 ], [ 168.503122, -17.480275 ], [ 168.499586, -17.488973 ], [ 168.490716, -17.492803 ], [ 168.485595, -17.497279 ], [ 168.479852, -17.495534 ], [ 168.476661, -17.492354 ], [ 168.477273, -17.48781 ], [ 168.476147, -17.483442 ], [ 168.473263, -17.481748 ] ] ], [ [ [ 168.192423, -17.601395 ], [ 168.197422, -17.593749 ], [ 168.199322, -17.594304 ], [ 168.200244, -17.590734 ], [ 168.2062, -17.5865 ], [ 168.209388, -17.576183 ], [ 168.206825, -17.575024 ], [ 168.209392, -17.573105 ], [ 168.214042, -17.578984 ], [ 168.213585, -17.586725 ], [ 168.218724, -17.592771 ], [ 168.220344, -17.597735 ], [ 168.225473, -17.605857 ], [ 168.224031, -17.610362 ], [ 168.219948, -17.614084 ], [ 168.206528, -17.610655 ], [ 168.199982, -17.60658 ], [ 168.193462, -17.60368 ], [ 168.192423, -17.601395 ] ] ], [ [ [ 167.236452, -15.418534 ], [ 167.23656, -15.416231 ], [ 167.24333, -15.408493 ], [ 167.247017, -15.4082 ], [ 167.249669, -15.409707 ], [ 167.255827, -15.418593 ], [ 167.260667, -15.427493 ], [ 167.263533, -15.434845 ], [ 167.263582, -15.439752 ], [ 167.257701, -15.444801 ], [ 167.257573, -15.458206 ], [ 167.254947, -15.459127 ], [ 167.251454, -15.455033 ], [ 167.253378, -15.453209 ], [ 167.254135, -15.448588 ], [ 167.252265, -15.442467 ], [ 167.245595, -15.435316 ], [ 167.242555, -15.422307 ], [ 167.241348, -15.420274 ], [ 167.236452, -15.418534 ] ] ], [ [ [ 168.611467, -17.010979 ], [ 168.611892, -17.008938 ], [ 168.615925, -17.005404 ], [ 168.618125, -16.999547 ], [ 168.621362, -16.995875 ], [ 168.625091, -16.99528 ], [ 168.640494, -16.996482 ], [ 168.644994, -16.998069 ], [ 168.645998, -17.002812 ], [ 168.648107, -17.004244 ], [ 168.646889, -17.00637 ], [ 168.64064, -17.006075 ], [ 168.638227, -17.00771 ], [ 168.630222, -17.010047 ], [ 168.621698, -17.011355 ], [ 168.621523, -17.014678 ], [ 168.616306, -17.017302 ], [ 168.612349, -17.014826 ], [ 168.611467, -17.010979 ] ] ], [ [ [ 167.2178, -15.379452 ], [ 167.218678, -15.373999 ], [ 167.227745, -15.372353 ], [ 167.239297, -15.3782 ], [ 167.242202, -15.387503 ], [ 167.239976, -15.391673 ], [ 167.234934, -15.394964 ], [ 167.230397, -15.395528 ], [ 167.226109, -15.394405 ], [ 167.220947, -15.38642 ], [ 167.220906, -15.382532 ], [ 167.2178, -15.379452 ] ] ], [ [ [ 168.391008, -17.484986 ], [ 168.394637, -17.48248 ], [ 168.402505, -17.482813 ], [ 168.410156, -17.48721 ], [ 168.414503, -17.491371 ], [ 168.418191, -17.493326 ], [ 168.419858, -17.502073 ], [ 168.418386, -17.503697 ], [ 168.415797, -17.501267 ], [ 168.408498, -17.503897 ], [ 168.404117, -17.503333 ], [ 168.401741, -17.501041 ], [ 168.399316, -17.493671 ], [ 168.391008, -17.484986 ] ] ], [ [ [ 167.80633, -16.504087 ], [ 167.807373, -16.498082 ], [ 167.809029, -16.4963 ], [ 167.819936, -16.489287 ], [ 167.828454, -16.48777 ], [ 167.830923, -16.491871 ], [ 167.834438, -16.494148 ], [ 167.82998, -16.500667 ], [ 167.826517, -16.501876 ], [ 167.824148, -16.50475 ], [ 167.817445, -16.504195 ], [ 167.811592, -16.506858 ], [ 167.80633, -16.504087 ] ] ], [ [ [ 167.522699, -13.588794 ], [ 167.525316, -13.586395 ], [ 167.530336, -13.584267 ], [ 167.533385, -13.587959 ], [ 167.536691, -13.595366 ], [ 167.534367, -13.605425 ], [ 167.536749, -13.613279 ], [ 167.539426, -13.615329 ], [ 167.540938, -13.620246 ], [ 167.538989, -13.62416 ], [ 167.531425, -13.62744 ], [ 167.530374, -13.625286 ], [ 167.534042, -13.620836 ], [ 167.532531, -13.615918 ], [ 167.528563, -13.617257 ], [ 167.52801, -13.615185 ], [ 167.522974, -13.615489 ], [ 167.524618, -13.608173 ], [ 167.527113, -13.610537 ], [ 167.529545, -13.609718 ], [ 167.530924, -13.602175 ], [ 167.533241, -13.595401 ], [ 167.532274, -13.591776 ], [ 167.528804, -13.589994 ], [ 167.522699, -13.588794 ] ] ], [ [ [ 167.177432, -15.268699 ], [ 167.179245, -15.261606 ], [ 167.187269, -15.256956 ], [ 167.19185, -15.257564 ], [ 167.196618, -15.263265 ], [ 167.198827, -15.268728 ], [ 167.198044, -15.271087 ], [ 167.193085, -15.272833 ], [ 167.182583, -15.272152 ], [ 167.177432, -15.268699 ] ] ], [ [ [ 167.083584, -15.039072 ], [ 167.085912, -15.034358 ], [ 167.086801, -15.028852 ], [ 167.095409, -15.027594 ], [ 167.100538, -15.028725 ], [ 167.101513, -15.03212 ], [ 167.100622, -15.037364 ], [ 167.098262, -15.04393 ], [ 167.087227, -15.044948 ], [ 167.085837, -15.04051 ], [ 167.083584, -15.039072 ] ] ], [ [ [ 166.612066, -13.204017 ], [ 166.610098, -13.210117 ], [ 166.598772, -13.212744 ], [ 166.590204, -13.210247 ], [ 166.591166, -13.204017 ], [ 166.604855, -13.197748 ], [ 166.612066, -13.204017 ] ] ], [ [ [ 167.463169, -16.587701 ], [ 167.467617, -16.582267 ], [ 167.472392, -16.581698 ], [ 167.475869, -16.583451 ], [ 167.481274, -16.590561 ], [ 167.480779, -16.593385 ], [ 167.482043, -16.59608 ], [ 167.48326, -16.599527 ], [ 167.482043, -16.602247 ], [ 167.478762, -16.601865 ], [ 167.473104, -16.595783 ], [ 167.465871, -16.591256 ], [ 167.463169, -16.587701 ] ] ], [ [ [ 166.944573, -15.631306 ], [ 166.948434, -15.624451 ], [ 166.951671, -15.623241 ], [ 166.955477, -15.624913 ], [ 166.96069, -15.632212 ], [ 166.961828, -15.637973 ], [ 166.95617, -15.640909 ], [ 166.948976, -15.638874 ], [ 166.945556, -15.63497 ], [ 166.944573, -15.631306 ] ] ], [ [ [ 168.429184, -17.130254 ], [ 168.429202, -17.128956 ], [ 168.435412, -17.128905 ], [ 168.445068, -17.133571 ], [ 168.447157, -17.138789 ], [ 168.441436, -17.142481 ], [ 168.433385, -17.138874 ], [ 168.429184, -17.130254 ] ] ], [ [ [ 168.419786, -17.250876 ], [ 168.420114, -17.247169 ], [ 168.425011, -17.242196 ], [ 168.427858, -17.245678 ], [ 168.430086, -17.254189 ], [ 168.432235, -17.258227 ], [ 168.431204, -17.259379 ], [ 168.424509, -17.258491 ], [ 168.420432, -17.254065 ], [ 168.419786, -17.250876 ] ] ], [ [ [ 167.445102, -16.085407 ], [ 167.447506, -16.084617 ], [ 167.457644, -16.086206 ], [ 167.463081, -16.087791 ], [ 167.465458, -16.090118 ], [ 167.466331, -16.09462 ], [ 167.45865, -16.095341 ], [ 167.453589, -16.092771 ], [ 167.445102, -16.085407 ] ] ], [ [ [ 167.118554, -15.106475 ], [ 167.121317, -15.101508 ], [ 167.131198, -15.10067 ], [ 167.136438, -15.104391 ], [ 167.133466, -15.107895 ], [ 167.121317, -15.110673 ], [ 167.119089, -15.109368 ], [ 167.118554, -15.106475 ] ] ], [ [ [ 167.824249, -16.524977 ], [ 167.827805, -16.517341 ], [ 167.837097, -16.524138 ], [ 167.835528, -16.530241 ], [ 167.837097, -16.534087 ], [ 167.833075, -16.533894 ], [ 167.824249, -16.524977 ] ] ], [ [ [ 167.210758, -15.28943 ], [ 167.21351, -15.282884 ], [ 167.217255, -15.281413 ], [ 167.220364, -15.283338 ], [ 167.221681, -15.293493 ], [ 167.218215, -15.296004 ], [ 167.214448, -15.29539 ], [ 167.211334, -15.293074 ], [ 167.210758, -15.28943 ] ] ], [ [ [ 167.301837, -15.896921 ], [ 167.302764, -15.895344 ], [ 167.309214, -15.892792 ], [ 167.313546, -15.893922 ], [ 167.317792, -15.899363 ], [ 167.316867, -15.90107 ], [ 167.312295, -15.902557 ], [ 167.304725, -15.901581 ], [ 167.301837, -15.896921 ] ] ], [ [ [ 168.579754, -17.025097 ], [ 168.582949, -17.019901 ], [ 168.588775, -17.017185 ], [ 168.593273, -17.020809 ], [ 168.59364, -17.023953 ], [ 168.586916, -17.028714 ], [ 168.580949, -17.027335 ], [ 168.579754, -17.025097 ] ] ], [ [ [ 167.384121, -15.987373 ], [ 167.385618, -15.982843 ], [ 167.391084, -15.979984 ], [ 167.396841, -15.988259 ], [ 167.39533, -15.991751 ], [ 167.391084, -15.993316 ], [ 167.384121, -15.987373 ] ] ], [ [ [ 167.498033, -13.599289 ], [ 167.498375, -13.597143 ], [ 167.502143, -13.59512 ], [ 167.505661, -13.595084 ], [ 167.517358, -13.591464 ], [ 167.517283, -13.593643 ], [ 167.510815, -13.596224 ], [ 167.506545, -13.601958 ], [ 167.502486, -13.601999 ], [ 167.498033, -13.599289 ] ] ], [ [ [ 168.57316, -16.951882 ], [ 168.574679, -16.949492 ], [ 168.575759, -16.952186 ], [ 168.581539, -16.957616 ], [ 168.584809, -16.963285 ], [ 168.584208, -16.966763 ], [ 168.581966, -16.967809 ], [ 168.574715, -16.957535 ], [ 168.57316, -16.951882 ] ] ], [ [ [ 168.12821, -16.59009 ], [ 168.12928, -16.58095 ], [ 168.13392, -16.579861 ], [ 168.139622, -16.582739 ], [ 168.137447, -16.587454 ], [ 168.131614, -16.589177 ], [ 168.129421, -16.592128 ], [ 168.12821, -16.59009 ] ] ], [ [ [ 167.254485, -15.714852 ], [ 167.259558, -15.711499 ], [ 167.262907, -15.70624 ], [ 167.264067, -15.708428 ], [ 167.261234, -15.721931 ], [ 167.25828, -15.724299 ], [ 167.255917, -15.715937 ], [ 167.254485, -15.714852 ] ] ], [ [ [ 168.14391, -17.643214 ], [ 168.148953, -17.640952 ], [ 168.150999, -17.637775 ], [ 168.157158, -17.636 ], [ 168.160639, -17.633014 ], [ 168.161053, -17.636951 ], [ 168.157778, -17.638648 ], [ 168.154525, -17.643367 ], [ 168.146262, -17.644354 ], [ 168.14391, -17.643214 ] ] ], [ [ [ 167.444851, -16.070806 ], [ 167.450212, -16.067024 ], [ 167.458564, -16.070806 ], [ 167.457511, -16.073046 ], [ 167.45047, -16.075181 ], [ 167.447226, -16.074139 ], [ 167.444851, -16.070806 ] ] ], [ [ [ 167.374259, -15.972326 ], [ 167.376017, -15.969373 ], [ 167.381513, -15.967979 ], [ 167.383237, -15.973827 ], [ 167.378331, -15.978547 ], [ 167.375579, -15.978978 ], [ 167.374259, -15.972326 ] ] ], [ [ [ 167.337282, -15.944622 ], [ 167.339352, -15.940502 ], [ 167.345794, -15.936198 ], [ 167.348935, -15.939306 ], [ 167.34505, -15.945083 ], [ 167.338565, -15.9457 ], [ 167.337282, -15.944622 ] ] ], [ [ [ 167.242001, -15.590638 ], [ 167.243584, -15.587753 ], [ 167.248406, -15.585878 ], [ 167.25006, -15.589512 ], [ 167.248496, -15.594091 ], [ 167.245554, -15.595686 ], [ 167.242582, -15.594543 ], [ 167.242001, -15.590638 ] ] ], [ [ [ 167.022406, -15.610164 ], [ 167.02604, -15.608087 ], [ 167.032529, -15.610615 ], [ 167.036511, -15.615481 ], [ 167.033431, -15.616599 ], [ 167.029183, -15.61337 ], [ 167.022849, -15.612339 ], [ 167.022406, -15.610164 ] ] ], [ [ [ 166.985607, -15.59181 ], [ 166.985881, -15.590341 ], [ 166.993333, -15.589951 ], [ 166.997547, -15.591638 ], [ 166.997456, -15.593917 ], [ 166.992361, -15.595266 ], [ 166.986706, -15.594275 ], [ 166.985607, -15.59181 ] ] ], [ [ [ 167.646126, -16.518485 ], [ 167.652201, -16.514731 ], [ 167.656124, -16.518082 ], [ 167.656027, -16.521392 ], [ 167.651755, -16.522549 ], [ 167.646126, -16.518485 ] ] ], [ [ [ 168.291332, -17.750629 ], [ 168.29165, -17.747356 ], [ 168.295258, -17.744459 ], [ 168.2997, -17.744811 ], [ 168.299881, -17.746971 ], [ 168.295897, -17.751554 ], [ 168.291332, -17.750629 ] ] ], [ [ [ 166.587781, -13.127594 ], [ 166.588686, -13.124371 ], [ 166.59477, -13.123944 ], [ 166.595448, -13.126663 ], [ 166.592566, -13.13109 ], [ 166.590849, -13.131489 ], [ 166.587781, -13.127594 ] ] ], [ [ [ 167.773411, -16.519659 ], [ 167.777634, -16.517883 ], [ 167.782295, -16.517954 ], [ 167.782321, -16.519804 ], [ 167.778536, -16.523424 ], [ 167.774077, -16.524321 ], [ 167.773411, -16.519659 ] ] ], [ [ [ 167.546293, -13.788705 ], [ 167.549885, -13.784348 ], [ 167.552214, -13.783307 ], [ 167.554061, -13.785829 ], [ 167.554108, -13.790148 ], [ 167.550735, -13.790818 ], [ 167.546293, -13.788705 ] ] ], [ [ [ 167.771032, -16.532643 ], [ 167.775547, -16.53231 ], [ 167.777304, -16.536646 ], [ 167.772004, -16.541349 ], [ 167.771032, -16.532643 ] ] ], [ [ [ 168.356849, -16.834168 ], [ 168.357313, -16.830944 ], [ 168.361538, -16.828576 ], [ 168.36263, -16.830474 ], [ 168.361573, -16.836113 ], [ 168.359448, -16.838239 ], [ 168.356849, -16.834168 ] ] ], [ [ [ 167.794324, -14.322771 ], [ 167.794324, -14.32036 ], [ 167.79671, -14.316684 ], [ 167.799644, -14.316563 ], [ 167.800388, -14.320035 ], [ 167.798822, -14.323069 ], [ 167.796364, -14.323726 ], [ 167.794324, -14.322771 ] ] ], [ [ [ 167.782664, -16.547775 ], [ 167.786823, -16.551435 ], [ 167.782664, -16.553678 ], [ 167.779826, -16.553034 ], [ 167.779088, -16.550733 ], [ 167.779194, -16.548285 ], [ 167.782664, -16.547775 ] ] ], [ [ [ 168.40169, -17.519203 ], [ 168.403935, -17.51439 ], [ 168.408492, -17.513219 ], [ 168.408579, -17.519101 ], [ 168.40169, -17.519203 ] ] ], [ [ [ 167.590628, -16.516818 ], [ 167.592039, -16.514767 ], [ 167.593971, -16.512788 ], [ 167.596521, -16.511933 ], [ 167.59719, -16.514767 ], [ 167.594934, -16.519467 ], [ 167.590628, -16.516818 ] ] ], [ [ [ 167.190934, -15.375627 ], [ 167.191892, -15.369685 ], [ 167.195002, -15.36806 ], [ 167.194141, -15.376601 ], [ 167.190934, -15.375627 ] ] ], [ [ [ 167.252935, -15.479921 ], [ 167.254046, -15.474592 ], [ 167.25741, -15.476356 ], [ 167.255817, -15.482699 ], [ 167.252935, -15.479921 ] ] ], [ [ [ 167.407017, -16.059345 ], [ 167.408019, -16.056837 ], [ 167.414022, -16.053849 ], [ 167.413406, -16.058398 ], [ 167.407017, -16.059345 ] ] ], [ [ [ 166.58336, -13.25038 ], [ 166.587989, -13.250039 ], [ 166.589201, -13.255559 ], [ 166.585321, -13.254397 ], [ 166.58336, -13.25038 ] ] ], [ [ [ 167.639885, -13.256583 ], [ 167.645277, -13.257408 ], [ 167.645776, -13.261088 ], [ 167.64082, -13.260666 ], [ 167.639885, -13.256583 ] ] ], [ [ [ 167.520296, -13.627567 ], [ 167.520401, -13.623278 ], [ 167.52328, -13.622124 ], [ 167.524287, -13.626404 ], [ 167.522937, -13.628985 ], [ 167.520296, -13.627567 ] ] ], [ [ [ 167.077745, -15.051032 ], [ 167.084075, -15.049292 ], [ 167.083163, -15.054058 ], [ 167.080969, -15.054749 ], [ 167.077745, -15.051032 ] ] ], [ [ [ 168.55947, -16.830841 ], [ 168.55947, -16.824396 ], [ 168.562485, -16.825725 ], [ 168.563748, -16.830021 ], [ 168.55947, -16.830841 ] ] ], [ [ [ 167.25635, -15.70524 ], [ 167.260573, -15.701552 ], [ 167.262276, -15.705516 ], [ 167.256901, -15.707934 ], [ 167.25635, -15.70524 ] ] ], [ [ [ 167.439624, -16.098155 ], [ 167.441823, -16.096658 ], [ 167.447564, -16.099831 ], [ 167.445289, -16.102271 ], [ 167.439624, -16.098155 ] ] ], [ [ [ 167.459271, -16.114311 ], [ 167.462745, -16.111214 ], [ 167.465152, -16.115817 ], [ 167.462702, -16.117795 ], [ 167.459271, -16.114311 ] ] ], [ [ [ 167.784854, -16.518446 ], [ 167.789059, -16.516118 ], [ 167.790504, -16.518371 ], [ 167.789137, -16.521569 ], [ 167.786887, -16.521768 ], [ 167.784854, -16.518446 ] ] ], [ [ [ 167.785715, -16.545456 ], [ 167.787069, -16.541728 ], [ 167.790537, -16.542214 ], [ 167.790611, -16.547368 ], [ 167.785715, -16.545456 ] ] ], [ [ [ 168.541876, -16.817865 ], [ 168.54312, -16.81386 ], [ 168.547535, -16.814568 ], [ 168.547837, -16.817937 ], [ 168.541876, -16.817865 ] ] ], [ [ [ 168.598465, -16.988612 ], [ 168.602359, -16.988658 ], [ 168.604427, -16.993111 ], [ 168.600524, -16.993746 ], [ 168.598465, -16.988612 ] ] ], [ [ [ 168.433098, -17.259297 ], [ 168.437737, -17.261123 ], [ 168.438065, -17.26476 ], [ 168.434279, -17.265075 ], [ 168.433098, -17.259297 ] ] ], [ [ [ 169.765825, -20.250332 ], [ 169.77019, -20.247456 ], [ 169.771555, -20.251935 ], [ 169.769171, -20.253777 ], [ 169.765825, -20.250332 ] ] ] ] } }
]
}
