{
"type": "FeatureCollection",
"name": "Wallis and Futuna",
"crs": { "type": "name", "properties": { "name": "urn:ogc:def:crs:OGC:1.3:CRS84" } },
"features": [
{ "type": "Feature", "properties": { "id": "WF", "CNTR_ID": "WF", "CNTR_NAME": "Wallis-Et-Futuna", "NAME_ENGL": "Wallis and Futuna", "ISO3_CODE": "WLF", "FID": "WF" }, "geometry": { "type": "MultiPolygon", "coordinates": [ [ [ [ -176.192537, -13.222251 ], [ -176.190422, -13.224567 ], [ -176.187525, -13.224558 ], [ -176.185146, -13.22713 ], [ -176.184736, -13.232032 ], [ -176.180372, -13.237178 ], [ -176.179163, -13.244399 ], [ -176.174529, -13.251479 ], [ -176.168995, -13.252235 ], [ -176.165825, -13.254935 ], [ -176.164483, -13.262413 ], [ -176.161839, -13.265242 ], [ -176.170607, -13.282042 ], [ -176.173627, -13.284761 ], [ -176.175473, -13.284122 ], [ -176.181894, -13.294206 ], [ -176.182274, -13.298594 ], [ -176.180429, -13.298846 ], [ -176.179486, -13.305035 ], [ -176.181719, -13.306719 ], [ -176.184623, -13.30518 ], [ -176.186717, -13.309187 ], [ -176.184077, -13.310727 ], [ -176.186441, -13.313056 ], [ -176.188523, -13.320804 ], [ -176.186012, -13.323118 ], [ -176.190342, -13.328292 ], [ -176.187926, -13.331451 ], [ -176.186886, -13.33757 ], [ -176.183719, -13.339108 ], [ -176.182143, -13.337425 ], [ -176.175016, -13.341144 ], [ -176.1754, -13.344758 ], [ -176.180794, -13.346839 ], [ -176.184211, -13.34943 ], [ -176.190155, -13.345063 ], [ -176.199249, -13.34393 ], [ -176.205151, -13.352335 ], [ -176.208447, -13.351571 ], [ -176.211882, -13.348614 ], [ -176.215303, -13.350045 ], [ -176.218482, -13.344636 ], [ -176.216529, -13.337663 ], [ -176.218648, -13.334316 ], [ -176.220114, -13.328901 ], [ -176.226566, -13.326714 ], [ -176.227766, -13.325313 ], [ -176.224611, -13.323239 ], [ -176.224621, -13.320143 ], [ -176.227726, -13.32086 ], [ -176.23411, -13.318881 ], [ -176.234388, -13.314238 ], [ -176.238337, -13.31541 ], [ -176.24045, -13.31374 ], [ -176.24717, -13.313244 ], [ -176.250088, -13.306802 ], [ -176.247738, -13.300086 ], [ -176.249329, -13.296736 ], [ -176.250403, -13.290031 ], [ -176.237116, -13.284443 ], [ -176.230532, -13.283779 ], [ -176.227113, -13.281962 ], [ -176.223707, -13.276275 ], [ -176.224518, -13.269569 ], [ -176.224142, -13.263891 ], [ -176.22652, -13.261318 ], [ -176.225341, -13.259251 ], [ -176.22589, -13.252286 ], [ -176.223524, -13.25073 ], [ -176.223011, -13.246342 ], [ -176.220017, -13.235496 ], [ -176.220811, -13.234466 ], [ -176.212937, -13.225927 ], [ -176.212551, -13.22283 ], [ -176.209917, -13.22295 ], [ -176.200713, -13.218793 ], [ -176.198342, -13.218786 ], [ -176.192537, -13.222251 ] ] ], [ [ [ -178.161509, -14.248657 ], [ -178.15873, -14.246403 ], [ -178.155272, -14.246721 ], [ -178.153245, -14.253734 ], [ -178.1427, -14.255586 ], [ -178.137442, -14.2596 ], [ -178.131113, -14.260274 ], [ -178.128229, -14.264148 ], [ -178.124537, -14.26468 ], [ -178.124549, -14.266997 ], [ -178.120867, -14.269588 ], [ -178.116672, -14.275012 ], [ -178.11009, -14.278389 ], [ -178.104307, -14.283048 ], [ -178.09775, -14.291315 ], [ -178.090641, -14.29495 ], [ -178.089594, -14.296757 ], [ -178.081161, -14.299369 ], [ -178.073509, -14.299789 ], [ -178.063774, -14.306396 ], [ -178.054009, -14.30644 ], [ -178.054148, -14.307984 ], [ -178.060163, -14.311212 ], [ -178.065682, -14.312349 ], [ -178.081751, -14.312363 ], [ -178.089664, -14.311169 ], [ -178.097042, -14.308562 ], [ -178.107084, -14.311217 ], [ -178.112102, -14.311709 ], [ -178.116317, -14.310145 ], [ -178.122124, -14.310117 ], [ -178.122382, -14.308958 ], [ -178.130301, -14.309178 ], [ -178.130841, -14.311492 ], [ -178.1377, -14.310815 ], [ -178.155874, -14.303393 ], [ -178.159548, -14.299257 ], [ -178.158858, -14.293341 ], [ -178.162684, -14.293193 ], [ -178.168552, -14.287719 ], [ -178.171563, -14.275006 ], [ -178.175877, -14.267264 ], [ -178.179255, -14.25721 ], [ -178.181353, -14.254626 ], [ -178.179473, -14.248201 ], [ -178.180255, -14.246395 ], [ -178.176256, -14.240769 ], [ -178.171048, -14.242619 ], [ -178.163836, -14.24804 ], [ -178.161509, -14.248657 ] ] ], [ [ [ -178.029701, -14.324084 ], [ -178.027611, -14.329506 ], [ -178.024186, -14.331968 ], [ -178.016789, -14.332903 ], [ -178.007799, -14.332168 ], [ -178.001998, -14.335413 ], [ -178.002271, -14.337346 ], [ -178.018425, -14.343978 ], [ -178.025054, -14.348331 ], [ -178.037654, -14.357812 ], [ -178.0423, -14.362173 ], [ -178.047316, -14.360604 ], [ -178.048346, -14.354672 ], [ -178.05467, -14.350391 ], [ -178.060219, -14.349722 ], [ -178.067361, -14.35085 ], [ -178.072107, -14.348123 ], [ -178.072619, -14.34477 ], [ -178.069695, -14.341175 ], [ -178.069405, -14.335764 ], [ -178.067543, -14.333453 ], [ -178.055612, -14.325645 ], [ -178.041588, -14.322357 ], [ -178.029701, -14.324084 ] ] ], [ [ [ -176.218379, -13.366517 ], [ -176.216797, -13.370353 ], [ -176.213395, -13.37111 ], [ -176.213256, -13.373926 ], [ -176.209845, -13.377244 ], [ -176.211012, -13.380064 ], [ -176.215726, -13.378158 ], [ -176.219907, -13.379324 ], [ -176.217175, -13.374963 ], [ -176.218102, -13.371381 ], [ -176.220195, -13.371131 ], [ -176.220302, -13.365842 ], [ -176.218379, -13.366517 ] ] ], [ [ [ -176.169706, -13.36777 ], [ -176.167327, -13.381959 ], [ -176.168862, -13.387288 ], [ -176.171447, -13.388564 ], [ -176.169524, -13.383234 ], [ -176.169535, -13.379938 ], [ -176.172127, -13.379186 ], [ -176.171372, -13.372846 ], [ -176.173844, -13.369051 ], [ -176.169706, -13.36777 ] ] ], [ [ [ -176.194787, -13.18789 ], [ -176.190174, -13.192101 ], [ -176.191601, -13.195203 ], [ -176.193912, -13.191831 ], [ -176.198811, -13.188043 ], [ -176.198819, -13.185368 ], [ -176.194787, -13.18789 ] ] ], [ [ [ -176.178675, -13.202801 ], [ -176.172829, -13.206863 ], [ -176.175742, -13.207689 ], [ -176.176581, -13.206059 ], [ -176.183673, -13.203225 ], [ -176.178679, -13.201576 ], [ -176.178675, -13.202801 ] ] ], [ [ [ -176.166894, -13.216983 ], [ -176.16526, -13.221731 ], [ -176.169035, -13.221478 ], [ -176.171745, -13.216999 ], [ -176.166894, -13.216983 ] ] ], [ [ [ -176.14429, -13.273443 ], [ -176.152001, -13.273961 ], [ -176.147991, -13.270006 ], [ -176.143964, -13.270814 ], [ -176.14429, -13.273443 ] ] ], [ [ [ -176.131426, -13.275083 ], [ -176.134221, -13.275322 ], [ -176.131904, -13.271663 ], [ -176.12865, -13.269826 ], [ -176.127471, -13.273929 ], [ -176.131426, -13.275083 ] ] ], [ [ [ -176.144679, -13.277728 ], [ -176.143311, -13.282361 ], [ -176.148553, -13.282378 ], [ -176.148735, -13.278735 ], [ -176.144679, -13.277728 ] ] ], [ [ [ -176.123322, -13.28698 ], [ -176.12288, -13.290346 ], [ -176.128899, -13.289946 ], [ -176.130628, -13.287426 ], [ -176.123322, -13.28698 ] ] ] ] } }
]
}
