{
"type": "FeatureCollection",
"name": "Yemen",
"crs": { "type": "name", "properties": { "name": "urn:ogc:def:crs:OGC:1.3:CRS84" } },
"features": [
{ "type": "Feature", "properties": { "id": "YE", "CNTR_ID": "YE", "CNTR_NAME": "اليمن", "NAME_ENGL": "Yemen", "ISO3_CODE": "YEM", "FID": "YE" }, "geometry": { "type": "MultiPolygon", "coordinates": [ [ [ [ 42.76391, 16.404565 ], [ 42.803106, 16.401075 ], [ 42.826218, 16.388439 ], [ 42.832784, 16.380022 ], [ 42.95299, 16.401581 ], [ 42.950429, 16.406358 ], [ 42.939851, 16.410954 ], [ 42.945477, 16.433863 ], [ 42.938734, 16.452561 ], [ 42.944679, 16.487611 ], [ 42.952644, 16.498128 ], [ 42.992686, 16.520804 ], [ 43.054782, 16.525024 ], [ 43.069588, 16.529176 ], [ 43.119959, 16.530649 ], [ 43.130254, 16.590043 ], [ 43.133011, 16.592802 ], [ 43.139951, 16.599746 ], [ 43.140009, 16.620797 ], [ 43.145311, 16.634636 ], [ 43.137572, 16.662417 ], [ 43.147977, 16.673753 ], [ 43.152218, 16.674796 ], [ 43.160215, 16.666172 ], [ 43.201623, 16.649589 ], [ 43.217544, 16.648946 ], [ 43.228487, 16.642813 ], [ 43.234114, 16.645278 ], [ 43.235854, 16.667361 ], [ 43.232257, 16.687104 ], [ 43.22765, 16.69934 ], [ 43.218859, 16.70189 ], [ 43.213496, 16.710631 ], [ 43.228316, 16.729323 ], [ 43.225179, 16.737778 ], [ 43.226894, 16.743718 ], [ 43.242664, 16.742767 ], [ 43.262474, 16.753527 ], [ 43.252082, 16.772243 ], [ 43.264664, 16.796134 ], [ 43.250549, 16.805719 ], [ 43.232842, 16.808529 ], [ 43.21532, 16.841675 ], [ 43.204664, 16.847638 ], [ 43.197617, 16.84594 ], [ 43.180049, 16.850607 ], [ 43.170255, 16.866063 ], [ 43.148807, 16.881274 ], [ 43.138289, 16.912546 ], [ 43.146217, 16.925372 ], [ 43.171431, 16.931981 ], [ 43.193352, 16.946241 ], [ 43.193437, 16.954886 ], [ 43.178194, 16.970642 ], [ 43.178943, 16.977064 ], [ 43.186372, 16.98276 ], [ 43.179069, 16.995096 ], [ 43.182465, 17.012282 ], [ 43.180518, 17.024175 ], [ 43.188513, 17.024076 ], [ 43.192805, 17.016074 ], [ 43.200802, 17.011881 ], [ 43.211635, 17.021204 ], [ 43.225322, 17.013986 ], [ 43.23355, 17.028561 ], [ 43.244387, 17.020256 ], [ 43.246125, 17.02256 ], [ 43.239287, 17.047408 ], [ 43.226387, 17.074208 ], [ 43.207224, 17.079645 ], [ 43.18542, 17.096997 ], [ 43.160472, 17.090062 ], [ 43.158872, 17.131992 ], [ 43.152898, 17.171458 ], [ 43.184583, 17.186513 ], [ 43.196831, 17.196205 ], [ 43.213915, 17.209724 ], [ 43.200305, 17.242852 ], [ 43.204987, 17.259242 ], [ 43.224528, 17.261593 ], [ 43.267786, 17.291111 ], [ 43.293257, 17.291183 ], [ 43.302867, 17.294166 ], [ 43.31488, 17.303313 ], [ 43.33451, 17.30548 ], [ 43.322874, 17.330015 ], [ 43.278941, 17.356663 ], [ 43.25701, 17.363972 ], [ 43.230746, 17.384349 ], [ 43.245396, 17.402594 ], [ 43.231495, 17.432235 ], [ 43.254572, 17.457498 ], [ 43.243591, 17.481049 ], [ 43.261311, 17.491305 ], [ 43.287218, 17.518139 ], [ 43.333416, 17.538809 ], [ 43.353714, 17.554446 ], [ 43.374482, 17.545941 ], [ 43.38181, 17.554965 ], [ 43.399442, 17.557198 ], [ 43.421613, 17.565034 ], [ 43.430767, 17.56311 ], [ 43.445705, 17.551197 ], [ 43.464614, 17.551748 ], [ 43.481437, 17.545999 ], [ 43.496146, 17.527802 ], [ 43.50676, 17.522792 ], [ 43.518945, 17.51139 ], [ 43.530707, 17.511286 ], [ 43.565801, 17.483678 ], [ 43.567399, 17.481917 ], [ 43.618316, 17.425819 ], [ 43.681865, 17.368629 ], [ 43.786465, 17.374415 ], [ 43.807649, 17.355591 ], [ 43.834763, 17.339284 ], [ 43.90474, 17.341399 ], [ 43.964685, 17.331663 ], [ 44.011243, 17.400181 ], [ 44.024421, 17.392878 ], [ 44.048999, 17.404111 ], [ 44.065474, 17.404884 ], [ 44.098313, 17.369036 ], [ 44.107008, 17.366784 ], [ 44.129504, 17.383212 ], [ 44.141316, 17.408793 ], [ 44.177447, 17.413491 ], [ 44.208557, 17.414075 ], [ 44.36529, 17.433193 ], [ 44.466467, 17.433145 ], [ 44.566556, 17.406011 ], [ 44.652088, 17.433286 ], [ 45.212629, 17.433329 ], [ 45.21992, 17.431553 ], [ 45.399349, 17.333852 ], [ 45.474671, 17.324445 ], [ 46.1, 17.25 ], [ 46.111454, 17.249284 ], [ 46.32282, 17.236073 ], [ 46.366667, 17.233333 ], [ 46.75, 17.283333 ], [ 46.757094, 17.273877 ], [ 46.846073, 17.155235 ], [ 46.866615, 17.12786 ], [ 46.87759, 17.113232 ], [ 46.891701, 17.094422 ], [ 47.0, 16.95 ], [ 47.13251, 16.95 ], [ 47.185167, 16.951138 ], [ 47.428058, 17.094422 ], [ 47.459959, 17.113232 ], [ 47.466367, 17.11701 ], [ 47.470733, 17.12786 ], [ 47.600857, 17.450941 ], [ 47.693468, 17.564774 ], [ 47.85321, 17.760955 ], [ 47.972144, 17.906879 ], [ 48.184475, 18.167097 ], [ 48.494937, 18.316869 ], [ 49.11668, 18.616418 ], [ 49.293992, 18.635082 ], [ 49.910658, 18.699976 ], [ 50.085048, 18.718323 ], [ 50.210022, 18.730966 ], [ 50.589774, 18.769377 ], [ 50.783602, 18.78898 ], [ 51.134701, 18.849915 ], [ 51.775427, 18.961061 ], [ 52.0, 19.0 ], [ 52.06633, 18.860661 ], [ 52.142753, 18.699976 ], [ 52.263448, 18.445896 ], [ 52.587933, 17.760955 ], [ 52.780767, 17.352659 ], [ 52.780575, 17.347601 ], [ 52.750612, 17.304867 ], [ 52.743861, 17.301847 ], [ 52.745215, 17.297005 ], [ 52.748757, 17.294109 ], [ 52.812891, 17.283869 ], [ 52.892766, 17.113232 ], [ 52.901566, 17.094422 ], [ 52.959299, 16.970976 ], [ 53.014923, 16.851834 ], [ 53.078143, 16.716326 ], [ 53.107026, 16.654387 ], [ 53.069057, 16.642913 ], [ 52.947861, 16.615643 ], [ 52.929262, 16.603345 ], [ 52.860672, 16.581473 ], [ 52.821032, 16.560117 ], [ 52.750096, 16.537542 ], [ 52.691704, 16.512271 ], [ 52.598962, 16.483083 ], [ 52.516866, 16.451048 ], [ 52.452943, 16.422159 ], [ 52.373972, 16.360633 ], [ 52.319522, 16.304093 ], [ 52.302785, 16.281012 ], [ 52.277505, 16.257346 ], [ 52.263448, 16.238549 ], [ 52.238401, 16.205053 ], [ 52.205079, 16.136218 ], [ 52.197143, 16.082823 ], [ 52.177271, 16.049401 ], [ 52.159969, 16.010205 ], [ 52.160442, 15.997499 ], [ 52.147756, 15.955061 ], [ 52.151596, 15.934918 ], [ 52.169331, 15.916296 ], [ 52.163448, 15.898513 ], [ 52.160577, 15.871598 ], [ 52.16406, 15.848951 ], [ 52.170077, 15.842096 ], [ 52.188043, 15.834678 ], [ 52.200684, 15.81632 ], [ 52.194825, 15.810169 ], [ 52.198695, 15.797626 ], [ 52.197932, 15.785802 ], [ 52.201565, 15.778758 ], [ 52.192295, 15.769129 ], [ 52.190621, 15.757354 ], [ 52.213331, 15.665982 ], [ 52.226239, 15.633893 ], [ 52.2239, 15.627706 ], [ 52.197663, 15.602873 ], [ 52.174323, 15.599834 ], [ 52.032159, 15.551051 ], [ 52.007631, 15.540345 ], [ 51.967554, 15.528534 ], [ 51.940952, 15.514168 ], [ 51.924344, 15.5095 ], [ 51.896962, 15.496478 ], [ 51.870885, 15.483578 ], [ 51.851877, 15.467551 ], [ 51.850657, 15.461953 ], [ 51.856125, 15.456726 ], [ 51.853251, 15.446897 ], [ 51.858809, 15.441834 ], [ 51.858136, 15.439511 ], [ 51.845482, 15.438685 ], [ 51.829805, 15.450806 ], [ 51.819424, 15.45206 ], [ 51.775427, 15.439949 ], [ 51.761281, 15.436054 ], [ 51.679721, 15.402624 ], [ 51.650439, 15.38472 ], [ 51.639061, 15.367334 ], [ 51.641866, 15.352432 ], [ 51.662399, 15.339479 ], [ 51.664884, 15.335645 ], [ 51.662019, 15.332917 ], [ 51.629626, 15.325018 ], [ 51.612296, 15.324677 ], [ 51.592261, 15.32855 ], [ 51.528542, 15.310862 ], [ 51.494866, 15.297273 ], [ 51.480796, 15.295005 ], [ 51.455669, 15.270351 ], [ 51.449344, 15.273608 ], [ 51.442206, 15.268461 ], [ 51.423462, 15.26306 ], [ 51.42022, 15.258842 ], [ 51.420823, 15.251503 ], [ 51.405882, 15.254693 ], [ 51.374251, 15.242507 ], [ 51.366795, 15.230696 ], [ 51.35102, 15.230256 ], [ 51.339697, 15.233328 ], [ 51.285402, 15.215768 ], [ 51.22416, 15.188975 ], [ 51.209717, 15.18932 ], [ 51.168969, 15.174209 ], [ 51.134701, 15.164875 ], [ 51.129158, 15.163365 ], [ 51.10894, 15.16154 ], [ 51.003693, 15.136889 ], [ 50.985852, 15.135595 ], [ 50.919871, 15.114686 ], [ 50.89252, 15.112062 ], [ 50.815271, 15.085479 ], [ 50.797023, 15.08639 ], [ 50.720621, 15.065202 ], [ 50.702574, 15.067625 ], [ 50.665661, 15.057882 ], [ 50.616944, 15.054502 ], [ 50.566754, 15.041873 ], [ 50.542436, 15.039071 ], [ 50.472338, 15.019294 ], [ 50.450378, 15.003801 ], [ 50.430576, 14.998651 ], [ 50.380648, 14.966935 ], [ 50.37023, 14.955284 ], [ 50.357149, 14.950434 ], [ 50.328056, 14.916746 ], [ 50.313833, 14.921121 ], [ 50.300141, 14.921495 ], [ 50.264203, 14.906057 ], [ 50.188365, 14.861824 ], [ 50.175881, 14.841542 ], [ 50.156754, 14.839493 ], [ 50.134476, 14.845212 ], [ 50.108852, 14.843114 ], [ 50.027618, 14.816021 ], [ 50.019999, 14.835593 ], [ 50.006279, 14.845442 ], [ 49.984289, 14.845833 ], [ 49.964834, 14.842873 ], [ 49.937058, 14.846119 ], [ 49.853568, 14.809821 ], [ 49.835633, 14.803328 ], [ 49.812724, 14.799158 ], [ 49.780945, 14.785667 ], [ 49.747412, 14.776964 ], [ 49.707582, 14.772442 ], [ 49.634366, 14.754796 ], [ 49.572571, 14.732778 ], [ 49.494415, 14.687937 ], [ 49.450333, 14.673051 ], [ 49.411138, 14.655191 ], [ 49.378802, 14.646718 ], [ 49.310299, 14.617561 ], [ 49.293992, 14.60538 ], [ 49.29138, 14.603429 ], [ 49.254636, 14.585162 ], [ 49.21285, 14.558065 ], [ 49.180875, 14.541073 ], [ 49.172873, 14.527967 ], [ 49.172885, 14.508446 ], [ 49.169729, 14.502888 ], [ 49.163916, 14.503745 ], [ 49.148629, 14.516499 ], [ 49.138198, 14.517664 ], [ 49.126321, 14.522907 ], [ 49.114531, 14.524123 ], [ 49.100624, 14.519201 ], [ 49.080101, 14.503249 ], [ 49.063853, 14.48491 ], [ 49.045795, 14.464527 ], [ 49.025921, 14.436957 ], [ 49.01662, 14.415623 ], [ 49.007475, 14.403527 ], [ 48.992815, 14.355241 ], [ 49.003876, 14.336188 ], [ 48.997532, 14.318466 ], [ 48.98209, 14.308925 ], [ 48.964884, 14.308309 ], [ 48.955465, 14.304903 ], [ 48.941686, 14.29392 ], [ 48.932968, 14.266375 ], [ 48.919442, 14.252609 ], [ 48.907994, 14.25265 ], [ 48.878769, 14.238314 ], [ 48.875334, 14.230002 ], [ 48.875707, 14.211776 ], [ 48.837802, 14.162505 ], [ 48.817113, 14.148975 ], [ 48.802421, 14.131511 ], [ 48.768695, 14.11202 ], [ 48.741542, 14.076724 ], [ 48.701539, 14.046222 ], [ 48.686134, 14.039965 ], [ 48.638619, 14.043519 ], [ 48.55567, 14.037487 ], [ 48.530412, 14.030269 ], [ 48.518283, 14.024007 ], [ 48.494937, 14.00206 ], [ 48.475859, 14.002912 ], [ 48.460971, 13.988307 ], [ 48.457546, 13.988944 ], [ 48.455082, 13.993929 ], [ 48.452916, 14.01032 ], [ 48.441959, 14.01936 ], [ 48.437172, 14.018888 ], [ 48.43185, 14.010926 ], [ 48.41357, 14.016633 ], [ 48.389471, 14.01088 ], [ 48.33944, 14.017582 ], [ 48.330239, 14.013904 ], [ 48.332202, 14.001138 ], [ 48.318074, 14.000728 ], [ 48.305416, 13.995619 ], [ 48.296583, 13.984476 ], [ 48.287333, 13.99158 ], [ 48.281806, 13.992614 ], [ 48.274665, 13.985985 ], [ 48.262425, 13.986637 ], [ 48.259826, 13.981927 ], [ 48.260902, 13.975319 ], [ 48.257247, 13.974015 ], [ 48.248187, 13.981833 ], [ 48.229645, 13.988985 ], [ 48.220111, 13.974893 ], [ 48.211965, 13.972252 ], [ 48.191711, 13.97645 ], [ 48.18237, 13.990445 ], [ 48.167302, 14.004551 ], [ 48.143654, 14.01925 ], [ 48.067686, 14.04721 ], [ 48.032174, 14.051983 ], [ 47.998092, 14.050267 ], [ 47.972144, 14.044773 ], [ 47.96945, 14.044203 ], [ 47.939026, 14.028237 ], [ 47.908998, 14.007064 ], [ 47.858065, 13.958014 ], [ 47.804143, 13.923395 ], [ 47.779381, 13.916927 ], [ 47.739947, 13.914972 ], [ 47.711464, 13.906089 ], [ 47.693468, 13.896397 ], [ 47.675367, 13.886649 ], [ 47.657661, 13.871143 ], [ 47.639715, 13.863934 ], [ 47.607753, 13.831408 ], [ 47.597184, 13.813352 ], [ 47.576806, 13.801677 ], [ 47.550851, 13.774329 ], [ 47.533848, 13.763637 ], [ 47.472864, 13.705283 ], [ 47.42696, 13.675215 ], [ 47.400816, 13.653033 ], [ 47.385052, 13.644708 ], [ 47.330689, 13.636926 ], [ 47.304609, 13.624445 ], [ 47.207924, 13.595498 ], [ 47.178716, 13.593641 ], [ 47.156914, 13.585744 ], [ 47.13251, 13.582612 ], [ 47.123459, 13.580113 ], [ 47.104549, 13.572934 ], [ 47.090726, 13.56548 ], [ 47.080345, 13.562665 ], [ 47.051025, 13.56166 ], [ 46.978075, 13.544085 ], [ 46.950714, 13.543794 ], [ 46.928483, 13.538559 ], [ 46.911365, 13.530585 ], [ 46.893798, 13.518238 ], [ 46.876494, 13.510237 ], [ 46.870403, 13.50601 ], [ 46.852523, 13.487996 ], [ 46.842681, 13.482935 ], [ 46.833983, 13.481776 ], [ 46.813108, 13.467224 ], [ 46.782137, 13.459746 ], [ 46.757094, 13.44811 ], [ 46.7346, 13.442028 ], [ 46.691227, 13.424455 ], [ 46.658185, 13.431861 ], [ 46.614609, 13.434675 ], [ 46.549734, 13.423884 ], [ 46.524856, 13.415616 ], [ 46.442243, 13.403706 ], [ 46.425232, 13.413079 ], [ 46.406126, 13.413947 ], [ 46.3762, 13.408243 ], [ 46.355699, 13.408442 ], [ 46.314897, 13.419207 ], [ 46.247933, 13.426449 ], [ 46.164303, 13.416251 ], [ 46.141643, 13.417314 ], [ 46.080167, 13.408103 ], [ 46.037889, 13.415745 ], [ 46.00415, 13.411473 ], [ 45.970712, 13.402667 ], [ 45.933062, 13.401169 ], [ 45.90697, 13.391384 ], [ 45.872525, 13.390366 ], [ 45.832548, 13.380299 ], [ 45.811891, 13.378827 ], [ 45.760014, 13.363143 ], [ 45.742836, 13.362235 ], [ 45.7143, 13.350359 ], [ 45.691666, 13.350641 ], [ 45.668849, 13.346144 ], [ 45.647531, 13.334399 ], [ 45.568613, 13.267311 ], [ 45.504635, 13.196324 ], [ 45.461401, 13.132258 ], [ 45.383938, 13.056219 ], [ 45.362062, 13.048601 ], [ 45.298027, 13.039844 ], [ 45.257456, 13.027477 ], [ 45.18039, 13.001824 ], [ 45.150288, 12.988837 ], [ 45.135357, 12.977203 ], [ 45.104214, 12.944143 ], [ 45.058407, 12.851646 ], [ 45.048135, 12.819917 ], [ 45.043641, 12.78873 ], [ 45.04627, 12.781372 ], [ 45.056079, 12.775893 ], [ 45.058698, 12.761548 ], [ 45.055945, 12.759705 ], [ 45.044741, 12.761113 ], [ 45.039038, 12.753516 ], [ 45.033195, 12.750995 ], [ 45.007986, 12.754255 ], [ 44.977082, 12.780755 ], [ 44.977075, 12.786252 ], [ 44.981093, 12.789871 ], [ 45.003879, 12.794461 ], [ 45.020466, 12.791008 ], [ 45.028012, 12.797589 ], [ 45.024812, 12.808788 ], [ 45.015903, 12.817253 ], [ 45.006685, 12.833534 ], [ 44.997006, 12.840557 ], [ 44.993753, 12.838454 ], [ 44.991885, 12.8278 ], [ 44.988008, 12.824009 ], [ 44.96078, 12.825541 ], [ 44.919008, 12.815781 ], [ 44.902559, 12.799021 ], [ 44.892661, 12.773671 ], [ 44.885741, 12.775071 ], [ 44.866937, 12.793578 ], [ 44.852248, 12.791827 ], [ 44.844995, 12.780724 ], [ 44.845966, 12.775387 ], [ 44.861898, 12.776839 ], [ 44.883491, 12.768609 ], [ 44.915583, 12.767095 ], [ 44.918843, 12.762985 ], [ 44.918456, 12.752577 ], [ 44.915152, 12.746604 ], [ 44.890863, 12.744283 ], [ 44.88786, 12.739884 ], [ 44.88975, 12.733427 ], [ 44.877709, 12.734548 ], [ 44.875291, 12.727291 ], [ 44.854338, 12.728691 ], [ 44.844259, 12.724476 ], [ 44.835376, 12.732493 ], [ 44.822887, 12.738496 ], [ 44.822937, 12.757478 ], [ 44.806643, 12.768635 ], [ 44.787133, 12.771025 ], [ 44.763238, 12.765757 ], [ 44.741707, 12.757157 ], [ 44.735832, 12.748753 ], [ 44.725471, 12.741373 ], [ 44.722078, 12.748163 ], [ 44.727795, 12.764728 ], [ 44.732855, 12.769687 ], [ 44.732126, 12.77413 ], [ 44.728483, 12.775586 ], [ 44.721582, 12.771737 ], [ 44.708614, 12.783595 ], [ 44.676927, 12.802425 ], [ 44.624935, 12.813371 ], [ 44.57891, 12.811259 ], [ 44.561566, 12.806852 ], [ 44.532823, 12.792426 ], [ 44.498374, 12.767196 ], [ 44.419856, 12.670404 ], [ 44.409653, 12.680324 ], [ 44.399882, 12.680685 ], [ 44.343053, 12.658952 ], [ 44.289101, 12.629926 ], [ 44.269623, 12.630723 ], [ 44.253345, 12.625541 ], [ 44.228188, 12.63368 ], [ 44.1887, 12.618628 ], [ 44.173369, 12.616259 ], [ 44.143364, 12.623783 ], [ 44.134487, 12.631611 ], [ 44.17389, 12.619949 ], [ 44.186224, 12.621546 ], [ 44.190626, 12.62496 ], [ 44.191185, 12.635237 ], [ 44.1836, 12.643958 ], [ 44.152135, 12.654139 ], [ 44.102074, 12.625832 ], [ 44.079206, 12.617209 ], [ 44.05487, 12.603559 ], [ 44.038484, 12.604872 ], [ 43.987372, 12.599964 ], [ 43.965737, 12.592047 ], [ 43.947888, 12.593038 ], [ 43.928445, 12.598849 ], [ 43.921675, 12.603521 ], [ 43.914678, 12.632444 ], [ 43.903847, 12.643818 ], [ 43.879566, 12.653663 ], [ 43.851422, 12.65886 ], [ 43.834663, 12.670968 ], [ 43.798953, 12.688786 ], [ 43.787261, 12.690644 ], [ 43.769723, 12.688642 ], [ 43.734384, 12.706538 ], [ 43.699929, 12.714053 ], [ 43.685515, 12.720867 ], [ 43.652309, 12.723992 ], [ 43.640736, 12.730918 ], [ 43.629145, 12.732673 ], [ 43.60254, 12.74446 ], [ 43.587997, 12.742186 ], [ 43.564629, 12.726982 ], [ 43.527427, 12.680318 ], [ 43.516577, 12.680276 ], [ 43.49445, 12.671704 ], [ 43.47775, 12.677999 ], [ 43.471097, 12.672675 ], [ 43.46491, 12.67284 ], [ 43.459859, 12.677405 ], [ 43.454835, 12.690274 ], [ 43.465607, 12.708009 ], [ 43.468967, 12.709126 ], [ 43.472745, 12.703573 ], [ 43.484352, 12.699275 ], [ 43.489969, 12.703106 ], [ 43.486889, 12.708704 ], [ 43.470662, 12.718386 ], [ 43.468091, 12.724509 ], [ 43.475824, 12.768793 ], [ 43.48899, 12.811863 ], [ 43.487727, 12.826225 ], [ 43.44489, 12.883775 ], [ 43.423801, 12.925658 ], [ 43.409417, 12.940278 ], [ 43.399583, 12.976839 ], [ 43.372241, 13.014364 ], [ 43.361034, 13.043885 ], [ 43.346862, 13.070883 ], [ 43.318142, 13.103696 ], [ 43.306824, 13.124188 ], [ 43.290219, 13.143242 ], [ 43.257034, 13.203318 ], [ 43.240744, 13.251452 ], [ 43.245683, 13.272632 ], [ 43.237886, 13.322021 ], [ 43.247302, 13.335576 ], [ 43.253433, 13.374119 ], [ 43.251013, 13.413005 ], [ 43.258406, 13.44047 ], [ 43.255065, 13.463323 ], [ 43.266343, 13.53173 ], [ 43.279113, 13.566839 ], [ 43.279812, 13.580515 ], [ 43.292111, 13.598511 ], [ 43.282271, 13.624721 ], [ 43.288636, 13.678912 ], [ 43.274242, 13.71208 ], [ 43.266035, 13.740034 ], [ 43.237349, 13.804622 ], [ 43.231163, 13.884633 ], [ 43.222981, 13.892803 ], [ 43.207194, 13.902061 ], [ 43.193591, 13.927711 ], [ 43.174806, 13.938702 ], [ 43.167326, 13.947683 ], [ 43.160724, 13.965593 ], [ 43.149639, 13.980561 ], [ 43.149387, 13.997791 ], [ 43.14626, 14.006474 ], [ 43.128035, 14.02473 ], [ 43.116592, 14.04769 ], [ 43.10543, 14.062562 ], [ 43.108865, 14.080797 ], [ 43.091916, 14.119778 ], [ 43.088026, 14.152028 ], [ 43.077902, 14.179912 ], [ 43.076413, 14.205379 ], [ 43.071685, 14.227525 ], [ 43.06074, 14.2461 ], [ 43.054645, 14.264889 ], [ 43.03999, 14.29409 ], [ 43.029575, 14.342869 ], [ 43.017418, 14.366147 ], [ 42.994052, 14.397616 ], [ 42.987007, 14.431095 ], [ 42.962216, 14.496996 ], [ 42.963237, 14.501591 ], [ 42.983617, 14.47459 ], [ 42.989093, 14.462688 ], [ 43.001488, 14.461191 ], [ 43.009828, 14.441791 ], [ 43.016986, 14.439577 ], [ 43.01958, 14.451898 ], [ 43.011519, 14.471636 ], [ 43.014794, 14.488568 ], [ 43.012325, 14.555173 ], [ 43.001269, 14.594856 ], [ 42.981861, 14.624559 ], [ 42.984559, 14.651059 ], [ 42.972861, 14.666994 ], [ 42.957092, 14.69688 ], [ 42.956808, 14.702271 ], [ 42.961488, 14.705821 ], [ 42.956295, 14.715855 ], [ 42.949261, 14.74126 ], [ 42.948248, 14.756209 ], [ 42.937743, 14.78697 ], [ 42.908956, 14.82391 ], [ 42.881212, 14.849367 ], [ 42.867038, 14.88859 ], [ 42.869103, 14.90786 ], [ 42.876836, 14.911417 ], [ 42.876082, 14.88305 ], [ 42.885325, 14.858074 ], [ 42.929776, 14.814797 ], [ 42.946416, 14.869631 ], [ 42.941731, 14.911549 ], [ 42.916177, 14.970778 ], [ 42.871655, 15.023625 ], [ 42.860427, 15.077984 ], [ 42.863079, 15.091673 ], [ 42.864737, 15.09838 ], [ 42.86457, 15.114489 ], [ 42.850093, 15.142129 ], [ 42.812439, 15.170565 ], [ 42.741347, 15.202561 ], [ 42.697151, 15.212964 ], [ 42.678692, 15.214208 ], [ 42.667854, 15.211187 ], [ 42.655075, 15.188872 ], [ 42.628822, 15.186703 ], [ 42.621762, 15.193403 ], [ 42.59838, 15.234259 ], [ 42.600271, 15.244765 ], [ 42.605499, 15.248631 ], [ 42.64579, 15.234976 ], [ 42.659396, 15.234896 ], [ 42.669093, 15.242184 ], [ 42.683706, 15.269912 ], [ 42.670527, 15.296841 ], [ 42.66654, 15.312852 ], [ 42.679571, 15.328952 ], [ 42.686497, 15.353933 ], [ 42.693592, 15.361451 ], [ 42.696473, 15.355704 ], [ 42.689047, 15.332613 ], [ 42.686005, 15.304489 ], [ 42.698011, 15.308195 ], [ 42.705426, 15.307198 ], [ 42.718529, 15.295552 ], [ 42.727733, 15.275903 ], [ 42.744605, 15.267374 ], [ 42.753641, 15.26894 ], [ 42.77219, 15.213622 ], [ 42.777598, 15.216246 ], [ 42.775449, 15.235653 ], [ 42.804512, 15.282554 ], [ 42.803064, 15.290903 ], [ 42.792107, 15.311967 ], [ 42.789564, 15.358004 ], [ 42.774227, 15.401137 ], [ 42.772447, 15.417602 ], [ 42.765334, 15.423764 ], [ 42.769591, 15.441389 ], [ 42.765237, 15.47275 ], [ 42.738511, 15.527515 ], [ 42.727916, 15.536747 ], [ 42.705973, 15.547121 ], [ 42.697929, 15.558227 ], [ 42.710009, 15.57999 ], [ 42.713869, 15.594985 ], [ 42.694118, 15.640471 ], [ 42.694554, 15.661742 ], [ 42.7008, 15.677826 ], [ 42.701557, 15.693177 ], [ 42.698372, 15.696826 ], [ 42.684766, 15.701546 ], [ 42.678181, 15.692026 ], [ 42.675358, 15.693027 ], [ 42.687631, 15.72536 ], [ 42.69806, 15.728858 ], [ 42.706862, 15.739527 ], [ 42.73373, 15.756566 ], [ 42.739159, 15.76982 ], [ 42.740771, 15.78495 ], [ 42.753621, 15.793672 ], [ 42.76123, 15.808567 ], [ 42.774509, 15.822519 ], [ 42.783197, 15.842654 ], [ 42.806719, 15.869349 ], [ 42.814721, 15.929794 ], [ 42.822708, 15.962865 ], [ 42.822997, 15.994483 ], [ 42.831756, 16.024335 ], [ 42.833816, 16.066638 ], [ 42.826027, 16.088859 ], [ 42.82708, 16.108866 ], [ 42.821005, 16.131073 ], [ 42.816739, 16.16533 ], [ 42.821366, 16.19054 ], [ 42.802709, 16.232748 ], [ 42.802986, 16.265408 ], [ 42.790565, 16.293886 ], [ 42.791073, 16.331678 ], [ 42.78011, 16.362917 ], [ 42.770129, 16.370779 ], [ 42.764867, 16.37902 ], [ 42.76391, 16.404565 ] ] ], [ [ [ 53.303974, 12.537308 ], [ 53.307686, 12.543511 ], [ 53.313416, 12.546299 ], [ 53.335125, 12.539294 ], [ 53.381997, 12.553993 ], [ 53.390601, 12.562813 ], [ 53.396989, 12.576995 ], [ 53.396609, 12.604975 ], [ 53.40256, 12.622962 ], [ 53.398996, 12.632482 ], [ 53.400154, 12.641876 ], [ 53.39526, 12.649996 ], [ 53.396952, 12.655764 ], [ 53.414059, 12.666197 ], [ 53.430397, 12.671852 ], [ 53.461698, 12.672934 ], [ 53.477913, 12.689653 ], [ 53.483479, 12.700203 ], [ 53.50072, 12.702852 ], [ 53.516639, 12.712475 ], [ 53.547637, 12.71413 ], [ 53.569068, 12.70194 ], [ 53.584934, 12.702812 ], [ 53.600514, 12.698977 ], [ 53.644944, 12.703717 ], [ 53.676288, 12.679502 ], [ 53.767701, 12.617585 ], [ 53.768855, 12.608911 ], [ 53.780264, 12.613112 ], [ 53.803848, 12.603221 ], [ 53.822538, 12.599311 ], [ 53.84599, 12.604672 ], [ 53.86383, 12.623441 ], [ 53.8772, 12.645806 ], [ 53.907545, 12.653963 ], [ 53.931934, 12.642062 ], [ 53.951654, 12.640635 ], [ 53.97178, 12.650637 ], [ 54.004292, 12.652272 ], [ 54.068082, 12.675501 ], [ 54.076827, 12.680954 ], [ 54.080173, 12.685037 ], [ 54.082285, 12.699253 ], [ 54.08585, 12.702184 ], [ 54.104343, 12.701647 ], [ 54.114581, 12.6978 ], [ 54.134907, 12.680908 ], [ 54.155302, 12.668614 ], [ 54.160432, 12.667379 ], [ 54.185545, 12.670634 ], [ 54.192673, 12.676491 ], [ 54.197611, 12.664223 ], [ 54.202715, 12.66161 ], [ 54.205429, 12.655818 ], [ 54.213523, 12.649931 ], [ 54.22018, 12.642234 ], [ 54.233355, 12.645917 ], [ 54.255046, 12.64095 ], [ 54.260272, 12.631894 ], [ 54.273506, 12.62546 ], [ 54.285764, 12.616973 ], [ 54.296743, 12.615634 ], [ 54.303219, 12.610926 ], [ 54.313768, 12.611892 ], [ 54.321885, 12.607616 ], [ 54.329655, 12.609777 ], [ 54.343845, 12.604702 ], [ 54.350665, 12.606421 ], [ 54.35908, 12.605815 ], [ 54.384985, 12.588121 ], [ 54.402403, 12.580457 ], [ 54.407783, 12.580129 ], [ 54.412982, 12.582798 ], [ 54.416712, 12.582041 ], [ 54.429595, 12.5694 ], [ 54.466364, 12.544608 ], [ 54.488616, 12.545587 ], [ 54.494287, 12.548474 ], [ 54.505006, 12.558624 ], [ 54.507819, 12.558804 ], [ 54.51639, 12.553821 ], [ 54.526914, 12.553402 ], [ 54.529458, 12.551745 ], [ 54.530538, 12.5469 ], [ 54.528613, 12.543946 ], [ 54.525077, 12.54263 ], [ 54.516672, 12.543701 ], [ 54.505874, 12.536835 ], [ 54.496592, 12.533718 ], [ 54.477323, 12.529697 ], [ 54.468188, 12.529173 ], [ 54.45146, 12.523263 ], [ 54.445053, 12.518323 ], [ 54.434664, 12.500344 ], [ 54.435535, 12.496651 ], [ 54.439677, 12.492899 ], [ 54.439379, 12.489458 ], [ 54.430637, 12.484785 ], [ 54.423718, 12.477553 ], [ 54.414102, 12.476341 ], [ 54.409371, 12.473437 ], [ 54.406224, 12.467747 ], [ 54.403628, 12.466414 ], [ 54.390266, 12.465039 ], [ 54.376845, 12.460448 ], [ 54.366774, 12.459934 ], [ 54.359479, 12.457764 ], [ 54.351444, 12.453078 ], [ 54.326538, 12.447306 ], [ 54.306641, 12.446733 ], [ 54.30041, 12.451667 ], [ 54.295161, 12.446009 ], [ 54.279239, 12.445368 ], [ 54.260681, 12.441088 ], [ 54.233977, 12.425912 ], [ 54.226856, 12.420058 ], [ 54.224416, 12.414351 ], [ 54.222308, 12.400597 ], [ 54.219911, 12.397417 ], [ 54.208645, 12.39508 ], [ 54.205852, 12.395816 ], [ 54.190771, 12.389635 ], [ 54.185788, 12.385352 ], [ 54.180484, 12.376247 ], [ 54.167279, 12.370032 ], [ 54.144081, 12.3541 ], [ 54.134177, 12.349438 ], [ 54.123421, 12.349389 ], [ 54.114601, 12.353445 ], [ 54.096616, 12.354892 ], [ 54.072747, 12.354365 ], [ 54.068082, 12.353886 ], [ 54.03135, 12.349603 ], [ 54.018891, 12.342804 ], [ 54.012205, 12.332232 ], [ 53.999946, 12.328036 ], [ 53.969073, 12.334252 ], [ 53.952956, 12.334147 ], [ 53.899964, 12.327576 ], [ 53.830566, 12.309553 ], [ 53.813453, 12.31076 ], [ 53.774915, 12.302354 ], [ 53.727702, 12.301034 ], [ 53.669194, 12.304709 ], [ 53.64113, 12.310703 ], [ 53.592395, 12.33003 ], [ 53.544505, 12.341775 ], [ 53.541933, 12.345923 ], [ 53.543258, 12.356689 ], [ 53.541209, 12.361308 ], [ 53.509544, 12.396313 ], [ 53.480634, 12.418968 ], [ 53.465855, 12.44137 ], [ 53.418467, 12.460692 ], [ 53.308202, 12.529754 ], [ 53.303974, 12.537308 ] ] ], [ [ [ 52.263448, 12.210377 ], [ 52.27777, 12.212188 ], [ 52.319975, 12.198526 ], [ 52.332198, 12.200449 ], [ 52.365476, 12.19691 ], [ 52.387348, 12.205418 ], [ 52.391003, 12.204373 ], [ 52.366902, 12.184858 ], [ 52.366153, 12.17658 ], [ 52.373509, 12.167234 ], [ 52.370828, 12.16265 ], [ 52.354443, 12.16621 ], [ 52.328603, 12.159286 ], [ 52.28836, 12.157366 ], [ 52.263448, 12.163947 ], [ 52.241388, 12.165742 ], [ 52.236505, 12.16809 ], [ 52.230959, 12.174351 ], [ 52.226394, 12.18589 ], [ 52.22176, 12.189846 ], [ 52.20398, 12.188412 ], [ 52.192565, 12.192433 ], [ 52.180872, 12.191856 ], [ 52.176684, 12.193965 ], [ 52.163121, 12.193408 ], [ 52.155187, 12.194633 ], [ 52.150999, 12.196742 ], [ 52.144555, 12.207152 ], [ 52.133146, 12.212089 ], [ 52.123071, 12.209886 ], [ 52.099504, 12.214477 ], [ 52.088355, 12.221939 ], [ 52.066458, 12.230652 ], [ 52.062755, 12.234595 ], [ 52.067008, 12.239382 ], [ 52.063292, 12.242175 ], [ 52.064015, 12.244006 ], [ 52.07598, 12.248954 ], [ 52.084645, 12.250021 ], [ 52.098404, 12.246442 ], [ 52.110356, 12.249088 ], [ 52.115012, 12.247434 ], [ 52.129276, 12.247297 ], [ 52.15372, 12.236488 ], [ 52.168337, 12.224853 ], [ 52.17839, 12.224984 ], [ 52.189301, 12.217063 ], [ 52.201174, 12.21189 ], [ 52.217523, 12.210577 ], [ 52.248159, 12.211654 ], [ 52.263448, 12.210377 ] ] ], [ [ [ 42.676841, 14.006786 ], [ 42.702169, 14.024817 ], [ 42.711047, 14.040335 ], [ 42.731706, 14.056103 ], [ 42.753494, 14.065141 ], [ 42.76391, 14.058223 ], [ 42.779083, 14.046377 ], [ 42.783604, 14.028727 ], [ 42.788001, 14.028293 ], [ 42.789612, 14.025742 ], [ 42.783604, 14.019605 ], [ 42.78243, 13.997929 ], [ 42.772465, 13.961669 ], [ 42.776604, 13.945548 ], [ 42.774034, 13.921956 ], [ 42.777018, 13.909445 ], [ 42.7726, 13.905639 ], [ 42.76391, 13.905483 ], [ 42.75907, 13.919258 ], [ 42.746368, 13.909277 ], [ 42.742941, 13.909395 ], [ 42.740771, 13.922663 ], [ 42.748051, 13.943955 ], [ 42.7394, 13.949324 ], [ 42.725359, 13.950719 ], [ 42.718077, 13.960488 ], [ 42.708354, 13.962623 ], [ 42.703728, 13.977429 ], [ 42.680641, 13.990098 ], [ 42.676841, 14.006786 ] ] ], [ [ [ 42.532546, 15.308043 ], [ 42.534956, 15.311454 ], [ 42.539484, 15.313919 ], [ 42.55159, 15.317203 ], [ 42.555414, 15.319907 ], [ 42.557601, 15.324468 ], [ 42.560953, 15.344844 ], [ 42.56058, 15.35219 ], [ 42.550667, 15.371368 ], [ 42.550241, 15.374583 ], [ 42.554334, 15.379808 ], [ 42.55253, 15.386484 ], [ 42.554753, 15.393339 ], [ 42.564093, 15.401936 ], [ 42.578782, 15.420783 ], [ 42.589092, 15.430742 ], [ 42.592624, 15.429321 ], [ 42.590083, 15.426083 ], [ 42.591852, 15.424745 ], [ 42.595918, 15.427901 ], [ 42.597613, 15.431839 ], [ 42.595872, 15.441667 ], [ 42.60823, 15.445635 ], [ 42.623277, 15.455758 ], [ 42.629916, 15.456815 ], [ 42.635577, 15.455591 ], [ 42.636497, 15.453515 ], [ 42.63262, 15.447144 ], [ 42.638222, 15.441333 ], [ 42.635577, 15.438616 ], [ 42.617522, 15.433119 ], [ 42.613766, 15.435463 ], [ 42.610683, 15.434818 ], [ 42.601313, 15.421337 ], [ 42.596216, 15.416606 ], [ 42.598458, 15.413951 ], [ 42.60696, 15.42225 ], [ 42.613351, 15.422394 ], [ 42.614732, 15.41985 ], [ 42.611828, 15.415071 ], [ 42.604194, 15.410353 ], [ 42.608833, 15.403638 ], [ 42.607379, 15.401134 ], [ 42.603863, 15.403475 ], [ 42.59486, 15.402679 ], [ 42.571115, 15.396335 ], [ 42.569904, 15.394288 ], [ 42.572222, 15.390815 ], [ 42.582115, 15.387701 ], [ 42.58863, 15.379586 ], [ 42.590771, 15.380476 ], [ 42.592496, 15.385269 ], [ 42.610159, 15.396737 ], [ 42.615606, 15.397353 ], [ 42.623699, 15.400918 ], [ 42.633655, 15.402162 ], [ 42.634572, 15.399854 ], [ 42.630486, 15.39532 ], [ 42.62731, 15.388248 ], [ 42.628197, 15.383878 ], [ 42.627219, 15.381596 ], [ 42.622494, 15.38212 ], [ 42.620782, 15.378011 ], [ 42.623761, 15.370858 ], [ 42.623008, 15.368114 ], [ 42.612473, 15.358849 ], [ 42.610483, 15.351532 ], [ 42.614366, 15.341613 ], [ 42.612922, 15.339567 ], [ 42.607219, 15.337808 ], [ 42.614464, 15.331516 ], [ 42.617165, 15.321613 ], [ 42.612192, 15.320991 ], [ 42.610244, 15.317118 ], [ 42.604574, 15.317652 ], [ 42.599751, 15.310603 ], [ 42.600887, 15.307375 ], [ 42.605857, 15.307539 ], [ 42.608188, 15.304985 ], [ 42.616608, 15.315425 ], [ 42.617757, 15.313117 ], [ 42.616025, 15.307401 ], [ 42.600494, 15.295904 ], [ 42.595427, 15.288629 ], [ 42.59138, 15.286848 ], [ 42.590886, 15.285018 ], [ 42.596062, 15.283116 ], [ 42.595309, 15.280143 ], [ 42.59031, 15.277685 ], [ 42.585657, 15.265814 ], [ 42.583035, 15.264243 ], [ 42.574058, 15.265048 ], [ 42.563016, 15.27024 ], [ 42.549953, 15.283493 ], [ 42.533653, 15.302294 ], [ 42.532546, 15.308043 ] ] ], [ [ [ 42.662125, 13.659335 ], [ 42.662165, 13.665983 ], [ 42.671315, 13.674435 ], [ 42.676204, 13.673622 ], [ 42.678518, 13.6839 ], [ 42.693775, 13.698419 ], [ 42.701983, 13.734799 ], [ 42.710906, 13.742318 ], [ 42.723658, 13.746189 ], [ 42.730462, 13.755742 ], [ 42.74155, 13.76214 ], [ 42.75848, 13.766736 ], [ 42.76391, 13.771757 ], [ 42.773903, 13.779682 ], [ 42.778444, 13.767895 ], [ 42.771757, 13.754537 ], [ 42.771601, 13.735836 ], [ 42.76928, 13.732054 ], [ 42.76391, 13.730755 ], [ 42.750341, 13.720553 ], [ 42.745318, 13.701638 ], [ 42.731125, 13.682121 ], [ 42.724286, 13.677741 ], [ 42.704855, 13.676076 ], [ 42.692966, 13.662228 ], [ 42.688478, 13.650748 ], [ 42.673927, 13.648252 ], [ 42.666222, 13.651719 ], [ 42.662125, 13.659335 ] ] ], [ [ [ 52.980369, 12.162917 ], [ 52.982049, 12.166112 ], [ 52.989766, 12.166476 ], [ 53.002198, 12.169996 ], [ 53.01795, 12.177382 ], [ 53.020874, 12.177346 ], [ 53.027302, 12.177261 ], [ 53.041364, 12.180299 ], [ 53.052542, 12.177399 ], [ 53.067761, 12.179042 ], [ 53.081902, 12.170123 ], [ 53.088368, 12.164292 ], [ 53.090644, 12.159666 ], [ 53.089884, 12.155308 ], [ 53.091826, 12.143098 ], [ 53.090595, 12.138056 ], [ 53.087998, 12.136023 ], [ 53.06945, 12.129595 ], [ 53.064775, 12.129196 ], [ 53.059218, 12.133407 ], [ 53.056933, 12.134323 ], [ 53.052709, 12.136019 ], [ 53.028703, 12.140924 ], [ 53.008305, 12.154057 ], [ 52.993142, 12.156319 ], [ 52.982439, 12.159901 ], [ 52.980369, 12.162917 ] ] ], [ [ [ 42.376351, 15.742274 ], [ 42.378758, 15.745224 ], [ 42.387264, 15.743512 ], [ 42.42164, 15.727027 ], [ 42.431328, 15.725298 ], [ 42.432939, 15.721608 ], [ 42.428434, 15.721434 ], [ 42.425569, 15.719637 ], [ 42.427638, 15.718488 ], [ 42.436203, 15.717666 ], [ 42.449533, 15.720313 ], [ 42.451402, 15.720684 ], [ 42.456543, 15.715344 ], [ 42.479537, 15.716428 ], [ 42.481629, 15.713419 ], [ 42.480647, 15.710908 ], [ 42.482471, 15.705607 ], [ 42.481246, 15.70264 ], [ 42.47553, 15.699962 ], [ 42.465082, 15.69826 ], [ 42.449533, 15.69916 ], [ 42.444726, 15.699438 ], [ 42.422786, 15.704693 ], [ 42.419459, 15.705492 ], [ 42.39412, 15.705813 ], [ 42.389016, 15.702945 ], [ 42.383636, 15.701354 ], [ 42.379478, 15.709434 ], [ 42.377468, 15.718864 ], [ 42.382448, 15.71926 ], [ 42.383427, 15.721772 ], [ 42.376351, 15.742274 ] ] ], [ [ [ 42.292699, 16.289259 ], [ 42.294549, 16.296574 ], [ 42.299136, 16.295889 ], [ 42.304139, 16.298623 ], [ 42.322969, 16.315764 ], [ 42.329874, 16.320095 ], [ 42.335097, 16.320076 ], [ 42.337209, 16.313413 ], [ 42.342866, 16.304209 ], [ 42.338561, 16.298031 ], [ 42.339252, 16.29252 ], [ 42.336383, 16.288172 ], [ 42.336122, 16.282894 ], [ 42.333021, 16.279004 ], [ 42.328103, 16.277701 ], [ 42.317586, 16.278605 ], [ 42.310239, 16.28185 ], [ 42.304542, 16.282557 ], [ 42.297175, 16.281211 ], [ 42.294811, 16.283284 ], [ 42.292699, 16.289259 ] ] ], [ [ [ 42.157322, 15.065488 ], [ 42.157849, 15.070075 ], [ 42.162596, 15.072086 ], [ 42.172416, 15.082756 ], [ 42.177848, 15.082465 ], [ 42.183712, 15.078722 ], [ 42.186508, 15.075474 ], [ 42.187375, 15.068808 ], [ 42.185352, 15.058043 ], [ 42.188531, 15.047447 ], [ 42.18731, 15.044019 ], [ 42.182065, 15.040179 ], [ 42.178447, 15.034482 ], [ 42.175376, 15.034288 ], [ 42.166496, 15.042428 ], [ 42.160255, 15.054205 ], [ 42.157322, 15.065488 ] ] ], [ [ [ 43.385886, 12.655661 ], [ 43.387919, 12.658926 ], [ 43.412145, 12.664734 ], [ 43.433133, 12.658291 ], [ 43.435575, 12.653975 ], [ 43.437703, 12.642525 ], [ 43.434367, 12.634638 ], [ 43.429302, 12.63085 ], [ 43.42532, 12.630994 ], [ 43.427756, 12.637025 ], [ 43.427223, 12.640001 ], [ 43.417498, 12.634965 ], [ 43.415573, 12.637454 ], [ 43.418864, 12.647178 ], [ 43.416424, 12.651493 ], [ 43.412404, 12.653248 ], [ 43.410875, 12.648386 ], [ 43.405453, 12.650842 ], [ 43.400699, 12.652996 ], [ 43.399097, 12.651353 ], [ 43.399628, 12.648602 ], [ 43.403432, 12.646156 ], [ 43.405633, 12.642067 ], [ 43.403786, 12.640875 ], [ 43.396206, 12.644621 ], [ 43.387376, 12.652017 ], [ 43.385886, 12.655661 ] ] ], [ [ [ 42.44653, 16.285399 ], [ 42.449533, 16.288849 ], [ 42.462873, 16.307476 ], [ 42.466744, 16.304247 ], [ 42.465286, 16.296403 ], [ 42.468431, 16.291295 ], [ 42.491511, 16.280934 ], [ 42.502328, 16.282845 ], [ 42.505034, 16.27212 ], [ 42.473424, 16.274502 ], [ 42.464119, 16.267373 ], [ 42.454286, 16.281735 ], [ 42.449533, 16.283298 ], [ 42.447706, 16.283559 ], [ 42.44653, 16.285399 ] ] ], [ [ [ 42.767587, 13.851196 ], [ 42.775071, 13.864649 ], [ 42.783604, 13.872752 ], [ 42.787471, 13.876423 ], [ 42.799248, 13.877177 ], [ 42.802997, 13.876204 ], [ 42.8039, 13.873663 ], [ 42.79471, 13.856101 ], [ 42.785824, 13.843358 ], [ 42.783604, 13.843285 ], [ 42.78088, 13.843197 ], [ 42.773293, 13.838937 ], [ 42.77143, 13.840571 ], [ 42.770347, 13.847021 ], [ 42.767587, 13.851196 ] ] ], [ [ [ 41.816047, 15.544078 ], [ 41.816791, 15.547281 ], [ 41.823679, 15.549504 ], [ 41.838302, 15.566097 ], [ 41.842103, 15.566975 ], [ 41.846563, 15.563485 ], [ 41.851684, 15.555862 ], [ 41.853979, 15.548954 ], [ 41.85299, 15.545064 ], [ 41.849388, 15.540516 ], [ 41.843433, 15.537137 ], [ 41.838688, 15.53627 ], [ 41.818372, 15.539924 ], [ 41.816047, 15.544078 ] ] ], [ [ [ 42.278096, 15.690722 ], [ 42.279144, 15.698967 ], [ 42.284268, 15.710603 ], [ 42.287385, 15.713776 ], [ 42.291429, 15.714873 ], [ 42.295643, 15.711153 ], [ 42.297738, 15.689337 ], [ 42.30449, 15.661268 ], [ 42.302571, 15.659457 ], [ 42.299497, 15.659726 ], [ 42.297241, 15.661887 ], [ 42.292709, 15.666232 ], [ 42.288669, 15.683942 ], [ 42.28563, 15.68719 ], [ 42.278778, 15.688421 ], [ 42.278096, 15.690722 ] ] ], [ [ [ 42.895728, 14.613432 ], [ 42.897228, 14.618919 ], [ 42.908095, 14.619911 ], [ 42.91832, 14.625278 ], [ 42.922089, 14.624764 ], [ 42.924629, 14.62128 ], [ 42.916283, 14.6152 ], [ 42.913867, 14.611562 ], [ 42.914299, 14.608799 ], [ 42.917325, 14.605999 ], [ 42.9303, 14.606042 ], [ 42.934111, 14.608514 ], [ 42.942634, 14.610459 ], [ 42.943783, 14.608373 ], [ 42.942569, 14.606094 ], [ 42.939471, 14.604074 ], [ 42.924548, 14.599926 ], [ 42.922851, 14.596963 ], [ 42.923503, 14.59305 ], [ 42.931423, 14.586276 ], [ 42.931152, 14.583984 ], [ 42.926915, 14.584504 ], [ 42.898731, 14.609025 ], [ 42.895728, 14.613432 ] ] ], [ [ [ 53.247589, 12.122586 ], [ 53.25047, 12.125717 ], [ 53.271734, 12.130743 ], [ 53.274498, 12.130704 ], [ 53.282951, 12.128496 ], [ 53.291931, 12.120912 ], [ 53.299199, 12.12051 ], [ 53.300367, 12.117213 ], [ 53.29787, 12.112479 ], [ 53.293911, 12.111047 ], [ 53.278499, 12.114246 ], [ 53.27486, 12.114298 ], [ 53.271734, 12.113034 ], [ 53.25949, 12.113536 ], [ 53.247589, 12.122586 ] ] ], [ [ [ 42.356883, 16.201573 ], [ 42.362633, 16.213023 ], [ 42.368595, 16.219883 ], [ 42.370926, 16.210466 ], [ 42.373051, 16.207932 ], [ 42.381813, 16.204222 ], [ 42.383689, 16.199854 ], [ 42.381024, 16.187704 ], [ 42.379357, 16.186106 ], [ 42.373166, 16.182233 ], [ 42.371159, 16.179027 ], [ 42.368172, 16.17927 ], [ 42.365095, 16.18089 ], [ 42.363215, 16.185713 ], [ 42.358726, 16.189636 ], [ 42.356883, 16.201573 ] ] ], [ [ [ 42.581603, 15.644678 ], [ 42.582356, 15.647651 ], [ 42.587837, 15.650332 ], [ 42.596383, 15.651593 ], [ 42.605914, 15.63885 ], [ 42.615845, 15.637573 ], [ 42.619338, 15.633395 ], [ 42.623336, 15.631276 ], [ 42.635624, 15.629279 ], [ 42.63513, 15.627681 ], [ 42.624001, 15.627829 ], [ 42.601897, 15.622158 ], [ 42.597418, 15.623363 ], [ 42.593204, 15.627092 ], [ 42.591904, 15.635824 ], [ 42.58509, 15.640045 ], [ 42.581603, 15.644678 ] ] ], [ [ [ 42.041298, 15.208442 ], [ 42.042123, 15.218301 ], [ 42.045004, 15.2224 ], [ 42.048786, 15.221899 ], [ 42.053452, 15.216565 ], [ 42.059201, 15.202732 ], [ 42.061211, 15.192608 ], [ 42.059715, 15.185971 ], [ 42.05689, 15.186921 ], [ 42.051608, 15.180094 ], [ 42.044739, 15.179027 ], [ 42.043102, 15.180422 ], [ 42.041753, 15.186404 ], [ 42.041298, 15.208442 ] ] ], [ [ [ 42.357921, 15.528837 ], [ 42.358487, 15.53256 ], [ 42.360904, 15.532976 ], [ 42.374835, 15.531286 ], [ 42.379121, 15.528863 ], [ 42.37218, 15.520134 ], [ 42.376987, 15.498089 ], [ 42.391324, 15.488162 ], [ 42.406873, 15.47739 ], [ 42.408713, 15.473615 ], [ 42.406693, 15.469457 ], [ 42.392886, 15.476748 ], [ 42.377766, 15.489671 ], [ 42.364528, 15.522629 ], [ 42.357921, 15.528837 ] ] ], [ [ [ 42.189671, 16.294203 ], [ 42.193037, 16.305899 ], [ 42.191645, 16.315999 ], [ 42.193318, 16.322053 ], [ 42.196206, 16.323952 ], [ 42.199975, 16.32355 ], [ 42.202833, 16.319987 ], [ 42.202126, 16.318075 ], [ 42.19857, 16.321258 ], [ 42.196681, 16.320403 ], [ 42.196668, 16.31801 ], [ 42.199431, 16.31579 ], [ 42.205678, 16.31451 ], [ 42.210377, 16.307218 ], [ 42.206097, 16.306085 ], [ 42.204182, 16.30196 ], [ 42.204883, 16.298748 ], [ 42.209375, 16.293453 ], [ 42.208409, 16.289554 ], [ 42.20057, 16.288434 ], [ 42.198658, 16.284767 ], [ 42.192735, 16.28754 ], [ 42.189671, 16.294203 ] ] ], [ [ [ 42.478057, 15.49457 ], [ 42.498049, 15.505351 ], [ 42.502394, 15.505725 ], [ 42.5056, 15.503606 ], [ 42.511886, 15.499455 ], [ 42.517632, 15.497932 ], [ 42.527301, 15.499592 ], [ 42.528683, 15.496763 ], [ 42.523323, 15.494075 ], [ 42.515609, 15.493771 ], [ 42.512616, 15.489167 ], [ 42.51022, 15.489684 ], [ 42.508432, 15.495791 ], [ 42.501261, 15.498279 ], [ 42.492575, 15.497529 ], [ 42.490584, 15.494773 ], [ 42.494847, 15.491413 ], [ 42.495273, 15.489069 ], [ 42.492352, 15.48773 ], [ 42.482759, 15.489334 ], [ 42.478057, 15.49457 ] ] ], [ [ [ 42.935929, 14.540509 ], [ 42.942326, 14.558098 ], [ 42.946367, 14.560338 ], [ 42.949883, 14.558681 ], [ 42.949379, 14.556618 ], [ 42.945077, 14.552778 ], [ 42.944716, 14.544514 ], [ 42.948102, 14.53436 ], [ 42.955557, 14.52828 ], [ 42.954807, 14.525536 ], [ 42.95709, 14.520219 ], [ 42.955639, 14.517944 ], [ 42.953053, 14.518441 ], [ 42.939141, 14.534491 ], [ 42.935929, 14.540509 ] ] ], [ [ [ 42.232914, 16.307133 ], [ 42.235796, 16.31425 ], [ 42.257145, 16.330234 ], [ 42.258453, 16.329082 ], [ 42.243379, 16.306867 ], [ 42.244546, 16.301348 ], [ 42.237302, 16.294943 ], [ 42.235819, 16.29591 ], [ 42.23717, 16.300452 ], [ 42.233376, 16.303224 ], [ 42.232914, 16.307133 ] ] ], [ [ [ 42.018703, 15.19676 ], [ 42.020916, 15.204081 ], [ 42.02402, 15.207031 ], [ 42.026364, 15.204939 ], [ 42.03363, 15.179381 ], [ 42.031937, 15.175956 ], [ 42.029334, 15.175756 ], [ 42.023961, 15.181096 ], [ 42.018703, 15.19676 ] ] ], [ [ [ 42.344831, 16.265649 ], [ 42.345571, 16.271382 ], [ 42.354847, 16.275933 ], [ 42.356778, 16.282809 ], [ 42.360815, 16.283709 ], [ 42.36461, 16.281401 ], [ 42.360053, 16.272011 ], [ 42.359067, 16.263753 ], [ 42.356441, 16.26078 ], [ 42.351455, 16.260574 ], [ 42.346713, 16.262198 ], [ 42.344831, 16.265649 ] ] ], [ [ [ 42.600246, 15.743296 ], [ 42.604375, 15.750584 ], [ 42.609417, 15.755561 ], [ 42.614774, 15.765813 ], [ 42.62383, 15.769591 ], [ 42.624754, 15.767744 ], [ 42.62329, 15.76501 ], [ 42.61922, 15.761854 ], [ 42.611402, 15.744524 ], [ 42.606828, 15.739311 ], [ 42.602113, 15.740978 ], [ 42.600246, 15.743296 ] ] ], [ [ [ 41.956307, 16.315439 ], [ 41.958697, 16.323235 ], [ 41.961791, 16.325986 ], [ 41.96606, 16.322764 ], [ 41.967455, 16.310597 ], [ 41.970769, 16.304854 ], [ 41.967197, 16.300499 ], [ 41.957941, 16.301894 ], [ 41.959375, 16.305565 ], [ 41.956307, 16.315439 ] ] ], [ [ [ 42.717354, 13.608304 ], [ 42.730883, 13.61777 ], [ 42.732703, 13.630156 ], [ 42.7355, 13.628509 ], [ 42.739497, 13.628453 ], [ 42.7397, 13.626152 ], [ 42.737091, 13.62458 ], [ 42.732975, 13.615903 ], [ 42.732893, 13.61039 ], [ 42.734701, 13.604847 ], [ 42.733031, 13.603491 ], [ 42.727884, 13.604712 ], [ 42.719371, 13.601382 ], [ 42.717524, 13.603707 ], [ 42.717354, 13.608304 ] ] ], [ [ [ 42.149002, 15.0222 ], [ 42.151756, 15.035025 ], [ 42.15556, 15.037045 ], [ 42.163736, 15.029145 ], [ 42.160138, 15.024826 ], [ 42.162678, 15.019977 ], [ 42.161464, 15.017233 ], [ 42.159332, 15.016801 ], [ 42.155347, 15.019145 ], [ 42.150859, 15.019656 ], [ 42.149002, 15.0222 ] ] ], [ [ [ 42.75541, 16.390492 ], [ 42.757645, 16.394495 ], [ 42.759311, 16.394268 ], [ 42.76391, 16.373416 ], [ 42.76757, 16.367413 ], [ 42.776849, 16.36265 ], [ 42.777154, 16.359161 ], [ 42.768262, 16.362511 ], [ 42.756714, 16.375778 ], [ 42.75541, 16.390492 ] ] ], [ [ [ 42.431449, 16.357755 ], [ 42.432461, 16.361082 ], [ 42.436927, 16.364857 ], [ 42.44433, 16.366235 ], [ 42.449533, 16.366199 ], [ 42.457636, 16.366143 ], [ 42.458599, 16.362804 ], [ 42.449533, 16.362866 ], [ 42.444798, 16.362899 ], [ 42.438869, 16.361036 ], [ 42.436374, 16.357247 ], [ 42.431449, 16.357755 ] ] ], [ [ [ 42.40171, 16.098587 ], [ 42.40244, 16.102025 ], [ 42.407423, 16.103381 ], [ 42.411716, 16.107722 ], [ 42.415324, 16.108993 ], [ 42.41166, 16.096249 ], [ 42.407145, 16.094894 ], [ 42.402885, 16.09606 ], [ 42.40171, 16.098587 ] ] ], [ [ [ 42.474439, 16.262548 ], [ 42.478008, 16.265056 ], [ 42.484655, 16.264107 ], [ 42.496494, 16.25877 ], [ 42.497673, 16.257388 ], [ 42.495761, 16.255103 ], [ 42.491966, 16.255578 ], [ 42.486053, 16.25951 ], [ 42.477746, 16.260011 ], [ 42.474439, 16.262548 ] ] ], [ [ [ 42.540944, 15.702788 ], [ 42.541478, 15.707139 ], [ 42.563281, 15.708 ], [ 42.564921, 15.706602 ], [ 42.561326, 15.703669 ], [ 42.540944, 15.702788 ] ] ], [ [ [ 42.533175, 15.566166 ], [ 42.536053, 15.568651 ], [ 42.548141, 15.56964 ], [ 42.550787, 15.57259 ], [ 42.554595, 15.574145 ], [ 42.555508, 15.571608 ], [ 42.554054, 15.569103 ], [ 42.542853, 15.563976 ], [ 42.535044, 15.564077 ], [ 42.533175, 15.566166 ] ] ], [ [ [ 42.283715, 16.378029 ], [ 42.287032, 16.381981 ], [ 42.298969, 16.3831 ], [ 42.303887, 16.380687 ], [ 42.303458, 16.378307 ], [ 42.30098, 16.376735 ], [ 42.294412, 16.377967 ], [ 42.284527, 16.376437 ], [ 42.283715, 16.378029 ] ] ], [ [ [ 42.491963, 15.724525 ], [ 42.493688, 15.729548 ], [ 42.497044, 15.732488 ], [ 42.501291, 15.731057 ], [ 42.503363, 15.726902 ], [ 42.503095, 15.724152 ], [ 42.493118, 15.722217 ], [ 42.491963, 15.724525 ] ] ], [ [ [ 43.227044, 13.281443 ], [ 43.228253, 13.287825 ], [ 43.230366, 13.289988 ], [ 43.232843, 13.276005 ], [ 43.235413, 13.269971 ], [ 43.231634, 13.269627 ], [ 43.227965, 13.276433 ], [ 43.227044, 13.281443 ] ] ], [ [ [ 42.150617, 15.091673 ], [ 42.153556, 15.08642 ], [ 42.152106, 15.083915 ], [ 42.14783, 15.081898 ], [ 42.145237, 15.082386 ], [ 42.142437, 15.085405 ], [ 42.145992, 15.091673 ], [ 42.148789, 15.093443 ], [ 42.150617, 15.091673 ] ] ], [ [ [ 42.91373, 14.936011 ], [ 42.91408, 14.943813 ], [ 42.918618, 14.946963 ], [ 42.920959, 14.945552 ], [ 42.922318, 14.941629 ], [ 42.916781, 14.934593 ], [ 42.91373, 14.936011 ] ] ], [ [ [ 44.703773, 12.736914 ], [ 44.708217, 12.737447 ], [ 44.714012, 12.740764 ], [ 44.71613, 12.740342 ], [ 44.718547, 12.736013 ], [ 44.716025, 12.732981 ], [ 44.706874, 12.733747 ], [ 44.703773, 12.736914 ] ] ], [ [ [ 42.813039, 13.871008 ], [ 42.813825, 13.876512 ], [ 42.816735, 13.882445 ], [ 42.818353, 13.880585 ], [ 42.818978, 13.874832 ], [ 42.817465, 13.868189 ], [ 42.814149, 13.866398 ], [ 42.813039, 13.871008 ] ] ], [ [ [ 42.705816, 13.942352 ], [ 42.708288, 13.950819 ], [ 42.711631, 13.95445 ], [ 42.714185, 13.951658 ], [ 42.711552, 13.948708 ], [ 42.71, 13.93862 ], [ 42.707879, 13.938417 ], [ 42.705816, 13.942352 ] ] ], [ [ [ 48.321465, 13.98934 ], [ 48.321924, 13.992555 ], [ 48.324972, 13.995096 ], [ 48.329441, 13.995342 ], [ 48.330636, 13.991442 ], [ 48.328302, 13.987071 ], [ 48.324304, 13.986364 ], [ 48.321465, 13.98934 ] ] ], [ [ [ 42.778188, 13.786478 ], [ 42.78033, 13.788286 ], [ 42.783604, 13.786916 ], [ 42.786295, 13.782734 ], [ 42.783604, 13.779196 ], [ 42.781577, 13.777009 ], [ 42.779796, 13.777691 ], [ 42.778188, 13.786478 ] ] ], [ [ [ 42.268186, 16.138316 ], [ 42.268621, 16.141885 ], [ 42.273162, 16.145827 ], [ 42.278918, 16.146986 ], [ 42.280978, 16.147769 ], [ 42.281367, 16.144589 ], [ 42.268186, 16.138316 ] ] ], [ [ [ 42.739006, 13.643397 ], [ 42.739789, 13.648901 ], [ 42.741698, 13.651173 ], [ 42.745214, 13.650207 ], [ 42.746802, 13.646507 ], [ 42.741315, 13.640607 ], [ 42.739006, 13.643397 ] ] ], [ [ [ 42.585991, 15.913432 ], [ 42.586966, 15.915256 ], [ 42.597041, 15.924064 ], [ 42.598904, 15.921519 ], [ 42.58786, 15.911343 ], [ 42.585991, 15.913432 ] ] ], [ [ [ 42.797326, 13.710606 ], [ 42.797382, 13.714512 ], [ 42.799042, 13.715638 ], [ 42.801831, 13.7133 ], [ 42.804333, 13.707289 ], [ 42.802882, 13.704781 ], [ 42.800057, 13.704362 ], [ 42.797326, 13.710606 ] ] ], [ [ [ 42.615547, 15.409978 ], [ 42.617253, 15.413399 ], [ 42.622517, 15.417689 ], [ 42.625294, 15.413291 ], [ 42.624551, 15.410777 ], [ 42.616948, 15.408583 ], [ 42.615547, 15.409978 ] ] ], [ [ [ 42.330405, 16.349157 ], [ 42.331662, 16.35193 ], [ 42.335778, 16.3523 ], [ 42.340735, 16.355843 ], [ 42.344847, 16.355817 ], [ 42.345656, 16.353826 ], [ 42.342762, 16.351462 ], [ 42.330405, 16.349157 ] ] ], [ [ [ 48.459629, 13.976996 ], [ 48.462442, 13.980451 ], [ 48.466443, 13.980235 ], [ 48.467628, 13.977484 ], [ 48.466695, 13.975412 ], [ 48.465058, 13.973568 ], [ 48.460353, 13.972403 ], [ 48.459629, 13.976996 ] ] ] ] } }
]
}
