{
"type": "FeatureCollection",
"name": "Zambia",
"crs": { "type": "name", "properties": { "name": "urn:ogc:def:crs:OGC:1.3:CRS84" } },
"features": [
{ "type": "Feature", "properties": { "id": "ZM", "CNTR_ID": "ZM", "CNTR_NAME": "Zambia", "NAME_ENGL": "Zambia", "ISO3_CODE": "ZMB", "FID": "ZM" }, "geometry": { "type": "MultiPolygon", "coordinates": [ [ [ [ 23.42989, -17.634459 ], [ 23.42709, -17.612372 ], [ 23.42345, -17.604688 ], [ 23.362499, -17.552457 ], [ 23.330085, -17.537758 ], [ 23.276753, -17.524629 ], [ 23.226206, -17.525877 ], [ 23.213967, -17.518989 ], [ 23.206177, -17.503798 ], [ 23.182068, -17.477997 ], [ 23.172555, -17.475374 ], [ 23.159836, -17.477141 ], [ 23.141785, -17.467463 ], [ 23.13948, -17.449247 ], [ 23.127465, -17.444082 ], [ 23.119847, -17.429709 ], [ 23.107593, -17.427847 ], [ 23.083154, -17.406104 ], [ 23.070481, -17.387557 ], [ 23.072242, -17.366734 ], [ 23.067004, -17.355361 ], [ 23.039596, -17.334371 ], [ 23.027854, -17.318589 ], [ 23.000431, -17.294755 ], [ 22.994464, -17.284301 ], [ 22.992759, -17.270503 ], [ 22.981069, -17.26614 ], [ 22.969956, -17.276809 ], [ 22.961676, -17.270721 ], [ 22.918944, -17.266056 ], [ 22.907557, -17.25989 ], [ 22.883224, -17.239003 ], [ 22.864862, -17.228415 ], [ 22.856303, -17.213013 ], [ 22.80069, -17.161909 ], [ 22.800837, -17.142037 ], [ 22.784718, -17.116079 ], [ 22.744158, -17.084907 ], [ 22.733369, -17.066603 ], [ 22.719796, -17.055462 ], [ 22.711549, -17.044359 ], [ 22.691556, -17.031966 ], [ 22.685996, -17.019749 ], [ 22.650523, -16.989336 ], [ 22.636652, -16.969323 ], [ 22.609236, -16.939773 ], [ 22.587561, -16.92452 ], [ 22.573742, -16.90897 ], [ 22.556079, -16.91235 ], [ 22.550273, -16.910326 ], [ 22.540862, -16.892876 ], [ 22.48765, -16.846737 ], [ 22.484308, -16.833202 ], [ 22.490663, -16.815515 ], [ 22.463135, -16.798596 ], [ 22.445852, -16.792844 ], [ 22.417764, -16.75581 ], [ 22.415361, -16.74427 ], [ 22.392541, -16.72387 ], [ 22.385912, -16.721637 ], [ 22.37632, -16.722778 ], [ 22.372065, -16.702801 ], [ 22.352907, -16.69775 ], [ 22.350833, -16.679958 ], [ 22.34523, -16.674125 ], [ 22.330376, -16.666358 ], [ 22.329594, -16.651317 ], [ 22.325738, -16.645073 ], [ 22.308472, -16.636422 ], [ 22.30346, -16.627554 ], [ 22.286967, -16.619738 ], [ 22.280984, -16.612061 ], [ 22.265137, -16.600858 ], [ 22.258461, -16.590193 ], [ 22.242988, -16.576024 ], [ 22.222228, -16.5742 ], [ 22.205633, -16.552955 ], [ 22.179984, -16.544518 ], [ 22.179537, -16.53277 ], [ 22.173882, -16.525547 ], [ 22.162909, -16.520959 ], [ 22.164245, -16.510307 ], [ 22.151458, -16.49521 ], [ 22.125226, -16.491228 ], [ 22.127732, -16.487242 ], [ 22.138158, -16.483588 ], [ 22.141145, -16.478593 ], [ 22.136006, -16.458693 ], [ 22.128229, -16.448475 ], [ 22.134447, -16.439239 ], [ 22.131211, -16.430685 ], [ 22.134945, -16.415898 ], [ 22.126932, -16.390714 ], [ 22.120811, -16.38373 ], [ 22.124728, -16.372417 ], [ 22.11935, -16.350131 ], [ 22.11048, -16.335261 ], [ 22.097875, -16.327215 ], [ 22.089959, -16.305763 ], [ 22.073254, -16.29045 ], [ 22.078974, -16.282854 ], [ 22.078893, -16.278823 ], [ 22.061848, -16.262915 ], [ 22.046627, -16.23891 ], [ 22.032008, -16.232222 ], [ 22.024665, -16.215884 ], [ 22.001775, -16.205679 ], [ 21.999901, -16.184063 ], [ 22.000281, -13.473797 ], [ 22.004172, -13.00401 ], [ 22.009998, -13.001481 ], [ 23.925816, -12.996698 ], [ 24.045208, -12.9964 ], [ 24.045493, -12.989451 ], [ 24.02847, -12.966596 ], [ 24.029841, -12.955361 ], [ 24.026491, -12.943908 ], [ 24.006509, -12.933958 ], [ 23.991404, -12.919996 ], [ 23.978509, -12.901471 ], [ 23.968041, -12.897456 ], [ 23.95028, -12.897304 ], [ 23.937545, -12.889856 ], [ 23.927974, -12.881258 ], [ 23.925816, -12.875581 ], [ 23.921127, -12.863242 ], [ 23.908082, -12.854893 ], [ 23.90598, -12.846794 ], [ 23.896014, -12.843992 ], [ 23.893934, -12.840731 ], [ 23.899737, -12.820689 ], [ 23.896749, -12.809165 ], [ 23.897265, -12.791774 ], [ 23.901724, -12.777553 ], [ 23.898307, -12.77027 ], [ 23.899411, -12.763544 ], [ 23.905941, -12.755958 ], [ 23.913271, -12.728699 ], [ 23.925816, -12.714048 ], [ 23.929904, -12.700757 ], [ 23.925816, -12.689754 ], [ 23.92095, -12.682685 ], [ 23.921151, -12.677174 ], [ 23.925816, -12.666142 ], [ 23.929068, -12.658453 ], [ 23.947034, -12.63056 ], [ 23.954855, -12.600093 ], [ 23.959564, -12.593256 ], [ 23.946629, -12.556671 ], [ 23.948721, -12.536678 ], [ 23.955853, -12.530412 ], [ 23.957189, -12.52018 ], [ 23.981599, -12.509502 ], [ 23.981581, -12.501548 ], [ 24.002291, -12.482384 ], [ 24.007281, -12.468775 ], [ 24.031901, -12.446896 ], [ 24.03338, -12.440032 ], [ 24.065218, -12.423733 ], [ 24.071183, -12.408007 ], [ 24.070272, -12.39727 ], [ 24.076464, -12.382346 ], [ 24.075741, -12.359597 ], [ 24.058286, -12.341498 ], [ 24.04612, -12.334655 ], [ 24.06648, -12.314023 ], [ 24.065929, -12.304293 ], [ 24.05897, -12.290368 ], [ 24.061663, -12.27759 ], [ 24.059555, -12.264405 ], [ 24.050047, -12.254134 ], [ 24.040539, -12.235912 ], [ 24.03092, -12.230321 ], [ 24.026072, -12.223089 ], [ 24.013094, -12.22214 ], [ 24.0013, -12.209335 ], [ 23.996948, -12.184319 ], [ 23.984188, -12.170635 ], [ 23.980158, -12.135808 ], [ 23.983314, -12.072658 ], [ 23.983573, -11.906903 ], [ 23.999648, -11.850547 ], [ 24.017149, -11.842418 ], [ 24.021977, -11.829778 ], [ 24.012686, -11.811867 ], [ 23.999888, -11.757113 ], [ 23.992756, -11.741985 ], [ 23.992792, -11.731779 ], [ 24.000433, -11.727075 ], [ 23.991814, -11.718077 ], [ 23.985343, -11.705887 ], [ 23.984967, -11.69961 ], [ 23.974942, -11.691141 ], [ 23.974173, -11.677262 ], [ 23.961203, -11.659865 ], [ 23.980461, -11.642782 ], [ 23.990581, -11.613257 ], [ 23.993993, -11.609852 ], [ 24.00006, -11.603802 ], [ 24.001513, -11.59008 ], [ 24.010922, -11.583222 ], [ 24.017962, -11.560883 ], [ 24.023563, -11.553892 ], [ 24.026668, -11.543485 ], [ 24.033097, -11.538414 ], [ 24.038221, -11.525344 ], [ 24.032928, -11.515325 ], [ 24.028839, -11.495857 ], [ 24.022645, -11.485687 ], [ 24.022117, -11.475832 ], [ 24.025928, -11.464338 ], [ 24.021793, -11.453924 ], [ 24.023485, -11.448101 ], [ 24.034681, -11.438268 ], [ 24.044531, -11.424525 ], [ 24.0638, -11.421012 ], [ 24.085057, -11.403897 ], [ 24.050481, -11.300332 ], [ 24.033554, -11.264781 ], [ 24.035552, -11.13938 ], [ 24.033083, -11.135898 ], [ 24.016933, -11.129822 ], [ 24.006855, -11.129729 ], [ 24.002181, -11.118229 ], [ 24.005392, -11.110728 ], [ 24.017383, -11.105136 ], [ 24.021035, -11.098965 ], [ 24.010163, -11.055661 ], [ 24.013025, -11.039862 ], [ 24.007102, -11.021027 ], [ 24.022134, -10.998137 ], [ 24.023593, -10.969513 ], [ 24.01701, -10.962923 ], [ 24.02087, -10.948305 ], [ 24.018422, -10.942073 ], [ 24.000267, -10.927929 ], [ 23.995125, -10.918424 ], [ 23.982032, -10.910775 ], [ 23.999528, -10.887249 ], [ 24.012691, -10.885608 ], [ 24.060974, -10.890019 ], [ 24.074846, -10.89356 ], [ 24.094502, -10.904608 ], [ 24.11586, -10.905193 ], [ 24.123724, -10.910113 ], [ 24.129534, -10.922536 ], [ 24.123043, -10.947571 ], [ 24.142112, -10.967439 ], [ 24.145116, -10.974905 ], [ 24.142415, -10.994608 ], [ 24.132131, -11.023259 ], [ 24.134575, -11.029598 ], [ 24.142633, -11.036421 ], [ 24.165664, -11.04379 ], [ 24.179751, -11.032702 ], [ 24.190517, -11.029751 ], [ 24.252706, -11.044585 ], [ 24.286664, -11.043627 ], [ 24.322761, -11.054213 ], [ 24.382326, -11.092269 ], [ 24.39109, -11.115009 ], [ 24.387446, -11.175293 ], [ 24.400553, -11.198545 ], [ 24.398158, -11.263676 ], [ 24.394083, -11.281998 ], [ 24.376451, -11.309834 ], [ 24.365013, -11.341328 ], [ 24.350307, -11.364756 ], [ 24.336587, -11.371427 ], [ 24.297296, -11.374489 ], [ 24.290535, -11.378886 ], [ 24.288993, -11.385907 ], [ 24.301862, -11.400777 ], [ 24.31794, -11.406952 ], [ 24.344087, -11.409675 ], [ 24.368149, -11.405578 ], [ 24.38185, -11.40938 ], [ 24.433143, -11.445192 ], [ 24.437514, -11.466574 ], [ 24.444896, -11.474134 ], [ 24.47412, -11.460701 ], [ 24.521715, -11.461609 ], [ 24.545519, -11.447591 ], [ 24.553756, -11.447786 ], [ 24.575755, -11.455315 ], [ 24.584447, -11.454886 ], [ 24.591774, -11.446892 ], [ 24.593613, -11.429524 ], [ 24.59954, -11.418889 ], [ 24.63511, -11.402614 ], [ 24.645591, -11.391401 ], [ 24.666029, -11.359016 ], [ 24.686402, -11.346879 ], [ 24.699962, -11.33373 ], [ 24.71082, -11.329048 ], [ 24.732426, -11.327241 ], [ 24.735073, -11.322457 ], [ 24.734319, -11.311707 ], [ 24.73827, -11.30697 ], [ 24.774208, -11.300195 ], [ 24.800165, -11.303516 ], [ 24.82105, -11.29649 ], [ 24.851254, -11.292516 ], [ 24.860008, -11.284969 ], [ 24.867565, -11.267862 ], [ 24.873398, -11.263354 ], [ 24.904751, -11.269148 ], [ 24.932123, -11.256497 ], [ 24.945795, -11.255565 ], [ 24.962723, -11.258626 ], [ 24.989419, -11.250348 ], [ 25.048686, -11.24999 ], [ 25.071545, -11.25431 ], [ 25.100626, -11.250743 ], [ 25.138516, -11.23807 ], [ 25.178686, -11.234857 ], [ 25.22481, -11.227227 ], [ 25.273058, -11.202456 ], [ 25.301253, -11.192669 ], [ 25.348335, -11.19715 ], [ 25.349031, -11.206496 ], [ 25.334224, -11.224742 ], [ 25.321164, -11.25661 ], [ 25.322366, -11.263855 ], [ 25.333064, -11.27856 ], [ 25.332984, -11.285191 ], [ 25.327039, -11.292264 ], [ 25.303408, -11.30024 ], [ 25.297846, -11.306613 ], [ 25.300242, -11.316442 ], [ 25.312292, -11.330705 ], [ 25.312277, -11.343839 ], [ 25.303561, -11.35313 ], [ 25.283518, -11.360156 ], [ 25.279786, -11.368389 ], [ 25.290204, -11.396822 ], [ 25.300499, -11.413803 ], [ 25.299337, -11.427641 ], [ 25.304976, -11.445466 ], [ 25.30639, -11.473466 ], [ 25.324908, -11.496143 ], [ 25.321364, -11.502068 ], [ 25.296696, -11.510576 ], [ 25.292459, -11.517267 ], [ 25.308449, -11.531988 ], [ 25.307258, -11.569523 ], [ 25.326904, -11.589227 ], [ 25.330288, -11.609852 ], [ 25.330675, -11.61221 ], [ 25.337991, -11.626772 ], [ 25.364353, -11.642837 ], [ 25.388556, -11.651245 ], [ 25.42698, -11.675075 ], [ 25.462122, -11.681822 ], [ 25.482108, -11.693122 ], [ 25.492473, -11.709512 ], [ 25.495973, -11.726704 ], [ 25.494724, -11.742999 ], [ 25.485015, -11.764199 ], [ 25.485046, -11.771656 ], [ 25.489921, -11.77949 ], [ 25.497994, -11.784259 ], [ 25.507331, -11.784606 ], [ 25.534725, -11.775125 ], [ 25.560838, -11.762104 ], [ 25.577179, -11.759789 ], [ 25.597935, -11.735723 ], [ 25.609709, -11.734361 ], [ 25.631573, -11.737014 ], [ 25.647837, -11.730489 ], [ 25.656664, -11.737361 ], [ 25.677261, -11.779587 ], [ 25.697229, -11.792181 ], [ 25.709153, -11.807507 ], [ 25.719123, -11.814663 ], [ 25.794824, -11.826241 ], [ 25.822284, -11.827639 ], [ 25.839005, -11.821556 ], [ 25.865852, -11.801054 ], [ 25.878329, -11.800242 ], [ 25.888938, -11.810744 ], [ 25.899365, -11.848554 ], [ 25.91752, -11.872463 ], [ 25.934259, -11.879772 ], [ 25.960947, -11.878806 ], [ 25.974917, -11.8866 ], [ 25.985073, -11.896471 ], [ 25.989631, -11.911814 ], [ 25.979744, -11.932584 ], [ 25.982612, -11.937159 ], [ 25.98967, -11.940023 ], [ 26.072225, -11.94275 ], [ 26.13564, -11.939966 ], [ 26.168262, -11.935748 ], [ 26.186388, -11.938903 ], [ 26.192577, -11.937308 ], [ 26.201902, -11.929395 ], [ 26.211204, -11.928205 ], [ 26.216134, -11.930025 ], [ 26.250878, -11.942852 ], [ 26.285246, -11.94729 ], [ 26.310878, -11.962222 ], [ 26.327731, -11.96559 ], [ 26.348391, -11.956722 ], [ 26.366418, -11.943212 ], [ 26.407809, -11.92082 ], [ 26.427291, -11.91519 ], [ 26.440417, -11.915115 ], [ 26.466857, -11.920018 ], [ 26.483063, -11.927515 ], [ 26.510295, -11.950318 ], [ 26.535289, -11.961513 ], [ 26.562226, -11.979861 ], [ 26.57979, -11.980795 ], [ 26.602198, -11.972448 ], [ 26.635651, -11.985038 ], [ 26.663105, -11.985873 ], [ 26.688145, -11.991598 ], [ 26.71045, -12.008426 ], [ 26.720044, -12.006644 ], [ 26.754665, -11.97434 ], [ 26.775287, -11.964074 ], [ 26.796946, -11.967159 ], [ 26.815669, -11.985102 ], [ 26.826692, -11.991787 ], [ 26.856104, -11.98151 ], [ 26.883242, -11.98368 ], [ 26.897017, -11.973691 ], [ 26.911939, -11.951865 ], [ 26.952415, -11.919854 ], [ 26.962612, -11.903359 ], [ 26.970748, -11.882067 ], [ 26.980093, -11.875182 ], [ 26.987844, -11.861504 ], [ 27.001853, -11.852798 ], [ 27.007392, -11.845366 ], [ 27.008182, -11.835071 ], [ 26.999623, -11.814758 ], [ 27.005726, -11.795922 ], [ 27.008783, -11.766225 ], [ 27.013548, -11.753634 ], [ 27.023866, -11.741576 ], [ 27.032417, -11.723594 ], [ 27.044311, -11.713158 ], [ 27.047837, -11.702742 ], [ 27.043807, -11.67918 ], [ 27.025299, -11.650664 ], [ 27.024849, -11.620833 ], [ 27.02766, -11.613324 ], [ 27.03372, -11.609852 ], [ 27.044872, -11.603463 ], [ 27.090254, -11.605157 ], [ 27.120986, -11.595781 ], [ 27.15779, -11.599019 ], [ 27.18481, -11.583002 ], [ 27.198806, -11.570308 ], [ 27.204621, -11.569482 ], [ 27.210481, -11.578442 ], [ 27.216921, -11.609852 ], [ 27.22569, -11.652615 ], [ 27.227936, -11.772205 ], [ 27.231954, -11.785529 ], [ 27.246473, -11.799957 ], [ 27.271774, -11.803864 ], [ 27.295164, -11.812773 ], [ 27.350843, -11.851911 ], [ 27.395678, -11.876689 ], [ 27.408499, -11.895303 ], [ 27.438389, -11.907023 ], [ 27.461805, -11.926709 ], [ 27.468306, -11.939149 ], [ 27.471699, -11.95874 ], [ 27.464842, -12.012757 ], [ 27.467537, -12.033627 ], [ 27.475016, -12.051937 ], [ 27.491237, -12.061579 ], [ 27.498075, -12.070213 ], [ 27.506998, -12.100582 ], [ 27.509287, -12.139117 ], [ 27.515435, -12.157418 ], [ 27.530729, -12.178315 ], [ 27.565824, -12.210138 ], [ 27.577184, -12.215221 ], [ 27.601391, -12.218892 ], [ 27.613335, -12.225232 ], [ 27.619676, -12.235023 ], [ 27.630991, -12.273407 ], [ 27.644632, -12.282834 ], [ 27.654728, -12.286187 ], [ 27.673542, -12.283441 ], [ 27.695553, -12.285369 ], [ 27.713656, -12.281873 ], [ 27.758601, -12.288083 ], [ 27.778407, -12.272863 ], [ 27.816317, -12.259063 ], [ 27.818844, -12.251787 ], [ 27.814863, -12.23557 ], [ 27.819208, -12.231093 ], [ 27.864343, -12.243524 ], [ 27.91803, -12.241533 ], [ 27.9248, -12.248205 ], [ 27.933692, -12.277313 ], [ 27.952069, -12.312737 ], [ 27.949029, -12.341018 ], [ 27.951837, -12.350721 ], [ 27.963422, -12.351816 ], [ 27.990362, -12.339804 ], [ 28.014483, -12.34941 ], [ 28.059952, -12.350053 ], [ 28.077323, -12.354088 ], [ 28.088721, -12.363191 ], [ 28.1167, -12.427159 ], [ 28.124354, -12.43411 ], [ 28.144154, -12.427323 ], [ 28.145412, -12.412754 ], [ 28.149185, -12.404285 ], [ 28.164249, -12.388502 ], [ 28.176024, -12.383395 ], [ 28.181745, -12.385378 ], [ 28.190589, -12.400762 ], [ 28.216259, -12.408128 ], [ 28.234046, -12.421592 ], [ 28.242784, -12.421366 ], [ 28.262404, -12.413505 ], [ 28.281409, -12.420074 ], [ 28.313651, -12.419859 ], [ 28.326031, -12.425481 ], [ 28.401834, -12.498559 ], [ 28.442317, -12.518303 ], [ 28.448339, -12.528727 ], [ 28.444099, -12.553371 ], [ 28.446533, -12.56274 ], [ 28.489871, -12.593702 ], [ 28.517035, -12.620742 ], [ 28.521942, -12.634267 ], [ 28.511166, -12.674796 ], [ 28.500423, -12.681668 ], [ 28.476819, -12.685134 ], [ 28.465563, -12.690418 ], [ 28.457182, -12.699267 ], [ 28.455817, -12.710627 ], [ 28.465765, -12.733709 ], [ 28.479018, -12.75173 ], [ 28.529002, -12.802791 ], [ 28.538207, -12.822394 ], [ 28.545082, -12.85547 ], [ 28.565106, -12.876171 ], [ 28.572416, -12.889983 ], [ 28.579848, -12.891136 ], [ 28.587293, -12.884772 ], [ 28.604042, -12.844904 ], [ 28.623168, -12.824075 ], [ 28.63596, -12.818275 ], [ 28.654225, -12.820129 ], [ 28.666043, -12.826884 ], [ 28.681218, -12.843289 ], [ 28.707785, -12.859044 ], [ 28.724765, -12.87549 ], [ 28.73291, -12.887636 ], [ 28.739697, -12.910556 ], [ 28.757461, -12.937956 ], [ 28.765609, -12.942172 ], [ 28.780312, -12.941776 ], [ 28.788824, -12.94683 ], [ 28.793909, -12.967911 ], [ 28.81853, -12.9964 ], [ 28.826268, -13.00962 ], [ 28.833745, -13.028653 ], [ 28.835044, -13.054721 ], [ 28.846783, -13.06974 ], [ 28.845127, -13.079478 ], [ 28.832603, -13.085339 ], [ 28.846633, -13.107673 ], [ 28.849261, -13.12376 ], [ 28.848512, -13.146233 ], [ 28.856033, -13.154522 ], [ 28.869893, -13.152167 ], [ 28.877888, -13.162227 ], [ 28.89658, -13.159323 ], [ 28.90399, -13.164202 ], [ 28.940953, -13.270732 ], [ 28.946931, -13.306913 ], [ 28.967354, -13.34174 ], [ 28.970006, -13.366454 ], [ 28.977886, -13.37503 ], [ 28.991832, -13.369739 ], [ 28.998268, -13.372649 ], [ 28.999191, -13.382568 ], [ 28.992563, -13.39423 ], [ 28.998336, -13.408735 ], [ 29.003673, -13.414806 ], [ 29.020922, -13.416519 ], [ 29.040392, -13.403143 ], [ 29.088499, -13.377338 ], [ 29.108104, -13.37024 ], [ 29.119979, -13.370037 ], [ 29.132852, -13.374529 ], [ 29.144591, -13.383461 ], [ 29.168904, -13.41447 ], [ 29.179667, -13.439557 ], [ 29.186943, -13.440977 ], [ 29.211403, -13.417513 ], [ 29.233103, -13.406497 ], [ 29.248851, -13.393157 ], [ 29.30051, -13.373466 ], [ 29.308456, -13.362741 ], [ 29.311595, -13.34208 ], [ 29.315893, -13.334308 ], [ 29.338685, -13.346042 ], [ 29.347252, -13.347549 ], [ 29.353696, -13.34383 ], [ 29.359309, -13.333085 ], [ 29.366386, -13.327156 ], [ 29.386498, -13.326957 ], [ 29.441421, -13.313307 ], [ 29.476306, -13.275553 ], [ 29.491839, -13.268968 ], [ 29.503687, -13.246951 ], [ 29.525667, -13.22993 ], [ 29.538513, -13.225701 ], [ 29.560459, -13.226643 ], [ 29.57646, -13.215714 ], [ 29.585046, -13.213951 ], [ 29.6193, -13.232346 ], [ 29.624844, -13.234197 ], [ 29.637938, -13.238567 ], [ 29.644967, -13.23838 ], [ 29.664501, -13.228392 ], [ 29.671193, -13.228201 ], [ 29.676516, -13.235419 ], [ 29.675077, -13.24953 ], [ 29.681244, -13.262427 ], [ 29.678498, -13.269672 ], [ 29.661239, -13.281049 ], [ 29.654683, -13.289068 ], [ 29.654756, -13.296988 ], [ 29.662672, -13.315244 ], [ 29.658391, -13.337538 ], [ 29.652581, -13.34895 ], [ 29.644186, -13.355126 ], [ 29.624844, -13.358104 ], [ 29.612311, -13.360033 ], [ 29.605815, -13.364262 ], [ 29.606147, -13.370219 ], [ 29.612871, -13.381524 ], [ 29.608558, -13.395717 ], [ 29.612344, -13.409412 ], [ 29.624844, -13.419284 ], [ 29.646636, -13.436492 ], [ 29.654081, -13.437444 ], [ 29.667732, -13.430583 ], [ 29.676434, -13.430468 ], [ 29.700146, -13.449774 ], [ 29.71091, -13.454611 ], [ 29.736109, -13.450694 ], [ 29.762577, -13.438496 ], [ 29.771375, -13.437264 ], [ 29.785324, -13.44005 ], [ 29.808138, -13.452472 ], [ 29.811058, -13.247608 ], [ 29.8087, -13.122266 ], [ 29.808897, -12.9964 ], [ 29.810156, -12.193791 ], [ 29.806978, -12.158546 ], [ 29.801532, -12.156585 ], [ 29.785445, -12.160821 ], [ 29.761643, -12.161362 ], [ 29.739959, -12.174748 ], [ 29.721035, -12.190801 ], [ 29.667851, -12.206691 ], [ 29.634376, -12.20636 ], [ 29.624844, -12.203149 ], [ 29.595952, -12.193417 ], [ 29.576346, -12.193326 ], [ 29.540986, -12.215039 ], [ 29.512508, -12.223839 ], [ 29.488903, -12.239733 ], [ 29.479499, -12.251066 ], [ 29.467743, -12.274074 ], [ 29.456532, -12.318961 ], [ 29.456727, -12.332875 ], [ 29.480102, -12.375632 ], [ 29.492674, -12.390481 ], [ 29.502012, -12.396431 ], [ 29.530174, -12.399981 ], [ 29.53566, -12.406561 ], [ 29.537044, -12.418088 ], [ 29.535072, -12.429518 ], [ 29.525938, -12.444568 ], [ 29.515031, -12.456971 ], [ 29.497918, -12.469457 ], [ 29.472505, -12.469818 ], [ 29.367514, -12.413734 ], [ 29.354471, -12.41287 ], [ 29.331203, -12.417977 ], [ 29.30253, -12.412586 ], [ 29.295867, -12.40647 ], [ 29.29373, -12.387796 ], [ 29.276924, -12.371216 ], [ 29.266867, -12.36535 ], [ 29.234886, -12.374179 ], [ 29.185378, -12.371944 ], [ 29.129299, -12.394563 ], [ 29.120186, -12.392855 ], [ 29.104675, -12.37999 ], [ 29.086258, -12.386152 ], [ 29.061219, -12.388208 ], [ 29.046651, -12.383974 ], [ 29.035107, -12.373104 ], [ 29.023619, -12.348694 ], [ 29.005755, -12.323111 ], [ 28.997147, -12.285654 ], [ 28.947287, -12.212661 ], [ 28.910473, -12.178342 ], [ 28.856886, -12.138954 ], [ 28.830053, -12.098871 ], [ 28.805799, -12.075399 ], [ 28.778974, -12.054989 ], [ 28.765399, -12.018796 ], [ 28.763898, -11.997858 ], [ 28.760458, -11.991968 ], [ 28.747653, -11.984989 ], [ 28.721505, -11.990181 ], [ 28.699365, -11.983312 ], [ 28.664831, -11.962226 ], [ 28.638853, -11.950427 ], [ 28.629361, -11.939961 ], [ 28.618888, -11.918925 ], [ 28.612927, -11.912671 ], [ 28.577987, -11.91049 ], [ 28.563291, -11.901793 ], [ 28.537033, -11.896327 ], [ 28.507033, -11.880574 ], [ 28.499548, -11.854637 ], [ 28.489601, -11.835289 ], [ 28.482458, -11.828412 ], [ 28.472052, -11.826782 ], [ 28.443748, -11.830969 ], [ 28.438107, -11.826724 ], [ 28.436886, -11.808906 ], [ 28.445425, -11.782113 ], [ 28.446004, -11.76583 ], [ 28.436588, -11.745868 ], [ 28.418236, -11.731909 ], [ 28.41548, -11.726552 ], [ 28.418329, -11.719826 ], [ 28.428813, -11.711383 ], [ 28.433324, -11.701321 ], [ 28.431617, -11.694881 ], [ 28.422188, -11.686122 ], [ 28.41872, -11.677674 ], [ 28.43035, -11.65773 ], [ 28.430432, -11.646218 ], [ 28.424058, -11.634447 ], [ 28.402353, -11.615344 ], [ 28.39858, -11.609852 ], [ 28.383309, -11.587621 ], [ 28.381309, -11.575662 ], [ 28.389218, -11.528211 ], [ 28.397822, -11.504515 ], [ 28.395167, -11.474409 ], [ 28.41842, -11.445767 ], [ 28.42025, -11.432538 ], [ 28.428238, -11.414968 ], [ 28.425125, -11.395438 ], [ 28.426804, -11.386916 ], [ 28.432175, -11.382072 ], [ 28.450173, -11.378201 ], [ 28.456992, -11.372551 ], [ 28.455618, -11.346189 ], [ 28.44969, -11.333524 ], [ 28.449111, -11.324806 ], [ 28.456112, -11.294714 ], [ 28.470163, -11.284046 ], [ 28.474641, -11.266043 ], [ 28.486488, -11.243817 ], [ 28.482105, -11.218719 ], [ 28.496247, -11.183025 ], [ 28.497531, -11.159623 ], [ 28.495213, -11.148157 ], [ 28.479086, -11.116737 ], [ 28.476622, -11.104959 ], [ 28.49166, -11.084963 ], [ 28.495236, -11.054312 ], [ 28.507945, -11.02914 ], [ 28.510239, -11.015256 ], [ 28.507632, -10.987853 ], [ 28.509044, -10.973339 ], [ 28.514879, -10.962524 ], [ 28.532534, -10.950668 ], [ 28.538353, -10.94061 ], [ 28.544722, -10.86573 ], [ 28.553818, -10.832327 ], [ 28.561185, -10.820953 ], [ 28.575984, -10.807312 ], [ 28.582655, -10.792368 ], [ 28.603483, -10.767483 ], [ 28.607305, -10.757708 ], [ 28.606714, -10.736647 ], [ 28.611002, -10.725227 ], [ 28.618616, -10.718781 ], [ 28.630057, -10.715616 ], [ 28.655298, -10.718963 ], [ 28.663723, -10.717482 ], [ 28.667222, -10.710963 ], [ 28.669145, -10.69256 ], [ 28.673759, -10.68661 ], [ 28.689547, -10.678796 ], [ 28.696381, -10.662229 ], [ 28.690979, -10.643279 ], [ 28.669239, -10.62445 ], [ 28.665515, -10.617273 ], [ 28.664876, -10.596884 ], [ 28.672401, -10.569072 ], [ 28.670952, -10.560602 ], [ 28.663818, -10.549835 ], [ 28.638377, -10.530429 ], [ 28.634359, -10.519022 ], [ 28.639051, -10.490199 ], [ 28.636394, -10.4724 ], [ 28.642675, -10.450343 ], [ 28.642762, -10.438618 ], [ 28.63745, -10.419966 ], [ 28.626416, -10.397784 ], [ 28.621899, -10.375308 ], [ 28.624151, -10.357232 ], [ 28.63639, -10.316672 ], [ 28.636047, -10.306234 ], [ 28.630075, -10.296188 ], [ 28.613451, -10.283904 ], [ 28.598021, -10.257351 ], [ 28.580659, -10.23872 ], [ 28.577625, -10.230051 ], [ 28.582824, -10.211466 ], [ 28.604922, -10.186139 ], [ 28.609342, -10.170768 ], [ 28.621525, -10.156391 ], [ 28.624694, -10.073003 ], [ 28.631632, -10.051156 ], [ 28.629257, -10.037072 ], [ 28.635856, -10.021576 ], [ 28.630088, -10.000068 ], [ 28.632132, -9.988828 ], [ 28.625702, -9.955623 ], [ 28.642519, -9.914633 ], [ 28.654713, -9.894432 ], [ 28.657193, -9.873586 ], [ 28.670872, -9.840932 ], [ 28.672152, -9.819952 ], [ 28.675751, -9.815835 ], [ 28.693604, -9.812962 ], [ 28.696526, -9.80469 ], [ 28.687836, -9.789569 ], [ 28.673215, -9.776729 ], [ 28.668565, -9.75739 ], [ 28.636508, -9.748342 ], [ 28.624104, -9.729309 ], [ 28.623219, -9.72008 ], [ 28.62899, -9.705375 ], [ 28.629039, -9.66674 ], [ 28.626052, -9.654793 ], [ 28.612327, -9.632137 ], [ 28.61528, -9.603721 ], [ 28.602097, -9.587282 ], [ 28.586958, -9.579506 ], [ 28.595651, -9.57377 ], [ 28.609184, -9.572463 ], [ 28.618846, -9.56804 ], [ 28.622236, -9.556125 ], [ 28.615413, -9.553508 ], [ 28.590756, -9.563559 ], [ 28.578503, -9.557852 ], [ 28.574039, -9.546545 ], [ 28.56945, -9.490894 ], [ 28.560789, -9.481688 ], [ 28.539515, -9.476569 ], [ 28.536075, -9.469551 ], [ 28.532012, -9.458851 ], [ 28.520804, -9.450403 ], [ 28.515618, -9.442087 ], [ 28.515202, -9.433329 ], [ 28.520781, -9.414038 ], [ 28.531115, -9.395567 ], [ 28.533649, -9.382327 ], [ 28.528039, -9.363264 ], [ 28.511863, -9.340096 ], [ 28.496644, -9.326974 ], [ 28.452659, -9.308583 ], [ 28.411721, -9.28767 ], [ 28.387566, -9.270327 ], [ 28.384528, -9.258523 ], [ 28.394562, -9.244675 ], [ 28.417577, -9.222264 ], [ 28.482282, -9.171522 ], [ 28.616703, -9.087299 ], [ 28.64739, -9.071271 ], [ 28.695568, -9.034208 ], [ 28.699549, -9.030255 ], [ 28.72721, -9.002787 ], [ 28.747505, -8.982632 ], [ 28.864199, -8.842351 ], [ 28.926041, -8.74447 ], [ 28.941299, -8.714319 ], [ 28.956958, -8.657243 ], [ 28.957322, -8.653324 ], [ 28.960243, -8.621873 ], [ 28.960189, -8.574015 ], [ 28.972243, -8.551618 ], [ 28.980937, -8.52952 ], [ 28.993957, -8.496426 ], [ 29.003349, -8.459734 ], [ 29.594735, -8.376507 ], [ 29.624844, -8.381151 ], [ 29.62916, -8.381817 ], [ 29.637847, -8.400403 ], [ 29.652232, -8.400025 ], [ 29.669343, -8.397232 ], [ 29.68513, -8.390367 ], [ 29.699095, -8.390294 ], [ 29.715731, -8.372767 ], [ 29.740516, -8.355559 ], [ 29.860588, -8.341138 ], [ 29.999631, -8.316772 ], [ 30.122306, -8.312435 ], [ 30.240272, -8.296387 ], [ 30.367586, -8.281142 ], [ 30.438836, -8.268771 ], [ 30.450597, -8.269307 ], [ 30.54407, -8.255502 ], [ 30.580844, -8.274352 ], [ 30.771242, -8.192248 ], [ 30.776671, -8.229758 ], [ 30.811514, -8.316122 ], [ 30.878432, -8.408624 ], [ 31.003788, -8.568073 ], [ 31.031544, -8.594092 ], [ 31.080035, -8.622264 ], [ 31.102724, -8.629765 ], [ 31.135518, -8.632511 ], [ 31.150683, -8.630157 ], [ 31.178851, -8.611163 ], [ 31.190375, -8.596282 ], [ 31.212102, -8.588267 ], [ 31.225596, -8.589789 ], [ 31.237254, -8.597744 ], [ 31.252108, -8.601667 ], [ 31.267059, -8.624145 ], [ 31.277736, -8.630388 ], [ 31.291238, -8.629529 ], [ 31.316605, -8.610481 ], [ 31.32827, -8.615798 ], [ 31.336396, -8.613466 ], [ 31.350334, -8.614592 ], [ 31.362375, -8.605406 ], [ 31.364668, -8.590876 ], [ 31.372432, -8.589088 ], [ 31.401765, -8.6322 ], [ 31.416664, -8.638116 ], [ 31.457093, -8.640978 ], [ 31.471224, -8.65351 ], [ 31.489698, -8.681982 ], [ 31.534737, -8.683754 ], [ 31.551181, -8.690738 ], [ 31.562805, -8.701749 ], [ 31.581475, -8.747596 ], [ 31.57898, -8.784128 ], [ 31.571522, -8.808324 ], [ 31.579949, -8.829597 ], [ 31.586715, -8.839259 ], [ 31.611036, -8.857476 ], [ 31.657491, -8.880588 ], [ 31.680438, -8.90986 ], [ 31.705121, -8.916485 ], [ 31.724741, -8.915878 ], [ 31.73645, -8.920613 ], [ 31.74798, -8.914828 ], [ 31.758682, -8.902223 ], [ 31.771642, -8.893882 ], [ 31.784966, -8.890679 ], [ 31.817295, -8.890461 ], [ 31.894425, -8.913272 ], [ 31.944348, -8.936091 ], [ 31.946144, -8.942707 ], [ 31.93221, -8.980834 ], [ 31.938234, -9.005981 ], [ 31.938022, -9.018168 ], [ 31.953651, -9.037338 ], [ 31.962559, -9.053317 ], [ 31.981567, -9.068881 ], [ 31.984886, -9.071126 ], [ 31.998371, -9.075099 ], [ 32.012901, -9.068881 ], [ 32.018934, -9.061409 ], [ 32.061951, -9.051449 ], [ 32.091864, -9.051708 ], [ 32.122744, -9.060726 ], [ 32.143513, -9.063395 ], [ 32.160526, -9.062232 ], [ 32.166064, -9.068881 ], [ 32.171173, -9.075014 ], [ 32.207001, -9.102463 ], [ 32.226327, -9.111787 ], [ 32.242316, -9.124121 ], [ 32.266003, -9.133124 ], [ 32.358898, -9.12971 ], [ 32.431421, -9.118927 ], [ 32.447075, -9.131382 ], [ 32.464834, -9.13559 ], [ 32.492017, -9.152344 ], [ 32.487855, -9.173958 ], [ 32.534439, -9.238347 ], [ 32.541571, -9.25393 ], [ 32.57358, -9.246739 ], [ 32.585491, -9.246617 ], [ 32.617133, -9.25715 ], [ 32.648658, -9.27268 ], [ 32.662842, -9.274724 ], [ 32.710082, -9.27275 ], [ 32.745695, -9.281487 ], [ 32.760538, -9.296232 ], [ 32.769187, -9.317431 ], [ 32.783888, -9.318953 ], [ 32.790714, -9.322403 ], [ 32.799871, -9.328964 ], [ 32.810415, -9.343165 ], [ 32.826963, -9.353767 ], [ 32.865704, -9.373177 ], [ 32.891272, -9.366417 ], [ 32.893199, -9.383463 ], [ 32.896825, -9.389026 ], [ 32.90383, -9.389697 ], [ 32.911358, -9.380109 ], [ 32.926813, -9.397664 ], [ 32.95351, -9.40145 ], [ 32.953163, -9.4043 ], [ 32.94717, -9.41181 ], [ 32.943609, -9.425782 ], [ 32.946622, -9.469551 ], [ 32.947855, -9.485072 ], [ 32.95206, -9.489288 ], [ 32.975384, -9.481874 ], [ 32.989939, -9.492326 ], [ 33.015118, -9.497403 ], [ 33.022665, -9.501975 ], [ 33.02708, -9.510621 ], [ 33.0279, -9.525814 ], [ 33.011706, -9.557264 ], [ 33.011617, -9.574776 ], [ 33.004277, -9.601093 ], [ 33.003098, -9.615159 ], [ 33.007336, -9.641454 ], [ 33.030483, -9.649962 ], [ 33.038797, -9.647593 ], [ 33.050781, -9.633291 ], [ 33.060374, -9.633842 ], [ 33.08169, -9.664092 ], [ 33.087117, -9.680105 ], [ 33.098009, -9.686887 ], [ 33.101381, -9.684618 ], [ 33.110246, -9.662201 ], [ 33.111611, -9.649056 ], [ 33.117757, -9.64532 ], [ 33.109354, -9.631828 ], [ 33.108776, -9.624441 ], [ 33.113136, -9.610445 ], [ 33.120944, -9.601854 ], [ 33.125623, -9.602307 ], [ 33.134394, -9.610552 ], [ 33.154114, -9.613549 ], [ 33.180021, -9.605183 ], [ 33.194247, -9.605671 ], [ 33.213405, -9.621069 ], [ 33.219457, -9.64179 ], [ 33.226876, -9.655035 ], [ 33.2244, -9.685524 ], [ 33.227162, -9.718175 ], [ 33.236701, -9.731715 ], [ 33.262444, -9.753755 ], [ 33.270648, -9.765332 ], [ 33.279562, -9.798833 ], [ 33.284783, -9.806559 ], [ 33.289687, -9.809567 ], [ 33.30072, -9.809642 ], [ 33.311151, -9.816095 ], [ 33.338046, -9.823265 ], [ 33.346776, -9.829128 ], [ 33.367597, -9.860398 ], [ 33.370979, -9.883026 ], [ 33.380896, -9.905706 ], [ 33.377243, -9.918225 ], [ 33.365693, -9.926251 ], [ 33.348174, -9.946559 ], [ 33.344592, -9.972071 ], [ 33.318979, -10.045003 ], [ 33.319617, -10.065239 ], [ 33.339138, -10.088032 ], [ 33.350915, -10.091788 ], [ 33.363773, -10.101959 ], [ 33.385275, -10.105738 ], [ 33.419445, -10.125853 ], [ 33.437261, -10.149361 ], [ 33.458817, -10.170535 ], [ 33.493818, -10.178973 ], [ 33.51922, -10.207637 ], [ 33.537248, -10.213806 ], [ 33.559086, -10.22679 ], [ 33.562545, -10.238191 ], [ 33.550984, -10.265896 ], [ 33.548117, -10.292649 ], [ 33.538412, -10.30561 ], [ 33.538758, -10.317751 ], [ 33.535517, -10.328905 ], [ 33.549304, -10.350155 ], [ 33.549067, -10.373325 ], [ 33.556232, -10.382533 ], [ 33.563742, -10.405823 ], [ 33.577513, -10.428873 ], [ 33.589021, -10.43816 ], [ 33.619519, -10.450556 ], [ 33.630268, -10.476399 ], [ 33.622404, -10.494926 ], [ 33.625354, -10.498764 ], [ 33.636114, -10.500544 ], [ 33.648273, -10.520957 ], [ 33.66905, -10.53168 ], [ 33.678392, -10.552738 ], [ 33.679224, -10.559507 ], [ 33.681179, -10.575402 ], [ 33.687413, -10.577184 ], [ 33.703097, -10.57054 ], [ 33.705254, -10.572448 ], [ 33.701286, -10.584983 ], [ 33.688265, -10.597842 ], [ 33.683476, -10.607036 ], [ 33.679224, -10.61022 ], [ 33.664474, -10.621264 ], [ 33.647858, -10.628761 ], [ 33.624348, -10.658275 ], [ 33.616052, -10.66022 ], [ 33.602841, -10.657382 ], [ 33.598112, -10.6603 ], [ 33.570298, -10.70325 ], [ 33.559615, -10.714263 ], [ 33.549413, -10.732818 ], [ 33.544768, -10.73607 ], [ 33.532642, -10.736316 ], [ 33.531984, -10.763067 ], [ 33.517262, -10.77677 ], [ 33.496963, -10.790215 ], [ 33.479755, -10.796434 ], [ 33.460308, -10.816033 ], [ 33.452541, -10.820171 ], [ 33.441892, -10.82036 ], [ 33.413597, -10.812883 ], [ 33.39455, -10.812139 ], [ 33.388284, -10.813304 ], [ 33.376312, -10.823792 ], [ 33.364828, -10.828627 ], [ 33.335275, -10.829063 ], [ 33.310722, -10.869208 ], [ 33.288064, -10.875465 ], [ 33.281016, -10.866586 ], [ 33.268386, -10.867876 ], [ 33.246558, -10.892582 ], [ 33.253492, -10.90764 ], [ 33.262713, -10.903491 ], [ 33.270902, -10.905238 ], [ 33.276442, -10.900144 ], [ 33.280268, -10.900996 ], [ 33.298291, -10.919782 ], [ 33.310127, -10.937155 ], [ 33.312789, -10.945338 ], [ 33.308148, -10.992678 ], [ 33.31998, -11.0429 ], [ 33.328935, -11.053619 ], [ 33.332665, -11.068058 ], [ 33.366887, -11.101598 ], [ 33.375503, -11.11823 ], [ 33.372563, -11.130388 ], [ 33.376025, -11.141289 ], [ 33.379596, -11.144644 ], [ 33.392326, -11.143533 ], [ 33.401566, -11.147417 ], [ 33.405801, -11.158663 ], [ 33.400732, -11.175228 ], [ 33.393775, -11.186728 ], [ 33.391905, -11.202961 ], [ 33.38105, -11.23177 ], [ 33.359777, -11.253666 ], [ 33.347079, -11.288026 ], [ 33.343037, -11.294714 ], [ 33.337324, -11.304163 ], [ 33.308687, -11.332987 ], [ 33.308602, -11.34143 ], [ 33.316957, -11.355514 ], [ 33.316991, -11.361992 ], [ 33.310148, -11.367858 ], [ 33.290468, -11.368554 ], [ 33.284028, -11.376495 ], [ 33.284073, -11.384398 ], [ 33.292064, -11.399048 ], [ 33.293327, -11.42069 ], [ 33.288684, -11.431296 ], [ 33.281585, -11.435874 ], [ 33.272677, -11.433804 ], [ 33.251661, -11.415524 ], [ 33.247813, -11.405826 ], [ 33.241096, -11.401797 ], [ 33.23262, -11.409637 ], [ 33.227493, -11.424399 ], [ 33.228335, -11.432813 ], [ 33.246617, -11.460425 ], [ 33.247552, -11.470817 ], [ 33.241749, -11.492153 ], [ 33.250715, -11.503049 ], [ 33.252086, -11.511591 ], [ 33.24819, -11.528574 ], [ 33.235665, -11.539981 ], [ 33.225149, -11.554521 ], [ 33.224574, -11.587547 ], [ 33.240704, -11.586429 ], [ 33.260386, -11.578341 ], [ 33.278024, -11.582523 ], [ 33.28581, -11.577002 ], [ 33.293703, -11.586155 ], [ 33.306182, -11.591303 ], [ 33.311071, -11.596185 ], [ 33.313706, -11.609852 ], [ 33.317465, -11.629353 ], [ 33.315232, -11.722328 ], [ 33.3231, -11.756614 ], [ 33.323223, -11.769354 ], [ 33.333563, -11.801385 ], [ 33.329148, -11.82116 ], [ 33.31415, -11.843021 ], [ 33.305319, -11.862049 ], [ 33.307121, -11.87221 ], [ 33.317444, -11.884966 ], [ 33.323028, -11.899575 ], [ 33.322264, -11.92118 ], [ 33.310606, -11.955493 ], [ 33.308499, -12.000515 ], [ 33.27816, -12.061631 ], [ 33.261086, -12.117735 ], [ 33.261251, -12.140435 ], [ 33.265583, -12.149916 ], [ 33.27206, -12.154846 ], [ 33.303998, -12.161536 ], [ 33.308485, -12.165681 ], [ 33.311438, -12.205037 ], [ 33.307791, -12.23166 ], [ 33.31009, -12.245955 ], [ 33.317352, -12.254721 ], [ 33.32797, -12.257969 ], [ 33.336039, -12.285707 ], [ 33.357621, -12.30773 ], [ 33.363017, -12.320046 ], [ 33.366962, -12.347681 ], [ 33.393503, -12.33997 ], [ 33.424951, -12.340493 ], [ 33.457117, -12.322651 ], [ 33.475496, -12.323225 ], [ 33.485571, -12.331914 ], [ 33.501814, -12.334763 ], [ 33.5129, -12.341955 ], [ 33.530105, -12.332056 ], [ 33.541385, -12.342729 ], [ 33.547723, -12.357666 ], [ 33.543865, -12.371389 ], [ 33.510131, -12.393191 ], [ 33.497883, -12.407909 ], [ 33.476899, -12.414425 ], [ 33.472468, -12.421573 ], [ 33.477194, -12.453273 ], [ 33.470652, -12.459719 ], [ 33.457457, -12.460931 ], [ 33.433327, -12.47799 ], [ 33.416706, -12.500788 ], [ 33.414053, -12.515518 ], [ 33.409779, -12.520894 ], [ 33.393668, -12.528364 ], [ 33.370682, -12.548672 ], [ 33.360963, -12.552744 ], [ 33.3388, -12.544893 ], [ 33.326766, -12.53257 ], [ 33.315441, -12.526447 ], [ 33.293423, -12.534444 ], [ 33.268331, -12.538477 ], [ 33.262831, -12.542391 ], [ 33.261699, -12.553932 ], [ 33.232723, -12.591719 ], [ 33.208955, -12.602753 ], [ 33.201715, -12.608751 ], [ 33.19269, -12.632994 ], [ 33.183354, -12.640701 ], [ 33.177226, -12.641419 ], [ 33.174725, -12.637758 ], [ 33.177365, -12.610726 ], [ 33.168331, -12.601552 ], [ 33.153322, -12.595975 ], [ 33.130357, -12.598674 ], [ 33.1158, -12.610473 ], [ 33.108401, -12.611875 ], [ 33.100083, -12.608038 ], [ 33.091028, -12.596565 ], [ 33.086627, -12.594711 ], [ 33.055762, -12.612297 ], [ 33.040197, -12.627568 ], [ 33.02679, -12.65027 ], [ 33.015325, -12.657837 ], [ 33.006514, -12.701054 ], [ 32.989939, -12.724564 ], [ 32.974839, -12.740588 ], [ 32.963755, -12.748842 ], [ 32.960407, -12.756133 ], [ 32.958068, -12.779496 ], [ 32.956009, -12.833477 ], [ 32.957341, -12.842542 ], [ 32.960857, -12.846577 ], [ 32.970821, -12.854433 ], [ 32.980236, -12.85966 ], [ 32.989939, -12.869312 ], [ 33.000395, -12.879713 ], [ 33.015671, -12.887341 ], [ 33.020204, -12.893928 ], [ 33.022067, -12.90314 ], [ 33.025934, -12.910767 ], [ 33.024939, -12.916624 ], [ 33.017379, -12.935487 ], [ 33.017464, -12.945923 ], [ 33.012443, -12.963337 ], [ 33.011144, -12.98027 ], [ 33.012175, -12.988471 ], [ 33.007943, -12.9964 ], [ 32.99943, -13.004859 ], [ 32.987583, -13.02777 ], [ 32.988407, -13.034416 ], [ 32.995043, -13.043875 ], [ 32.995899, -13.054165 ], [ 32.980078, -13.076217 ], [ 32.979911, -13.098807 ], [ 32.974781, -13.110856 ], [ 32.97458, -13.121832 ], [ 32.980817, -13.156164 ], [ 33.005429, -13.184407 ], [ 33.015313, -13.210828 ], [ 33.005757, -13.218775 ], [ 32.983174, -13.22875 ], [ 32.969342, -13.25688 ], [ 32.955266, -13.260952 ], [ 32.945845, -13.273521 ], [ 32.923651, -13.352022 ], [ 32.922201, -13.385139 ], [ 32.913754, -13.40996 ], [ 32.882198, -13.455126 ], [ 32.87401, -13.458098 ], [ 32.850796, -13.456805 ], [ 32.845021, -13.460025 ], [ 32.843557, -13.485284 ], [ 32.846381, -13.506568 ], [ 32.841661, -13.516108 ], [ 32.823083, -13.530758 ], [ 32.80339, -13.537305 ], [ 32.790608, -13.547624 ], [ 32.765867, -13.551973 ], [ 32.746051, -13.578107 ], [ 32.730121, -13.577863 ], [ 32.705391, -13.565495 ], [ 32.693306, -13.566003 ], [ 32.689037, -13.573548 ], [ 32.682217, -13.578306 ], [ 32.683396, -13.595217 ], [ 32.675472, -13.609853 ], [ 32.683954, -13.619718 ], [ 32.72794, -13.639713 ], [ 32.751899, -13.644069 ], [ 32.76176, -13.637385 ], [ 32.774065, -13.636264 ], [ 32.786271, -13.640789 ], [ 32.795749, -13.649532 ], [ 32.80136, -13.66875 ], [ 32.827579, -13.689737 ], [ 32.840682, -13.706338 ], [ 32.842646, -13.713189 ], [ 32.831895, -13.722361 ], [ 32.817145, -13.722747 ], [ 32.810257, -13.725938 ], [ 32.796023, -13.744603 ], [ 32.782491, -13.749616 ], [ 32.772787, -13.773486 ], [ 32.789897, -13.777693 ], [ 32.807217, -13.795512 ], [ 32.810834, -13.794147 ], [ 32.818303, -13.781005 ], [ 32.834105, -13.782966 ], [ 32.848303, -13.792279 ], [ 32.859704, -13.792346 ], [ 32.863986, -13.801375 ], [ 32.873862, -13.803027 ], [ 32.89082, -13.816737 ], [ 32.894891, -13.823709 ], [ 32.897567, -13.839673 ], [ 32.903157, -13.849242 ], [ 32.937596, -13.876024 ], [ 32.950447, -13.900231 ], [ 32.944104, -13.925349 ], [ 32.946994, -13.933795 ], [ 32.952016, -13.9362 ], [ 32.975159, -13.935797 ], [ 32.989666, -13.941172 ], [ 32.99999, -13.949662 ], [ 33.002932, -13.962425 ], [ 32.992359, -13.984343 ], [ 32.990334, -13.99987 ], [ 32.991966, -14.012487 ], [ 33.000247, -14.022853 ], [ 33.012737, -14.029374 ], [ 33.028714, -14.045002 ], [ 33.036756, -14.048513 ], [ 33.041739, -14.047554 ], [ 33.061485, -14.025943 ], [ 33.069791, -13.991147 ], [ 33.080068, -13.978461 ], [ 33.104572, -13.96096 ], [ 33.129758, -13.958193 ], [ 33.14161, -13.939749 ], [ 33.14696, -13.936562 ], [ 33.155569, -13.937259 ], [ 33.182027, -13.95404 ], [ 33.188314, -13.965791 ], [ 33.190292, -13.979467 ], [ 33.197654, -13.991141 ], [ 33.242222, -13.998521 ], [ 33.206722, -14.00444 ], [ 33.08854, -14.044424 ], [ 32.989499, -14.082489 ], [ 32.613031, -14.213702 ], [ 32.450682, -14.282647 ], [ 32.395722, -14.294387 ], [ 32.321182, -14.305738 ], [ 32.243522, -14.322863 ], [ 32.100972, -14.369058 ], [ 32.056154, -14.388431 ], [ 31.978735, -14.40383 ], [ 31.947814, -14.41297 ], [ 31.894425, -14.438577 ], [ 31.814747, -14.476786 ], [ 31.681648, -14.507517 ], [ 31.536147, -14.588166 ], [ 31.473341, -14.619452 ], [ 31.326328, -14.649668 ], [ 31.264275, -14.659507 ], [ 31.247767, -14.663979 ], [ 31.191362, -14.679259 ], [ 31.181715, -14.684664 ], [ 31.110166, -14.707329 ], [ 31.08057, -14.716703 ], [ 31.070699, -14.716808 ], [ 31.039771, -14.726733 ], [ 31.030245, -14.727955 ], [ 31.02102, -14.729139 ], [ 30.79877, -14.783848 ], [ 30.663538, -14.836623 ], [ 30.627579, -14.847604 ], [ 30.552062, -14.877907 ], [ 30.517182, -14.888351 ], [ 30.366177, -14.959117 ], [ 30.337, -14.964325 ], [ 30.321465, -14.970243 ], [ 30.240272, -14.989819 ], [ 30.218214, -14.998324 ], [ 30.233845, -15.038122 ], [ 30.22138, -15.060614 ], [ 30.224022, -15.074441 ], [ 30.221288, -15.094291 ], [ 30.232803, -15.114785 ], [ 30.230376, -15.138488 ], [ 30.240272, -15.148778 ], [ 30.245327, -15.154943 ], [ 30.24808, -15.166589 ], [ 30.25725, -15.180811 ], [ 30.259807, -15.194567 ], [ 30.256328, -15.206823 ], [ 30.256019, -15.214291 ], [ 30.265927, -15.225028 ], [ 30.279666, -15.251142 ], [ 30.318117, -15.278892 ], [ 30.327165, -15.292365 ], [ 30.34022, -15.305498 ], [ 30.350242, -15.311144 ], [ 30.357033, -15.316809 ], [ 30.366862, -15.330122 ], [ 30.371167, -15.333598 ], [ 30.375689, -15.342517 ], [ 30.379569, -15.366709 ], [ 30.385664, -15.381383 ], [ 30.38171, -15.421489 ], [ 30.390417, -15.44862 ], [ 30.40132, -15.472847 ], [ 30.399748, -15.480536 ], [ 30.393884, -15.489041 ], [ 30.373319, -15.527062 ], [ 30.365549, -15.545255 ], [ 30.365834, -15.553197 ], [ 30.390075, -15.575612 ], [ 30.403405, -15.595471 ], [ 30.404491, -15.598129 ], [ 30.40825, -15.607326 ], [ 30.418259, -15.617569 ], [ 30.389845, -15.636855 ], [ 30.357336, -15.6498 ], [ 30.31848, -15.645171 ], [ 30.286842, -15.645283 ], [ 30.260268, -15.627251 ], [ 30.226359, -15.65515 ], [ 30.214151, -15.660603 ], [ 30.207313, -15.657914 ], [ 30.201246, -15.647554 ], [ 30.185482, -15.631794 ], [ 30.163516, -15.620462 ], [ 30.126441, -15.620037 ], [ 30.097234, -15.626272 ], [ 30.058958, -15.627523 ], [ 30.030999, -15.63384 ], [ 29.968274, -15.641819 ], [ 29.931606, -15.62298 ], [ 29.903576, -15.622175 ], [ 29.874342, -15.612147 ], [ 29.823553, -15.609007 ], [ 29.797275, -15.610581 ], [ 29.77801, -15.614761 ], [ 29.715773, -15.641668 ], [ 29.630707, -15.661022 ], [ 29.624844, -15.6608 ], [ 29.609867, -15.660233 ], [ 29.578868, -15.643049 ], [ 29.559336, -15.64218 ], [ 29.542606, -15.648097 ], [ 29.515021, -15.676845 ], [ 29.502144, -15.684003 ], [ 29.430725, -15.690116 ], [ 29.420198, -15.694079 ], [ 29.397047, -15.711774 ], [ 29.359556, -15.71116 ], [ 29.347525, -15.71621 ], [ 29.330818, -15.728284 ], [ 29.305673, -15.73556 ], [ 29.266561, -15.757879 ], [ 29.245267, -15.763655 ], [ 29.227417, -15.764325 ], [ 29.217747, -15.768721 ], [ 29.191894, -15.793373 ], [ 29.065579, -15.879942 ], [ 29.044831, -15.905214 ], [ 29.033506, -15.927383 ], [ 29.020555, -15.939093 ], [ 29.013234, -15.941146 ], [ 28.987105, -15.938246 ], [ 28.935799, -15.939669 ], [ 28.914317, -15.94629 ], [ 28.882382, -16.004596 ], [ 28.861858, -16.035698 ], [ 28.84529, -16.054679 ], [ 28.846776, -16.060483 ], [ 28.856844, -16.070973 ], [ 28.849725, -16.084382 ], [ 28.848332, -16.098472 ], [ 28.850678, -16.104866 ], [ 28.859255, -16.11342 ], [ 28.861994, -16.122627 ], [ 28.841823, -16.164693 ], [ 28.841009, -16.195095 ], [ 28.83548, -16.223236 ], [ 28.838926, -16.235193 ], [ 28.854853, -16.243425 ], [ 28.857799, -16.252294 ], [ 28.853298, -16.263367 ], [ 28.829168, -16.292591 ], [ 28.822529, -16.31983 ], [ 28.826825, -16.328226 ], [ 28.841936, -16.336975 ], [ 28.841059, -16.361321 ], [ 28.847812, -16.37807 ], [ 28.83901, -16.413108 ], [ 28.820099, -16.440634 ], [ 28.818735, -16.480042 ], [ 28.803195, -16.501684 ], [ 28.781294, -16.514349 ], [ 28.762521, -16.53117 ], [ 28.748897, -16.538215 ], [ 28.732198, -16.555113 ], [ 28.639424, -16.572363 ], [ 28.272184, -16.716954 ], [ 28.134535, -16.82465 ], [ 27.83059, -16.962744 ], [ 27.634313, -17.240655 ], [ 27.627694, -17.258367 ], [ 27.617554, -17.336073 ], [ 27.608553, -17.352094 ], [ 27.54456, -17.423152 ], [ 27.311493, -17.599548 ], [ 27.215676, -17.72505 ], [ 27.148368, -17.800768 ], [ 27.144548, -17.812551 ], [ 27.149178, -17.836598 ], [ 27.14747, -17.849768 ], [ 27.088108, -17.898426 ], [ 27.038748, -17.962414 ], [ 27.009562, -17.954806 ], [ 26.981495, -17.967259 ], [ 26.955989, -17.966905 ], [ 26.894491, -17.987565 ], [ 26.877943, -17.986725 ], [ 26.860216, -17.993021 ], [ 26.832952, -17.98866 ], [ 26.827821, -17.994374 ], [ 26.823258, -18.012027 ], [ 26.795695, -18.025729 ], [ 26.772375, -18.022103 ], [ 26.744252, -18.029645 ], [ 26.731282, -18.037748 ], [ 26.688643, -18.078244 ], [ 26.676184, -18.074691 ], [ 26.651479, -18.062031 ], [ 26.621688, -18.060913 ], [ 26.605013, -18.053517 ], [ 26.596584, -18.030439 ], [ 26.578746, -18.019626 ], [ 26.570237, -17.998593 ], [ 26.562056, -17.991432 ], [ 26.51518, -17.987396 ], [ 26.50103, -17.980149 ], [ 26.485892, -17.9774 ], [ 26.476074, -17.970306 ], [ 26.456157, -17.967252 ], [ 26.439522, -17.956274 ], [ 26.424755, -17.952051 ], [ 26.407725, -17.940272 ], [ 26.380453, -17.941999 ], [ 26.349179, -17.932679 ], [ 26.333649, -17.936346 ], [ 26.320163, -17.934782 ], [ 26.309885, -17.936893 ], [ 26.288875, -17.920252 ], [ 26.250276, -17.921284 ], [ 26.226154, -17.902984 ], [ 26.223874, -17.889786 ], [ 26.216134, -17.891511 ], [ 26.207974, -17.89333 ], [ 26.171248, -17.91219 ], [ 26.145919, -17.916013 ], [ 26.1275, -17.925366 ], [ 26.101932, -17.932986 ], [ 26.096101, -17.942914 ], [ 26.103434, -17.955508 ], [ 26.090163, -17.983054 ], [ 26.07384, -17.979807 ], [ 26.060873, -17.980686 ], [ 26.04838, -17.975836 ], [ 26.033076, -17.982352 ], [ 26.013927, -17.979115 ], [ 25.99458, -17.987658 ], [ 25.9868, -18.000613 ], [ 25.972991, -18.005201 ], [ 25.960734, -17.999986 ], [ 25.93945, -17.997082 ], [ 25.918418, -17.999547 ], [ 25.907707, -17.989565 ], [ 25.885104, -17.984395 ], [ 25.876434, -17.977844 ], [ 25.866974, -17.975322 ], [ 25.861606, -17.96561 ], [ 25.861877, -17.954788 ], [ 25.849243, -17.94576 ], [ 25.850356, -17.93997 ], [ 25.858114, -17.929402 ], [ 25.841056, -17.894583 ], [ 25.829778, -17.889926 ], [ 25.802852, -17.886872 ], [ 25.793044, -17.874305 ], [ 25.767705, -17.85443 ], [ 25.748434, -17.850906 ], [ 25.720571, -17.839108 ], [ 25.707999, -17.838353 ], [ 25.703927, -17.821881 ], [ 25.699305, -17.816487 ], [ 25.673516, -17.818555 ], [ 25.654828, -17.835111 ], [ 25.628201, -17.846243 ], [ 25.609847, -17.846188 ], [ 25.595925, -17.852058 ], [ 25.584693, -17.847554 ], [ 25.572327, -17.847101 ], [ 25.562861, -17.843142 ], [ 25.554137, -17.84288 ], [ 25.544319, -17.849102 ], [ 25.531173, -17.866385 ], [ 25.514709, -17.870567 ], [ 25.481738, -17.851913 ], [ 25.457854, -17.847678 ], [ 25.440697, -17.853541 ], [ 25.426407, -17.848007 ], [ 25.393058, -17.852831 ], [ 25.382027, -17.854426 ], [ 25.365794, -17.840151 ], [ 25.34164, -17.841566 ], [ 25.312666, -17.825726 ], [ 25.301822, -17.823802 ], [ 25.27033, -17.79891 ], [ 25.270831, -17.793862 ], [ 25.268386, -17.790805 ], [ 25.262804, -17.791388 ], [ 25.226537, -17.768898 ], [ 25.195718, -17.769049 ], [ 25.188091, -17.766402 ], [ 25.172682, -17.74928 ], [ 25.15764, -17.742652 ], [ 25.155958, -17.73641 ], [ 25.160475, -17.725669 ], [ 25.157631, -17.715923 ], [ 25.148727, -17.705176 ], [ 25.134899, -17.709869 ], [ 25.131952, -17.694628 ], [ 25.121761, -17.693274 ], [ 25.10227, -17.708054 ], [ 25.095438, -17.707986 ], [ 25.094607, -17.702625 ], [ 25.100655, -17.695953 ], [ 25.107843, -17.679887 ], [ 25.104123, -17.667198 ], [ 25.085864, -17.658893 ], [ 25.081806, -17.641708 ], [ 25.067197, -17.630597 ], [ 25.064516, -17.615758 ], [ 25.056741, -17.615439 ], [ 25.052465, -17.629238 ], [ 25.047702, -17.630351 ], [ 25.043878, -17.627345 ], [ 25.042723, -17.619821 ], [ 25.050811, -17.601106 ], [ 25.046385, -17.590071 ], [ 25.027124, -17.584953 ], [ 25.020544, -17.594165 ], [ 25.00654, -17.596894 ], [ 24.99473, -17.586994 ], [ 24.986988, -17.562496 ], [ 24.980703, -17.555197 ], [ 24.974211, -17.554182 ], [ 24.958808, -17.565413 ], [ 24.944371, -17.566715 ], [ 24.942061, -17.562452 ], [ 24.945381, -17.55212 ], [ 24.943238, -17.548836 ], [ 24.939088, -17.547616 ], [ 24.914981, -17.553735 ], [ 24.905011, -17.553065 ], [ 24.879265, -17.527224 ], [ 24.854071, -17.529327 ], [ 24.828003, -17.520465 ], [ 24.799307, -17.53664 ], [ 24.790395, -17.533038 ], [ 24.785705, -17.514952 ], [ 24.780494, -17.509122 ], [ 24.762168, -17.51747 ], [ 24.751878, -17.513047 ], [ 24.741616, -17.510205 ], [ 24.729083, -17.500997 ], [ 24.703809, -17.497353 ], [ 24.691376, -17.501186 ], [ 24.678511, -17.501278 ], [ 24.665472, -17.51029 ], [ 24.649697, -17.511654 ], [ 24.644219, -17.518925 ], [ 24.63402, -17.513774 ], [ 24.625985, -17.513331 ], [ 24.620578, -17.517405 ], [ 24.615514, -17.529968 ], [ 24.608741, -17.534232 ], [ 24.587374, -17.533765 ], [ 24.56285, -17.538556 ], [ 24.552907, -17.532385 ], [ 24.546185, -17.509681 ], [ 24.534613, -17.508534 ], [ 24.521375, -17.514364 ], [ 24.509863, -17.511674 ], [ 24.473039, -17.485836 ], [ 24.454439, -17.479735 ], [ 24.431794, -17.479327 ], [ 24.388331, -17.469317 ], [ 24.328557, -17.491686 ], [ 24.311421, -17.486014 ], [ 24.288203, -17.483876 ], [ 24.2788, -17.484402 ], [ 24.26988, -17.490558 ], [ 24.259696, -17.486306 ], [ 24.246726, -17.473165 ], [ 23.925816, -17.53655 ], [ 23.466922, -17.62715 ], [ 23.42989, -17.634459 ] ] ] ] } }
]
}
