{
"type": "FeatureCollection",
"name": "Zimbabwe",
"crs": { "type": "name", "properties": { "name": "urn:ogc:def:crs:OGC:1.3:CRS84" } },
"features": [
{ "type": "Feature", "properties": { "id": "ZW", "CNTR_ID": "ZW", "CNTR_NAME": "Zimbabwe", "NAME_ENGL": "Zimbabwe", "ISO3_CODE": "ZWE", "FID": "ZW" }, "geometry": { "type": "MultiPolygon", "coordinates": [ [ [ [ 30.418259, -15.617569 ], [ 30.425193, -15.632288 ], [ 30.422383, -15.917316 ], [ 30.42584, -15.999574 ], [ 30.920711, -16.000098 ], [ 30.948875, -16.015854 ], [ 30.959291, -16.041103 ], [ 30.967126, -16.049729 ], [ 30.983514, -16.058623 ], [ 30.998759, -16.056385 ], [ 31.018864, -16.04512 ], [ 31.030245, -16.021488 ], [ 31.031312, -16.019271 ], [ 31.054343, -16.012354 ], [ 31.064168, -16.001372 ], [ 31.073887, -16.015116 ], [ 31.100945, -16.000992 ], [ 31.103953, -15.99496 ], [ 31.110166, -15.992824 ], [ 31.138208, -15.983184 ], [ 31.152603, -15.988493 ], [ 31.177426, -15.990775 ], [ 31.191701, -16.00414 ], [ 31.215841, -16.007163 ], [ 31.244632, -16.00064 ], [ 31.247767, -16.006481 ], [ 31.249155, -16.009067 ], [ 31.264275, -16.010053 ], [ 31.26795, -16.010292 ], [ 31.28413, -16.019941 ], [ 31.306761, -16.027252 ], [ 31.333953, -16.048695 ], [ 31.338695, -16.053673 ], [ 31.341941, -16.068177 ], [ 31.348328, -16.079165 ], [ 31.364007, -16.091465 ], [ 31.372687, -16.101227 ], [ 31.402258, -16.134482 ], [ 31.406497, -16.136409 ], [ 31.420708, -16.132941 ], [ 31.427191, -16.136375 ], [ 31.431059, -16.155599 ], [ 31.449183, -16.153689 ], [ 31.466607, -16.158599 ], [ 31.48125, -16.157481 ], [ 31.500888, -16.171169 ], [ 31.547292, -16.184568 ], [ 31.587437, -16.191046 ], [ 31.616072, -16.190003 ], [ 31.636142, -16.197123 ], [ 31.691536, -16.201907 ], [ 31.703429, -16.207207 ], [ 31.733367, -16.228205 ], [ 31.757496, -16.236586 ], [ 31.770817, -16.237511 ], [ 31.785308, -16.255489 ], [ 31.79758, -16.258873 ], [ 31.80283, -16.269294 ], [ 31.815558, -16.277436 ], [ 31.817725, -16.282475 ], [ 31.815695, -16.293758 ], [ 31.826771, -16.296054 ], [ 31.833359, -16.310345 ], [ 31.847161, -16.309487 ], [ 31.852702, -16.317501 ], [ 31.894425, -16.338169 ], [ 31.901618, -16.347968 ], [ 31.910013, -16.373775 ], [ 31.908346, -16.398714 ], [ 31.918414, -16.413887 ], [ 32.038211, -16.441929 ], [ 32.277571, -16.434668 ], [ 32.343471, -16.449388 ], [ 32.411557, -16.469569 ], [ 32.494062, -16.502141 ], [ 32.576739, -16.537261 ], [ 32.708495, -16.600258 ], [ 32.711987, -16.606462 ], [ 32.710327, -16.636224 ], [ 32.7038, -16.677061 ], [ 32.713896, -16.68729 ], [ 32.766542, -16.707884 ], [ 32.809338, -16.705819 ], [ 32.823938, -16.707915 ], [ 32.833114, -16.701338 ], [ 32.84051, -16.699812 ], [ 32.853055, -16.706897 ], [ 32.869446, -16.709463 ], [ 32.890756, -16.719299 ], [ 32.900824, -16.716237 ], [ 32.922399, -16.702217 ], [ 32.968344, -16.704686 ], [ 32.976447, -16.707665 ], [ 32.972014, -16.75176 ], [ 32.96673, -16.771751 ], [ 32.912227, -16.892774 ], [ 32.902533, -16.900121 ], [ 32.881239, -16.907744 ], [ 32.844103, -16.916553 ], [ 32.838096, -16.920049 ], [ 32.8366, -16.924504 ], [ 32.848658, -16.946694 ], [ 32.901158, -17.015697 ], [ 32.939315, -17.071702 ], [ 32.986499, -17.1806 ], [ 32.996061, -17.25956 ], [ 32.998367, -17.309139 ], [ 33.002494, -17.314503 ], [ 33.031953, -17.334095 ], [ 33.043249, -17.346744 ], [ 33.02026, -17.377413 ], [ 33.007337, -17.401252 ], [ 33.001719, -17.417501 ], [ 32.997162, -17.451271 ], [ 32.982785, -17.457791 ], [ 32.963334, -17.481379 ], [ 32.959812, -17.492747 ], [ 32.962831, -17.525606 ], [ 32.980952, -17.560701 ], [ 32.990292, -17.566349 ], [ 33.011561, -17.571181 ], [ 33.033628, -17.591239 ], [ 33.042513, -17.606946 ], [ 33.039721, -17.632387 ], [ 33.026125, -17.648769 ], [ 33.017275, -17.674775 ], [ 33.012571, -17.701735 ], [ 33.01808, -17.719734 ], [ 33.013057, -17.722314 ], [ 33.00489, -17.721093 ], [ 33.002363, -17.726017 ], [ 33.003957, -17.740478 ], [ 33.023524, -17.756055 ], [ 33.025324, -17.761851 ], [ 33.014989, -17.770362 ], [ 33.014682, -17.782582 ], [ 33.008619, -17.800656 ], [ 32.991489, -17.804523 ], [ 32.971045, -17.802809 ], [ 32.960948, -17.817689 ], [ 32.961229, -17.851773 ], [ 32.953459, -17.878012 ], [ 32.953938, -17.904166 ], [ 32.957926, -17.910658 ], [ 32.973541, -17.915333 ], [ 32.976237, -17.921597 ], [ 32.967608, -17.954988 ], [ 32.962209, -17.961313 ], [ 32.952474, -17.961071 ], [ 32.948184, -17.963601 ], [ 32.943391, -17.973895 ], [ 32.942455, -17.985765 ], [ 32.948342, -18.010109 ], [ 32.949515, -18.031663 ], [ 32.958062, -18.052259 ], [ 32.960396, -18.073681 ], [ 32.973252, -18.107344 ], [ 32.970604, -18.128661 ], [ 32.972616, -18.143273 ], [ 32.977142, -18.152438 ], [ 32.988881, -18.158553 ], [ 32.996962, -18.170187 ], [ 32.996881, -18.194542 ], [ 33.008391, -18.2339 ], [ 32.998237, -18.271626 ], [ 33.001893, -18.302031 ], [ 33.01296, -18.317276 ], [ 33.029716, -18.324525 ], [ 33.036198, -18.330279 ], [ 33.040159, -18.344175 ], [ 33.052327, -18.356504 ], [ 33.054028, -18.362138 ], [ 33.045965, -18.378981 ], [ 33.032221, -18.385307 ], [ 33.02336, -18.394173 ], [ 33.016872, -18.42819 ], [ 33.022176, -18.444279 ], [ 33.02249, -18.457849 ], [ 33.014749, -18.472673 ], [ 32.998007, -18.482498 ], [ 32.980091, -18.488681 ], [ 32.959641, -18.479491 ], [ 32.943936, -18.490481 ], [ 32.921818, -18.500546 ], [ 32.903822, -18.501137 ], [ 32.891127, -18.508569 ], [ 32.886929, -18.515858 ], [ 32.885753, -18.523539 ], [ 32.893814, -18.541773 ], [ 32.895236, -18.554699 ], [ 32.887913, -18.58037 ], [ 32.898766, -18.59209 ], [ 32.909169, -18.620437 ], [ 32.954075, -18.693267 ], [ 32.953403, -18.701606 ], [ 32.934605, -18.741458 ], [ 32.926782, -18.766968 ], [ 32.90967, -18.785821 ], [ 32.88931, -18.796189 ], [ 32.875113, -18.795773 ], [ 32.838866, -18.778479 ], [ 32.817759, -18.780304 ], [ 32.776125, -18.801041 ], [ 32.759101, -18.813432 ], [ 32.735252, -18.818211 ], [ 32.715189, -18.831491 ], [ 32.705442, -18.843509 ], [ 32.704883, -18.854031 ], [ 32.72294, -18.889001 ], [ 32.729907, -18.925093 ], [ 32.726057, -18.930041 ], [ 32.70444, -18.936162 ], [ 32.701129, -18.942781 ], [ 32.709886, -19.001617 ], [ 32.718836, -19.020995 ], [ 32.738041, -19.02836 ], [ 32.754739, -19.028875 ], [ 32.799768, -19.017482 ], [ 32.83475, -19.017955 ], [ 32.845919, -19.028434 ], [ 32.853429, -19.068407 ], [ 32.858455, -19.075983 ], [ 32.870879, -19.083319 ], [ 32.87687, -19.097955 ], [ 32.876901, -19.113148 ], [ 32.870513, -19.131962 ], [ 32.849451, -19.231227 ], [ 32.852228, -19.277457 ], [ 32.849917, -19.291337 ], [ 32.81047, -19.333595 ], [ 32.779703, -19.35871 ], [ 32.776432, -19.36683 ], [ 32.785014, -19.388725 ], [ 32.778731, -19.40975 ], [ 32.779869, -19.431141 ], [ 32.776859, -19.45292 ], [ 32.779826, -19.461944 ], [ 32.796789, -19.475651 ], [ 32.838383, -19.47652 ], [ 32.844474, -19.480066 ], [ 32.84063, -19.520378 ], [ 32.851271, -19.545619 ], [ 32.847816, -19.606416 ], [ 32.851792, -19.623923 ], [ 32.835518, -19.666788 ], [ 32.835967, -19.676659 ], [ 32.840234, -19.680991 ], [ 32.850379, -19.68414 ], [ 32.890445, -19.684215 ], [ 32.917764, -19.677981 ], [ 32.948176, -19.664701 ], [ 32.961435, -19.656106 ], [ 32.968585, -19.656073 ], [ 32.977519, -19.670953 ], [ 32.979884, -19.68699 ], [ 32.976637, -19.694071 ], [ 32.9581, -19.712268 ], [ 32.958809, -19.721768 ], [ 32.991914, -19.746575 ], [ 33.019831, -19.756596 ], [ 33.03918, -19.767776 ], [ 33.051993, -19.780999 ], [ 33.055336, -19.800248 ], [ 33.047993, -19.821009 ], [ 33.02461, -19.963805 ], [ 33.010817, -20.017279 ], [ 32.99688, -20.027455 ], [ 32.966175, -20.037829 ], [ 32.929018, -20.043778 ], [ 32.92053, -20.048638 ], [ 32.913471, -20.062569 ], [ 32.919902, -20.08782 ], [ 32.916526, -20.116106 ], [ 32.909139, -20.119279 ], [ 32.899968, -20.117482 ], [ 32.883595, -20.103789 ], [ 32.867516, -20.114956 ], [ 32.856369, -20.157375 ], [ 32.869502, -20.179087 ], [ 32.870491, -20.188916 ], [ 32.86626, -20.193824 ], [ 32.846668, -20.201739 ], [ 32.83994, -20.218149 ], [ 32.847156, -20.229151 ], [ 32.861482, -20.235877 ], [ 32.865466, -20.24043 ], [ 32.861594, -20.288927 ], [ 32.807152, -20.340102 ], [ 32.800456, -20.354431 ], [ 32.798199, -20.374203 ], [ 32.734306, -20.448427 ], [ 32.683557, -20.536222 ], [ 32.669623, -20.5537 ], [ 32.655892, -20.561128 ], [ 32.567455, -20.561682 ], [ 32.553697, -20.56838 ], [ 32.510872, -20.600495 ], [ 32.491367, -20.620481 ], [ 32.484941, -20.655091 ], [ 32.485487, -20.671856 ], [ 32.494503, -20.70138 ], [ 32.497873, -20.807038 ], [ 32.518024, -20.886291 ], [ 32.51663, -20.914135 ], [ 32.492932, -20.968485 ], [ 32.469896, -21.009514 ], [ 32.449151, -21.037495 ], [ 32.386964, -21.099977 ], [ 32.367517, -21.136517 ], [ 32.370899, -21.142504 ], [ 32.404927, -21.16915 ], [ 32.405447, -21.176455 ], [ 32.395589, -21.190785 ], [ 32.399091, -21.205249 ], [ 32.422562, -21.227965 ], [ 32.432198, -21.251832 ], [ 32.457425, -21.282299 ], [ 32.475195, -21.310094 ], [ 32.479753, -21.326301 ], [ 32.469277, -21.323909 ], [ 32.453497, -21.311507 ], [ 32.443611, -21.309649 ], [ 32.427137, -21.311542 ], [ 32.4124, -21.317637 ], [ 32.398481, -21.328979 ], [ 32.321922, -21.407386 ], [ 32.273224, -21.456798 ], [ 32.246829, -21.484405 ], [ 32.209098, -21.52387 ], [ 32.15974, -21.573292 ], [ 32.142633, -21.593014 ], [ 32.113367, -21.622455 ], [ 32.085396, -21.652076 ], [ 32.019986, -21.719633 ], [ 31.99773, -21.743308 ], [ 31.954864, -21.786868 ], [ 31.913859, -21.830023 ], [ 31.90382, -21.839879 ], [ 31.864896, -21.88131 ], [ 31.859264, -21.88443 ], [ 31.803699, -21.941634 ], [ 31.796278, -21.94751 ], [ 31.786221, -21.95911 ], [ 31.74136, -22.005648 ], [ 31.728123, -22.020068 ], [ 31.725291, -22.023152 ], [ 31.698491, -22.049475 ], [ 31.682791, -22.066609 ], [ 31.650309, -22.099388 ], [ 31.624738, -22.12569 ], [ 31.611331, -22.140759 ], [ 31.602797, -22.148699 ], [ 31.590308, -22.159554 ], [ 31.572211, -22.179735 ], [ 31.537548, -22.214629 ], [ 31.528662, -22.221109 ], [ 31.523067, -22.228845 ], [ 31.511311, -22.241272 ], [ 31.503979, -22.251465 ], [ 31.497689, -22.255603 ], [ 31.486717, -22.266592 ], [ 31.481424, -22.269606 ], [ 31.469745, -22.283733 ], [ 31.381513, -22.371764 ], [ 31.36875, -22.380942 ], [ 31.348963, -22.393816 ], [ 31.31127, -22.41774 ], [ 31.29349, -22.403811 ], [ 31.26956, -22.370121 ], [ 31.259532, -22.360715 ], [ 31.250676, -22.357962 ], [ 31.219401, -22.362586 ], [ 31.201833, -22.360181 ], [ 31.179671, -22.336737 ], [ 31.162575, -22.327835 ], [ 31.144905, -22.32709 ], [ 31.110166, -22.337253 ], [ 31.08728, -22.343949 ], [ 31.07723, -22.343824 ], [ 31.008367, -22.323644 ], [ 30.984575, -22.325877 ], [ 30.962386, -22.314012 ], [ 30.94968, -22.31209 ], [ 30.930351, -22.300312 ], [ 30.899616, -22.296907 ], [ 30.87893, -22.2991 ], [ 30.843553, -22.291111 ], [ 30.810168, -22.292742 ], [ 30.784526, -22.30023 ], [ 30.733819, -22.307284 ], [ 30.708961, -22.315013 ], [ 30.697636, -22.315124 ], [ 30.662074, -22.30851 ], [ 30.653445, -22.311925 ], [ 30.634227, -22.329171 ], [ 30.628915, -22.331032 ], [ 30.594988, -22.318683 ], [ 30.57054, -22.317623 ], [ 30.551176, -22.324171 ], [ 30.536275, -22.324436 ], [ 30.498105, -22.315297 ], [ 30.48442, -22.314485 ], [ 30.405786, -22.33998 ], [ 30.347285, -22.347054 ], [ 30.309722, -22.344766 ], [ 30.296894, -22.350212 ], [ 30.288097, -22.350686 ], [ 30.274275, -22.34446 ], [ 30.248632, -22.312591 ], [ 30.223948, -22.294399 ], [ 30.162812, -22.296959 ], [ 30.133978, -22.308704 ], [ 30.124736, -22.308248 ], [ 30.05672, -22.25723 ], [ 30.04559, -22.253464 ], [ 30.029645, -22.254846 ], [ 30.022039, -22.252251 ], [ 30.0092, -22.230015 ], [ 29.958779, -22.216697 ], [ 29.923118, -22.191931 ], [ 29.875813, -22.190254 ], [ 29.85431, -22.174747 ], [ 29.823281, -22.170772 ], [ 29.802426, -22.162365 ], [ 29.773087, -22.14417 ], [ 29.764103, -22.141378 ], [ 29.718137, -22.142374 ], [ 29.696819, -22.13732 ], [ 29.673601, -22.138508 ], [ 29.647623, -22.12718 ], [ 29.624844, -22.135865 ], [ 29.605569, -22.154137 ], [ 29.5987, -22.153447 ], [ 29.575532, -22.142737 ], [ 29.538082, -22.151984 ], [ 29.527131, -22.169602 ], [ 29.518185, -22.175688 ], [ 29.494615, -22.173197 ], [ 29.475724, -22.167993 ], [ 29.459619, -22.167705 ], [ 29.41991, -22.175914 ], [ 29.38076, -22.190774 ], [ 29.372521, -22.197318 ], [ 29.360779, -22.196627 ], [ 29.352723, -22.181857 ], [ 29.333841, -22.159932 ], [ 29.286697, -22.120774 ], [ 29.265035, -22.075807 ], [ 29.251885, -22.061627 ], [ 29.18635, -22.079324 ], [ 29.146349, -22.076705 ], [ 29.133683, -22.071959 ], [ 29.104863, -22.061051 ], [ 29.081929, -22.046973 ], [ 29.055475, -22.022857 ], [ 29.053519, -22.020068 ], [ 29.03625, -21.995442 ], [ 29.023731, -21.95725 ], [ 29.023849, -21.912826 ], [ 29.0268, -21.896403 ], [ 29.04015, -21.861952 ], [ 29.074675, -21.818878 ], [ 29.060326, -21.802487 ], [ 29.019641, -21.790084 ], [ 29.001812, -21.774772 ], [ 28.983593, -21.772407 ], [ 28.963099, -21.776198 ], [ 28.942215, -21.775544 ], [ 28.870541, -21.757956 ], [ 28.838831, -21.739228 ], [ 28.794974, -21.734546 ], [ 28.765083, -21.713421 ], [ 28.67586, -21.681158 ], [ 28.652914, -21.655918 ], [ 28.604363, -21.646128 ], [ 28.589531, -21.635106 ], [ 28.580725, -21.631812 ], [ 28.569728, -21.632072 ], [ 28.558584, -21.643993 ], [ 28.543641, -21.645691 ], [ 28.524864, -21.660076 ], [ 28.496267, -21.667545 ], [ 28.457991, -21.650018 ], [ 28.448114, -21.643096 ], [ 28.404355, -21.63428 ], [ 28.366963, -21.608724 ], [ 28.351465, -21.612858 ], [ 28.327381, -21.603427 ], [ 28.275029, -21.598125 ], [ 28.228025, -21.602907 ], [ 28.212755, -21.609069 ], [ 28.200968, -21.610256 ], [ 28.17563, -21.601969 ], [ 28.146162, -21.597128 ], [ 28.111872, -21.587227 ], [ 28.081417, -21.587621 ], [ 28.06291, -21.581701 ], [ 28.031832, -21.581315 ], [ 28.017097, -21.573368 ], [ 27.994946, -21.535922 ], [ 27.998117, -21.521817 ], [ 27.978163, -21.523598 ], [ 27.968425, -21.514513 ], [ 27.970409, -21.506358 ], [ 27.983503, -21.490489 ], [ 27.978882, -21.484144 ], [ 27.965196, -21.48123 ], [ 27.959944, -21.475819 ], [ 27.960646, -21.469083 ], [ 27.972417, -21.461364 ], [ 27.97334, -21.4529 ], [ 27.968476, -21.444044 ], [ 27.956067, -21.431681 ], [ 27.959328, -21.420915 ], [ 27.957545, -21.414117 ], [ 27.952999, -21.407386 ], [ 27.934407, -21.379854 ], [ 27.917703, -21.362578 ], [ 27.917664, -21.338293 ], [ 27.911388, -21.318627 ], [ 27.900026, -21.302926 ], [ 27.883295, -21.290355 ], [ 27.866554, -21.271424 ], [ 27.851634, -21.242273 ], [ 27.815954, -21.201041 ], [ 27.811755, -21.183497 ], [ 27.790691, -21.176874 ], [ 27.772202, -21.16036 ], [ 27.749638, -21.152161 ], [ 27.745391, -21.147739 ], [ 27.731171, -21.132934 ], [ 27.723787, -21.120299 ], [ 27.705492, -21.106083 ], [ 27.686852, -21.066238 ], [ 27.687852, -21.05937 ], [ 27.698999, -21.048683 ], [ 27.701522, -21.042012 ], [ 27.690773, -21.013673 ], [ 27.704451, -20.999646 ], [ 27.702496, -20.986353 ], [ 27.711014, -20.967591 ], [ 27.707253, -20.959691 ], [ 27.694057, -20.948431 ], [ 27.690177, -20.941686 ], [ 27.690993, -20.931837 ], [ 27.702151, -20.90981 ], [ 27.690629, -20.881003 ], [ 27.69794, -20.865822 ], [ 27.710599, -20.850686 ], [ 27.713296, -20.847461 ], [ 27.7217, -20.805708 ], [ 27.73026, -20.794115 ], [ 27.728009, -20.778835 ], [ 27.733796, -20.757203 ], [ 27.727043, -20.728378 ], [ 27.730104, -20.711049 ], [ 27.716668, -20.68868 ], [ 27.706425, -20.66252 ], [ 27.705186, -20.605991 ], [ 27.709297, -20.598064 ], [ 27.72093, -20.587171 ], [ 27.71995, -20.575288 ], [ 27.723849, -20.566628 ], [ 27.729631, -20.546468 ], [ 27.72717, -20.530574 ], [ 27.721328, -20.519027 ], [ 27.702798, -20.500147 ], [ 27.689834, -20.49219 ], [ 27.683122, -20.491091 ], [ 27.665022, -20.499623 ], [ 27.653514, -20.50194 ], [ 27.644862, -20.500543 ], [ 27.621052, -20.483333 ], [ 27.605214, -20.484261 ], [ 27.583952, -20.494279 ], [ 27.572737, -20.495138 ], [ 27.504593, -20.479074 ], [ 27.474553, -20.473698 ], [ 27.453681, -20.478326 ], [ 27.437787, -20.485618 ], [ 27.388797, -20.48472 ], [ 27.373648, -20.481729 ], [ 27.358648, -20.473971 ], [ 27.327047, -20.48957 ], [ 27.298496, -20.49971 ], [ 27.285859, -20.498155 ], [ 27.283937, -20.487406 ], [ 27.287216, -20.458425 ], [ 27.296329, -20.419005 ], [ 27.297642, -20.299869 ], [ 27.280591, -20.226259 ], [ 27.262322, -20.210097 ], [ 27.259717, -20.194167 ], [ 27.247585, -20.168536 ], [ 27.244444, -20.145816 ], [ 27.239738, -20.142231 ], [ 27.232956, -20.137064 ], [ 27.229525, -20.125903 ], [ 27.222605, -20.117648 ], [ 27.215166, -20.10112 ], [ 27.201854, -20.087568 ], [ 27.190765, -20.083926 ], [ 27.144119, -20.087953 ], [ 27.116227, -20.085976 ], [ 27.109281, -20.083008 ], [ 27.102037, -20.074143 ], [ 27.0857, -20.039927 ], [ 27.057065, -20.023338 ], [ 27.029966, -20.021628 ], [ 27.016018, -20.025294 ], [ 26.9934, -20.0205 ], [ 26.969036, -20.020098 ], [ 26.952511, -20.012357 ], [ 26.934969, -20.009333 ], [ 26.909179, -19.996923 ], [ 26.890158, -19.998545 ], [ 26.874535, -19.991716 ], [ 26.859196, -19.991119 ], [ 26.851393, -19.986801 ], [ 26.84463, -19.988256 ], [ 26.833908, -19.983894 ], [ 26.80737, -19.981427 ], [ 26.803138, -19.97681 ], [ 26.805732, -19.964464 ], [ 26.798902, -19.953302 ], [ 26.791837, -19.948417 ], [ 26.779745, -19.948428 ], [ 26.755929, -19.939625 ], [ 26.717514, -19.943139 ], [ 26.704702, -19.92124 ], [ 26.698945, -19.899477 ], [ 26.694184, -19.894724 ], [ 26.64458, -19.882446 ], [ 26.62229, -19.887909 ], [ 26.615858, -19.886473 ], [ 26.5842, -19.836963 ], [ 26.575256, -19.809556 ], [ 26.566795, -19.799549 ], [ 26.550467, -19.789201 ], [ 26.53654, -19.787486 ], [ 26.525749, -19.777358 ], [ 26.505926, -19.771447 ], [ 26.491115, -19.761177 ], [ 26.440787, -19.75523 ], [ 26.433822, -19.752234 ], [ 26.411928, -19.731081 ], [ 26.404366, -19.708647 ], [ 26.384824, -19.675762 ], [ 26.348771, -19.67889 ], [ 26.321656, -19.664928 ], [ 26.320235, -19.660049 ], [ 26.323767, -19.651148 ], [ 26.344801, -19.624486 ], [ 26.345722, -19.619341 ], [ 26.307498, -19.582919 ], [ 26.29446, -19.580065 ], [ 26.261924, -19.587578 ], [ 26.24299, -19.588797 ], [ 26.228791, -19.582957 ], [ 26.216134, -19.573438 ], [ 26.207393, -19.566863 ], [ 26.184927, -19.562095 ], [ 26.165698, -19.545341 ], [ 26.145424, -19.497497 ], [ 26.136637, -19.442309 ], [ 26.115407, -19.423706 ], [ 26.113268, -19.392974 ], [ 26.103082, -19.364196 ], [ 26.090019, -19.341999 ], [ 26.077406, -19.304888 ], [ 26.069163, -19.289277 ], [ 26.070012, -19.271156 ], [ 26.058454, -19.262753 ], [ 26.038877, -19.236888 ], [ 26.042473, -19.219087 ], [ 26.026725, -19.191341 ], [ 26.003975, -19.161221 ], [ 25.97696, -19.137432 ], [ 25.962679, -19.107015 ], [ 25.958397, -19.091348 ], [ 25.960389, -19.072903 ], [ 25.968519, -19.059153 ], [ 25.99092, -19.039849 ], [ 25.993364, -19.030813 ], [ 25.985898, -18.992594 ], [ 25.967747, -18.959819 ], [ 25.962516, -18.944222 ], [ 25.940994, -18.911131 ], [ 25.918396, -18.904578 ], [ 25.894129, -18.888422 ], [ 25.867093, -18.86551 ], [ 25.822723, -18.844435 ], [ 25.820561, -18.843408 ], [ 25.820563, -18.817529 ], [ 25.801159, -18.788563 ], [ 25.790515, -18.757922 ], [ 25.792707, -18.742397 ], [ 25.78684, -18.716136 ], [ 25.791079, -18.698004 ], [ 25.796308, -18.689833 ], [ 25.785183, -18.664057 ], [ 25.78576, -18.641471 ], [ 25.783378, -18.634594 ], [ 25.74871, -18.604865 ], [ 25.730074, -18.599518 ], [ 25.712437, -18.598454 ], [ 25.697902, -18.58605 ], [ 25.673748, -18.556452 ], [ 25.644143, -18.500801 ], [ 25.636008, -18.49528 ], [ 25.607982, -18.48643 ], [ 25.572327, -18.439485 ], [ 25.561134, -18.424745 ], [ 25.522681, -18.385768 ], [ 25.491637, -18.299372 ], [ 25.467261, -18.258932 ], [ 25.460816, -18.234189 ], [ 25.447269, -18.215078 ], [ 25.419417, -18.157251 ], [ 25.395185, -18.122771 ], [ 25.393058, -18.121991 ], [ 25.36777, -18.112727 ], [ 25.358594, -18.09238 ], [ 25.323148, -18.078293 ], [ 25.292373, -18.029997 ], [ 25.28197, -18.010151 ], [ 25.267973, -17.957241 ], [ 25.245709, -17.932 ], [ 25.237247, -17.915876 ], [ 25.24048, -17.899946 ], [ 25.237199, -17.888633 ], [ 25.238757, -17.872846 ], [ 25.254964, -17.834875 ], [ 25.262654, -17.801573 ], [ 25.27033, -17.79891 ], [ 25.301822, -17.823802 ], [ 25.312666, -17.825726 ], [ 25.34164, -17.841566 ], [ 25.365794, -17.840151 ], [ 25.382027, -17.854426 ], [ 25.393058, -17.852831 ], [ 25.426407, -17.848007 ], [ 25.440697, -17.853541 ], [ 25.457854, -17.847678 ], [ 25.481738, -17.851913 ], [ 25.514709, -17.870567 ], [ 25.531173, -17.866385 ], [ 25.544319, -17.849102 ], [ 25.554137, -17.84288 ], [ 25.562861, -17.843142 ], [ 25.572327, -17.847101 ], [ 25.584693, -17.847554 ], [ 25.595925, -17.852058 ], [ 25.609847, -17.846188 ], [ 25.628201, -17.846243 ], [ 25.654828, -17.835111 ], [ 25.673516, -17.818555 ], [ 25.699305, -17.816487 ], [ 25.703927, -17.821881 ], [ 25.707999, -17.838353 ], [ 25.720571, -17.839108 ], [ 25.748434, -17.850906 ], [ 25.767705, -17.85443 ], [ 25.793044, -17.874305 ], [ 25.802852, -17.886872 ], [ 25.829778, -17.889926 ], [ 25.841056, -17.894583 ], [ 25.858114, -17.929402 ], [ 25.850356, -17.93997 ], [ 25.849243, -17.94576 ], [ 25.861877, -17.954788 ], [ 25.861606, -17.96561 ], [ 25.866974, -17.975322 ], [ 25.876434, -17.977844 ], [ 25.885104, -17.984395 ], [ 25.907707, -17.989565 ], [ 25.918418, -17.999547 ], [ 25.93945, -17.997082 ], [ 25.960734, -17.999986 ], [ 25.972991, -18.005201 ], [ 25.9868, -18.000613 ], [ 25.99458, -17.987658 ], [ 26.013927, -17.979115 ], [ 26.033076, -17.982352 ], [ 26.04838, -17.975836 ], [ 26.060873, -17.980686 ], [ 26.07384, -17.979807 ], [ 26.090163, -17.983054 ], [ 26.103434, -17.955508 ], [ 26.096101, -17.942914 ], [ 26.101932, -17.932986 ], [ 26.1275, -17.925366 ], [ 26.145919, -17.916013 ], [ 26.171248, -17.91219 ], [ 26.207974, -17.89333 ], [ 26.216134, -17.891511 ], [ 26.223874, -17.889786 ], [ 26.226154, -17.902984 ], [ 26.250276, -17.921284 ], [ 26.288875, -17.920252 ], [ 26.309885, -17.936893 ], [ 26.320163, -17.934782 ], [ 26.333649, -17.936346 ], [ 26.349179, -17.932679 ], [ 26.380453, -17.941999 ], [ 26.407725, -17.940272 ], [ 26.424755, -17.952051 ], [ 26.439522, -17.956274 ], [ 26.456157, -17.967252 ], [ 26.476074, -17.970306 ], [ 26.485892, -17.9774 ], [ 26.50103, -17.980149 ], [ 26.51518, -17.987396 ], [ 26.562056, -17.991432 ], [ 26.570237, -17.998593 ], [ 26.578746, -18.019626 ], [ 26.596584, -18.030439 ], [ 26.605013, -18.053517 ], [ 26.621688, -18.060913 ], [ 26.651479, -18.062031 ], [ 26.676184, -18.074691 ], [ 26.688643, -18.078244 ], [ 26.731282, -18.037748 ], [ 26.744252, -18.029645 ], [ 26.772375, -18.022103 ], [ 26.795695, -18.025729 ], [ 26.823258, -18.012027 ], [ 26.827821, -17.994374 ], [ 26.832952, -17.98866 ], [ 26.860216, -17.993021 ], [ 26.877943, -17.986725 ], [ 26.894491, -17.987565 ], [ 26.955989, -17.966905 ], [ 26.981495, -17.967259 ], [ 27.009562, -17.954806 ], [ 27.038748, -17.962414 ], [ 27.088108, -17.898426 ], [ 27.14747, -17.849768 ], [ 27.149178, -17.836598 ], [ 27.144548, -17.812551 ], [ 27.148368, -17.800768 ], [ 27.215676, -17.72505 ], [ 27.311493, -17.599548 ], [ 27.54456, -17.423152 ], [ 27.608553, -17.352094 ], [ 27.617554, -17.336073 ], [ 27.627694, -17.258367 ], [ 27.634313, -17.240655 ], [ 27.83059, -16.962744 ], [ 28.134535, -16.82465 ], [ 28.272184, -16.716954 ], [ 28.639424, -16.572363 ], [ 28.732198, -16.555113 ], [ 28.748897, -16.538215 ], [ 28.762521, -16.53117 ], [ 28.781294, -16.514349 ], [ 28.803195, -16.501684 ], [ 28.818735, -16.480042 ], [ 28.820099, -16.440634 ], [ 28.83901, -16.413108 ], [ 28.847812, -16.37807 ], [ 28.841059, -16.361321 ], [ 28.841936, -16.336975 ], [ 28.826825, -16.328226 ], [ 28.822529, -16.31983 ], [ 28.829168, -16.292591 ], [ 28.853298, -16.263367 ], [ 28.857799, -16.252294 ], [ 28.854853, -16.243425 ], [ 28.838926, -16.235193 ], [ 28.83548, -16.223236 ], [ 28.841009, -16.195095 ], [ 28.841823, -16.164693 ], [ 28.861994, -16.122627 ], [ 28.859255, -16.11342 ], [ 28.850678, -16.104866 ], [ 28.848332, -16.098472 ], [ 28.849725, -16.084382 ], [ 28.856844, -16.070973 ], [ 28.846776, -16.060483 ], [ 28.84529, -16.054679 ], [ 28.861858, -16.035698 ], [ 28.882382, -16.004596 ], [ 28.914317, -15.94629 ], [ 28.935799, -15.939669 ], [ 28.987105, -15.938246 ], [ 29.013234, -15.941146 ], [ 29.020555, -15.939093 ], [ 29.033506, -15.927383 ], [ 29.044831, -15.905214 ], [ 29.065579, -15.879942 ], [ 29.191894, -15.793373 ], [ 29.217747, -15.768721 ], [ 29.227417, -15.764325 ], [ 29.245267, -15.763655 ], [ 29.266561, -15.757879 ], [ 29.305673, -15.73556 ], [ 29.330818, -15.728284 ], [ 29.347525, -15.71621 ], [ 29.359556, -15.71116 ], [ 29.397047, -15.711774 ], [ 29.420198, -15.694079 ], [ 29.430725, -15.690116 ], [ 29.502144, -15.684003 ], [ 29.515021, -15.676845 ], [ 29.542606, -15.648097 ], [ 29.559336, -15.64218 ], [ 29.578868, -15.643049 ], [ 29.609867, -15.660233 ], [ 29.624844, -15.6608 ], [ 29.630707, -15.661022 ], [ 29.715773, -15.641668 ], [ 29.77801, -15.614761 ], [ 29.797275, -15.610581 ], [ 29.823553, -15.609007 ], [ 29.874342, -15.612147 ], [ 29.903576, -15.622175 ], [ 29.931606, -15.62298 ], [ 29.968274, -15.641819 ], [ 30.030999, -15.63384 ], [ 30.058958, -15.627523 ], [ 30.097234, -15.626272 ], [ 30.126441, -15.620037 ], [ 30.163516, -15.620462 ], [ 30.185482, -15.631794 ], [ 30.201246, -15.647554 ], [ 30.207313, -15.657914 ], [ 30.214151, -15.660603 ], [ 30.226359, -15.65515 ], [ 30.260268, -15.627251 ], [ 30.286842, -15.645283 ], [ 30.31848, -15.645171 ], [ 30.357336, -15.6498 ], [ 30.389845, -15.636855 ], [ 30.418259, -15.617569 ] ] ] ] } }
]
}
